{
"type": "FeatureCollection",
"name": "AE",
"crs": { "type": "name", "properties": { "name": "urn:ogc:def:crs:OGC:1.3:CRS84" } },
"features": [
{ "type": "Feature", "properties": { "geogrid_id": "822831651054533430", "seqnum": 21504.0, "lat_c": 22.831650660861229, "lon_c": 54.53343042164871, "res": 8.0, "count_Molluscs": 0, "count_Insects": 5, "count_Mammals": 0, "count_Basidiomycota": 0, "count_Flowering Plants": 3, "count_Reptiles": 3, "count_Birds": 6, "count_Arachnids": 1, "count_Amphibians": 0, "count_Sac Fungi": 0, "count_Ferns": 0, "count_Gymnosperms": 0, "unique_species_count": 18.0, "countryCode": "AE" }, "geometry": { "type": "MultiPolygon", "coordinates": [ [ [ [ 54.71459838654232, 23.262699382135121 ], [ 55.06181853958288, 22.834618585738337 ], [ 54.879894812466624, 22.402882180122081 ], [ 54.353527179219171, 22.400494924849379 ], [ 54.005742206506902, 22.832048121402899 ], [ 54.184824273888829, 23.262502851353666 ], [ 54.71459838654232, 23.262699382135121 ] ] ] ] } },
{ "type": "Feature", "properties": { "geogrid_id": "822845604052953648", "seqnum": 21341.0, "lat_c": 22.845603532356584, "lon_c": 52.953647834137286, "res": 8.0, "count_Molluscs": 0, "count_Insects": 1, "count_Mammals": 0, "count_Basidiomycota": 0, "count_Flowering Plants": 0, "count_Reptiles": 0, "count_Birds": 0, "count_Arachnids": 0, "count_Amphibians": 0, "count_Sac Fungi": 0, "count_Ferns": 0, "count_Gymnosperms": 0, "unique_species_count": 1.0, "countryCode": "AE" }, "geometry": { "type": "MultiPolygon", "coordinates": [ [ [ [ 53.12849559152567, 23.275089353812842 ], [ 53.479034807547627, 22.836455418879133 ], [ 53.303255864702692, 22.406323534992524 ], [ 52.779949085519576, 22.415858591519818 ], [ 52.429991288021903, 22.860322728370786 ], [ 52.602725680969733, 23.289508072699437 ], [ 53.12849559152567, 23.275089353812842 ] ] ] ] } },
{ "type": "Feature", "properties": { "geogrid_id": "823266378053656005", "seqnum": 21423.0, "lat_c": 23.266378129544822, "lon_c": 53.656005292260346, "res": 8.0, "count_Molluscs": 0, "count_Insects": 3, "count_Mammals": 1, "count_Basidiomycota": 0, "count_Flowering Plants": 2, "count_Reptiles": 0, "count_Birds": 9, "count_Arachnids": 0, "count_Amphibians": 0, "count_Sac Fungi": 0, "count_Ferns": 0, "count_Gymnosperms": 0, "unique_species_count": 15.0, "countryCode": "AE" }, "geometry": { "type": "MultiPolygon", "coordinates": [ [ [ [ 53.834203222615272, 23.696112053030735 ], [ 54.184824273888829, 23.262502851353666 ], [ 54.005742206506902, 22.832048121402899 ], [ 53.479034807547627, 22.836455418879133 ], [ 53.12849559152567, 23.275089353812842 ], [ 53.304527626404429, 23.704331821087184 ], [ 53.834203222615272, 23.696112053030735 ] ] ] ] } },
{ "type": "Feature", "properties": { "geogrid_id": "823310630052079218", "seqnum": 21260.0, "lat_c": 23.310629694157949, "lon_c": 52.079218245321421, "res": 8.0, "count_Molluscs": 0, "count_Insects": 0, "count_Mammals": 0, "count_Basidiomycota": 0, "count_Flowering Plants": 2, "count_Reptiles": 0, "count_Birds": 0, "count_Arachnids": 0, "count_Amphibians": 0, "count_Sac Fungi": 0, "count_Ferns": 0, "count_Gymnosperms": 0, "unique_species_count": 2.0, "countryCode": "AE" }, "geometry": { "type": "MultiPolygon", "coordinates": [ [ [ [ 52.250967775308609, 23.739366659033983 ], [ 52.602725680969733, 23.289508072699437 ], [ 52.429991288021903, 22.860322728370786 ], [ 51.90855960703103, 22.881557224253221 ], [ 51.558607253635763, 23.339592428636657 ], [ 51.728312409257306, 23.76843985022894 ], [ 52.250967775308609, 23.739366659033983 ] ] ] ] } },
{ "type": "Feature", "properties": { "geogrid_id": "823692825054365173", "seqnum": 21505.0, "lat_c": 23.692824518424317, "lon_c": 54.365172577481324, "res": 8.0, "count_Molluscs": 0, "count_Insects": 6, "count_Mammals": 0, "count_Basidiomycota": 0, "count_Flowering Plants": 5, "count_Reptiles": 4, "count_Birds": 3, "count_Arachnids": 1, "count_Amphibians": 0, "count_Sac Fungi": 1, "count_Ferns": 0, "count_Gymnosperms": 0, "unique_species_count": 20.0, "countryCode": "AE" }, "geometry": { "type": "MultiPolygon", "coordinates": [ [ [ [ 54.546823679041076, 24.123040449424465 ], [ 54.897066363793677, 23.693669745293676 ], [ 54.71459838654232, 23.262699382135121 ], [ 54.184824273888829, 23.262502851353666 ], [ 53.834203222615272, 23.696112053030735 ], [ 54.013665353565514, 24.125679738862793 ], [ 54.546823679041076, 24.123040449424465 ] ] ] ] } },
{ "type": "Feature", "properties": { "geogrid_id": "823705049055962479", "seqnum": 21668.0, "lat_c": 23.705049406552199, "lon_c": 55.962479317083933, "res": 8.0, "count_Molluscs": 0, "count_Insects": 81, "count_Mammals": 4, "count_Basidiomycota": 0, "count_Flowering Plants": 79, "count_Reptiles": 12, "count_Birds": 109, "count_Arachnids": 7, "count_Amphibians": 0, "count_Sac Fungi": 0, "count_Ferns": 0, "count_Gymnosperms": 0, "unique_species_count": 292.0, "countryCode": "AE" }, "geometry": { "type": "MultiPolygon", "coordinates": [ [ [ [ 56.15044174636963, 24.137454752141629 ], [ 56.495555159181094, 23.714434561366325 ], [ 56.30699596400769, 23.281403903225733 ], [ 55.775900932851727, 23.272704878856949 ], [ 55.429583547368459, 23.697948763020992 ], [ 55.615493025628254, 24.129609846549663 ], [ 56.15044174636963, 24.137454752141629 ] ] ] ] } },
{ "type": "Feature", "properties": { "geogrid_id": "823718400052776598", "seqnum": 21342.0, "lat_c": 23.718399734713351, "lon_c": 52.776598093579281, "res": 8.0, "count_Molluscs": 0, "count_Insects": 7, "count_Mammals": 0, "count_Basidiomycota": 0, "count_Flowering Plants": 4, "count_Reptiles": 7, "count_Birds": 7, "count_Arachnids": 0, "count_Amphibians": 0, "count_Sac Fungi": 0, "count_Ferns": 0, "count_Gymnosperms": 0, "unique_species_count": 25.0, "countryCode": "AE" }, "geometry": { "type": "MultiPolygon", "coordinates": [ [ [ [ 52.951643521931494, 24.147009943487866 ], [ 53.304527626404429, 23.704331821087184 ], [ 53.12849559152567, 23.275089353812842 ], [ 52.602725680969733, 23.289508072699437 ], [ 52.250967775308609, 23.739366659033983 ], [ 52.423841502183805, 24.167775573364224 ], [ 52.951643521931494, 24.147009943487866 ] ] ] ] } },
{ "type": "Feature", "properties": { "geogrid_id": "824124593055080870", "seqnum": 21587.0, "lat_c": 24.124593334542311, "lon_c": 55.080870007377079, "res": 8.0, "count_Molluscs": 0, "count_Insects": 51, "count_Mammals": 7, "count_Basidiomycota": 1, "count_Flowering Plants": 48, "count_Reptiles": 15, "count_Birds": 62, "count_Arachnids": 2, "count_Amphibians": 0, "count_Sac Fungi": 1, "count_Ferns": 0, "count_Gymnosperms": 0, "unique_species_count": 187.0, "countryCode": "AE" }, "geometry": { "type": "MultiPolygon", "coordinates": [ [ [ [ 55.266045212338575, 24.555505097785581 ], [ 55.615493025628254, 24.129609846549663 ], [ 55.429583547368459, 23.697948763020992 ], [ 54.897066363793677, 23.693669745293676 ], [ 54.546823679041076, 24.123040449424465 ], [ 54.729814743267198, 24.553180971414783 ], [ 55.266045212338575, 24.555505097785581 ] ] ] ] } },
{ "type": "Feature", "properties": { "geogrid_id": "824133348053481780", "seqnum": 21424.0, "lat_c": 24.133348353239086, "lon_c": 53.481780151110428, "res": 8.0, "count_Molluscs": 0, "count_Insects": 3, "count_Mammals": 1, "count_Basidiomycota": 0, "count_Flowering Plants": 8, "count_Reptiles": 1, "count_Birds": 10, "count_Arachnids": 0, "count_Amphibians": 0, "count_Sac Fungi": 0, "count_Ferns": 0, "count_Gymnosperms": 0, "unique_species_count": 23.0, "countryCode": "AE" }, "geometry": { "type": "MultiPolygon", "coordinates": [ [ [ [ 53.660290370627415, 24.562158318626988 ], [ 54.013665353565514, 24.125679738862793 ], [ 53.834203222615272, 23.696112053030735 ], [ 53.304527626404429, 23.704331821087184 ], [ 52.951643521931494, 24.147009943487866 ], [ 53.127897954240488, 24.575352230554046 ], [ 53.660290370627415, 24.562158318626988 ] ] ] ] } },
{ "type": "Feature", "properties": { "geogrid_id": "824196928051899096", "seqnum": 21261.0, "lat_c": 24.196928079170803, "lon_c": 51.899095543027578, "res": 8.0, "count_Molluscs": 0, "count_Insects": 0, "count_Mammals": 0, "count_Basidiomycota": 0, "count_Flowering Plants": 4, "count_Reptiles": 2, "count_Birds": 18, "count_Arachnids": 0, "count_Amphibians": 0, "count_Sac Fungi": 0, "count_Ferns": 0, "count_Gymnosperms": 0, "unique_species_count": 24.0, "countryCode": "AE" }, "geometry": { "type": "MultiPolygon", "coordinates": [ [ [ [ 52.070988902079677, 24.62506104743035 ], [ 52.423841502183805, 24.167775573364224 ], [ 52.250967775308609, 23.739366659033983 ], [ 51.728312409257306, 23.76843985022894 ], [ 51.378292924750568, 24.235950315575717 ], [ 51.548200614893844, 24.664529231903305 ], [ 52.070988902079677, 24.62506104743035 ] ] ] ] } },
{ "type": "Feature", "properties": { "geogrid_id": "824555106054194429", "seqnum": 21506.0, "lat_c": 24.555106262114556, "lon_c": 54.194429300162263, "res": 8.0, "count_Molluscs": 17, "count_Insects": 121, "count_Mammals": 12, "count_Basidiomycota": 3, "count_Flowering Plants": 126, "count_Reptiles": 14, "count_Birds": 134, "count_Arachnids": 4, "count_Amphibians": 0, "count_Sac Fungi": 0, "count_Ferns": 0, "count_Gymnosperms": 0, "unique_species_count": 431.0, "countryCode": "AE" }, "geometry": { "type": "MultiPolygon", "coordinates": [ [ [ [ 54.376533532010434, 24.984419656076504 ], [ 54.729814743267198, 24.553180971414783 ], [ 54.546823679041076, 24.123040449424465 ], [ 54.013665353565514, 24.125679738862793 ], [ 53.660290370627415, 24.562158318626988 ], [ 53.840096530189541, 24.99078339134773 ], [ 54.376533532010434, 24.984419656076504 ] ] ] ] } },
{ "type": "Feature", "properties": { "geogrid_id": "824561319055802799", "seqnum": 21669.0, "lat_c": 24.561318868245554, "lon_c": 55.802799085730982, "res": 8.0, "count_Molluscs": 0, "count_Insects": 190, "count_Mammals": 15, "count_Basidiomycota": 3, "count_Flowering Plants": 157, "count_Reptiles": 25, "count_Birds": 129, "count_Arachnids": 8, "count_Amphibians": 1, "count_Sac Fungi": 0, "count_Ferns": 0, "count_Gymnosperms": 0, "unique_species_count": 528.0, "countryCode": "AE" }, "geometry": { "type": "MultiPolygon", "coordinates": [ [ [ [ 55.991535152351567, 24.993118826723297 ], [ 56.339819513338703, 24.56996296999035 ], [ 56.15044174636963, 24.137454752141629 ], [ 55.615493025628254, 24.129609846549663 ], [ 55.266045212338575, 24.555505097785581 ], [ 55.452627942191178, 24.986443858073869 ], [ 55.991535152351567, 24.993118826723297 ] ] ] ] } },
{ "type": "Feature", "properties": { "geogrid_id": "824595865052597874", "seqnum": 21343.0, "lat_c": 24.595864541408865, "lon_c": 52.597873604565713, "res": 8.0, "count_Molluscs": 1, "count_Insects": 8, "count_Mammals": 5, "count_Basidiomycota": 0, "count_Flowering Plants": 4, "count_Reptiles": 7, "count_Birds": 33, "count_Arachnids": 0, "count_Amphibians": 0, "count_Sac Fungi": 0, "count_Ferns": 0, "count_Gymnosperms": 0, "unique_species_count": 58.0, "countryCode": "AE" }, "geometry": { "type": "MultiPolygon", "coordinates": [ [ [ [ 52.773099202452507, 25.023642463592601 ], [ 53.127897954240488, 24.575352230554046 ], [ 52.951643521931494, 24.147009943487866 ], [ 52.423841502183805, 24.167775573364224 ], [ 52.070988902079677, 24.62506104743035 ], [ 52.244025469509502, 25.052842839945889 ], [ 52.773099202452507, 25.023642463592601 ] ] ] ] } },
{ "type": "Feature", "properties": { "geogrid_id": "824983280054914183", "seqnum": 21588.0, "lat_c": 24.983279895551355, "lon_c": 54.914183456527731, "res": 8.0, "count_Molluscs": 138, "count_Insects": 171, "count_Mammals": 17, "count_Basidiomycota": 1, "count_Flowering Plants": 200, "count_Reptiles": 31, "count_Birds": 205, "count_Arachnids": 18, "count_Amphibians": 1, "count_Sac Fungi": 1, "count_Ferns": 1, "count_Gymnosperms": 0, "unique_species_count": 784.0, "countryCode": "AE" }, "geometry": { "type": "MultiPolygon", "coordinates": [ [ [ [ 55.099967902423458, 25.413375092220765 ], [ 55.452627942191178, 24.986443858073869 ], [ 55.266045212338575, 24.555505097785581 ], [ 54.729814743267198, 24.553180971414783 ], [ 54.376533532010434, 24.984419656076504 ], [ 54.560017346198194, 25.413651431816955 ], [ 55.099967902423458, 25.413375092220765 ] ] ] ] } },
{ "type": "Feature", "properties": { "geogrid_id": "825002620056530643", "seqnum": 21751.0, "lat_c": 25.002620400254685, "lon_c": 56.530642834363583, "res": 8.0, "count_Molluscs": 64, "count_Insects": 168, "count_Mammals": 16, "count_Basidiomycota": 1, "count_Flowering Plants": 240, "count_Reptiles": 27, "count_Birds": 161, "count_Arachnids": 20, "count_Amphibians": 1, "count_Sac Fungi": 0, "count_Ferns": 2, "count_Gymnosperms": 1, "unique_species_count": 701.0, "countryCode": "AE" }, "geometry": { "type": "MultiPolygon", "coordinates": [ [ [ [ 56.722940360603964, 25.435478256938264 ], [ 57.069744710554559, 25.014356305958525 ], [ 56.876902188810512, 24.580864037164705 ], [ 56.339819513338703, 24.56996296999035 ], [ 55.991535152351567, 24.993118826723297 ], [ 56.181733812728794, 25.425057462642116 ], [ 56.722940360603964, 25.435478256938264 ] ] ] ] } },
{ "type": "Feature", "properties": { "geogrid_id": "825003442053305398", "seqnum": 21425.0, "lat_c": 25.003441687592389, "lon_c": 53.305398443384902, "res": 8.0, "count_Molluscs": 0, "count_Insects": 0, "count_Mammals": 2, "count_Basidiomycota": 0, "count_Flowering Plants": 0, "count_Reptiles": 1, "count_Birds": 2, "count_Arachnids": 0, "count_Amphibians": 0, "count_Sac Fungi": 0, "count_Ferns": 0, "count_Gymnosperms": 0, "unique_species_count": 5.0, "countryCode": "AE" }, "geometry": { "type": "MultiPolygon", "coordinates": [ [ [ [ 53.484183186183564, 25.431295282381701 ], [ 53.840096530189541, 24.99078339134773 ], [ 53.660290370627415, 24.562158318626988 ], [ 53.127897954240488, 24.575352230554046 ], [ 52.773099202452507, 25.023642463592601 ], [ 52.949554434717015, 25.45111921804784 ], [ 53.484183186183564, 25.431295282381701 ] ] ] ] } },
{ "type": "Feature", "properties": { "geogrid_id": "825417453055640654", "seqnum": 21670.0, "lat_c": 25.417452915403494, "lon_c": 55.640653989546983, "res": 8.0, "count_Molluscs": 21, "count_Insects": 264, "count_Mammals": 23, "count_Basidiomycota": 5, "count_Flowering Plants": 315, "count_Reptiles": 45, "count_Birds": 249, "count_Arachnids": 22, "count_Amphibians": 1, "count_Sac Fungi": 1, "count_Ferns": 1, "count_Gymnosperms": 1, "unique_species_count": 948.0, "countryCode": "AE" }, "geometry": { "type": "MultiPolygon", "coordinates": [ [ [ [ 55.830158646496216, 25.848580757227008 ], [ 56.181733812728794, 25.425057462642116 ], [ 55.991535152351567, 24.993118826723297 ], [ 55.452627942191178, 24.986443858073869 ], [ 55.099967902423458, 25.413375092220765 ], [ 55.287206377317936, 25.843509177603039 ], [ 55.830158646496216, 25.848580757227008 ] ] ] ] } },
{ "type": "Feature", "properties": { "geogrid_id": "825419248054021238", "seqnum": 21507.0, "lat_c": 25.419247983674349, "lon_c": 54.021237958766314, "res": 8.0, "count_Molluscs": 0, "count_Insects": 0, "count_Mammals": 0, "count_Basidiomycota": 0, "count_Flowering Plants": 0, "count_Reptiles": 1, "count_Birds": 0, "count_Arachnids": 0, "count_Amphibians": 0, "count_Sac Fungi": 0, "count_Ferns": 0, "count_Gymnosperms": 0, "unique_species_count": 1.0, "countryCode": "AE" }, "geometry": { "type": "MultiPolygon", "coordinates": [ [ [ [ 54.203755104183294, 25.847579773804522 ], [ 54.560017346198194, 25.413651431816955 ], [ 54.376533532010434, 24.984419656076504 ], [ 53.840096530189541, 24.99078339134773 ], [ 53.484183186183564, 25.431295282381701 ], [ 53.664291609509263, 25.858932248768241 ], [ 54.203755104183294, 25.847579773804522 ] ] ] ] } },
{ "type": "Feature", "properties": { "geogrid_id": "825480278052418239", "seqnum": 21344.0, "lat_c": 25.48027775158986, "lon_c": 52.418239011940749, "res": 8.0, "count_Molluscs": 0, "count_Insects": 0, "count_Mammals": 1, "count_Basidiomycota": 0, "count_Flowering Plants": 0, "count_Reptiles": 0, "count_Birds": 0, "count_Arachnids": 0, "count_Amphibians": 0, "count_Sac Fungi": 0, "count_Ferns": 0, "count_Gymnosperms": 0, "unique_species_count": 1.0, "countryCode": "AE" }, "geometry": { "type": "MultiPolygon", "coordinates": [ [ [ [ 52.593664133694773, 25.907370359567803 ], [ 52.949554434717015, 25.45111921804784 ], [ 52.773099202452507, 25.023642463592601 ], [ 52.244025469509502, 25.052842839945889 ], [ 51.89135784128969, 25.520604360497369 ], [ 52.064672619974559, 25.948104469466596 ], [ 52.593664133694773, 25.907370359567803 ] ] ] ] } },
{ "type": "Feature", "properties": { "geogrid_id": "825842837054744921", "seqnum": 21589.0, "lat_c": 25.842837205270747, "lon_c": 54.744920808495003, "res": 8.0, "count_Molluscs": 0, "count_Insects": 0, "count_Mammals": 0, "count_Basidiomycota": 0, "count_Flowering Plants": 0, "count_Reptiles": 1, "count_Birds": 0, "count_Arachnids": 0, "count_Amphibians": 0, "count_Sac Fungi": 0, "count_Ferns": 0, "count_Gymnosperms": 0, "unique_species_count": 1.0, "countryCode": "AE" }, "geometry": { "type": "MultiPolygon", "coordinates": [ [ [ [ 54.931284647998808, 26.272017458161699 ], [ 55.287206377317936, 25.843509177603039 ], [ 55.099967902423458, 25.413375092220765 ], [ 54.560017346198194, 25.413651431816955 ], [ 54.203755104183294, 25.847579773804522 ], [ 54.387689553245558, 26.275810353976834 ], [ 54.931284647998808, 26.272017458161699 ] ] ] ] } },
{ "type": "Feature", "properties": { "geogrid_id": "825857188056373426", "seqnum": 21752.0, "lat_c": 25.85718796429429, "lon_c": 56.373426333403522, "res": 8.0, "count_Molluscs": 62, "count_Insects": 101, "count_Mammals": 9, "count_Basidiomycota": 1, "count_Flowering Plants": 142, "count_Reptiles": 25, "count_Birds": 210, "count_Arachnids": 12, "count_Amphibians": 1, "count_Sac Fungi": 0, "count_Ferns": 2, "count_Gymnosperms": 0, "unique_species_count": 565.0, "countryCode": "AE" }, "geometry": { "type": "MultiPolygon", "coordinates": [ [ [ [ 56.566642016893361, 26.289569793324699 ], [ 56.916738541442967, 25.868593306752373 ], [ 56.722940360603964, 25.435478256938264 ], [ 56.181733812728794, 25.425057462642116 ], [ 55.830158646496216, 25.848580757227008 ], [ 56.021176252363539, 26.279881900142481 ], [ 56.566642016893361, 26.289569793324699 ] ] ] ] } },
{ "type": "Feature", "properties": { "geogrid_id": "825878306053127277", "seqnum": 21426.0, "lat_c": 25.878305887413941, "lon_c": 53.127276548132102, "res": 8.0, "count_Molluscs": 0, "count_Insects": 0, "count_Mammals": 0, "count_Basidiomycota": 0, "count_Flowering Plants": 0, "count_Reptiles": 1, "count_Birds": 0, "count_Arachnids": 0, "count_Amphibians": 0, "count_Sac Fungi": 0, "count_Ferns": 0, "count_Gymnosperms": 0, "unique_species_count": 1.0, "countryCode": "AE" }, "geometry": { "type": "MultiPolygon", "coordinates": [ [ [ [ 53.306304000363035, 26.305215044430998 ], [ 53.664291609509263, 25.858932248768241 ], [ 53.484183186183564, 25.431295282381701 ], [ 52.949554434717015, 25.45111921804784 ], [ 52.593664133694773, 25.907370359567803 ], [ 52.770336339321709, 26.334125616171669 ], [ 53.306304000363035, 26.305215044430998 ] ] ] ] } },
{ "type": "Feature", "properties": { "geogrid_id": "826273730055475937", "seqnum": 21671.0, "lat_c": 26.273730336844832, "lon_c": 55.475937122099069, "res": 8.0, "count_Molluscs": 0, "count_Insects": 0, "count_Mammals": 1, "count_Basidiomycota": 0, "count_Flowering Plants": 0, "count_Reptiles": 1, "count_Birds": 0, "count_Arachnids": 0, "count_Amphibians": 0, "count_Sac Fungi": 0, "count_Ferns": 0, "count_Gymnosperms": 0, "unique_species_count": 2.0, "countryCode": "AE" }, "geometry": { "type": "MultiPolygon", "coordinates": [ [ [ [ 55.666197936524711, 26.704093315455662 ], [ 56.021176252363539, 26.279881900142481 ], [ 55.830158646496216, 25.848580757227008 ], [ 55.287206377317936, 25.843509177603039 ], [ 54.931284647998808, 26.272017458161699 ], [ 55.119150083579953, 26.70123846649679 ], [ 55.666197936524711, 26.704093315455662 ] ] ] ] } }
]
}
