{
"type": "FeatureCollection",
"name": "AF",
"crs": { "type": "name", "properties": { "name": "urn:ogc:def:crs:OGC:1.3:CRS84" } },
"features": [
{ "type": "Feature", "properties": { "geogrid_id": "829985417063172090", "seqnum": 22490.0, "lat_c": 29.985417170115607, "lon_c": 63.172090130088925, "res": 8.0, "count_Insects": 0, "count_Sac Fungi": 0, "count_Basidiomycota": 0, "count_Ferns": 0, "count_Amphibians": 0, "count_Flowering Plants": 0, "count_Gymnosperms": 0, "count_Reptiles": 0, "count_Mammals": 0, "count_Birds": 1, "count_Arachnids": 0, "count_Molluscs": 0, "unique_species_count": 1.0, "countryCode": "AF" }, "geometry": { "type": "MultiPolygon", "coordinates": [ [ [ [ 63.389102289326004, 30.433641103569549 ], [ 63.722289069807616, 30.005266089446568 ], [ 63.504353455776254, 29.558084721943512 ], [ 62.955151510888619, 29.538538879517578 ], [ 62.620912862728439, 29.964098307425466 ], [ 62.837026352742313, 30.411940413575195 ], [ 63.389102289326004, 30.433641103569549 ] ] ] ] } },
{ "type": "Feature", "properties": { "geogrid_id": "830453752063940199", "seqnum": 22572.0, "lat_c": 30.453752367317602, "lon_c": 63.940198944288539, "res": 8.0, "count_Insects": 0, "count_Sac Fungi": 0, "count_Basidiomycota": 0, "count_Ferns": 0, "count_Amphibians": 0, "count_Flowering Plants": 0, "count_Gymnosperms": 0, "count_Reptiles": 0, "count_Mammals": 1, "count_Birds": 0, "count_Arachnids": 0, "count_Molluscs": 0, "unique_species_count": 1.0, "countryCode": "AF" }, "geometry": { "type": "MultiPolygon", "coordinates": [ [ [ [ 64.157704495708373, 30.903637505047477 ], [ 64.490386656707045, 30.472155587587984 ], [ 64.271572309325919, 30.023516200908269 ], [ 63.722289069807616, 30.005266089446568 ], [ 63.389102289326004, 30.433641103569549 ], [ 63.605815738665456, 30.883314435292885 ], [ 64.157704495708373, 30.903637505047477 ] ] ] ] } },
{ "type": "Feature", "properties": { "geogrid_id": "830922142064708704", "seqnum": 22654.0, "lat_c": 30.922141994418826, "lon_c": 64.708704119283425, "res": 8.0, "count_Insects": 0, "count_Sac Fungi": 0, "count_Basidiomycota": 0, "count_Ferns": 0, "count_Amphibians": 0, "count_Flowering Plants": 2, "count_Gymnosperms": 0, "count_Reptiles": 3, "count_Mammals": 0, "count_Birds": 0, "count_Arachnids": 0, "count_Molluscs": 0, "unique_species_count": 5.0, "countryCode": "AF" }, "geometry": { "type": "MultiPolygon", "coordinates": [ [ [ [ 64.92605682840852, 31.373557620065277 ], [ 65.258885162748186, 30.938738616567278 ], [ 65.039730679916588, 30.488751392658504 ], [ 64.490386656707045, 30.472155587587984 ], [ 64.157704495708373, 30.903637505047477 ], [ 64.374339196800094, 31.355013463095474 ], [ 64.92605682840852, 31.373557620065277 ] ] ] ] } },
{ "type": "Feature", "properties": { "geogrid_id": "830965921066357040", "seqnum": 22817.0, "lat_c": 30.965921179384814, "lon_c": 66.357040479268008, "res": 8.0, "count_Insects": 0, "count_Sac Fungi": 0, "count_Basidiomycota": 0, "count_Ferns": 0, "count_Amphibians": 0, "count_Flowering Plants": 0, "count_Gymnosperms": 0, "count_Reptiles": 1, "count_Mammals": 5, "count_Birds": 1, "count_Arachnids": 0, "count_Molluscs": 0, "unique_species_count": 7.0, "countryCode": "AF" }, "geometry": { "type": "MultiPolygon", "coordinates": [ [ [ [ 66.576794012310899, 31.416893725630697 ], [ 66.905123537577737, 30.976391036018359 ], [ 66.68327412904685, 30.526919457172976 ], [ 66.136122278442215, 30.516198860482966 ], [ 65.808311474836785, 30.953352641095371 ], [ 66.027221435208759, 31.404557677755324 ], [ 66.576794012310899, 31.416893725630697 ] ] ] ] } },
{ "type": "Feature", "properties": { "geogrid_id": "831262604062158053", "seqnum": 22410.0, "lat_c": 31.262604078138565, "lon_c": 62.158052960447073, "res": 8.0, "count_Insects": 0, "count_Sac Fungi": 0, "count_Basidiomycota": 0, "count_Ferns": 0, "count_Amphibians": 0, "count_Flowering Plants": 0, "count_Gymnosperms": 0, "count_Reptiles": 0, "count_Mammals": 10, "count_Birds": 0, "count_Arachnids": 0, "count_Molluscs": 0, "unique_species_count": 10.0, "countryCode": "AF" }, "geometry": { "type": "MultiPolygon", "coordinates": [ [ [ [ 62.371215565458506, 31.71445418236652 ], [ 62.713721464750648, 31.288206557079764 ], [ 62.499054546339963, 30.837664168884544 ], [ 61.944007682713533, 30.812624560772075 ], [ 61.601143931121264, 31.235600743823024 ], [ 61.813879383364927, 31.686784312101324 ], [ 62.371215565458506, 31.71445418236652 ] ] ] ] } },
{ "type": "Feature", "properties": { "geogrid_id": "831334540063821768", "seqnum": 22573.0, "lat_c": 31.33454012179774, "lon_c": 63.821767795931024, "res": 8.0, "count_Insects": 2, "count_Sac Fungi": 0, "count_Basidiomycota": 0, "count_Ferns": 0, "count_Amphibians": 0, "count_Flowering Plants": 1, "count_Gymnosperms": 0, "count_Reptiles": 2, "count_Mammals": 2, "count_Birds": 0, "count_Arachnids": 0, "count_Molluscs": 0, "unique_species_count": 7.0, "countryCode": "AF" }, "geometry": { "type": "MultiPolygon", "coordinates": [ [ [ [ 64.036383164948575, 31.787416848728913 ], [ 64.374339196800094, 31.355013463095474 ], [ 64.157704495708373, 30.903637505047477 ], [ 63.605815738665456, 30.883314435292885 ], [ 63.26825931143221, 31.31223257725803 ], [ 63.482350650336478, 31.764910408566102 ], [ 64.036383164948575, 31.787416848728913 ] ] ] ] } },
{ "type": "Feature", "properties": { "geogrid_id": "831390094065476995", "seqnum": 22736.0, "lat_c": 31.39009411176669, "lon_c": 65.476995383664374, "res": 8.0, "count_Insects": 21, "count_Sac Fungi": 0, "count_Basidiomycota": 0, "count_Ferns": 0, "count_Amphibians": 2, "count_Flowering Plants": 8, "count_Gymnosperms": 0, "count_Reptiles": 14, "count_Mammals": 14, "count_Birds": 16, "count_Arachnids": 0, "count_Molluscs": 1, "unique_species_count": 76.0, "countryCode": "AF" }, "geometry": { "type": "MultiPolygon", "coordinates": [ [ [ [ 65.693494094845363, 31.842884787895589 ], [ 66.027221435208759, 31.404557677755324 ], [ 65.808311474836785, 30.953352641095371 ], [ 65.258885162748186, 30.938738616567278 ], [ 64.92605682840852, 31.373557620065277 ], [ 65.141872536599863, 31.826478509843007 ], [ 65.693494094845363, 31.842884787895589 ] ] ] ] } },
{ "type": "Feature", "properties": { "geogrid_id": "831444143068769499", "seqnum": 23062.0, "lat_c": 31.444143273425773, "lon_c": 68.769499483381011, "res": 8.0, "count_Insects": 2, "count_Sac Fungi": 0, "count_Basidiomycota": 0, "count_Ferns": 0, "count_Amphibians": 0, "count_Flowering Plants": 0, "count_Gymnosperms": 0, "count_Reptiles": 0, "count_Mammals": 0, "count_Birds": 0, "count_Arachnids": 0, "count_Molluscs": 0, "unique_species_count": 2.0, "countryCode": "AF" }, "geometry": { "type": "MultiPolygon", "coordinates": [ [ [ [ 68.991279032942444, 31.894567678342515 ], [ 69.316467366904632, 31.445277246561695 ], [ 69.091834199138844, 30.996472123378965 ], [ 68.545928267565913, 30.994788331743059 ], [ 68.222080598571381, 31.440711692837379 ], [ 68.442844637670049, 31.891686625412135 ], [ 68.991279032942444, 31.894567678342515 ] ] ] ] } },
{ "type": "Feature", "properties": { "geogrid_id": "831657734061255188", "seqnum": 22329.0, "lat_c": 31.65773428766208, "lon_c": 61.255188098182138, "res": 8.0, "count_Insects": 0, "count_Sac Fungi": 0, "count_Basidiomycota": 0, "count_Ferns": 0, "count_Amphibians": 0, "count_Flowering Plants": 0, "count_Gymnosperms": 0, "count_Reptiles": 0, "count_Mammals": 2, "count_Birds": 0, "count_Arachnids": 0, "count_Molluscs": 0, "unique_species_count": 2.0, "countryCode": "AF" }, "geometry": { "type": "MultiPolygon", "coordinates": [ [ [ [ 61.466360811728997, 32.110241528294452 ], [ 61.813879383364927, 31.686784312101324 ], [ 61.601143931121264, 31.235600743823024 ], [ 61.042877206778229, 31.207415438788253 ], [ 60.694995943114286, 31.627553302579006 ], [ 60.906002919906754, 32.079047804862462 ], [ 61.466360811728997, 32.110241528294452 ] ] ] ] } },
{ "type": "Feature", "properties": { "geogrid_id": "831740548062927332", "seqnum": 22492.0, "lat_c": 31.740548028421241, "lon_c": 62.927331669106287, "res": 8.0, "count_Insects": 0, "count_Sac Fungi": 0, "count_Basidiomycota": 0, "count_Ferns": 0, "count_Amphibians": 0, "count_Flowering Plants": 0, "count_Gymnosperms": 0, "count_Reptiles": 0, "count_Mammals": 4, "count_Birds": 0, "count_Arachnids": 0, "count_Molluscs": 0, "unique_species_count": 4.0, "countryCode": "AF" }, "geometry": { "type": "MultiPolygon", "coordinates": [ [ [ [ 63.139166988995932, 32.194810657396076 ], [ 63.482350650336478, 31.764910408566102 ], [ 63.26825931143221, 31.31223257725803 ], [ 62.713721464750648, 31.288206557079764 ], [ 62.371215565458506, 31.71445418236652 ], [ 62.582783642747366, 32.168317241050062 ], [ 63.139166988995932, 32.194810657396076 ] ] ] ] } },
{ "type": "Feature", "properties": { "geogrid_id": "831807967064589528", "seqnum": 22655.0, "lat_c": 31.807966825720921, "lon_c": 64.589527951194682, "res": 8.0, "count_Insects": 4, "count_Sac Fungi": 0, "count_Basidiomycota": 0, "count_Ferns": 0, "count_Amphibians": 0, "count_Flowering Plants": 2, "count_Gymnosperms": 0, "count_Reptiles": 4, "count_Mammals": 8, "count_Birds": 1, "count_Arachnids": 0, "count_Molluscs": 0, "unique_species_count": 19.0, "countryCode": "AF" }, "geometry": { "type": "MultiPolygon", "coordinates": [ [ [ [ 64.802561147173279, 32.262573961870515 ], [ 65.141872536599863, 31.826478509843007 ], [ 64.92605682840852, 31.373557620065277 ], [ 64.374339196800094, 31.355013463095474 ], [ 64.036383164948575, 31.787416848728913 ], [ 64.248945746258045, 32.242033949735067 ], [ 64.802561147173279, 32.262573961870515 ] ] ] ] } },
{ "type": "Feature", "properties": { "geogrid_id": "831857130066244460", "seqnum": 22818.0, "lat_c": 31.857130227664964, "lon_c": 66.24446034975854, "res": 8.0, "count_Insects": 0, "count_Sac Fungi": 0, "count_Basidiomycota": 0, "count_Ferns": 0, "count_Amphibians": 0, "count_Flowering Plants": 1, "count_Gymnosperms": 0, "count_Reptiles": 0, "count_Mammals": 1, "count_Birds": 0, "count_Arachnids": 0, "count_Molluscs": 0, "unique_species_count": 2.0, "countryCode": "AF" }, "geometry": { "type": "MultiPolygon", "coordinates": [ [ [ [ 66.459351596320587, 32.311118374092935 ], [ 66.79483046711988, 31.869168741419994 ], [ 66.576794012310899, 31.416893725630697 ], [ 66.027221435208759, 31.404557677755324 ], [ 65.693494094845363, 31.842884787895589 ], [ 65.907691959966499, 32.297166618887296 ], [ 66.459351596320587, 32.311118374092935 ] ] ] ] } },
{ "type": "Feature", "properties": { "geogrid_id": "832280970065355451", "seqnum": 22737.0, "lat_c": 32.280969993057447, "lon_c": 65.355450749874194, "res": 8.0, "count_Insects": 0, "count_Sac Fungi": 0, "count_Basidiomycota": 0, "count_Ferns": 0, "count_Amphibians": 0, "count_Flowering Plants": 1, "count_Gymnosperms": 0, "count_Reptiles": 0, "count_Mammals": 0, "count_Birds": 2, "count_Arachnids": 0, "count_Molluscs": 0, "unique_species_count": 3.0, "countryCode": "AF" }, "geometry": { "type": "MultiPolygon", "coordinates": [ [ [ [ 65.565932890982111, 32.737080339456952 ], [ 65.907691959966499, 32.297166618887296 ], [ 65.693494094845363, 31.842884787895589 ], [ 65.141872536599863, 31.826478509843007 ], [ 64.802561147173279, 32.262573961870515 ], [ 65.012561902153038, 32.718894173025141 ], [ 65.565932890982111, 32.737080339456952 ] ] ] ] } },
{ "type": "Feature", "properties": { "geogrid_id": "832322788067010487", "seqnum": 22900.0, "lat_c": 32.322787687273326, "lon_c": 67.01048709775452, "res": 8.0, "count_Insects": 0, "count_Sac Fungi": 0, "count_Basidiomycota": 0, "count_Ferns": 0, "count_Amphibians": 0, "count_Flowering Plants": 2, "count_Gymnosperms": 0, "count_Reptiles": 3, "count_Mammals": 0, "count_Birds": 4, "count_Arachnids": 0, "count_Molluscs": 0, "unique_species_count": 9.0, "countryCode": "AF" }, "geometry": { "type": "MultiPolygon", "coordinates": [ [ [ [ 67.222968159483997, 32.777776342729076 ], [ 67.561147608312879, 32.332143296483743 ], [ 67.344655901772384, 31.878961773163155 ], [ 66.79483046711988, 31.869168741419994 ], [ 66.459351596320587, 32.311118374092935 ], [ 66.671077635932093, 32.766553902118844 ], [ 67.222968159483997, 32.777776342729076 ] ] ] ] } },
{ "type": "Feature", "properties": { "geogrid_id": "832343813068661204", "seqnum": 23063.0, "lat_c": 32.343812820386837, "lon_c": 68.661204444359342, "res": 8.0, "count_Insects": 0, "count_Sac Fungi": 0, "count_Basidiomycota": 0, "count_Ferns": 0, "count_Amphibians": 0, "count_Flowering Plants": 0, "count_Gymnosperms": 0, "count_Reptiles": 2, "count_Mammals": 0, "count_Birds": 0, "count_Arachnids": 0, "count_Molluscs": 0, "unique_species_count": 2.0, "countryCode": "AF" }, "geometry": { "type": "MultiPolygon", "coordinates": [ [ [ [ 68.876431030670332, 32.797104434023133 ], [ 69.210665731596649, 32.346086016694862 ], [ 68.991279032942444, 31.894567678342515 ], [ 68.442844637670049, 31.891686625412135 ], [ 68.111374943395987, 32.339159023817039 ], [ 68.325610777521149, 32.793070219114902 ], [ 68.876431030670332, 32.797104434023133 ] ] ] ] } },
{ "type": "Feature", "properties": { "geogrid_id": "832533031061115276", "seqnum": 22330.0, "lat_c": 32.533031049560783, "lon_c": 61.115275688667225, "res": 8.0, "count_Insects": 0, "count_Sac Fungi": 0, "count_Basidiomycota": 0, "count_Ferns": 0, "count_Amphibians": 0, "count_Flowering Plants": 0, "count_Gymnosperms": 0, "count_Reptiles": 0, "count_Mammals": 0, "count_Birds": 1, "count_Arachnids": 0, "count_Molluscs": 0, "unique_species_count": 1.0, "countryCode": "AF" }, "geometry": { "type": "MultiPolygon", "coordinates": [ [ [ [ 61.321624481231169, 32.989716617767364 ], [ 61.675494792484777, 32.565125478953888 ], [ 61.466360811728997, 32.110241528294452 ], [ 60.906002919906754, 32.079047804862462 ], [ 60.553418705087566, 32.499578787764314 ], [ 60.760321667241563, 32.955236780794451 ], [ 61.321624481231169, 32.989716617767364 ] ] ] ] } },
{ "type": "Feature", "properties": { "geogrid_id": "832624324062791840", "seqnum": 22493.0, "lat_c": 32.624323706037664, "lon_c": 62.791839684464975, "res": 8.0, "count_Insects": 0, "count_Sac Fungi": 0, "count_Basidiomycota": 0, "count_Ferns": 0, "count_Amphibians": 0, "count_Flowering Plants": 0, "count_Gymnosperms": 1, "count_Reptiles": 0, "count_Mammals": 0, "count_Birds": 0, "count_Arachnids": 0, "count_Molluscs": 0, "unique_species_count": 1.0, "countryCode": "AF" }, "geometry": { "type": "MultiPolygon", "coordinates": [ [ [ [ 62.997197217577821, 33.082578939984735 ], [ 63.348313065578481, 32.6511022101988 ], [ 63.139166988995932, 32.194810657396076 ], [ 62.582783642747366, 32.168317241050062 ], [ 62.234287495683041, 32.595617806657934 ], [ 62.439848274278965, 33.053559855286473 ], [ 62.997197217577821, 33.082578939984735 ] ] ] ] } },
{ "type": "Feature", "properties": { "geogrid_id": "832752979066118750", "seqnum": 22819.0, "lat_c": 32.752978801189251, "lon_c": 66.118750358028933, "res": 8.0, "count_Insects": 0, "count_Sac Fungi": 0, "count_Basidiomycota": 0, "count_Ferns": 0, "count_Amphibians": 0, "count_Flowering Plants": 0, "count_Gymnosperms": 1, "count_Reptiles": 1, "count_Mammals": 0, "count_Birds": 0, "count_Arachnids": 0, "count_Molluscs": 0, "unique_species_count": 2.0, "countryCode": "AF" }, "geometry": { "type": "MultiPolygon", "coordinates": [ [ [ [ 66.325647611884023, 33.210335790784171 ], [ 66.671077635932093, 32.766553902118844 ], [ 66.459351596320587, 32.311118374092935 ], [ 65.907691959966499, 32.297166618887296 ], [ 65.565932890982111, 32.737080339456952 ], [ 65.772264896844533, 33.194831981125851 ], [ 66.325647611884023, 33.210335790784171 ] ] ] ] } },
{ "type": "Feature", "properties": { "geogrid_id": "832786622067774467", "seqnum": 22982.0, "lat_c": 32.786621860158718, "lon_c": 67.77446675920423, "res": 8.0, "count_Insects": 0, "count_Sac Fungi": 0, "count_Basidiomycota": 0, "count_Ferns": 0, "count_Amphibians": 0, "count_Flowering Plants": 3, "count_Gymnosperms": 0, "count_Reptiles": 0, "count_Mammals": 0, "count_Birds": 0, "count_Arachnids": 0, "count_Molluscs": 0, "unique_species_count": 3.0, "countryCode": "AF" }, "geometry": { "type": "MultiPolygon", "coordinates": [ [ [ [ 67.98368913354517, 33.242397576923445 ], [ 68.325610777521149, 32.793070219114902 ], [ 68.111374943395987, 32.339159023817039 ], [ 67.561147608312879, 32.332143296483743 ], [ 67.222968159483997, 32.777776342729076 ], [ 67.431317232617189, 33.234138295082587 ], [ 67.98368913354517, 33.242397576923445 ] ] ] ] } },
{ "type": "Feature", "properties": { "geogrid_id": "832798710069426953", "seqnum": 23145.0, "lat_c": 32.798710164767229, "lon_c": 69.426952637675043, "res": 8.0, "count_Insects": 1, "count_Sac Fungi": 0, "count_Basidiomycota": 0, "count_Ferns": 0, "count_Amphibians": 0, "count_Flowering Plants": 5, "count_Gymnosperms": 0, "count_Reptiles": 0, "count_Mammals": 0, "count_Birds": 0, "count_Arachnids": 0, "count_Molluscs": 0, "unique_species_count": 6.0, "countryCode": "AF" }, "geometry": { "type": "MultiPolygon", "coordinates": [ [ [ [ 69.639308039638294, 33.25243510344287 ], [ 69.977195735465045, 32.797875243857597 ], [ 69.759783366824351, 32.345962730228663 ], [ 69.210665731596649, 32.346086016694862 ], [ 68.876431030670332, 32.797104434023133 ], [ 69.087662655055865, 33.251557442889357 ], [ 69.639308039638294, 33.25243510344287 ] ] ] ] } },
{ "type": "Feature", "properties": { "geogrid_id": "833022557061881390", "seqnum": 22412.0, "lat_c": 33.0225568873607, "lon_c": 61.881389539725596, "res": 8.0, "count_Insects": 1, "count_Sac Fungi": 0, "count_Basidiomycota": 0, "count_Ferns": 0, "count_Amphibians": 0, "count_Flowering Plants": 0, "count_Gymnosperms": 0, "count_Reptiles": 0, "count_Mammals": 0, "count_Birds": 1, "count_Arachnids": 0, "count_Molluscs": 0, "unique_species_count": 2.0, "countryCode": "AF" }, "geometry": { "type": "MultiPolygon", "coordinates": [ [ [ [ 62.082436115881109, 33.482665401479053 ], [ 62.439848274278965, 33.053559855286473 ], [ 62.234287495683041, 32.595617806657934 ], [ 61.675494792484777, 32.565125478953888 ], [ 61.321624481231169, 32.989716617767364 ], [ 61.523423676871218, 33.449282931972363 ], [ 62.082436115881109, 33.482665401479053 ] ] ] ] } },
{ "type": "Feature", "properties": { "geogrid_id": "833109504063553602", "seqnum": 22575.0, "lat_c": 33.109503778031893, "lon_c": 63.553602396595522, "res": 8.0, "count_Insects": 0, "count_Sac Fungi": 0, "count_Basidiomycota": 0, "count_Ferns": 0, "count_Amphibians": 0, "count_Flowering Plants": 7, "count_Gymnosperms": 0, "count_Reptiles": 0, "count_Mammals": 0, "count_Birds": 0, "count_Arachnids": 0, "count_Molluscs": 0, "unique_species_count": 7.0, "countryCode": "AF" }, "geometry": { "type": "MultiPolygon", "coordinates": [ [ [ [ 63.753539088651742, 33.570051274668046 ], [ 64.109203594975028, 33.134250068566907 ], [ 63.903847351445741, 32.675844163439798 ], [ 63.348313065578481, 32.6511022101988 ], [ 62.997197217577821, 33.082578939984735 ], [ 63.197315804432691, 33.543142918452787 ], [ 63.753539088651742, 33.570051274668046 ] ] ] ] } },
{ "type": "Feature", "properties": { "geogrid_id": "833223445066878649", "seqnum": 22901.0, "lat_c": 33.223445091966205, "lon_c": 66.878649468192449, "res": 8.0, "count_Insects": 0, "count_Sac Fungi": 0, "count_Basidiomycota": 0, "count_Ferns": 0, "count_Amphibians": 0, "count_Flowering Plants": 4, "count_Gymnosperms": 0, "count_Reptiles": 0, "count_Mammals": 0, "count_Birds": 0, "count_Arachnids": 0, "count_Molluscs": 0, "unique_species_count": 4.0, "countryCode": "AF" }, "geometry": { "type": "MultiPolygon", "coordinates": [ [ [ [ 67.080868970262543, 33.681767046474157 ], [ 67.431317232617189, 33.234138295082587 ], [ 67.222968159483997, 32.777776342729076 ], [ 66.671077635932093, 32.766553902118844 ], [ 66.325647611884023, 33.210335790784171 ], [ 66.527136970124758, 33.669216476045719 ], [ 67.080868970262543, 33.681767046474157 ] ] ] ] } },
{ "type": "Feature", "properties": { "geogrid_id": "833248208068535796", "seqnum": 23064.0, "lat_c": 33.248208104294058, "lon_c": 68.535796074106301, "res": 8.0, "count_Insects": 2, "count_Sac Fungi": 0, "count_Basidiomycota": 0, "count_Ferns": 0, "count_Amphibians": 1, "count_Flowering Plants": 6, "count_Gymnosperms": 0, "count_Reptiles": 3, "count_Mammals": 4, "count_Birds": 1, "count_Arachnids": 0, "count_Molluscs": 0, "unique_species_count": 17.0, "countryCode": "AF" }, "geometry": { "type": "MultiPolygon", "coordinates": [ [ [ [ 68.740869321064864, 33.704543924532061 ], [ 69.087662655055865, 33.251557442889357 ], [ 68.876431030670332, 32.797104434023133 ], [ 68.325610777521149, 32.793070219114902 ], [ 67.98368913354517, 33.242397576923445 ], [ 68.187709365435168, 33.699441998618056 ], [ 68.740869321064864, 33.704543924532061 ] ] ] ] } },
{ "type": "Feature", "properties": { "geogrid_id": "833250832070190747", "seqnum": 23227.0, "lat_c": 33.250832190544841, "lon_c": 70.190746687213547, "res": 8.0, "count_Insects": 0, "count_Sac Fungi": 0, "count_Basidiomycota": 0, "count_Ferns": 0, "count_Amphibians": 0, "count_Flowering Plants": 3, "count_Gymnosperms": 0, "count_Reptiles": 0, "count_Mammals": 0, "count_Birds": 0, "count_Arachnids": 0, "count_Molluscs": 0, "unique_species_count": 3.0, "countryCode": "AF" }, "geometry": { "type": "MultiPolygon", "coordinates": [ [ [ [ 70.399495688533861, 33.704807515330927 ], [ 70.741988977745862, 33.246741128907601 ], [ 70.527176096770262, 32.794589303902441 ], [ 69.977195735465045, 32.797875243857597 ], [ 69.639308039638294, 33.25243510344287 ], [ 69.846752835789417, 33.707233417017868 ], [ 70.399495688533861, 33.704807515330927 ] ] ] ] } },
{ "type": "Feature", "properties": { "geogrid_id": "833413988060963059", "seqnum": 22331.0, "lat_c": 33.413987962107335, "lon_c": 60.963059241980744, "res": 8.0, "count_Insects": 0, "count_Sac Fungi": 0, "count_Basidiomycota": 0, "count_Ferns": 0, "count_Amphibians": 0, "count_Flowering Plants": 1, "count_Gymnosperms": 0, "count_Reptiles": 0, "count_Mammals": 0, "count_Birds": 0, "count_Arachnids": 0, "count_Molluscs": 0, "unique_species_count": 1.0, "countryCode": "AF" }, "geometry": { "type": "MultiPolygon", "coordinates": [ [ [ [ 61.159343127454179, 33.876000513830753 ], [ 61.523423676871218, 33.449282931972363 ], [ 61.321624481231169, 32.989716617767364 ], [ 60.760321667241563, 32.955236780794451 ], [ 60.401053136582256, 33.37698755854543 ], [ 60.598901707552876, 33.838149551321862 ], [ 61.159343127454179, 33.876000513830753 ] ] ] ] } },
{ "type": "Feature", "properties": { "geogrid_id": "833594653064309136", "seqnum": 22657.0, "lat_c": 33.59465305784363, "lon_c": 64.309136172206109, "res": 8.0, "count_Insects": 0, "count_Sac Fungi": 0, "count_Basidiomycota": 0, "count_Ferns": 0, "count_Amphibians": 0, "count_Flowering Plants": 2, "count_Gymnosperms": 0, "count_Reptiles": 0, "count_Mammals": 0, "count_Birds": 1, "count_Arachnids": 0, "count_Molluscs": 0, "unique_species_count": 3.0, "countryCode": "AF" }, "geometry": { "type": "MultiPolygon", "coordinates": [ [ [ [ 64.501805742259052, 34.057002025743834 ], [ 64.864214561779079, 33.616902472959787 ], [ 64.664118203449647, 33.15675254719676 ], [ 64.109203594975028, 33.134250068566907 ], [ 63.753539088651742, 33.570051274668046 ], [ 63.94619901041888, 34.032707894402385 ], [ 64.501805742259052, 34.057002025743834 ] ] ] ] } },
{ "type": "Feature", "properties": { "geogrid_id": "833654209065973150", "seqnum": 22820.0, "lat_c": 33.654209402508954, "lon_c": 65.973150221030068, "res": 8.0, "count_Insects": 1, "count_Sac Fungi": 0, "count_Basidiomycota": 0, "count_Ferns": 0, "count_Amphibians": 0, "count_Flowering Plants": 1, "count_Gymnosperms": 0, "count_Reptiles": 0, "count_Mammals": 0, "count_Birds": 0, "count_Arachnids": 0, "count_Molluscs": 0, "unique_species_count": 2.0, "countryCode": "AF" }, "geometry": { "type": "MultiPolygon", "coordinates": [ [ [ [ 66.166990676540919, 34.115142465277984 ], [ 66.527136970124758, 33.669216476045719 ], [ 66.325647611884023, 33.210335790784171 ], [ 65.772264896844533, 33.194831981125851 ], [ 65.418862073067373, 33.636763935841913 ], [ 65.61213876370725, 34.098239024247285 ], [ 66.166990676540919, 34.115142465277984 ] ] ] ] } },
{ "type": "Feature", "properties": { "geogrid_id": "833691846067634383", "seqnum": 22983.0, "lat_c": 33.691846301466413, "lon_c": 67.634383380907394, "res": 8.0, "count_Insects": 0, "count_Sac Fungi": 0, "count_Basidiomycota": 0, "count_Ferns": 0, "count_Amphibians": 0, "count_Flowering Plants": 6, "count_Gymnosperms": 0, "count_Reptiles": 0, "count_Mammals": 0, "count_Birds": 0, "count_Arachnids": 0, "count_Molluscs": 0, "unique_species_count": 6.0, "countryCode": "AF" }, "geometry": { "type": "MultiPolygon", "coordinates": [ [ [ [ 67.830779740314838, 34.150830842973477 ], [ 68.187709365435168, 33.699441998618056 ], [ 67.98368913354517, 33.242397576923445 ], [ 67.431317232617189, 33.234138295082587 ], [ 67.080868970262543, 33.681767046474157 ], [ 67.276282414156626, 34.141448726308894 ], [ 67.830779740314838, 34.150830842973477 ] ] ] ] } },
{ "type": "Feature", "properties": { "geogrid_id": "833699860070952112", "seqnum": 23309.0, "lat_c": 33.699860490636432, "lon_c": 70.952112399729657, "res": 8.0, "count_Insects": 0, "count_Sac Fungi": 0, "count_Basidiomycota": 0, "count_Ferns": 0, "count_Amphibians": 0, "count_Flowering Plants": 0, "count_Gymnosperms": 0, "count_Reptiles": 0, "count_Mammals": 1, "count_Birds": 7, "count_Arachnids": 0, "count_Molluscs": 0, "unique_species_count": 8.0, "countryCode": "AF" }, "geometry": { "type": "MultiPolygon", "coordinates": [ [ [ [ 71.156491351900428, 34.153898583116167 ], [ 71.50460381253373, 33.692387810227928 ], [ 71.293041745354373, 33.240155448520198 ], [ 70.741988977745862, 33.246741128907601 ], [ 70.399495688533861, 33.704807515330927 ], [ 70.602339922736292, 34.159748343034749 ], [ 71.156491351900428, 34.153898583116167 ] ] ] ] } },
{ "type": "Feature", "properties": { "geogrid_id": "833707143069293880", "seqnum": 23146.0, "lat_c": 33.707143488877719, "lon_c": 69.293879896139686, "res": 8.0, "count_Insects": 1, "count_Sac Fungi": 1, "count_Basidiomycota": 1, "count_Ferns": 0, "count_Amphibians": 0, "count_Flowering Plants": 6, "count_Gymnosperms": 2, "count_Reptiles": 1, "count_Mammals": 7, "count_Birds": 1, "count_Arachnids": 0, "count_Molluscs": 0, "unique_species_count": 20.0, "countryCode": "AF" }, "geometry": { "type": "MultiPolygon", "coordinates": [ [ [ [ 69.493875811338242, 34.163801951785743 ], [ 69.846752835789417, 33.707233417017868 ], [ 69.639308039638294, 33.25243510344287 ], [ 69.087662655055865, 33.251557442889357 ], [ 68.740869321064864, 33.704543924532061 ], [ 68.939566922163948, 34.162013583830031 ], [ 69.493875811338242, 34.163801951785743 ] ] ] ] } },
{ "type": "Feature", "properties": { "geogrid_id": "834005999063390186", "seqnum": 22576.0, "lat_c": 34.005999174874297, "lon_c": 63.390186315978056, "res": 8.0, "count_Insects": 0, "count_Sac Fungi": 0, "count_Basidiomycota": 0, "count_Ferns": 0, "count_Amphibians": 0, "count_Flowering Plants": 0, "count_Gymnosperms": 1, "count_Reptiles": 0, "count_Mammals": 6, "count_Birds": 0, "count_Arachnids": 0, "count_Molluscs": 0, "unique_species_count": 7.0, "countryCode": "AF" }, "geometry": { "type": "MultiPolygon", "coordinates": [ [ [ [ 63.573175403183079, 34.471007468108894 ], [ 63.94619901041888, 34.032707894402385 ], [ 63.753539088651742, 33.570051274668046 ], [ 63.197315804432691, 33.543142918452787 ], [ 62.833655359239572, 33.976913373867454 ], [ 63.017021541669209, 34.44221442105691 ], [ 63.573175403183079, 34.471007468108894 ] ] ] ] } },
{ "type": "Feature", "properties": { "geogrid_id": "834078853065057096", "seqnum": 22739.0, "lat_c": 34.07885308520747, "lon_c": 65.057095540794933, "res": 8.0, "count_Insects": 0, "count_Sac Fungi": 0, "count_Basidiomycota": 0, "count_Ferns": 0, "count_Amphibians": 0, "count_Flowering Plants": 3, "count_Gymnosperms": 1, "count_Reptiles": 0, "count_Mammals": 2, "count_Birds": 0, "count_Arachnids": 0, "count_Molluscs": 0, "unique_species_count": 6.0, "countryCode": "AF" }, "geometry": { "type": "MultiPolygon", "coordinates": [ [ [ [ 65.240547961016162, 34.54244929902417 ], [ 65.61213876370725, 34.098239024247285 ], [ 65.418862073067373, 33.636763935841913 ], [ 64.864214561779079, 33.616902472959787 ], [ 64.501805742259052, 34.057002025743834 ], [ 64.684867230425624, 34.521142156437286 ], [ 65.240547961016162, 34.54244929902417 ] ] ] ] } },
{ "type": "Feature", "properties": { "geogrid_id": "834129549066721694", "seqnum": 22902.0, "lat_c": 34.129549479285572, "lon_c": 66.72169425793787, "res": 8.0, "count_Insects": 1, "count_Sac Fungi": 0, "count_Basidiomycota": 0, "count_Ferns": 1, "count_Amphibians": 0, "count_Flowering Plants": 3, "count_Gymnosperms": 0, "count_Reptiles": 0, "count_Mammals": 0, "count_Birds": 0, "count_Arachnids": 0, "count_Molluscs": 0, "unique_species_count": 5.0, "countryCode": "AF" }, "geometry": { "type": "MultiPolygon", "coordinates": [ [ [ [ 66.90745262249095, 34.591193221491601 ], [ 67.276282414156626, 34.141448726308894 ], [ 67.080868970262543, 33.681767046474157 ], [ 66.527136970124758, 33.669216476045719 ], [ 66.166990676540919, 34.115142465277984 ], [ 66.351811907007558, 34.577483472249497 ], [ 66.90745262249095, 34.591193221491601 ] ] ] ] } },
{ "type": "Feature", "properties": { "geogrid_id": "834157688068385204", "seqnum": 23065.0, "lat_c": 34.157688000753026, "lon_c": 68.385203931575049, "res": 8.0, "count_Insects": 3, "count_Sac Fungi": 0, "count_Basidiomycota": 0, "count_Ferns": 0, "count_Amphibians": 0, "count_Flowering Plants": 4, "count_Gymnosperms": 0, "count_Reptiles": 4, "count_Mammals": 3, "count_Birds": 0, "count_Arachnids": 0, "count_Molluscs": 0, "unique_species_count": 14.0, "countryCode": "AF" }, "geometry": { "type": "MultiPolygon", "coordinates": [ [ [ [ 68.574586224836082, 34.617016526106298 ], [ 68.939566922163948, 34.162013583830031 ], [ 68.740869321064864, 33.704543924532061 ], [ 68.187709365435168, 33.699441998618056 ], [ 67.830779740314838, 34.150830842973477 ], [ 68.018832845012895, 34.610964969126336 ], [ 68.574586224836082, 34.617016526106298 ] ] ] ] } },
{ "type": "Feature", "properties": { "geogrid_id": "834163048070048134", "seqnum": 23228.0, "lat_c": 34.163048263145356, "lon_c": 70.048133621439405, "res": 8.0, "count_Insects": 9, "count_Sac Fungi": 0, "count_Basidiomycota": 0, "count_Ferns": 0, "count_Amphibians": 0, "count_Flowering Plants": 3, "count_Gymnosperms": 1, "count_Reptiles": 4, "count_Mammals": 5, "count_Birds": 1, "count_Arachnids": 0, "count_Molluscs": 0, "unique_species_count": 23.0, "countryCode": "AF" }, "geometry": { "type": "MultiPolygon", "coordinates": [ [ [ [ 70.242090687151403, 34.619784393742634 ], [ 70.602339922736292, 34.159748343034749 ], [ 70.399495688533861, 33.704807515330927 ], [ 69.846752835789417, 33.707233417017868 ], [ 69.493875811338242, 34.163801951785743 ], [ 69.686220227963545, 34.621429744806974 ], [ 70.242090687151403, 34.619784393742634 ] ] ] ] } },
{ "type": "Feature", "properties": { "geogrid_id": "834302983060787366", "seqnum": 22332.0, "lat_c": 34.302982693417412, "lon_c": 60.787365743920148, "res": 8.0, "count_Insects": 0, "count_Sac Fungi": 0, "count_Basidiomycota": 0, "count_Ferns": 0, "count_Amphibians": 0, "count_Flowering Plants": 1, "count_Gymnosperms": 0, "count_Reptiles": 0, "count_Mammals": 0, "count_Birds": 0, "count_Arachnids": 0, "count_Molluscs": 0, "unique_species_count": 1.0, "countryCode": "AF" }, "geometry": { "type": "MultiPolygon", "coordinates": [ [ [ [ 60.961404576309953, 34.771274736662122 ], [ 61.345915818729409, 34.341290187075295 ], [ 61.159343127454179, 33.876000513830753 ], [ 60.598901707552876, 33.838149551321862 ], [ 60.227577230008698, 34.262506264636514 ], [ 60.404146861733139, 34.730549426168459 ], [ 60.961404576309953, 34.771274736662122 ] ] ] ] } },
{ "type": "Feature", "properties": { "geogrid_id": "834410970062460528", "seqnum": 22495.0, "lat_c": 34.410970350683691, "lon_c": 62.460528249040216, "res": 8.0, "count_Insects": 1, "count_Sac Fungi": 0, "count_Basidiomycota": 0, "count_Ferns": 0, "count_Amphibians": 0, "count_Flowering Plants": 5, "count_Gymnosperms": 0, "count_Reptiles": 0, "count_Mammals": 11, "count_Birds": 7, "count_Arachnids": 0, "count_Molluscs": 0, "unique_species_count": 24.0, "countryCode": "AF" }, "geometry": { "type": "MultiPolygon", "coordinates": [ [ [ [ 62.63059569813646, 34.87873549569975 ], [ 63.017021541669209, 34.44221442105691 ], [ 62.833655359239572, 33.976913373867454 ], [ 62.276464626670503, 33.945500886476935 ], [ 61.90355481316756, 34.377311624435386 ], [ 62.074432109418986, 34.845404151877112 ], [ 62.63059569813646, 34.87873549569975 ] ] ] ] } },
{ "type": "Feature", "properties": { "geogrid_id": "834602356067463123", "seqnum": 22984.0, "lat_c": 34.602355586578128, "lon_c": 67.463123082432304, "res": 8.0, "count_Insects": 18, "count_Sac Fungi": 1, "count_Basidiomycota": 1, "count_Ferns": 1, "count_Amphibians": 0, "count_Flowering Plants": 29, "count_Gymnosperms": 1, "count_Reptiles": 0, "count_Mammals": 0, "count_Birds": 38, "count_Arachnids": 0, "count_Molluscs": 0, "unique_species_count": 89.0, "countryCode": "AF" }, "geometry": { "type": "MultiPolygon", "coordinates": [ [ [ [ 67.639240484677629, 35.064266335372132 ], [ 68.018832845012895, 34.610964969126336 ], [ 67.830779740314838, 34.150830842973477 ], [ 67.276282414156626, 34.141448726308894 ], [ 66.90745262249095, 34.591193221491601 ], [ 67.082121241441243, 35.053908900730164 ], [ 67.639240484677629, 35.064266335372132 ] ] ] ] } },
{ "type": "Feature", "properties": { "geogrid_id": "834615567070797986", "seqnum": 23310.0, "lat_c": 34.615567063221157, "lon_c": 70.797985517567099, "res": 8.0, "count_Insects": 3, "count_Sac Fungi": 1, "count_Basidiomycota": 0, "count_Ferns": 2, "count_Amphibians": 3, "count_Flowering Plants": 0, "count_Gymnosperms": 0, "count_Reptiles": 1, "count_Mammals": 13, "count_Birds": 0, "count_Arachnids": 0, "count_Molluscs": 0, "unique_species_count": 23.0, "countryCode": "AF" }, "geometry": { "type": "MultiPolygon", "coordinates": [ [ [ [ 70.984913578005347, 35.072131296453648 ], [ 71.353893542405416, 34.608775184278684 ], [ 71.156491351900428, 34.153898583116167 ], [ 70.602339922736292, 34.159748343034749 ], [ 70.242090687151403, 34.619784393742634 ], [ 70.427020016610015, 35.077296691120182 ], [ 70.984913578005347, 35.072131296453648 ] ] ] ] } },
{ "type": "Feature", "properties": { "geogrid_id": "834620506069130383", "seqnum": 23147.0, "lat_c": 34.620506025800537, "lon_c": 69.130383215479924, "res": 8.0, "count_Insects": 53, "count_Sac Fungi": 5, "count_Basidiomycota": 3, "count_Ferns": 1, "count_Amphibians": 4, "count_Flowering Plants": 22, "count_Gymnosperms": 0, "count_Reptiles": 10, "count_Mammals": 22, "count_Birds": 7, "count_Arachnids": 0, "count_Molluscs": 0, "unique_species_count": 127.0, "countryCode": "AF" }, "geometry": { "type": "MultiPolygon", "coordinates": [ [ [ [ 69.311522361050862, 35.07984815543989 ], [ 69.686220227963545, 34.621429744806974 ], [ 69.493875811338242, 34.163801951785743 ], [ 68.939566922163948, 34.162013583830031 ], [ 68.574586224836082, 34.617016526106298 ], [ 68.753952083220412, 35.077239220380648 ], [ 69.311522361050862, 35.07984815543989 ] ] ] ] } },
{ "type": "Feature", "properties": { "geogrid_id": "834809574061518089", "seqnum": 22414.0, "lat_c": 34.809574439696625, "lon_c": 61.518089323905407, "res": 8.0, "count_Insects": 1, "count_Sac Fungi": 0, "count_Basidiomycota": 0, "count_Ferns": 0, "count_Amphibians": 0, "count_Flowering Plants": 0, "count_Gymnosperms": 0, "count_Reptiles": 1, "count_Mammals": 0, "count_Birds": 0, "count_Arachnids": 0, "count_Molluscs": 0, "unique_species_count": 2.0, "countryCode": "AF" }, "geometry": { "type": "MultiPolygon", "coordinates": [ [ [ [ 61.669041402681188, 35.28001322936808 ], [ 62.074432109418986, 34.845404151877112 ], [ 61.90355481316756, 34.377311624435386 ], [ 61.345915818729409, 34.341290187075295 ], [ 60.961404576309953, 34.771274736662122 ], [ 61.113418780761045, 35.242166753414288 ], [ 61.669041402681188, 35.28001322936808 ] ] ] ] } },
{ "type": "Feature", "properties": { "geogrid_id": "834909549063186696", "seqnum": 22577.0, "lat_c": 34.909549275551242, "lon_c": 63.186695647450456, "res": 8.0, "count_Insects": 1, "count_Sac Fungi": 0, "count_Basidiomycota": 0, "count_Ferns": 0, "count_Amphibians": 0, "count_Flowering Plants": 2, "count_Gymnosperms": 0, "count_Reptiles": 0, "count_Mammals": 0, "count_Birds": 0, "count_Arachnids": 0, "count_Molluscs": 0, "unique_species_count": 3.0, "countryCode": "AF" }, "geometry": { "type": "MultiPolygon", "coordinates": [ [ [ [ 63.337636661704956, 35.378222285157648 ], [ 63.742814069190651, 34.937831771368991 ], [ 63.573175403183079, 34.471007468108894 ], [ 63.017021541669209, 34.44221442105691 ], [ 62.63059569813646, 34.87873549569975 ], [ 62.78111213104323, 35.348046560915193 ], [ 63.337636661704956, 35.378222285157648 ] ] ] ] } },
{ "type": "Feature", "properties": { "geogrid_id": "834986764064855320", "seqnum": 22740.0, "lat_c": 34.986763735230817, "lon_c": 64.855320072905329, "res": 8.0, "count_Insects": 0, "count_Sac Fungi": 0, "count_Basidiomycota": 0, "count_Ferns": 0, "count_Amphibians": 0, "count_Flowering Plants": 0, "count_Gymnosperms": 0, "count_Reptiles": 0, "count_Mammals": 0, "count_Birds": 1, "count_Arachnids": 0, "count_Molluscs": 0, "unique_species_count": 1.0, "countryCode": "AF" }, "geometry": { "type": "MultiPolygon", "coordinates": [ [ [ [ 65.009312028446246, 35.453328009047461 ], [ 65.411774311981347, 35.007398303290593 ], [ 65.240547961016162, 34.54244929902417 ], [ 64.684867230425624, 34.521142156437286 ], [ 64.299008865572816, 34.963572647591185 ], [ 64.451736417045865, 35.430867532992053 ], [ 65.009312028446246, 35.453328009047461 ] ] ] ] } },
{ "type": "Feature", "properties": { "geogrid_id": "835040976066525170", "seqnum": 22903.0, "lat_c": 35.040975640562195, "lon_c": 66.525169523472499, "res": 8.0, "count_Insects": 0, "count_Sac Fungi": 1, "count_Basidiomycota": 0, "count_Ferns": 0, "count_Amphibians": 0, "count_Flowering Plants": 0, "count_Gymnosperms": 0, "count_Reptiles": 0, "count_Mammals": 0, "count_Birds": 0, "count_Arachnids": 0, "count_Molluscs": 0, "unique_species_count": 1.0, "countryCode": "AF" }, "geometry": { "type": "MultiPolygon", "coordinates": [ [ [ [ 66.684031133202566, 35.505209791889762 ], [ 67.082121241441243, 35.053908900730164 ], [ 66.90745262249095, 34.591193221491601 ], [ 66.351811907007558, 34.577483472249497 ], [ 65.968387971134788, 35.025470613084707 ], [ 66.125473301295855, 35.490503204943359 ], [ 66.684031133202566, 35.505209791889762 ] ] ] ] } },
{ "type": "Feature", "properties": { "geogrid_id": "835064370071542879", "seqnum": 23392.0, "lat_c": 35.064369853868691, "lon_c": 71.542878930996253, "res": 8.0, "count_Insects": 2, "count_Sac Fungi": 0, "count_Basidiomycota": 0, "count_Ferns": 0, "count_Amphibians": 0, "count_Flowering Plants": 1, "count_Gymnosperms": 0, "count_Reptiles": 0, "count_Mammals": 8, "count_Birds": 1, "count_Arachnids": 0, "count_Molluscs": 0, "unique_species_count": 12.0, "countryCode": "AF" }, "geometry": { "type": "MultiPolygon", "coordinates": [ [ [ [ 71.721764035689759, 35.520510851557866 ], [ 72.100896264291848, 35.05401044636239 ], [ 71.909801813882098, 34.599406499174819 ], [ 71.353893542405416, 34.608775184278684 ], [ 70.984913578005347, 35.072131296453648 ], [ 71.161340178042011, 35.529251179517033 ], [ 71.721764035689759, 35.520510851557866 ] ] ] ] } },
{ "type": "Feature", "properties": { "geogrid_id": "835072044068196521", "seqnum": 23066.0, "lat_c": 35.072044240675432, "lon_c": 68.196520680956908, "res": 8.0, "count_Insects": 1, "count_Sac Fungi": 0, "count_Basidiomycota": 0, "count_Ferns": 0, "count_Amphibians": 0, "count_Flowering Plants": 10, "count_Gymnosperms": 0, "count_Reptiles": 0, "count_Mammals": 15, "count_Birds": 2, "count_Arachnids": 0, "count_Molluscs": 0, "unique_species_count": 28.0, "countryCode": "AF" }, "geometry": { "type": "MultiPolygon", "coordinates": [ [ [ [ 68.361397137913229, 35.533760198987714 ], [ 68.753952083220412, 35.077239220380648 ], [ 68.574586224836082, 34.617016526106298 ], [ 68.018832845012895, 34.610964969126336 ], [ 67.639240484677629, 35.064266335372132 ], [ 67.802013246815264, 35.526841841027903 ], [ 68.361397137913229, 35.533760198987714 ] ] ] ] } },
{ "type": "Feature", "properties": { "geogrid_id": "835079868069869217", "seqnum": 23229.0, "lat_c": 35.079868184445075, "lon_c": 69.869217068246215, "res": 8.0, "count_Insects": 4, "count_Sac Fungi": 0, "count_Basidiomycota": 2, "count_Ferns": 0, "count_Amphibians": 0, "count_Flowering Plants": 1, "count_Gymnosperms": 1, "count_Reptiles": 0, "count_Mammals": 0, "count_Birds": 2, "count_Arachnids": 0, "count_Molluscs": 0, "unique_species_count": 10.0, "countryCode": "AF" }, "geometry": { "type": "MultiPolygon", "coordinates": [ [ [ [ 70.040853469930312, 35.53888610339812 ], [ 70.427020016610015, 35.077296691120182 ], [ 70.242090687151403, 34.619784393742634 ], [ 69.686220227963545, 34.621429744806974 ], [ 69.311522361050862, 35.07984815543989 ], [ 69.480840582182921, 35.539785281115968 ], [ 70.040853469930312, 35.53888610339812 ] ] ] ] } },
{ "type": "Feature", "properties": { "geogrid_id": "835315308062224923", "seqnum": 22496.0, "lat_c": 35.31530847287209, "lon_c": 62.224922968165501, "res": 8.0, "count_Insects": 0, "count_Sac Fungi": 0, "count_Basidiomycota": 0, "count_Ferns": 0, "count_Amphibians": 0, "count_Flowering Plants": 1, "count_Gymnosperms": 0, "count_Reptiles": 0, "count_Mammals": 0, "count_Birds": 0, "count_Arachnids": 0, "count_Molluscs": 0, "unique_species_count": 1.0, "countryCode": "AF" }, "geometry": { "type": "MultiPolygon", "coordinates": [ [ [ [ 62.346274847711953, 35.785396283164062 ], [ 62.78111213104323, 35.348046560915193 ], [ 62.63059569813646, 34.87873549569975 ], [ 62.074432109418986, 34.845404151877112 ], [ 61.669041402681188, 35.28001322936808 ], [ 61.788740565065304, 35.750749045507824 ], [ 62.346274847711953, 35.785396283164062 ] ] ] ] } },
{ "type": "Feature", "properties": { "geogrid_id": "835473208065567228", "seqnum": 22822.0, "lat_c": 35.473207947757423, "lon_c": 65.567228467757531, "res": 8.0, "count_Insects": 0, "count_Sac Fungi": 0, "count_Basidiomycota": 0, "count_Ferns": 0, "count_Amphibians": 0, "count_Flowering Plants": 0, "count_Gymnosperms": 0, "count_Reptiles": 0, "count_Mammals": 1, "count_Birds": 0, "count_Arachnids": 0, "count_Molluscs": 0, "unique_species_count": 1.0, "countryCode": "AF" }, "geometry": { "type": "MultiPolygon", "coordinates": [ [ [ [ 65.702404707903483, 35.939099339395362 ], [ 66.125473301295855, 35.490503204943359 ], [ 65.968387971134788, 35.025470613084707 ], [ 65.411774311981347, 35.007398303290593 ], [ 65.009312028446246, 35.453328009047461 ], [ 65.141883279739929, 35.91995991367002 ], [ 65.702404707903483, 35.939099339395362 ] ] ] ] } },
{ "type": "Feature", "properties": { "geogrid_id": "835517324067242884", "seqnum": 22985.0, "lat_c": 35.517323885847979, "lon_c": 67.242884276195852, "res": 8.0, "count_Insects": 0, "count_Sac Fungi": 0, "count_Basidiomycota": 0, "count_Ferns": 0, "count_Amphibians": 0, "count_Flowering Plants": 0, "count_Gymnosperms": 0, "count_Reptiles": 1, "count_Mammals": 0, "count_Birds": 1, "count_Arachnids": 0, "count_Molluscs": 0, "unique_species_count": 2.0, "countryCode": "AF" }, "geometry": { "type": "MultiPolygon", "coordinates": [ [ [ [ 67.386275823794364, 35.980882168431727 ], [ 67.802013246815264, 35.526841841027903 ], [ 67.639240484677629, 35.064266335372132 ], [ 67.082121241441243, 35.053908900730164 ], [ 66.684031133202566, 35.505209791889762 ], [ 66.824628733260141, 35.969564909800432 ], [ 67.386275823794364, 35.980882168431727 ] ] ] ] } },
{ "type": "Feature", "properties": { "geogrid_id": "835535376070601028", "seqnum": 23311.0, "lat_c": 35.535375537652612, "lon_c": 70.601028264237428, "res": 8.0, "count_Insects": 2, "count_Sac Fungi": 0, "count_Basidiomycota": 0, "count_Ferns": 0, "count_Amphibians": 0, "count_Flowering Plants": 1, "count_Gymnosperms": 0, "count_Reptiles": 0, "count_Mammals": 1, "count_Birds": 3, "count_Arachnids": 0, "count_Molluscs": 0, "unique_species_count": 7.0, "countryCode": "AF" }, "geometry": { "type": "MultiPolygon", "coordinates": [ [ [ [ 70.761879609847426, 35.993728155058484 ], [ 71.161340178042011, 35.529251179517033 ], [ 70.984913578005347, 35.072131296453648 ], [ 70.427020016610015, 35.077296691120182 ], [ 70.040853469930312, 35.53888610339812 ], [ 70.19873935490736, 35.998158144777022 ], [ 70.761879609847426, 35.993728155058484 ] ] ] ] } },
{ "type": "Feature", "properties": { "geogrid_id": "835538076068921014", "seqnum": 23148.0, "lat_c": 35.53807569797852, "lon_c": 68.92101390379085, "res": 8.0, "count_Insects": 9, "count_Sac Fungi": 0, "count_Basidiomycota": 1, "count_Ferns": 0, "count_Amphibians": 0, "count_Flowering Plants": 7, "count_Gymnosperms": 0, "count_Reptiles": 1, "count_Mammals": 2, "count_Birds": 24, "count_Arachnids": 0, "count_Molluscs": 0, "unique_species_count": 44.0, "countryCode": "AF" }, "geometry": { "type": "MultiPolygon", "coordinates": [ [ [ [ 69.073021274051555, 35.999123798496576 ], [ 69.480840582182921, 35.539785281115968 ], [ 69.311522361050862, 35.07984815543989 ], [ 68.753952083220412, 35.077239220380648 ], [ 68.361397137913229, 35.533760198987714 ], [ 68.51050026082649, 35.995665299527779 ], [ 69.073021274051555, 35.999123798496576 ] ] ] ] } },
{ "type": "Feature", "properties": { "geogrid_id": "835817473062904374", "seqnum": 22578.0, "lat_c": 35.817473135148688, "lon_c": 62.90437358923112, "res": 8.0, "count_Insects": 1, "count_Sac Fungi": 0, "count_Basidiomycota": 0, "count_Ferns": 0, "count_Amphibians": 0, "count_Flowering Plants": 1, "count_Gymnosperms": 0, "count_Reptiles": 0, "count_Mammals": 0, "count_Birds": 2, "count_Arachnids": 0, "count_Molluscs": 0, "unique_species_count": 4.0, "countryCode": "AF" }, "geometry": { "type": "MultiPolygon", "coordinates": [ [ [ [ 63.265007660548051, 36.29919509276769 ], [ 63.463010496156706, 35.846973586111361 ], [ 63.337636661704956, 35.378222285157648 ], [ 62.78111213104323, 35.348046560915193 ], [ 62.346274847711953, 35.785396283164062 ], [ 62.702012427036735, 36.268735657874167 ], [ 63.265007660548051, 36.29919509276769 ] ] ] ] } },
{ "type": "Feature", "properties": { "geogrid_id": "835898222064581792", "seqnum": 22741.0, "lat_c": 35.898222398762002, "lon_c": 64.581792283545411, "res": 8.0, "count_Insects": 1, "count_Sac Fungi": 0, "count_Basidiomycota": 0, "count_Ferns": 1, "count_Amphibians": 0, "count_Flowering Plants": 1, "count_Gymnosperms": 0, "count_Reptiles": 0, "count_Mammals": 7, "count_Birds": 1, "count_Arachnids": 0, "count_Molluscs": 0, "unique_species_count": 11.0, "countryCode": "AF" }, "geometry": { "type": "MultiPolygon", "coordinates": [ [ [ [ 64.956205000531199, 36.374777574174729 ], [ 65.141883279739929, 35.91995991367002 ], [ 65.009312028446246, 35.453328009047461 ], [ 64.451736417045865, 35.430867532992053 ], [ 64.022159001849872, 35.873891855146503 ], [ 64.392105967589316, 36.352216318688072 ], [ 64.956205000531199, 36.374777574174729 ] ] ] ] } },
{ "type": "Feature", "properties": { "geogrid_id": "835955636066263329", "seqnum": 22904.0, "lat_c": 35.955635860697257, "lon_c": 66.263329082494835, "res": 8.0, "count_Insects": 0, "count_Sac Fungi": 0, "count_Basidiomycota": 0, "count_Ferns": 0, "count_Amphibians": 0, "count_Flowering Plants": 0, "count_Gymnosperms": 0, "count_Reptiles": 0, "count_Mammals": 0, "count_Birds": 3, "count_Arachnids": 0, "count_Molluscs": 0, "unique_species_count": 3.0, "countryCode": "AF" }, "geometry": { "type": "MultiPolygon", "coordinates": [ [ [ [ 66.650566259673923, 36.426642076150259 ], [ 66.824628733260141, 35.969564909800432 ], [ 66.684031133202566, 35.505209791889762 ], [ 66.125473301295855, 35.490503204943359 ], [ 65.702404707903483, 35.939099339395362 ], [ 66.085451059976521, 36.411992896962012 ], [ 66.650566259673923, 36.426642076150259 ] ] ] ] } },
{ "type": "Feature", "properties": { "geogrid_id": "835986663071325169", "seqnum": 23393.0, "lat_c": 35.986663261780244, "lon_c": 71.325169401582841, "res": 8.0, "count_Insects": 3, "count_Sac Fungi": 0, "count_Basidiomycota": 0, "count_Ferns": 0, "count_Amphibians": 0, "count_Flowering Plants": 1, "count_Gymnosperms": 1, "count_Reptiles": 0, "count_Mammals": 1, "count_Birds": 3, "count_Arachnids": 0, "count_Molluscs": 0, "unique_species_count": 9.0, "countryCode": "AF" }, "geometry": { "type": "MultiPolygon", "coordinates": [ [ [ [ 71.747412301030096, 36.439240104290072 ], [ 71.888580256869318, 35.976961191653615 ], [ 71.721764035689759, 35.520510851557866 ], [ 71.161340178042011, 35.529251179517033 ], [ 70.761879609847426, 35.993728155058484 ], [ 71.180435077286219, 36.448470094635375 ], [ 71.747412301030096, 36.439240104290072 ] ] ] ] } },
{ "type": "Feature", "properties": { "geogrid_id": "835989584067948242", "seqnum": 23067.0, "lat_c": 35.989583569658819, "lon_c": 67.948242370343635, "res": 8.0, "count_Insects": 14, "count_Sac Fungi": 1, "count_Basidiomycota": 0, "count_Ferns": 0, "count_Amphibians": 0, "count_Flowering Plants": 14, "count_Gymnosperms": 0, "count_Reptiles": 0, "count_Mammals": 0, "count_Birds": 13, "count_Arachnids": 0, "count_Molluscs": 0, "unique_species_count": 42.0, "countryCode": "AF" }, "geometry": { "type": "MultiPolygon", "coordinates": [ [ [ [ 68.34764067556533, 36.454722502668531 ], [ 68.51050026082649, 35.995665299527779 ], [ 68.361397137913229, 35.533760198987714 ], [ 67.802013246815264, 35.526841841027903 ], [ 67.386275823794364, 35.980882168431727 ], [ 67.781683217148156, 36.448009710678178 ], [ 68.34764067556533, 36.454722502668531 ] ] ] ] } },
{ "type": "Feature", "properties": { "geogrid_id": "835999956069635777", "seqnum": 23230.0, "lat_c": 35.999955762661912, "lon_c": 69.635777099108239, "res": 8.0, "count_Insects": 3, "count_Sac Fungi": 0, "count_Basidiomycota": 0, "count_Ferns": 1, "count_Amphibians": 0, "count_Flowering Plants": 2, "count_Gymnosperms": 0, "count_Reptiles": 0, "count_Mammals": 0, "count_Birds": 1, "count_Arachnids": 0, "count_Molluscs": 0, "unique_species_count": 7.0, "countryCode": "AF" }, "geometry": { "type": "MultiPolygon", "coordinates": [ [ [ [ 70.046818903390744, 36.458944142307651 ], [ 70.19873935490736, 35.998158144777022 ], [ 70.040853469930312, 35.53888610339812 ], [ 69.480840582182921, 35.539785281115968 ], [ 69.073021274051555, 35.999123798496576 ], [ 69.480233798457348, 36.460192292933669 ], [ 70.046818903390744, 36.458944142307651 ] ] ] ] } },
{ "type": "Feature", "properties": { "geogrid_id": "836438649067215984", "seqnum": 22986.0, "lat_c": 36.438648626604518, "lon_c": 67.215984125538981, "res": 8.0, "count_Insects": 14, "count_Sac Fungi": 0, "count_Basidiomycota": 0, "count_Ferns": 0, "count_Amphibians": 2, "count_Flowering Plants": 20, "count_Gymnosperms": 1, "count_Reptiles": 5, "count_Mammals": 14, "count_Birds": 23, "count_Arachnids": 1, "count_Molluscs": 1, "unique_species_count": 81.0, "countryCode": "AF" }, "geometry": { "type": "MultiPolygon", "coordinates": [ [ [ [ 67.594524163907508, 36.905278065571949 ], [ 67.781683217148156, 36.448009710678178 ], [ 67.386275823794364, 35.980882168431727 ], [ 66.824628733260141, 35.969564909800432 ], [ 66.650566259673923, 36.426642076150259 ], [ 67.024249243305249, 36.895071211330283 ], [ 67.594524163907508, 36.905278065571949 ] ] ] ] } },
{ "type": "Feature", "properties": { "geogrid_id": "836455037070613562", "seqnum": 23312.0, "lat_c": 36.455037458763989, "lon_c": 70.613561572966418, "res": 8.0, "count_Insects": 3, "count_Sac Fungi": 0, "count_Basidiomycota": 0, "count_Ferns": 0, "count_Amphibians": 0, "count_Flowering Plants": 1, "count_Gymnosperms": 1, "count_Reptiles": 1, "count_Mammals": 0, "count_Birds": 4, "count_Arachnids": 0, "count_Molluscs": 0, "unique_species_count": 10.0, "countryCode": "AF" }, "geometry": { "type": "MultiPolygon", "coordinates": [ [ [ [ 71.019159028674665, 36.909947562137326 ], [ 71.180435077286219, 36.448470094635375 ], [ 70.761879609847426, 35.993728155058484 ], [ 70.19873935490736, 35.998158144777022 ], [ 70.046818903390744, 36.458944142307651 ], [ 70.448121712159676, 36.915905880496894 ], [ 71.019159028674665, 36.909947562137326 ] ] ] ] } },
{ "type": "Feature", "properties": { "geogrid_id": "836458784068913833", "seqnum": 23149.0, "lat_c": 36.45878424544955, "lon_c": 68.913832505971257, "res": 8.0, "count_Insects": 0, "count_Sac Fungi": 0, "count_Basidiomycota": 0, "count_Ferns": 0, "count_Amphibians": 0, "count_Flowering Plants": 1, "count_Gymnosperms": 0, "count_Reptiles": 0, "count_Mammals": 7, "count_Birds": 1, "count_Arachnids": 0, "count_Molluscs": 0, "unique_species_count": 9.0, "countryCode": "AF" }, "geometry": { "type": "MultiPolygon", "coordinates": [ [ [ [ 69.306304875715554, 36.919736909812528 ], [ 69.480233798457348, 36.460192292933669 ], [ 69.073021274051555, 35.999123798496576 ], [ 68.51050026082649, 35.995665299527779 ], [ 68.34764067556533, 36.454722502668531 ], [ 68.735567031248095, 36.917610913260603 ], [ 69.306304875715554, 36.919736909812528 ] ] ] ] } },
{ "type": "Feature", "properties": { "geogrid_id": "836827277064744989", "seqnum": 22742.0, "lat_c": 36.827277389699994, "lon_c": 64.744988509614785, "res": 8.0, "count_Insects": 0, "count_Sac Fungi": 0, "count_Basidiomycota": 0, "count_Ferns": 0, "count_Amphibians": 0, "count_Flowering Plants": 0, "count_Gymnosperms": 0, "count_Reptiles": 0, "count_Mammals": 7, "count_Birds": 2, "count_Arachnids": 0, "count_Molluscs": 0, "unique_species_count": 9.0, "countryCode": "AF" }, "geometry": { "type": "MultiPolygon", "coordinates": [ [ [ [ 65.087967145256442, 37.299146981411837 ], [ 65.314524540613277, 36.848276473420917 ], [ 64.956205000531199, 36.374777574174729 ], [ 64.392105967589316, 36.352216318688072 ], [ 64.175625274705453, 36.803568873571209 ], [ 64.512647534644955, 37.276757720181983 ], [ 65.087967145256442, 37.299146981411837 ] ] ] ] } },
{ "type": "Feature", "properties": { "geogrid_id": "836859147073303628", "seqnum": 23557.0, "lat_c": 36.859146936558304, "lon_c": 73.303627685066814, "res": 8.0, "count_Insects": 1, "count_Sac Fungi": 0, "count_Basidiomycota": 0, "count_Ferns": 0, "count_Amphibians": 0, "count_Flowering Plants": 8, "count_Gymnosperms": 0, "count_Reptiles": 0, "count_Mammals": 0, "count_Birds": 0, "count_Arachnids": 0, "count_Molluscs": 0, "unique_species_count": 9.0, "countryCode": "AF" }, "geometry": { "type": "MultiPolygon", "coordinates": [ [ [ [ 73.720710635609777, 37.303514849641559 ], [ 73.874700804058335, 36.839702404925454 ], [ 73.44869099163877, 36.395558177239188 ], [ 72.881567997131015, 36.412785539869738 ], [ 72.732511529985601, 36.875893325937625 ], [ 73.145307038912065, 37.322416348600477 ], [ 73.720710635609777, 37.303514849641559 ] ] ] ] } },
{ "type": "Feature", "properties": { "geogrid_id": "836882170066454154", "seqnum": 22905.0, "lat_c": 36.882169900552249, "lon_c": 66.454153921139209, "res": 8.0, "count_Insects": 0, "count_Sac Fungi": 0, "count_Basidiomycota": 0, "count_Ferns": 0, "count_Amphibians": 0, "count_Flowering Plants": 3, "count_Gymnosperms": 0, "count_Reptiles": 0, "count_Mammals": 1, "count_Birds": 7, "count_Arachnids": 0, "count_Molluscs": 0, "unique_species_count": 11.0, "countryCode": "AF" }, "geometry": { "type": "MultiPolygon", "coordinates": [ [ [ [ 66.814015229965676, 37.349567398981542 ], [ 67.024249243305249, 36.895071211330283 ], [ 66.650566259673923, 36.426642076150259 ], [ 66.085451059976521, 36.411992896962012 ], [ 65.88424501221958, 36.866572555651182 ], [ 66.23862982488761, 37.335537993301642 ], [ 66.814015229965676, 37.349567398981542 ] ] ] ] } },
{ "type": "Feature", "properties": { "geogrid_id": "836901293071590252", "seqnum": 23394.0, "lat_c": 36.90129311978297, "lon_c": 71.59025236993952, "res": 8.0, "count_Insects": 0, "count_Sac Fungi": 0, "count_Basidiomycota": 0, "count_Ferns": 0, "count_Amphibians": 0, "count_Flowering Plants": 6, "count_Gymnosperms": 2, "count_Reptiles": 0, "count_Mammals": 10, "count_Birds": 1, "count_Arachnids": 0, "count_Molluscs": 0, "unique_species_count": 19.0, "countryCode": "AF" }, "geometry": { "type": "MultiPolygon", "coordinates": [ [ [ [ 71.994244610490554, 37.352015341453416 ], [ 72.161378037680791, 36.889941899267598 ], [ 71.747412301030096, 36.439240104290072 ], [ 71.180435077286219, 36.448470094635375 ], [ 71.019159028674665, 36.909947562137326 ], [ 71.418629858746101, 37.362710846315323 ], [ 71.994244610490554, 37.352015341453416 ] ] ] ] } },
{ "type": "Feature", "properties": { "geogrid_id": "836912791068164968", "seqnum": 23068.0, "lat_c": 36.912791233358817, "lon_c": 68.164968019870841, "res": 8.0, "count_Insects": 0, "count_Sac Fungi": 0, "count_Basidiomycota": 0, "count_Ferns": 0, "count_Amphibians": 0, "count_Flowering Plants": 1, "count_Gymnosperms": 0, "count_Reptiles": 0, "count_Mammals": 1, "count_Birds": 1, "count_Arachnids": 0, "count_Molluscs": 0, "unique_species_count": 3.0, "countryCode": "AF" }, "geometry": { "type": "MultiPolygon", "coordinates": [ [ [ [ 68.540481939681626, 37.375096081205712 ], [ 68.735567031248095, 36.917610913260603 ], [ 68.34764067556533, 36.454722502668531 ], [ 67.781683217148156, 36.448009710678178 ], [ 67.594524163907508, 36.905278065571949 ], [ 67.96494086363478, 37.369340282819898 ], [ 68.540481939681626, 37.375096081205712 ] ] ] ] } },
{ "type": "Feature", "properties": { "geogrid_id": "836919169069877163", "seqnum": 23231.0, "lat_c": 36.919168768641697, "lon_c": 69.877163145088829, "res": 8.0, "count_Insects": 0, "count_Sac Fungi": 0, "count_Basidiomycota": 0, "count_Ferns": 0, "count_Amphibians": 0, "count_Flowering Plants": 1, "count_Gymnosperms": 0, "count_Reptiles": 0, "count_Mammals": 1, "count_Birds": 1, "count_Arachnids": 0, "count_Molluscs": 0, "unique_species_count": 3.0, "countryCode": "AF" }, "geometry": { "type": "MultiPolygon", "coordinates": [ [ [ [ 70.267334556564478, 37.375888216227182 ], [ 70.448121712159676, 36.915905880496894 ], [ 70.046818903390744, 36.458944142307651 ], [ 69.480233798457348, 36.460192292933669 ], [ 69.306304875715554, 36.919736909812528 ], [ 69.69168997549427, 37.378367231176057 ], [ 70.267334556564478, 37.375888216227182 ] ] ] ] } },
{ "type": "Feature", "properties": { "geogrid_id": "837281880074295998", "seqnum": 23639.0, "lat_c": 37.281879987989043, "lon_c": 74.295998221094663, "res": 8.0, "count_Insects": 0, "count_Sac Fungi": 0, "count_Basidiomycota": 0, "count_Ferns": 1, "count_Amphibians": 0, "count_Flowering Plants": 1, "count_Gymnosperms": 0, "count_Reptiles": 0, "count_Mammals": 0, "count_Birds": 0, "count_Arachnids": 0, "count_Molluscs": 0, "unique_species_count": 2.0, "countryCode": "AF" }, "geometry": { "type": "MultiPolygon", "coordinates": [ [ [ [ 74.714409852938573, 37.721976689068505 ], [ 74.871145665797542, 37.257512791850431 ], [ 74.445704756884879, 36.817559562470443 ], [ 73.874700804058335, 36.839702404925454 ], [ 73.720710635609777, 37.303514849641559 ], [ 74.134730271251215, 37.745780596265959 ], [ 74.714409852938573, 37.721976689068505 ] ] ] ] } },
{ "type": "Feature", "properties": { "geogrid_id": "837338584072569811", "seqnum": 23476.0, "lat_c": 37.338583503798432, "lon_c": 72.56981084576222, "res": 8.0, "count_Insects": 0, "count_Sac Fungi": 0, "count_Basidiomycota": 0, "count_Ferns": 0, "count_Amphibians": 0, "count_Flowering Plants": 0, "count_Gymnosperms": 0, "count_Reptiles": 0, "count_Mammals": 2, "count_Birds": 1, "count_Arachnids": 0, "count_Molluscs": 0, "unique_species_count": 3.0, "countryCode": "AF" }, "geometry": { "type": "MultiPolygon", "coordinates": [ [ [ [ 72.974816985850623, 37.785070126508245 ], [ 73.145307038912065, 37.322416348600477 ], [ 72.732511529985601, 36.875893325937625 ], [ 72.161378037680791, 36.889941899267598 ], [ 71.994244610490554, 37.352015341453416 ], [ 72.39462529775092, 37.800550612338142 ], [ 72.974816985850623, 37.785070126508245 ] ] ] ] } },
{ "type": "Feature", "properties": { "geogrid_id": "837360833067389451", "seqnum": 22987.0, "lat_c": 37.360832504078687, "lon_c": 67.389451261883934, "res": 8.0, "count_Insects": 0, "count_Sac Fungi": 0, "count_Basidiomycota": 0, "count_Ferns": 0, "count_Amphibians": 0, "count_Flowering Plants": 1, "count_Gymnosperms": 0, "count_Reptiles": 2, "count_Mammals": 1, "count_Birds": 0, "count_Arachnids": 0, "count_Molluscs": 0, "unique_species_count": 4.0, "countryCode": "AF" }, "geometry": { "type": "MultiPolygon", "coordinates": [ [ [ [ 67.749610771923287, 37.82398572848971 ], [ 67.96494086363478, 37.369340282819898 ], [ 67.594524163907508, 36.905278065571949 ], [ 67.024249243305249, 36.895071211330283 ], [ 66.814015229965676, 37.349567398981542 ], [ 67.168687897807288, 37.81428016506451 ], [ 67.749610771923287, 37.82398572848971 ] ] ] ] } },
{ "type": "Feature", "properties": { "geogrid_id": "837370669070842987", "seqnum": 23313.0, "lat_c": 37.3706689018112, "lon_c": 70.842986891705522, "res": 8.0, "count_Insects": 2, "count_Sac Fungi": 0, "count_Basidiomycota": 0, "count_Ferns": 0, "count_Amphibians": 2, "count_Flowering Plants": 3, "count_Gymnosperms": 0, "count_Reptiles": 0, "count_Mammals": 3, "count_Birds": 0, "count_Arachnids": 0, "count_Molluscs": 0, "unique_species_count": 10.0, "countryCode": "AF" }, "geometry": { "type": "MultiPolygon", "coordinates": [ [ [ [ 71.233867567690865, 37.823168736028791 ], [ 71.418629858746101, 37.362710846315323 ], [ 71.019159028674665, 36.909947562137326 ], [ 70.448121712159676, 36.915905880496894 ], [ 70.267334556564478, 37.375888216227182 ], [ 70.653335166357905, 37.830299712916975 ], [ 71.233867567690865, 37.823168736028791 ] ] ] ] } },
{ "type": "Feature", "properties": { "geogrid_id": "837378104069116068", "seqnum": 23150.0, "lat_c": 37.378104007389034, "lon_c": 69.116068223108996, "res": 8.0, "count_Insects": 1, "count_Sac Fungi": 0, "count_Basidiomycota": 0, "count_Ferns": 0, "count_Amphibians": 0, "count_Flowering Plants": 0, "count_Gymnosperms": 0, "count_Reptiles": 0, "count_Mammals": 4, "count_Birds": 0, "count_Arachnids": 0, "count_Molluscs": 0, "unique_species_count": 5.0, "countryCode": "AF" }, "geometry": { "type": "MultiPolygon", "coordinates": [ [ [ [ 69.492032420954246, 37.836185064251346 ], [ 69.69168997549427, 37.378367231176057 ], [ 69.306304875715554, 36.919736909812528 ], [ 68.735567031248095, 36.917610913260603 ], [ 68.540481939681626, 37.375096081205712 ], [ 68.911282264383402, 37.834929078020664 ], [ 69.492032420954246, 37.836185064251346 ] ] ] ] } },
{ "type": "Feature", "properties": { "geogrid_id": "837766813073554859", "seqnum": 23558.0, "lat_c": 37.766812575974505, "lon_c": 73.554858799129164, "res": 8.0, "count_Insects": 0, "count_Sac Fungi": 0, "count_Basidiomycota": 0, "count_Ferns": 0, "count_Amphibians": 0, "count_Flowering Plants": 0, "count_Gymnosperms": 0, "count_Reptiles": 0, "count_Mammals": 2, "count_Birds": 0, "count_Arachnids": 0, "count_Molluscs": 0, "unique_species_count": 2.0, "countryCode": "AF" }, "geometry": { "type": "MultiPolygon", "coordinates": [ [ [ [ 73.962749008668141, 38.209031241135314 ], [ 74.134730271251215, 37.745780596265959 ], [ 73.720710635609777, 37.303514849641559 ], [ 73.145307038912065, 37.322416348600477 ], [ 72.974816985850623, 37.785070126508245 ], [ 73.378043424796573, 38.229360224758565 ], [ 73.962749008668141, 38.209031241135314 ] ] ] ] } },
{ "type": "Feature", "properties": { "geogrid_id": "837813251071814303", "seqnum": 23395.0, "lat_c": 37.81325119287137, "lon_c": 71.814302926382737, "res": 8.0, "count_Insects": 0, "count_Sac Fungi": 0, "count_Basidiomycota": 0, "count_Ferns": 0, "count_Amphibians": 0, "count_Flowering Plants": 1, "count_Gymnosperms": 0, "count_Reptiles": 0, "count_Mammals": 0, "count_Birds": 2, "count_Arachnids": 0, "count_Molluscs": 0, "unique_species_count": 3.0, "countryCode": "AF" }, "geometry": { "type": "MultiPolygon", "coordinates": [ [ [ [ 72.207965829253766, 38.261549061863327 ], [ 72.39462529775092, 37.800550612338142 ], [ 71.994244610490554, 37.352015341453416 ], [ 71.418629858746101, 37.362710846315323 ], [ 71.233867567690865, 37.823168736028791 ], [ 71.622627588056616, 38.273398954358044 ], [ 72.207965829253766, 38.261549061863327 ] ] ] ] } },
{ "type": "Feature", "properties": { "geogrid_id": "837834640070072720", "seqnum": 23232.0, "lat_c": 37.834640068814373, "lon_c": 70.072719618100308, "res": 8.0, "count_Insects": 0, "count_Sac Fungi": 0, "count_Basidiomycota": 0, "count_Ferns": 0, "count_Amphibians": 0, "count_Flowering Plants": 1, "count_Gymnosperms": 0, "count_Reptiles": 0, "count_Mammals": 0, "count_Birds": 2, "count_Arachnids": 0, "count_Molluscs": 0, "unique_species_count": 3.0, "countryCode": "AF" }, "geometry": { "type": "MultiPolygon", "coordinates": [ [ [ [ 70.451422884622929, 38.288580468625732 ], [ 70.653335166357905, 37.830299712916975 ], [ 70.267334556564478, 37.375888216227182 ], [ 69.69168997549427, 37.378367231176057 ], [ 69.492032420954246, 37.836185064251346 ], [ 69.865577940423293, 38.291898005310017 ], [ 70.451422884622929, 38.288580468625732 ] ] ] ] } },
{ "type": "Feature", "properties": { "geogrid_id": "838282412071037109", "seqnum": 23314.0, "lat_c": 38.282411612678118, "lon_c": 71.037109267672889, "res": 8.0, "count_Insects": 0, "count_Sac Fungi": 0, "count_Basidiomycota": 0, "count_Ferns": 0, "count_Amphibians": 0, "count_Flowering Plants": 0, "count_Gymnosperms": 1, "count_Reptiles": 0, "count_Mammals": 0, "count_Birds": 2, "count_Arachnids": 0, "count_Molluscs": 0, "unique_species_count": 3.0, "countryCode": "AF" }, "geometry": { "type": "MultiPolygon", "coordinates": [ [ [ [ 71.420151376051138, 38.732261074449099 ], [ 71.622627588056616, 38.273398954358044 ], [ 71.233867567690865, 37.823168736028791 ], [ 70.653335166357905, 37.830299712916975 ], [ 70.451422884622929, 38.288580468625732 ], [ 70.829343549806325, 38.740240882079682 ], [ 71.420151376051138, 38.732261074449099 ] ] ] ] } }
]
}
