{
"type": "FeatureCollection",
"name": "AO",
"crs": { "type": "name", "properties": { "name": "urn:ogc:def:crs:OGC:1.3:CRS84" } },
"features": [
{ "type": "Feature", "properties": { "geogrid_id": "2904682199012466613", "seqnum": 5604.0, "lat_c": -4.6821989833781954, "lon_c": 12.466613256331636, "res": 7.0, "count_Reptiles": 7, "count_Birds": 5, "count_Molluscs": 0, "count_Amphibians": 1, "count_Insects": 17, "count_Flowering Plants": 0, "count_Mammals": 19, "count_Sac Fungi": 0, "count_Arachnids": 1, "count_Gymnosperms": 0, "count_Ferns": 0, "count_Mosses": 0, "count_Basidiomycota": 0, "unique_species_count": 50.0, "countryCode": "AO" }, "geometry": { "type": "MultiPolygon", "coordinates": [ [ [ [ 12.868827228494037, -3.904335950502211 ], [ 13.27744065394671, -4.683466214271168 ], [ 12.875526142115991, -5.460453447007189 ], [ 12.062846974462346, -5.459270038836833 ], [ 11.655562570543378, -4.681565328629484 ], [ 12.059479877405661, -3.903592190600593 ], [ 12.868827228494037, -3.904335950502211 ] ] ] ] } },
{ "type": "Feature", "properties": { "geogrid_id": "2905458876011250000", "seqnum": 5576.0, "lat_c": -5.4588755487277583, "lon_c": 11.250000000736193, "res": 7.0, "count_Reptiles": 0, "count_Birds": 2, "count_Molluscs": 9, "count_Amphibians": 0, "count_Insects": 0, "count_Flowering Plants": 0, "count_Mammals": 2, "count_Sac Fungi": 0, "count_Arachnids": 0, "count_Gymnosperms": 0, "count_Ferns": 0, "count_Mosses": 0, "count_Basidiomycota": 0, "unique_species_count": 13.0, "countryCode": "AO" }, "geometry": { "type": "MultiPolygon", "coordinates": [ [ [ [ 11.655562570543378, -4.681565328629484 ], [ 12.062846974462346, -5.459270038836833 ], [ 11.657362894468498, -6.235670984875961 ], [ 10.842637107535889, -6.235670985111379 ], [ 10.437153027009831, -5.459270039306314 ], [ 10.844437430397791, -4.681565328863607 ], [ 11.655562570543378, -4.681565328629484 ] ] ] ] } },
{ "type": "Feature", "properties": { "geogrid_id": "2905462426013687870", "seqnum": 5658.0, "lat_c": -5.4624255854027677, "lon_c": 13.687869886005922, "res": 7.0, "count_Reptiles": 0, "count_Birds": 0, "count_Molluscs": 0, "count_Amphibians": 0, "count_Insects": 0, "count_Flowering Plants": 0, "count_Mammals": 3, "count_Sac Fungi": 0, "count_Arachnids": 0, "count_Gymnosperms": 0, "count_Ferns": 0, "count_Mosses": 0, "count_Basidiomycota": 0, "unique_species_count": 3.0, "countryCode": "AO" }, "geometry": { "type": "MultiPolygon", "coordinates": [ [ [ [ 14.087896154086598, -4.685366863673871 ], [ 14.499710964696881, -5.465186141107299 ], [ 14.100211972981864, -6.241457669320934 ], [ 13.286339902583427, -6.238564616169836 ], [ 12.875526142115991, -5.460453447007189 ], [ 13.27744065394671, -4.683466214271168 ], [ 14.087896154086598, -4.685366863673871 ] ] ] ] } },
{ "type": "Feature", "properties": { "geogrid_id": "2906236636010028006", "seqnum": 5548.0, "lat_c": -6.2366355935510036, "lon_c": 10.028006257666091, "res": 7.0, "count_Reptiles": 0, "count_Birds": 0, "count_Molluscs": 0, "count_Amphibians": 0, "count_Insects": 0, "count_Flowering Plants": 0, "count_Mammals": 2, "count_Sac Fungi": 0, "count_Arachnids": 0, "count_Gymnosperms": 0, "count_Ferns": 0, "count_Mosses": 0, "count_Basidiomycota": 0, "unique_species_count": 2.0, "countryCode": "AO" }, "geometry": { "type": "MultiPolygon", "coordinates": [ [ [ [ 10.437153027009831, -5.459270039306314 ], [ 10.842637107535889, -6.235670985111379 ], [ 10.43332732053419, -7.012130279512305 ], [ 9.616870380269008, -7.013876258778668 ], [ 9.21366009941973, -6.238564617346421 ], [ 9.624473859355566, -5.46045344794596 ], [ 10.437153027009831, -5.459270039306314 ] ] ] ] } },
{ "type": "Feature", "properties": { "geogrid_id": "2906236636012471994", "seqnum": 5630.0, "lat_c": -6.2366355928448511, "lon_c": 12.471993744337887, "res": 7.0, "count_Reptiles": 12, "count_Birds": 75, "count_Molluscs": 31, "count_Amphibians": 4, "count_Insects": 11, "count_Flowering Plants": 32, "count_Mammals": 3, "count_Sac Fungi": 5, "count_Arachnids": 0, "count_Gymnosperms": 0, "count_Ferns": 0, "count_Mosses": 0, "count_Basidiomycota": 26, "unique_species_count": 199.0, "countryCode": "AO" }, "geometry": { "type": "MultiPolygon", "coordinates": [ [ [ [ 12.875526142115991, -5.460453447007189 ], [ 13.286339902583427, -6.238564616169836 ], [ 12.883129622267809, -7.013876257834452 ], [ 12.066672682003219, -7.012130279040088 ], [ 11.657362894468498, -6.235670984875961 ], [ 12.062846974462346, -5.459270038836833 ], [ 12.875526142115991, -5.460453447007189 ] ] ] ] } },
{ "type": "Feature", "properties": { "geogrid_id": "2906245314014913421", "seqnum": 5712.0, "lat_c": -6.2453141744191738, "lon_c": 14.913421155344542, "res": 7.0, "count_Reptiles": 0, "count_Birds": 0, "count_Molluscs": 0, "count_Amphibians": 0, "count_Insects": 3, "count_Flowering Plants": 9, "count_Mammals": 0, "count_Sac Fungi": 0, "count_Arachnids": 0, "count_Gymnosperms": 0, "count_Ferns": 0, "count_Mosses": 0, "count_Basidiomycota": 0, "unique_species_count": 12.0, "countryCode": "AO" }, "geometry": { "type": "MultiPolygon", "coordinates": [ [ [ [ 15.3108826998744, -5.468734676339897 ], [ 15.725779481430035, -6.250133361734961 ], [ 15.329055019120734, -7.026092012264519 ], [ 14.51453515614163, -7.020857994901325 ], [ 14.100211972981864, -6.241457669320934 ], [ 14.499710964696881, -5.465186141107299 ], [ 15.3108826998744, -5.468734676339897 ] ] ] ] } },
{ "type": "Feature", "properties": { "geogrid_id": "2907011548011250000", "seqnum": 5603.0, "lat_c": -7.011548237825469, "lon_c": 11.250000001268804, "res": 7.0, "count_Reptiles": 0, "count_Birds": 1, "count_Molluscs": 7, "count_Amphibians": 0, "count_Insects": 0, "count_Flowering Plants": 0, "count_Mammals": 2, "count_Sac Fungi": 0, "count_Arachnids": 0, "count_Gymnosperms": 0, "count_Ferns": 0, "count_Mosses": 0, "count_Basidiomycota": 0, "unique_species_count": 10.0, "countryCode": "AO" }, "geometry": { "type": "MultiPolygon", "coordinates": [ [ [ [ 11.657362894468498, -6.235670984875961 ], [ 12.066672682003219, -7.012130279040088 ], [ 11.65939534729681, -7.787080267399919 ], [ 10.840604655775255, -7.787080267636782 ], [ 10.43332732053419, -7.012130279512305 ], [ 10.842637107535889, -6.235670985111379 ], [ 11.657362894468498, -6.235670984875961 ] ] ] ] } },
{ "type": "Feature", "properties": { "geogrid_id": "2907016786008800845", "seqnum": 5521.0, "lat_c": -7.0167857398145319, "lon_c": 8.8008446146653689, "res": 7.0, "count_Reptiles": 0, "count_Birds": 0, "count_Molluscs": 0, "count_Amphibians": 0, "count_Insects": 0, "count_Flowering Plants": 0, "count_Mammals": 2, "count_Sac Fungi": 0, "count_Arachnids": 0, "count_Gymnosperms": 0, "count_Ferns": 0, "count_Mosses": 0, "count_Basidiomycota": 0, "unique_species_count": 2.0, "countryCode": "AO" }, "geometry": { "type": "MultiPolygon", "coordinates": [ [ [ [ 9.21366009941973, -6.238564617346421 ], [ 9.616870380269008, -7.013876258778668 ], [ 9.203639343834903, -7.791254524436896 ], [ 8.38595674751417, -7.795427486802764 ], [ 7.985464846392831, -7.02085799678802 ], [ 8.399788029020069, -6.241457670967447 ], [ 9.21366009941973, -6.238564617346421 ] ] ] ] } },
{ "type": "Feature", "properties": { "geogrid_id": "2907016786013699155", "seqnum": 5685.0, "lat_c": -7.0167857383987524, "lon_c": 13.699155387870464, "res": 7.0, "count_Reptiles": 0, "count_Birds": 0, "count_Molluscs": 0, "count_Amphibians": 0, "count_Insects": 19, "count_Flowering Plants": 2, "count_Mammals": 0, "count_Sac Fungi": 0, "count_Arachnids": 0, "count_Gymnosperms": 0, "count_Ferns": 0, "count_Mosses": 0, "count_Basidiomycota": 0, "unique_species_count": 21.0, "countryCode": "AO" }, "geometry": { "type": "MultiPolygon", "coordinates": [ [ [ [ 14.100211972981864, -6.241457669320934 ], [ 14.51453515614163, -7.020857994901325 ], [ 14.114043255555718, -7.795427485146366 ], [ 13.29636065923607, -7.791254523253168 ], [ 12.883129622267809, -7.013876257834452 ], [ 13.286339902583427, -6.238564616169836 ], [ 14.100211972981864, -6.241457669320934 ] ] ] ] } },
{ "type": "Feature", "properties": { "geogrid_id": "2907095114020988977", "seqnum": 5931.0, "lat_c": -7.0951140701990232, "lon_c": 20.988976991255473, "res": 7.0, "count_Reptiles": 2, "count_Birds": 26, "count_Molluscs": 0, "count_Amphibians": 0, "count_Insects": 1, "count_Flowering Plants": 3, "count_Mammals": 8, "count_Sac Fungi": 0, "count_Arachnids": 0, "count_Gymnosperms": 0, "count_Ferns": 0, "count_Mosses": 0, "count_Basidiomycota": 0, "unique_species_count": 40.0, "countryCode": "AO" }, "geometry": { "type": "MultiPolygon", "coordinates": [ [ [ [ 21.372955326178928, -6.310718210344123 ], [ 21.789123412171048, -7.109571419024707 ], [ 21.405748562773269, -7.89519295438606 ], [ 20.604371834240268, -7.878616509709557 ], [ 20.186327253238293, -7.081800141929979 ], [ 20.571698138454515, -6.299197735348799 ], [ 21.372955326178928, -6.310718210344123 ] ] ] ] } },
{ "type": "Feature", "properties": { "geogrid_id": "2907788472010021937", "seqnum": 5575.0, "lat_c": -7.7884718305119911, "lon_c": 10.021937218166626, "res": 7.0, "count_Reptiles": 0, "count_Birds": 1, "count_Molluscs": 0, "count_Amphibians": 0, "count_Insects": 0, "count_Flowering Plants": 0, "count_Mammals": 2, "count_Sac Fungi": 0, "count_Arachnids": 0, "count_Gymnosperms": 0, "count_Ferns": 0, "count_Mosses": 0, "count_Basidiomycota": 0, "unique_species_count": 3.0, "countryCode": "AO" }, "geometry": { "type": "MultiPolygon", "coordinates": [ [ [ [ 10.43332732053419, -7.012130279512305 ], [ 10.840604655775255, -7.787080267636782 ], [ 10.429035282313702, -8.562487917819533 ], [ 9.608353840166142, -8.564966493139346 ], [ 9.203639343834903, -7.791254524436896 ], [ 9.616870380269008, -7.013876258778668 ], [ 10.43332732053419, -7.012130279512305 ] ] ] ] } },
{ "type": "Feature", "properties": { "geogrid_id": "2907788472012478063", "seqnum": 5657.0, "lat_c": -7.7884718298015194, "lon_c": 12.478062784905076, "res": 7.0, "count_Reptiles": 0, "count_Birds": 15, "count_Molluscs": 11, "count_Amphibians": 0, "count_Insects": 9, "count_Flowering Plants": 2, "count_Mammals": 3, "count_Sac Fungi": 0, "count_Arachnids": 0, "count_Gymnosperms": 0, "count_Ferns": 0, "count_Mosses": 0, "count_Basidiomycota": 0, "unique_species_count": 40.0, "countryCode": "AO" }, "geometry": { "type": "MultiPolygon", "coordinates": [ [ [ [ 12.883129622267809, -7.013876257834452 ], [ 13.29636065923607, -7.791254523253168 ], [ 12.891646163441406, -8.564966492189097 ], [ 12.070964721294319, -8.56248791734428 ], [ 11.65939534729681, -7.787080267399919 ], [ 12.066672682003219, -7.012130279040088 ], [ 12.883129622267809, -7.013876257834452 ] ] ] ] } },
{ "type": "Feature", "properties": { "geogrid_id": "2907800989014930866", "seqnum": 5739.0, "lat_c": -7.8009894229877794, "lon_c": 14.9308658476623, "res": 7.0, "count_Reptiles": 11, "count_Birds": 86, "count_Molluscs": 0, "count_Amphibians": 0, "count_Insects": 45, "count_Flowering Plants": 23, "count_Mammals": 31, "count_Sac Fungi": 0, "count_Arachnids": 1, "count_Gymnosperms": 0, "count_Ferns": 1, "count_Mosses": 0, "count_Basidiomycota": 0, "unique_species_count": 198.0, "countryCode": "AO" }, "geometry": { "type": "MultiPolygon", "coordinates": [ [ [ [ 15.329055019120734, -7.026092012264519 ], [ 15.74658508803104, -7.807938616098022 ], [ 15.349168961278139, -8.582303192840753 ], [ 14.531029226057248, -8.574876031091392 ], [ 14.114043255555718, -7.795427485146366 ], [ 14.51453515614163, -7.020857994901325 ], [ 15.329055019120734, -7.026092012264519 ] ] ] ] } },
{ "type": "Feature", "properties": { "geogrid_id": "2907825990017373749", "seqnum": 5821.0, "lat_c": -7.8259897585739324, "lon_c": 17.373749319705578, "res": 7.0, "count_Reptiles": 0, "count_Birds": 0, "count_Molluscs": 1, "count_Amphibians": 0, "count_Insects": 0, "count_Flowering Plants": 1, "count_Mammals": 0, "count_Sac Fungi": 0, "count_Arachnids": 0, "count_Gymnosperms": 0, "count_Ferns": 0, "count_Mosses": 0, "count_Basidiomycota": 0, "unique_species_count": 2.0, "countryCode": "AO" }, "geometry": { "type": "MultiPolygon", "coordinates": [ [ [ [ 17.765336090298206, -7.048750164941382 ], [ 18.184717938965562, -7.837086148720181 ], [ 17.794052842667288, -8.614438269935263 ], [ 16.98095479857232, -8.602088087074213 ], [ 16.560959392734141, -7.816272917869087 ], [ 16.954665767524517, -7.04003982983931 ], [ 17.765336090298206, -7.048750164941382 ] ] ] ] } },
{ "type": "Feature", "properties": { "geogrid_id": "2907863404019800258", "seqnum": 5903.0, "lat_c": -7.8634035443938917, "lon_c": 19.800258249347902, "res": 7.0, "count_Reptiles": 0, "count_Birds": 15, "count_Molluscs": 0, "count_Amphibians": 0, "count_Insects": 0, "count_Flowering Plants": 1, "count_Mammals": 1, "count_Sac Fungi": 0, "count_Arachnids": 0, "count_Gymnosperms": 0, "count_Ferns": 0, "count_Mosses": 0, "count_Basidiomycota": 0, "unique_species_count": 17.0, "countryCode": "AO" }, "geometry": { "type": "MultiPolygon", "coordinates": [ [ [ [ 20.186327253238293, -7.081800141929979 ], [ 20.604371834240268, -7.878616509709557 ], [ 20.218952902071464, -8.661261648907383 ], [ 19.413314696089316, -8.644030645190934 ], [ 18.993631193474307, -7.849558682938402 ], [ 19.381370443806482, -7.069632899108376 ], [ 20.186327253238293, -7.081800141929979 ] ] ] ] } },
{ "type": "Feature", "properties": { "geogrid_id": "2907913128022204169", "seqnum": 5985.0, "lat_c": -7.9131278587041374, "lon_c": 22.204169247981607, "res": 7.0, "count_Reptiles": 0, "count_Birds": 15, "count_Molluscs": 0, "count_Amphibians": 0, "count_Insects": 0, "count_Flowering Plants": 0, "count_Mammals": 0, "count_Sac Fungi": 0, "count_Arachnids": 0, "count_Gymnosperms": 0, "count_Ferns": 0, "count_Mosses": 0, "count_Basidiomycota": 0, "unique_species_count": 15.0, "countryCode": "AO" }, "geometry": { "type": "MultiPolygon", "coordinates": [ [ [ [ 22.586573662671629, -7.125168654652698 ], [ 22.999419197828967, -7.932415814092788 ], [ 22.616844608238939, -8.722614503218635 ], [ 21.820965540460456, -8.700560912705004 ], [ 21.405748562773269, -7.89519295438606 ], [ 21.789123412171048, -7.109571419024707 ], [ 22.586573662671629, -7.125168654652698 ] ] ] ] } },
{ "type": "Feature", "properties": { "geogrid_id": "2908561662011250000", "seqnum": 5629.0, "lat_c": -8.5616616199976452, "lon_c": 11.250000001804091, "res": 7.0, "count_Reptiles": 0, "count_Birds": 0, "count_Molluscs": 2, "count_Amphibians": 0, "count_Insects": 0, "count_Flowering Plants": 0, "count_Mammals": 2, "count_Sac Fungi": 0, "count_Arachnids": 0, "count_Gymnosperms": 0, "count_Ferns": 0, "count_Mosses": 0, "count_Basidiomycota": 0, "unique_species_count": 4.0, "countryCode": "AO" }, "geometry": { "type": "MultiPolygon", "coordinates": [ [ [ [ 11.65939534729681, -7.787080267399919 ], [ 12.070964721294319, -8.56248791734428 ], [ 11.661664683434203, -9.336095135056683 ], [ 10.838335320711806, -9.336095135295142 ], [ 10.429035282313702, -8.562487917819533 ], [ 10.840604655775255, -7.787080267636782 ], [ 11.65939534729681, -7.787080267399919 ] ] ] ] } },
{ "type": "Feature", "properties": { "geogrid_id": "2908569096013711762", "seqnum": 5711.0, "lat_c": -8.5690963920340621, "lon_c": 13.71176157123266, "res": 7.0, "count_Reptiles": 25, "count_Birds": 137, "count_Molluscs": 120, "count_Amphibians": 7, "count_Insects": 89, "count_Flowering Plants": 168, "count_Mammals": 14, "count_Sac Fungi": 0, "count_Arachnids": 5, "count_Gymnosperms": 0, "count_Ferns": 3, "count_Mosses": 0, "count_Basidiomycota": 0, "unique_species_count": 568.0, "countryCode": "AO" }, "geometry": { "type": "MultiPolygon", "coordinates": [ [ [ [ 14.114043255555718, -7.795427485146366 ], [ 14.531029226057248, -8.574876031091392 ], [ 14.129359100096011, -9.347812687210032 ], [ 13.307503721619371, -9.341955306315967 ], [ 12.891646163441406, -8.564966492189097 ], [ 13.29636065923607, -7.791254523253168 ], [ 14.114043255555718, -7.795427485146366 ] ] ] ] } },
{ "type": "Feature", "properties": { "geogrid_id": "2908591375016165903", "seqnum": 5793.0, "lat_c": -8.5913750335967514, "lon_c": 16.165902669098884, "res": 7.0, "count_Reptiles": 9, "count_Birds": 68, "count_Molluscs": 2, "count_Amphibians": 21, "count_Insects": 38, "count_Flowering Plants": 10, "count_Mammals": 24, "count_Sac Fungi": 0, "count_Arachnids": 0, "count_Gymnosperms": 0, "count_Ferns": 0, "count_Mosses": 0, "count_Basidiomycota": 0, "unique_species_count": 172.0, "countryCode": "AO" }, "geometry": { "type": "MultiPolygon", "coordinates": [ [ [ [ 16.560959392734141, -7.816272917869087 ], [ 16.98095479857232, -8.602088087074213 ], [ 16.58677901072269, -9.377057848806539 ], [ 15.769317718585636, -9.365368119597287 ], [ 15.349168961278139, -8.582303192840753 ], [ 15.74658508803104, -7.807938616098022 ], [ 16.560959392734141, -7.816272917869087 ] ] ] ] } },
{ "type": "Feature", "properties": { "geogrid_id": "2908628421018604928", "seqnum": 5875.0, "lat_c": -8.6284208882989635, "lon_c": 18.604927812394159, "res": 7.0, "count_Reptiles": 0, "count_Birds": 0, "count_Molluscs": 0, "count_Amphibians": 1, "count_Insects": 4, "count_Flowering Plants": 0, "count_Mammals": 0, "count_Sac Fungi": 0, "count_Arachnids": 0, "count_Gymnosperms": 0, "count_Ferns": 0, "count_Mosses": 0, "count_Basidiomycota": 0, "unique_species_count": 5.0, "countryCode": "AO" }, "geometry": { "type": "MultiPolygon", "coordinates": [ [ [ [ 18.993631193474307, -7.849558682938402 ], [ 19.413314696089316, -8.644030645190934 ], [ 19.02531703287374, -9.423706194229531 ], [ 18.215087565902277, -9.406233739763195 ], [ 17.794052842667288, -8.614438269935263 ], [ 18.184717938965562, -7.837086148720181 ], [ 18.993631193474307, -7.849558682938402 ] ] ] ] } },
{ "type": "Feature", "properties": { "geogrid_id": "2908680107021021587", "seqnum": 5957.0, "lat_c": -8.680107422264939, "lon_c": 21.02158668300741, "res": 7.0, "count_Reptiles": 1, "count_Birds": 19, "count_Molluscs": 0, "count_Amphibians": 0, "count_Insects": 24, "count_Flowering Plants": 2, "count_Mammals": 4, "count_Sac Fungi": 0, "count_Arachnids": 0, "count_Gymnosperms": 0, "count_Ferns": 0, "count_Mosses": 0, "count_Basidiomycota": 0, "unique_species_count": 50.0, "countryCode": "AO" }, "geometry": { "type": "MultiPolygon", "coordinates": [ [ [ [ 21.405748562773269, -7.89519295438606 ], [ 21.820965540460456, -8.700560912705004 ], [ 21.436715698630106, -9.487561172091848 ], [ 20.636422544716879, -9.464379337400672 ], [ 20.218952902071464, -8.661261648907383 ], [ 20.604371834240268, -7.878616509709557 ], [ 21.405748562773269, -7.89519295438606 ] ] ] ] } },
{ "type": "Feature", "properties": { "geogrid_id": "2909338049010015170", "seqnum": 5602.0, "lat_c": -9.3380488363839547, "lon_c": 10.015169964705303, "res": 7.0, "count_Reptiles": 0, "count_Birds": 1, "count_Molluscs": 0, "count_Amphibians": 0, "count_Insects": 0, "count_Flowering Plants": 0, "count_Mammals": 2, "count_Sac Fungi": 0, "count_Arachnids": 0, "count_Gymnosperms": 0, "count_Ferns": 0, "count_Mosses": 0, "count_Basidiomycota": 0, "unique_species_count": 3.0, "countryCode": "AO" }, "geometry": { "type": "MultiPolygon", "coordinates": [ [ [ [ 10.429035282313702, -8.562487917819533 ], [ 10.838335320711806, -9.336095135295142 ], [ 10.424268053264935, -10.110662672200791 ], [ 9.598918890350188, -10.114118037734688 ], [ 9.192496282525907, -9.341955307507567 ], [ 9.608353840166142, -8.564966493139346 ], [ 10.429035282313702, -8.562487917819533 ] ] ] ] } },
{ "type": "Feature", "properties": { "geogrid_id": "2909338049012484830", "seqnum": 5684.0, "lat_c": -9.3380488356687117, "lon_c": 12.484830039440462, "res": 7.0, "count_Reptiles": 13, "count_Birds": 50, "count_Molluscs": 30, "count_Amphibians": 3, "count_Insects": 31, "count_Flowering Plants": 17, "count_Mammals": 6, "count_Sac Fungi": 0, "count_Arachnids": 1, "count_Gymnosperms": 0, "count_Ferns": 0, "count_Mosses": 0, "count_Basidiomycota": 0, "unique_species_count": 151.0, "countryCode": "AO" }, "geometry": { "type": "MultiPolygon", "coordinates": [ [ [ [ 12.891646163441406, -8.564966492189097 ], [ 13.307503721619371, -9.341955306315967 ], [ 12.901081114335449, -10.114118036777805 ], [ 12.07573195142092, -10.110662671722192 ], [ 11.661664683434203, -9.336095135056683 ], [ 12.070964721294319, -8.56248791734428 ], [ 12.891646163441406, -8.564966492189097 ] ] ] ] } },
{ "type": "Feature", "properties": { "geogrid_id": "2909355618014950071", "seqnum": 5766.0, "lat_c": -9.3556181932659292, "lon_c": 14.950071267984185, "res": 7.0, "count_Reptiles": 26, "count_Birds": 128, "count_Molluscs": 1, "count_Amphibians": 12, "count_Insects": 178, "count_Flowering Plants": 341, "count_Mammals": 15, "count_Sac Fungi": 0, "count_Arachnids": 3, "count_Gymnosperms": 1, "count_Ferns": 1, "count_Mosses": 1, "count_Basidiomycota": 0, "unique_species_count": 707.0, "countryCode": "AO" }, "geometry": { "type": "MultiPolygon", "coordinates": [ [ [ [ 15.349168961278139, -8.582303192840753 ], [ 15.769317718585636, -9.365368119597287 ], [ 15.371023640011913, -10.138277005520116 ], [ 14.549105548388052, -10.127929280185505 ], [ 14.129359100096011, -9.347812687210032 ], [ 14.531029226057248, -8.574876031091392 ], [ 15.349168961278139, -8.582303192840753 ] ] ] ] } },
{ "type": "Feature", "properties": { "geogrid_id": "2909390682017402139", "seqnum": 5848.0, "lat_c": -9.3906818600391162, "lon_c": 17.402139418997177, "res": 7.0, "count_Reptiles": 1, "count_Birds": 14, "count_Molluscs": 1, "count_Amphibians": 0, "count_Insects": 6, "count_Flowering Plants": 3, "count_Mammals": 23, "count_Sac Fungi": 0, "count_Arachnids": 0, "count_Gymnosperms": 0, "count_Ferns": 0, "count_Mosses": 0, "count_Basidiomycota": 0, "unique_species_count": 48.0, "countryCode": "AO" }, "geometry": { "type": "MultiPolygon", "coordinates": [ [ [ [ 17.794052842667288, -8.614438269935263 ], [ 18.215087565902277, -9.406233739763195 ], [ 17.823935692131819, -10.183011607743655 ], [ 17.008804928056119, -10.165826233880356 ], [ 16.58677901072269, -9.377057848806539 ], [ 16.98095479857232, -8.602088087074213 ], [ 17.794052842667288, -8.614438269935263 ] ] ] ] } },
{ "type": "Feature", "properties": { "geogrid_id": "2909443091019832527", "seqnum": 5930.0, "lat_c": -9.4430910635591943, "lon_c": 19.832526947550189, "res": 7.0, "count_Reptiles": 4, "count_Birds": 21, "count_Molluscs": 0, "count_Amphibians": 0, "count_Insects": 31, "count_Flowering Plants": 0, "count_Mammals": 0, "count_Sac Fungi": 0, "count_Arachnids": 0, "count_Gymnosperms": 0, "count_Ferns": 0, "count_Mosses": 0, "count_Basidiomycota": 0, "unique_species_count": 56.0, "countryCode": "AO" }, "geometry": { "type": "MultiPolygon", "coordinates": [ [ [ [ 20.218952902071464, -8.661261648907383 ], [ 20.636422544716879, -9.464379337400672 ], [ 20.250025031888132, -10.248087037642446 ], [ 19.444892036478421, -10.224153889524958 ], [ 19.02531703287374, -9.423706194229531 ], [ 19.413314696089316, -8.644030645190934 ], [ 20.218952902071464, -8.661261648907383 ] ] ] ] } },
{ "type": "Feature", "properties": { "geogrid_id": "2910109511011250000", "seqnum": 5656.0, "lat_c": -10.109510656184515, "lon_c": 11.250000002342965, "res": 7.0, "count_Reptiles": 0, "count_Birds": 1, "count_Molluscs": 0, "count_Amphibians": 0, "count_Insects": 0, "count_Flowering Plants": 0, "count_Mammals": 2, "count_Sac Fungi": 0, "count_Arachnids": 0, "count_Gymnosperms": 0, "count_Ferns": 0, "count_Mosses": 0, "count_Basidiomycota": 0, "unique_species_count": 3.0, "countryCode": "AO" }, "geometry": { "type": "MultiPolygon", "coordinates": [ [ [ [ 11.661664683434203, -9.336095135056683 ], [ 12.07573195142092, -10.110662671722192 ], [ 11.664176538152104, -10.883016518474388 ], [ 10.835823467075969, -10.883016518714605 ], [ 10.424268053264935, -10.110662672200791 ], [ 10.838335320711806, -9.336095135295142 ], [ 11.661664683434203, -9.336095135056683 ] ] ] ] } },
{ "type": "Feature", "properties": { "geogrid_id": "2910119875013725666", "seqnum": 5738.0, "lat_c": -10.119874706900132, "lon_c": 13.725665641050876, "res": 7.0, "count_Reptiles": 3, "count_Birds": 45, "count_Molluscs": 11, "count_Amphibians": 1, "count_Insects": 15, "count_Flowering Plants": 4, "count_Mammals": 4, "count_Sac Fungi": 0, "count_Arachnids": 1, "count_Gymnosperms": 0, "count_Ferns": 0, "count_Mosses": 0, "count_Basidiomycota": 0, "unique_species_count": 84.0, "countryCode": "AO" }, "geometry": { "type": "MultiPolygon", "coordinates": [ [ [ [ 14.129359100096011, -9.347812687210032 ], [ 14.549105548388052, -10.127929280185505 ], [ 14.146080733033113, -10.899293113905022 ], [ 13.319754920926673, -10.891157820937989 ], [ 12.901081114335449, -10.114118036777805 ], [ 13.307503721619371, -9.341955306315967 ], [ 14.129359100096011, -9.347812687210032 ] ] ] ] } },
{ "type": "Feature", "properties": { "geogrid_id": "2910150912016191046", "seqnum": 5820.0, "lat_c": -10.150911794058791, "lon_c": 16.191046410447061, "res": 7.0, "count_Reptiles": 2, "count_Birds": 4, "count_Molluscs": 0, "count_Amphibians": 0, "count_Insects": 52, "count_Flowering Plants": 6, "count_Mammals": 0, "count_Sac Fungi": 0, "count_Arachnids": 0, "count_Gymnosperms": 0, "count_Ferns": 0, "count_Mosses": 1, "count_Basidiomycota": 0, "unique_species_count": 65.0, "countryCode": "AO" }, "geometry": { "type": "MultiPolygon", "coordinates": [ [ [ [ 16.58677901072269, -9.377057848806539 ], [ 17.008804928056119, -10.165826233880356 ], [ 16.613874846109589, -10.93987980947324 ], [ 15.793578970596288, -10.923663042289112 ], [ 15.371023640011913, -10.138277005520116 ], [ 15.769317718585636, -9.365368119597287 ], [ 16.58677901072269, -9.377057848806539 ] ] ] ] } },
{ "type": "Feature", "properties": { "geogrid_id": "2910202458018636081", "seqnum": 5902.0, "lat_c": -10.202457913852722, "lon_c": 18.63608145951763, "res": 7.0, "count_Reptiles": 2, "count_Birds": 3, "count_Molluscs": 0, "count_Amphibians": 0, "count_Insects": 3, "count_Flowering Plants": 83, "count_Mammals": 0, "count_Sac Fungi": 0, "count_Arachnids": 0, "count_Gymnosperms": 0, "count_Ferns": 1, "count_Mosses": 0, "count_Basidiomycota": 0, "unique_species_count": 92.0, "countryCode": "AO" }, "geometry": { "type": "MultiPolygon", "coordinates": [ [ [ [ 19.02531703287374, -9.423706194229531 ], [ 19.444892036478421, -10.224153889524958 ], [ 19.05583410486771, -11.00450990332156 ], [ 18.245418422572534, -10.980317866495522 ], [ 17.823935692131819, -10.183011607743655 ], [ 18.215087565902277, -9.406233739763195 ], [ 19.02531703287374, -9.423706194229531 ] ] ] ] } },
{ "type": "Feature", "properties": { "geogrid_id": "2910885731010007696", "seqnum": 5628.0, "lat_c": -10.885730955017905, "lon_c": 10.007696077030937, "res": 7.0, "count_Reptiles": 0, "count_Birds": 1, "count_Molluscs": 0, "count_Amphibians": 0, "count_Insects": 0, "count_Flowering Plants": 0, "count_Mammals": 2, "count_Sac Fungi": 0, "count_Arachnids": 0, "count_Gymnosperms": 0, "count_Ferns": 0, "count_Mosses": 0, "count_Basidiomycota": 0, "unique_species_count": 3.0, "countryCode": "AO" }, "geometry": { "type": "MultiPolygon", "coordinates": [ [ [ [ 10.424268053264935, -10.110662672200791 ], [ 10.835823467075969, -10.883016518714605 ], [ 10.419016537469714, -11.656987037444257 ], [ 9.588571060487787, -11.661787136188297 ], [ 9.180245084301362, -10.891157822138188 ], [ 9.598918890350188, -10.114118037734688 ], [ 10.424268053264935, -10.110662672200791 ] ] ] ] } },
{ "type": "Feature", "properties": { "geogrid_id": "2910885731012492304", "seqnum": 5710.0, "lat_c": -10.885730954297435, "lon_c": 12.492303928197121, "res": 7.0, "count_Reptiles": 0, "count_Birds": 1, "count_Molluscs": 3, "count_Amphibians": 0, "count_Insects": 0, "count_Flowering Plants": 0, "count_Mammals": 2, "count_Sac Fungi": 0, "count_Arachnids": 0, "count_Gymnosperms": 0, "count_Ferns": 0, "count_Mosses": 0, "count_Basidiomycota": 0, "unique_species_count": 6.0, "countryCode": "AO" }, "geometry": { "type": "MultiPolygon", "coordinates": [ [ [ [ 12.901081114335449, -10.114118036777805 ], [ 13.319754920926673, -10.891157820937989 ], [ 12.911428945285257, -11.661787135224184 ], [ 12.080983468303085, -11.656987036962001 ], [ 11.664176538152104, -10.883016518474388 ], [ 12.07573195142092, -10.110662671722192 ], [ 12.901081114335449, -10.114118036777805 ] ] ] ] } },
{ "type": "Feature", "properties": { "geogrid_id": "2910910131014970836", "seqnum": 5792.0, "lat_c": -10.910130841424881, "lon_c": 14.970835788366617, "res": 7.0, "count_Reptiles": 6, "count_Birds": 48, "count_Molluscs": 1, "count_Amphibians": 5, "count_Insects": 33, "count_Flowering Plants": 27, "count_Mammals": 27, "count_Sac Fungi": 0, "count_Arachnids": 1, "count_Gymnosperms": 0, "count_Ferns": 0, "count_Mosses": 0, "count_Basidiomycota": 0, "unique_species_count": 148.0, "countryCode": "AO" }, "geometry": { "type": "MultiPolygon", "coordinates": [ [ [ [ 15.371023640011913, -10.138277005520116 ], [ 15.793578970596288, -10.923663042289112 ], [ 15.394195653014194, -11.695325581750822 ], [ 14.568564882148889, -11.680965274648997 ], [ 14.146080733033113, -10.899293113905022 ], [ 14.549105548388052, -10.127929280185505 ], [ 15.371023640011913, -10.138277005520116 ] ] ] ] } },
{ "type": "Feature", "properties": { "geogrid_id": "2910958769017431295", "seqnum": 5874.0, "lat_c": -10.958769319376174, "lon_c": 17.431294849266418, "res": 7.0, "count_Reptiles": 0, "count_Birds": 19, "count_Molluscs": 0, "count_Amphibians": 2, "count_Insects": 0, "count_Flowering Plants": 1, "count_Mammals": 1, "count_Sac Fungi": 0, "count_Arachnids": 0, "count_Gymnosperms": 0, "count_Ferns": 0, "count_Mosses": 0, "count_Basidiomycota": 0, "unique_species_count": 23.0, "countryCode": "AO" }, "geometry": { "type": "MultiPolygon", "coordinates": [ [ [ [ 17.823935692131819, -10.183011607743655 ], [ 18.245418422572534, -10.980317866495522 ], [ 17.853130447675809, -11.757324521362849 ], [ 17.036984424769546, -11.733522646415331 ], [ 16.613874846109589, -10.93987980947324 ], [ 17.008804928056119, -10.165826233880356 ], [ 17.823935692131819, -10.183011607743655 ] ] ] ] } },
{ "type": "Feature", "properties": { "geogrid_id": "2911031328019862141", "seqnum": 5956.0, "lat_c": -11.03132808520256, "lon_c": 19.862140561226912, "res": 7.0, "count_Reptiles": 17, "count_Birds": 29, "count_Molluscs": 1, "count_Amphibians": 10, "count_Insects": 64, "count_Flowering Plants": 52, "count_Mammals": 2, "count_Sac Fungi": 0, "count_Arachnids": 0, "count_Gymnosperms": 0, "count_Ferns": 0, "count_Mosses": 0, "count_Basidiomycota": 0, "unique_species_count": 175.0, "countryCode": "AO" }, "geometry": { "type": "MultiPolygon", "coordinates": [ [ [ [ 20.250025031888132, -10.248087037642446 ], [ 20.663947548937315, -11.060753319906627 ], [ 20.27475349143063, -11.847277350448868 ], [ 19.472483058935779, -11.81422732396369 ], [ 19.05583410486771, -11.00450990332156 ], [ 19.444892036478421, -10.224153889524958 ], [ 20.250025031888132, -10.248087037642446 ] ] ] ] } },
{ "type": "Feature", "properties": { "geogrid_id": "2911127340022252563", "seqnum": 6038.0, "lat_c": -11.127340168784926, "lon_c": 22.252562918382296, "res": 7.0, "count_Reptiles": 3, "count_Birds": 2, "count_Molluscs": 0, "count_Amphibians": 0, "count_Insects": 0, "count_Flowering Plants": 1, "count_Mammals": 0, "count_Sac Fungi": 0, "count_Arachnids": 0, "count_Gymnosperms": 0, "count_Ferns": 0, "count_Mosses": 0, "count_Basidiomycota": 0, "unique_species_count": 6.0, "countryCode": "AO" }, "geometry": { "type": "MultiPolygon", "coordinates": [ [ [ [ 22.640066266196506, -10.333166657486652 ], [ 23.038653981434742, -11.164455366265257 ], [ 22.64665868524375, -11.964464999289616 ], [ 21.862259947715891, -11.922428849295047 ], [ 21.460876814628165, -11.092764821580595 ], [ 21.847931946906325, -10.302608867682435 ], [ 22.640066266196506, -10.333166657486652 ] ] ] ] } },
{ "type": "Feature", "properties": { "geogrid_id": "2911246202024592715", "seqnum": 6120.0, "lat_c": -11.24620185590091, "lon_c": 24.592715207382508, "res": 7.0, "count_Reptiles": 0, "count_Birds": 0, "count_Molluscs": 0, "count_Amphibians": 0, "count_Insects": 0, "count_Flowering Plants": 1, "count_Mammals": 0, "count_Sac Fungi": 0, "count_Arachnids": 0, "count_Gymnosperms": 0, "count_Ferns": 0, "count_Mosses": 0, "count_Basidiomycota": 0, "unique_species_count": 1.0, "countryCode": "AO" }, "geometry": { "type": "MultiPolygon", "coordinates": [ [ [ [ 24.985572338722186, -10.437819011318208 ], [ 25.360055031420409, -11.290777889563458 ], [ 24.957810275906088, -12.107978276439058 ], [ 24.194794644975794, -12.057278604479331 ], [ 23.818812354852941, -11.204084910106134 ], [ 24.209174452000411, -10.400790427037316 ], [ 24.985572338722186, -10.437819011318208 ] ] ] ] } },
{ "type": "Feature", "properties": { "geogrid_id": "2911655387011250000", "seqnum": 5683.0, "lat_c": -11.655386508852853, "lon_c": 11.25000000288636, "res": 7.0, "count_Reptiles": 0, "count_Birds": 1, "count_Molluscs": 1, "count_Amphibians": 0, "count_Insects": 0, "count_Flowering Plants": 0, "count_Mammals": 2, "count_Sac Fungi": 0, "count_Arachnids": 0, "count_Gymnosperms": 0, "count_Ferns": 0, "count_Mosses": 0, "count_Basidiomycota": 0, "unique_species_count": 4.0, "countryCode": "AO" }, "geometry": { "type": "MultiPolygon", "coordinates": [ [ [ [ 11.664176538152104, -10.883016518474388 ], [ 12.080983468303085, -11.656987036962001 ], [ 11.666937284299127, -12.428147599315894 ], [ 10.833062722021022, -12.428147599558027 ], [ 10.419016537469714, -11.656987037444257 ], [ 10.835823467075969, -10.883016518714605 ], [ 11.664176538152104, -10.883016518474388 ] ] ] ] } },
{ "type": "Feature", "properties": { "geogrid_id": "2911669782013740800", "seqnum": 5765.0, "lat_c": -11.66978234951552, "lon_c": 13.740800264805818, "res": 7.0, "count_Reptiles": 18, "count_Birds": 28, "count_Molluscs": 38, "count_Amphibians": 1, "count_Insects": 31, "count_Flowering Plants": 19, "count_Mammals": 4, "count_Sac Fungi": 0, "count_Arachnids": 0, "count_Gymnosperms": 0, "count_Ferns": 0, "count_Mosses": 0, "count_Basidiomycota": 0, "unique_species_count": 139.0, "countryCode": "AO" }, "geometry": { "type": "MultiPolygon", "coordinates": [ [ [ [ 14.146080733033113, -10.899293113905022 ], [ 14.568564882148889, -11.680965274648997 ], [ 14.164015863490734, -12.45082584645567 ], [ 13.333061182284426, -12.439493399255042 ], [ 12.911428945285257, -11.661787135224184 ], [ 13.319754920926673, -10.891157820937989 ], [ 14.146080733033113, -10.899293113905022 ] ] ] ] } },
{ "type": "Feature", "properties": { "geogrid_id": "2911712850016217173", "seqnum": 5847.0, "lat_c": -11.712850056283312, "lon_c": 16.217172566939961, "res": 7.0, "count_Reptiles": 0, "count_Birds": 5, "count_Molluscs": 0, "count_Amphibians": 1, "count_Insects": 4, "count_Flowering Plants": 2, "count_Mammals": 17, "count_Sac Fungi": 0, "count_Arachnids": 0, "count_Gymnosperms": 0, "count_Ferns": 0, "count_Mosses": 0, "count_Basidiomycota": 0, "unique_species_count": 29.0, "countryCode": "AO" }, "geometry": { "type": "MultiPolygon", "coordinates": [ [ [ [ 16.613874846109589, -10.93987980947324 ], [ 17.03698442476955, -11.733522646415331 ], [ 16.640819616613175, -12.507289083226594 ], [ 15.81851909815075, -12.484743441196992 ], [ 15.394195653014194, -11.695325581750822 ], [ 15.793578970596288, -10.923663042289112 ], [ 16.613874846109589, -10.93987980947324 ] ] ] ] } },
{ "type": "Feature", "properties": { "geogrid_id": "2911784234018665122", "seqnum": 5929.0, "lat_c": -11.784234139248756, "lon_c": 18.665121806209772, "res": 7.0, "count_Reptiles": 5, "count_Birds": 6, "count_Molluscs": 0, "count_Amphibians": 7, "count_Insects": 102, "count_Flowering Plants": 140, "count_Mammals": 1, "count_Sac Fungi": 2, "count_Arachnids": 2, "count_Gymnosperms": 0, "count_Ferns": 2, "count_Mosses": 0, "count_Basidiomycota": 0, "unique_species_count": 267.0, "countryCode": "AO" }, "geometry": { "type": "MultiPolygon", "coordinates": [ [ [ [ 19.05583410486771, -11.00450990332156 ], [ 19.472483058935779, -11.81422732396369 ], [ 19.080718105782612, -12.596949234474103 ], [ 18.272498472538174, -12.563424002954923 ], [ 17.853130447675809, -11.757324521362849 ], [ 18.245418422572534, -10.980317866495522 ], [ 19.05583410486771, -11.00450990332156 ] ] ] ] } },
{ "type": "Feature", "properties": { "geogrid_id": "2911883355021071488", "seqnum": 6011.0, "lat_c": -11.883355037768634, "lon_c": 21.071488347734075, "res": 7.0, "count_Reptiles": 10, "count_Birds": 0, "count_Molluscs": 0, "count_Amphibians": 4, "count_Insects": 2, "count_Flowering Plants": 1, "count_Mammals": 0, "count_Sac Fungi": 0, "count_Arachnids": 0, "count_Gymnosperms": 0, "count_Ferns": 0, "count_Mosses": 0, "count_Basidiomycota": 0, "unique_species_count": 17.0, "countryCode": "AO" }, "geometry": { "type": "MultiPolygon", "coordinates": [ [ [ [ 21.460876814628165, -11.092764821580595 ], [ 21.862259947715891, -11.922428849295047 ], [ 21.468364327361222, -12.718892998370709 ], [ 20.679167981870918, -12.6747267595205 ], [ 20.27475349143063, -11.847277350448868 ], [ 20.663947548937315, -11.060753319906627 ], [ 21.460876814628165, -11.092764821580595 ] ] ] ] } },
{ "type": "Feature", "properties": { "geogrid_id": "2912009428023424294", "seqnum": 6093.0, "lat_c": -12.009427565138759, "lon_c": 23.424293903469724, "res": 7.0, "count_Reptiles": 3, "count_Birds": 6, "count_Molluscs": 0, "count_Amphibians": 1, "count_Insects": 0, "count_Flowering Plants": 1, "count_Mammals": 0, "count_Sac Fungi": 0, "count_Arachnids": 0, "count_Gymnosperms": 0, "count_Ferns": 0, "count_Mosses": 0, "count_Basidiomycota": 0, "unique_species_count": 11.0, "countryCode": "AO" }, "geometry": { "type": "MultiPolygon", "coordinates": [ [ [ [ 23.818812354852941, -11.204084910106134 ], [ 24.194794644975794, -12.057278604479331 ], [ 23.79015114331958, -12.871917562403066 ], [ 23.024297481589031, -12.817540809093268 ], [ 22.64665868524375, -11.964464999289616 ], [ 23.038653981434742, -11.164455366265257 ], [ 23.818812354852941, -11.204084910106134 ] ] ] ] } },
{ "type": "Feature", "properties": { "geogrid_id": "2912431931009999513", "seqnum": 5655.0, "lat_c": -12.431931019239038, "lon_c": 9.999513468836744, "res": 7.0, "count_Reptiles": 0, "count_Birds": 1, "count_Molluscs": 0, "count_Amphibians": 0, "count_Insects": 0, "count_Flowering Plants": 0, "count_Mammals": 2, "count_Sac Fungi": 0, "count_Arachnids": 0, "count_Gymnosperms": 0, "count_Ferns": 0, "count_Mosses": 0, "count_Basidiomycota": 0, "unique_species_count": 3.0, "countryCode": "AO" }, "geometry": { "type": "MultiPolygon", "coordinates": [ [ [ [ 10.419016537469714, -11.656987037444257 ], [ 10.833062722021022, -12.428147599558027 ], [ 10.413273810303863, -13.201823367853748 ], [ 9.577346646540683, -13.208558903468818 ], [ 9.166938824036915, -12.43949340046454 ], [ 9.588571060487787, -11.661787136188297 ], [ 10.419016537469714, -11.656987037444257 ] ] ] ] } },
{ "type": "Feature", "properties": { "geogrid_id": "2912431931012500487", "seqnum": 5737.0, "lat_c": -12.431931018512874, "lon_c": 12.5004865374838, "res": 7.0, "count_Reptiles": 4, "count_Birds": 3, "count_Molluscs": 76, "count_Amphibians": 1, "count_Insects": 0, "count_Flowering Plants": 0, "count_Mammals": 2, "count_Sac Fungi": 0, "count_Arachnids": 0, "count_Gymnosperms": 0, "count_Ferns": 0, "count_Mosses": 0, "count_Basidiomycota": 0, "unique_species_count": 86.0, "countryCode": "AO" }, "geometry": { "type": "MultiPolygon", "coordinates": [ [ [ [ 12.911428945285257, -11.661787135224184 ], [ 13.333061182284426, -12.439493399255042 ], [ 12.922653360331195, -13.208558902496895 ], [ 12.086726196566957, -13.201823367367512 ], [ 11.666937284299127, -12.428147599315894 ], [ 12.080983468303085, -11.656987036962001 ], [ 12.911428945285257, -11.661787135224184 ] ] ] ] } },
{ "type": "Feature", "properties": { "geogrid_id": "2912465915014992712", "seqnum": 5819.0, "lat_c": -12.465915069032867, "lon_c": 14.992711757545404, "res": 7.0, "count_Reptiles": 6, "count_Birds": 115, "count_Molluscs": 1, "count_Amphibians": 6, "count_Insects": 65, "count_Flowering Plants": 63, "count_Mammals": 34, "count_Sac Fungi": 2, "count_Arachnids": 3, "count_Gymnosperms": 1, "count_Ferns": 1, "count_Mosses": 0, "count_Basidiomycota": 0, "unique_species_count": 297.0, "countryCode": "AO" }, "geometry": { "type": "MultiPolygon", "coordinates": [ [ [ [ 15.394195653014194, -11.695325581750822 ], [ 15.81851909815075, -12.484743441196992 ], [ 15.41773275144142, -13.25556537190959 ], [ 14.588938075103723, -13.235450140553123 ], [ 14.164015863490734, -12.45082584645567 ], [ 14.568564882148889, -11.680965274648997 ], [ 15.394195653014194, -11.695325581750822 ] ] ] ] } },
{ "type": "Feature", "properties": { "geogrid_id": "2912533526017459009", "seqnum": 5901.0, "lat_c": -12.53352596094709, "lon_c": 17.459008875070982, "res": 7.0, "count_Reptiles": 8, "count_Birds": 8, "count_Molluscs": 0, "count_Amphibians": 7, "count_Insects": 65, "count_Flowering Plants": 43, "count_Mammals": 3, "count_Sac Fungi": 0, "count_Arachnids": 3, "count_Gymnosperms": 0, "count_Ferns": 1, "count_Mosses": 0, "count_Basidiomycota": 0, "unique_species_count": 138.0, "countryCode": "AO" }, "geometry": { "type": "MultiPolygon", "coordinates": [ [ [ [ 17.853130447675809, -11.757324521362849 ], [ 18.272498472538174, -12.563424002954923 ], [ 17.877668996910579, -13.342210591770934 ], [ 17.062828677684074, -13.30898501650401 ], [ 16.640819616613175, -12.507289083226594 ], [ 17.03698442476955, -11.733522646415331 ], [ 17.853130447675809, -11.757324521362849 ] ] ] ] } },
{ "type": "Feature", "properties": { "geogrid_id": "2912634064019883117", "seqnum": 5983.0, "lat_c": -12.634063926594175, "lon_c": 19.883117469388331, "res": 7.0, "count_Reptiles": 1, "count_Birds": 0, "count_Molluscs": 0, "count_Amphibians": 3, "count_Insects": 14, "count_Flowering Plants": 11, "count_Mammals": 1, "count_Sac Fungi": 0, "count_Arachnids": 0, "count_Gymnosperms": 0, "count_Ferns": 0, "count_Mosses": 0, "count_Basidiomycota": 0, "unique_species_count": 30.0, "countryCode": "AO" }, "geometry": { "type": "MultiPolygon", "coordinates": [ [ [ [ 20.27475349143063, -11.847277350448868 ], [ 20.679167981870918, -12.6747267595205 ], [ 20.283119619483632, -13.467354152182528 ], [ 19.48846566573674, -13.421451771136494 ], [ 19.080718105782612, -12.596949234474103 ], [ 19.472483058935779, -11.81422732396369 ], [ 20.27475349143063, -11.847277350448868 ] ] ] ] } },
{ "type": "Feature", "properties": { "geogrid_id": "2912766515022250226", "seqnum": 6065.0, "lat_c": -12.766514679976012, "lon_c": 22.250225805085488, "res": 7.0, "count_Reptiles": 0, "count_Birds": 0, "count_Molluscs": 0, "count_Amphibians": 1, "count_Insects": 0, "count_Flowering Plants": 0, "count_Mammals": 0, "count_Sac Fungi": 0, "count_Arachnids": 0, "count_Gymnosperms": 0, "count_Ferns": 0, "count_Mosses": 0, "count_Basidiomycota": 0, "unique_species_count": 1.0, "countryCode": "AO" }, "geometry": { "type": "MultiPolygon", "coordinates": [ [ [ [ 22.64665868524375, -11.964464999289616 ], [ 23.024297481589031, -12.817540809093268 ], [ 22.616970846569057, -13.62940431275808 ], [ 21.847923318169336, -13.571401506426557 ], [ 21.468364327361222, -12.718892998370709 ], [ 21.862259947715891, -11.922428849295047 ], [ 22.64665868524375, -11.964464999289616 ] ] ] ] } },
{ "type": "Feature", "properties": { "geogrid_id": "2913199577011250000", "seqnum": 5709.0, "lat_c": -13.199577054418301, "lon_c": 11.250000003435236, "res": 7.0, "count_Reptiles": 0, "count_Birds": 1, "count_Molluscs": 0, "count_Amphibians": 0, "count_Insects": 0, "count_Flowering Plants": 0, "count_Mammals": 1, "count_Sac Fungi": 0, "count_Arachnids": 0, "count_Gymnosperms": 0, "count_Ferns": 0, "count_Mosses": 0, "count_Basidiomycota": 0, "unique_species_count": 2.0, "countryCode": "AO" }, "geometry": { "type": "MultiPolygon", "coordinates": [ [ [ [ 11.666937284299127, -12.428147599315894 ], [ 12.086726196566957, -13.201823367367512 ], [ 11.66995356485911, -13.971800749920535 ], [ 10.830046442565104, -13.97180075016475 ], [ 10.413273810303863, -13.201823367853748 ], [ 10.833062722021022, -12.428147599558027 ], [ 11.666937284299127, -12.428147599315894 ] ] ] ] } },
{ "type": "Feature", "properties": { "geogrid_id": "2913219773008743014", "seqnum": 5627.0, "lat_c": -13.2197734686956, "lon_c": 8.7430136017430957, "res": 7.0, "count_Reptiles": 0, "count_Birds": 0, "count_Molluscs": 0, "count_Amphibians": 0, "count_Insects": 0, "count_Flowering Plants": 0, "count_Mammals": 1, "count_Sac Fungi": 0, "count_Arachnids": 0, "count_Gymnosperms": 0, "count_Ferns": 0, "count_Mosses": 0, "count_Basidiomycota": 0, "unique_species_count": 1.0, "countryCode": "AO" }, "geometry": { "type": "MultiPolygon", "coordinates": [ [ [ [ 9.166938824036915, -12.43949340046454 ], [ 9.577346646540683, -13.208558903468818 ], [ 9.152735078376525, -13.987893596450306 ], [ 8.317320294720222, -14.003954639037346 ], [ 7.911061931772435, -13.235450142492583 ], [ 8.335984142831817, -12.450825848147341 ], [ 9.166938824036915, -12.43949340046454 ] ] ] ] } },
{ "type": "Feature", "properties": { "geogrid_id": "2913219773013756986", "seqnum": 5791.0, "lat_c": -13.219773467239088, "lon_c": 13.756986405130554, "res": 7.0, "count_Reptiles": 10, "count_Birds": 115, "count_Molluscs": 96, "count_Amphibians": 6, "count_Insects": 24, "count_Flowering Plants": 15, "count_Mammals": 21, "count_Sac Fungi": 0, "count_Arachnids": 1, "count_Gymnosperms": 0, "count_Ferns": 0, "count_Mosses": 0, "count_Basidiomycota": 0, "unique_species_count": 288.0, "countryCode": "AO" }, "geometry": { "type": "MultiPolygon", "coordinates": [ [ [ [ 14.164015863490734, -12.45082584645567 ], [ 14.588938075103723, -13.235450140553123 ], [ 14.182679712710708, -14.003954637332482 ], [ 13.347264929051034, -13.987893595230894 ], [ 12.922653360331195, -13.208558902496895 ], [ 13.333061182284426, -12.439493399255042 ], [ 14.164015863490734, -12.45082584645567 ] ] ] ] } },
{ "type": "Feature", "properties": { "geogrid_id": "2913280089016242610", "seqnum": 5873.0, "lat_c": -13.280089118144943, "lon_c": 16.242610122096131, "res": 7.0, "count_Reptiles": 1, "count_Birds": 9, "count_Molluscs": 0, "count_Amphibians": 0, "count_Insects": 16, "count_Flowering Plants": 18, "count_Mammals": 0, "count_Sac Fungi": 0, "count_Arachnids": 1, "count_Gymnosperms": 0, "count_Ferns": 1, "count_Mosses": 0, "count_Basidiomycota": 0, "unique_species_count": 46.0, "countryCode": "AO" }, "geometry": { "type": "MultiPolygon", "coordinates": [ [ [ [ 16.640819616613175, -12.507289083226594 ], [ 17.062828677684074, -13.30898501650401 ], [ 16.664339759315574, -14.083787812859274 ], [ 15.842158117434604, -14.051948381297722 ], [ 15.41773275144142, -13.25556537190959 ], [ 15.81851909815075, -12.484743441196992 ], [ 16.640819616613175, -12.507289083226594 ] ] ] ] } },
{ "type": "Feature", "properties": { "geogrid_id": "2913379717018686437", "seqnum": 5955.0, "lat_c": -13.379717495013027, "lon_c": 18.686436789048887, "res": 7.0, "count_Reptiles": 12, "count_Birds": 21, "count_Molluscs": 0, "count_Amphibians": 11, "count_Insects": 140, "count_Flowering Plants": 139, "count_Mammals": 5, "count_Sac Fungi": 0, "count_Arachnids": 9, "count_Gymnosperms": 0, "count_Ferns": 1, "count_Mosses": 0, "count_Basidiomycota": 1, "unique_species_count": 339.0, "countryCode": "AO" }, "geometry": { "type": "MultiPolygon", "coordinates": [ [ [ [ 19.080718105782612, -12.596949234474103 ], [ 19.48846566573674, -13.421451771136494 ], [ 19.090019107169621, -14.209918408755742 ], [ 18.289110483711745, -14.162847134810127 ], [ 17.877668996910579, -13.342210591770934 ], [ 18.272498472538174, -12.563424002954923 ], [ 19.080718105782612, -12.596949234474103 ] ] ] ] } },
{ "type": "Feature", "properties": { "geogrid_id": "2913517360021069795", "seqnum": 6037.0, "lat_c": -13.517360373080791, "lon_c": 21.069795191654944, "res": 7.0, "count_Reptiles": 1, "count_Birds": 2, "count_Molluscs": 0, "count_Amphibians": 3, "count_Insects": 18, "count_Flowering Plants": 19, "count_Mammals": 1, "count_Sac Fungi": 0, "count_Arachnids": 1, "count_Gymnosperms": 0, "count_Ferns": 0, "count_Mosses": 0, "count_Basidiomycota": 0, "unique_species_count": 45.0, "countryCode": "AO" }, "geometry": { "type": "MultiPolygon", "coordinates": [ [ [ [ 21.468364327361222, -12.718892998370709 ], [ 21.847923318169336, -13.571401506426557 ], [ 21.437673393605095, -14.380239602131299 ], [ 20.665004972863503, -14.31871198722242 ], [ 20.283119619483632, -13.467354152182528 ], [ 20.679167981870918, -12.6747267595205 ], [ 21.468364327361222, -12.718892998370709 ] ] ] ] } },
{ "type": "Feature", "properties": { "geogrid_id": "2913977169009990641", "seqnum": 5682.0, "lat_c": -13.977168575007326, "lon_c": 9.9906405101806559, "res": 7.0, "count_Reptiles": 0, "count_Birds": 1, "count_Molluscs": 0, "count_Amphibians": 0, "count_Insects": 0, "count_Flowering Plants": 0, "count_Mammals": 1, "count_Sac Fungi": 0, "count_Arachnids": 0, "count_Gymnosperms": 0, "count_Ferns": 0, "count_Mosses": 0, "count_Basidiomycota": 0, "unique_species_count": 2.0, "countryCode": "AO" }, "geometry": { "type": "MultiPolygon", "coordinates": [ [ [ [ 10.413273810303863, -13.201823367853748 ], [ 10.830046442565104, -13.97180075016475 ], [ 10.407042457676706, -14.74560577271202 ], [ 9.565371986972451, -14.755312374936159 ], [ 9.152735078376525, -13.987893596450306 ], [ 9.577346646540683, -13.208558903468818 ], [ 10.413273810303863, -13.201823367853748 ] ] ] ] } },
{ "type": "Feature", "properties": { "geogrid_id": "2913977169012509359", "seqnum": 5764.0, "lat_c": -13.977168574275014, "lon_c": 12.50935949724467, "res": 7.0, "count_Reptiles": 5, "count_Birds": 16, "count_Molluscs": 30, "count_Amphibians": 2, "count_Insects": 3, "count_Flowering Plants": 11, "count_Mammals": 6, "count_Sac Fungi": 0, "count_Arachnids": 2, "count_Gymnosperms": 0, "count_Ferns": 0, "count_Mosses": 0, "count_Basidiomycota": 0, "unique_species_count": 75.0, "countryCode": "AO" }, "geometry": { "type": "MultiPolygon", "coordinates": [ [ [ [ 12.922653360331195, -13.208558902496895 ], [ 13.347264929051034, -13.987893595230894 ], [ 12.934628021012049, -14.755312373955912 ], [ 12.092957550305298, -14.745605772221484 ], [ 11.66995356485911, -13.971800749920535 ], [ 12.086726196566957, -13.201823367367512 ], [ 12.922653360331195, -13.208558902496895 ] ] ] ] } },
{ "type": "Feature", "properties": { "geogrid_id": "2914025320015014629", "seqnum": 5846.0, "lat_c": -14.025320137454651, "lon_c": 15.014628825854029, "res": 7.0, "count_Reptiles": 1, "count_Birds": 1, "count_Molluscs": 0, "count_Amphibians": 0, "count_Insects": 2, "count_Flowering Plants": 1, "count_Mammals": 1, "count_Sac Fungi": 0, "count_Arachnids": 0, "count_Gymnosperms": 0, "count_Ferns": 0, "count_Mosses": 0, "count_Basidiomycota": 0, "unique_species_count": 6.0, "countryCode": "AO" }, "geometry": { "type": "MultiPolygon", "coordinates": [ [ [ [ 15.41773275144142, -13.25556537190959 ], [ 15.842158117434604, -14.051948381297722 ], [ 15.439254878523515, -14.822901432711722 ], [ 14.60901928297166, -14.794010845584243 ], [ 14.182679712710708, -14.003954637332482 ], [ 14.588938075103723, -13.235450140553123 ], [ 15.41773275144142, -13.25556537190959 ] ] ] ] } },
{ "type": "Feature", "properties": { "geogrid_id": "2914120777017480277", "seqnum": 5928.0, "lat_c": -14.120777412068474, "lon_c": 17.480277332184652, "res": 7.0, "count_Reptiles": 2, "count_Birds": 6, "count_Molluscs": 0, "count_Amphibians": 2, "count_Insects": 30, "count_Flowering Plants": 58, "count_Mammals": 11, "count_Sac Fungi": 0, "count_Arachnids": 0, "count_Gymnosperms": 0, "count_Ferns": 0, "count_Mosses": 0, "count_Basidiomycota": 0, "unique_species_count": 109.0, "countryCode": "AO" }, "geometry": { "type": "MultiPolygon", "coordinates": [ [ [ [ 17.877668996910579, -13.342210591770934 ], [ 18.289110483711745, -14.162847134810127 ], [ 17.888008206324781, -14.946799783898896 ], [ 17.079865613659823, -14.899392773605271 ], [ 16.664339759315574, -14.083787812859274 ], [ 17.062828677684074, -13.30898501650401 ], [ 17.877668996910579, -13.342210591770934 ] ] ] ] } },
{ "type": "Feature", "properties": { "geogrid_id": "2914261905019882227", "seqnum": 6010.0, "lat_c": -14.261904677773963, "lon_c": 19.882226999923652, "res": 7.0, "count_Reptiles": 1, "count_Birds": 0, "count_Molluscs": 0, "count_Amphibians": 0, "count_Insects": 0, "count_Flowering Plants": 0, "count_Mammals": 0, "count_Sac Fungi": 0, "count_Arachnids": 0, "count_Gymnosperms": 0, "count_Ferns": 0, "count_Mosses": 0, "count_Basidiomycota": 0, "unique_species_count": 1.0, "countryCode": "AO" }, "geometry": { "type": "MultiPolygon", "coordinates": [ [ [ [ 20.283119619483632, -13.467354152182528 ], [ 20.665004972863503, -14.31871198722242 ], [ 20.251653073305491, -15.124225304757797 ], [ 19.474829375197469, -15.05935111772005 ], [ 19.090019107169621, -14.209918408755742 ], [ 19.48846566573674, -13.421451771136494 ], [ 20.283119619483632, -13.467354152182528 ] ] ] ] } },
{ "type": "Feature", "properties": { "geogrid_id": "2914446381022199604", "seqnum": 6092.0, "lat_c": -14.44638064981137, "lon_c": 22.199604159252203, "res": 7.0, "count_Reptiles": 2, "count_Birds": 0, "count_Molluscs": 0, "count_Amphibians": 0, "count_Insects": 4, "count_Flowering Plants": 6, "count_Mammals": 0, "count_Sac Fungi": 0, "count_Arachnids": 0, "count_Gymnosperms": 0, "count_Ferns": 0, "count_Mosses": 0, "count_Basidiomycota": 0, "unique_species_count": 12.0, "countryCode": "AO" }, "geometry": { "type": "MultiPolygon", "coordinates": [ [ [ [ 22.616970846569057, -13.62940431275808 ], [ 23.139598598449183, -14.395325868446747 ], [ 22.891402804583429, -15.105598809323402 ], [ 21.958658545645843, -15.149713059786615 ], [ 21.437673393605095, -14.380239602131299 ], [ 21.847923318169336, -13.571401506426557 ], [ 22.616970846569057, -13.62940431275808 ] ] ] ] } },
{ "type": "Feature", "properties": { "geogrid_id": "2914742367011250000", "seqnum": 5736.0, "lat_c": -14.742367380275271, "lon_c": 11.250000003990589, "res": 7.0, "count_Reptiles": 1, "count_Birds": 1, "count_Molluscs": 0, "count_Amphibians": 0, "count_Insects": 1, "count_Flowering Plants": 0, "count_Mammals": 2, "count_Sac Fungi": 0, "count_Arachnids": 0, "count_Gymnosperms": 0, "count_Ferns": 0, "count_Mosses": 0, "count_Basidiomycota": 0, "unique_species_count": 5.0, "countryCode": "AO" }, "geometry": { "type": "MultiPolygon", "coordinates": [ [ [ [ 11.66995356485911, -13.971800749920535 ], [ 12.092957550305298, -14.745605772221484 ], [ 11.673230630158708, -15.514315487013226 ], [ 10.826769378383627, -15.514315487259694 ], [ 10.407042457676706, -14.74560577271202 ], [ 10.830046442565104, -13.97180075016475 ], [ 11.66995356485911, -13.971800749920535 ] ] ] ] } },
{ "type": "Feature", "properties": { "geogrid_id": "2914771462008726266", "seqnum": 5654.0, "lat_c": -14.771461548777197, "lon_c": 8.7262656619547148, "res": 7.0, "count_Reptiles": 0, "count_Birds": 1, "count_Molluscs": 0, "count_Amphibians": 0, "count_Insects": 0, "count_Flowering Plants": 0, "count_Mammals": 1, "count_Sac Fungi": 0, "count_Arachnids": 0, "count_Gymnosperms": 0, "count_Ferns": 0, "count_Mosses": 0, "count_Basidiomycota": 0, "unique_species_count": 2.0, "countryCode": "AO" }, "geometry": { "type": "MultiPolygon", "coordinates": [ [ [ [ 9.152735078376525, -13.987893596450306 ], [ 9.565371986972451, -14.755312374936159 ], [ 9.138110582721264, -15.538020393437767 ], [ 8.299287595533924, -15.561639358412489 ], [ 7.890980725022909, -14.794010847538178 ], [ 8.317320294720222, -14.003954639037346 ], [ 9.152735078376525, -13.987893596450306 ] ] ] ] } },
{ "type": "Feature", "properties": { "geogrid_id": "2914771462013773734", "seqnum": 5818.0, "lat_c": -14.771461547308881, "lon_c": 13.773734346033963, "res": 7.0, "count_Reptiles": 16, "count_Birds": 120, "count_Molluscs": 1, "count_Amphibians": 9, "count_Insects": 96, "count_Flowering Plants": 131, "count_Mammals": 38, "count_Sac Fungi": 0, "count_Arachnids": 4, "count_Gymnosperms": 0, "count_Ferns": 2, "count_Mosses": 0, "count_Basidiomycota": 0, "unique_species_count": 417.0, "countryCode": "AO" }, "geometry": { "type": "MultiPolygon", "coordinates": [ [ [ [ 14.182679712710708, -14.003954637332482 ], [ 14.60901928297166, -14.794010845584243 ], [ 14.200712413022963, -15.561639356694611 ], [ 13.361889425828322, -15.538020392208081 ], [ 12.934628021012049, -14.755312373955912 ], [ 13.347264929051034, -13.987893595230894 ], [ 14.182679712710708, -14.003954637332482 ] ] ] ] } },
{ "type": "Feature", "properties": { "geogrid_id": "2914858059016263251", "seqnum": 5900.0, "lat_c": -14.858058657831997, "lon_c": 16.263251403624054, "res": 7.0, "count_Reptiles": 3, "count_Birds": 40, "count_Molluscs": 2, "count_Amphibians": 0, "count_Insects": 15, "count_Flowering Plants": 89, "count_Mammals": 0, "count_Sac Fungi": 0, "count_Arachnids": 0, "count_Gymnosperms": 0, "count_Ferns": 0, "count_Mosses": 0, "count_Basidiomycota": 0, "unique_species_count": 149.0, "countryCode": "AO" }, "geometry": { "type": "MultiPolygon", "coordinates": [ [ [ [ 16.664339759315574, -14.083787812859274 ], [ 17.079865613659823, -14.899392773605271 ], [ 16.675794672153874, -15.678469043419392 ], [ 15.859202419333769, -15.631987496705811 ], [ 15.439254878523515, -14.822901432711722 ], [ 15.842158117434604, -14.051948381297722 ], [ 16.664339759315574, -14.083787812859274 ] ] ] ] } },
{ "type": "Feature", "properties": { "geogrid_id": "2915000162018686650", "seqnum": 5982.0, "lat_c": -15.000162404355121, "lon_c": 18.686650374135713, "res": 7.0, "count_Reptiles": 2, "count_Birds": 2, "count_Molluscs": 0, "count_Amphibians": 4, "count_Insects": 17, "count_Flowering Plants": 10, "count_Mammals": 2, "count_Sac Fungi": 0, "count_Arachnids": 0, "count_Gymnosperms": 0, "count_Ferns": 0, "count_Mosses": 0, "count_Basidiomycota": 0, "unique_species_count": 37.0, "countryCode": "AO" }, "geometry": { "type": "MultiPolygon", "coordinates": [ [ [ [ 19.090019107169621, -14.209918408755742 ], [ 19.474829375197469, -15.05935111772005 ], [ 19.05828461993535, -15.86116972824129 ], [ 18.27660379386182, -15.793250756345248 ], [ 17.888008206324781, -14.946799783898896 ], [ 18.289110483711745, -14.162847134810127 ], [ 19.090019107169621, -14.209918408755742 ] ] ] ] } },
{ "type": "Feature", "properties": { "geogrid_id": "2915194634021016303", "seqnum": 6064.0, "lat_c": -15.194634430720319, "lon_c": 21.016303427155499, "res": 7.0, "count_Reptiles": 0, "count_Birds": 0, "count_Molluscs": 0, "count_Amphibians": 0, "count_Insects": 3, "count_Flowering Plants": 11, "count_Mammals": 1, "count_Sac Fungi": 0, "count_Arachnids": 0, "count_Gymnosperms": 0, "count_Ferns": 0, "count_Mosses": 0, "count_Basidiomycota": 0, "unique_species_count": 15.0, "countryCode": "AO" }, "geometry": { "type": "MultiPolygon", "coordinates": [ [ [ [ 21.437673393605095, -14.380239602131299 ], [ 21.958658545645843, -15.149713059786615 ], [ 21.704845961323674, -15.859864371392375 ], [ 20.77071683678086, -15.897260310196886 ], [ 20.251653073305491, -15.124225304757797 ], [ 20.665004972863503, -14.31871198722242 ], [ 21.437673393605095, -14.380239602131299 ] ] ] ] } },
{ "type": "Feature", "properties": { "geogrid_id": "2915522227009981163", "seqnum": 5708.0, "lat_c": -15.522226714878608, "lon_c": 9.9811626119658801, "res": 7.0, "count_Reptiles": 0, "count_Birds": 1, "count_Molluscs": 1, "count_Amphibians": 0, "count_Insects": 0, "count_Flowering Plants": 0, "count_Mammals": 1, "count_Sac Fungi": 0, "count_Arachnids": 0, "count_Gymnosperms": 0, "count_Ferns": 0, "count_Mosses": 0, "count_Basidiomycota": 0, "unique_species_count": 3.0, "countryCode": "AO" }, "geometry": { "type": "MultiPolygon", "coordinates": [ [ [ [ 10.407042457676706, -14.74560577271202 ], [ 10.826769378383627, -15.514315487259694 ], [ 10.40036204889457, -16.288964637056768 ], [ 9.553082630635808, -16.303712098879437 ], [ 9.138110582721264, -15.538020393437767 ], [ 9.565371986972451, -14.755312374936159 ], [ 10.407042457676706, -14.74560577271202 ] ] ] ] } },
{ "type": "Feature", "properties": { "geogrid_id": "2915522227012518837", "seqnum": 5790.0, "lat_c": -15.522226714139736, "lon_c": 12.518837396578865, "res": 7.0, "count_Reptiles": 27, "count_Birds": 57, "count_Molluscs": 46, "count_Amphibians": 2, "count_Insects": 13, "count_Flowering Plants": 28, "count_Mammals": 7, "count_Sac Fungi": 1, "count_Arachnids": 7, "count_Gymnosperms": 1, "count_Ferns": 0, "count_Mosses": 0, "count_Basidiomycota": 0, "unique_species_count": 189.0, "countryCode": "AO" }, "geometry": { "type": "MultiPolygon", "coordinates": [ [ [ [ 12.934628021012049, -14.755312373955912 ], [ 13.361889425828322, -15.538020392208081 ], [ 12.946917378478052, -16.303712097890589 ], [ 12.099637960214078, -16.288964636561634 ], [ 11.673230630158708, -15.514315487013226 ], [ 12.092957550305298, -14.745605772221484 ], [ 12.934628021012049, -14.755312373955912 ] ] ] ] } },
{ "type": "Feature", "properties": { "geogrid_id": "2915592999015033675", "seqnum": 5872.0, "lat_c": -15.592998820706848, "lon_c": 15.033674608044542, "res": 7.0, "count_Reptiles": 5, "count_Birds": 13, "count_Molluscs": 0, "count_Amphibians": 1, "count_Insects": 2, "count_Flowering Plants": 22, "count_Mammals": 4, "count_Sac Fungi": 0, "count_Arachnids": 1, "count_Gymnosperms": 0, "count_Ferns": 0, "count_Mosses": 0, "count_Basidiomycota": 0, "unique_species_count": 48.0, "countryCode": "AO" }, "geometry": { "type": "MultiPolygon", "coordinates": [ [ [ [ 15.439254878523515, -14.822901432711722 ], [ 15.859202419333769, -15.631987496705811 ], [ 15.451698674841552, -16.405884233800503 ], [ 14.625161995306501, -16.36232119303822 ], [ 14.200712413022963, -15.561639356694611 ], [ 14.60901928297166, -14.794010845584243 ], [ 15.439254878523515, -14.822901432711722 ] ] ] ] } },
{ "type": "Feature", "properties": { "geogrid_id": "2915732284017482035", "seqnum": 5954.0, "lat_c": -15.732283799140644, "lon_c": 17.482035235157223, "res": 7.0, "count_Reptiles": 1, "count_Birds": 1, "count_Molluscs": 0, "count_Amphibians": 0, "count_Insects": 14, "count_Flowering Plants": 7, "count_Mammals": 0, "count_Sac Fungi": 0, "count_Arachnids": 0, "count_Gymnosperms": 0, "count_Ferns": 0, "count_Mosses": 0, "count_Basidiomycota": 0, "unique_species_count": 23.0, "countryCode": "AO" }, "geometry": { "type": "MultiPolygon", "coordinates": [ [ [ [ 17.888008206324781, -14.946799783898896 ], [ 18.27660379386182, -15.793250756345248 ], [ 17.856904159541518, -16.590899482865947 ], [ 17.069391324990455, -16.520447856256091 ], [ 16.675794672153874, -15.678469043419392 ], [ 17.079865613659823, -14.899392773605271 ], [ 17.888008206324781, -14.946799783898896 ] ] ] ] } },
{ "type": "Feature", "properties": { "geogrid_id": "2915821523022631710", "seqnum": 6118.0, "lat_c": -15.821523437758643, "lon_c": 22.631709921840834, "res": 7.0, "count_Reptiles": 0, "count_Birds": 0, "count_Molluscs": 0, "count_Amphibians": 0, "count_Insects": 3, "count_Flowering Plants": 5, "count_Mammals": 0, "count_Sac Fungi": 0, "count_Arachnids": 0, "count_Gymnosperms": 0, "count_Ferns": 0, "count_Mosses": 0, "count_Basidiomycota": 0, "unique_species_count": 8.0, "countryCode": "AO" }, "geometry": { "type": "MultiPolygon", "coordinates": [ [ [ [ 22.891402804583429, -15.105598809323402 ], [ 23.55343450632779, -15.781009656462423 ], [ 23.279091528345123, -16.505750022597176 ], [ 22.360388471369781, -16.542476679223338 ], [ 21.704845961323674, -15.859864371392375 ], [ 21.958658545645843, -15.149713059786615 ], [ 22.891402804583429, -15.105598809323402 ] ] ] ] } },
{ "type": "Feature", "properties": { "geogrid_id": "2915935824019825973", "seqnum": 6036.0, "lat_c": -15.935823655196298, "lon_c": 19.825973258291263, "res": 7.0, "count_Reptiles": 0, "count_Birds": 0, "count_Molluscs": 0, "count_Amphibians": 0, "count_Insects": 0, "count_Flowering Plants": 1, "count_Mammals": 0, "count_Sac Fungi": 0, "count_Arachnids": 0, "count_Gymnosperms": 0, "count_Ferns": 0, "count_Mosses": 0, "count_Basidiomycota": 0, "unique_species_count": 1.0, "countryCode": "AO" }, "geometry": { "type": "MultiPolygon", "coordinates": [ [ [ [ 20.251653073305491, -15.124225304757797 ], [ 20.77071683678086, -15.897260310196886 ], [ 20.510416272149151, -16.607405543165093 ], [ 19.575133416241922, -16.63776589802324 ], [ 19.05828461993535, -15.86116972824129 ], [ 19.474829375197469, -15.05935111772005 ], [ 20.251653073305491, -15.124225304757797 ] ] ] ] } },
{ "type": "Feature", "properties": { "geogrid_id": "2916284040011250000", "seqnum": 5763.0, "lat_c": -16.284040268884176, "lon_c": 11.250000004553458, "res": 7.0, "count_Reptiles": 4, "count_Birds": 19, "count_Molluscs": 2, "count_Amphibians": 0, "count_Insects": 0, "count_Flowering Plants": 0, "count_Mammals": 2, "count_Sac Fungi": 0, "count_Arachnids": 0, "count_Gymnosperms": 0, "count_Ferns": 0, "count_Mosses": 0, "count_Basidiomycota": 0, "unique_species_count": 27.0, "countryCode": "AO" }, "geometry": { "type": "MultiPolygon", "coordinates": [ [ [ [ 11.673230630158708, -15.514315487013226 ], [ 12.099637960214078, -16.288964636561634 ], [ 11.676764928400301, -17.056118298672605 ], [ 10.823235081276426, -17.056118298921493 ], [ 10.40036204889457, -16.288964637056768 ], [ 10.826769378383627, -15.514315487259694 ], [ 11.673230630158708, -15.514315487013226 ] ] ] ] } },
{ "type": "Feature", "properties": { "geogrid_id": "2916328206008710488", "seqnum": 5681.0, "lat_c": -16.328206215454347, "lon_c": 8.7104875183051185, "res": 7.0, "count_Reptiles": 0, "count_Birds": 1, "count_Molluscs": 0, "count_Amphibians": 0, "count_Insects": 0, "count_Flowering Plants": 0, "count_Mammals": 1, "count_Sac Fungi": 0, "count_Arachnids": 0, "count_Gymnosperms": 0, "count_Ferns": 0, "count_Mosses": 0, "count_Basidiomycota": 0, "unique_species_count": 2.0, "countryCode": "AO" }, "geometry": { "type": "MultiPolygon", "coordinates": [ [ [ [ 9.138110582721264, -15.538020393437767 ], [ 9.553082630635808, -16.303712098879437 ], [ 9.124780589289243, -17.093710570674624 ], [ 8.286595952192636, -17.13101022320609 ], [ 7.874838013828368, -16.362321195004625 ], [ 8.299287595533924, -15.561639358412489 ], [ 9.138110582721264, -15.538020393437767 ] ] ] ] } },
{ "type": "Feature", "properties": { "geogrid_id": "2916328206013789512", "seqnum": 5845.0, "lat_c": -16.328206213974621, "lon_c": 13.789512490817465, "res": 7.0, "count_Reptiles": 0, "count_Birds": 34, "count_Molluscs": 0, "count_Amphibians": 1, "count_Insects": 22, "count_Flowering Plants": 11, "count_Mammals": 0, "count_Sac Fungi": 0, "count_Arachnids": 2, "count_Gymnosperms": 0, "count_Ferns": 0, "count_Mosses": 0, "count_Basidiomycota": 0, "unique_species_count": 70.0, "countryCode": "AO" }, "geometry": { "type": "MultiPolygon", "coordinates": [ [ [ [ 14.200712413022963, -15.561639356694611 ], [ 14.625161995306501, -16.36232119303822 ], [ 14.213404057514364, -17.131010221478011 ], [ 13.375219420402578, -17.09371056943526 ], [ 12.946917378478052, -16.303712097890589 ], [ 13.361889425828322, -15.538020392208081 ], [ 14.200712413022963, -15.561639356694611 ] ] ] ] } },
{ "type": "Feature", "properties": { "geogrid_id": "2916458679016267076", "seqnum": 5927.0, "lat_c": -16.458678678291609, "lon_c": 16.267076047274397, "res": 7.0, "count_Reptiles": 0, "count_Birds": 1, "count_Molluscs": 2, "count_Amphibians": 0, "count_Insects": 0, "count_Flowering Plants": 3, "count_Mammals": 0, "count_Sac Fungi": 0, "count_Arachnids": 0, "count_Gymnosperms": 0, "count_Ferns": 0, "count_Mosses": 0, "count_Basidiomycota": 0, "unique_species_count": 6.0, "countryCode": "AO" }, "geometry": { "type": "MultiPolygon", "coordinates": [ [ [ [ 16.675794672153874, -15.678469043419392 ], [ 17.069391324990455, -16.520447856256091 ], [ 16.646768436186658, -17.313286485723367 ], [ 15.851977385359877, -17.241201846219202 ], [ 15.451698674841552, -16.405884233800503 ], [ 15.859202419333769, -15.631987496705811 ], [ 16.675794672153874, -15.678469043419392 ] ] ] ] } },
{ "type": "Feature", "properties": { "geogrid_id": "2916576098021438015", "seqnum": 6091.0, "lat_c": -16.57609840957851, "lon_c": 21.438015173937384, "res": 7.0, "count_Reptiles": 0, "count_Birds": 0, "count_Molluscs": 0, "count_Amphibians": 0, "count_Insects": 2, "count_Flowering Plants": 2, "count_Mammals": 0, "count_Sac Fungi": 0, "count_Arachnids": 0, "count_Gymnosperms": 0, "count_Ferns": 0, "count_Mosses": 0, "count_Basidiomycota": 0, "unique_species_count": 4.0, "countryCode": "AO" }, "geometry": { "type": "MultiPolygon", "coordinates": [ [ [ [ 21.704845961323674, -15.859864371392375 ], [ 22.360388471369781, -16.542476679223338 ], [ 22.077321049281462, -17.267800865709908 ], [ 21.15803744858912, -17.297630287759212 ], [ 20.510416272149151, -16.607405543165093 ], [ 20.77071683678086, -15.897260310196886 ], [ 21.704845961323674, -15.859864371392375 ] ] ] ] } },
{ "type": "Feature", "properties": { "geogrid_id": "2916669710018628051", "seqnum": 6009.0, "lat_c": -16.669710458845319, "lon_c": 18.628050862017226, "res": 7.0, "count_Reptiles": 0, "count_Birds": 0, "count_Molluscs": 0, "count_Amphibians": 0, "count_Insects": 2, "count_Flowering Plants": 3, "count_Mammals": 0, "count_Sac Fungi": 0, "count_Arachnids": 1, "count_Gymnosperms": 0, "count_Ferns": 0, "count_Mosses": 0, "count_Basidiomycota": 0, "unique_species_count": 6.0, "countryCode": "AO" }, "geometry": { "type": "MultiPolygon", "coordinates": [ [ [ [ 19.05828461993535, -15.86116972824129 ], [ 19.575133416241922, -16.63776589802324 ], [ 19.307261111177045, -17.34808979969862 ], [ 18.37122477765562, -17.371039602046285 ], [ 17.856904159541518, -16.590899482865947 ], [ 18.27660379386182, -15.793250756345248 ], [ 19.05828461993535, -15.86116972824129 ] ] ] ] } },
{ "type": "Feature", "properties": { "geogrid_id": "2917068682009971433", "seqnum": 5735.0, "lat_c": -17.068681876939483, "lon_c": 9.9714332170872986, "res": 7.0, "count_Reptiles": 0, "count_Birds": 1, "count_Molluscs": 0, "count_Amphibians": 0, "count_Insects": 0, "count_Flowering Plants": 0, "count_Mammals": 1, "count_Sac Fungi": 0, "count_Arachnids": 0, "count_Gymnosperms": 0, "count_Ferns": 0, "count_Mosses": 0, "count_Basidiomycota": 0, "unique_species_count": 2.0, "countryCode": "AO" }, "geometry": { "type": "MultiPolygon", "coordinates": [ [ [ [ 10.40036204889457, -16.288964637056768 ], [ 10.823235081276426, -17.056118298921493 ], [ 10.393454456537073, -17.833221792224315 ], [ 9.542371642969309, -17.858150106453991 ], [ 9.124780589289243, -17.093710570674624 ], [ 9.553082630635808, -16.303712098879437 ], [ 10.40036204889457, -16.288964637056768 ] ] ] ] } },
{ "type": "Feature", "properties": { "geogrid_id": "2917068682012528567", "seqnum": 5817.0, "lat_c": -17.068681876193835, "lon_c": 12.52856679259445, "res": 7.0, "count_Reptiles": 5, "count_Birds": 21, "count_Molluscs": 0, "count_Amphibians": 0, "count_Insects": 9, "count_Flowering Plants": 13, "count_Mammals": 2, "count_Sac Fungi": 0, "count_Arachnids": 5, "count_Gymnosperms": 1, "count_Ferns": 0, "count_Mosses": 0, "count_Basidiomycota": 0, "unique_species_count": 56.0, "countryCode": "AO" }, "geometry": { "type": "MultiPolygon", "coordinates": [ [ [ [ 12.946917378478052, -16.303712097890589 ], [ 13.375219420402578, -17.09371056943526 ], [ 12.957628367295449, -17.85815010545732 ], [ 12.106545553716515, -17.833221791724398 ], [ 11.676764928400301, -17.056118298672605 ], [ 12.099637960214078, -16.288964636561634 ], [ 12.946917378478052, -16.303712097890589 ] ] ] ] } },
{ "type": "Feature", "properties": { "geogrid_id": "2917180296015039967", "seqnum": 5899.0, "lat_c": -17.180296354603755, "lon_c": 15.039967459516697, "res": 7.0, "count_Reptiles": 2, "count_Birds": 5, "count_Molluscs": 1, "count_Amphibians": 0, "count_Insects": 2, "count_Flowering Plants": 5, "count_Mammals": 0, "count_Sac Fungi": 0, "count_Arachnids": 0, "count_Gymnosperms": 0, "count_Ferns": 0, "count_Mosses": 0, "count_Basidiomycota": 0, "unique_species_count": 15.0, "countryCode": "AO" }, "geometry": { "type": "MultiPolygon", "coordinates": [ [ [ [ 15.451698674841552, -16.405884233800503 ], [ 15.851977385359877, -17.241201846219202 ], [ 15.426956167598853, -18.028317225768102 ], [ 14.622565535552992, -17.956295899204211 ], [ 14.213404057514364, -17.131010221478011 ], [ 14.625161995306501, -16.36232119303822 ], [ 15.451698674841552, -16.405884233800503 ] ] ] ] } },
{ "type": "Feature", "properties": { "geogrid_id": "2917234170022994170", "seqnum": 6145.0, "lat_c": -17.234169544060613, "lon_c": 22.994169889828878, "res": 7.0, "count_Reptiles": 0, "count_Birds": 1, "count_Molluscs": 0, "count_Amphibians": 2, "count_Insects": 3, "count_Flowering Plants": 5, "count_Mammals": 0, "count_Sac Fungi": 0, "count_Arachnids": 0, "count_Gymnosperms": 0, "count_Ferns": 0, "count_Mosses": 0, "count_Basidiomycota": 0, "unique_species_count": 11.0, "countryCode": "AO" }, "geometry": { "type": "MultiPolygon", "coordinates": [ [ [ [ 23.279091528345123, -16.505750022597176 ], [ 23.909292460344812, -17.196453584940226 ], [ 23.613737762694885, -17.930128053827953 ], [ 22.698566578312292, -17.965687349713068 ], [ 22.077321049281462, -17.267800865709908 ], [ 22.360388471369781, -16.542476679223338 ], [ 23.279091528345123, -16.505750022597176 ] ] ] ] } },
{ "type": "Feature", "properties": { "geogrid_id": "2917324123020235249", "seqnum": 6063.0, "lat_c": -17.324123301660098, "lon_c": 20.235249116900548, "res": 7.0, "count_Reptiles": 7, "count_Birds": 77, "count_Molluscs": 0, "count_Amphibians": 4, "count_Insects": 26, "count_Flowering Plants": 34, "count_Mammals": 1, "count_Sac Fungi": 0, "count_Arachnids": 1, "count_Gymnosperms": 0, "count_Ferns": 0, "count_Mosses": 0, "count_Basidiomycota": 0, "unique_species_count": 150.0, "countryCode": "AO" }, "geometry": { "type": "MultiPolygon", "coordinates": [ [ [ [ 20.510416272149151, -16.607405543165093 ], [ 21.15803744858912, -17.297630287759212 ], [ 20.864808404750093, -18.023628950218324 ], [ 19.945101308953188, -18.046398913783175 ], [ 19.307261111177045, -17.34808979969862 ], [ 19.575133416241922, -16.63776589802324 ], [ 20.510416272149151, -16.607405543165093 ] ] ] ] } },
{ "type": "Feature", "properties": { "geogrid_id": "2917396048017421977", "seqnum": 5981.0, "lat_c": -17.39604791326159, "lon_c": 17.421976840016818, "res": 7.0, "count_Reptiles": 0, "count_Birds": 0, "count_Molluscs": 0, "count_Amphibians": 0, "count_Insects": 0, "count_Flowering Plants": 1, "count_Mammals": 0, "count_Sac Fungi": 0, "count_Arachnids": 0, "count_Gymnosperms": 0, "count_Ferns": 0, "count_Mosses": 0, "count_Basidiomycota": 0, "unique_species_count": 1.0, "countryCode": "AO" }, "geometry": { "type": "MultiPolygon", "coordinates": [ [ [ [ 17.856904159541518, -16.590899482865947 ], [ 18.37122477765562, -17.371039602046285 ], [ 18.094347332731402, -18.081835519480087 ], [ 17.158217588625543, -18.096921082018344 ], [ 16.646768436186658, -17.313286485723367 ], [ 17.069391324990455, -16.520447856256091 ], [ 17.856904159541518, -16.590899482865947 ] ] ] ] } },
{ "type": "Feature", "properties": { "geogrid_id": "2917824877011250000", "seqnum": 5789.0, "lat_c": -17.824876671246876, "lon_c": 11.250000005124935, "res": 7.0, "count_Reptiles": 1, "count_Birds": 2, "count_Molluscs": 0, "count_Amphibians": 0, "count_Insects": 0, "count_Flowering Plants": 0, "count_Mammals": 1, "count_Sac Fungi": 0, "count_Arachnids": 1, "count_Gymnosperms": 0, "count_Ferns": 0, "count_Mosses": 0, "count_Basidiomycota": 0, "unique_species_count": 5.0, "countryCode": "AO" }, "geometry": { "type": "MultiPolygon", "coordinates": [ [ [ [ 11.676764928400301, -17.056118298672605 ], [ 12.106545553716515, -17.833221791724398 ], [ 11.680491769668256, -18.598019481980568 ], [ 10.819508241161712, -18.598019482232015 ], [ 10.393454456537073, -17.833221792224315 ], [ 10.823235081276426, -17.056118298921493 ], [ 11.676764928400301, -17.056118298672605 ] ] ] ] } },
{ "type": "Feature", "properties": { "geogrid_id": "2917899345008702044", "seqnum": 5707.0, "lat_c": -17.899345307870824, "lon_c": 8.7020437818506586, "res": 7.0, "count_Reptiles": 0, "count_Birds": 1, "count_Molluscs": 0, "count_Amphibians": 0, "count_Insects": 0, "count_Flowering Plants": 0, "count_Mammals": 1, "count_Sac Fungi": 0, "count_Arachnids": 0, "count_Gymnosperms": 0, "count_Ferns": 0, "count_Mosses": 0, "count_Basidiomycota": 0, "unique_species_count": 2.0, "countryCode": "AO" }, "geometry": { "type": "MultiPolygon", "coordinates": [ [ [ [ 9.124780589289243, -17.093710570674624 ], [ 9.542371642969309, -17.858150106453991 ], [ 9.121996163564996, -18.66797047814164 ], [ 8.303913469001628, -18.736305964219728 ], [ 7.877434474756708, -17.956295901172794 ], [ 8.286595952192636, -17.13101022320609 ], [ 9.124780589289243, -17.093710570674624 ] ] ] ] } },
{ "type": "Feature", "properties": { "geogrid_id": "2917899345013797956", "seqnum": 5871.0, "lat_c": -17.899345306383637, "lon_c": 13.797956228432779, "res": 7.0, "count_Reptiles": 1, "count_Birds": 31, "count_Molluscs": 0, "count_Amphibians": 0, "count_Insects": 2, "count_Flowering Plants": 6, "count_Mammals": 2, "count_Sac Fungi": 0, "count_Arachnids": 6, "count_Gymnosperms": 0, "count_Ferns": 0, "count_Mosses": 0, "count_Basidiomycota": 0, "unique_species_count": 48.0, "countryCode": "AO" }, "geometry": { "type": "MultiPolygon", "coordinates": [ [ [ [ 14.213404057514364, -17.131010221478011 ], [ 14.622565535552992, -17.956295899204211 ], [ 14.196086541898033, -18.736305962498111 ], [ 13.378003847299789, -18.667970476898372 ], [ 12.957628367295449, -17.85815010545732 ], [ 13.375219420402578, -17.09371056943526 ], [ 14.213404057514364, -17.131010221478011 ] ] ] ] } },
{ "type": "Feature", "properties": { "geogrid_id": "2917996806021782405", "seqnum": 6117.0, "lat_c": -17.996805573433438, "lon_c": 21.782405468313705, "res": 7.0, "count_Reptiles": 0, "count_Birds": 25, "count_Molluscs": 0, "count_Amphibians": 0, "count_Insects": 4, "count_Flowering Plants": 1, "count_Mammals": 0, "count_Sac Fungi": 0, "count_Arachnids": 2, "count_Gymnosperms": 0, "count_Ferns": 0, "count_Mosses": 0, "count_Basidiomycota": 0, "unique_species_count": 32.0, "countryCode": "AO" }, "geometry": { "type": "MultiPolygon", "coordinates": [ [ [ [ 22.077321049281462, -17.267800865709908 ], [ 22.698566578312292, -17.965687349713068 ], [ 22.392188494015507, -18.699700041981096 ], [ 21.475555901893753, -18.728769802477863 ], [ 20.864808404750093, -18.023628950218324 ], [ 21.15803744858912, -17.297630287759212 ], [ 22.077321049281462, -17.267800865709908 ] ] ] ] } },
{ "type": "Feature", "properties": { "geogrid_id": "2918065537019022215", "seqnum": 6035.0, "lat_c": -18.065537303915949, "lon_c": 19.022214869926035, "res": 7.0, "count_Reptiles": 10, "count_Birds": 62, "count_Molluscs": 0, "count_Amphibians": 9, "count_Insects": 30, "count_Flowering Plants": 19, "count_Mammals": 2, "count_Sac Fungi": 0, "count_Arachnids": 1, "count_Gymnosperms": 0, "count_Ferns": 0, "count_Mosses": 0, "count_Basidiomycota": 0, "unique_species_count": 133.0, "countryCode": "AO" }, "geometry": { "type": "MultiPolygon", "coordinates": [ [ [ [ 19.307261111177045, -17.34808979969862 ], [ 19.945101308953188, -18.046398913783175 ], [ 19.639900385126431, -18.773154404996959 ], [ 18.719920044856519, -18.788752093562433 ], [ 18.094347332731402, -18.081835519480087 ], [ 18.37122477765562, -17.371039602046285 ], [ 19.307261111177045, -17.34808979969862 ] ] ] ] } },
{ "type": "Feature", "properties": { "geogrid_id": "2918114580016207195", "seqnum": 5953.0, "lat_c": -18.114579541536976, "lon_c": 16.20719519239173, "res": 7.0, "count_Reptiles": 0, "count_Birds": 0, "count_Molluscs": 0, "count_Amphibians": 0, "count_Insects": 3, "count_Flowering Plants": 0, "count_Mammals": 0, "count_Sac Fungi": 0, "count_Arachnids": 0, "count_Gymnosperms": 0, "count_Ferns": 0, "count_Mosses": 0, "count_Basidiomycota": 0, "unique_species_count": 3.0, "countryCode": "AO" }, "geometry": { "type": "MultiPolygon", "coordinates": [ [ [ [ 16.646768436186658, -17.313286485723367 ], [ 17.158217588625543, -18.096921082018344 ], [ 16.870281574532271, -18.808657756814995 ], [ 15.935133528577776, -18.815323533162484 ], [ 15.426956167598853, -18.028317225768102 ], [ 15.851977385359877, -17.241201846219202 ], [ 16.646768436186658, -17.313286485723367 ] ] ] ] } },
{ "type": "Feature", "properties": { "geogrid_id": "2918753220020558250", "seqnum": 6090.0, "lat_c": -18.753220303566557, "lon_c": 20.558249836543034, "res": 7.0, "count_Reptiles": 9, "count_Birds": 29, "count_Molluscs": 0, "count_Amphibians": 1, "count_Insects": 8, "count_Flowering Plants": 0, "count_Mammals": 0, "count_Sac Fungi": 0, "count_Arachnids": 1, "count_Gymnosperms": 0, "count_Ferns": 0, "count_Mosses": 0, "count_Basidiomycota": 0, "unique_species_count": 48.0, "countryCode": "AO" }, "geometry": { "type": "MultiPolygon", "coordinates": [ [ [ [ 20.864808404750093, -18.023628950218324 ], [ 21.475555901893753, -18.728769802477863 ], [ 21.15670402290845, -19.462944490946015 ], [ 20.238311475922355, -19.485490927538844 ], [ 19.639900385126431, -18.773154404996959 ], [ 19.945101308953188, -18.046398913783175 ], [ 20.864808404750093, -18.023628950218324 ] ] ] ] } }
]
}
