{
"type": "FeatureCollection",
"name": "AT",
"crs": { "type": "name", "properties": { "name": "urn:ogc:def:crs:OGC:1.3:CRS84" } },
"features": [
{ "type": "Feature", "properties": { "geogrid_id": "846377491010596348", "seqnum": 13844.0, "lat_c": 46.377491231829566, "lon_c": 10.596348161424968, "res": 8.0, "count_Sac Fungi": 0, "count_Gymnosperms": 0, "count_Flowering Plants": 0, "count_Reptiles": 0, "count_Basidiomycota": 0, "count_Birds": 0, "count_Mosses": 0, "count_Molluscs": 0, "count_Insects": 5, "count_Arachnids": 0, "count_Mammals": 0, "count_Ferns": 0, "count_Amphibians": 0, "unique_species_count": 5.0, "countryCode": "AT" }, "geometry": { "type": "MultiPolygon", "coordinates": [ [ [ [ 11.24999999855379, 46.502869104145752 ], [ 11.249999998590321, 46.038221888019621 ], [ 10.601253889167657, 45.912911961035476 ], [ 9.945679316472043, 46.243109465372619 ], [ 9.935688122454984, 46.708110013010497 ], [ 10.591321146873915, 46.842494191302549 ], [ 11.24999999855379, 46.502869104145752 ] ] ] ] } },
{ "type": "Feature", "properties": { "geogrid_id": "846377491011903652", "seqnum": 13926.0, "lat_c": 46.37749123315529, "lon_c": 11.90365183713226, "res": 8.0, "count_Sac Fungi": 7, "count_Gymnosperms": 4, "count_Flowering Plants": 333, "count_Reptiles": 3, "count_Basidiomycota": 56, "count_Birds": 41, "count_Mosses": 1, "count_Molluscs": 50, "count_Insects": 355, "count_Arachnids": 3, "count_Mammals": 5, "count_Ferns": 15, "count_Amphibians": 4, "unique_species_count": 877.0, "countryCode": "AT" }, "geometry": { "type": "MultiPolygon", "coordinates": [ [ [ [ 12.564311876070496, 46.70811001439349 ], [ 12.554320682089369, 46.243109466730935 ], [ 11.898746109425502, 45.912911962336771 ], [ 11.249999998590321, 46.038221888019621 ], [ 11.24999999855379, 46.502869104145752 ], [ 11.908678851646744, 46.842494192652772 ], [ 12.564311876070496, 46.70811001439349 ] ] ] ] } },
{ "type": "Feature", "properties": { "geogrid_id": "846565232013216554", "seqnum": 14008.0, "lat_c": 46.565231699366727, "lon_c": 13.216554465083874, "res": 8.0, "count_Sac Fungi": 448, "count_Gymnosperms": 23, "count_Flowering Plants": 2144, "count_Reptiles": 13, "count_Basidiomycota": 495, "count_Birds": 256, "count_Mosses": 250, "count_Molluscs": 170, "count_Insects": 5555, "count_Arachnids": 258, "count_Mammals": 60, "count_Ferns": 48, "count_Amphibians": 14, "unique_species_count": 9734.0, "countryCode": "AT" }, "geometry": { "type": "MultiPolygon", "coordinates": [ [ [ [ 13.885323162666765, 46.879828848160507 ], [ 13.865103729207123, 46.414275666356275 ], [ 13.201660877189497, 46.100176057102672 ], [ 12.554320682089369, 46.243109466730935 ], [ 12.564311876070496, 46.70811001439349 ], [ 13.231816170433294, 47.030698858067325 ], [ 13.885323162666765, 46.879828848160507 ] ] ] ] } },
{ "type": "Feature", "properties": { "geogrid_id": "846721309014534807", "seqnum": 14090.0, "lat_c": 46.721309231881513, "lon_c": 14.534807360483581, "res": 8.0, "count_Sac Fungi": 587, "count_Gymnosperms": 20, "count_Flowering Plants": 2193, "count_Reptiles": 18, "count_Basidiomycota": 1036, "count_Birds": 275, "count_Mosses": 256, "count_Molluscs": 201, "count_Insects": 7997, "count_Arachnids": 208, "count_Mammals": 60, "count_Ferns": 46, "count_Amphibians": 14, "unique_species_count": 12911.0, "countryCode": "AT" }, "geometry": { "type": "MultiPolygon", "coordinates": [ [ [ [ 15.210710761614047, 47.021692512536042 ], [ 15.180038674769479, 46.555505169819668 ], [ 14.509695132940573, 46.255636419208869 ], [ 13.865103729207123, 46.414275666356275 ], [ 13.885323162666765, 46.879828848160507 ], [ 14.560538517844742, 47.187371006721129 ], [ 15.210710761614047, 47.021692512536042 ] ] ] ] } },
{ "type": "Feature", "properties": { "geogrid_id": "846849092015856362", "seqnum": 14172.0, "lat_c": 46.84909191651235, "lon_c": 15.85636162300081, "res": 8.0, "count_Sac Fungi": 695, "count_Gymnosperms": 29, "count_Flowering Plants": 2299, "count_Reptiles": 15, "count_Basidiomycota": 1878, "count_Birds": 250, "count_Mosses": 263, "count_Molluscs": 134, "count_Insects": 7337, "count_Arachnids": 331, "count_Mammals": 58, "count_Ferns": 46, "count_Amphibians": 17, "unique_species_count": 13352.0, "countryCode": "AT" }, "geometry": { "type": "MultiPolygon", "coordinates": [ [ [ [ 16.538645151665584, 47.136709806873682 ], [ 16.49732091766797, 46.669891474584283 ], [ 15.820818954658987, 46.382763086432142 ], [ 15.180038674769479, 46.555505169819668 ], [ 15.210710761614047, 47.021692512536042 ], [ 15.892776671805775, 47.315780791054443 ], [ 16.538645151665584, 47.136709806873682 ] ] ] ] } },
{ "type": "Feature", "properties": { "geogrid_id": "846967945011250000", "seqnum": 13845.0, "lat_c": 46.967944725710652, "lon_c": 11.249999998516596, "res": 8.0, "count_Sac Fungi": 665, "count_Gymnosperms": 21, "count_Flowering Plants": 2359, "count_Reptiles": 11, "count_Basidiomycota": 508, "count_Birds": 245, "count_Mosses": 169, "count_Molluscs": 146, "count_Insects": 7359, "count_Arachnids": 431, "count_Mammals": 54, "count_Ferns": 44, "count_Amphibians": 14, "unique_species_count": 12026.0, "countryCode": "AT" }, "geometry": { "type": "MultiPolygon", "coordinates": [ [ [ [ 11.913831271696097, 47.307929781497556 ], [ 11.908678851646744, 46.842494192652772 ], [ 11.24999999855379, 46.502869104145752 ], [ 10.591321146873915, 46.842494191302549 ], [ 10.586168726787331, 47.307929780122763 ], [ 11.249999998478714, 47.433457622000951 ], [ 11.913831271696097, 47.307929781497556 ] ] ] ] } },
{ "type": "Feature", "properties": { "geogrid_id": "847173534009925449", "seqnum": 13763.0, "lat_c": 47.173534377715967, "lon_c": 9.9254487139615701, "res": 8.0, "count_Sac Fungi": 401, "count_Gymnosperms": 24, "count_Flowering Plants": 2402, "count_Reptiles": 14, "count_Basidiomycota": 449, "count_Birds": 299, "count_Mosses": 130, "count_Molluscs": 144, "count_Insects": 6747, "count_Arachnids": 221, "count_Mammals": 48, "count_Ferns": 41, "count_Amphibians": 12, "unique_species_count": 10932.0, "countryCode": "AT" }, "geometry": { "type": "MultiPolygon", "coordinates": [ [ [ [ 10.586168726787331, 47.307929780122763 ], [ 10.591321146873915, 46.842494191302549 ], [ 9.935688122454984, 46.708110013010497 ], [ 9.268183828061799, 47.030698856626827 ], [ 9.252541350108647, 47.496587020624553 ], [ 9.914952560025593, 47.639391759372529 ], [ 10.586168726787331, 47.307929780122763 ] ] ] ] } },
{ "type": "Feature", "properties": { "geogrid_id": "847173534012574551", "seqnum": 13927.0, "lat_c": 47.173534379123716, "lon_c": 12.574551284527347, "res": 8.0, "count_Sac Fungi": 1320, "count_Gymnosperms": 19, "count_Flowering Plants": 2573, "count_Reptiles": 10, "count_Basidiomycota": 1189, "count_Birds": 318, "count_Mosses": 458, "count_Molluscs": 178, "count_Insects": 6926, "count_Arachnids": 366, "count_Mammals": 79, "count_Ferns": 56, "count_Amphibians": 13, "unique_species_count": 13505.0, "countryCode": "AT" }, "geometry": { "type": "MultiPolygon", "coordinates": [ [ [ [ 13.247458648349939, 47.496587022090075 ], [ 13.231816170433294, 47.030698858067325 ], [ 12.564311876070496, 46.70811001439349 ], [ 11.908678851646744, 46.842494192652772 ], [ 11.913831271696097, 47.307929781497556 ], [ 12.585047438426106, 47.639391760805125 ], [ 13.247458648349939, 47.496587022090075 ] ] ] ] } },
{ "type": "Feature", "properties": { "geogrid_id": "847345788013906044", "seqnum": 14009.0, "lat_c": 47.345788187256666, "lon_c": 13.906044158032156, "res": 8.0, "count_Sac Fungi": 871, "count_Gymnosperms": 20, "count_Flowering Plants": 2403, "count_Reptiles": 9, "count_Basidiomycota": 1295, "count_Birds": 288, "count_Mosses": 419, "count_Molluscs": 176, "count_Insects": 7595, "count_Arachnids": 266, "count_Mammals": 76, "count_Ferns": 57, "count_Amphibians": 12, "unique_species_count": 13487.0, "countryCode": "AT" }, "geometry": { "type": "MultiPolygon", "coordinates": [ [ [ [ 14.586910181647973, 47.65383191177105 ], [ 14.560538517844742, 47.187371006721129 ], [ 13.885323162666765, 46.879828848160507 ], [ 13.231816170433294, 47.030698858067325 ], [ 13.247458648349939, 47.496587022090075 ], [ 13.927284180257306, 47.812163507717635 ], [ 14.586910181647973, 47.65383191177105 ] ] ] ] } },
{ "type": "Feature", "properties": { "geogrid_id": "847488260015242141", "seqnum": 14091.0, "lat_c": 47.488260221579914, "lon_c": 15.242141172593534, "res": 8.0, "count_Sac Fungi": 949, "count_Gymnosperms": 26, "count_Flowering Plants": 2486, "count_Reptiles": 13, "count_Basidiomycota": 1993, "count_Birds": 203, "count_Mosses": 342, "count_Molluscs": 181, "count_Insects": 8206, "count_Arachnids": 416, "count_Mammals": 65, "count_Ferns": 58, "count_Amphibians": 15, "unique_species_count": 14953.0, "countryCode": "AT" }, "geometry": { "type": "MultiPolygon", "coordinates": [ [ [ [ 15.930094918862052, 47.782840461495681 ], [ 15.892776671805775, 47.315780791054443 ], [ 15.210710761614047, 47.021692512536042 ], [ 14.560538517844742, 47.187371006721129 ], [ 14.586910181647973, 47.65383191177105 ], [ 15.274356666743875, 47.955218741564835 ], [ 15.930094918862052, 47.782840461495681 ] ] ] ] } },
{ "type": "Feature", "properties": { "geogrid_id": "847603878016580987", "seqnum": 14173.0, "lat_c": 47.603877649468075, "lon_c": 16.580986749357269, "res": 8.0, "count_Sac Fungi": 414, "count_Gymnosperms": 22, "count_Flowering Plants": 2368, "count_Reptiles": 16, "count_Basidiomycota": 1674, "count_Birds": 327, "count_Mosses": 81, "count_Molluscs": 176, "count_Insects": 8913, "count_Arachnids": 288, "count_Mammals": 62, "count_Ferns": 40, "count_Amphibians": 17, "unique_species_count": 14398.0, "countryCode": "AT" }, "geometry": { "type": "MultiPolygon", "coordinates": [ [ [ [ 17.275337655408105, 47.886242273791304 ], [ 17.226885736240117, 47.418625992944165 ], [ 16.538645151665584, 47.136709806873682 ], [ 15.892776671805775, 47.315780791054443 ], [ 15.930094918862052, 47.782840461495681 ], [ 16.624382041834167, 48.071405904557203 ], [ 17.275337655408105, 47.886242273791304 ] ] ] ] } },
{ "type": "Feature", "properties": { "geogrid_id": "847773807010580887", "seqnum": 13764.0, "lat_c": 47.773807001679252, "lon_c": 10.580886586911133, "res": 8.0, "count_Sac Fungi": 50, "count_Gymnosperms": 9, "count_Flowering Plants": 1076, "count_Reptiles": 7, "count_Basidiomycota": 92, "count_Birds": 142, "count_Mosses": 29, "count_Molluscs": 92, "count_Insects": 2625, "count_Arachnids": 47, "count_Mammals": 19, "count_Ferns": 18, "count_Amphibians": 8, "unique_species_count": 4214.0, "countryCode": "AT" }, "geometry": { "type": "MultiPolygon", "coordinates": [ [ [ [ 11.249999998440117, 47.899416732985749 ], [ 11.249999998478714, 47.433457622000951 ], [ 10.586168726787331, 47.307929780122763 ], [ 9.914952560025593, 47.639391759372529 ], [ 9.904190723261687, 48.105691404092433 ], [ 10.575470205770483, 48.240134924396713 ], [ 11.249999998440117, 47.899416732985749 ] ] ] ] } },
{ "type": "Feature", "properties": { "geogrid_id": "847773807011919113", "seqnum": 13846.0, "lat_c": 47.773807003078687, "lon_c": 11.919113411534381, "res": 8.0, "count_Sac Fungi": 110, "count_Gymnosperms": 16, "count_Flowering Plants": 1580, "count_Reptiles": 10, "count_Basidiomycota": 252, "count_Birds": 191, "count_Mosses": 45, "count_Molluscs": 119, "count_Insects": 4202, "count_Arachnids": 243, "count_Mammals": 40, "count_Ferns": 29, "count_Amphibians": 12, "unique_species_count": 6849.0, "countryCode": "AT" }, "geometry": { "type": "MultiPolygon", "coordinates": [ [ [ [ 12.595809275152115, 48.10569140554994 ], [ 12.585047438426106, 47.639391760805125 ], [ 11.913831271696097, 47.307929781497556 ], [ 11.249999998478714, 47.433457622000951 ], [ 11.249999998440117, 47.899416732985749 ], [ 11.924529792636408, 48.240134925820875 ], [ 12.595809275152115, 48.10569140554994 ] ] ] ] } },
{ "type": "Feature", "properties": { "geogrid_id": "847962906009236505", "seqnum": 13682.0, "lat_c": 47.962905698238387, "lon_c": 9.2365048480489538, "res": 8.0, "count_Sac Fungi": 0, "count_Gymnosperms": 0, "count_Flowering Plants": 0, "count_Reptiles": 0, "count_Basidiomycota": 0, "count_Birds": 0, "count_Mosses": 0, "count_Molluscs": 0, "count_Insects": 1, "count_Arachnids": 0, "count_Mammals": 0, "count_Ferns": 0, "count_Amphibians": 0, "unique_species_count": 1.0, "countryCode": "AT" }, "geometry": { "type": "MultiPolygon", "coordinates": [ [ [ [ 9.904190723261687, 48.105691404092433 ], [ 9.914952560025593, 47.639391759372529 ], [ 9.252541350108647, 47.496587020624553 ], [ 8.572715818172401, 47.812163506194096 ], [ 8.550938479686574, 48.278964625997133 ], [ 9.22006043743642, 48.429664422137435 ], [ 9.904190723261687, 48.105691404092433 ] ] ] ] } },
{ "type": "Feature", "properties": { "geogrid_id": "847962906013263495", "seqnum": 13928.0, "lat_c": 47.962905699729021, "lon_c": 13.263495150372476, "res": 8.0, "count_Sac Fungi": 619, "count_Gymnosperms": 41, "count_Flowering Plants": 3260, "count_Reptiles": 21, "count_Basidiomycota": 1473, "count_Birds": 397, "count_Mosses": 369, "count_Molluscs": 254, "count_Insects": 8514, "count_Arachnids": 302, "count_Mammals": 88, "count_Ferns": 50, "count_Amphibians": 17, "unique_species_count": 15405.0, "countryCode": "AT" }, "geometry": { "type": "MultiPolygon", "coordinates": [ [ [ [ 13.949061518706094, 48.27896462754606 ], [ 13.927284180257306, 47.812163507717635 ], [ 13.247458648349939, 47.496587022090075 ], [ 12.585047438426106, 47.639391760805125 ], [ 12.595809275152115, 48.10569140554994 ], [ 13.279939560947183, 48.429664423653264 ], [ 13.949061518706094, 48.27896462754606 ] ] ] ] } },
{ "type": "Feature", "properties": { "geogrid_id": "848120702014613945", "seqnum": 14010.0, "lat_c": 48.120702075380237, "lon_c": 14.61394493366759, "res": 8.0, "count_Sac Fungi": 513, "count_Gymnosperms": 31, "count_Flowering Plants": 2714, "count_Reptiles": 16, "count_Basidiomycota": 1346, "count_Birds": 372, "count_Mosses": 296, "count_Molluscs": 216, "count_Insects": 9855, "count_Arachnids": 365, "count_Mammals": 90, "count_Ferns": 49, "count_Amphibians": 18, "unique_species_count": 15881.0, "countryCode": "AT" }, "geometry": { "type": "MultiPolygon", "coordinates": [ [ [ [ 15.307385252297035, 48.422578451213802 ], [ 15.274356666743875, 47.955218741564835 ], [ 14.586910181647973, 47.65383191177105 ], [ 13.927284180257306, 47.812163507717635 ], [ 13.949061518706094, 48.27896462754606 ], [ 14.641666423821702, 48.587991593864395 ], [ 15.307385252297035, 48.422578451213802 ] ] ] ] } },
{ "type": "Feature", "properties": { "geogrid_id": "848250282015968349", "seqnum": 14092.0, "lat_c": 48.250281578939656, "lon_c": 15.968348600681409, "res": 8.0, "count_Sac Fungi": 1088, "count_Gymnosperms": 28, "count_Flowering Plants": 3030, "count_Reptiles": 24, "count_Basidiomycota": 2439, "count_Birds": 295, "count_Mosses": 190, "count_Molluscs": 241, "count_Insects": 11395, "count_Arachnids": 529, "count_Mammals": 78, "count_Ferns": 39, "count_Amphibians": 20, "unique_species_count": 19396.0, "countryCode": "AT" }, "geometry": { "type": "MultiPolygon", "coordinates": [ [ [ [ 16.668869038504763, 48.539305349941543 ], [ 16.624382041834167, 48.071405904557203 ], [ 15.930094918862052, 47.782840461495681 ], [ 15.274356666743875, 47.955218741564835 ], [ 15.307385252297035, 48.422578451213802 ], [ 16.007571463201266, 48.718114703436825 ], [ 16.668869038504763, 48.539305349941543 ] ] ] ] } },
{ "type": "Feature", "properties": { "geogrid_id": "848354208017325000", "seqnum": 14174.0, "lat_c": 48.354207857309156, "lon_c": 17.324999524583834, "res": 8.0, "count_Sac Fungi": 115, "count_Gymnosperms": 9, "count_Flowering Plants": 1657, "count_Reptiles": 12, "count_Basidiomycota": 446, "count_Birds": 226, "count_Mosses": 18, "count_Molluscs": 133, "count_Insects": 5551, "count_Arachnids": 83, "count_Mammals": 34, "count_Ferns": 13, "count_Amphibians": 13, "unique_species_count": 8310.0, "countryCode": "AT" }, "geometry": { "type": "MultiPolygon", "coordinates": [ [ [ [ 18.031955934752379, 48.631460556544951 ], [ 17.975837857830793, 48.163095561393085 ], [ 17.275337655408105, 47.886242273791304 ], [ 16.624382041834167, 48.071405904557203 ], [ 16.668869038504763, 48.539305349941543 ], [ 17.375915421656885, 48.822533562250982 ], [ 18.031955934752379, 48.631460556544951 ] ] ] ] } },
{ "type": "Feature", "properties": { "geogrid_id": "848746201013971395", "seqnum": 13929.0, "lat_c": 48.746201364837212, "lon_c": 13.971395338391742, "res": 8.0, "count_Sac Fungi": 185, "count_Gymnosperms": 27, "count_Flowering Plants": 1845, "count_Reptiles": 10, "count_Basidiomycota": 382, "count_Birds": 249, "count_Mosses": 116, "count_Molluscs": 114, "count_Insects": 4106, "count_Arachnids": 115, "count_Mammals": 56, "count_Ferns": 36, "count_Amphibians": 13, "unique_species_count": 7254.0, "countryCode": "AT" }, "geometry": { "type": "MultiPolygon", "coordinates": [ [ [ [ 14.670099437503932, 49.055710538541611 ], [ 14.641666423821702, 48.587991593864395 ], [ 13.949061518706094, 48.27896462754606 ], [ 13.279939560947183, 48.429664423653264 ], [ 13.296806436487845, 48.896872755563173 ], [ 13.994305734827776, 49.213883543491235 ], [ 14.670099437503932, 49.055710538541611 ] ] ] ] } },
{ "type": "Feature", "properties": { "geogrid_id": "848890350015341256", "seqnum": 14011.0, "lat_c": 48.890349671607616, "lon_c": 15.341256265971747, "res": 8.0, "count_Sac Fungi": 214, "count_Gymnosperms": 15, "count_Flowering Plants": 1585, "count_Reptiles": 9, "count_Basidiomycota": 1357, "count_Birds": 172, "count_Mosses": 86, "count_Molluscs": 113, "count_Insects": 4184, "count_Arachnids": 83, "count_Mammals": 36, "count_Ferns": 20, "count_Amphibians": 19, "unique_species_count": 7893.0, "countryCode": "AT" }, "geometry": { "type": "MultiPolygon", "coordinates": [ [ [ [ 16.047798858602921, 49.186350312389983 ], [ 16.007571463201266, 48.718114703436825 ], [ 15.307385252297035, 48.422578451213802 ], [ 14.641666423821702, 48.587991593864395 ], [ 14.670099437503932, 49.055710538541611 ], [ 15.376000457732422, 49.358542673702608 ], [ 16.047798858602921, 49.186350312389983 ] ] ] ] } },
{ "type": "Feature", "properties": { "geogrid_id": "849007587016714488", "seqnum": 14093.0, "lat_c": 49.007586648116096, "lon_c": 16.714487535324949, "res": 8.0, "count_Sac Fungi": 11, "count_Gymnosperms": 9, "count_Flowering Plants": 1077, "count_Reptiles": 6, "count_Basidiomycota": 103, "count_Birds": 162, "count_Mosses": 5, "count_Molluscs": 58, "count_Insects": 1962, "count_Arachnids": 49, "count_Mammals": 25, "count_Ferns": 7, "count_Amphibians": 11, "unique_species_count": 3485.0, "countryCode": "AT" }, "geometry": { "type": "MultiPolygon", "coordinates": [ [ [ [ 17.428131505660733, 49.291230068371192 ], [ 17.375915421656885, 48.822533562250982 ], [ 16.668869038504763, 48.539305349941543 ], [ 16.007571463201266, 48.718114703436825 ], [ 16.047798858602921, 49.186350312389983 ], [ 16.761279230370789, 49.476260354411984 ], [ 17.428131505660733, 49.291230068371192 ] ] ] ] } }
]
}
