{
"type": "FeatureCollection",
"name": "AZ",
"crs": { "type": "name", "properties": { "name": "urn:ogc:def:crs:OGC:1.3:CRS84" } },
"features": [
{ "type": "Feature", "properties": { "geogrid_id": "838498460049918541", "seqnum": 21442.0, "lat_c": 38.498459589376552, "lon_c": 49.918541468414212, "res": 8.0, "count_Amphibians": 0, "count_Flowering Plants": 2, "count_Insects": 0, "count_Reptiles": 0, "count_Molluscs": 0, "count_Mosses": 0, "count_Birds": 0, "count_Mammals": 0, "count_Ferns": 0, "count_Arachnids": 0, "count_Basidiomycota": 0, "count_Sac Fungi": 0, "count_Gymnosperms": 0, "unique_species_count": 2.0, "countryCode": "AZ" }, "geometry": { "type": "MultiPolygon", "coordinates": [ [ [ [ 50.201647319280873, 38.934721269236135 ], [ 50.591545935724838, 38.590200377801828 ], [ 50.310533880905453, 38.153207751944812 ], [ 49.649971286841463, 38.056319219534139 ], [ 49.253064971294577, 38.400361694765266 ], [ 49.52356580451724, 38.841969465648283 ], [ 50.201647319280873, 38.934721269236135 ] ] ] ] } },
{ "type": "Feature", "properties": { "geogrid_id": "838630213045806199", "seqnum": 21117.0, "lat_c": 38.630212520710103, "lon_c": 45.806198534193861, "res": 8.0, "count_Amphibians": 0, "count_Flowering Plants": 96, "count_Insects": 40, "count_Reptiles": 3, "count_Molluscs": 0, "count_Mosses": 0, "count_Birds": 24, "count_Mammals": 1, "count_Ferns": 0, "count_Arachnids": 0, "count_Basidiomycota": 0, "count_Sac Fungi": 0, "count_Gymnosperms": 1, "unique_species_count": 165.0, "countryCode": "AZ" }, "geometry": { "type": "MultiPolygon", "coordinates": [ [ [ [ 46.041512593277147, 39.083729141257308 ], [ 46.460371523202838, 38.749963625279882 ], [ 46.225687879237455, 38.296524248389133 ], [ 45.578906146543893, 38.174902074375709 ], [ 45.155812190969186, 38.506599771952608 ], [ 45.383538756366541, 38.962069256942151 ], [ 46.041512593277147, 39.083729141257308 ] ] ] ] } },
{ "type": "Feature", "properties": { "geogrid_id": "838742624048853262", "seqnum": 21361.0, "lat_c": 38.742623591413569, "lon_c": 48.853262467054108, "res": 8.0, "count_Amphibians": 9, "count_Flowering Plants": 391, "count_Insects": 355, "count_Reptiles": 13, "count_Molluscs": 7, "count_Mosses": 0, "count_Birds": 216, "count_Mammals": 12, "count_Ferns": 15, "count_Arachnids": 32, "count_Basidiomycota": 6, "count_Sac Fungi": 6, "count_Gymnosperms": 0, "unique_species_count": 1062.0, "countryCode": "AZ" }, "geometry": { "type": "MultiPolygon", "coordinates": [ [ [ [ 49.125407415242741, 39.18376751448303 ], [ 49.52356580451724, 38.841969465648283 ], [ 49.253064971294577, 38.400361694765266 ], [ 48.593571752413233, 38.297009574808015 ], [ 48.189216231390141, 38.637813955946669 ], [ 48.450362071988955, 39.083125058615877 ], [ 49.125407415242741, 39.18376751448303 ] ] ] ] } },
{ "type": "Feature", "properties": { "geogrid_id": "838976830047781815", "seqnum": 21280.0, "lat_c": 38.976830361863094, "lon_c": 47.781814950652063, "res": 8.0, "count_Amphibians": 1, "count_Flowering Plants": 40, "count_Insects": 14, "count_Reptiles": 7, "count_Molluscs": 0, "count_Mosses": 0, "count_Birds": 0, "count_Mammals": 0, "count_Ferns": 0, "count_Arachnids": 0, "count_Basidiomycota": 0, "count_Sac Fungi": 0, "count_Gymnosperms": 0, "unique_species_count": 62.0, "countryCode": "AZ" }, "geometry": { "type": "MultiPolygon", "coordinates": [ [ [ [ 48.044183350036135, 39.421881683345362 ], [ 48.450362071988955, 39.083125058615877 ], [ 48.189216231390141, 38.637813955946669 ], [ 47.530389580868992, 38.528245704299245 ], [ 47.118730902473381, 38.865614541552013 ], [ 47.371188772375184, 39.314066331751391 ], [ 48.044183350036135, 39.421881683345362 ] ] ] ] } },
{ "type": "Feature", "properties": { "geogrid_id": "839201180046703880", "seqnum": 21199.0, "lat_c": 39.201179745352533, "lon_c": 46.7038795994781, "res": 8.0, "count_Amphibians": 0, "count_Flowering Plants": 147, "count_Insects": 12, "count_Reptiles": 4, "count_Molluscs": 1, "count_Mosses": 0, "count_Birds": 17, "count_Mammals": 1, "count_Ferns": 1, "count_Arachnids": 0, "count_Basidiomycota": 0, "count_Sac Fungi": 0, "count_Gymnosperms": 0, "unique_species_count": 183.0, "countryCode": "AZ" }, "geometry": { "type": "MultiPolygon", "coordinates": [ [ [ [ 46.957173773958289, 39.649526642409562 ], [ 47.371188772375184, 39.314066331751391 ], [ 47.118730902473381, 38.865614541552013 ], [ 46.460371523202838, 38.749963625279882 ], [ 46.041512593277147, 39.083729141257308 ], [ 46.285674397733608, 39.5349397691974 ], [ 46.957173773958289, 39.649526642409562 ] ] ] ] } },
{ "type": "Feature", "properties": { "geogrid_id": "839277613049808440", "seqnum": 21443.0, "lat_c": 39.277613254907124, "lon_c": 49.808439587384832, "res": 8.0, "count_Amphibians": 0, "count_Flowering Plants": 0, "count_Insects": 0, "count_Reptiles": 0, "count_Molluscs": 0, "count_Mosses": 0, "count_Birds": 1, "count_Mammals": 3, "count_Ferns": 0, "count_Arachnids": 0, "count_Basidiomycota": 0, "count_Sac Fungi": 0, "count_Gymnosperms": 0, "unique_species_count": 4.0, "countryCode": "AZ" }, "geometry": { "type": "MultiPolygon", "coordinates": [ [ [ [ 50.109894184169669, 39.705126826860784 ], [ 50.501664612672506, 39.362787809946276 ], [ 50.201647319280873, 38.934721269236135 ], [ 49.52356580451724, 38.841969465648283 ], [ 49.125407415242741, 39.18376751448303 ], [ 49.411758201789567, 39.618902195734364 ], [ 50.109894184169669, 39.705126826860784 ] ] ] ] } },
{ "type": "Feature", "properties": { "geogrid_id": "839415668045619321", "seqnum": 21118.0, "lat_c": 39.415667667175192, "lon_c": 45.619320734364841, "res": 8.0, "count_Amphibians": 2, "count_Flowering Plants": 153, "count_Insects": 25, "count_Reptiles": 11, "count_Molluscs": 0, "count_Mosses": 0, "count_Birds": 44, "count_Mammals": 1, "count_Ferns": 0, "count_Arachnids": 0, "count_Basidiomycota": 0, "count_Sac Fungi": 0, "count_Gymnosperms": 1, "unique_species_count": 237.0, "countryCode": "AZ" }, "geometry": { "type": "MultiPolygon", "coordinates": [ [ [ [ 45.863965150458078, 39.866891255313639 ], [ 46.285674397733608, 39.5349397691974 ], [ 46.041512593277147, 39.083729141257308 ], [ 45.383538756366541, 38.962069256942151 ], [ 44.957556751854149, 39.292081815796465 ], [ 45.19364891775335, 39.745770865961688 ], [ 45.863965150458078, 39.866891255313639 ] ] ] ] } },
{ "type": "Feature", "properties": { "geogrid_id": "839523876048723890", "seqnum": 21362.0, "lat_c": 39.523876361544467, "lon_c": 48.723889698573679, "res": 8.0, "count_Amphibians": 1, "count_Flowering Plants": 48, "count_Insects": 60, "count_Reptiles": 7, "count_Molluscs": 1, "count_Mosses": 0, "count_Birds": 167, "count_Mammals": 11, "count_Ferns": 0, "count_Arachnids": 4, "count_Basidiomycota": 0, "count_Sac Fungi": 0, "count_Gymnosperms": 0, "unique_species_count": 299.0, "countryCode": "AZ" }, "geometry": { "type": "MultiPolygon", "coordinates": [ [ [ [ 49.011455312352638, 39.958605115807117 ], [ 49.411758201789567, 39.618902195734364 ], [ 49.125407415242741, 39.18376751448303 ], [ 48.450362071988955, 39.083125058615877 ], [ 48.044183350036135, 39.421881683345362 ], [ 48.318853475725767, 39.862311837651234 ], [ 49.011455312352638, 39.958605115807117 ] ] ] ] } },
{ "type": "Feature", "properties": { "geogrid_id": "839620237044528110", "seqnum": 21037.0, "lat_c": 39.620237301093248, "lon_c": 44.528109561724449, "res": 8.0, "count_Amphibians": 0, "count_Flowering Plants": 35, "count_Insects": 2, "count_Reptiles": 0, "count_Molluscs": 0, "count_Mosses": 0, "count_Birds": 2, "count_Mammals": 0, "count_Ferns": 0, "count_Arachnids": 0, "count_Basidiomycota": 0, "count_Sac Fungi": 0, "count_Gymnosperms": 0, "unique_species_count": 39.0, "countryCode": "AZ" }, "geometry": { "type": "MultiPolygon", "coordinates": [ [ [ [ 44.764358427370254, 40.074029101910952 ], [ 45.19364891775335, 39.745770865961688 ], [ 44.957556751854149, 39.292081815796465 ], [ 44.299960029826821, 39.16445312407906 ], [ 43.866917283979944, 39.490574688986811 ], [ 44.095061698764411, 39.946522111866869 ], [ 44.764358427370254, 40.074029101910952 ] ] ] ] } },
{ "type": "Feature", "properties": { "geogrid_id": "839758904047634563", "seqnum": 21281.0, "lat_c": 39.758904441098217, "lon_c": 47.634562515647787, "res": 8.0, "count_Amphibians": 0, "count_Flowering Plants": 17, "count_Insects": 16, "count_Reptiles": 5, "count_Molluscs": 0, "count_Mosses": 0, "count_Birds": 107, "count_Mammals": 4, "count_Ferns": 0, "count_Arachnids": 0, "count_Basidiomycota": 0, "count_Sac Fungi": 0, "count_Gymnosperms": 0, "unique_species_count": 149.0, "countryCode": "AZ" }, "geometry": { "type": "MultiPolygon", "coordinates": [ [ [ [ 47.910152956593585, 40.199083710011514 ], [ 48.318853475725767, 39.862311837651234 ], [ 48.044183350036135, 39.421881683345362 ], [ 47.371188772375184, 39.314066331751391 ], [ 46.957173773958289, 39.649526642409562 ], [ 47.221348912406967, 40.094199851234151 ], [ 47.910152956593585, 40.199083710011514 ] ] ] ] } },
{ "type": "Feature", "properties": { "geogrid_id": "839983213046539618", "seqnum": 21200.0, "lat_c": 39.983213075963867, "lon_c": 46.539618285024886, "res": 8.0, "count_Amphibians": 1, "count_Flowering Plants": 213, "count_Insects": 26, "count_Reptiles": 3, "count_Molluscs": 2, "count_Mosses": 0, "count_Birds": 14, "count_Mammals": 1, "count_Ferns": 3, "count_Arachnids": 2, "count_Basidiomycota": 1, "count_Sac Fungi": 0, "count_Gymnosperms": 3, "unique_species_count": 269.0, "countryCode": "AZ" }, "geometry": { "type": "MultiPolygon", "coordinates": [ [ [ [ 46.80440229799175, 40.427770229205144 ], [ 47.221348912406967, 40.094199851234151 ], [ 46.957173773958289, 39.649526642409562 ], [ 46.285674397733608, 39.5349397691974 ], [ 45.863965150458078, 39.866891255313639 ], [ 46.118380550742927, 40.315124358115447 ], [ 46.80440229799175, 40.427770229205144 ] ] ] ] } },
{ "type": "Feature", "properties": { "geogrid_id": "840046001049714375", "seqnum": 21444.0, "lat_c": 40.046001248384059, "lon_c": 49.714374925864938, "res": 8.0, "count_Amphibians": 2, "count_Flowering Plants": 218, "count_Insects": 100, "count_Reptiles": 13, "count_Molluscs": 8, "count_Mosses": 1, "count_Birds": 116, "count_Mammals": 6, "count_Ferns": 0, "count_Arachnids": 16, "count_Basidiomycota": 2, "count_Sac Fungi": 1, "count_Gymnosperms": 4, "unique_species_count": 487.0, "countryCode": "AZ" }, "geometry": { "type": "MultiPolygon", "coordinates": [ [ [ [ 50.035677559347839, 40.462390011412282 ], [ 50.430551835429945, 40.12160049722705 ], [ 50.109894184169669, 39.705126826860784 ], [ 49.411758201789567, 39.618902195734364 ], [ 49.011455312352638, 39.958605115807117 ], [ 49.314988564027267, 40.385414436928308 ], [ 50.035677559347839, 40.462390011412282 ] ] ] ] } },
{ "type": "Feature", "properties": { "geogrid_id": "840197029045438611", "seqnum": 21119.0, "lat_c": 40.197028768261688, "lon_c": 45.43861086910799, "res": 8.0, "count_Amphibians": 0, "count_Flowering Plants": 11, "count_Insects": 0, "count_Reptiles": 0, "count_Molluscs": 2, "count_Mosses": 0, "count_Birds": 2, "count_Mammals": 0, "count_Ferns": 0, "count_Arachnids": 0, "count_Basidiomycota": 0, "count_Sac Fungi": 0, "count_Gymnosperms": 0, "unique_species_count": 15.0, "countryCode": "AZ" }, "geometry": { "type": "MultiPolygon", "coordinates": [ [ [ [ 45.693326874979597, 40.645256195811925 ], [ 46.118380550742927, 40.315124358115447 ], [ 45.863965150458078, 39.866891255313639 ], [ 45.19364891775335, 39.745770865961688 ], [ 44.764358427370254, 40.074029101910952 ], [ 45.00947813108094, 40.525344657548629 ], [ 45.693326874979597, 40.645256195811925 ] ] ] ] } },
{ "type": "Feature", "properties": { "geogrid_id": "840296732048607395", "seqnum": 21363.0, "lat_c": 40.296731649024828, "lon_c": 48.607395475460805, "res": 8.0, "count_Amphibians": 2, "count_Flowering Plants": 40, "count_Insects": 25, "count_Reptiles": 4, "count_Molluscs": 1, "count_Mosses": 0, "count_Birds": 68, "count_Mammals": 1, "count_Ferns": 0, "count_Arachnids": 1, "count_Basidiomycota": 0, "count_Sac Fungi": 0, "count_Gymnosperms": 0, "unique_species_count": 142.0, "countryCode": "AZ" }, "geometry": { "type": "MultiPolygon", "coordinates": [ [ [ [ 48.911623464362926, 40.723363774889336 ], [ 49.314988564027267, 40.385414436928308 ], [ 49.011455312352638, 39.958605115807117 ], [ 48.318853475725767, 39.862311837651234 ], [ 47.910152956593585, 40.199083710011514 ], [ 48.199452544228699, 40.633285209802146 ], [ 48.911623464362926, 40.723363774889336 ] ] ] ] } },
{ "type": "Feature", "properties": { "geogrid_id": "840523115050773515", "seqnum": 21526.0, "lat_c": 40.523114989365581, "lon_c": 50.773515284833572, "res": 8.0, "count_Amphibians": 1, "count_Flowering Plants": 50, "count_Insects": 26, "count_Reptiles": 6, "count_Molluscs": 6, "count_Mosses": 1, "count_Birds": 57, "count_Mammals": 3, "count_Ferns": 0, "count_Arachnids": 4, "count_Basidiomycota": 0, "count_Sac Fungi": 1, "count_Gymnosperms": 1, "unique_species_count": 156.0, "countryCode": "AZ" }, "geometry": { "type": "MultiPolygon", "coordinates": [ [ [ [ 50.950525118116971, 41.071368418146989 ], [ 51.344461582546103, 40.727575135962987 ], [ 51.164429614675271, 40.180449696342215 ], [ 50.430551835429945, 40.12160049722705 ], [ 50.035677559347839, 40.462390011412282 ], [ 50.378497920040978, 40.864529716721606 ], [ 50.950525118116971, 41.071368418146989 ] ] ] ] } },
{ "type": "Feature", "properties": { "geogrid_id": "840534196047497653", "seqnum": 21282.0, "lat_c": 40.534196365708809, "lon_c": 47.497652712036775, "res": 8.0, "count_Amphibians": 2, "count_Flowering Plants": 92, "count_Insects": 132, "count_Reptiles": 5, "count_Molluscs": 4, "count_Mosses": 0, "count_Birds": 87, "count_Mammals": 1, "count_Ferns": 0, "count_Arachnids": 19, "count_Basidiomycota": 9, "count_Sac Fungi": 1, "count_Gymnosperms": 0, "unique_species_count": 352.0, "countryCode": "AZ" }, "geometry": { "type": "MultiPolygon", "coordinates": [ [ [ [ 47.787507374690577, 40.968263934217433 ], [ 48.199452544228699, 40.633285209802146 ], [ 47.910152956593585, 40.199083710011514 ], [ 47.221348912406967, 40.094199851234151 ], [ 46.80440229799175, 40.427770229205144 ], [ 47.081225374083765, 40.867649421740637 ], [ 47.787507374690577, 40.968263934217433 ] ] ] ] } },
{ "type": "Feature", "properties": { "geogrid_id": "840759614046383591", "seqnum": 21201.0, "lat_c": 40.759613975129838, "lon_c": 46.383590730694856, "res": 8.0, "count_Amphibians": 3, "count_Flowering Plants": 165, "count_Insects": 106, "count_Reptiles": 6, "count_Molluscs": 2, "count_Mosses": 0, "count_Birds": 40, "count_Mammals": 3, "count_Ferns": 4, "count_Arachnids": 7, "count_Basidiomycota": 3, "count_Sac Fungi": 1, "count_Gymnosperms": 1, "unique_species_count": 341.0, "countryCode": "AZ" }, "geometry": { "type": "MultiPolygon", "coordinates": [ [ [ [ 46.660749869958025, 41.19943825566191 ], [ 47.081225374083765, 40.867649421740637 ], [ 46.80440229799175, 40.427770229205144 ], [ 46.118380550742927, 40.315124358115447 ], [ 45.693326874979597, 40.645256195811925 ], [ 45.958788909933446, 41.089725865423205 ], [ 46.660749869958025, 41.19943825566191 ] ] ] ] } },
{ "type": "Feature", "properties": { "geogrid_id": "840801839049636734", "seqnum": 21445.0, "lat_c": 40.801839024232557, "lon_c": 49.636734302228184, "res": 8.0, "count_Amphibians": 3, "count_Flowering Plants": 149, "count_Insects": 105, "count_Reptiles": 13, "count_Molluscs": 13, "count_Mosses": 0, "count_Birds": 125, "count_Mammals": 9, "count_Ferns": 0, "count_Arachnids": 8, "count_Basidiomycota": 0, "count_Sac Fungi": 4, "count_Gymnosperms": 3, "unique_species_count": 432.0, "countryCode": "AZ" }, "geometry": { "type": "MultiPolygon", "coordinates": [ [ [ [ 49.979293964133717, 41.204668290123003 ], [ 50.378497920040978, 40.864529716721606 ], [ 50.035677559347839, 40.462390011412282 ], [ 49.314988564027267, 40.385414436928308 ], [ 48.911623464362926, 40.723363774889336 ], [ 49.233629805734701, 41.139929879533454 ], [ 49.979293964133717, 41.204668290123003 ] ] ] ] } },
{ "type": "Feature", "properties": { "geogrid_id": "840973601045264330", "seqnum": 21120.0, "lat_c": 40.973601370031517, "lon_c": 45.264330134580902, "res": 8.0, "count_Amphibians": 1, "count_Flowering Plants": 34, "count_Insects": 16, "count_Reptiles": 2, "count_Molluscs": 1, "count_Mosses": 0, "count_Birds": 2, "count_Mammals": 1, "count_Ferns": 0, "count_Arachnids": 1, "count_Basidiomycota": 0, "count_Sac Fungi": 0, "count_Gymnosperms": 0, "unique_species_count": 58.0, "countryCode": "AZ" }, "geometry": { "type": "MultiPolygon", "coordinates": [ [ [ [ 45.529876863159409, 41.418097329961562 ], [ 45.958788909933446, 41.089725865423205 ], [ 45.693326874979597, 40.645256195811925 ], [ 45.00947813108094, 40.525344657548629 ], [ 44.57643978512391, 40.851829003374512 ], [ 44.831268583334243, 41.300149856164097 ], [ 45.529876863159409, 41.418097329961562 ] ] ] ] } },
{ "type": "Feature", "properties": { "geogrid_id": "841059842048504173", "seqnum": 21364.0, "lat_c": 41.059841758859086, "lon_c": 48.504172735046467, "res": 8.0, "count_Amphibians": 3, "count_Flowering Plants": 221, "count_Insects": 130, "count_Reptiles": 13, "count_Molluscs": 4, "count_Mosses": 2, "count_Birds": 125, "count_Mammals": 5, "count_Ferns": 5, "count_Arachnids": 9, "count_Basidiomycota": 2, "count_Sac Fungi": 1, "count_Gymnosperms": 1, "unique_species_count": 521.0, "countryCode": "AZ" }, "geometry": { "type": "MultiPolygon", "coordinates": [ [ [ [ 48.826272419796368, 41.476642447364632 ], [ 49.233629805734701, 41.139929879533454 ], [ 48.911623464362926, 40.723363774889336 ], [ 48.199452544228699, 40.633285209802146 ], [ 47.787507374690577, 40.968263934217433 ], [ 48.092532852343091, 41.39483682209034 ], [ 48.826272419796368, 41.476642447364632 ] ] ] ] } },
{ "type": "Feature", "properties": { "geogrid_id": "841301661047371446", "seqnum": 21283.0, "lat_c": 41.301661434858438, "lon_c": 47.37144611049014, "res": 8.0, "count_Amphibians": 3, "count_Flowering Plants": 47, "count_Insects": 25, "count_Reptiles": 5, "count_Molluscs": 2, "count_Mosses": 0, "count_Birds": 14, "count_Mammals": 11, "count_Ferns": 0, "count_Arachnids": 7, "count_Basidiomycota": 0, "count_Sac Fungi": 0, "count_Gymnosperms": 0, "unique_species_count": 114.0, "countryCode": "AZ" }, "geometry": { "type": "MultiPolygon", "coordinates": [ [ [ [ 47.67660264959278, 41.728333957932037 ], [ 48.092532852343091, 41.39483682209034 ], [ 47.787507374690577, 40.968263934217433 ], [ 47.081225374083765, 40.867649421740637 ], [ 46.660749869958025, 41.19943825566191 ], [ 46.95115888451857, 41.633467406249679 ], [ 47.67660264959278, 41.728333957932037 ] ] ] ] } },
{ "type": "Feature", "properties": { "geogrid_id": "841529554046236110", "seqnum": 21202.0, "lat_c": 41.529554460172349, "lon_c": 46.236110052843003, "res": 8.0, "count_Amphibians": 2, "count_Flowering Plants": 50, "count_Insects": 13, "count_Reptiles": 0, "count_Molluscs": 0, "count_Mosses": 1, "count_Birds": 18, "count_Mammals": 0, "count_Ferns": 7, "count_Arachnids": 1, "count_Basidiomycota": 4, "count_Sac Fungi": 3, "count_Gymnosperms": 0, "unique_species_count": 99.0, "countryCode": "AZ" }, "geometry": { "type": "MultiPolygon", "coordinates": [ [ [ [ 46.526538825712606, 41.963668111031261 ], [ 46.95115888451857, 41.633467406249679 ], [ 46.660749869958025, 41.19943825566191 ], [ 45.958788909933446, 41.089725865423205 ], [ 45.529876863159409, 41.418097329961562 ], [ 45.807193631234192, 41.857986228906093 ], [ 46.526538825712606, 41.963668111031261 ] ] ] ] } },
{ "type": "Feature", "properties": { "geogrid_id": "841543504049575818", "seqnum": 21446.0, "lat_c": 41.543504304041001, "lon_c": 49.575818475849886, "res": 8.0, "count_Amphibians": 0, "count_Flowering Plants": 0, "count_Insects": 2, "count_Reptiles": 0, "count_Molluscs": 0, "count_Mosses": 0, "count_Birds": 0, "count_Mammals": 0, "count_Ferns": 0, "count_Arachnids": 0, "count_Basidiomycota": 0, "count_Sac Fungi": 0, "count_Gymnosperms": 0, "unique_species_count": 2.0, "countryCode": "AZ" }, "geometry": { "type": "MultiPolygon", "coordinates": [ [ [ [ 49.743441632076369, 42.094783975082031 ], [ 50.150109189760244, 41.754990579464526 ], [ 49.979293964133717, 41.204668290123003 ], [ 49.233629805734701, 41.139929879533454 ], [ 48.826272419796368, 41.476642447364632 ], [ 49.167985122897512, 41.881010513189857 ], [ 49.743441632076369, 42.094783975082031 ] ] ] ] } },
{ "type": "Feature", "properties": { "geogrid_id": "841744717045096739", "seqnum": 21121.0, "lat_c": 41.744716706361707, "lon_c": 45.096738899859155, "res": 8.0, "count_Amphibians": 0, "count_Flowering Plants": 1, "count_Insects": 0, "count_Reptiles": 0, "count_Molluscs": 0, "count_Mosses": 0, "count_Birds": 32, "count_Mammals": 0, "count_Ferns": 0, "count_Arachnids": 0, "count_Basidiomycota": 0, "count_Sac Fungi": 0, "count_Gymnosperms": 0, "unique_species_count": 33.0, "countryCode": "AZ" }, "geometry": { "type": "MultiPolygon", "coordinates": [ [ [ [ 45.373891325711746, 42.184718681891525 ], [ 45.807193631234192, 41.857986228906093 ], [ 45.529876863159409, 41.418097329961562 ], [ 44.831268583334243, 41.300149856164097 ], [ 44.394024884056073, 41.624888955073189 ], [ 44.65926277357724, 42.069569468144664 ], [ 45.373891325711746, 42.184718681891525 ] ] ] ] } },
{ "type": "Feature", "properties": { "geogrid_id": "841811954048414571", "seqnum": 21365.0, "lat_c": 41.811954481700184, "lon_c": 48.414570638889224, "res": 8.0, "count_Amphibians": 4, "count_Flowering Plants": 215, "count_Insects": 254, "count_Reptiles": 6, "count_Molluscs": 3, "count_Mosses": 0, "count_Birds": 129, "count_Mammals": 10, "count_Ferns": 2, "count_Arachnids": 20, "count_Basidiomycota": 12, "count_Sac Fungi": 4, "count_Gymnosperms": 0, "unique_species_count": 659.0, "countryCode": "AZ" }, "geometry": { "type": "MultiPolygon", "coordinates": [ [ [ [ 48.755706178065239, 42.217158809502756 ], [ 49.167985122897512, 41.881010513189857 ], [ 48.826272419796368, 41.476642447364632 ], [ 48.092532852343091, 41.39483682209034 ], [ 47.67660264959278, 41.728333957932037 ], [ 47.9984327672475, 42.145841877589802 ], [ 48.755706178065239, 42.217158809502756 ] ] ] ] } }
]
}
