{
"type": "FeatureCollection",
"name": "BA",
"crs": { "type": "name", "properties": { "name": "urn:ogc:def:crs:OGC:1.3:CRS84" } },
"features": [
{ "type": "Feature", "properties": { "geogrid_id": "842162169018576402", "seqnum": 14657.0, "lat_c": 42.162168575199729, "lon_c": 18.576402026612861, "res": 8.0, "count_Amphibians": 0, "count_Gymnosperms": 0, "count_Reptiles": 0, "count_Birds": 0, "count_Arachnids": 0, "count_Flowering Plants": 3, "count_Insects": 2, "count_Basidiomycota": 0, "count_Mammals": 0, "count_Mosses": 0, "count_Ferns": 0, "count_Sac Fungi": 0, "count_Molluscs": 0, "unique_species_count": 5.0, "countryCode": "BA" }, "geometry": { "type": "MultiPolygon", "coordinates": [ [ [ [ 19.213330610628557, 42.418573913684426 ], [ 19.159135929749485, 41.95255117624103 ], [ 18.527127319180163, 41.696587542508723 ], [ 17.943589959208104, 41.901427782763534 ], [ 17.989012612723645, 42.366667662154498 ], [ 18.626728977814338, 42.627888693464506 ], [ 19.213330610628557, 42.418573913684426 ] ] ] ] } },
{ "type": "Feature", "properties": { "geogrid_id": "842832073018035417", "seqnum": 14576.0, "lat_c": 42.832072837879281, "lon_c": 18.035416849614524, "res": 8.0, "count_Amphibians": 9, "count_Gymnosperms": 4, "count_Reptiles": 19, "count_Birds": 114, "count_Arachnids": 33, "count_Flowering Plants": 417, "count_Insects": 284, "count_Basidiomycota": 3, "count_Mammals": 8, "count_Mosses": 0, "count_Ferns": 3, "count_Sac Fungi": 13, "count_Molluscs": 28, "unique_species_count": 935.0, "countryCode": "BA" }, "geometry": { "type": "MultiPolygon", "coordinates": [ [ [ [ 18.678144830472313, 43.093762324968218 ], [ 18.626728977814338, 42.627888693464506 ], [ 17.989012612723645, 42.366667662154498 ], [ 17.397014360158895, 42.565768961719805 ], [ 17.439442573250481, 43.030851209032654 ], [ 18.082836555518472, 43.297657394881846 ], [ 18.678144830472313, 43.093762324968218 ] ] ] ] } },
{ "type": "Feature", "properties": { "geogrid_id": "843496139017482810", "seqnum": 14495.0, "lat_c": 43.496138743335983, "lon_c": 17.482809677625518, "res": 8.0, "count_Amphibians": 11, "count_Gymnosperms": 13, "count_Reptiles": 19, "count_Birds": 139, "count_Arachnids": 29, "count_Flowering Plants": 919, "count_Insects": 617, "count_Basidiomycota": 22, "count_Mammals": 19, "count_Mosses": 5, "count_Ferns": 15, "count_Sac Fungi": 21, "count_Molluscs": 22, "unique_species_count": 1851.0, "countryCode": "BA" }, "geometry": { "type": "MultiPolygon", "coordinates": [ [ [ [ 18.131306762463542, 43.763435045984629 ], [ 18.082836555518472, 43.297657394881846 ], [ 17.439442573250481, 43.030851209032654 ], [ 16.838872642990115, 43.22393135664273 ], [ 16.878132291701942, 43.688918784561231 ], [ 17.527147802020465, 43.96164489059931 ], [ 18.131306762463542, 43.763435045984629 ] ] ] ] } },
{ "type": "Feature", "properties": { "geogrid_id": "843559803018730687", "seqnum": 14577.0, "lat_c": 43.559803498779885, "lon_c": 18.730687442951844, "res": 8.0, "count_Amphibians": 10, "count_Gymnosperms": 8, "count_Reptiles": 12, "count_Birds": 117, "count_Arachnids": 30, "count_Flowering Plants": 696, "count_Insects": 725, "count_Basidiomycota": 45, "count_Mammals": 35, "count_Mosses": 6, "count_Ferns": 15, "count_Sac Fungi": 53, "count_Molluscs": 26, "unique_species_count": 1778.0, "countryCode": "BA" }, "geometry": { "type": "MultiPolygon", "coordinates": [ [ [ [ 19.383033946420106, 43.817465908151398 ], [ 19.325238340018, 43.351017205796431 ], [ 18.678144830472313, 43.093762324968218 ], [ 18.082836555518472, 43.297657394881846 ], [ 18.131306762463542, 43.763435045984629 ], [ 18.784395972114055, 44.026025869411548 ], [ 19.383033946420106, 43.817465908151398 ] ] ] ] } },
{ "type": "Feature", "properties": { "geogrid_id": "843603988019976741", "seqnum": 14659.0, "lat_c": 43.603987930417205, "lon_c": 19.976741004493533, "res": 8.0, "count_Amphibians": 0, "count_Gymnosperms": 0, "count_Reptiles": 1, "count_Birds": 1, "count_Arachnids": 0, "count_Flowering Plants": 8, "count_Insects": 0, "count_Basidiomycota": 0, "count_Mammals": 1, "count_Mosses": 0, "count_Ferns": 0, "count_Sac Fungi": 0, "count_Molluscs": 0, "unique_species_count": 11.0, "countryCode": "BA" }, "geometry": { "type": "MultiPolygon", "coordinates": [ [ [ [ 20.63269875418051, 43.852799886299749 ], [ 20.565495157338173, 43.38582698264679 ], [ 19.914924238522701, 43.137328114687293 ], [ 19.325238340018, 43.351017205796431 ], [ 19.383033946420106, 43.817465908151398 ], [ 20.03991847173798, 44.070792367874482 ], [ 20.63269875418051, 43.852799886299749 ] ] ] ] } },
{ "type": "Feature", "properties": { "geogrid_id": "844056135015655202", "seqnum": 14332.0, "lat_c": 44.056134902231456, "lon_c": 15.655201691144407, "res": 8.0, "count_Amphibians": 0, "count_Gymnosperms": 0, "count_Reptiles": 0, "count_Birds": 0, "count_Arachnids": 0, "count_Flowering Plants": 6, "count_Insects": 0, "count_Basidiomycota": 0, "count_Mammals": 0, "count_Mosses": 0, "count_Ferns": 0, "count_Sac Fungi": 0, "count_Molluscs": 0, "unique_species_count": 6.0, "countryCode": "BA" }, "geometry": { "type": "MultiPolygon", "coordinates": [ [ [ [ 16.304793794600311, 44.340650819809618 ], [ 16.268892702740803, 43.875692224273102 ], [ 15.624315454948244, 43.59173351554 ], [ 15.01057203786474, 43.765773136458925 ], [ 15.037194986231615, 44.229902562851592 ], [ 15.686800756571042, 44.52082906854401 ], [ 16.304793794600311, 44.340650819809618 ] ] ] ] } },
{ "type": "Feature", "properties": { "geogrid_id": "844154150016918280", "seqnum": 14414.0, "lat_c": 44.154150113213156, "lon_c": 16.918280207749277, "res": 8.0, "count_Amphibians": 8, "count_Gymnosperms": 7, "count_Reptiles": 11, "count_Birds": 116, "count_Arachnids": 11, "count_Flowering Plants": 908, "count_Insects": 239, "count_Basidiomycota": 63, "count_Mammals": 19, "count_Mosses": 6, "count_Ferns": 15, "count_Sac Fungi": 10, "count_Molluscs": 10, "unique_species_count": 1423.0, "countryCode": "BA" }, "geometry": { "type": "MultiPolygon", "coordinates": [ [ [ [ 17.572490243422411, 44.42738266028698 ], [ 17.527147802020465, 43.96164489059931 ], [ 16.878132291701942, 43.688918784561231 ], [ 16.268892702740803, 43.875692224273102 ], [ 16.304793794600311, 44.340650819809618 ], [ 16.959346637411024, 44.619637935259405 ], [ 17.572490243422411, 44.42738266028698 ] ] ] ] } },
{ "type": "Feature", "properties": { "geogrid_id": "844229419018180864", "seqnum": 14496.0, "lat_c": 44.229419156155807, "lon_c": 18.180863739433558, "res": 8.0, "count_Amphibians": 9, "count_Gymnosperms": 6, "count_Reptiles": 10, "count_Birds": 68, "count_Arachnids": 36, "count_Flowering Plants": 476, "count_Insects": 446, "count_Basidiomycota": 37, "count_Mammals": 10, "count_Mosses": 3, "count_Ferns": 7, "count_Sac Fungi": 6, "count_Molluscs": 20, "unique_species_count": 1134.0, "countryCode": "BA" }, "geometry": { "type": "MultiPolygon", "coordinates": [ [ [ [ 18.83931097397841, 44.492442738808393 ], [ 18.784395972114055, 44.026025869411548 ], [ 18.131306762463542, 43.763435045984629 ], [ 17.527147802020465, 43.96164489059931 ], [ 17.572490243422411, 44.42738266028698 ], [ 18.231545085786795, 44.695622764678859 ], [ 18.83931097397841, 44.492442738808393 ] ] ] ] } },
{ "type": "Feature", "properties": { "geogrid_id": "844284084019442115", "seqnum": 14578.0, "lat_c": 44.284084106800414, "lon_c": 19.442114782380855, "res": 8.0, "count_Amphibians": 5, "count_Gymnosperms": 1, "count_Reptiles": 7, "count_Birds": 38, "count_Arachnids": 2, "count_Flowering Plants": 78, "count_Insects": 54, "count_Basidiomycota": 2, "count_Mammals": 2, "count_Mosses": 2, "count_Ferns": 3, "count_Sac Fungi": 0, "count_Molluscs": 3, "unique_species_count": 197.0, "countryCode": "BA" }, "geometry": { "type": "MultiPolygon", "coordinates": [ [ [ [ 20.104504450650108, 44.537754684998546 ], [ 20.03991847173798, 44.070792367874482 ], [ 19.383033946420106, 43.817465908151398 ], [ 18.784395972114055, 44.026025869411548 ], [ 18.83931097397841, 44.492442738808393 ], [ 19.502525836316899, 44.750884946252349 ], [ 20.104504450650108, 44.537754684998546 ] ] ] ] } },
{ "type": "Feature", "properties": { "geogrid_id": "844805890016341524", "seqnum": 14333.0, "lat_c": 44.805890255527089, "lon_c": 16.341524217691639, "res": 8.0, "count_Amphibians": 5, "count_Gymnosperms": 4, "count_Reptiles": 10, "count_Birds": 71, "count_Arachnids": 11, "count_Flowering Plants": 358, "count_Insects": 274, "count_Basidiomycota": 10, "count_Mammals": 7, "count_Mosses": 2, "count_Ferns": 8, "count_Sac Fungi": 0, "count_Molluscs": 6, "unique_species_count": 766.0, "countryCode": "BA" }, "geometry": { "type": "MultiPolygon", "coordinates": [ [ [ [ 17.001362996678722, 45.085394583801559 ], [ 16.959346637411024, 44.619637935259405 ], [ 16.304793794600311, 44.340650819809618 ], [ 15.686800756571042, 44.52082906854401 ], [ 15.719136582720509, 44.98582762167598 ], [ 16.379112171413691, 45.271422432407135 ], [ 17.001362996678722, 45.085394583801559 ] ] ] ] } },
{ "type": "Feature", "properties": { "geogrid_id": "844893365017618872", "seqnum": 14415.0, "lat_c": 44.893364767231482, "lon_c": 17.61887155287517, "res": 8.0, "count_Amphibians": 7, "count_Gymnosperms": 5, "count_Reptiles": 6, "count_Birds": 72, "count_Arachnids": 13, "count_Flowering Plants": 524, "count_Insects": 241, "count_Basidiomycota": 17, "count_Mammals": 11, "count_Mosses": 6, "count_Ferns": 10, "count_Sac Fungi": 1, "count_Molluscs": 6, "unique_species_count": 919.0, "countryCode": "BA" }, "geometry": { "type": "MultiPolygon", "coordinates": [ [ [ [ 18.283389828108959, 45.162058605377474 ], [ 18.231545085786795, 44.695622764678859 ], [ 17.572490243422411, 44.42738266028698 ], [ 16.959346637411024, 44.619637935259405 ], [ 17.001362996678722, 45.085394583801559 ], [ 17.666327624658745, 45.359603651573941 ], [ 18.283389828108959, 45.162058605377474 ] ] ] ] } },
{ "type": "Feature", "properties": { "geogrid_id": "844959067018895475", "seqnum": 14497.0, "lat_c": 44.959067076424439, "lon_c": 18.895474507853436, "res": 8.0, "count_Amphibians": 4, "count_Gymnosperms": 3, "count_Reptiles": 4, "count_Birds": 73, "count_Arachnids": 15, "count_Flowering Plants": 211, "count_Insects": 136, "count_Basidiomycota": 11, "count_Mammals": 1, "count_Mosses": 0, "count_Ferns": 3, "count_Sac Fungi": 2, "count_Molluscs": 2, "unique_species_count": 465.0, "countryCode": "BA" }, "geometry": { "type": "MultiPolygon", "coordinates": [ [ [ [ 19.564313783649101, 45.217881233049084 ], [ 19.502525836316899, 44.750884946252349 ], [ 18.83931097397841, 44.492442738808393 ], [ 18.231545085786795, 44.695622764678859 ], [ 18.283389828108959, 45.162058605377474 ], [ 18.952930244563021, 45.42591153750471 ], [ 19.564313783649101, 45.217881233049084 ] ] ] ] } },
{ "type": "Feature", "properties": { "geogrid_id": "845451142015752234", "seqnum": 14252.0, "lat_c": 45.451141989882579, "lon_c": 15.752234076131987, "res": 8.0, "count_Amphibians": 0, "count_Gymnosperms": 0, "count_Reptiles": 1, "count_Birds": 16, "count_Arachnids": 0, "count_Flowering Plants": 33, "count_Insects": 11, "count_Basidiomycota": 4, "count_Mammals": 2, "count_Mosses": 0, "count_Ferns": 1, "count_Sac Fungi": 0, "count_Molluscs": 2, "unique_species_count": 70.0, "countryCode": "BA" }, "geometry": { "type": "MultiPolygon", "coordinates": [ [ [ [ 16.417587004828999, 45.737259048624701 ], [ 16.379112171413691, 45.271422432407135 ], [ 15.719136582720509, 44.98582762167598 ], [ 15.092321977801621, 45.159119709182555 ], [ 15.120868242079611, 45.6242294203592 ], [ 15.786119182587573, 45.916783438819969 ], [ 16.417587004828999, 45.737259048624701 ] ] ] ] } },
{ "type": "Feature", "properties": { "geogrid_id": "845551432017044362", "seqnum": 14334.0, "lat_c": 45.55143215158234, "lon_c": 17.044361952404834, "res": 8.0, "count_Amphibians": 0, "count_Gymnosperms": 0, "count_Reptiles": 0, "count_Birds": 5, "count_Arachnids": 0, "count_Flowering Plants": 10, "count_Insects": 2, "count_Basidiomycota": 0, "count_Mammals": 0, "count_Mosses": 0, "count_Ferns": 1, "count_Sac Fungi": 0, "count_Molluscs": 1, "unique_species_count": 19.0, "countryCode": "BA" }, "geometry": { "type": "MultiPolygon", "coordinates": [ [ [ [ 17.714895789381035, 45.826111496920028 ], [ 17.666327624658745, 45.359603651573941 ], [ 17.001362996678722, 45.085394583801559 ], [ 16.379112171413691, 45.271422432407135 ], [ 16.417587004828999, 45.737259048624701 ], [ 17.088377507219928, 46.017762508466326 ], [ 17.714895789381035, 45.826111496920028 ] ] ] ] } }
]
}
