{
"type": "FeatureCollection",
"name": "BD",
"crs": { "type": "name", "properties": { "name": "urn:ogc:def:crs:OGC:1.3:CRS84" } },
"features": [
{ "type": "Feature", "properties": { "geogrid_id": "819493951091005060", "seqnum": 25333.0, "lat_c": 19.493950597998452, "lon_c": 91.005060212237439, "res": 8.0, "count_Reptiles": 1, "count_Amphibians": 0, "count_Birds": 0, "count_Insects": 0, "count_Flowering Plants": 0, "count_Mammals": 0, "count_Sac Fungi": 0, "count_Arachnids": 0, "count_Basidiomycota": 0, "count_Ferns": 0, "count_Molluscs": 0, "count_Gymnosperms": 0, "unique_species_count": 1.0, "countryCode": "BD" }, "geometry": { "type": "MultiPolygon", "coordinates": [ [ [ [ 91.26372713903217, 19.886934372313796 ], [ 91.486520871746805, 19.365502478881986 ], [ 91.228695679895324, 18.973052777367332 ], [ 90.747803372097863, 19.100924377385667 ], [ 90.519692126173098, 19.616205138554708 ], [ 90.77779864837342, 20.009868951404471 ], [ 91.26372713903217, 19.886934372313796 ] ] ] ] } },
{ "type": "Feature", "properties": { "geogrid_id": "820934817092532506", "seqnum": 25498.0, "lat_c": 20.934816659849442, "lon_c": 92.532506018992891, "res": 8.0, "count_Reptiles": 0, "count_Amphibians": 0, "count_Birds": 23, "count_Insects": 19, "count_Flowering Plants": 1, "count_Mammals": 0, "count_Sac Fungi": 0, "count_Arachnids": 0, "count_Basidiomycota": 0, "count_Ferns": 0, "count_Molluscs": 0, "count_Gymnosperms": 0, "unique_species_count": 43.0, "countryCode": "BD" }, "geometry": { "type": "MultiPolygon", "coordinates": [ [ [ [ 92.797879119867616, 21.327005933148662 ], [ 93.012222543711445, 20.797916603624024 ], [ 92.747770509628452, 20.406154482387663 ], [ 92.268725538299563, 20.542567854755724 ], [ 92.048594083964417, 21.065601918719899 ], [ 92.313310650192349, 21.458385700366492 ], [ 92.797879119867616, 21.327005933148662 ] ] ] ] } },
{ "type": "Feature", "properties": { "geogrid_id": "821584043091824948", "seqnum": 25417.0, "lat_c": 21.584042658202318, "lon_c": 91.824947526119857, "res": 8.0, "count_Reptiles": 9, "count_Amphibians": 3, "count_Birds": 87, "count_Insects": 30, "count_Flowering Plants": 11, "count_Mammals": 3, "count_Sac Fungi": 0, "count_Arachnids": 0, "count_Basidiomycota": 0, "count_Ferns": 0, "count_Molluscs": 1, "count_Gymnosperms": 1, "unique_species_count": 145.0, "countryCode": "BD" }, "geometry": { "type": "MultiPolygon", "coordinates": [ [ [ [ 92.090626577516147, 21.977452082141493 ], [ 92.313310650192349, 21.458385700366492 ], [ 92.048594083964417, 21.065601918719899 ], [ 91.560868189230192, 21.19057665122979 ], [ 91.33312969588259, 21.704252004785179 ], [ 91.598161634830504, 22.098420276101272 ], [ 92.090626577516147, 21.977452082141493 ] ] ] ] } },
{ "type": "Feature", "properties": { "geogrid_id": "821637839089578382", "seqnum": 25172.0, "lat_c": 21.637839369120996, "lon_c": 89.578382333998476, "res": 8.0, "count_Reptiles": 4, "count_Amphibians": 0, "count_Birds": 40, "count_Insects": 4, "count_Flowering Plants": 4, "count_Mammals": 3, "count_Sac Fungi": 0, "count_Arachnids": 0, "count_Basidiomycota": 0, "count_Ferns": 0, "count_Molluscs": 0, "count_Gymnosperms": 0, "unique_species_count": 55.0, "countryCode": "BD" }, "geometry": { "type": "MultiPolygon", "coordinates": [ [ [ [ 89.839938445819826, 22.034709474716298 ], [ 90.078154459657554, 21.533412995406017 ], [ 89.817452243431276, 21.137415227313447 ], [ 89.318299452390079, 21.240901442288369 ], [ 89.076270791818061, 21.737724049311748 ], [ 89.337171014289567, 22.135571153755244 ], [ 89.839938445819826, 22.034709474716298 ] ] ] ] } },
{ "type": "Feature", "properties": { "geogrid_id": "821851111092579646", "seqnum": 25499.0, "lat_c": 21.85111080955593, "lon_c": 92.579645690741529, "res": 8.0, "count_Reptiles": 1, "count_Amphibians": 3, "count_Birds": 53, "count_Insects": 32, "count_Flowering Plants": 10, "count_Mammals": 2, "count_Sac Fungi": 0, "count_Arachnids": 3, "count_Basidiomycota": 0, "count_Ferns": 0, "count_Molluscs": 0, "count_Gymnosperms": 1, "unique_species_count": 105.0, "countryCode": "BD" }, "geometry": { "type": "MultiPolygon", "coordinates": [ [ [ [ 92.8476432224967, 22.243773312173609 ], [ 93.06488791508643, 21.719131538121204 ], [ 92.797879119867616, 21.327005933148662 ], [ 92.313310650192349, 21.458385700366492 ], [ 92.090626577516147, 21.977452082141493 ], [ 92.357949517433511, 22.370801549484966 ], [ 92.8476432224967, 22.243773312173609 ] ] ] ] } },
{ "type": "Feature", "properties": { "geogrid_id": "821929349090340351", "seqnum": 25254.0, "lat_c": 21.929348729246779, "lon_c": 90.340351163709386, "res": 8.0, "count_Reptiles": 4, "count_Amphibians": 5, "count_Birds": 26, "count_Insects": 66, "count_Flowering Plants": 17, "count_Mammals": 1, "count_Sac Fungi": 0, "count_Arachnids": 14, "count_Basidiomycota": 0, "count_Ferns": 0, "count_Molluscs": 1, "count_Gymnosperms": 0, "unique_species_count": 134.0, "countryCode": "BD" }, "geometry": { "type": "MultiPolygon", "coordinates": [ [ [ [ 90.604086191711602, 22.325221622102998 ], [ 90.838168944541209, 21.819272755958565 ], [ 90.57534216023187, 21.424221384314158 ], [ 90.078154459657554, 21.533412995406017 ], [ 89.839938445819826, 22.034709474716298 ], [ 90.103011710530723, 22.431511814171934 ], [ 90.604086191711602, 22.325221622102998 ] ] ] ] } },
{ "type": "Feature", "properties": { "geogrid_id": "822214265091102555", "seqnum": 25336.0, "lat_c": 22.214265031952202, "lon_c": 91.102555036170429, "res": 8.0, "count_Reptiles": 2, "count_Amphibians": 1, "count_Birds": 14, "count_Insects": 0, "count_Flowering Plants": 2, "count_Mammals": 2, "count_Sac Fungi": 0, "count_Arachnids": 0, "count_Basidiomycota": 0, "count_Ferns": 0, "count_Molluscs": 0, "count_Gymnosperms": 0, "unique_species_count": 21.0, "countryCode": "BD" }, "geometry": { "type": "MultiPolygon", "coordinates": [ [ [ [ 91.368544928751447, 22.609196245457497 ], [ 91.598161634830504, 22.098420276101272 ], [ 91.33312969588259, 21.704252004785179 ], [ 90.838168944541209, 21.819272755958565 ], [ 90.604086191711602, 22.325221622102998 ], [ 90.869404161763626, 22.721030500031219 ], [ 91.368544928751447, 22.609196245457497 ] ] ] ] } },
{ "type": "Feature", "properties": { "geogrid_id": "822232137088832269", "seqnum": 25091.0, "lat_c": 22.232137367207649, "lon_c": 88.832269000714192, "res": 8.0, "count_Reptiles": 1, "count_Amphibians": 0, "count_Birds": 16, "count_Insects": 6, "count_Flowering Plants": 3, "count_Mammals": 2, "count_Sac Fungi": 0, "count_Arachnids": 0, "count_Basidiomycota": 0, "count_Ferns": 0, "count_Molluscs": 0, "count_Gymnosperms": 0, "unique_species_count": 28.0, "countryCode": "BD" }, "geometry": { "type": "MultiPolygon", "coordinates": [ [ [ [ 89.093968999587062, 22.63091740015485 ], [ 89.337171014289567, 22.135571153755244 ], [ 89.076270791818061, 21.737724049311748 ], [ 88.57204393216567, 21.833277336276844 ], [ 88.325434079868145, 22.324599934599689 ], [ 88.586415596711319, 22.724415919894714 ], [ 89.093968999587062, 22.63091740015485 ] ] ] ] } },
{ "type": "Feature", "properties": { "geogrid_id": "822492529091864818", "seqnum": 25418.0, "lat_c": 22.492528962607249, "lon_c": 91.864817783310954, "res": 8.0, "count_Reptiles": 22, "count_Amphibians": 5, "count_Birds": 156, "count_Insects": 345, "count_Flowering Plants": 67, "count_Mammals": 7, "count_Sac Fungi": 0, "count_Arachnids": 12, "count_Basidiomycota": 1, "count_Ferns": 5, "count_Molluscs": 2, "count_Gymnosperms": 1, "unique_species_count": 623.0, "countryCode": "BD" }, "geometry": { "type": "MultiPolygon", "coordinates": [ [ [ [ 92.133143308552491, 22.886575061758457 ], [ 92.357949517433511, 22.370801549484966 ], [ 92.090626577516147, 21.977452082141493 ], [ 91.598161634830504, 22.098420276101272 ], [ 91.368544928751447, 22.609196245457497 ], [ 91.636183935253513, 23.004064102591215 ], [ 92.133143308552491, 22.886575061758457 ] ] ] ] } },
{ "type": "Feature", "properties": { "geogrid_id": "822533345089599567", "seqnum": 25173.0, "lat_c": 22.533344686931887, "lon_c": 89.599567212474568, "res": 8.0, "count_Reptiles": 10, "count_Amphibians": 3, "count_Birds": 121, "count_Insects": 41, "count_Flowering Plants": 58, "count_Mammals": 6, "count_Sac Fungi": 0, "count_Arachnids": 2, "count_Basidiomycota": 0, "count_Ferns": 4, "count_Molluscs": 3, "count_Gymnosperms": 0, "unique_species_count": 248.0, "countryCode": "BD" }, "geometry": { "type": "MultiPolygon", "coordinates": [ [ [ [ 89.863504123537382, 22.931045138353294 ], [ 90.103011710530723, 22.431511814171934 ], [ 89.839938445819826, 22.034709474716298 ], [ 89.337171014289567, 22.135571153755244 ], [ 89.093968999587062, 22.63091740015485 ], [ 89.357188647503563, 23.029618765010277 ], [ 89.863504123537382, 22.931045138353294 ] ] ] ] } },
{ "type": "Feature", "properties": { "geogrid_id": "822764087092626961", "seqnum": 25500.0, "lat_c": 22.764087421488966, "lon_c": 92.626961355807694, "res": 8.0, "count_Reptiles": 0, "count_Amphibians": 0, "count_Birds": 17, "count_Insects": 0, "count_Flowering Plants": 0, "count_Mammals": 0, "count_Sac Fungi": 0, "count_Arachnids": 0, "count_Basidiomycota": 0, "count_Ferns": 0, "count_Molluscs": 0, "count_Gymnosperms": 0, "unique_species_count": 17.0, "countryCode": "BD" }, "geometry": { "type": "MultiPolygon", "coordinates": [ [ [ [ 92.897707968608401, 23.157305790244909 ], [ 93.117348106822448, 22.636369032525764 ], [ 92.8476432224967, 22.243773312173609 ], [ 92.357949517433511, 22.370801549484966 ], [ 92.133143308552491, 22.886575061758457 ], [ 92.403184235957696, 23.280555275263296 ], [ 92.897707968608401, 23.157305790244909 ] ] ] ] } },
{ "type": "Feature", "properties": { "geogrid_id": "822828246090367647", "seqnum": 25255.0, "lat_c": 22.828246037866926, "lon_c": 90.367646830071124, "res": 8.0, "count_Reptiles": 2, "count_Amphibians": 0, "count_Birds": 47, "count_Insects": 36, "count_Flowering Plants": 87, "count_Mammals": 0, "count_Sac Fungi": 0, "count_Arachnids": 1, "count_Basidiomycota": 0, "count_Ferns": 4, "count_Molluscs": 1, "count_Gymnosperms": 0, "unique_species_count": 178.0, "countryCode": "BD" }, "geometry": { "type": "MultiPolygon", "coordinates": [ [ [ [ 90.633889317665961, 23.224911400339067 ], [ 90.869404161763626, 22.721030500031219 ], [ 90.604086191711602, 22.325221622102998 ], [ 90.103011710530723, 22.431511814171934 ], [ 89.863504123537382, 22.931045138353294 ], [ 90.129027296544905, 23.328672567999767 ], [ 90.633889317665961, 23.224911400339067 ] ] ] ] } },
{ "type": "Feature", "properties": { "geogrid_id": "823116774091136351", "seqnum": 25337.0, "lat_c": 23.116773827767492, "lon_c": 91.136350505841051, "res": 8.0, "count_Reptiles": 6, "count_Amphibians": 3, "count_Birds": 181, "count_Insects": 122, "count_Flowering Plants": 59, "count_Mammals": 5, "count_Sac Fungi": 0, "count_Arachnids": 4, "count_Basidiomycota": 0, "count_Ferns": 0, "count_Molluscs": 2, "count_Gymnosperms": 0, "unique_species_count": 382.0, "countryCode": "BD" }, "geometry": { "type": "MultiPolygon", "coordinates": [ [ [ [ 91.404971502273767, 23.512449713053059 ], [ 91.636183935253513, 23.004064102591215 ], [ 91.368544928751447, 22.609196245457497 ], [ 90.869404161763626, 22.721030500031219 ], [ 90.633889317665961, 23.224911400339067 ], [ 90.901785530490855, 23.621506767364053 ], [ 91.404971502273767, 23.512449713053059 ] ] ] ] } },
{ "type": "Feature", "properties": { "geogrid_id": "823124147088848896", "seqnum": 25092.0, "lat_c": 23.124147241111881, "lon_c": 88.848895875630902, "res": 8.0, "count_Reptiles": 3, "count_Amphibians": 2, "count_Birds": 88, "count_Insects": 75, "count_Flowering Plants": 108, "count_Mammals": 5, "count_Sac Fungi": 0, "count_Arachnids": 8, "count_Basidiomycota": 0, "count_Ferns": 0, "count_Molluscs": 3, "count_Gymnosperms": 0, "unique_species_count": 292.0, "countryCode": "BD" }, "geometry": { "type": "MultiPolygon", "coordinates": [ [ [ [ 89.112920383547916, 23.523795567445209 ], [ 89.357188647503563, 23.029618765010277 ], [ 89.093968999587062, 22.63091740015485 ], [ 88.586415596711319, 22.724415919894714 ], [ 88.338805490538633, 23.214800886185806 ], [ 88.602045277960684, 23.615497636487653 ], [ 89.112920383547916, 23.523795567445209 ] ] ] ] } },
{ "type": "Feature", "properties": { "geogrid_id": "823398866091905518", "seqnum": 25419.0, "lat_c": 23.398865983907154, "lon_c": 91.905518219941868, "res": 8.0, "count_Reptiles": 10, "count_Amphibians": 0, "count_Birds": 39, "count_Insects": 33, "count_Flowering Plants": 2, "count_Mammals": 2, "count_Sac Fungi": 0, "count_Arachnids": 0, "count_Basidiomycota": 0, "count_Ferns": 0, "count_Molluscs": 0, "count_Gymnosperms": 0, "unique_species_count": 86.0, "countryCode": "BD" }, "geometry": { "type": "MultiPolygon", "coordinates": [ [ [ [ 92.176594830938797, 23.793598944664858 ], [ 92.403184235957696, 23.280555275263296 ], [ 92.133143308552491, 22.886575061758457 ], [ 91.636183935253513, 23.004064102591215 ], [ 91.404971502273767, 23.512449713053059 ], [ 91.675314308850687, 23.908055909515213 ], [ 92.176594830938797, 23.793598944664858 ] ] ] ] } },
{ "type": "Feature", "properties": { "geogrid_id": "823428242089621973", "seqnum": 25174.0, "lat_c": 23.428242330088569, "lon_c": 89.62197347902449, "res": 8.0, "count_Reptiles": 12, "count_Amphibians": 3, "count_Birds": 25, "count_Insects": 45, "count_Flowering Plants": 56, "count_Mammals": 4, "count_Sac Fungi": 0, "count_Arachnids": 3, "count_Basidiomycota": 2, "count_Ferns": 1, "count_Molluscs": 1, "count_Gymnosperms": 0, "unique_species_count": 152.0, "countryCode": "BD" }, "geometry": { "type": "MultiPolygon", "coordinates": [ [ [ [ 89.888369876578849, 23.826788514149282 ], [ 90.129027296544905, 23.328672567999767 ], [ 89.863504123537382, 22.931045138353294 ], [ 89.357188647503563, 23.029618765010277 ], [ 89.112920383547916, 23.523795567445209 ], [ 89.378535441664013, 23.92336209082907 ], [ 89.888369876578849, 23.826788514149282 ] ] ] ] } },
{ "type": "Feature", "properties": { "geogrid_id": "823726227090396183", "seqnum": 25256.0, "lat_c": 23.72622661598308, "lon_c": 90.396183124978492, "res": 8.0, "count_Reptiles": 16, "count_Amphibians": 9, "count_Birds": 240, "count_Insects": 258, "count_Flowering Plants": 321, "count_Mammals": 16, "count_Sac Fungi": 2, "count_Arachnids": 15, "count_Basidiomycota": 4, "count_Ferns": 7, "count_Molluscs": 2, "count_Gymnosperms": 1, "unique_species_count": 891.0, "countryCode": "BD" }, "geometry": { "type": "MultiPolygon", "coordinates": [ [ [ [ 90.665018880024846, 24.123706510365182 ], [ 90.901785530490855, 23.621506767364053 ], [ 90.633889317665961, 23.224911400339067 ], [ 90.129027296544905, 23.328672567999767 ], [ 89.888369876578849, 23.826788514149282 ], [ 90.156425103392948, 24.225257296416686 ], [ 90.665018880024846, 24.123706510365182 ] ] ] ] } },
{ "type": "Feature", "properties": { "geogrid_id": "824016108088866855", "seqnum": 25093.0, "lat_c": 24.016107903587084, "lon_c": 88.866854741350465, "res": 8.0, "count_Reptiles": 6, "count_Amphibians": 3, "count_Birds": 177, "count_Insects": 75, "count_Flowering Plants": 81, "count_Mammals": 12, "count_Sac Fungi": 0, "count_Arachnids": 0, "count_Basidiomycota": 1, "count_Ferns": 0, "count_Molluscs": 1, "count_Gymnosperms": 0, "unique_species_count": 356.0, "countryCode": "BD" }, "geometry": { "type": "MultiPolygon", "coordinates": [ [ [ [ 89.133280984169076, 24.416633150368099 ], [ 89.378535441664013, 23.92336209082907 ], [ 89.112920383547916, 23.523795567445209 ], [ 88.602045277960684, 23.615497636487653 ], [ 88.353489071284088, 24.105177962012817 ], [ 88.619062732655095, 24.506761895998036 ], [ 89.133280984169076, 24.416633150368099 ] ] ] ] } },
{ "type": "Feature", "properties": { "geogrid_id": "824018031091171383", "seqnum": 25338.0, "lat_c": 24.01803062137758, "lon_c": 91.171382703023767, "res": 8.0, "count_Reptiles": 21, "count_Amphibians": 7, "count_Birds": 128, "count_Insects": 144, "count_Flowering Plants": 49, "count_Mammals": 13, "count_Sac Fungi": 0, "count_Arachnids": 6, "count_Basidiomycota": 1, "count_Ferns": 0, "count_Molluscs": 1, "count_Gymnosperms": 0, "unique_species_count": 370.0, "countryCode": "BD" }, "geometry": { "type": "MultiPolygon", "coordinates": [ [ [ [ 91.442728981125029, 24.41448106536286 ], [ 91.675314308850687, 23.908055909515213 ], [ 91.404971502273767, 23.512449713053059 ], [ 90.901785530490855, 23.621506767364053 ], [ 90.665018880024846, 24.123706510365182 ], [ 90.935582744677646, 24.521111073271165 ], [ 91.442728981125029, 24.41448106536286 ] ] ] ] } },
{ "type": "Feature", "properties": { "geogrid_id": "824303590091947427", "seqnum": 25420.0, "lat_c": 24.303589818206436, "lon_c": 91.947426996600441, "res": 8.0, "count_Reptiles": 45, "count_Amphibians": 19, "count_Birds": 151, "count_Insects": 219, "count_Flowering Plants": 27, "count_Mammals": 17, "count_Sac Fungi": 0, "count_Arachnids": 15, "count_Basidiomycota": 3, "count_Ferns": 0, "count_Molluscs": 1, "count_Gymnosperms": 0, "unique_species_count": 497.0, "countryCode": "BD" }, "geometry": { "type": "MultiPolygon", "coordinates": [ [ [ [ 92.221358584296794, 24.699048487890675 ], [ 92.449461733438781, 24.188259713965241 ], [ 92.176594830938797, 23.793598944664858 ], [ 91.675314308850687, 23.908055909515213 ], [ 91.442728981125029, 24.41448106536286 ], [ 91.715873456889554, 24.810855825309858 ], [ 92.221358584296794, 24.699048487890675 ] ] ] ] } },
{ "type": "Feature", "properties": { "geogrid_id": "824322848089645788", "seqnum": 25175.0, "lat_c": 24.322847537930933, "lon_c": 89.6457882577471, "res": 8.0, "count_Reptiles": 1, "count_Amphibians": 5, "count_Birds": 43, "count_Insects": 31, "count_Flowering Plants": 27, "count_Mammals": 6, "count_Sac Fungi": 0, "count_Arachnids": 0, "count_Basidiomycota": 1, "count_Ferns": 0, "count_Molluscs": 0, "count_Gymnosperms": 0, "unique_species_count": 114.0, "countryCode": "BD" }, "geometry": { "type": "MultiPolygon", "coordinates": [ [ [ [ 89.914726959471707, 24.72225218017336 ], [ 90.156425103392948, 24.225257296416686 ], [ 89.888369876578849, 23.826788514149282 ], [ 89.378535441664013, 23.92336209082907 ], [ 89.133280984169076, 24.416633150368099 ], [ 89.401372037369555, 24.817074362508087 ], [ 89.914726959471707, 24.72225218017336 ] ] ] ] } },
{ "type": "Feature", "properties": { "geogrid_id": "824582845092724168", "seqnum": 25502.0, "lat_c": 24.582844692822018, "lon_c": 92.724167843628905, "res": 8.0, "count_Reptiles": 0, "count_Amphibians": 0, "count_Birds": 2, "count_Insects": 0, "count_Flowering Plants": 1, "count_Mammals": 1, "count_Sac Fungi": 0, "count_Arachnids": 0, "count_Basidiomycota": 0, "count_Ferns": 0, "count_Molluscs": 0, "count_Gymnosperms": 0, "unique_species_count": 4.0, "countryCode": "BD" }, "geometry": { "type": "MultiPolygon", "coordinates": [ [ [ [ 93.000763063363365, 24.977349951227254 ], [ 93.224073229359121, 24.462063127846086 ], [ 92.948600880940262, 24.068303358641838 ], [ 92.449461733438781, 24.188259713965241 ], [ 92.221358584296794, 24.699048487890675 ], [ 92.497159073737564, 25.094428614152761 ], [ 93.000763063363365, 24.977349951227254 ] ] ] ] } },
{ "type": "Feature", "properties": { "geogrid_id": "824593374088103281", "seqnum": 25012.0, "lat_c": 24.593373846027646, "lon_c": 88.103280737193089, "res": 8.0, "count_Reptiles": 1, "count_Amphibians": 0, "count_Birds": 70, "count_Insects": 13, "count_Flowering Plants": 7, "count_Mammals": 1, "count_Sac Fungi": 0, "count_Arachnids": 0, "count_Basidiomycota": 0, "count_Ferns": 0, "count_Molluscs": 1, "count_Gymnosperms": 0, "unique_species_count": 93.0, "countryCode": "BD" }, "geometry": { "type": "MultiPolygon", "coordinates": [ [ [ [ 88.369597315583363, 24.995940638324051 ], [ 88.619062732655095, 24.506761895998036 ], [ 88.353489071284088, 24.105177962012817 ], [ 87.838587128144766, 24.190716221074943 ], [ 87.58607091876371, 24.676601816365988 ], [ 87.851458131535068, 25.080250391387203 ], [ 88.369597315583363, 24.995940638324051 ] ] ] ] } },
{ "type": "Feature", "properties": { "geogrid_id": "824623648090426187", "seqnum": 25257.0, "lat_c": 24.62364822474791, "lon_c": 90.426187337340465, "res": 8.0, "count_Reptiles": 0, "count_Amphibians": 1, "count_Birds": 30, "count_Insects": 17, "count_Flowering Plants": 19, "count_Mammals": 3, "count_Sac Fungi": 0, "count_Arachnids": 0, "count_Basidiomycota": 0, "count_Ferns": 0, "count_Molluscs": 0, "count_Gymnosperms": 0, "unique_species_count": 70.0, "countryCode": "BD" }, "geometry": { "type": "MultiPolygon", "coordinates": [ [ [ [ 90.697705705736922, 25.021960422081449 ], [ 90.935582744677646, 24.521111073271165 ], [ 90.665018880024846, 24.123706510365182 ], [ 90.156425103392948, 24.225257296416686 ], [ 89.914726959471707, 24.72225218017336 ], [ 90.185400628823814, 25.12157584192537 ], [ 90.697705705736922, 25.021960422081449 ] ] ] ] } },
{ "type": "Feature", "properties": { "geogrid_id": "824908258088886280", "seqnum": 25094.0, "lat_c": 24.908258415804802, "lon_c": 88.886280221967084, "res": 8.0, "count_Reptiles": 1, "count_Amphibians": 0, "count_Birds": 39, "count_Insects": 19, "count_Flowering Plants": 17, "count_Mammals": 2, "count_Sac Fungi": 0, "count_Arachnids": 1, "count_Basidiomycota": 0, "count_Ferns": 0, "count_Molluscs": 1, "count_Gymnosperms": 0, "unique_species_count": 80.0, "countryCode": "BD" }, "geometry": { "type": "MultiPolygon", "coordinates": [ [ [ [ 89.155190396817289, 25.309668720383257 ], [ 89.401372037369555, 24.817074362508087 ], [ 89.133280984169076, 24.416633150368099 ], [ 88.619062732655095, 24.506761895998036 ], [ 88.369597315583363, 24.995940638324051 ], [ 88.637585541679698, 25.39841846015333 ], [ 89.155190396817289, 25.309668720383257 ] ] ] ] } },
{ "type": "Feature", "properties": { "geogrid_id": "824918439091207924", "seqnum": 25339.0, "lat_c": 24.918438725417275, "lon_c": 91.207923848685411, "res": 8.0, "count_Reptiles": 1, "count_Amphibians": 1, "count_Birds": 25, "count_Insects": 13, "count_Flowering Plants": 7, "count_Mammals": 0, "count_Sac Fungi": 0, "count_Arachnids": 0, "count_Basidiomycota": 0, "count_Ferns": 0, "count_Molluscs": 1, "count_Gymnosperms": 1, "unique_species_count": 49.0, "countryCode": "BD" }, "geometry": { "type": "MultiPolygon", "coordinates": [ [ [ [ 91.482092304382363, 25.315687489158901 ], [ 91.715873456889554, 24.810855825309858 ], [ 91.442728981125029, 24.41448106536286 ], [ 90.935582744677646, 24.521111073271165 ], [ 90.697705705736922, 25.021960422081449 ], [ 90.97103032110634, 25.420192591281452 ], [ 91.482092304382363, 25.315687489158901 ] ] ] ] } },
{ "type": "Feature", "properties": { "geogrid_id": "825207152091990866", "seqnum": 25421.0, "lat_c": 25.20715225133798, "lon_c": 91.990866204315296, "res": 8.0, "count_Reptiles": 3, "count_Amphibians": 4, "count_Birds": 42, "count_Insects": 57, "count_Flowering Plants": 31, "count_Mammals": 4, "count_Sac Fungi": 0, "count_Arachnids": 2, "count_Basidiomycota": 1, "count_Ferns": 2, "count_Molluscs": 0, "count_Gymnosperms": 0, "unique_species_count": 146.0, "countryCode": "BD" }, "geometry": { "type": "MultiPolygon", "coordinates": [ [ [ [ 92.267758315833078, 25.603367317561375 ], [ 92.497159073737564, 25.094428614152761 ], [ 92.221358584296794, 24.699048487890675 ], [ 91.715873456889554, 24.810855825309858 ], [ 91.482092304382363, 25.315687489158901 ], [ 91.758139243441804, 25.71285499014958 ], [ 92.267758315833078, 25.603367317561375 ] ] ] ] } },
{ "type": "Feature", "properties": { "geogrid_id": "825217432089671177", "seqnum": 25176.0, "lat_c": 25.217432058216733, "lon_c": 89.671176893194982, "res": 8.0, "count_Reptiles": 0, "count_Amphibians": 1, "count_Birds": 34, "count_Insects": 27, "count_Flowering Plants": 14, "count_Mammals": 3, "count_Sac Fungi": 0, "count_Arachnids": 0, "count_Basidiomycota": 0, "count_Ferns": 0, "count_Molluscs": 0, "count_Gymnosperms": 0, "unique_species_count": 79.0, "countryCode": "BD" }, "geometry": { "type": "MultiPolygon", "coordinates": [ [ [ [ 89.942745540181875, 25.617706296185407 ], [ 90.185400628823814, 25.12157584192537 ], [ 89.914726959471707, 24.72225218017336 ], [ 89.401372037369555, 24.817074362508087 ], [ 89.155190396817289, 25.309668720383257 ], [ 89.42584311938333, 25.71099353199827 ], [ 89.942745540181875, 25.617706296185407 ] ] ] ] } },
{ "type": "Feature", "properties": { "geogrid_id": "825483807088118496", "seqnum": 25013.0, "lat_c": 25.483807275344851, "lon_c": 88.118496052511674, "res": 8.0, "count_Reptiles": 0, "count_Amphibians": 0, "count_Birds": 0, "count_Insects": 8, "count_Flowering Plants": 0, "count_Mammals": 0, "count_Sac Fungi": 0, "count_Arachnids": 0, "count_Basidiomycota": 0, "count_Ferns": 0, "count_Molluscs": 0, "count_Gymnosperms": 0, "unique_species_count": 8.0, "countryCode": "BD" }, "geometry": { "type": "MultiPolygon", "coordinates": [ [ [ [ 88.387234163028296, 25.887274467608119 ], [ 88.637585541679698, 25.39841846015333 ], [ 88.369597315583363, 24.995940638324051 ], [ 87.851458131535068, 25.080250391387203 ], [ 87.598045737073491, 25.565954892332748 ], [ 87.865783287772544, 25.970507606917515 ], [ 88.387234163028296, 25.887274467608119 ] ] ] ] } },
{ "type": "Feature", "properties": { "geogrid_id": "825520818090457859", "seqnum": 25258.0, "lat_c": 25.520817906986277, "lon_c": 90.457859337586328, "res": 8.0, "count_Reptiles": 0, "count_Amphibians": 0, "count_Birds": 26, "count_Insects": 5, "count_Flowering Plants": 1, "count_Mammals": 0, "count_Sac Fungi": 0, "count_Arachnids": 0, "count_Basidiomycota": 0, "count_Ferns": 0, "count_Molluscs": 0, "count_Gymnosperms": 0, "unique_species_count": 32.0, "countryCode": "BD" }, "geometry": { "type": "MultiPolygon", "coordinates": [ [ [ [ 90.732154183926411, 25.919977323469787 ], [ 90.97103032110634, 25.420192591281452 ], [ 90.697705705736922, 25.021960422081449 ], [ 90.185400628823814, 25.12157584192537 ], [ 89.942745540181875, 25.617706296185407 ], [ 90.21612899937945, 26.017896681859717 ], [ 90.732154183926411, 25.919977323469787 ] ] ] ] } },
{ "type": "Feature", "properties": { "geogrid_id": "825800809088907295", "seqnum": 25095.0, "lat_c": 25.800808681791544, "lon_c": 88.907295108343419, "res": 8.0, "count_Reptiles": 1, "count_Amphibians": 3, "count_Birds": 15, "count_Insects": 16, "count_Flowering Plants": 31, "count_Mammals": 1, "count_Sac Fungi": 0, "count_Arachnids": 0, "count_Basidiomycota": 0, "count_Ferns": 0, "count_Molluscs": 0, "count_Gymnosperms": 0, "unique_species_count": 67.0, "countryCode": "BD" }, "geometry": { "type": "MultiPolygon", "coordinates": [ [ [ [ 89.178776757930265, 26.203112190156091 ], [ 89.42584311938333, 25.71099353199827 ], [ 89.155190396817289, 25.309668720383257 ], [ 88.637585541679698, 25.39841846015333 ], [ 88.387234163028296, 25.887274467608119 ], [ 88.657723004458887, 26.290653471884635 ], [ 89.178776757930265, 26.203112190156091 ] ] ] ] } },
{ "type": "Feature", "properties": { "geogrid_id": "826112233089698289", "seqnum": 25177.0, "lat_c": 26.112233103726474, "lon_c": 89.698289292105784, "res": 8.0, "count_Reptiles": 0, "count_Amphibians": 0, "count_Birds": 3, "count_Insects": 10, "count_Flowering Plants": 3, "count_Mammals": 0, "count_Sac Fungi": 0, "count_Arachnids": 0, "count_Basidiomycota": 0, "count_Ferns": 0, "count_Molluscs": 0, "count_Gymnosperms": 0, "unique_species_count": 16.0, "countryCode": "BD" }, "geometry": { "type": "MultiPolygon", "coordinates": [ [ [ [ 89.972580894718448, 26.513387225319796 ], [ 90.21612899937945, 26.017896681859717 ], [ 89.942745540181875, 25.617706296185407 ], [ 89.42584311938333, 25.71099353199827 ], [ 89.178776757930265, 26.203112190156091 ], [ 89.452082318759594, 26.605329395687395 ], [ 89.972580894718448, 26.513387225319796 ] ] ] ] } },
{ "type": "Feature", "properties": { "geogrid_id": "826374971088135250", "seqnum": 25014.0, "lat_c": 26.37497072976236, "lon_c": 88.13525024378356, "res": 8.0, "count_Reptiles": 0, "count_Amphibians": 0, "count_Birds": 36, "count_Insects": 8, "count_Flowering Plants": 7, "count_Mammals": 0, "count_Sac Fungi": 0, "count_Arachnids": 0, "count_Basidiomycota": 0, "count_Ferns": 0, "count_Molluscs": 0, "count_Gymnosperms": 0, "unique_species_count": 51.0, "countryCode": "BD" }, "geometry": { "type": "MultiPolygon", "coordinates": [ [ [ [ 88.40649801232621, 26.779345864189597 ], [ 88.657723004458887, 26.290653471884635 ], [ 88.387234163028296, 25.887274467608119 ], [ 87.865783287772544, 25.970507606917515 ], [ 87.611471937428178, 26.456172297882546 ], [ 87.881646614273663, 26.86163676911691 ], [ 88.40649801232621, 26.779345864189597 ] ] ] ] } },
{ "type": "Feature", "properties": { "geogrid_id": "826693945088930014", "seqnum": 25096.0, "lat_c": 26.693945303970221, "lon_c": 88.93001421400264, "res": 8.0, "count_Reptiles": 0, "count_Amphibians": 0, "count_Birds": 0, "count_Insects": 4, "count_Flowering Plants": 1, "count_Mammals": 0, "count_Sac Fungi": 0, "count_Arachnids": 0, "count_Basidiomycota": 0, "count_Ferns": 0, "count_Molluscs": 0, "count_Gymnosperms": 0, "unique_species_count": 5.0, "countryCode": "BD" }, "geometry": { "type": "MultiPolygon", "coordinates": [ [ [ [ 89.204160562066093, 27.097150497892116 ], [ 89.452082318759594, 26.605329395687395 ], [ 89.178776757930265, 26.203112190156091 ], [ 88.657723004458887, 26.290653471884635 ], [ 88.40649801232621, 26.779345864189597 ], [ 88.6795791440519, 27.183634122797535 ], [ 89.204160562066093, 27.097150497892116 ] ] ] ] } }
]
}
