{
"type": "FeatureCollection",
"name": "BF",
"crs": { "type": "name", "properties": { "name": "urn:ogc:def:crs:OGC:1.3:CRS84" } },
"features": [
{ "type": "Feature", "properties": { "geogrid_id": "5209631473002874586", "seqnum": 14530.0, "lat_c": 9.6314733597104372, "lon_c": -2.8745856021797742, "res": 8.0, "count_Flowering Plants": 12, "count_Mammals": 0, "count_Reptiles": 0, "count_Birds": 0, "count_Insects": 1, "count_Ferns": 0, "count_Arachnids": 0, "count_Amphibians": 0, "count_Molluscs": 0, "count_Sac Fungi": 0, "count_Basidiomycota": 0, "unique_species_count": 13.0, "countryCode": "BF" }, "geometry": { "type": "MultiPolygon", "coordinates": [ [ [ [ -2.486637602504722, 9.888536337871184 ], [ -2.484963912061124, 9.342154475978296 ], [ -2.873062016202244, 9.084706840505174 ], [ -3.26204646773925, 9.373790535554258 ], [ -3.260765531354393, 9.923752841825152 ], [ -2.873416586211698, 10.18110542755163 ], [ -2.486637602504722, 9.888536337871184 ] ] ] ] } },
{ "type": "Feature", "properties": { "geogrid_id": "5209701861004415307", "seqnum": 14366.0, "lat_c": 9.7018610563520582, "lon_c": -4.4153073644825893, "res": 8.0, "count_Flowering Plants": 2, "count_Mammals": 0, "count_Reptiles": 0, "count_Birds": 6, "count_Insects": 4, "count_Ferns": 0, "count_Arachnids": 0, "count_Amphibians": 0, "count_Molluscs": 0, "count_Sac Fungi": 0, "count_Basidiomycota": 0, "unique_species_count": 12.0, "countryCode": "BF" }, "geometry": { "type": "MultiPolygon", "coordinates": [ [ [ [ -4.029367131555102, 9.960871990105032 ], [ -4.034077605018898, 9.407148561811093 ], [ -4.420090202743852, 9.147906230738883 ], [ -4.800839543614292, 9.442214882943416 ], [ -4.792210649557042, 9.999876412333347 ], [ -4.406667569645704, 10.25936686109104 ], [ -4.029367131555102, 9.960871990105032 ] ] ] ] } },
{ "type": "Feature", "properties": { "geogrid_id": "5209739744005177355", "seqnum": 14284.0, "lat_c": 9.7397437363618451, "lon_c": -5.1773550802836441, "res": 8.0, "count_Flowering Plants": 1, "count_Mammals": 0, "count_Reptiles": 0, "count_Birds": 0, "count_Insects": 0, "count_Ferns": 0, "count_Arachnids": 0, "count_Amphibians": 0, "count_Molluscs": 0, "count_Sac Fungi": 0, "count_Basidiomycota": 0, "unique_species_count": 1.0, "countryCode": "BF" }, "geometry": { "type": "MultiPolygon", "coordinates": [ [ [ [ -4.792210649557042, 9.999876412333347 ], [ -4.800839543614292, 9.442214882943416 ], [ -5.185987151081908, 9.181939210138166 ], [ -5.562123505589311, 9.478975250575852 ], [ -5.549074978447364, 10.0407480344172 ], [ -5.16420037746529, 10.301460052572427 ], [ -4.792210649557042, 9.999876412333347 ] ] ] ] } },
{ "type": "Feature", "properties": { "geogrid_id": "5210476965003256168", "seqnum": 14449.0, "lat_c": 10.476965471081401, "lon_c": -3.256168071572874, "res": 8.0, "count_Flowering Plants": 30, "count_Mammals": 0, "count_Reptiles": 0, "count_Birds": 1, "count_Insects": 0, "count_Ferns": 0, "count_Arachnids": 0, "count_Amphibians": 1, "count_Molluscs": 0, "count_Sac Fungi": 0, "count_Basidiomycota": 0, "unique_species_count": 32.0, "countryCode": "BF" }, "geometry": { "type": "MultiPolygon", "coordinates": [ [ [ [ -2.868861705978336, 10.734036871583243 ], [ -2.873416586211698, 10.18110542755163 ], [ -3.260765531354393, 9.923752841825152 ], [ -3.642995266350193, 10.219242000097944 ], [ -3.634294793694087, 10.77639537585117 ], [ -3.247419674585461, 11.033920592278143 ], [ -2.868861705978336, 10.734036871583243 ] ] ] ] } },
{ "type": "Feature", "properties": { "geogrid_id": "5210518209004020703", "seqnum": 14367.0, "lat_c": 10.518208657891368, "lon_c": -4.0207031807834177, "res": 8.0, "count_Flowering Plants": 10, "count_Mammals": 0, "count_Reptiles": 0, "count_Birds": 1, "count_Insects": 0, "count_Ferns": 0, "count_Arachnids": 0, "count_Amphibians": 0, "count_Molluscs": 0, "count_Sac Fungi": 0, "count_Basidiomycota": 0, "unique_species_count": 11.0, "countryCode": "BF" }, "geometry": { "type": "MultiPolygon", "coordinates": [ [ [ [ -3.634294793694087, 10.77639537585117 ], [ -3.642995266350193, 10.219242000097944 ], [ -4.029367131555102, 9.960871990105032 ], [ -4.406667569645704, 10.25936686109104 ], [ -4.39324657770547, 10.820940595848031 ], [ -4.007123385326088, 11.079695224256472 ], [ -3.634294793694087, 10.77639537585117 ] ] ] ] } },
{ "type": "Feature", "properties": { "geogrid_id": "5210561527004778932", "seqnum": 14285.0, "lat_c": 10.561526547278735, "lon_c": -4.7789315829400687, "res": 8.0, "count_Flowering Plants": 145, "count_Mammals": 8, "count_Reptiles": 3, "count_Birds": 14, "count_Insects": 10, "count_Ferns": 2, "count_Arachnids": 0, "count_Amphibians": 1, "count_Molluscs": 0, "count_Sac Fungi": 17, "count_Basidiomycota": 4, "unique_species_count": 204.0, "countryCode": "BF" }, "geometry": { "type": "MultiPolygon", "coordinates": [ [ [ [ -4.39324657770547, 10.820940595848031 ], [ -4.406667569645704, 10.25936686109104 ], [ -4.792210649557042, 9.999876412333347 ], [ -5.16420037746529, 10.301460052572427 ], [ -5.145470638879591, 10.867647257699698 ], [ -4.759902832768054, 11.127746753108024 ], [ -4.39324657770547, 10.820940595848031 ] ] ] ] } },
{ "type": "Feature", "properties": { "geogrid_id": "5210606896005530620", "seqnum": 14203.0, "lat_c": 10.606896256996409, "lon_c": -5.530619836151649, "res": 8.0, "count_Flowering Plants": 30, "count_Mammals": 2, "count_Reptiles": 0, "count_Birds": 2, "count_Insects": 1, "count_Ferns": 0, "count_Arachnids": 0, "count_Amphibians": 0, "count_Molluscs": 0, "count_Sac Fungi": 0, "count_Basidiomycota": 0, "unique_species_count": 35.0, "countryCode": "BF" }, "geometry": { "type": "MultiPolygon", "coordinates": [ [ [ [ -5.145470638879591, 10.867647257699698 ], [ -5.16420037746529, 10.301460052572427 ], [ -5.549074978447364, 10.0407480344172 ], [ -5.915372269399437, 10.345500860868876 ], [ -6.076000921027769, 10.790374026302366 ], [ -5.690991738961744, 11.052230530443692 ], [ -5.145470638879591, 10.867647257699698 ] ] ] ] } },
{ "type": "Feature", "properties": { "geogrid_id": "5211164455000538654", "seqnum": 14696.0, "lat_c": 11.164455372406094, "lon_c": -0.53865397836320095, "res": 8.0, "count_Flowering Plants": 32, "count_Mammals": 0, "count_Reptiles": 0, "count_Birds": 3, "count_Insects": 1, "count_Ferns": 0, "count_Arachnids": 0, "count_Amphibians": 0, "count_Molluscs": 0, "count_Sac Fungi": 0, "count_Basidiomycota": 0, "unique_species_count": 36.0, "countryCode": "BF" }, "geometry": { "type": "MultiPolygon", "coordinates": [ [ [ [ -0.147214502715277, 11.417746172161348 ], [ -0.144791733222306, 10.874132709666464 ], [ -0.536342251652272, 10.620319683963087 ], [ -0.929441321470779, 10.910531746670513 ], [ -0.928729631179939, 11.458203003690169 ], [ -0.538020935197368, 11.711663877100998 ], [ -0.147214502715277, 11.417746172161348 ] ] ] ] } },
{ "type": "Feature", "properties": { "geogrid_id": "5211204085001318812", "seqnum": 14614.0, "lat_c": 11.204084916458308, "lon_c": -1.318812351787062, "res": 8.0, "count_Flowering Plants": 134, "count_Mammals": 3, "count_Reptiles": 1, "count_Birds": 60, "count_Insects": 13, "count_Ferns": 0, "count_Arachnids": 0, "count_Amphibians": 0, "count_Molluscs": 0, "count_Sac Fungi": 0, "count_Basidiomycota": 0, "unique_species_count": 211.0, "countryCode": "BF" }, "geometry": { "type": "MultiPolygon", "coordinates": [ [ [ [ -0.928729631179939, 11.458203003690169 ], [ -0.929441321470779, 10.910531746670513 ], [ -1.319605401979298, 10.655976256108577 ], [ -1.708296107244155, 10.94931259391616 ], [ -1.70382639256288, 11.501284982666373 ], [ -1.314360980915604, 11.755695145030838 ], [ -0.928729631179939, 11.458203003690169 ] ] ] ] } },
{ "type": "Feature", "properties": { "geogrid_id": "5211246202002092715", "seqnum": 14532.0, "lat_c": 11.246201862461563, "lon_c": -2.0927152043221442, "res": 8.0, "count_Flowering Plants": 10, "count_Mammals": 0, "count_Reptiles": 0, "count_Birds": 7, "count_Insects": 0, "count_Ferns": 0, "count_Arachnids": 0, "count_Amphibians": 0, "count_Molluscs": 0, "count_Sac Fungi": 0, "count_Basidiomycota": 0, "unique_species_count": 17.0, "countryCode": "BF" }, "geometry": { "type": "MultiPolygon", "coordinates": [ [ [ [ -1.70382639256288, 11.501284982666373 ], [ -1.708296107244155, 10.94931259391616 ], [ -2.097207409417205, 10.693889397660344 ], [ -2.48105215610382, 10.990450771446758 ], [ -2.472177979745572, 11.546960898245734 ], [ -2.083765551827329, 11.802463240456715 ], [ -1.70382639256288, 11.501284982666373 ] ] ] ] } },
{ "type": "Feature", "properties": { "geogrid_id": "5211290778002860055", "seqnum": 14450.0, "lat_c": 11.290777896329638, "lon_c": -2.8600550283654131, "res": 8.0, "count_Flowering Plants": 46, "count_Mammals": 0, "count_Reptiles": 0, "count_Birds": 6, "count_Insects": 1, "count_Ferns": 0, "count_Arachnids": 0, "count_Amphibians": 1, "count_Molluscs": 0, "count_Sac Fungi": 0, "count_Basidiomycota": 0, "unique_species_count": 54.0, "countryCode": "BF" }, "geometry": { "type": "MultiPolygon", "coordinates": [ [ [ [ -2.472177979745572, 11.546960898245734 ], [ -2.48105215610382, 10.990450771446758 ], [ -2.868861705978336, 10.734036871583243 ], [ -3.247419674585461, 11.033920592278143 ], [ -3.233474698658366, 11.595198069561404 ], [ -2.845905395695672, 11.851932085765087 ], [ -2.472177979745572, 11.546960898245734 ] ] ] ] } },
{ "type": "Feature", "properties": { "geogrid_id": "5211313445005305563", "seqnum": 14204.0, "lat_c": 11.313444855421297, "lon_c": -5.3055629959576898, "res": 8.0, "count_Flowering Plants": 11, "count_Mammals": 0, "count_Reptiles": 0, "count_Birds": 1, "count_Insects": 0, "count_Ferns": 0, "count_Arachnids": 0, "count_Amphibians": 0, "count_Molluscs": 0, "count_Sac Fungi": 0, "count_Basidiomycota": 0, "unique_species_count": 12.0, "countryCode": "BF" }, "geometry": { "type": "MultiPolygon", "coordinates": [ [ [ [ -4.919692410745414, 11.574010010038345 ], [ -4.759902832768054, 11.127746753108024 ], [ -5.145470638879591, 10.867647257699698 ], [ -5.690991738961744, 11.052230530443692 ], [ -5.845537734940887, 11.501741164404939 ], [ -5.45964966582531, 11.763514936322348 ], [ -4.919692410745414, 11.574010010038345 ] ] ] ] } },
{ "type": "Feature", "properties": { "geogrid_id": "5211337783003620540", "seqnum": 14368.0, "lat_c": 11.337783407371177, "lon_c": -3.620540063783463, "res": 8.0, "count_Flowering Plants": 9, "count_Mammals": 0, "count_Reptiles": 0, "count_Birds": 1, "count_Insects": 0, "count_Ferns": 0, "count_Arachnids": 0, "count_Amphibians": 0, "count_Molluscs": 0, "count_Sac Fungi": 0, "count_Basidiomycota": 0, "unique_species_count": 10.0, "countryCode": "BF" }, "geometry": { "type": "MultiPolygon", "coordinates": [ [ [ [ -3.233474698658366, 11.595198069561404 ], [ -3.247419674585461, 11.033920592278143 ], [ -3.634294793694087, 10.77639537585117 ], [ -4.007123385326088, 11.079695224256472 ], [ -3.987424356543667, 11.645962434027041 ], [ -3.600470331437478, 11.904064038840977 ], [ -3.233474698658366, 11.595198069561404 ] ] ] ] } },
{ "type": "Feature", "properties": { "geogrid_id": "5211387188004373895", "seqnum": 14286.0, "lat_c": 11.387187562873709, "lon_c": -4.3738946418406277, "res": 8.0, "count_Flowering Plants": 216, "count_Mammals": 2, "count_Reptiles": 4, "count_Birds": 69, "count_Insects": 39, "count_Ferns": 2, "count_Arachnids": 1, "count_Amphibians": 1, "count_Molluscs": 0, "count_Sac Fungi": 15, "count_Basidiomycota": 5, "unique_species_count": 354.0, "countryCode": "BF" }, "geometry": { "type": "MultiPolygon", "coordinates": [ [ [ [ -3.987424356543667, 11.645962434027041 ], [ -4.007123385326088, 11.079695224256472 ], [ -4.39324657770547, 10.820940595848031 ], [ -4.759902832768054, 11.127746753108024 ], [ -4.919692410745414, 11.574010010038345 ], [ -4.533357734000512, 11.833918946267168 ], [ -3.987424356543667, 11.645962434027041 ] ] ] ] } },
{ "type": "Feature", "properties": { "geogrid_id": "5211964465000146659", "seqnum": 14697.0, "lat_c": 11.964465005323833, "lon_c": -0.14665868193697501, "res": 8.0, "count_Flowering Plants": 379, "count_Mammals": 0, "count_Reptiles": 5, "count_Birds": 1, "count_Insects": 1, "count_Ferns": 0, "count_Arachnids": 0, "count_Amphibians": 0, "count_Molluscs": 0, "count_Sac Fungi": 0, "count_Basidiomycota": 0, "unique_species_count": 386.0, "countryCode": "BF" }, "geometry": { "type": "MultiPolygon", "coordinates": [ [ [ [ 0.245385366377633, 12.216604379844238 ], [ 0.244906701839524, 11.670403845120266 ], [ -0.147214502715277, 11.417746172161348 ], [ -0.538020935197368, 11.711663877100998 ], [ -0.533599697130687, 12.26247773266126 ], [ -0.142252471355825, 12.514841396793436 ], [ 0.245385366377633, 12.216604379844238 ] ] ] ] } },
{ "type": "Feature", "properties": { "geogrid_id": "5212009428000924294", "seqnum": 14615.0, "lat_c": 12.009427571384206, "lon_c": -0.92429390016788104, "res": 8.0, "count_Flowering Plants": 32, "count_Mammals": 1, "count_Reptiles": 0, "count_Birds": 3, "count_Insects": 2, "count_Ferns": 0, "count_Arachnids": 0, "count_Amphibians": 0, "count_Molluscs": 0, "count_Sac Fungi": 0, "count_Basidiomycota": 0, "unique_species_count": 38.0, "countryCode": "BF" }, "geometry": { "type": "MultiPolygon", "coordinates": [ [ [ [ -0.533599697130687, 12.26247773266126 ], [ -0.538020935197368, 11.711663877100998 ], [ -0.928729631179939, 11.458203003690169 ], [ -1.314360980915604, 11.755695145030838 ], [ -1.305241992302098, 12.311400759230711 ], [ -0.915084160259542, 12.564823515796473 ], [ -0.533599697130687, 12.26247773266126 ] ] ] ] } },
{ "type": "Feature", "properties": { "geogrid_id": "5212024645005073288", "seqnum": 14205.0, "lat_c": 12.024645497839446, "lon_c": -5.073288041273404, "res": 8.0, "count_Flowering Plants": 0, "count_Mammals": 1, "count_Reptiles": 0, "count_Birds": 0, "count_Insects": 1, "count_Ferns": 0, "count_Arachnids": 0, "count_Amphibians": 0, "count_Molluscs": 0, "count_Sac Fungi": 0, "count_Basidiomycota": 0, "unique_species_count": 2.0, "countryCode": "BF" }, "geometry": { "type": "MultiPolygon", "coordinates": [ [ [ [ -4.686429541564531, 12.285126162574747 ], [ -4.533357734000512, 11.833918946267168 ], [ -4.919692410745414, 11.574010010038345 ], [ -5.45964966582531, 11.763514936322348 ], [ -5.608258233706048, 12.217317320741314 ], [ -5.22124126691804, 12.479088385155867 ], [ -4.686429541564531, 12.285126162574747 ] ] ] ] } },
{ "type": "Feature", "properties": { "geogrid_id": "5212057279001694795", "seqnum": 14533.0, "lat_c": 12.057278610932936, "lon_c": -1.694794641678637, "res": 8.0, "count_Flowering Plants": 120, "count_Mammals": 13, "count_Reptiles": 8, "count_Birds": 161, "count_Insects": 103, "count_Ferns": 0, "count_Arachnids": 3, "count_Amphibians": 0, "count_Molluscs": 0, "count_Sac Fungi": 0, "count_Basidiomycota": 0, "unique_species_count": 408.0, "countryCode": "BF" }, "geometry": { "type": "MultiPolygon", "coordinates": [ [ [ [ -1.305241992302098, 12.311400759230711 ], [ -1.314360980915604, 11.755695145030838 ], [ -1.70382639256288, 11.501284982666373 ], [ -2.083765551827329, 11.802463240456715 ], [ -2.069167449986181, 12.363329443110205 ], [ -1.679955040994745, 12.617978304829876 ], [ -1.305241992302098, 12.311400759230711 ] ] ] ] } },
{ "type": "Feature", "properties": { "geogrid_id": "5212093165004146537", "seqnum": 14287.0, "lat_c": 12.093164559054458, "lon_c": -4.1465367417774601, "res": 8.0, "count_Flowering Plants": 14, "count_Mammals": 0, "count_Reptiles": 1, "count_Birds": 1, "count_Insects": 0, "count_Ferns": 0, "count_Arachnids": 0, "count_Amphibians": 0, "count_Molluscs": 0, "count_Sac Fungi": 0, "count_Basidiomycota": 0, "unique_species_count": 16.0, "countryCode": "BF" }, "geometry": { "type": "MultiPolygon", "coordinates": [ [ [ [ -3.759207228391273, 12.351739686437945 ], [ -3.600470331437478, 11.904064038840977 ], [ -3.987424356543667, 11.645962434027041 ], [ -4.533357734000512, 11.833918946267168 ], [ -4.686429541564531, 12.285126162574747 ], [ -4.29905077444616, 12.544950222406962 ], [ -3.759207228391273, 12.351739686437945 ] ] ] ] } },
{ "type": "Feature", "properties": { "geogrid_id": "5212107978002457810", "seqnum": 14451.0, "lat_c": 12.107978283097648, "lon_c": -2.457810272613377, "res": 8.0, "count_Flowering Plants": 55, "count_Mammals": 0, "count_Reptiles": 2, "count_Birds": 3, "count_Insects": 15, "count_Ferns": 0, "count_Arachnids": 2, "count_Amphibians": 0, "count_Molluscs": 0, "count_Sac Fungi": 0, "count_Basidiomycota": 0, "unique_species_count": 77.0, "countryCode": "BF" }, "geometry": { "type": "MultiPolygon", "coordinates": [ [ [ [ -2.069167449986181, 12.363329443110205 ], [ -2.083765551827329, 11.802463240456715 ], [ -2.472177979745572, 11.546960898245734 ], [ -2.845905395695672, 11.851932085765087 ], [ -2.825024787508942, 12.418217752008712 ], [ -2.436490279106429, 12.674254812031462 ], [ -2.069167449986181, 12.363329443110205 ] ] ] ] } },
{ "type": "Feature", "properties": { "geogrid_id": "5212161485003213011", "seqnum": 14369.0, "lat_c": 12.161484972705155, "lon_c": -3.2130109829950699, "res": 8.0, "count_Flowering Plants": 12, "count_Mammals": 0, "count_Reptiles": 0, "count_Birds": 2, "count_Insects": 5, "count_Ferns": 0, "count_Arachnids": 0, "count_Amphibians": 0, "count_Molluscs": 0, "count_Sac Fungi": 0, "count_Basidiomycota": 0, "unique_species_count": 19.0, "countryCode": "BF" }, "geometry": { "type": "MultiPolygon", "coordinates": [ [ [ [ -2.825024787508942, 12.418217752008712 ], [ -2.845905395695672, 11.851932085765087 ], [ -3.233474698658366, 11.595198069561404 ], [ -3.600470331437478, 11.904064038840977 ], [ -3.759207228391273, 12.351739686437945 ], [ -3.371346998623712, 12.609637110029666 ], [ -2.825024787508942, 12.418217752008712 ] ] ] ] } },
{ "type": "Feature", "properties": { "geogrid_id": "5212804111003911128", "seqnum": 14288.0, "lat_c": 12.804110951937632, "lon_c": -3.9111282562342939, "res": 8.0, "count_Flowering Plants": 1, "count_Mammals": 0, "count_Reptiles": 0, "count_Birds": 6, "count_Insects": 0, "count_Ferns": 0, "count_Arachnids": 0, "count_Amphibians": 0, "count_Molluscs": 0, "count_Sac Fungi": 0, "count_Basidiomycota": 0, "unique_species_count": 7.0, "countryCode": "BF" }, "geometry": { "type": "MultiPolygon", "coordinates": [ [ [ [ -3.522638390407463, 13.062601613937737 ], [ -3.371346998623712, 12.609637110029666 ], [ -3.759207228391273, 12.351739686437945 ], [ -4.29905077444616, 12.544950222406962 ], [ -4.445571561359342, 13.000699944475715 ], [ -4.05686852526945, 13.260528009460968 ], [ -3.522638390407463, 13.062601613937737 ] ] ] ] } },
{ "type": "Feature", "properties": { "geogrid_id": "5212817541000524297", "seqnum": 14616.0, "lat_c": 12.817540815230204, "lon_c": -0.52429747804782301, "res": 8.0, "count_Flowering Plants": 2, "count_Mammals": 0, "count_Reptiles": 0, "count_Birds": 0, "count_Insects": 0, "count_Ferns": 0, "count_Arachnids": 0, "count_Amphibians": 0, "count_Molluscs": 0, "count_Sac Fungi": 0, "count_Basidiomycota": 0, "unique_species_count": 2.0, "countryCode": "BF" }, "geometry": { "type": "MultiPolygon", "coordinates": [ [ [ [ -0.13285801010432, 13.069546724387548 ], [ -0.142252471355825, 12.514841396793436 ], [ -0.533599697130687, 12.26247773266126 ], [ -0.915084160259542, 12.564823515796473 ], [ -0.899733808093398, 13.125139901959948 ], [ -0.50868105979914, 13.377637944728377 ], [ -0.13285801010432, 13.069546724387548 ] ] ] ] } },
{ "type": "Feature", "properties": { "geogrid_id": "5212866850002982934", "seqnum": 14370.0, "lat_c": 12.866849555932969, "lon_c": -2.9829338591025278, "res": 8.0, "count_Flowering Plants": 1, "count_Mammals": 0, "count_Reptiles": 0, "count_Birds": 2, "count_Insects": 10, "count_Ferns": 0, "count_Arachnids": 0, "count_Amphibians": 0, "count_Molluscs": 0, "count_Sac Fungi": 0, "count_Basidiomycota": 0, "unique_species_count": 13.0, "countryCode": "BF" }, "geometry": { "type": "MultiPolygon", "coordinates": [ [ [ [ -2.593945608667612, 13.123369696175375 ], [ -2.436490279106429, 12.674254812031462 ], [ -2.825024787508942, 12.418217752008712 ], [ -3.371346998623712, 12.609637110029666 ], [ -3.522638390407463, 13.062601613937737 ], [ -3.133557443203176, 13.320415465948351 ], [ -2.593945608667612, 13.123369696175375 ] ] ] ] } },
{ "type": "Feature", "properties": { "geogrid_id": "5212871918001290151", "seqnum": 14534.0, "lat_c": 12.871917568747497, "lon_c": -1.290151139781895, "res": 8.0, "count_Flowering Plants": 83, "count_Mammals": 4, "count_Reptiles": 4, "count_Birds": 121, "count_Insects": 30, "count_Ferns": 0, "count_Arachnids": 0, "count_Amphibians": 0, "count_Molluscs": 0, "count_Sac Fungi": 0, "count_Basidiomycota": 0, "unique_species_count": 242.0, "countryCode": "BF" }, "geometry": { "type": "MultiPolygon", "coordinates": [ [ [ [ -0.899733808093398, 13.125139901959948 ], [ -0.915084160259542, 12.564823515796473 ], [ -1.305241992302098, 12.311400759230711 ], [ -1.679955040994745, 12.617978304829876 ], [ -1.657690738092871, 13.184211097209964 ], [ -1.267383046581735, 13.438114768509216 ], [ -0.899733808093398, 13.125139901959948 ] ] ] ] } },
{ "type": "Feature", "properties": { "geogrid_id": "5212929589002047386", "seqnum": 14452.0, "lat_c": 12.929588504843094, "lon_c": -2.0473860478742378, "res": 8.0, "count_Flowering Plants": 20, "count_Mammals": 0, "count_Reptiles": 0, "count_Birds": 3, "count_Insects": 4, "count_Ferns": 0, "count_Arachnids": 0, "count_Amphibians": 0, "count_Molluscs": 0, "count_Sac Fungi": 0, "count_Basidiomycota": 0, "unique_species_count": 27.0, "countryCode": "BF" }, "geometry": { "type": "MultiPolygon", "coordinates": [ [ [ [ -1.657690738092871, 13.184211097209964 ], [ -1.679955040994745, 12.617978304829876 ], [ -2.069167449986181, 12.363329443110205 ], [ -2.436490279106429, 12.674254812031462 ], [ -2.593945608667612, 13.123369696175375 ], [ -2.204360027494187, 13.379190150758271 ], [ -1.657690738092871, 13.184211097209964 ] ] ] ] } },
{ "type": "Feature", "properties": { "geogrid_id": "5213577546002743862", "seqnum": 14371.0, "lat_c": 13.57754576824002, "lon_c": -2.743861515617255, "res": 8.0, "count_Flowering Plants": 12, "count_Mammals": 0, "count_Reptiles": 0, "count_Birds": 4, "count_Insects": 11, "count_Ferns": 0, "count_Arachnids": 0, "count_Amphibians": 0, "count_Molluscs": 0, "count_Sac Fungi": 0, "count_Basidiomycota": 0, "unique_species_count": 27.0, "countryCode": "BF" }, "geometry": { "type": "MultiPolygon", "coordinates": [ [ [ [ -2.353526511070362, 13.833985793378163 ], [ -2.204360027494187, 13.379190150758271 ], [ -2.593945608667612, 13.123369696175375 ], [ -3.133557443203176, 13.320415465948351 ], [ -3.277598295646722, 13.778197875896133 ], [ -2.886978977050509, 14.036027488047687 ], [ -2.353526511070362, 13.833985793378163 ] ] ] ] } },
{ "type": "Feature", "properties": { "geogrid_id": "5213629404000116971", "seqnum": 14617.0, "lat_c": 13.629404318784211, "lon_c": -0.11697084278464, "res": 8.0, "count_Flowering Plants": 23, "count_Mammals": 0, "count_Reptiles": 0, "count_Birds": 0, "count_Insects": 15, "count_Ferns": 0, "count_Arachnids": 0, "count_Amphibians": 0, "count_Molluscs": 0, "count_Sac Fungi": 0, "count_Basidiomycota": 0, "unique_species_count": 38.0, "countryCode": "BF" }, "geometry": { "type": "MultiPolygon", "coordinates": [ [ [ [ 0.275418982435283, 13.880431637807384 ], [ 0.259258498955154, 13.320835476431055 ], [ -0.13285801010432, 13.069546724387548 ], [ -0.50868105979914, 13.377637944728377 ], [ -0.484845559194709, 13.943733616001081 ], [ -0.092573406325553, 14.195432695326055 ], [ 0.275418982435283, 13.880431637807384 ] ] ] ] } },
{ "type": "Feature", "properties": { "geogrid_id": "5213634303001814155", "seqnum": 14453.0, "lat_c": 13.634303490448143, "lon_c": -1.8141548646874901, "res": 8.0, "count_Flowering Plants": 40, "count_Mammals": 0, "count_Reptiles": 0, "count_Birds": 1, "count_Insects": 3, "count_Ferns": 0, "count_Arachnids": 0, "count_Amphibians": 0, "count_Molluscs": 3, "count_Sac Fungi": 0, "count_Basidiomycota": 0, "unique_species_count": 47.0, "countryCode": "BF" }, "geometry": { "type": "MultiPolygon", "coordinates": [ [ [ [ -1.423307823992066, 13.88870224046425 ], [ -1.267383046581735, 13.438114768509216 ], [ -1.657690738092871, 13.184211097209964 ], [ -2.204360027494187, 13.379190150758271 ], [ -2.353526511070362, 13.833985793378163 ], [ -1.962528097834149, 14.089728837694468 ], [ -1.423307823992066, 13.88870224046425 ] ] ] ] } },
{ "type": "Feature", "properties": { "geogrid_id": "5214293179002495668", "seqnum": 14372.0, "lat_c": 14.293178872949238, "lon_c": -2.4956680849700148, "res": 8.0, "count_Flowering Plants": 2, "count_Mammals": 0, "count_Reptiles": 0, "count_Birds": 1, "count_Insects": 0, "count_Ferns": 0, "count_Arachnids": 0, "count_Amphibians": 0, "count_Molluscs": 0, "count_Sac Fungi": 0, "count_Basidiomycota": 0, "unique_species_count": 3.0, "countryCode": "BF" }, "geometry": { "type": "MultiPolygon", "coordinates": [ [ [ [ -2.103638426137213, 14.549646131214562 ], [ -1.962528097834149, 14.089728837694468 ], [ -2.353526511070362, 13.833985793378163 ], [ -2.886978977050509, 14.036027488047687 ], [ -3.023969079295934, 14.498159983913432 ], [ -2.631491373332361, 14.756081923975996 ], [ -2.103638426137213, 14.549646131214562 ] ] ] ] } },
{ "type": "Feature", "properties": { "geogrid_id": "5214344768001570842", "seqnum": 14454.0, "lat_c": 14.34476823502963, "lon_c": -1.5708416650910919, "res": 8.0, "count_Flowering Plants": 0, "count_Mammals": 1, "count_Reptiles": 0, "count_Birds": 1, "count_Insects": 2, "count_Ferns": 0, "count_Arachnids": 0, "count_Amphibians": 0, "count_Molluscs": 0, "count_Sac Fungi": 0, "count_Basidiomycota": 0, "unique_species_count": 4.0, "countryCode": "BF" }, "geometry": { "type": "MultiPolygon", "coordinates": [ [ [ [ -1.178442271222827, 14.599097373194454 ], [ -1.031796547166818, 14.142378885256253 ], [ -1.423307823992066, 13.88870224046425 ], [ -1.962528097834149, 14.089728837694468 ], [ -2.103638426137213, 14.549646131214562 ], [ -1.710862220186385, 14.805423476475635 ], [ -1.178442271222827, 14.599097373194454 ] ] ] ] } },
{ "type": "Feature", "properties": { "geogrid_id": "5214395326000639599", "seqnum": 14536.0, "lat_c": 14.395325874614993, "lon_c": -0.63959859445739797, "res": 8.0, "count_Flowering Plants": 260, "count_Mammals": 1, "count_Reptiles": 0, "count_Birds": 4, "count_Insects": 4, "count_Ferns": 0, "count_Arachnids": 1, "count_Amphibians": 0, "count_Molluscs": 0, "count_Sac Fungi": 0, "count_Basidiomycota": 0, "unique_species_count": 270.0, "countryCode": "BF" }, "geometry": { "type": "MultiPolygon", "coordinates": [ [ [ [ -0.246691421441034, 14.647535631424093 ], [ -0.092573406325553, 14.195432695326055 ], [ -0.484845559194709, 13.943733616001081 ], [ -1.031796547166818, 14.142378885256253 ], [ -1.178442271222827, 14.599097373194454 ], [ -0.785304582562247, 14.852709713698491 ], [ -0.246691421441034, 14.647535631424093 ] ] ] ] } },
{ "type": "Feature", "properties": { "geogrid_id": "5215060505001317311", "seqnum": 14455.0, "lat_c": 15.060505259837292, "lon_c": -1.317311004332743, "res": 8.0, "count_Flowering Plants": 22, "count_Mammals": 0, "count_Reptiles": 0, "count_Birds": 0, "count_Insects": 0, "count_Ferns": 0, "count_Arachnids": 0, "count_Amphibians": 0, "count_Molluscs": 0, "count_Sac Fungi": 0, "count_Basidiomycota": 0, "unique_species_count": 22.0, "countryCode": "BF" }, "geometry": { "type": "MultiPolygon", "coordinates": [ [ [ [ -0.922955520826446, 15.314885998368213 ], [ -0.785304582562247, 14.852709713698491 ], [ -1.178442271222827, 14.599097373194454 ], [ -1.710862220186385, 14.805423476475635 ], [ -1.844156702781324, 15.269907688221702 ], [ -1.449235764881655, 15.52580152415441 ], [ -0.922955520826446, 15.314885998368213 ] ] ] ] } },
{ "type": "Feature", "properties": { "geogrid_id": "5215105599000391403", "seqnum": 14537.0, "lat_c": 15.105598815424221, "lon_c": -0.39140280037830899, "res": 8.0, "count_Flowering Plants": 9, "count_Mammals": 0, "count_Reptiles": 0, "count_Birds": 2, "count_Insects": 0, "count_Ferns": 0, "count_Arachnids": 0, "count_Amphibians": 0, "count_Molluscs": 0, "count_Sac Fungi": 0, "count_Basidiomycota": 0, "unique_species_count": 11.0, "countryCode": "BF" }, "geometry": { "type": "MultiPolygon", "coordinates": [ [ [ [ 0.003289426746965, 15.357758363087518 ], [ 0.146947648687886, 14.899000561444232 ], [ -0.246691421441034, 14.647535631424093 ], [ -0.785304582562247, 14.852709713698491 ], [ -0.922955520826446, 15.314885998368213 ], [ -0.527765583336946, 15.568560408308311 ], [ 0.003289426746965, 15.357758363087518 ] ] ] ] } },
{ "type": "Feature", "properties": { "geogrid_id": "811060753001836052", "seqnum": 14942.0, "lat_c": 11.060753325397341, "lon_c": 1.8360524541520951, "res": 8.0, "count_Flowering Plants": 0, "count_Mammals": 0, "count_Reptiles": 1, "count_Birds": 5, "count_Insects": 0, "count_Ferns": 0, "count_Arachnids": 0, "count_Amphibians": 0, "count_Molluscs": 0, "count_Sac Fungi": 0, "count_Basidiomycota": 0, "unique_species_count": 6.0, "countryCode": "BF" }, "geometry": { "type": "MultiPolygon", "coordinates": [ [ [ [ 2.232327068181132, 11.312414825603252 ], [ 2.240684270285253, 10.779451909909707 ], [ 1.844361076740971, 10.527094724183263 ], [ 1.440608160483976, 10.808571593292738 ], [ 1.433681038833997, 11.344824929032789 ], [ 1.829043447982033, 11.596326166679066 ], [ 2.232327068181132, 11.312414825603252 ] ] ] ] } },
{ "type": "Feature", "properties": { "geogrid_id": "811092765001039123", "seqnum": 14860.0, "lat_c": 11.092764827290591, "lon_c": 1.0391231884551431, "res": 8.0, "count_Flowering Plants": 21, "count_Mammals": 3, "count_Reptiles": 2, "count_Birds": 1, "count_Insects": 0, "count_Ferns": 0, "count_Arachnids": 0, "count_Amphibians": 0, "count_Molluscs": 0, "count_Sac Fungi": 0, "count_Basidiomycota": 0, "unique_species_count": 27.0, "countryCode": "BF" }, "geometry": { "type": "MultiPolygon", "coordinates": [ [ [ [ 1.433681038833997, 11.344824929032789 ], [ 1.440608160483976, 10.808571593292738 ], [ 1.045958293237452, 10.555859567721971 ], [ 0.645335028905203, 10.840138695842105 ], [ 0.640375553106607, 11.3799441424968 ], [ 1.034055962025619, 11.631947686098739 ], [ 1.433681038833997, 11.344824929032789 ] ] ] ] } },
{ "type": "Feature", "properties": { "geogrid_id": "811127340000247437", "seqnum": 14778.0, "lat_c": 11.127340174711669, "lon_c": 0.24743708469505399, "res": 8.0, "count_Flowering Plants": 4, "count_Mammals": 0, "count_Reptiles": 0, "count_Birds": 0, "count_Insects": 0, "count_Ferns": 0, "count_Arachnids": 0, "count_Amphibians": 0, "count_Molluscs": 0, "count_Sac Fungi": 0, "count_Basidiomycota": 0, "unique_species_count": 4.0, "countryCode": "BF" }, "geometry": { "type": "MultiPolygon", "coordinates": [ [ [ [ 0.640375553106607, 11.3799441424968 ], [ 0.645335028905203, 10.840138695842105 ], [ 0.252282799387476, 10.586940802411851 ], [ -0.144791733222306, 10.874132709666464 ], [ -0.147214502715277, 11.417746172161348 ], [ 0.244906701839524, 11.670403845120266 ], [ 0.640375553106607, 11.3799441424968 ] ] ] ] } },
{ "type": "Feature", "properties": { "geogrid_id": "811847277002225247", "seqnum": 14943.0, "lat_c": 11.847277355832102, "lon_c": 2.225246511892391, "res": 8.0, "count_Flowering Plants": 3, "count_Mammals": 0, "count_Reptiles": 0, "count_Birds": 2, "count_Insects": 0, "count_Ferns": 0, "count_Arachnids": 0, "count_Amphibians": 0, "count_Molluscs": 0, "count_Sac Fungi": 0, "count_Basidiomycota": 0, "unique_species_count": 5.0, "countryCode": "BF" }, "geometry": { "type": "MultiPolygon", "coordinates": [ [ [ [ 2.622327687682434, 12.097689217458539 ], [ 2.629469096883545, 11.563568088179396 ], [ 2.232327068181132, 11.312414825603252 ], [ 1.829043447982033, 11.596326166679066 ], [ 1.823777161580982, 12.13417179986032 ], [ 2.219888337376738, 12.384405105416826 ], [ 2.622327687682434, 12.097689217458539 ] ] ] ] } },
{ "type": "Feature", "properties": { "geogrid_id": "811883355001428512", "seqnum": 14861.0, "lat_c": 11.883355043371623, "lon_c": 1.428511655583286, "res": 8.0, "count_Flowering Plants": 46, "count_Mammals": 14, "count_Reptiles": 6, "count_Birds": 47, "count_Insects": 2, "count_Ferns": 0, "count_Arachnids": 0, "count_Amphibians": 2, "count_Molluscs": 1, "count_Sac Fungi": 0, "count_Basidiomycota": 0, "unique_species_count": 118.0, "countryCode": "BF" }, "geometry": { "type": "MultiPolygon", "coordinates": [ [ [ [ 1.823777161580982, 12.13417179986032 ], [ 1.829043447982033, 11.596326166679066 ], [ 1.433681038833997, 11.344824929032789 ], [ 1.034055962025619, 11.631947686098739 ], [ 1.031316913921713, 12.173822553733856 ], [ 1.42566969427102, 12.424587326203593 ], [ 1.823777161580982, 12.13417179986032 ] ] ] ] } },
{ "type": "Feature", "properties": { "geogrid_id": "811922429000637740", "seqnum": 14779.0, "lat_c": 11.92242885511507, "lon_c": 0.63774005559605396, "res": 8.0, "count_Flowering Plants": 47, "count_Mammals": 0, "count_Reptiles": 8, "count_Birds": 6, "count_Insects": 4, "count_Ferns": 0, "count_Arachnids": 0, "count_Amphibians": 2, "count_Molluscs": 0, "count_Sac Fungi": 0, "count_Basidiomycota": 0, "unique_species_count": 67.0, "countryCode": "BF" }, "geometry": { "type": "MultiPolygon", "coordinates": [ [ [ [ 1.031316913921713, 12.173822553733856 ], [ 1.034055962025619, 11.631947686098739 ], [ 0.640375553106607, 11.3799441424968 ], [ 0.244906701839524, 11.670403845120266 ], [ 0.245385366377633, 12.216604379844238 ], [ 0.638140200448438, 12.468080604819955 ], [ 1.031316913921713, 12.173822553733856 ] ] ] ] } },
{ "type": "Feature", "properties": { "geogrid_id": "812674727001820832", "seqnum": 14862.0, "lat_c": 12.674726765015411, "lon_c": 1.8208320216830489, "res": 8.0, "count_Flowering Plants": 7, "count_Mammals": 0, "count_Reptiles": 2, "count_Birds": 1, "count_Insects": 0, "count_Ferns": 0, "count_Arachnids": 0, "count_Amphibians": 0, "count_Molluscs": 0, "count_Sac Fungi": 0, "count_Basidiomycota": 0, "unique_species_count": 10.0, "countryCode": "BF" }, "geometry": { "type": "MultiPolygon", "coordinates": [ [ [ [ 2.216838895817768, 12.924245877532323 ], [ 2.219888337376738, 12.384405105416826 ], [ 1.823777161580982, 12.13417179986032 ], [ 1.42566969427102, 12.424587326203593 ], [ 1.425902645112841, 12.969041749180988 ], [ 1.820973106324337, 13.218528013342 ], [ 2.216838895817768, 12.924245877532323 ] ] ] ] } },
{ "type": "Feature", "properties": { "geogrid_id": "812718893001031636", "seqnum": 14780.0, "lat_c": 12.71889300408276, "lon_c": 1.031635676188124, "res": 8.0, "count_Flowering Plants": 3, "count_Mammals": 0, "count_Reptiles": 0, "count_Birds": 0, "count_Insects": 0, "count_Ferns": 0, "count_Arachnids": 0, "count_Amphibians": 0, "count_Molluscs": 0, "count_Sac Fungi": 0, "count_Basidiomycota": 0, "unique_species_count": 3.0, "countryCode": "BF" }, "geometry": { "type": "MultiPolygon", "coordinates": [ [ [ [ 1.425902645112841, 12.969041749180988 ], [ 1.42566969427102, 12.424587326203593 ], [ 1.031316913921713, 12.173822553733856 ], [ 0.638140200448438, 12.468080604819955 ], [ 0.642507340474484, 13.017494144874693 ], [ 1.035974690692024, 13.267776823953266 ], [ 1.425902645112841, 12.969041749180988 ] ] ] ] } },
{ "type": "Feature", "properties": { "geogrid_id": "812766515000249774", "seqnum": 14698.0, "lat_c": 12.766514685902116, "lon_c": 0.249774198459605, "res": 8.0, "count_Flowering Plants": 2, "count_Mammals": 0, "count_Reptiles": 0, "count_Birds": 0, "count_Insects": 0, "count_Ferns": 0, "count_Arachnids": 0, "count_Amphibians": 0, "count_Molluscs": 0, "count_Sac Fungi": 0, "count_Basidiomycota": 0, "unique_species_count": 2.0, "countryCode": "BF" }, "geometry": { "type": "MultiPolygon", "coordinates": [ [ [ [ 0.642507340474484, 13.017494144874693 ], [ 0.638140200448438, 12.468080604819955 ], [ 0.245385366377633, 12.216604379844238 ], [ -0.142252471355825, 12.514841396793436 ], [ -0.13285801010432, 13.069546724387548 ], [ 0.259258498955154, 13.320835476431055 ], [ 0.642507340474484, 13.017494144874693 ] ] ] ] } },
{ "type": "Feature", "properties": { "geogrid_id": "813571402000652077", "seqnum": 14699.0, "lat_c": 13.571401512242657, "lon_c": 0.65207668561754095, "res": 8.0, "count_Flowering Plants": 0, "count_Mammals": 0, "count_Reptiles": 0, "count_Birds": 1, "count_Insects": 0, "count_Ferns": 0, "count_Arachnids": 0, "count_Amphibians": 0, "count_Molluscs": 0, "count_Sac Fungi": 0, "count_Basidiomycota": 0, "unique_species_count": 1.0, "countryCode": "BF" }, "geometry": { "type": "MultiPolygon", "coordinates": [ [ [ [ 1.045621640482358, 13.821239531006295 ], [ 1.035974690692024, 13.267776823953266 ], [ 0.642507340474484, 13.017494144874693 ], [ 0.259258498955154, 13.320835476431055 ], [ 0.275418982435283, 13.880431637807384 ], [ 0.668510668210459, 14.13071252062403 ], [ 1.045621640482358, 13.821239531006295 ] ] ] ] } },
{ "type": "Feature", "properties": { "geogrid_id": "814446381000300396", "seqnum": 14618.0, "lat_c": 14.446380655723649, "lon_c": 0.30039584477988601, "res": 8.0, "count_Flowering Plants": 18, "count_Mammals": 1, "count_Reptiles": 0, "count_Birds": 0, "count_Insects": 5, "count_Ferns": 0, "count_Arachnids": 0, "count_Amphibians": 0, "count_Molluscs": 0, "count_Sac Fungi": 0, "count_Basidiomycota": 0, "unique_species_count": 24.0, "countryCode": "BF" }, "geometry": { "type": "MultiPolygon", "coordinates": [ [ [ [ 0.694083255491928, 14.696569208575363 ], [ 0.668510668210459, 14.13071252062403 ], [ 0.275418982435283, 13.880431637807384 ], [ -0.092573406325553, 14.195432695326055 ], [ -0.246691421441034, 14.647535631424093 ], [ 0.146947648687886, 14.899000561444232 ], [ 0.694083255491928, 14.696569208575363 ] ] ] ] } }
]
}
