{
"type": "FeatureCollection",
"name": "BJ",
"crs": { "type": "name", "properties": { "name": "urn:ogc:def:crs:OGC:1.3:CRS84" } },
"features": [
{ "type": "Feature", "properties": { "geogrid_id": "806288629002731683", "seqnum": 15264.0, "lat_c": 6.2886292639447907, "lon_c": 2.7316832645773892, "res": 8.0, "count_Basidiomycota": 0, "count_Birds": 146, "count_Mammals": 12, "count_Reptiles": 20, "count_Flowering Plants": 187, "count_Insects": 246, "count_Arachnids": 9, "count_Molluscs": 5, "count_Amphibians": 3, "count_Sac Fungi": 0, "count_Ferns": 1, "unique_species_count": 629.0, "countryCode": "BJ" }, "geometry": { "type": "MultiPolygon", "coordinates": [ [ [ [ 3.129006484459104, 6.545612553210797 ], [ 3.139165518238314, 6.021848114570714 ], [ 2.74195701821183, 5.764359076676562 ], [ 2.335002560381475, 6.031304056565871 ], [ 2.324423746703781, 6.556367043678294 ], [ 2.721189902002596, 6.813174075411658 ], [ 3.129006484459104, 6.545612553210797 ] ] ] ] } },
{ "type": "Feature", "properties": { "geogrid_id": "806299198001928302", "seqnum": 15182.0, "lat_c": 6.2991977408140603, "lon_c": 1.92830186329103, "res": 8.0, "count_Basidiomycota": 1, "count_Birds": 180, "count_Mammals": 8, "count_Reptiles": 13, "count_Flowering Plants": 168, "count_Insects": 106, "count_Arachnids": 6, "count_Molluscs": 22, "count_Amphibians": 3, "count_Sac Fungi": 0, "count_Ferns": 0, "unique_species_count": 507.0, "countryCode": "BJ" }, "geometry": { "type": "MultiPolygon", "coordinates": [ [ [ [ 2.324423746703781, 6.556367043678294 ], [ 2.335002560381475, 6.031304056565871 ], [ 1.938935930753446, 5.773623373287516 ], [ 1.532795094060587, 6.041653569451372 ], [ 1.521963039930005, 6.568136531878747 ], [ 1.91749580495729, 6.82515998684243 ], [ 2.324423746703781, 6.556367043678294 ] ] ] ] } },
{ "type": "Feature", "properties": { "geogrid_id": "807069633003118630", "seqnum": 15265.0, "lat_c": 7.0696329042439636, "lon_c": 3.1186295581682759, "res": 8.0, "count_Basidiomycota": 0, "count_Birds": 0, "count_Mammals": 0, "count_Reptiles": 0, "count_Flowering Plants": 1, "count_Insects": 0, "count_Arachnids": 0, "count_Molluscs": 0, "count_Amphibians": 0, "count_Sac Fungi": 0, "count_Ferns": 0, "unique_species_count": 1.0, "countryCode": "BJ" }, "geometry": { "type": "MultiPolygon", "coordinates": [ [ [ [ 3.516771979851363, 7.325759217307824 ], [ 3.527000632261037, 6.802268998414529 ], [ 3.129006484459104, 6.545612553210797 ], [ 2.721189902002596, 6.813174075411658 ], [ 2.710523817496503, 7.33806999757553 ], [ 3.1080791027184, 7.593984085903736 ], [ 3.516771979851363, 7.325759217307824 ] ] ] ] } },
{ "type": "Feature", "properties": { "geogrid_id": "807081800002313673", "seqnum": 15183.0, "lat_c": 7.0818001472887593, "lon_c": 2.31367274873074, "res": 8.0, "count_Basidiomycota": 3, "count_Birds": 103, "count_Mammals": 24, "count_Reptiles": 22, "count_Flowering Plants": 130, "count_Insects": 111, "count_Arachnids": 3, "count_Molluscs": 3, "count_Amphibians": 4, "count_Sac Fungi": 0, "count_Ferns": 0, "unique_species_count": 403.0, "countryCode": "BJ" }, "geometry": { "type": "MultiPolygon", "coordinates": [ [ [ [ 2.710523817496503, 7.33806999757553 ], [ 2.721189902002596, 6.813174075411658 ], [ 2.324423746703781, 6.556367043678294 ], [ 1.91749580495729, 6.82515998684243 ], [ 1.906579653242899, 7.351599230991781 ], [ 2.302808968513149, 7.607691281650869 ], [ 2.710523817496503, 7.33806999757553 ] ] ] ] } },
{ "type": "Feature", "properties": { "geogrid_id": "807095114001511023", "seqnum": 15101.0, "lat_c": 7.0951140757793034, "lon_c": 1.511023010707762, "res": 8.0, "count_Basidiomycota": 0, "count_Birds": 1, "count_Mammals": 5, "count_Reptiles": 0, "count_Flowering Plants": 7, "count_Insects": 8, "count_Arachnids": 0, "count_Molluscs": 0, "count_Amphibians": 0, "count_Sac Fungi": 0, "count_Ferns": 0, "unique_species_count": 21.0, "countryCode": "BJ" }, "geometry": { "type": "MultiPolygon", "coordinates": [ [ [ [ 1.906579653242899, 7.351599230991781 ], [ 1.91749580495729, 6.82515998684243 ], [ 1.521963039930005, 6.568136531878747 ], [ 1.116108494437767, 6.838223994081273 ], [ 1.10514542622222, 7.366343348199805 ], [ 1.500052281837013, 7.622688184446944 ], [ 1.906579653242899, 7.351599230991781 ] ] ] ] } },
{ "type": "Feature", "properties": { "geogrid_id": "807863404002699742", "seqnum": 15184.0, "lat_c": 7.8634035496457546, "lon_c": 2.699741752846001, "res": 8.0, "count_Basidiomycota": 0, "count_Birds": 11, "count_Mammals": 0, "count_Reptiles": 1, "count_Flowering Plants": 46, "count_Insects": 3, "count_Arachnids": 0, "count_Molluscs": 0, "count_Amphibians": 0, "count_Sac Fungi": 0, "count_Ferns": 0, "unique_species_count": 61.0, "countryCode": "BJ" }, "geometry": { "type": "MultiPolygon", "coordinates": [ [ [ [ 3.097409034731167, 8.11875101737893 ], [ 3.1080791027184, 7.593984085903736 ], [ 2.710523817496503, 7.33806999757553 ], [ 2.302808968513149, 7.607691281650869 ], [ 2.29190444314209, 8.134140348803761 ], [ 2.688912810323708, 8.389273276789602 ], [ 3.097409034731167, 8.11875101737893 ] ] ] ] } },
{ "type": "Feature", "properties": { "geogrid_id": "807878617001895628", "seqnum": 15102.0, "lat_c": 7.8786165151838352, "lon_c": 1.8956281679475191, "res": 8.0, "count_Basidiomycota": 0, "count_Birds": 18, "count_Mammals": 20, "count_Reptiles": 4, "count_Flowering Plants": 56, "count_Insects": 10, "count_Arachnids": 0, "count_Molluscs": 0, "count_Amphibians": 0, "count_Sac Fungi": 0, "count_Ferns": 0, "unique_species_count": 108.0, "countryCode": "BJ" }, "geometry": { "type": "MultiPolygon", "coordinates": [ [ [ [ 2.29190444314209, 8.134140348803761 ], [ 2.302808968513149, 7.607691281650869 ], [ 1.906579653242899, 7.351599230991781 ], [ 1.500052281837013, 7.622688184446944 ], [ 1.48914439548274, 8.150974956803466 ], [ 1.884732214676568, 8.406327153452896 ], [ 2.29190444314209, 8.134140348803761 ] ] ] ] } },
{ "type": "Feature", "properties": { "geogrid_id": "808644031003086685", "seqnum": 15185.0, "lat_c": 8.6440306503354005, "lon_c": 3.086685306330907, "res": 8.0, "count_Basidiomycota": 0, "count_Birds": 0, "count_Mammals": 3, "count_Reptiles": 0, "count_Flowering Plants": 2, "count_Insects": 0, "count_Arachnids": 0, "count_Molluscs": 0, "count_Amphibians": 0, "count_Sac Fungi": 0, "count_Ferns": 0, "unique_species_count": 5.0, "countryCode": "BJ" }, "geometry": { "type": "MultiPolygon", "coordinates": [ [ [ [ 3.485254281997602, 8.898429780333695 ], [ 3.495842047517054, 8.373750508701157 ], [ 3.097409034731167, 8.11875101737893 ], [ 2.688912810323708, 8.389273276789602 ], [ 2.678121708637041, 8.915792229120941 ], [ 3.075989148049124, 9.169934507470312 ], [ 3.485254281997602, 8.898429780333695 ] ] ] ] } },
{ "type": "Feature", "properties": { "geogrid_id": "808661262002281047", "seqnum": 15103.0, "lat_c": 8.6612616542751866, "lon_c": 2.2810471003424002, "res": 8.0, "count_Basidiomycota": 1, "count_Birds": 1, "count_Mammals": 17, "count_Reptiles": 0, "count_Flowering Plants": 69, "count_Insects": 6, "count_Arachnids": 2, "count_Molluscs": 0, "count_Amphibians": 0, "count_Sac Fungi": 0, "count_Ferns": 0, "unique_species_count": 96.0, "countryCode": "BJ" }, "geometry": { "type": "MultiPolygon", "coordinates": [ [ [ [ 2.678121708637041, 8.915792229120941 ], [ 2.688912810323708, 8.389273276789602 ], [ 2.29190444314209, 8.134140348803761 ], [ 1.884732214676568, 8.406327153452896 ], [ 1.874002974209023, 8.93486364903406 ], [ 2.270345006324168, 9.189186920090147 ], [ 2.678121708637041, 8.915792229120941 ] ] ] ] } },
{ "type": "Feature", "properties": { "geogrid_id": "808680107001478413", "seqnum": 15021.0, "lat_c": 8.6801074278541961, "lon_c": 1.478413319400071, "res": 8.0, "count_Basidiomycota": 1, "count_Birds": 16, "count_Mammals": 13, "count_Reptiles": 6, "count_Flowering Plants": 18, "count_Insects": 9, "count_Arachnids": 1, "count_Molluscs": 0, "count_Amphibians": 0, "count_Sac Fungi": 0, "count_Ferns": 1, "unique_species_count": 65.0, "countryCode": "BJ" }, "geometry": { "type": "MultiPolygon", "coordinates": [ [ [ [ 1.874002974209023, 8.93486364903406 ], [ 1.884732214676568, 8.406327153452896 ], [ 1.48914439548274, 8.150974956803466 ], [ 1.083542978821401, 8.424906173673907 ], [ 1.073162277152769, 8.955636369916823 ], [ 1.467998865904556, 9.210239079244705 ], [ 1.874002974209023, 8.93486364903406 ] ] ] ] } },
{ "type": "Feature", "properties": { "geogrid_id": "809423706003474683", "seqnum": 15186.0, "lat_c": 9.4237061992660696, "lon_c": 3.4746829697743271, "res": 8.0, "count_Basidiomycota": 0, "count_Birds": 0, "count_Mammals": 0, "count_Reptiles": 0, "count_Flowering Plants": 2, "count_Insects": 0, "count_Arachnids": 0, "count_Molluscs": 0, "count_Amphibians": 0, "count_Sac Fungi": 0, "count_Ferns": 0, "unique_species_count": 2.0, "countryCode": "BJ" }, "geometry": { "type": "MultiPolygon", "coordinates": [ [ [ [ 3.874237146032319, 9.677127346867605 ], [ 3.884652369952912, 9.152490164316779 ], [ 3.485254281997602, 8.898429780333695 ], [ 3.075989148049124, 9.169934507470312 ], [ 3.065421348753398, 9.696591880583972 ], [ 3.464224708853462, 9.949707341699291 ], [ 3.874237146032319, 9.677127346867605 ] ] ] ] } },
{ "type": "Feature", "properties": { "geogrid_id": "809443091002667473", "seqnum": 15104.0, "lat_c": 9.4430910688200047, "lon_c": 2.6674730550913601, "res": 8.0, "count_Basidiomycota": 3, "count_Birds": 20, "count_Mammals": 5, "count_Reptiles": 3, "count_Flowering Plants": 227, "count_Insects": 38, "count_Arachnids": 1, "count_Molluscs": 1, "count_Amphibians": 0, "count_Sac Fungi": 0, "count_Ferns": 0, "unique_species_count": 298.0, "countryCode": "BJ" }, "geometry": { "type": "MultiPolygon", "coordinates": [ [ [ [ 3.065421348753398, 9.696591880583972 ], [ 3.075989148049124, 9.169934507470312 ], [ 2.678121708637041, 8.915792229120941 ], [ 2.270345006324168, 9.189186920090147 ], [ 2.259931964037049, 9.718069072426715 ], [ 2.657097010073592, 9.971321996845203 ], [ 3.065421348753398, 9.696591880583972 ] ] ] ] } },
{ "type": "Feature", "properties": { "geogrid_id": "809464379001863577", "seqnum": 15022.0, "lat_c": 9.4643793428837917, "lon_c": 1.863577457918171, "res": 8.0, "count_Basidiomycota": 4, "count_Birds": 12, "count_Mammals": 22, "count_Reptiles": 0, "count_Flowering Plants": 82, "count_Insects": 29, "count_Arachnids": 0, "count_Molluscs": 0, "count_Amphibians": 0, "count_Sac Fungi": 0, "count_Ferns": 0, "unique_species_count": 149.0, "countryCode": "BJ" }, "geometry": { "type": "MultiPolygon", "coordinates": [ [ [ [ 2.259931964037049, 9.718069072426715 ], [ 2.270345006324168, 9.189186920090147 ], [ 1.874002974209023, 8.93486364903406 ], [ 1.467998865904556, 9.210239079244705 ], [ 1.458073822525241, 9.741548241859917 ], [ 1.853625809182644, 9.99505301338373 ], [ 2.259931964037049, 9.718069072426715 ] ] ] ] } },
{ "type": "Feature", "properties": { "geogrid_id": "809487561001063284", "seqnum": 14940.0, "lat_c": 9.4875611777952109, "lon_c": 1.0632843039984601, "res": 8.0, "count_Basidiomycota": 0, "count_Birds": 0, "count_Mammals": 0, "count_Reptiles": 0, "count_Flowering Plants": 2, "count_Insects": 4, "count_Arachnids": 0, "count_Molluscs": 0, "count_Amphibians": 0, "count_Sac Fungi": 0, "count_Ferns": 0, "unique_species_count": 6.0, "countryCode": "BJ" }, "geometry": { "type": "MultiPolygon", "coordinates": [ [ [ [ 1.458073822525241, 9.741548241859917 ], [ 1.467998865904556, 9.210239079244705 ], [ 1.073162277152769, 8.955636369916823 ], [ 0.669223361625742, 9.233081930299202 ], [ 0.66014418246479, 9.767017780583302 ], [ 1.054125949460879, 10.020887768920744 ], [ 1.458073822525241, 9.741548241859917 ] ] ] ] } },
{ "type": "Feature", "properties": { "geogrid_id": "810202458003863919", "seqnum": 15187.0, "lat_c": 10.202457918780759, "lon_c": 3.8639185433598739, "res": 8.0, "count_Basidiomycota": 0, "count_Birds": 0, "count_Mammals": 0, "count_Reptiles": 0, "count_Flowering Plants": 3, "count_Insects": 0, "count_Arachnids": 0, "count_Molluscs": 0, "count_Amphibians": 0, "count_Sac Fungi": 0, "count_Ferns": 0, "unique_species_count": 3.0, "countryCode": "BJ" }, "geometry": { "type": "MultiPolygon", "coordinates": [ [ [ [ 4.26453882451581, 10.454866880235258 ], [ 4.274686032597069, 9.930220613238173 ], [ 3.874237146032319, 9.677127346867605 ], [ 3.464224708853462, 9.949707341699291 ], [ 3.454000970927579, 10.476582861449074 ], [ 3.853812942535892, 10.728629618574351 ], [ 4.26453882451581, 10.454866880235258 ] ] ] ] } },
{ "type": "Feature", "properties": { "geogrid_id": "810224154003055108", "seqnum": 15105.0, "lat_c": 10.224153894678196, "lon_c": 3.0551079663924972, "res": 8.0, "count_Basidiomycota": 0, "count_Birds": 1, "count_Mammals": 0, "count_Reptiles": 3, "count_Flowering Plants": 35, "count_Insects": 9, "count_Arachnids": 2, "count_Molluscs": 0, "count_Amphibians": 0, "count_Sac Fungi": 0, "count_Ferns": 0, "unique_species_count": 50.0, "countryCode": "BJ" }, "geometry": { "type": "MultiPolygon", "coordinates": [ [ [ [ 3.454000970927579, 10.476582861449074 ], [ 3.464224708853462, 9.949707341699291 ], [ 3.065421348753398, 9.696591880583972 ], [ 2.657097010073592, 9.971321996845203 ], [ 2.647156882813534, 10.500663759299254 ], [ 3.045208038569201, 10.752798720772352 ], [ 3.454000970927579, 10.476582861449074 ] ] ] ] } },
{ "type": "Feature", "properties": { "geogrid_id": "810248087002249975", "seqnum": 15023.0, "lat_c": 10.248087043018844, "lon_c": 2.249974970976278, "res": 8.0, "count_Basidiomycota": 0, "count_Birds": 15, "count_Mammals": 1, "count_Reptiles": 1, "count_Flowering Plants": 47, "count_Insects": 7, "count_Arachnids": 0, "count_Molluscs": 0, "count_Amphibians": 0, "count_Sac Fungi": 0, "count_Ferns": 0, "unique_species_count": 71.0, "countryCode": "BJ" }, "geometry": { "type": "MultiPolygon", "coordinates": [ [ [ [ 2.647156882813534, 10.500663759299254 ], [ 2.657097010073592, 9.971321996845203 ], [ 2.259931964037049, 9.718069072426715 ], [ 1.853625809182644, 9.99505301338373 ], [ 1.844361076740971, 10.527094724183263 ], [ 2.240684270285253, 10.779451909909707 ], [ 2.647156882813534, 10.500663759299254 ] ] ] ] } },
{ "type": "Feature", "properties": { "geogrid_id": "810274244001448853", "seqnum": 14941.0, "lat_c": 10.274243661351194, "lon_c": 1.448853434678514, "res": 8.0, "count_Basidiomycota": 7, "count_Birds": 90, "count_Mammals": 13, "count_Reptiles": 18, "count_Flowering Plants": 308, "count_Insects": 140, "count_Arachnids": 5, "count_Molluscs": 1, "count_Amphibians": 6, "count_Sac Fungi": 13, "count_Ferns": 0, "unique_species_count": 601.0, "countryCode": "BJ" }, "geometry": { "type": "MultiPolygon", "coordinates": [ [ [ [ 1.844361076740971, 10.527094724183263 ], [ 1.853625809182644, 9.99505301338373 ], [ 1.458073822525241, 9.741548241859917 ], [ 1.054125949460879, 10.020887768920744 ], [ 1.045958293237452, 10.555859567721971 ], [ 1.440608160483976, 10.808571593292738 ], [ 1.844361076740971, 10.527094724183263 ] ] ] ] } },
{ "type": "Feature", "properties": { "geogrid_id": "810302609000652068", "seqnum": 14859.0, "lat_c": 10.302608873498539, "lon_c": 0.65206805594528605, "res": 8.0, "count_Basidiomycota": 0, "count_Birds": 0, "count_Mammals": 0, "count_Reptiles": 1, "count_Flowering Plants": 1, "count_Insects": 0, "count_Arachnids": 0, "count_Molluscs": 0, "count_Amphibians": 0, "count_Sac Fungi": 0, "count_Ferns": 0, "unique_species_count": 2.0, "countryCode": "BJ" }, "geometry": { "type": "MultiPolygon", "coordinates": [ [ [ [ 1.045958293237452, 10.555859567721971 ], [ 1.054125949460879, 10.020887768920744 ], [ 0.66014418246479, 9.767017780583302 ], [ 0.258903653633104, 10.048812611107794 ], [ 0.252282799387476, 10.586940802411851 ], [ 0.645335028905203, 10.840138695842105 ], [ 1.045958293237452, 10.555859567721971 ] ] ] ] } },
{ "type": "Feature", "properties": { "geogrid_id": "811004510003444166", "seqnum": 15106.0, "lat_c": 11.004509908366595, "lon_c": 3.444165898234353, "res": 8.0, "count_Basidiomycota": 1, "count_Birds": 0, "count_Mammals": 0, "count_Reptiles": 0, "count_Flowering Plants": 12, "count_Insects": 1, "count_Arachnids": 0, "count_Molluscs": 0, "count_Amphibians": 0, "count_Sac Fungi": 0, "count_Ferns": 0, "unique_species_count": 14.0, "countryCode": "BJ" }, "geometry": { "type": "MultiPolygon", "coordinates": [ [ [ [ 3.844068928194311, 11.25581806554184 ], [ 3.853812942535892, 10.728629618574351 ], [ 3.454000970927579, 10.476582861449074 ], [ 3.045208038569201, 10.752798720772352 ], [ 3.035924127593289, 11.282738328823475 ], [ 3.434917050773077, 11.533700196204501 ], [ 3.844068928194311, 11.25581806554184 ] ] ] ] } },
{ "type": "Feature", "properties": { "geogrid_id": "811031328002637859", "seqnum": 15024.0, "lat_c": 11.031328090471577, "lon_c": 2.6378594418687502, "res": 8.0, "count_Basidiomycota": 0, "count_Birds": 23, "count_Mammals": 2, "count_Reptiles": 1, "count_Flowering Plants": 101, "count_Insects": 17, "count_Arachnids": 1, "count_Molluscs": 0, "count_Amphibians": 2, "count_Sac Fungi": 0, "count_Ferns": 0, "unique_species_count": 147.0, "countryCode": "BJ" }, "geometry": { "type": "MultiPolygon", "coordinates": [ [ [ [ 3.035924127593289, 11.282738328823475 ], [ 3.045208038569201, 10.752798720772352 ], [ 2.647156882813534, 10.500663759299254 ], [ 2.240684270285253, 10.779451909909707 ], [ 2.232327068181132, 11.312414825603252 ], [ 2.629469096883545, 11.563568088179396 ], [ 3.035924127593289, 11.282738328823475 ] ] ] ] } },
{ "type": "Feature", "properties": { "geogrid_id": "811060753001836052", "seqnum": 14942.0, "lat_c": 11.060753325397341, "lon_c": 1.8360524541520951, "res": 8.0, "count_Basidiomycota": 0, "count_Birds": 124, "count_Mammals": 27, "count_Reptiles": 12, "count_Flowering Plants": 157, "count_Insects": 50, "count_Arachnids": 1, "count_Molluscs": 0, "count_Amphibians": 1, "count_Sac Fungi": 0, "count_Ferns": 0, "unique_species_count": 372.0, "countryCode": "BJ" }, "geometry": { "type": "MultiPolygon", "coordinates": [ [ [ [ 2.232327068181132, 11.312414825603252 ], [ 2.240684270285253, 10.779451909909707 ], [ 1.844361076740971, 10.527094724183263 ], [ 1.440608160483976, 10.808571593292738 ], [ 1.433681038833997, 11.344824929032789 ], [ 1.829043447982033, 11.596326166679066 ], [ 2.232327068181132, 11.312414825603252 ] ] ] ] } },
{ "type": "Feature", "properties": { "geogrid_id": "811092765001039123", "seqnum": 14860.0, "lat_c": 11.092764827290591, "lon_c": 1.0391231884551431, "res": 8.0, "count_Basidiomycota": 0, "count_Birds": 104, "count_Mammals": 17, "count_Reptiles": 10, "count_Flowering Plants": 93, "count_Insects": 52, "count_Arachnids": 2, "count_Molluscs": 2, "count_Amphibians": 2, "count_Sac Fungi": 0, "count_Ferns": 1, "unique_species_count": 283.0, "countryCode": "BJ" }, "geometry": { "type": "MultiPolygon", "coordinates": [ [ [ [ 1.433681038833997, 11.344824929032789 ], [ 1.440608160483976, 10.808571593292738 ], [ 1.045958293237452, 10.555859567721971 ], [ 0.645335028905203, 10.840138695842105 ], [ 0.640375553106607, 11.3799441424968 ], [ 1.034055962025619, 11.631947686098739 ], [ 1.433681038833997, 11.344824929032789 ] ] ] ] } },
{ "type": "Feature", "properties": { "geogrid_id": "811784234003834878", "seqnum": 15107.0, "lat_c": 11.784234144184895, "lon_c": 3.8348781971252981, "res": 8.0, "count_Basidiomycota": 0, "count_Birds": 0, "count_Mammals": 2, "count_Reptiles": 0, "count_Flowering Plants": 0, "count_Insects": 0, "count_Arachnids": 0, "count_Molluscs": 0, "count_Amphibians": 0, "count_Sac Fungi": 0, "count_Ferns": 0, "unique_species_count": 2.0, "countryCode": "BJ" }, "geometry": { "type": "MultiPolygon", "coordinates": [ [ [ [ 4.235848883768157, 12.034363942652529 ], [ 4.244956630530086, 11.50674709541105 ], [ 3.844068928194311, 11.25581806554184 ], [ 3.434917050773077, 11.533700196204501 ], [ 3.426510439775132, 12.064409326650239 ], [ 3.826490956147795, 12.314133823953599 ], [ 4.235848883768157, 12.034363942652529 ] ] ] ] } },
{ "type": "Feature", "properties": { "geogrid_id": "811814227003027517", "seqnum": 15025.0, "lat_c": 11.814227329124593, "lon_c": 3.0275169443931449, "res": 8.0, "count_Basidiomycota": 0, "count_Birds": 29, "count_Mammals": 5, "count_Reptiles": 2, "count_Flowering Plants": 47, "count_Insects": 17, "count_Arachnids": 0, "count_Molluscs": 0, "count_Amphibians": 0, "count_Sac Fungi": 0, "count_Ferns": 0, "unique_species_count": 100.0, "countryCode": "BJ" }, "geometry": { "type": "MultiPolygon", "coordinates": [ [ [ [ 3.426510439775132, 12.064409326650239 ], [ 3.434917050773077, 11.533700196204501 ], [ 3.035924127593289, 11.282738328823475 ], [ 2.629469096883545, 11.563568088179396 ], [ 2.622327687682434, 12.097689217458539 ], [ 3.020325939519224, 12.347574680156782 ], [ 3.426510439775132, 12.064409326650239 ] ] ] ] } },
{ "type": "Feature", "properties": { "geogrid_id": "811847277002225247", "seqnum": 14943.0, "lat_c": 11.847277355832102, "lon_c": 2.225246511892391, "res": 8.0, "count_Basidiomycota": 0, "count_Birds": 12, "count_Mammals": 9, "count_Reptiles": 1, "count_Flowering Plants": 4, "count_Insects": 1, "count_Arachnids": 0, "count_Molluscs": 0, "count_Amphibians": 0, "count_Sac Fungi": 0, "count_Ferns": 0, "unique_species_count": 27.0, "countryCode": "BJ" }, "geometry": { "type": "MultiPolygon", "coordinates": [ [ [ [ 2.622327687682434, 12.097689217458539 ], [ 2.629469096883545, 11.563568088179396 ], [ 2.232327068181132, 11.312414825603252 ], [ 1.829043447982033, 11.596326166679066 ], [ 1.823777161580982, 12.13417179986032 ], [ 2.219888337376738, 12.384405105416826 ], [ 2.622327687682434, 12.097689217458539 ] ] ] ] } },
{ "type": "Feature", "properties": { "geogrid_id": "811883355001428512", "seqnum": 14861.0, "lat_c": 11.883355043371623, "lon_c": 1.428511655583286, "res": 8.0, "count_Basidiomycota": 0, "count_Birds": 19, "count_Mammals": 4, "count_Reptiles": 0, "count_Flowering Plants": 3, "count_Insects": 0, "count_Arachnids": 0, "count_Molluscs": 0, "count_Amphibians": 0, "count_Sac Fungi": 0, "count_Ferns": 0, "unique_species_count": 26.0, "countryCode": "BJ" }, "geometry": { "type": "MultiPolygon", "coordinates": [ [ [ [ 1.823777161580982, 12.13417179986032 ], [ 1.829043447982033, 11.596326166679066 ], [ 1.433681038833997, 11.344824929032789 ], [ 1.034055962025619, 11.631947686098739 ], [ 1.031316913921713, 12.173822553733856 ], [ 1.42566969427102, 12.424587326203593 ], [ 1.823777161580982, 12.13417179986032 ] ] ] ] } }
]
}
