{
"type": "FeatureCollection",
"name": "BO",
"crs": { "type": "name", "properties": { "name": "urn:ogc:def:crs:OGC:1.3:CRS84" } },
"features": [
{ "type": "Feature", "properties": { "geogrid_id": "7309545196065039186", "seqnum": 3841.0, "lat_c": -9.5451962346480226, "lon_c": -65.039185765687989, "res": 7.0, "count_Mosses": 1, "count_Birds": 26, "count_Amphibians": 0, "count_Arachnids": 0, "count_Flowering Plants": 72, "count_Mammals": 1, "count_Insects": 14, "count_Molluscs": 0, "count_Reptiles": 0, "count_Ferns": 0, "count_Gymnosperms": 0, "count_Basidiomycota": 1, "count_Sac Fungi": 1, "unique_species_count": 116.0, "countryCode": "BO" }, "geometry": { "type": "MultiPolygon", "coordinates": [ [ [ [ -64.243968581280072, -9.11999136844314 ], [ -64.149176750654533, -9.865236513714793 ], [ -64.952008876313499, -10.298733970090483 ], [ -65.832942541400342, -9.9650335651618 ], [ -65.907397541048169, -9.197372733811346 ], [ -65.119794906135112, -8.782741441519471 ], [ -64.243968581280072, -9.11999136844314 ] ] ] ] } },
{ "type": "Feature", "properties": { "geogrid_id": "7309608984066695026", "seqnum": 3814.0, "lat_c": -9.6089841175197535, "lon_c": -66.69502609969733, "res": 7.0, "count_Mosses": 0, "count_Birds": 0, "count_Amphibians": 1, "count_Arachnids": 1, "count_Flowering Plants": 2, "count_Mammals": 0, "count_Insects": 7, "count_Molluscs": 2, "count_Reptiles": 1, "count_Ferns": 0, "count_Gymnosperms": 0, "count_Basidiomycota": 0, "count_Sac Fungi": 1, "unique_species_count": 15.0, "countryCode": "BO" }, "geometry": { "type": "MultiPolygon", "coordinates": [ [ [ [ -65.907397541048169, -9.197372733811346 ], [ -65.832942541400342, -9.9650335651618 ], [ -66.626188599275167, -10.380767010983941 ], [ -67.48325205109748, -10.0181190969305 ], [ -67.54204889204776, -9.237530933547982 ], [ -66.758496134771264, -8.830956956233981 ], [ -65.907397541048169, -9.197372733811346 ] ] ] ] } },
{ "type": "Feature", "properties": { "geogrid_id": "7310725022065752572", "seqnum": 3868.0, "lat_c": -10.725021707401044, "lon_c": -65.752571650829793, "res": 7.0, "count_Mosses": 5, "count_Birds": 483, "count_Amphibians": 76, "count_Arachnids": 47, "count_Flowering Plants": 353, "count_Mammals": 75, "count_Insects": 564, "count_Molluscs": 13, "count_Reptiles": 84, "count_Ferns": 3, "count_Gymnosperms": 0, "count_Basidiomycota": 25, "count_Sac Fungi": 2, "unique_species_count": 1730.0, "countryCode": "BO" }, "geometry": { "type": "MultiPolygon", "coordinates": [ [ [ [ -64.952008876313499, -10.298733970090483 ], [ -64.858369784274615, -11.042795139837185 ], [ -65.666352252768831, -11.476857955144681 ], [ -66.552021260980325, -11.145873974640056 ], [ -66.626188599275167, -10.380767010983941 ], [ -65.832942541400342, -9.9650335651618 ], [ -64.952008876313499, -10.298733970090483 ] ] ] ] } },
{ "type": "Feature", "properties": { "geogrid_id": "7310793216067419637", "seqnum": 3840.0, "lat_c": -10.793215621947619, "lon_c": -67.41963657698372, "res": 7.0, "count_Mosses": 3, "count_Birds": 43, "count_Amphibians": 5, "count_Arachnids": 0, "count_Flowering Plants": 16, "count_Mammals": 15, "count_Insects": 6, "count_Molluscs": 1, "count_Reptiles": 21, "count_Ferns": 1, "count_Gymnosperms": 0, "count_Basidiomycota": 3, "count_Sac Fungi": 1, "unique_species_count": 115.0, "countryCode": "BO" }, "geometry": { "type": "MultiPolygon", "coordinates": [ [ [ [ -66.626188599275167, -10.380767010983941 ], [ -66.552021260980325, -11.145873974640056 ], [ -67.351222235884165, -11.562449419261879 ], [ -68.213841828868794, -11.202923671280631 ], [ -68.272525982097946, -10.425133129008165 ], [ -67.48325205109748, -10.0181190969305 ], [ -66.626188599275167, -10.380767010983941 ] ] ] ] } },
{ "type": "Feature", "properties": { "geogrid_id": "7310830261069063217", "seqnum": 3813.0, "lat_c": -10.830260674639915, "lon_c": -69.063216515367671, "res": 7.0, "count_Mosses": 3, "count_Birds": 128, "count_Amphibians": 17, "count_Arachnids": 13, "count_Flowering Plants": 137, "count_Mammals": 37, "count_Insects": 69, "count_Molluscs": 1, "count_Reptiles": 20, "count_Ferns": 1, "count_Gymnosperms": 0, "count_Basidiomycota": 1, "count_Sac Fungi": 3, "unique_species_count": 430.0, "countryCode": "BO" }, "geometry": { "type": "MultiPolygon", "coordinates": [ [ [ [ -68.272525982097946, -10.425133129008165 ], [ -68.213841828868794, -11.202923671280631 ], [ -69.009252339196408, -11.610258705320794 ], [ -69.85563526827805, -11.23365553895062 ], [ -69.901584979255333, -10.447944393567974 ], [ -69.113315397626891, -10.045919755274459 ], [ -68.272525982097946, -10.425133129008165 ] ] ] ] } },
{ "type": "Feature", "properties": { "geogrid_id": "7311776858064758381", "seqnum": 3922.0, "lat_c": -11.776858320362289, "lon_c": -64.758380595710292, "res": 7.0, "count_Mosses": 0, "count_Birds": 5, "count_Amphibians": 0, "count_Arachnids": 0, "count_Flowering Plants": 0, "count_Mammals": 1, "count_Insects": 0, "count_Molluscs": 0, "count_Reptiles": 0, "count_Ferns": 0, "count_Gymnosperms": 0, "count_Basidiomycota": 0, "count_Sac Fungi": 0, "unique_species_count": 6.0, "countryCode": "BO" }, "geometry": { "type": "MultiPolygon", "coordinates": [ [ [ [ -64.052598750195912, -11.511114506472524 ], [ -64.054145108417814, -12.414635512452861 ], [ -64.767471609564183, -12.689773241561118 ], [ -65.574356186856889, -12.220090427381079 ], [ -65.666352252768831, -11.476857955144681 ], [ -64.858369784274615, -11.042795139837185 ], [ -64.052598750195912, -11.511114506472524 ] ] ] ] } },
{ "type": "Feature", "properties": { "geogrid_id": "7311903893066472565", "seqnum": 3895.0, "lat_c": -11.903892616930866, "lon_c": -66.472564594773715, "res": 7.0, "count_Mosses": 0, "count_Birds": 160, "count_Amphibians": 21, "count_Arachnids": 6, "count_Flowering Plants": 43, "count_Mammals": 33, "count_Insects": 48, "count_Molluscs": 1, "count_Reptiles": 15, "count_Ferns": 1, "count_Gymnosperms": 0, "count_Basidiomycota": 0, "count_Sac Fungi": 0, "unique_species_count": 328.0, "countryCode": "BO" }, "geometry": { "type": "MultiPolygon", "coordinates": [ [ [ [ -65.666352252768831, -11.476857955144681 ], [ -65.574356186856889, -12.220090427381079 ], [ -66.387861957856884, -12.654430589237201 ], [ -67.278030416855771, -12.325463786018336 ], [ -67.351222235884165, -11.562449419261879 ], [ -66.552021260980325, -11.145873974640056 ], [ -65.666352252768831, -11.476857955144681 ] ] ] ] } },
{ "type": "Feature", "properties": { "geogrid_id": "7311975526068150844", "seqnum": 3867.0, "lat_c": -11.975525566635543, "lon_c": -68.150843803335292, "res": 7.0, "count_Mosses": 0, "count_Birds": 18, "count_Amphibians": 1, "count_Arachnids": 2, "count_Flowering Plants": 9, "count_Mammals": 22, "count_Insects": 8, "count_Molluscs": 0, "count_Reptiles": 2, "count_Ferns": 0, "count_Gymnosperms": 0, "count_Basidiomycota": 0, "count_Sac Fungi": 0, "unique_species_count": 62.0, "countryCode": "BO" }, "geometry": { "type": "MultiPolygon", "coordinates": [ [ [ [ -67.351222235884165, -11.562449419261879 ], [ -67.278030416855771, -12.325463786018336 ], [ -68.083539649900572, -12.742628748054445 ], [ -68.951420881802363, -12.385634638853249 ], [ -69.009252339196408, -11.610258705320794 ], [ -68.213841828868794, -11.202923671280631 ], [ -67.351222235884165, -11.562449419261879 ] ] ] ] } },
{ "type": "Feature", "properties": { "geogrid_id": "7312015471069806241", "seqnum": 3839.0, "lat_c": -12.015470617315684, "lon_c": -69.806240976912079, "res": 7.0, "count_Mosses": 0, "count_Birds": 5, "count_Amphibians": 0, "count_Arachnids": 0, "count_Flowering Plants": 0, "count_Mammals": 1, "count_Insects": 0, "count_Molluscs": 0, "count_Reptiles": 0, "count_Ferns": 0, "count_Gymnosperms": 0, "count_Basidiomycota": 0, "count_Sac Fungi": 0, "unique_species_count": 6.0, "countryCode": "BO" }, "geometry": { "type": "MultiPolygon", "coordinates": [ [ [ [ -69.009252339196408, -11.610258705320794 ], [ -68.951420881802363, -12.385634638853249 ], [ -69.753393845931811, -12.793145569301172 ], [ -70.605126942052223, -12.418728562277169 ], [ -70.65005334923633, -11.635416057004345 ], [ -69.85563526827805, -11.23365553895062 ], [ -69.009252339196408, -11.610258705320794 ] ] ] ] } },
{ "type": "Feature", "properties": { "geogrid_id": "7312954295065476660", "seqnum": 3949.0, "lat_c": -12.954295354140797, "lon_c": -65.476659590660717, "res": 7.0, "count_Mosses": 0, "count_Birds": 50, "count_Amphibians": 3, "count_Arachnids": 0, "count_Flowering Plants": 8, "count_Mammals": 50, "count_Insects": 3, "count_Molluscs": 0, "count_Reptiles": 8, "count_Ferns": 0, "count_Gymnosperms": 0, "count_Basidiomycota": 0, "count_Sac Fungi": 0, "unique_species_count": 122.0, "countryCode": "BO" }, "geometry": { "type": "MultiPolygon", "coordinates": [ [ [ [ -64.767471609564183, -12.689773241561118 ], [ -64.773222922883718, -13.59515209654432 ], [ -65.489870128196515, -13.868302245021967 ], [ -66.297959515067575, -13.397116231785075 ], [ -66.387861957856884, -12.654430589237201 ], [ -65.574356186856889, -12.220090427381079 ], [ -64.767471609564183, -12.689773241561118 ] ] ] ] } },
{ "type": "Feature", "properties": { "geogrid_id": "7313081917067200084", "seqnum": 3921.0, "lat_c": -13.081917006064129, "lon_c": -67.200084148010561, "res": 7.0, "count_Mosses": 0, "count_Birds": 40, "count_Amphibians": 8, "count_Arachnids": 1, "count_Flowering Plants": 14, "count_Mammals": 13, "count_Insects": 4, "count_Molluscs": 0, "count_Reptiles": 2, "count_Ferns": 0, "count_Gymnosperms": 0, "count_Basidiomycota": 0, "count_Sac Fungi": 0, "unique_species_count": 82.0, "countryCode": "BO" }, "geometry": { "type": "MultiPolygon", "coordinates": [ [ [ [ -66.387861957856884, -12.654430589237201 ], [ -66.297959515067575, -13.397116231785075 ], [ -67.117408111747608, -13.831482868371426 ], [ -68.011937857906744, -13.503934544067347 ], [ -68.083539649900572, -12.742628748054445 ], [ -67.278030416855771, -12.325463786018336 ], [ -66.387861957856884, -12.654430589237201 ] ] ] ] } },
{ "type": "Feature", "properties": { "geogrid_id": "7313156118068889720", "seqnum": 3894.0, "lat_c": -13.156117696821635, "lon_c": -68.889720212462336, "res": 7.0, "count_Mosses": 0, "count_Birds": 52, "count_Amphibians": 13, "count_Arachnids": 6, "count_Flowering Plants": 17, "count_Mammals": 12, "count_Insects": 57, "count_Molluscs": 1, "count_Reptiles": 12, "count_Ferns": 2, "count_Gymnosperms": 0, "count_Basidiomycota": 4, "count_Sac Fungi": 0, "unique_species_count": 176.0, "countryCode": "BO" }, "geometry": { "type": "MultiPolygon", "coordinates": [ [ [ [ -68.083539649900572, -12.742628748054445 ], [ -68.011937857906744, -13.503934544067347 ], [ -68.824148494810984, -13.921445894977412 ], [ -69.697085216536948, -13.566442926738125 ], [ -69.753393845931811, -12.793145569301172 ], [ -68.951420881802363, -12.385634638853249 ], [ -68.083539649900572, -12.742628748054445 ] ] ] ] } },
{ "type": "Feature", "properties": { "geogrid_id": "7313312214064053395", "seqnum": 3977.0, "lat_c": -13.31221404352935, "lon_c": -64.053394818845518, "res": 7.0, "count_Mosses": 0, "count_Birds": 58, "count_Amphibians": 2, "count_Arachnids": 0, "count_Flowering Plants": 7, "count_Mammals": 26, "count_Insects": 8, "count_Molluscs": 1, "count_Reptiles": 6, "count_Ferns": 0, "count_Gymnosperms": 0, "count_Basidiomycota": 0, "count_Sac Fungi": 2, "unique_species_count": 110.0, "countryCode": "BO" }, "geometry": { "type": "MultiPolygon", "coordinates": [ [ [ [ -63.330827366059339, -13.01957433563609 ], [ -63.323695943237148, -13.906957879941169 ], [ -64.051321031251646, -14.205474607343074 ], [ -64.773222922883718, -13.59515209654432 ], [ -64.767471609564183, -12.689773241561118 ], [ -64.054145108417814, -12.414635512452861 ], [ -63.330827366059339, -13.01957433563609 ] ] ] ] } },
{ "type": "Feature", "properties": { "geogrid_id": "7313599550062594461", "seqnum": 4004.0, "lat_c": -13.599549632307619, "lon_c": -62.594460711138161, "res": 7.0, "count_Mosses": 1, "count_Birds": 3, "count_Amphibians": 0, "count_Arachnids": 0, "count_Flowering Plants": 4, "count_Mammals": 4, "count_Insects": 2, "count_Molluscs": 0, "count_Reptiles": 2, "count_Ferns": 0, "count_Gymnosperms": 0, "count_Basidiomycota": 0, "count_Sac Fungi": 0, "unique_species_count": 16.0, "countryCode": "BO" }, "geometry": { "type": "MultiPolygon", "coordinates": [ [ [ [ -61.864012256823024, -13.283374977886895 ], [ -61.848844694449028, -14.160173888320426 ], [ -62.582897372315671, -14.480195261146646 ], [ -63.323695943237148, -13.906957879941169 ], [ -63.330827366059339, -13.01957433563609 ], [ -62.605972161363546, -12.717340341787608 ], [ -61.864012256823024, -13.283374977886895 ] ] ] ] } },
{ "type": "Feature", "properties": { "geogrid_id": "7313832111061114443", "seqnum": 4032.0, "lat_c": -13.832111379200011, "lon_c": -61.114443388390953, "res": 7.0, "count_Mosses": 0, "count_Birds": 98, "count_Amphibians": 1, "count_Arachnids": 0, "count_Flowering Plants": 27, "count_Mammals": 15, "count_Insects": 27, "count_Molluscs": 0, "count_Reptiles": 4, "count_Ferns": 0, "count_Gymnosperms": 0, "count_Basidiomycota": 0, "count_Sac Fungi": 3, "unique_species_count": 175.0, "countryCode": "BO" }, "geometry": { "type": "MultiPolygon", "coordinates": [ [ [ [ -60.380039706075358, -13.496156858295789 ], [ -60.359225666440956, -14.367199581321341 ], [ -61.096396728433866, -14.705522414843404 ], [ -61.848844694449028, -14.160173888320426 ], [ -61.864012256823024, -13.283374977886895 ], [ -61.132751315100535, -12.958576240837118 ], [ -60.380039706075358, -13.496156858295789 ] ] ] ] } },
{ "type": "Feature", "properties": { "geogrid_id": "7314131599066202906", "seqnum": 3976.0, "lat_c": -14.131599093350085, "lon_c": -66.202906194713321, "res": 7.0, "count_Mosses": 0, "count_Birds": 193, "count_Amphibians": 24, "count_Arachnids": 8, "count_Flowering Plants": 46, "count_Mammals": 55, "count_Insects": 79, "count_Molluscs": 0, "count_Reptiles": 43, "count_Ferns": 2, "count_Gymnosperms": 0, "count_Basidiomycota": 1, "count_Sac Fungi": 0, "unique_species_count": 451.0, "countryCode": "BO" }, "geometry": { "type": "MultiPolygon", "coordinates": [ [ [ [ -65.489870128196515, -13.868302245021967 ], [ -65.500178518559849, -14.77541942316031 ], [ -66.220645587030447, -15.046683502985285 ], [ -67.030028658717626, -14.57385110336037 ], [ -67.117408111747608, -13.831482868371426 ], [ -66.297959515067575, -13.397116231785075 ], [ -65.489870128196515, -13.868302245021967 ] ] ] ] } },
{ "type": "Feature", "properties": { "geogrid_id": "7314259156067936048", "seqnum": 3948.0, "lat_c": -14.259156091132256, "lon_c": -67.936047697727091, "res": 7.0, "count_Mosses": 9, "count_Birds": 245, "count_Amphibians": 52, "count_Arachnids": 32, "count_Flowering Plants": 183, "count_Mammals": 51, "count_Insects": 297, "count_Molluscs": 7, "count_Reptiles": 54, "count_Ferns": 11, "count_Gymnosperms": 1, "count_Basidiomycota": 18, "count_Sac Fungi": 11, "unique_species_count": 971.0, "countryCode": "BO" }, "geometry": { "type": "MultiPolygon", "coordinates": [ [ [ [ -67.117408111747608, -13.831482868371426 ], [ -67.030028658717626, -14.57385110336037 ], [ -67.855879257396737, -15.008018691306589 ], [ -68.754704026092767, -14.681366370564479 ], [ -68.824148494810984, -13.921445894977412 ], [ -68.011937857906744, -13.503934544067347 ], [ -67.117408111747608, -13.831482868371426 ] ] ] ] } },
{ "type": "Feature", "properties": { "geogrid_id": "7314335132069637306", "seqnum": 3920.0, "lat_c": -14.335132098369009, "lon_c": -69.637306062546131, "res": 7.0, "count_Mosses": 2, "count_Birds": 8, "count_Amphibians": 0, "count_Arachnids": 0, "count_Flowering Plants": 41, "count_Mammals": 2, "count_Insects": 8, "count_Molluscs": 0, "count_Reptiles": 2, "count_Ferns": 1, "count_Gymnosperms": 0, "count_Basidiomycota": 0, "count_Sac Fungi": 1, "unique_species_count": 65.0, "countryCode": "BO" }, "geometry": { "type": "MultiPolygon", "coordinates": [ [ [ [ -68.824148494810984, -13.921445894977412 ], [ -68.754704026092767, -14.681366370564479 ], [ -69.574047024111721, -15.098989630067763 ], [ -70.451902145269543, -14.745480931924487 ], [ -70.506064830194404, -13.973967326329779 ], [ -69.697085216536948, -13.566442926738125 ], [ -68.824148494810984, -13.921445894977412 ] ] ] ] } },
{ "type": "Feature", "properties": { "geogrid_id": "7314494992064776944", "seqnum": 4003.0, "lat_c": -14.494991980725487, "lon_c": -64.776943931801824, "res": 7.0, "count_Mosses": 0, "count_Birds": 299, "count_Amphibians": 33, "count_Arachnids": 25, "count_Flowering Plants": 363, "count_Mammals": 46, "count_Insects": 222, "count_Molluscs": 6, "count_Reptiles": 39, "count_Ferns": 5, "count_Gymnosperms": 0, "count_Basidiomycota": 10, "count_Sac Fungi": 0, "unique_species_count": 1048.0, "countryCode": "BO" }, "geometry": { "type": "MultiPolygon", "coordinates": [ [ [ [ -64.051321031251646, -14.205474607343074 ], [ -64.048575684210434, -15.095588106176987 ], [ -64.779515122052814, -15.390731812890277 ], [ -65.500178518559849, -14.77541942316031 ], [ -65.489870128196515, -13.868302245021967 ], [ -64.773222922883718, -13.59515209654432 ], [ -64.051321031251646, -14.205474607343074 ] ] ] ] } },
{ "type": "Feature", "properties": { "geogrid_id": "7314792040063316256", "seqnum": 4031.0, "lat_c": -14.792040338071159, "lon_c": -63.316255775630083, "res": 7.0, "count_Mosses": 0, "count_Birds": 2, "count_Amphibians": 0, "count_Arachnids": 0, "count_Flowering Plants": 2, "count_Mammals": 5, "count_Insects": 5, "count_Molluscs": 0, "count_Reptiles": 0, "count_Ferns": 0, "count_Gymnosperms": 0, "count_Basidiomycota": 0, "count_Sac Fungi": 1, "unique_species_count": 15.0, "countryCode": "BO" }, "geometry": { "type": "MultiPolygon", "coordinates": [ [ [ [ -62.582897372315671, -14.480195261146646 ], [ -62.57149649551873, -15.359814016306467 ], [ -63.308826593902047, -15.675513881260985 ], [ -64.048575684210434, -15.095588106176987 ], [ -64.051321031251646, -14.205474607343074 ], [ -63.323695943237148, -13.906957879941169 ], [ -62.582897372315671, -14.480195261146646 ] ] ] ] } },
{ "type": "Feature", "properties": { "geogrid_id": "7315036441061833920", "seqnum": 4059.0, "lat_c": -15.03644064456255, "lon_c": -61.833919964270741, "res": 7.0, "count_Mosses": 2, "count_Birds": 40, "count_Amphibians": 3, "count_Arachnids": 0, "count_Flowering Plants": 13, "count_Mammals": 5, "count_Insects": 1, "count_Molluscs": 0, "count_Reptiles": 2, "count_Ferns": 0, "count_Gymnosperms": 0, "count_Basidiomycota": 0, "count_Sac Fungi": 5, "unique_species_count": 71.0, "countryCode": "BO" }, "geometry": { "type": "MultiPolygon", "coordinates": [ [ [ [ -61.096396728433866, -14.705522414843404 ], [ -61.078661948278203, -15.579040222810022 ], [ -61.81933173748434, -15.912489207346059 ], [ -62.57149649551873, -15.359814016306467 ], [ -62.582897372315671, -14.480195261146646 ], [ -61.848844694449028, -14.160173888320426 ], [ -61.096396728433866, -14.705522414843404 ] ] ] ] } },
{ "type": "Feature", "properties": { "geogrid_id": "7315238605060338660", "seqnum": 4086.0, "lat_c": -15.238605129583966, "lon_c": -60.338659932840379, "res": 7.0, "count_Mosses": 0, "count_Birds": 1, "count_Amphibians": 0, "count_Arachnids": 0, "count_Flowering Plants": 28, "count_Mammals": 11, "count_Insects": 11, "count_Molluscs": 0, "count_Reptiles": 0, "count_Ferns": 0, "count_Gymnosperms": 0, "count_Basidiomycota": 0, "count_Sac Fungi": 0, "unique_species_count": 51.0, "countryCode": "BO" }, "geometry": { "type": "MultiPolygon", "coordinates": [ [ [ [ -59.599582523621692, -14.891326097169671 ], [ -59.576613103498573, -15.761679307428635 ], [ -60.318355709733339, -16.110511198636981 ], [ -61.078661948278203, -15.579040222810022 ], [ -61.096396728433866, -14.705522414843404 ], [ -60.359225666440956, -14.367199581321341 ], [ -59.599582523621692, -14.891326097169671 ] ] ] ] } },
{ "type": "Feature", "properties": { "geogrid_id": "7315308728066937974", "seqnum": 4002.0, "lat_c": -15.308727737539019, "lon_c": -66.93797382020594, "res": 7.0, "count_Mosses": 1, "count_Birds": 92, "count_Amphibians": 2, "count_Arachnids": 4, "count_Flowering Plants": 143, "count_Mammals": 19, "count_Insects": 150, "count_Molluscs": 0, "count_Reptiles": 9, "count_Ferns": 5, "count_Gymnosperms": 0, "count_Basidiomycota": 0, "count_Sac Fungi": 0, "unique_species_count": 425.0, "countryCode": "BO" }, "geometry": { "type": "MultiPolygon", "coordinates": [ [ [ [ -66.220645587030447, -15.046683502985285 ], [ -66.235900753093063, -15.955451545565703 ], [ -66.960681443247594, -16.224885457192634 ], [ -67.771443479514971, -15.750260115152967 ], [ -67.855879257396737, -15.008018691306589 ], [ -67.030028658717626, -14.57385110336037 ], [ -66.220645587030447, -15.046683502985285 ] ] ] ] } },
{ "type": "Feature", "properties": { "geogrid_id": "7315435636068681385", "seqnum": 3975.0, "lat_c": -15.435635672375836, "lon_c": -68.681385277722356, "res": 7.0, "count_Mosses": 7, "count_Birds": 143, "count_Amphibians": 8, "count_Arachnids": 1, "count_Flowering Plants": 268, "count_Mammals": 18, "count_Insects": 85, "count_Molluscs": 0, "count_Reptiles": 5, "count_Ferns": 9, "count_Gymnosperms": 1, "count_Basidiomycota": 2, "count_Sac Fungi": 4, "unique_species_count": 551.0, "countryCode": "BO" }, "geometry": { "type": "MultiPolygon", "coordinates": [ [ [ [ -67.855879257396737, -15.008018691306589 ], [ -67.771443479514971, -15.750260115152967 ], [ -68.604190936978213, -16.184020013324556 ], [ -69.507298442863174, -15.857799439152345 ], [ -69.574047024111721, -15.098989630067763 ], [ -68.754704026092767, -14.681366370564479 ], [ -67.855879257396737, -15.008018691306589 ] ] ] ] } },
{ "type": "Feature", "properties": { "geogrid_id": "7315677379065508735", "seqnum": 4030.0, "lat_c": -15.677379012306332, "lon_c": -65.508735167837855, "res": 7.0, "count_Mosses": 1, "count_Birds": 23, "count_Amphibians": 2, "count_Arachnids": 1, "count_Flowering Plants": 17, "count_Mammals": 6, "count_Insects": 1, "count_Molluscs": 1, "count_Reptiles": 4, "count_Ferns": 0, "count_Gymnosperms": 0, "count_Basidiomycota": 0, "count_Sac Fungi": 0, "unique_species_count": 56.0, "countryCode": "BO" }, "geometry": { "type": "MultiPolygon", "coordinates": [ [ [ [ -64.779515122052814, -15.390731812890277 ], [ -64.78154807734127, -16.283437589150697 ], [ -65.516341398227127, -16.57546358537067 ], [ -66.235900753093063, -15.955451545565703 ], [ -66.220645587030447, -15.046683502985285 ], [ -65.500178518559849, -14.77541942316031 ], [ -64.779515122052814, -15.390731812890277 ] ] ] ] } },
{ "type": "Feature", "properties": { "geogrid_id": "7315983423064045610", "seqnum": 4058.0, "lat_c": -15.983423382165061, "lon_c": -64.045610304777171, "res": 7.0, "count_Mosses": 2, "count_Birds": 69, "count_Amphibians": 11, "count_Arachnids": 3, "count_Flowering Plants": 11, "count_Mammals": 35, "count_Insects": 28, "count_Molluscs": 0, "count_Reptiles": 15, "count_Ferns": 0, "count_Gymnosperms": 0, "count_Basidiomycota": 0, "count_Sac Fungi": 0, "unique_species_count": 174.0, "countryCode": "BO" }, "geometry": { "type": "MultiPolygon", "coordinates": [ [ [ [ -63.308826593902047, -15.675513881260985 ], [ -63.301636161981179, -16.55790811045555 ], [ -64.042747383125558, -16.869642252301727 ], [ -64.78154807734127, -16.283437589150697 ], [ -64.779515122052814, -15.390731812890277 ], [ -64.048575684210434, -15.095588106176987 ], [ -63.308826593902047, -15.675513881260985 ] ] ] ] } },
{ "type": "Feature", "properties": { "geogrid_id": "7316238819062560410", "seqnum": 4085.0, "lat_c": -16.238819457216273, "lon_c": -62.560410146760383, "res": 7.0, "count_Mosses": 0, "count_Birds": 108, "count_Amphibians": 12, "count_Arachnids": 5, "count_Flowering Plants": 149, "count_Mammals": 37, "count_Insects": 59, "count_Molluscs": 1, "count_Reptiles": 10, "count_Ferns": 0, "count_Gymnosperms": 0, "count_Basidiomycota": 2, "count_Sac Fungi": 3, "unique_species_count": 386.0, "countryCode": "BO" }, "geometry": { "type": "MultiPolygon", "coordinates": [ [ [ [ -61.81933173748434, -15.912489207346059 ], [ -61.805147933040566, -16.78857110317092 ], [ -62.549749559821358, -17.117538831207455 ], [ -63.301636161981179, -16.55790811045555 ], [ -63.308826593902047, -15.675513881260985 ], [ -62.57149649551873, -15.359814016306467 ], [ -61.81933173748434, -15.912489207346059 ] ] ] ] } },
{ "type": "Feature", "properties": { "geogrid_id": "7316452853061061275", "seqnum": 4113.0, "lat_c": -16.452853194239783, "lon_c": -61.061274832442024, "res": 7.0, "count_Mosses": 0, "count_Birds": 17, "count_Amphibians": 5, "count_Arachnids": 0, "count_Flowering Plants": 9, "count_Mammals": 13, "count_Insects": 3, "count_Molluscs": 0, "count_Reptiles": 2, "count_Ferns": 0, "count_Gymnosperms": 0, "count_Basidiomycota": 0, "count_Sac Fungi": 0, "unique_species_count": 49.0, "countryCode": "BO" }, "geometry": { "type": "MultiPolygon", "coordinates": [ [ [ [ -60.318355709733339, -16.110511198636981 ], [ -60.298321253645305, -16.983036635245355 ], [ -61.044261340383095, -17.327119389757311 ], [ -61.805147933040566, -16.78857110317092 ], [ -61.81933173748434, -15.912489207346059 ], [ -61.078661948278203, -15.579040222810022 ], [ -60.318355709733339, -16.110511198636981 ] ] ] ] } },
{ "type": "Feature", "properties": { "geogrid_id": "7316485631067682752", "seqnum": 4029.0, "lat_c": -16.485630850229253, "lon_c": -67.68275219815385, "res": 7.0, "count_Mosses": 56, "count_Birds": 395, "count_Amphibians": 23, "count_Arachnids": 35, "count_Flowering Plants": 1191, "count_Mammals": 63, "count_Insects": 813, "count_Molluscs": 6, "count_Reptiles": 28, "count_Ferns": 58, "count_Gymnosperms": 6, "count_Basidiomycota": 46, "count_Sac Fungi": 66, "unique_species_count": 2786.0, "countryCode": "BO" }, "geometry": { "type": "MultiPolygon", "coordinates": [ [ [ [ -66.960681443247594, -16.224885457192634 ], [ -66.981309616563678, -17.135239510071216 ], [ -67.710898355635621, -17.402863750678648 ], [ -68.523119949651331, -16.926295485561937 ], [ -68.604190936978213, -16.184020013324556 ], [ -67.771443479514971, -15.750260115152967 ], [ -66.960681443247594, -16.224885457192634 ] ] ] ] } },
{ "type": "Feature", "properties": { "geogrid_id": "7316611353069437050", "seqnum": 4001.0, "lat_c": -16.611353022541145, "lon_c": -69.437050398384343, "res": 7.0, "count_Mosses": 2, "count_Birds": 95, "count_Amphibians": 4, "count_Arachnids": 0, "count_Flowering Plants": 227, "count_Mammals": 17, "count_Insects": 27, "count_Molluscs": 0, "count_Reptiles": 3, "count_Ferns": 2, "count_Gymnosperms": 1, "count_Basidiomycota": 2, "count_Sac Fungi": 1, "unique_species_count": 381.0, "countryCode": "BO" }, "geometry": { "type": "MultiPolygon", "coordinates": [ [ [ [ -68.604190936978213, -16.184020013324556 ], [ -68.523119949651331, -16.926295485561937 ], [ -69.363292745927893, -17.359449638661189 ], [ -70.270711896406937, -17.033241241816729 ], [ -70.334241100929603, -16.275307001265393 ], [ -69.507298442863174, -15.857799439152345 ], [ -68.604190936978213, -16.184020013324556 ] ] ] ] } },
{ "type": "Feature", "properties": { "geogrid_id": "7316632772059553792", "seqnum": 4141.0, "lat_c": -16.632772399471634, "lon_c": -59.553792275468702, "res": 7.0, "count_Mosses": 0, "count_Birds": 1, "count_Amphibians": 0, "count_Arachnids": 0, "count_Flowering Plants": 0, "count_Mammals": 1, "count_Insects": 0, "count_Molluscs": 0, "count_Reptiles": 0, "count_Ferns": 0, "count_Gymnosperms": 0, "count_Basidiomycota": 0, "count_Sac Fungi": 0, "unique_species_count": 2.0, "countryCode": "BO" }, "geometry": { "type": "MultiPolygon", "coordinates": [ [ [ [ -58.810864068429183, -16.276460856025803 ], [ -58.785465306033508, -17.147303719980531 ], [ -59.531114959595477, -17.504687083857586 ], [ -60.298321253645305, -16.983036635245355 ], [ -60.318355709733339, -16.110511198636981 ], [ -59.576613103498573, -15.761679307428635 ], [ -58.810864068429183, -16.276460856025803 ] ] ] ] } },
{ "type": "Feature", "properties": { "geogrid_id": "7316784270058041773", "seqnum": 4168.0, "lat_c": -16.784269668260741, "lon_c": -58.041772740414814, "res": 7.0, "count_Mosses": 0, "count_Birds": 6, "count_Amphibians": 0, "count_Arachnids": 0, "count_Flowering Plants": 2, "count_Mammals": 0, "count_Insects": 0, "count_Molluscs": 0, "count_Reptiles": 1, "count_Ferns": 0, "count_Gymnosperms": 0, "count_Basidiomycota": 0, "count_Sac Fungi": 0, "unique_species_count": 9.0, "countryCode": "BO" }, "geometry": { "type": "MultiPolygon", "coordinates": [ [ [ [ -57.300193388976602, -16.415723416121793 ], [ -57.269530867701143, -17.286131365478028 ], [ -58.013665110363966, -17.655258175086988 ], [ -58.785465306033508, -17.147303719980531 ], [ -58.810864068429183, -16.276460856025803 ], [ -58.069722510673174, -15.914242669187061 ], [ -57.300193388976602, -16.415723416121793 ] ] ] ] } },
{ "type": "Feature", "properties": { "geogrid_id": "7316859421066249693", "seqnum": 4057.0, "lat_c": -16.859420502938352, "lon_c": -66.249693425065971, "res": 7.0, "count_Mosses": 21, "count_Birds": 304, "count_Amphibians": 15, "count_Arachnids": 29, "count_Flowering Plants": 633, "count_Mammals": 64, "count_Insects": 382, "count_Molluscs": 8, "count_Reptiles": 32, "count_Ferns": 14, "count_Gymnosperms": 3, "count_Basidiomycota": 12, "count_Sac Fungi": 16, "unique_species_count": 1533.0, "countryCode": "BO" }, "geometry": { "type": "MultiPolygon", "coordinates": [ [ [ [ -65.516341398227127, -16.57546358537067 ], [ -65.523571839606902, -17.470645913462725 ], [ -66.262757764646182, -17.759740458513878 ], [ -66.981309616563678, -17.135239510071216 ], [ -66.960681443247594, -16.224885457192634 ], [ -66.235900753093063, -15.955451545565703 ], [ -65.516341398227127, -16.57546358537067 ] ] ] ] } },
{ "type": "Feature", "properties": { "geogrid_id": "7317173919064783481", "seqnum": 4084.0, "lat_c": -17.173919060634734, "lon_c": -64.783480510387534, "res": 7.0, "count_Mosses": 199, "count_Birds": 224, "count_Amphibians": 34, "count_Arachnids": 23, "count_Flowering Plants": 1100, "count_Mammals": 67, "count_Insects": 436, "count_Molluscs": 2, "count_Reptiles": 31, "count_Ferns": 107, "count_Gymnosperms": 0, "count_Basidiomycota": 14, "count_Sac Fungi": 19, "unique_species_count": 2256.0, "countryCode": "BO" }, "geometry": { "type": "MultiPolygon", "coordinates": [ [ [ [ -64.042747383125558, -16.869642252301727 ], [ -64.040224105210029, -17.7547610518521 ], [ -64.785634735282642, -18.062805541295234 ], [ -65.523571839606902, -17.470645913462725 ], [ -65.516341398227127, -16.57546358537067 ], [ -64.78154807734127, -16.283437589150697 ], [ -64.042747383125558, -16.869642252301727 ] ] ] ] } },
{ "type": "Feature", "properties": { "geogrid_id": "7317439639063294852", "seqnum": 4112.0, "lat_c": -17.439638585638555, "lon_c": -63.294851693038325, "res": 7.0, "count_Mosses": 1, "count_Birds": 324, "count_Amphibians": 48, "count_Arachnids": 54, "count_Flowering Plants": 470, "count_Mammals": 95, "count_Insects": 559, "count_Molluscs": 6, "count_Reptiles": 65, "count_Ferns": 2, "count_Gymnosperms": 1, "count_Basidiomycota": 15, "count_Sac Fungi": 4, "unique_species_count": 1644.0, "countryCode": "BO" }, "geometry": { "type": "MultiPolygon", "coordinates": [ [ [ [ -62.549749559821358, -17.117538831207455 ], [ -62.539598621909732, -17.996237575750193 ], [ -63.28859965964417, -18.321039085679512 ], [ -64.040224105210029, -17.7547610518521 ], [ -64.042747383125558, -16.869642252301727 ], [ -63.301636161981179, -16.55790811045555 ], [ -62.549749559821358, -17.117538831207455 ] ] ] ] } },
{ "type": "Feature", "properties": { "geogrid_id": "7317662248068438172", "seqnum": 4056.0, "lat_c": -17.662248238414747, "lon_c": -68.438171563470917, "res": 7.0, "count_Mosses": 1, "count_Birds": 30, "count_Amphibians": 1, "count_Arachnids": 0, "count_Flowering Plants": 70, "count_Mammals": 19, "count_Insects": 2, "count_Molluscs": 0, "count_Reptiles": 5, "count_Ferns": 2, "count_Gymnosperms": 0, "count_Basidiomycota": 0, "count_Sac Fungi": 8, "unique_species_count": 138.0, "countryCode": "BO" }, "geometry": { "type": "MultiPolygon", "coordinates": [ [ [ [ -67.710898355635621, -17.402863750678648 ], [ -67.737362510856087, -18.314754719834841 ], [ -68.472259178784512, -18.580561183928126 ], [ -69.286015155268728, -18.101896463167375 ], [ -69.363292745927893, -17.359449638661189 ], [ -68.523119949651331, -16.926295485561937 ], [ -67.710898355635621, -17.402863750678648 ] ] ] ] } },
{ "type": "Feature", "properties": { "geogrid_id": "7317664893061791419", "seqnum": 4140.0, "lat_c": -17.664893210362717, "lon_c": -61.791419311690085, "res": 7.0, "count_Mosses": 0, "count_Birds": 45, "count_Amphibians": 0, "count_Arachnids": 0, "count_Flowering Plants": 13, "count_Mammals": 20, "count_Insects": 6, "count_Molluscs": 0, "count_Reptiles": 5, "count_Ferns": 1, "count_Gymnosperms": 0, "count_Basidiomycota": 0, "count_Sac Fungi": 0, "unique_species_count": 90.0, "countryCode": "BO" }, "geometry": { "type": "MultiPolygon", "coordinates": [ [ [ [ -61.044261340383095, -17.327119389757311 ], [ -61.027640827700573, -18.201974813235196 ], [ -61.77818502594512, -18.541629867130336 ], [ -62.539598621909732, -17.996237575750193 ], [ -62.549749559821358, -17.117538831207455 ], [ -61.805147933040566, -16.78857110317092 ], [ -61.044261340383095, -17.327119389757311 ] ] ] ] } },
{ "type": "Feature", "properties": { "geogrid_id": "7317786281070204029", "seqnum": 4028.0, "lat_c": -17.786280972584617, "lon_c": -70.204028693403032, "res": 7.0, "count_Mosses": 0, "count_Birds": 0, "count_Amphibians": 0, "count_Arachnids": 0, "count_Flowering Plants": 1, "count_Mammals": 1, "count_Insects": 0, "count_Molluscs": 0, "count_Reptiles": 0, "count_Ferns": 0, "count_Gymnosperms": 0, "count_Basidiomycota": 0, "count_Sac Fungi": 0, "unique_species_count": 2.0, "countryCode": "BO" }, "geometry": { "type": "MultiPolygon", "coordinates": [ [ [ [ -69.363292745927893, -17.359449638661189 ], [ -69.286015155268728, -18.101896463167375 ], [ -70.134174642052258, -18.534252543878633 ], [ -71.045966162048956, -18.207671110014864 ], [ -71.105757019658981, -17.450410163650201 ], [ -70.270711896406937, -17.033241241816729 ], [ -69.363292745927893, -17.359449638661189 ] ] ] ] } },
{ "type": "Feature", "properties": { "geogrid_id": "7317856287060278562", "seqnum": 4167.0, "lat_c": -17.85628663126359, "lon_c": -60.278561507393086, "res": 7.0, "count_Mosses": 1, "count_Birds": 76, "count_Amphibians": 13, "count_Arachnids": 2, "count_Flowering Plants": 99, "count_Mammals": 25, "count_Insects": 43, "count_Molluscs": 0, "count_Reptiles": 16, "count_Ferns": 1, "count_Gymnosperms": 0, "count_Basidiomycota": 0, "count_Sac Fungi": 0, "unique_species_count": 276.0, "countryCode": "BO" }, "geometry": { "type": "MultiPolygon", "coordinates": [ [ [ [ -59.531114959595477, -17.504687083857586 ], [ -59.508575080637868, -18.377499782374183 ], [ -60.25907917483736, -18.730356348784092 ], [ -61.027640827700573, -18.201974813235196 ], [ -61.044261340383095, -17.327119389757311 ], [ -60.298321253645305, -16.983036635245355 ], [ -59.531114959595477, -17.504687083857586 ] ] ] ] } },
{ "type": "Feature", "properties": { "geogrid_id": "7318019091058760058", "seqnum": 4195.0, "lat_c": -18.019091457178586, "lon_c": -58.760057770539163, "res": 7.0, "count_Mosses": 0, "count_Birds": 26, "count_Amphibians": 1, "count_Arachnids": 0, "count_Flowering Plants": 23, "count_Mammals": 13, "count_Insects": 0, "count_Molluscs": 1, "count_Reptiles": 5, "count_Ferns": 0, "count_Gymnosperms": 0, "count_Basidiomycota": 0, "count_Sac Fungi": 0, "unique_species_count": 69.0, "countryCode": "BO" }, "geometry": { "type": "MultiPolygon", "coordinates": [ [ [ [ -58.013665110363966, -17.655258175086988 ], [ -57.985382434179648, -18.527263754721563 ], [ -58.734628759529286, -18.891885982328528 ], [ -59.508575080637868, -18.377499782374183 ], [ -59.531114959595477, -17.504687083857586 ], [ -58.785465306033508, -17.147303719980531 ], [ -58.013665110363966, -17.655258175086988 ] ] ] ] } },
{ "type": "Feature", "properties": { "geogrid_id": "7318041131067000775", "seqnum": 4083.0, "lat_c": -18.041130645246366, "lon_c": -67.000775284249968, "res": 7.0, "count_Mosses": 1, "count_Birds": 53, "count_Amphibians": 2, "count_Arachnids": 1, "count_Flowering Plants": 106, "count_Mammals": 16, "count_Insects": 13, "count_Molluscs": 0, "count_Reptiles": 4, "count_Ferns": 0, "count_Gymnosperms": 2, "count_Basidiomycota": 0, "count_Sac Fungi": 0, "unique_species_count": 198.0, "countryCode": "BO" }, "geometry": { "type": "MultiPolygon", "coordinates": [ [ [ [ -66.262757764646182, -17.759740458513878 ], [ -66.275635567010326, -18.657301650566062 ], [ -67.019756009566677, -18.943595948332714 ], [ -67.737362510856087, -18.314754719834841 ], [ -67.710898355635621, -17.402863750678648 ], [ -66.981309616563678, -17.135239510071216 ], [ -66.262757764646182, -17.759740458513878 ] ] ] ] } },
{ "type": "Feature", "properties": { "geogrid_id": "7318363680065530850", "seqnum": 4111.0, "lat_c": -18.363680110440566, "lon_c": -65.530850075163002, "res": 7.0, "count_Mosses": 3, "count_Birds": 119, "count_Amphibians": 3, "count_Arachnids": 14, "count_Flowering Plants": 306, "count_Mammals": 30, "count_Insects": 61, "count_Molluscs": 1, "count_Reptiles": 12, "count_Ferns": 18, "count_Gymnosperms": 2, "count_Basidiomycota": 2, "count_Sac Fungi": 2, "unique_species_count": 573.0, "countryCode": "BO" }, "geometry": { "type": "MultiPolygon", "coordinates": [ [ [ [ -64.785634735282642, -18.062805541295234 ], [ -64.788254786435914, -18.950596532152442 ], [ -65.538496838987783, -19.255162679426181 ], [ -66.275635567010326, -18.657301650566062 ], [ -66.262757764646182, -17.759740458513878 ], [ -65.523571839606902, -17.470645913462725 ], [ -64.785634735282642, -18.062805541295234 ] ] ] ] } },
{ "type": "Feature", "properties": { "geogrid_id": "7318639192064038220", "seqnum": 4139.0, "lat_c": -18.639191629394613, "lon_c": -64.038220019156526, "res": 7.0, "count_Mosses": 28, "count_Birds": 324, "count_Amphibians": 17, "count_Arachnids": 15, "count_Flowering Plants": 344, "count_Mammals": 14, "count_Insects": 291, "count_Molluscs": 1, "count_Reptiles": 53, "count_Ferns": 15, "count_Gymnosperms": 0, "count_Basidiomycota": 11, "count_Sac Fungi": 2, "unique_species_count": 1115.0, "countryCode": "BO" }, "geometry": { "type": "MultiPolygon", "coordinates": [ [ [ [ -63.28859965964417, -18.321039085679512 ], [ -63.282978653714572, -19.20238360620057 ], [ -64.03687504334394, -19.523269343991295 ], [ -64.788254786435914, -18.950596532152442 ], [ -64.785634735282642, -18.062805541295234 ], [ -64.040224105210029, -17.7547610518521 ], [ -63.28859965964417, -18.321039085679512 ] ] ] ] } },
{ "type": "Feature", "properties": { "geogrid_id": "7318838509069205207", "seqnum": 4082.0, "lat_c": -18.838508718676998, "lon_c": -69.205207150597374, "res": 7.0, "count_Mosses": 0, "count_Birds": 14, "count_Amphibians": 0, "count_Arachnids": 0, "count_Flowering Plants": 7, "count_Mammals": 6, "count_Insects": 0, "count_Molluscs": 0, "count_Reptiles": 1, "count_Ferns": 0, "count_Gymnosperms": 0, "count_Basidiomycota": 0, "count_Sac Fungi": 0, "unique_species_count": 28.0, "countryCode": "BO" }, "geometry": { "type": "MultiPolygon", "coordinates": [ [ [ [ -68.472259178784512, -18.580561183928126 ], [ -68.505060211340762, -19.493950600831877 ], [ -69.245774097626821, -19.75790714651173 ], [ -70.061132374546276, -19.276988715711934 ], [ -70.134174642052258, -18.534252543878633 ], [ -69.286015155268728, -18.101896463167375 ], [ -68.472259178784512, -18.580561183928126 ] ] ] ] } },
{ "type": "Feature", "properties": { "geogrid_id": "7318875136062530023", "seqnum": 4166.0, "lat_c": -18.875136008316137, "lon_c": -62.530022605476709, "res": 7.0, "count_Mosses": 0, "count_Birds": 31, "count_Amphibians": 4, "count_Arachnids": 0, "count_Flowering Plants": 6, "count_Mammals": 15, "count_Insects": 4, "count_Molluscs": 0, "count_Reptiles": 3, "count_Ferns": 0, "count_Gymnosperms": 0, "count_Basidiomycota": 0, "count_Sac Fungi": 0, "unique_species_count": 63.0, "countryCode": "BO" }, "geometry": { "type": "MultiPolygon", "coordinates": [ [ [ [ -61.77818502594512, -18.541629867130336 ], [ -61.765476302438728, -19.418931308967903 ], [ -62.521073974883812, -19.754420959298649 ], [ -63.282978653714572, -19.20238360620057 ], [ -63.28859965964417, -18.321039085679512 ], [ -62.539598621909732, -17.996237575750193 ], [ -61.77818502594512, -18.541629867130336 ] ] ] ] } },
{ "type": "Feature", "properties": { "geogrid_id": "7319077539061011428", "seqnum": 4194.0, "lat_c": -19.077539179419105, "lon_c": -61.011428176940122, "res": 7.0, "count_Mosses": 0, "count_Birds": 45, "count_Amphibians": 6, "count_Arachnids": 2, "count_Flowering Plants": 8, "count_Mammals": 16, "count_Insects": 19, "count_Molluscs": 0, "count_Reptiles": 11, "count_Ferns": 0, "count_Gymnosperms": 0, "count_Basidiomycota": 0, "count_Sac Fungi": 1, "unique_species_count": 108.0, "countryCode": "BO" }, "geometry": { "type": "MultiPolygon", "coordinates": [ [ [ [ -60.25907917483736, -18.730356348784092 ], [ -60.239875444543735, -19.605333505853089 ], [ -60.995635242633298, -19.953920020816135 ], [ -61.765476302438728, -19.418931308967903 ], [ -61.77818502594512, -18.541629867130336 ], [ -61.027640827700573, -18.201974813235196 ], [ -60.25907917483736, -18.730356348784092 ] ] ] ] } },
{ "type": "Feature", "properties": { "geogrid_id": "7319222498067762976", "seqnum": 4110.0, "lat_c": -19.222497717317825, "lon_c": -67.76297597171083, "res": 7.0, "count_Mosses": 0, "count_Birds": 32, "count_Amphibians": 1, "count_Arachnids": 0, "count_Flowering Plants": 44, "count_Mammals": 10, "count_Insects": 5, "count_Molluscs": 0, "count_Reptiles": 2, "count_Ferns": 1, "count_Gymnosperms": 0, "count_Basidiomycota": 0, "count_Sac Fungi": 0, "unique_species_count": 95.0, "countryCode": "BO" }, "geometry": { "type": "MultiPolygon", "coordinates": [ [ [ [ -67.019756009566677, -18.943595948332714 ], [ -67.038765153797783, -19.843452636990481 ], [ -67.788368997094452, -20.127032819016787 ], [ -68.505060211340762, -19.493950600831877 ], [ -68.472259178784512, -18.580561183928126 ], [ -67.737362510856087, -18.314754719834841 ], [ -67.019756009566677, -18.943595948332714 ] ] ] ] } },
{ "type": "Feature", "properties": { "geogrid_id": "7319251283059486166", "seqnum": 4222.0, "lat_c": -19.251283061379336, "lon_c": -59.486165848272236, "res": 7.0, "count_Mosses": 0, "count_Birds": 38, "count_Amphibians": 6, "count_Arachnids": 0, "count_Flowering Plants": 8, "count_Mammals": 3, "count_Insects": 1, "count_Molluscs": 0, "count_Reptiles": 3, "count_Ferns": 0, "count_Gymnosperms": 0, "count_Basidiomycota": 0, "count_Sac Fungi": 0, "unique_species_count": 59.0, "countryCode": "BO" }, "geometry": { "type": "MultiPolygon", "coordinates": [ [ [ [ -58.734628759529286, -18.891885982328528 ], [ -58.709165141510965, -19.765748307224399 ], [ -59.463879942728035, -20.126106679521911 ], [ -60.239875444543735, -19.605333505853089 ], [ -60.25907917483736, -18.730356348784092 ], [ -59.508575080637868, -18.377499782374183 ], [ -58.734628759529286, -18.891885982328528 ] ] ] ] } },
{ "type": "Feature", "properties": { "geogrid_id": "7319400342057956907", "seqnum": 4249.0, "lat_c": -19.400342165473269, "lon_c": -57.956906946444683, "res": 7.0, "count_Mosses": 0, "count_Birds": 22, "count_Amphibians": 3, "count_Arachnids": 1, "count_Flowering Plants": 5, "count_Mammals": 1, "count_Insects": 3, "count_Molluscs": 0, "count_Reptiles": 1, "count_Ferns": 0, "count_Gymnosperms": 0, "count_Basidiomycota": 0, "count_Sac Fungi": 0, "unique_species_count": 36.0, "countryCode": "BO" }, "geometry": { "type": "MultiPolygon", "coordinates": [ [ [ [ -57.207202146500833, -19.030008769793572 ], [ -57.175491572050397, -19.903586420756611 ], [ -57.92822025098986, -20.274549469937629 ], [ -58.709165141510965, -19.765748307224399 ], [ -58.734628759529286, -18.891885982328528 ], [ -57.985382434179648, -18.527263754721563 ], [ -57.207202146500833, -19.030008769793572 ] ] ] ] } },
{ "type": "Feature", "properties": { "geogrid_id": "7319552807066288737", "seqnum": 4138.0, "lat_c": -19.55280661846199, "lon_c": -66.288737158296584, "res": 7.0, "count_Mosses": 0, "count_Birds": 46, "count_Amphibians": 0, "count_Arachnids": 0, "count_Flowering Plants": 85, "count_Mammals": 14, "count_Insects": 11, "count_Molluscs": 0, "count_Reptiles": 4, "count_Ferns": 1, "count_Gymnosperms": 1, "count_Basidiomycota": 0, "count_Sac Fungi": 0, "unique_species_count": 162.0, "countryCode": "BO" }, "geometry": { "type": "MultiPolygon", "coordinates": [ [ [ [ -65.538496838987783, -19.255162679426181 ], [ -65.546761572821538, -20.145574381515665 ], [ -66.302381396473947, -20.446819816410173 ], [ -67.038765153797783, -19.843452636990481 ], [ -67.019756009566677, -18.943595948332714 ], [ -66.275635567010326, -18.657301650566062 ], [ -65.538496838987783, -19.255162679426181 ] ] ] ] } },
{ "type": "Feature", "properties": { "geogrid_id": "7319837696064791531", "seqnum": 4165.0, "lat_c": -19.837696361640781, "lon_c": -64.791530648131385, "res": 7.0, "count_Mosses": 0, "count_Birds": 44, "count_Amphibians": 2, "count_Arachnids": 3, "count_Flowering Plants": 117, "count_Mammals": 24, "count_Insects": 24, "count_Molluscs": 3, "count_Reptiles": 3, "count_Ferns": 8, "count_Gymnosperms": 0, "count_Basidiomycota": 64, "count_Sac Fungi": 11, "unique_species_count": 303.0, "countryCode": "BO" }, "geometry": { "type": "MultiPolygon", "coordinates": [ [ [ [ -64.03687504334394, -19.523269343991295 ], [ -64.036301493482057, -20.407272614999378 ], [ -64.795614474315087, -20.72443840997505 ], [ -65.546761572821538, -20.145574381515665 ], [ -65.538496838987783, -19.255162679426181 ], [ -64.788254786435914, -18.950596532152442 ], [ -64.03687504334394, -19.523269343991295 ] ] ] ] } },
{ "type": "Feature", "properties": { "geogrid_id": "7320083902063278068", "seqnum": 4193.0, "lat_c": -20.083901703084646, "lon_c": -63.278067956571469, "res": 7.0, "count_Mosses": 1, "count_Birds": 103, "count_Amphibians": 18, "count_Arachnids": 4, "count_Flowering Plants": 63, "count_Mammals": 32, "count_Insects": 46, "count_Molluscs": 0, "count_Reptiles": 13, "count_Ferns": 5, "count_Gymnosperms": 0, "count_Basidiomycota": 1, "count_Sac Fungi": 1, "unique_species_count": 287.0, "countryCode": "BO" }, "geometry": { "type": "MultiPolygon", "coordinates": [ [ [ [ -62.521073974883812, -19.754420959298649 ], [ -62.512796343948771, -20.634254048768767 ], [ -63.273933389724654, -20.965789413528743 ], [ -64.036301493482057, -20.407272614999378 ], [ -64.03687504334394, -19.523269343991295 ], [ -63.282978653714572, -19.20238360620057 ], [ -62.521073974883812, -19.754420959298649 ] ] ] ] } },
{ "type": "Feature", "properties": { "geogrid_id": "7320296930061753319", "seqnum": 4221.0, "lat_c": -20.296929672305989, "lon_c": -61.753318946782187, "res": 7.0, "count_Mosses": 0, "count_Birds": 0, "count_Amphibians": 1, "count_Arachnids": 1, "count_Flowering Plants": 3, "count_Mammals": 1, "count_Insects": 0, "count_Molluscs": 0, "count_Reptiles": 3, "count_Ferns": 0, "count_Gymnosperms": 0, "count_Basidiomycota": 0, "count_Sac Fungi": 0, "unique_species_count": 9.0, "countryCode": "BO" }, "geometry": { "type": "MultiPolygon", "coordinates": [ [ [ [ -60.995635242633298, -19.953920020816135 ], [ -60.980271854511074, -20.831215668849211 ], [ -61.741735088058185, -21.175743347786863 ], [ -62.512796343948771, -20.634254048768767 ], [ -62.521073974883812, -19.754420959298649 ], [ -61.765476302438728, -19.418931308967903 ], [ -60.995635242633298, -19.953920020816135 ] ] ] ] } },
{ "type": "Feature", "properties": { "geogrid_id": "7320403487068537336", "seqnum": 4137.0, "lat_c": -20.403487077735246, "lon_c": -68.537335965059938, "res": 7.0, "count_Mosses": 0, "count_Birds": 8, "count_Amphibians": 0, "count_Arachnids": 0, "count_Flowering Plants": 10, "count_Mammals": 5, "count_Insects": 1, "count_Molluscs": 0, "count_Reptiles": 1, "count_Ferns": 0, "count_Gymnosperms": 0, "count_Basidiomycota": 0, "count_Sac Fungi": 0, "unique_species_count": 25.0, "countryCode": "BO" }, "geometry": { "type": "MultiPolygon", "coordinates": [ [ [ [ -67.788368997094452, -20.127032819016787 ], [ -67.814030976532791, -21.029112556781431 ], [ -68.569677625268184, -21.310026859609192 ], [ -69.285452790386117, -20.672763165735429 ], [ -69.245774097626821, -19.75790714651173 ], [ -68.505060211340762, -19.493950600831877 ], [ -67.788368997094452, -20.127032819016787 ] ] ] ] } },
{ "type": "Feature", "properties": { "geogrid_id": "7320741356067058201", "seqnum": 4164.0, "lat_c": -20.741355859607804, "lon_c": -67.05820142849646, "res": 7.0, "count_Mosses": 0, "count_Birds": 39, "count_Amphibians": 1, "count_Arachnids": 0, "count_Flowering Plants": 32, "count_Mammals": 7, "count_Insects": 3, "count_Molluscs": 0, "count_Reptiles": 4, "count_Ferns": 0, "count_Gymnosperms": 0, "count_Basidiomycota": 0, "count_Sac Fungi": 0, "unique_species_count": 86.0, "countryCode": "BO" }, "geometry": { "type": "MultiPolygon", "coordinates": [ [ [ [ -66.302381396473947, -20.446819816410173 ], [ -66.316822586978816, -21.339802445549658 ], [ -67.078382332941828, -21.637839371827713 ], [ -67.814030976532791, -21.029112556781431 ], [ -67.788368997094452, -20.127032819016787 ], [ -67.038765153797783, -19.843452636990481 ], [ -66.302381396473947, -20.446819816410173 ] ] ] ] } },
{ "type": "Feature", "properties": { "geogrid_id": "7321035310065555844", "seqnum": 4192.0, "lat_c": -21.035309568070545, "lon_c": -65.555843603375848, "res": 7.0, "count_Mosses": 0, "count_Birds": 35, "count_Amphibians": 1, "count_Arachnids": 2, "count_Flowering Plants": 98, "count_Mammals": 16, "count_Insects": 13, "count_Molluscs": 0, "count_Reptiles": 8, "count_Ferns": 1, "count_Gymnosperms": 0, "count_Basidiomycota": 0, "count_Sac Fungi": 0, "unique_species_count": 174.0, "countryCode": "BO" }, "geometry": { "type": "MultiPolygon", "coordinates": [ [ [ [ -64.795614474315087, -20.72443840997505 ], [ -64.800631701047294, -21.611102383748616 ], [ -65.565906680124172, -21.924697127258078 ], [ -66.316822586978816, -21.339802445549658 ], [ -66.302381396473947, -20.446819816410173 ], [ -65.546761572821538, -20.145574381515665 ], [ -64.795614474315087, -20.72443840997505 ] ] ] ] } },
{ "type": "Feature", "properties": { "geogrid_id": "7321291437064036592", "seqnum": 4220.0, "lat_c": -21.291436847796025, "lon_c": -64.036592307517665, "res": 7.0, "count_Mosses": 0, "count_Birds": 156, "count_Amphibians": 13, "count_Arachnids": 6, "count_Flowering Plants": 178, "count_Mammals": 34, "count_Insects": 87, "count_Molluscs": 2, "count_Reptiles": 27, "count_Ferns": 3, "count_Gymnosperms": 0, "count_Basidiomycota": 8, "count_Sac Fungi": 3, "unique_species_count": 517.0, "countryCode": "BO" }, "geometry": { "type": "MultiPolygon", "coordinates": [ [ [ [ -63.273933389724654, -20.965789413528743 ], [ -63.270631401032723, -21.848217172605764 ], [ -64.037826796791165, -22.175964533185496 ], [ -64.800631701047294, -21.611102383748616 ], [ -64.795614474315087, -20.72443840997505 ], [ -64.036301493482057, -20.407272614999378 ], [ -63.273933389724654, -20.965789413528743 ] ] ] ] } },
{ "type": "Feature", "properties": { "geogrid_id": "7321514778062505227", "seqnum": 4247.0, "lat_c": -21.514777685643391, "lon_c": -62.505227236541884, "res": 7.0, "count_Mosses": 0, "count_Birds": 25, "count_Amphibians": 5, "count_Arachnids": 0, "count_Flowering Plants": 10, "count_Mammals": 2, "count_Insects": 1, "count_Molluscs": 0, "count_Reptiles": 11, "count_Ferns": 0, "count_Gymnosperms": 0, "count_Basidiomycota": 0, "count_Sac Fungi": 0, "unique_species_count": 54.0, "countryCode": "BO" }, "geometry": { "type": "MultiPolygon", "coordinates": [ [ [ [ -61.741735088058185, -21.175743347786863 ], [ -61.730744421978493, -22.05548019161823 ], [ -62.498400056164577, -22.396119490025164 ], [ -63.270631401032723, -21.848217172605764 ], [ -63.273933389724654, -20.965789413528743 ], [ -62.512796343948771, -20.634254048768767 ], [ -61.741735088058185, -21.175743347786863 ] ] ] ] } },
{ "type": "Feature", "properties": { "geogrid_id": "7321929349067840351", "seqnum": 4191.0, "lat_c": -21.929348732004332, "lon_c": -67.840351162655281, "res": 7.0, "count_Mosses": 0, "count_Birds": 55, "count_Amphibians": 1, "count_Arachnids": 0, "count_Flowering Plants": 37, "count_Mammals": 11, "count_Insects": 2, "count_Molluscs": 0, "count_Reptiles": 5, "count_Ferns": 0, "count_Gymnosperms": 0, "count_Basidiomycota": 0, "count_Sac Fungi": 0, "unique_species_count": 111.0, "countryCode": "BO" }, "geometry": { "type": "MultiPolygon", "coordinates": [ [ [ [ -67.078382332941828, -21.637839371827713 ], [ -67.099567211369987, -22.533344689636827 ], [ -67.867646828968503, -22.828246040621814 ], [ -68.602555035120758, -22.214265034761539 ], [ -68.569677625268184, -21.310026859609192 ], [ -67.814030976532791, -21.029112556781431 ], [ -67.078382332941828, -21.637839371827713 ] ] ] ] } },
{ "type": "Feature", "properties": { "geogrid_id": "7322232137066332269", "seqnum": 4219.0, "lat_c": -22.232137369863533, "lon_c": -66.332268999609354, "res": 7.0, "count_Mosses": 0, "count_Birds": 9, "count_Amphibians": 0, "count_Arachnids": 0, "count_Flowering Plants": 11, "count_Mammals": 6, "count_Insects": 1, "count_Molluscs": 0, "count_Reptiles": 1, "count_Ferns": 0, "count_Gymnosperms": 0, "count_Basidiomycota": 0, "count_Sac Fungi": 0, "unique_species_count": 28.0, "countryCode": "BO" }, "geometry": { "type": "MultiPolygon", "coordinates": [ [ [ [ -65.565906680124172, -21.924697127258078 ], [ -65.577089169369017, -22.81401570354301 ], [ -66.348895874478529, -23.12414724376794 ], [ -67.099567211369987, -22.533344689636827 ], [ -67.078382332941828, -21.637839371827713 ], [ -66.316822586978816, -21.339802445549658 ], [ -65.565906680124172, -21.924697127258078 ] ] ] ] } },
{ "type": "Feature", "properties": { "geogrid_id": "7322497927064806689", "seqnum": 4246.0, "lat_c": -22.497926853990379, "lon_c": -64.806688827057314, "res": 7.0, "count_Mosses": 3, "count_Birds": 63, "count_Amphibians": 2, "count_Arachnids": 1, "count_Flowering Plants": 57, "count_Mammals": 6, "count_Insects": 6, "count_Molluscs": 0, "count_Reptiles": 5, "count_Ferns": 1, "count_Gymnosperms": 0, "count_Basidiomycota": 1, "count_Sac Fungi": 1, "unique_species_count": 146.0, "countryCode": "BO" }, "geometry": { "type": "MultiPolygon", "coordinates": [ [ [ [ -64.037826796791165, -22.175964533185496 ], [ -64.040074754523289, -23.061032692344991 ], [ -64.813878976278716, -23.385118503572876 ], [ -65.577089169369017, -22.81401570354301 ], [ -65.565906680124172, -21.924697127258078 ], [ -64.800631701047294, -21.611102383748616 ], [ -64.037826796791165, -22.175964533185496 ] ] ] ] } },
{ "type": "Feature", "properties": { "geogrid_id": "7322731336063268212", "seqnum": 4274.0, "lat_c": -22.731335647917849, "lon_c": -63.268211981920594, "res": 7.0, "count_Mosses": 0, "count_Birds": 0, "count_Amphibians": 0, "count_Arachnids": 0, "count_Flowering Plants": 1, "count_Mammals": 0, "count_Insects": 0, "count_Molluscs": 0, "count_Reptiles": 0, "count_Ferns": 0, "count_Gymnosperms": 0, "count_Basidiomycota": 0, "count_Sac Fungi": 0, "unique_species_count": 1.0, "countryCode": "BO" }, "geometry": { "type": "MultiPolygon", "coordinates": [ [ [ [ -62.498400056164577, -22.396119490025164 ], [ -62.492345523347915, -23.278395604036159 ], [ -63.266720796290493, -23.615280105655739 ], [ -64.040074754523289, -23.061032692344991 ], [ -64.037826796791165, -22.175964533185496 ], [ -63.270631401032723, -21.848217172605764 ], [ -62.498400056164577, -22.396119490025164 ] ] ] ] } },
{ "type": "Feature", "properties": { "geogrid_id": "7323428242067121973", "seqnum": 4245.0, "lat_c": -23.42824233279303, "lon_c": -67.121973477872032, "res": 7.0, "count_Mosses": 0, "count_Birds": 7, "count_Amphibians": 0, "count_Arachnids": 0, "count_Flowering Plants": 1, "count_Mammals": 2, "count_Insects": 0, "count_Molluscs": 0, "count_Reptiles": 0, "count_Ferns": 0, "count_Gymnosperms": 0, "count_Basidiomycota": 0, "count_Sac Fungi": 0, "unique_species_count": 10.0, "countryCode": "BO" }, "geometry": { "type": "MultiPolygon", "coordinates": [ [ [ [ -66.348895874478529, -23.12414724376794 ], [ -66.366854740150373, -24.016107906244308 ], [ -67.14578825654668, -24.32284754063604 ], [ -67.896183123827583, -23.72622661873676 ], [ -67.867646828968503, -22.828246040621814 ], [ -67.099567211369987, -22.533344689636827 ], [ -66.348895874478529, -23.12414724376794 ] ] ] ] } }
]
}
