{
"type": "FeatureCollection",
"name": "BY",
"crs": { "type": "name", "properties": { "name": "urn:ogc:def:crs:OGC:1.3:CRS84" } },
"features": [
{ "type": "Feature", "properties": { "geogrid_id": "851230551030661024", "seqnum": 20403.0, "lat_c": 51.230551191383071, "lon_c": 30.661023519340052, "res": 8.0, "count_Flowering Plants": 80, "count_Ferns": 3, "count_Mammals": 0, "count_Insects": 8, "count_Birds": 3, "count_Sac Fungi": 0, "count_Basidiomycota": 2, "count_Amphibians": 0, "count_Arachnids": 0, "count_Molluscs": 0, "count_Mosses": 1, "count_Gymnosperms": 3, "count_Reptiles": 0, "unique_species_count": 100.0, "countryCode": "BY" }, "geometry": { "type": "MultiPolygon", "coordinates": [ [ [ [ 30.890332141681544, 51.679745265500195 ], [ 31.504249392474563, 51.416319952230879 ], [ 31.270128081755715, 50.967922447717079 ], [ 30.442358793260283, 50.778339361119237 ], [ 29.83060454670807, 51.037246852995565 ], [ 30.044394851939636, 51.490142417874281 ], [ 30.890332141681544, 51.679745265500195 ] ] ] ] } },
{ "type": "Feature", "properties": { "geogrid_id": "851293061029211431", "seqnum": 20322.0, "lat_c": 51.293061235119204, "lon_c": 29.211430505701031, "res": 8.0, "count_Flowering Plants": 32, "count_Ferns": 0, "count_Mammals": 8, "count_Insects": 5, "count_Birds": 8, "count_Sac Fungi": 1, "count_Basidiomycota": 3, "count_Amphibians": 0, "count_Arachnids": 7, "count_Molluscs": 0, "count_Mosses": 2, "count_Gymnosperms": 2, "count_Reptiles": 0, "unique_species_count": 68.0, "countryCode": "BY" }, "geometry": { "type": "MultiPolygon", "coordinates": [ [ [ [ 29.420155778463407, 51.746625466055981 ], [ 30.044394851939636, 51.490142417874281 ], [ 29.83060454670807, 51.037246852995565 ], [ 29.012360089014813, 50.836963982811561 ], [ 28.390811464579613, 51.089046738751939 ], [ 28.584756310675029, 51.545712303462004 ], [ 29.420155778463407, 51.746625466055981 ] ] ] ] } },
{ "type": "Feature", "properties": { "geogrid_id": "851337912027761877", "seqnum": 20241.0, "lat_c": 51.337912425981372, "lon_c": 27.761876807507551, "res": 8.0, "count_Flowering Plants": 38, "count_Ferns": 0, "count_Mammals": 8, "count_Insects": 5, "count_Birds": 3, "count_Sac Fungi": 1, "count_Basidiomycota": 0, "count_Amphibians": 0, "count_Arachnids": 1, "count_Molluscs": 0, "count_Mosses": 3, "count_Gymnosperms": 1, "count_Reptiles": 1, "unique_species_count": 61.0, "countryCode": "BY" }, "geometry": { "type": "MultiPolygon", "coordinates": [ [ [ [ 27.950504578075257, 51.795128341511138 ], [ 28.584756310675029, 51.545712303462004 ], [ 28.390811464579613, 51.089046738751939 ], [ 27.581968873937232, 50.878571641704902 ], [ 26.950950108099093, 51.123689860507191 ], [ 27.125484734154956, 51.583489882522152 ], [ 27.950504578075257, 51.795128341511138 ] ] ] ] } },
{ "type": "Feature", "properties": { "geogrid_id": "851365468026312597", "seqnum": 20160.0, "lat_c": 51.365468403865982, "lon_c": 26.312596993719158, "res": 8.0, "count_Flowering Plants": 0, "count_Ferns": 0, "count_Mammals": 0, "count_Insects": 0, "count_Birds": 1, "count_Sac Fungi": 0, "count_Basidiomycota": 0, "count_Amphibians": 0, "count_Arachnids": 0, "count_Molluscs": 0, "count_Mosses": 0, "count_Gymnosperms": 0, "count_Reptiles": 0, "unique_species_count": 1.0, "countryCode": "BY" }, "geometry": { "type": "MultiPolygon", "coordinates": [ [ [ [ 26.481567319088999, 51.825706498396023 ], [ 27.125484734154956, 51.583489882522152 ], [ 26.950950108099093, 51.123689860507191 ], [ 26.151458863630758, 50.903450397936879 ], [ 25.511323353132155, 51.141463384478392 ], [ 25.666847626174633, 51.603835304763884 ], [ 26.481567319088999, 51.825706498396023 ] ] ] ] } },
{ "type": "Feature", "properties": { "geogrid_id": "851369786023416263", "seqnum": 19998.0, "lat_c": 51.369785574762382, "lon_c": 23.416263157632521, "res": 8.0, "count_Flowering Plants": 194, "count_Ferns": 5, "count_Mammals": 7, "count_Insects": 53, "count_Birds": 48, "count_Sac Fungi": 1, "count_Basidiomycota": 22, "count_Amphibians": 1, "count_Arachnids": 7, "count_Molluscs": 2, "count_Mosses": 12, "count_Gymnosperms": 2, "count_Reptiles": 2, "unique_species_count": 356.0, "countryCode": "BY" }, "geometry": { "type": "MultiPolygon", "coordinates": [ [ [ [ 23.54712301305592, 51.834447880810536 ], [ 24.209205245064954, 51.607035373315 ], [ 24.072314975183115, 51.14259572670683 ], [ 23.291582924643009, 50.903883045204125 ], [ 22.634372700630703, 51.127272734240805 ], [ 22.752991204458166, 51.593323314745028 ], [ 23.54712301305592, 51.834447880810536 ] ] ] ] } },
{ "type": "Feature", "properties": { "geogrid_id": "851861238031749937", "seqnum": 20485.0, "lat_c": 51.861237752529576, "lon_c": 31.749937126486884, "res": 8.0, "count_Flowering Plants": 1, "count_Ferns": 0, "count_Mammals": 0, "count_Insects": 0, "count_Birds": 0, "count_Sac Fungi": 0, "count_Basidiomycota": 0, "count_Amphibians": 0, "count_Arachnids": 0, "count_Molluscs": 0, "count_Mosses": 0, "count_Gymnosperms": 0, "count_Reptiles": 0, "unique_species_count": 1.0, "countryCode": "BY" }, "geometry": { "type": "MultiPolygon", "coordinates": [ [ [ [ 32.00804335021688, 52.302275793764579 ], [ 32.623981188031919, 52.03388261103796 ], [ 32.360984505975743, 51.593905162778547 ], [ 31.504249392474563, 51.416319952230879 ], [ 30.890332141681544, 51.679745265500195 ], [ 31.131074334297082, 52.125574268630956 ], [ 32.00804335021688, 52.302275793764579 ] ] ] ] } },
{ "type": "Feature", "properties": { "geogrid_id": "851940118030268699", "seqnum": 20404.0, "lat_c": 51.940118400728515, "lon_c": 30.268699025334527, "res": 8.0, "count_Flowering Plants": 770, "count_Ferns": 11, "count_Mammals": 20, "count_Insects": 175, "count_Birds": 126, "count_Sac Fungi": 26, "count_Basidiomycota": 39, "count_Amphibians": 5, "count_Arachnids": 4, "count_Molluscs": 8, "count_Mosses": 28, "count_Gymnosperms": 6, "count_Reptiles": 4, "unique_species_count": 1222.0, "countryCode": "BY" }, "geometry": { "type": "MultiPolygon", "coordinates": [ [ [ [ 30.504299690322522, 52.386841792625283 ], [ 31.131074334297082, 52.125574268630956 ], [ 30.890332141681544, 51.679745265500195 ], [ 30.044394851939636, 51.490142417874281 ], [ 29.420155778463407, 51.746625466055981 ], [ 29.639260153958926, 52.197366723516012 ], [ 30.504299690322522, 52.386841792625283 ] ] ] ] } },
{ "type": "Feature", "properties": { "geogrid_id": "851999928028788223", "seqnum": 20323.0, "lat_c": 51.999928118363052, "lon_c": 28.78822275211213, "res": 8.0, "count_Flowering Plants": 659, "count_Ferns": 15, "count_Mammals": 26, "count_Insects": 176, "count_Birds": 197, "count_Sac Fungi": 18, "count_Basidiomycota": 26, "count_Amphibians": 4, "count_Arachnids": 23, "count_Molluscs": 3, "count_Mosses": 6, "count_Gymnosperms": 3, "count_Reptiles": 4, "unique_species_count": 1160.0, "countryCode": "BY" }, "geometry": { "type": "MultiPolygon", "coordinates": [ [ [ [ 29.001928449053267, 52.451416004148243 ], [ 29.639260153958926, 52.197366723516012 ], [ 29.420155778463407, 51.746625466055981 ], [ 28.584756310675029, 51.545712303462004 ], [ 27.950504578075257, 51.795128341511138 ], [ 28.148515271699733, 52.249976609440637 ], [ 29.001928449053267, 52.451416004148243 ] ] ] ] } },
{ "type": "Feature", "properties": { "geogrid_id": "852041236027308601", "seqnum": 20242.0, "lat_c": 52.041236133632324, "lon_c": 27.308601186190053, "res": 8.0, "count_Flowering Plants": 621, "count_Ferns": 7, "count_Mammals": 35, "count_Insects": 310, "count_Birds": 199, "count_Sac Fungi": 22, "count_Basidiomycota": 33, "count_Amphibians": 9, "count_Arachnids": 18, "count_Molluscs": 10, "count_Mosses": 24, "count_Gymnosperms": 5, "count_Reptiles": 7, "unique_species_count": 1300.0, "countryCode": "BY" }, "geometry": { "type": "MultiPolygon", "coordinates": [ [ [ [ 27.500956187038401, 52.496695637924375 ], [ 28.148515271699733, 52.249976609440637 ], [ 27.950504578075257, 51.795128341511138 ], [ 27.125484734154956, 51.583489882522152 ], [ 26.481567319088999, 51.825706498396023 ], [ 26.658975574035292, 52.283960981531962 ], [ 27.500956187038401, 52.496695637924375 ] ] ] ] } },
{ "type": "Feature", "properties": { "geogrid_id": "852058178022877633", "seqnum": 19999.0, "lat_c": 52.058178303575446, "lon_c": 22.877633113746157, "res": 8.0, "count_Flowering Plants": 332, "count_Ferns": 7, "count_Mammals": 12, "count_Insects": 179, "count_Birds": 83, "count_Sac Fungi": 11, "count_Basidiomycota": 26, "count_Amphibians": 6, "count_Arachnids": 7, "count_Molluscs": 5, "count_Mosses": 69, "count_Gymnosperms": 5, "count_Reptiles": 1, "unique_species_count": 743.0, "countryCode": "BY" }, "geometry": { "type": "MultiPolygon", "coordinates": [ [ [ [ 23.008792890157988, 52.521699812158957 ], [ 23.684663495955679, 52.297726107399349 ], [ 23.54712301305592, 51.834447880810536 ], [ 22.752991204458166, 51.593323314745028 ], [ 22.082462139108987, 51.813134696940651 ], [ 22.200697489045119, 52.27815030423568 ], [ 23.008792890157988, 52.521699812158957 ] ] ] ] } },
{ "type": "Feature", "properties": { "geogrid_id": "852064488025830060", "seqnum": 20161.0, "lat_c": 52.064488236289066, "lon_c": 25.830060386591022, "res": 8.0, "count_Flowering Plants": 875, "count_Ferns": 10, "count_Mammals": 9, "count_Insects": 179, "count_Birds": 85, "count_Sac Fungi": 23, "count_Basidiomycota": 54, "count_Amphibians": 2, "count_Arachnids": 20, "count_Molluscs": 8, "count_Mosses": 11, "count_Gymnosperms": 22, "count_Reptiles": 4, "unique_species_count": 1302.0, "countryCode": "BY" }, "geometry": { "type": "MultiPolygon", "coordinates": [ [ [ [ 26.00156105302716, 52.523226724096816 ], [ 26.658975574035292, 52.283960981531962 ], [ 26.481567319088999, 51.825706498396023 ], [ 25.666847626174633, 51.603835304763884 ], [ 25.013644018432167, 51.83871722652961 ], [ 25.170903813819535, 52.299759655559662 ], [ 26.00156105302716, 52.523226724096816 ] ] ] ] } },
{ "type": "Feature", "properties": { "geogrid_id": "852070039024352932", "seqnum": 20080.0, "lat_c": 52.070039490524792, "lon_c": 24.352932395012679, "res": 8.0, "count_Flowering Plants": 859, "count_Ferns": 11, "count_Mammals": 28, "count_Insects": 580, "count_Birds": 217, "count_Sac Fungi": 36, "count_Basidiomycota": 91, "count_Amphibians": 11, "count_Arachnids": 50, "count_Molluscs": 17, "count_Mosses": 118, "count_Gymnosperms": 4, "count_Reptiles": 6, "unique_species_count": 2028.0, "countryCode": "BY" }, "geometry": { "type": "MultiPolygon", "coordinates": [ [ [ [ 24.504041845185284, 52.531443939854469 ], [ 25.170903813819535, 52.299759655559662 ], [ 25.013644018432167, 51.83871722652961 ], [ 24.209205245064954, 51.607035373315 ], [ 23.54712301305592, 51.834447880810536 ], [ 23.684663495955679, 52.297726107399349 ], [ 24.504041845185284, 52.531443939854469 ] ] ] ] } },
{ "type": "Feature", "properties": { "geogrid_id": "852567655031384095", "seqnum": 20486.0, "lat_c": 52.567655013632979, "lon_c": 31.38409459424755, "res": 8.0, "count_Flowering Plants": 549, "count_Ferns": 5, "count_Mammals": 19, "count_Insects": 298, "count_Birds": 114, "count_Sac Fungi": 14, "count_Basidiomycota": 29, "count_Amphibians": 11, "count_Arachnids": 20, "count_Molluscs": 10, "count_Mosses": 7, "count_Gymnosperms": 4, "count_Reptiles": 5, "unique_species_count": 1085.0, "countryCode": "BY" }, "geometry": { "type": "MultiPolygon", "coordinates": [ [ [ [ 31.344676982397907, 53.13269504408651 ], [ 31.977837282420477, 52.867614174789672 ], [ 32.00804335021688, 52.302275793764579 ], [ 31.131074334297082, 52.125574268630956 ], [ 30.504299690322522, 52.386841792625283 ], [ 30.752033980003244, 52.829945575645041 ], [ 31.344676982397907, 53.13269504408651 ] ] ] ] } },
{ "type": "Feature", "properties": { "geogrid_id": "852644966029869519", "seqnum": 20405.0, "lat_c": 52.64496576152321, "lon_c": 29.869519316148292, "res": 8.0, "count_Flowering Plants": 833, "count_Ferns": 7, "count_Mammals": 9, "count_Insects": 220, "count_Birds": 60, "count_Sac Fungi": 17, "count_Basidiomycota": 45, "count_Amphibians": 4, "count_Arachnids": 17, "count_Molluscs": 10, "count_Mosses": 8, "count_Gymnosperms": 3, "count_Reptiles": 5, "unique_species_count": 1238.0, "countryCode": "BY" }, "geometry": { "type": "MultiPolygon", "coordinates": [ [ [ [ 30.111763182840129, 53.089071080823402 ], [ 30.752033980003244, 52.829945575645041 ], [ 30.504299690322522, 52.386841792625283 ], [ 29.639260153958926, 52.197366723516012 ], [ 29.001928449053267, 52.451416004148243 ], [ 29.226642208552125, 52.899869969361596 ], [ 30.111763182840129, 53.089071080823402 ] ] ] ] } },
{ "type": "Feature", "properties": { "geogrid_id": "852702190028356620", "seqnum": 20324.0, "lat_c": 52.70219042432123, "lon_c": 28.356619953820591, "res": 8.0, "count_Flowering Plants": 255, "count_Ferns": 3, "count_Mammals": 5, "count_Insects": 125, "count_Birds": 110, "count_Sac Fungi": 9, "count_Basidiomycota": 20, "count_Amphibians": 9, "count_Arachnids": 6, "count_Molluscs": 1, "count_Mosses": 10, "count_Gymnosperms": 3, "count_Reptiles": 4, "unique_species_count": 560.0, "countryCode": "BY" }, "geometry": { "type": "MultiPolygon", "coordinates": [ [ [ [ 28.575580570192979, 53.151476572267526 ], [ 29.226642208552125, 52.899869969361596 ], [ 29.001928449053267, 52.451416004148243 ], [ 28.148515271699733, 52.249976609440637 ], [ 27.500956187038401, 52.496695637924375 ], [ 27.703254158931614, 52.949612587341569 ], [ 28.575580570192979, 53.151476572267526 ] ] ] ] } },
{ "type": "Feature", "properties": { "geogrid_id": "852740008026845472", "seqnum": 20243.0, "lat_c": 52.74000838164465, "lon_c": 26.845472018235188, "res": 8.0, "count_Flowering Plants": 538, "count_Ferns": 7, "count_Mammals": 13, "count_Insects": 114, "count_Birds": 88, "count_Sac Fungi": 9, "count_Basidiomycota": 20, "count_Amphibians": 4, "count_Arachnids": 7, "count_Molluscs": 10, "count_Mosses": 8, "count_Gymnosperms": 4, "count_Reptiles": 6, "unique_species_count": 828.0, "countryCode": "BY" }, "geometry": { "type": "MultiPolygon", "coordinates": [ [ [ [ 27.041754343198249, 53.193603532090826 ], [ 27.703254158931614, 52.949612587341569 ], [ 27.500956187038401, 52.496695637924375 ], [ 26.658975574035292, 52.283960981531962 ], [ 26.00156105302716, 52.523226724096816 ], [ 26.181993288657644, 52.979836516540672 ], [ 27.041754343198249, 53.193603532090826 ] ] ] ] } },
{ "type": "Feature", "properties": { "geogrid_id": "852758956025336295", "seqnum": 20162.0, "lat_c": 52.758955760888973, "lon_c": 25.336295131091603, "res": 8.0, "count_Flowering Plants": 886, "count_Ferns": 10, "count_Mammals": 20, "count_Insects": 288, "count_Birds": 159, "count_Sac Fungi": 26, "count_Basidiomycota": 73, "count_Amphibians": 5, "count_Arachnids": 8, "count_Molluscs": 9, "count_Mosses": 26, "count_Gymnosperms": 6, "count_Reptiles": 6, "unique_species_count": 1522.0, "countryCode": "BY" }, "geometry": { "type": "MultiPolygon", "coordinates": [ [ [ [ 25.510454871225093, 53.21610023957075 ], [ 26.181993288657644, 52.979836516540672 ], [ 26.00156105302716, 52.523226724096816 ], [ 25.170903813819535, 52.299759655559662 ], [ 24.504041845185284, 52.531443939854469 ], [ 24.66311984875945, 52.991069079571723 ], [ 25.510454871225093, 53.21610023957075 ] ] ] ] } },
{ "type": "Feature", "properties": { "geogrid_id": "852759463023829423", "seqnum": 20081.0, "lat_c": 52.759462928593699, "lon_c": 23.829423417393315, "res": 8.0, "count_Flowering Plants": 766, "count_Ferns": 12, "count_Mammals": 36, "count_Insects": 405, "count_Birds": 137, "count_Sac Fungi": 88, "count_Basidiomycota": 345, "count_Amphibians": 9, "count_Arachnids": 30, "count_Molluscs": 10, "count_Mosses": 54, "count_Gymnosperms": 8, "count_Reptiles": 5, "unique_species_count": 1905.0, "countryCode": "BY" }, "geometry": { "type": "MultiPolygon", "coordinates": [ [ [ [ 23.981982126686653, 53.219486287539063 ], [ 24.66311984875945, 52.991069079571723 ], [ 24.504041845185284, 52.531443939854469 ], [ 23.684663495955679, 52.297726107399349 ], [ 23.008792890157988, 52.521699812158957 ], [ 23.147002494500718, 52.983737152581966 ], [ 23.981982126686653, 53.219486287539063 ] ] ] ] } },
{ "type": "Feature", "properties": { "geogrid_id": "853344953029463187", "seqnum": 20406.0, "lat_c": 53.344953426487862, "lon_c": 29.463186827110178, "res": 8.0, "count_Flowering Plants": 387, "count_Ferns": 6, "count_Mammals": 13, "count_Insects": 179, "count_Birds": 184, "count_Sac Fungi": 6, "count_Basidiomycota": 19, "count_Amphibians": 4, "count_Arachnids": 10, "count_Molluscs": 7, "count_Mosses": 5, "count_Gymnosperms": 5, "count_Reptiles": 4, "unique_species_count": 829.0, "countryCode": "BY" }, "geometry": { "type": "MultiPolygon", "coordinates": [ [ [ [ 29.394596172124832, 53.908725875683857 ], [ 30.053156678620365, 53.65333074472904 ], [ 30.111763182840129, 53.089071080823402 ], [ 29.226642208552125, 52.899869969361596 ], [ 28.575580570192979, 53.151476572267526 ], [ 28.806212837168268, 53.597512810287647 ], [ 29.394596172124832, 53.908725875683857 ] ] ] ] } },
{ "type": "Feature", "properties": { "geogrid_id": "853394627030703151", "seqnum": 20487.0, "lat_c": 53.394626887510213, "lon_c": 30.703150733101179, "res": 8.0, "count_Flowering Plants": 366, "count_Ferns": 6, "count_Mammals": 21, "count_Insects": 554, "count_Birds": 153, "count_Sac Fungi": 5, "count_Basidiomycota": 19, "count_Amphibians": 6, "count_Arachnids": 32, "count_Molluscs": 12, "count_Mosses": 8, "count_Gymnosperms": 3, "count_Reptiles": 4, "unique_species_count": 1189.0, "countryCode": "BY" }, "geometry": { "type": "MultiPolygon", "coordinates": [ [ [ [ 30.659186264606689, 53.955978439643815 ], [ 31.310532532380353, 53.694315341499617 ], [ 31.344676982397907, 53.13269504408651 ], [ 30.752033980003244, 52.829945575645041 ], [ 30.111763182840129, 53.089071080823402 ], [ 30.053156678620365, 53.65333074472904 ], [ 30.659186264606689, 53.955978439643815 ] ] ] ] } },
{ "type": "Feature", "properties": { "geogrid_id": "853399706027916250", "seqnum": 20325.0, "lat_c": 53.399706097319083, "lon_c": 27.916250156472593, "res": 8.0, "count_Flowering Plants": 497, "count_Ferns": 5, "count_Mammals": 21, "count_Insects": 306, "count_Birds": 191, "count_Sac Fungi": 23, "count_Basidiomycota": 83, "count_Amphibians": 8, "count_Arachnids": 21, "count_Molluscs": 8, "count_Mosses": 23, "count_Gymnosperms": 6, "count_Reptiles": 6, "unique_species_count": 1198.0, "countryCode": "BY" }, "geometry": { "type": "MultiPolygon", "coordinates": [ [ [ [ 28.140752805909568, 53.846667738295928 ], [ 28.806212837168268, 53.597512810287647 ], [ 28.575580570192979, 53.151476572267526 ], [ 27.703254158931614, 52.949612587341569 ], [ 27.041754343198249, 53.193603532090826 ], [ 27.248570638477531, 53.644477455500791 ], [ 28.140752805909568, 53.846667738295928 ] ] ] ] } },
{ "type": "Feature", "properties": { "geogrid_id": "853429438031953249", "seqnum": 20568.0, "lat_c": 53.429438031202707, "lon_c": 31.953248891181207, "res": 8.0, "count_Flowering Plants": 344, "count_Ferns": 6, "count_Mammals": 3, "count_Insects": 33, "count_Birds": 40, "count_Sac Fungi": 8, "count_Basidiomycota": 9, "count_Amphibians": 1, "count_Arachnids": 9, "count_Molluscs": 3, "count_Mosses": 4, "count_Gymnosperms": 3, "count_Reptiles": 1, "unique_species_count": 464.0, "countryCode": "BY" }, "geometry": { "type": "MultiPolygon", "coordinates": [ [ [ [ 31.933413892697853, 53.988120439982573 ], [ 32.577226595184825, 53.720166369427979 ], [ 32.587444125910388, 53.161426149692659 ], [ 31.977837282420477, 52.867614174789672 ], [ 31.344676982397907, 53.13269504408651 ], [ 31.310532532380353, 53.694315341499617 ], [ 31.933413892697853, 53.988120439982573 ] ] ] ] } },
{ "type": "Feature", "properties": { "geogrid_id": "853434083026372048", "seqnum": 20244.0, "lat_c": 53.434082751047548, "lon_c": 26.372047928934563, "res": 8.0, "count_Flowering Plants": 829, "count_Ferns": 10, "count_Mammals": 29, "count_Insects": 543, "count_Birds": 132, "count_Sac Fungi": 69, "count_Basidiomycota": 108, "count_Amphibians": 4, "count_Arachnids": 189, "count_Molluscs": 13, "count_Mosses": 46, "count_Gymnosperms": 7, "count_Reptiles": 5, "unique_species_count": 1984.0, "countryCode": "BY" }, "geometry": { "type": "MultiPolygon", "coordinates": [ [ [ [ 26.572465981796054, 53.885707959058031 ], [ 27.248570638477531, 53.644477455500791 ], [ 27.041754343198249, 53.193603532090826 ], [ 26.181993288657644, 52.979836516540672 ], [ 25.510454871225093, 53.21610023957075 ], [ 25.694066851669028, 53.670968212662736 ], [ 26.572465981796054, 53.885707959058031 ] ] ] ] } },
{ "type": "Feature", "properties": { "geogrid_id": "853444126023292834", "seqnum": 20082.0, "lat_c": 53.444125648017618, "lon_c": 23.292834123919924, "res": 8.0, "count_Flowering Plants": 635, "count_Ferns": 7, "count_Mammals": 15, "count_Insects": 199, "count_Birds": 140, "count_Sac Fungi": 17, "count_Basidiomycota": 28, "count_Amphibians": 4, "count_Arachnids": 17, "count_Molluscs": 9, "count_Mosses": 85, "count_Gymnosperms": 4, "count_Reptiles": 2, "unique_species_count": 1162.0, "countryCode": "BY" }, "geometry": { "type": "MultiPolygon", "coordinates": [ [ [ [ 23.446903092002792, 53.902685325619508 ], [ 24.142962379494623, 53.677608010682071 ], [ 23.981982126686653, 53.219486287539063 ], [ 23.147002494500718, 52.983737152581966 ], [ 22.456738412223622, 53.20418587399498 ], [ 22.595633606099149, 53.664904120903778 ], [ 23.446903092002792, 53.902685325619508 ] ] ] ] } },
{ "type": "Feature", "properties": { "geogrid_id": "853448718024830796", "seqnum": 20163.0, "lat_c": 53.448718295904591, "lon_c": 24.830796347570431, "res": 8.0, "count_Flowering Plants": 731, "count_Ferns": 8, "count_Mammals": 13, "count_Insects": 599, "count_Birds": 103, "count_Sac Fungi": 36, "count_Basidiomycota": 111, "count_Amphibians": 7, "count_Arachnids": 26, "count_Molluscs": 19, "count_Mosses": 22, "count_Gymnosperms": 3, "count_Reptiles": 5, "unique_species_count": 1683.0, "countryCode": "BY" }, "geometry": { "type": "MultiPolygon", "coordinates": [ [ [ [ 25.007747943747116, 53.904176388386148 ], [ 25.694066851669028, 53.670968212662736 ], [ 25.510454871225093, 53.21610023957075 ], [ 24.66311984875945, 52.991069079571723 ], [ 23.981982126686653, 53.219486287539063 ], [ 24.142962379494623, 53.677608010682071 ], [ 25.007747943747116, 53.904176388386148 ] ] ] ] } },
{ "type": "Feature", "properties": { "geogrid_id": "853449091033212363", "seqnum": 20649.0, "lat_c": 53.449091105205085, "lon_c": 33.212363020554939, "res": 8.0, "count_Flowering Plants": 1, "count_Ferns": 1, "count_Mammals": 0, "count_Insects": 2, "count_Birds": 2, "count_Sac Fungi": 0, "count_Basidiomycota": 0, "count_Amphibians": 0, "count_Arachnids": 0, "count_Molluscs": 0, "count_Mosses": 0, "count_Gymnosperms": 0, "count_Reptiles": 0, "unique_species_count": 6.0, "countryCode": "BY" }, "geometry": { "type": "MultiPolygon", "coordinates": [ [ [ [ 33.216118153617664, 54.004871702240017 ], [ 33.852075168737002, 53.730608845494615 ], [ 33.83894188888349, 53.174972842311789 ], [ 33.213229755870991, 52.890357464865289 ], [ 32.587444125910388, 53.161426149692659 ], [ 32.577226595184825, 53.720166369427979 ], [ 33.216118153617664, 54.004871702240017 ] ] ] ] } },
{ "type": "Feature", "properties": { "geogrid_id": "854092335027466722", "seqnum": 20326.0, "lat_c": 54.092335037482485, "lon_c": 27.466722380768676, "res": 8.0, "count_Flowering Plants": 2065, "count_Ferns": 14, "count_Mammals": 41, "count_Insects": 919, "count_Birds": 231, "count_Sac Fungi": 181, "count_Basidiomycota": 418, "count_Amphibians": 11, "count_Arachnids": 77, "count_Molluscs": 31, "count_Mosses": 95, "count_Gymnosperms": 56, "count_Reptiles": 6, "unique_species_count": 4145.0, "countryCode": "BY" }, "geometry": { "type": "MultiPolygon", "coordinates": [ [ [ [ 27.366585739799373, 54.654224970319881 ], [ 28.051399565319237, 54.40925813995792 ], [ 28.140752805909568, 53.846667738295928 ], [ 27.248570638477531, 53.644477455500791 ], [ 26.572465981796054, 53.885707959058031 ], [ 26.784041666987747, 54.334429872888151 ], [ 27.366585739799373, 54.654224970319881 ] ] ] ] } },
{ "type": "Feature", "properties": { "geogrid_id": "854123313025887865", "seqnum": 20245.0, "lat_c": 54.123313343559559, "lon_c": 25.887864840878606, "res": 8.0, "count_Flowering Plants": 791, "count_Ferns": 12, "count_Mammals": 32, "count_Insects": 746, "count_Birds": 173, "count_Sac Fungi": 73, "count_Basidiomycota": 188, "count_Amphibians": 7, "count_Arachnids": 37, "count_Molluscs": 16, "count_Mosses": 72, "count_Gymnosperms": 6, "count_Reptiles": 5, "unique_species_count": 2158.0, "countryCode": "BY" }, "geometry": { "type": "MultiPolygon", "coordinates": [ [ [ [ 26.092635647822618, 54.572865769831246 ], [ 26.784041666987747, 54.334429872888151 ], [ 26.572465981796054, 53.885707959058031 ], [ 25.694066851669028, 53.670968212662736 ], [ 25.007747943747116, 53.904176388386148 ], [ 25.194700968471786, 54.357207794980468 ], [ 26.092635647822618, 54.572865769831246 ] ] ] ] } },
{ "type": "Feature", "properties": { "geogrid_id": "854133622024313033", "seqnum": 20164.0, "lat_c": 54.133622284640651, "lon_c": 24.313033331226357, "res": 8.0, "count_Flowering Plants": 267, "count_Ferns": 9, "count_Mammals": 3, "count_Insects": 49, "count_Birds": 30, "count_Sac Fungi": 7, "count_Basidiomycota": 13, "count_Amphibians": 1, "count_Arachnids": 10, "count_Molluscs": 3, "count_Mosses": 36, "count_Gymnosperms": 4, "count_Reptiles": 2, "unique_species_count": 434.0, "countryCode": "BY" }, "geometry": { "type": "MultiPolygon", "coordinates": [ [ [ [ 24.492913639503897, 54.587303982119288 ], [ 25.194700968471786, 54.357207794980468 ], [ 25.007747943747116, 53.904176388386148 ], [ 24.142962379494623, 53.677608010682071 ], [ 23.446903092002792, 53.902685325619508 ], [ 23.609870843317317, 54.359219480039933 ], [ 24.492913639503897, 54.587303982119288 ] ] ] ] } },
{ "type": "Feature", "properties": { "geogrid_id": "854160730028727374", "seqnum": 20407.0, "lat_c": 54.160729766526408, "lon_c": 28.727374156701842, "res": 8.0, "count_Flowering Plants": 649, "count_Ferns": 10, "count_Mammals": 15, "count_Insects": 930, "count_Birds": 145, "count_Sac Fungi": 24, "count_Basidiomycota": 63, "count_Amphibians": 6, "count_Arachnids": 28, "count_Molluscs": 17, "count_Mosses": 20, "count_Gymnosperms": 4, "count_Reptiles": 5, "unique_species_count": 1916.0, "countryCode": "BY" }, "geometry": { "type": "MultiPolygon", "coordinates": [ [ [ [ 28.652329122722868, 54.720857992209694 ], [ 29.330184784613202, 54.469334076751657 ], [ 29.394596172124832, 53.908725875683857 ], [ 28.806212837168268, 53.597512810287647 ], [ 28.140752805909568, 53.846667738295928 ], [ 28.051399565319237, 54.40925813995792 ], [ 28.652329122722868, 54.720857992209694 ] ] ] ] } },
{ "type": "Feature", "properties": { "geogrid_id": "854214346029999104", "seqnum": 20488.0, "lat_c": 54.214345812035837, "lon_c": 29.999104408899967, "res": 8.0, "count_Flowering Plants": 535, "count_Ferns": 6, "count_Mammals": 30, "count_Insects": 432, "count_Birds": 197, "count_Sac Fungi": 14, "count_Basidiomycota": 44, "count_Amphibians": 6, "count_Arachnids": 26, "count_Molluscs": 15, "count_Mosses": 10, "count_Gymnosperms": 5, "count_Reptiles": 5, "unique_species_count": 1325.0, "countryCode": "BY" }, "geometry": { "type": "MultiPolygon", "coordinates": [ [ [ [ 29.948772288371465, 54.77244391188627 ], [ 30.619298176640406, 54.514342343663799 ], [ 30.659186264606689, 53.955978439643815 ], [ 30.053156678620365, 53.65333074472904 ], [ 29.394596172124832, 53.908725875683857 ], [ 29.330184784613202, 54.469334076751657 ], [ 29.948772288371465, 54.77244391188627 ] ] ] ] } },
{ "type": "Feature", "properties": { "geogrid_id": "854252873031280809", "seqnum": 20569.0, "lat_c": 54.252873146734721, "lon_c": 31.280808796983536, "res": 8.0, "count_Flowering Plants": 373, "count_Ferns": 6, "count_Mammals": 4, "count_Insects": 113, "count_Birds": 45, "count_Sac Fungi": 10, "count_Basidiomycota": 12, "count_Amphibians": 1, "count_Arachnids": 4, "count_Molluscs": 2, "count_Mosses": 5, "count_Gymnosperms": 4, "count_Reptiles": 2, "unique_species_count": 581.0, "countryCode": "BY" }, "geometry": { "type": "MultiPolygon", "coordinates": [ [ [ [ 31.254763905700322, 54.80868533668572 ], [ 31.917584915057734, 54.543991561448472 ], [ 31.933413892697853, 53.988120439982573 ], [ 31.310532532380353, 53.694315341499617 ], [ 30.659186264606689, 53.955978439643815 ], [ 30.619298176640406, 54.514342343663799 ], [ 31.254763905700322, 54.80868533668572 ] ] ] ] } },
{ "type": "Feature", "properties": { "geogrid_id": "854807555025392435", "seqnum": 20246.0, "lat_c": 54.807554641480642, "lon_c": 25.392434621202796, "res": 8.0, "count_Flowering Plants": 99, "count_Ferns": 2, "count_Mammals": 0, "count_Insects": 6, "count_Birds": 2, "count_Sac Fungi": 0, "count_Basidiomycota": 2, "count_Amphibians": 0, "count_Arachnids": 1, "count_Molluscs": 0, "count_Mosses": 9, "count_Gymnosperms": 1, "count_Reptiles": 1, "unique_species_count": 123.0, "countryCode": "BY" }, "geometry": { "type": "MultiPolygon", "coordinates": [ [ [ [ 25.258317729581481, 55.366870183970477 ], [ 25.970118442629431, 55.133121284094948 ], [ 26.092635647822618, 54.572865769831246 ], [ 25.194700968471786, 54.357207794980468 ], [ 24.492913639503897, 54.587303982119288 ], [ 24.683374652193553, 55.038406822132572 ], [ 25.258317729581481, 55.366870183970477 ] ] ] ] } },
{ "type": "Feature", "properties": { "geogrid_id": "854895543026672851", "seqnum": 20327.0, "lat_c": 54.895542503796605, "lon_c": 26.672850868548792, "res": 8.0, "count_Flowering Plants": 664, "count_Ferns": 13, "count_Mammals": 26, "count_Insects": 357, "count_Birds": 114, "count_Sac Fungi": 74, "count_Basidiomycota": 90, "count_Amphibians": 6, "count_Arachnids": 92, "count_Molluscs": 13, "count_Mosses": 169, "count_Gymnosperms": 5, "count_Reptiles": 4, "unique_species_count": 1627.0, "countryCode": "BY" }, "geometry": { "type": "MultiPolygon", "coordinates": [ [ [ [ 26.564231159144729, 55.453763649743024 ], [ 27.269438794246657, 55.21316259618569 ], [ 27.366585739799373, 54.654224970319881 ], [ 26.784041666987747, 54.334429872888151 ], [ 26.092635647822618, 54.572865769831246 ], [ 25.970118442629431, 55.133121284094948 ], [ 26.564231159144729, 55.453763649743024 ] ] ] ] } },
{ "type": "Feature", "properties": { "geogrid_id": "854968830027965444", "seqnum": 20408.0, "lat_c": 54.968830470558927, "lon_c": 27.96544350005335, "res": 8.0, "count_Flowering Plants": 579, "count_Ferns": 10, "count_Mammals": 25, "count_Insects": 251, "count_Birds": 128, "count_Sac Fungi": 21, "count_Basidiomycota": 46, "count_Amphibians": 5, "count_Arachnids": 30, "count_Molluscs": 10, "count_Mosses": 18, "count_Gymnosperms": 4, "count_Reptiles": 5, "unique_species_count": 1132.0, "countryCode": "BY" }, "geometry": { "type": "MultiPolygon", "coordinates": [ [ [ [ 27.882065516530822, 55.525672247033313 ], [ 28.580255255873301, 55.27819787032012 ], [ 28.652329122722868, 54.720857992209694 ], [ 28.051399565319237, 54.40925813995792 ], [ 27.366585739799373, 54.654224970319881 ], [ 27.269438794246657, 55.21316259618569 ], [ 27.882065516530822, 55.525672247033313 ] ] ] ] } },
{ "type": "Feature", "properties": { "geogrid_id": "855027092029269125", "seqnum": 20489.0, "lat_c": 55.02709176687685, "lon_c": 29.269125203240836, "res": 8.0, "count_Flowering Plants": 396, "count_Ferns": 7, "count_Mammals": 19, "count_Insects": 155, "count_Birds": 75, "count_Sac Fungi": 14, "count_Basidiomycota": 33, "count_Amphibians": 4, "count_Arachnids": 12, "count_Molluscs": 9, "count_Mosses": 12, "count_Gymnosperms": 4, "count_Reptiles": 5, "unique_species_count": 745.0, "countryCode": "BY" }, "geometry": { "type": "MultiPolygon", "coordinates": [ [ [ [ 29.21068312204293, 55.582278917553424 ], [ 29.901424955130498, 55.327916871482302 ], [ 29.948772288371465, 54.77244391188627 ], [ 29.330184784613202, 54.469334076751657 ], [ 28.652329122722868, 54.720857992209694 ], [ 28.580255255873301, 55.27819787032012 ], [ 29.21068312204293, 55.582278917553424 ] ] ] ] } },
{ "type": "Feature", "properties": { "geogrid_id": "855070023030582749", "seqnum": 20570.0, "lat_c": 55.070022714067505, "lon_c": 30.582748593942622, "res": 8.0, "count_Flowering Plants": 401, "count_Ferns": 10, "count_Mammals": 17, "count_Insects": 364, "count_Birds": 135, "count_Sac Fungi": 12, "count_Basidiomycota": 44, "count_Amphibians": 6, "count_Arachnids": 28, "count_Molluscs": 12, "count_Mosses": 7, "count_Gymnosperms": 3, "count_Reptiles": 4, "unique_species_count": 1043.0, "countryCode": "BY" }, "geometry": { "type": "MultiPolygon", "coordinates": [ [ [ [ 30.548886296380797, 55.623290800786059 ], [ 31.231747620964793, 55.362033977216001 ], [ 31.254763905700322, 54.80868533668572 ], [ 30.619298176640406, 54.514342343663799 ], [ 29.948772288371465, 54.77244391188627 ], [ 29.901424955130498, 55.327916871482302 ], [ 30.548886296380797, 55.623290800786059 ] ] ] ] } },
{ "type": "Feature", "properties": { "geogrid_id": "855690541025849743", "seqnum": 20328.0, "lat_c": 55.690541138111627, "lon_c": 25.849742520069249, "res": 8.0, "count_Flowering Plants": 1, "count_Ferns": 1, "count_Mammals": 0, "count_Insects": 0, "count_Birds": 0, "count_Sac Fungi": 0, "count_Basidiomycota": 0, "count_Amphibians": 0, "count_Arachnids": 0, "count_Molluscs": 0, "count_Mosses": 0, "count_Gymnosperms": 0, "count_Reptiles": 0, "unique_species_count": 2.0, "countryCode": "BY" }, "geometry": { "type": "MultiPolygon", "coordinates": [ [ [ [ 25.730689827865547, 56.245376725503576 ], [ 26.457365611695828, 56.009356375826741 ], [ 26.564231159144729, 55.453763649743024 ], [ 25.970118442629431, 55.133121284094948 ], [ 25.258317729581481, 55.366870183970477 ], [ 25.125901088281989, 55.923400830703493 ], [ 25.730689827865547, 56.245376725503576 ] ] ] ] } },
{ "type": "Feature", "properties": { "geogrid_id": "855769423027174464", "seqnum": 20409.0, "lat_c": 55.769423007408385, "lon_c": 27.174464285832549, "res": 8.0, "count_Flowering Plants": 424, "count_Ferns": 7, "count_Mammals": 9, "count_Insects": 213, "count_Birds": 132, "count_Sac Fungi": 20, "count_Basidiomycota": 26, "count_Amphibians": 6, "count_Arachnids": 52, "count_Molluscs": 5, "count_Mosses": 30, "count_Gymnosperms": 4, "count_Reptiles": 4, "unique_species_count": 932.0, "countryCode": "BY" }, "geometry": { "type": "MultiPolygon", "coordinates": [ [ [ [ 27.080922592316202, 56.323252794732603 ], [ 27.800529150936018, 56.080040861001685 ], [ 27.882065516530822, 55.525672247033313 ], [ 27.269438794246657, 55.21316259618569 ], [ 26.564231159144729, 55.453763649743024 ], [ 26.457365611695828, 56.009356375826741 ], [ 27.080922592316202, 56.323252794732603 ] ] ] ] } },
{ "type": "Feature", "properties": { "geogrid_id": "855833018028510418", "seqnum": 20490.0, "lat_c": 55.833017906920759, "lon_c": 28.510417873991155, "res": 8.0, "count_Flowering Plants": 458, "count_Ferns": 9, "count_Mammals": 24, "count_Insects": 313, "count_Birds": 132, "count_Sac Fungi": 17, "count_Basidiomycota": 36, "count_Amphibians": 5, "count_Arachnids": 19, "count_Molluscs": 7, "count_Mosses": 24, "count_Gymnosperms": 4, "count_Reptiles": 6, "unique_species_count": 1054.0, "countryCode": "BY" }, "geometry": { "type": "MultiPolygon", "coordinates": [ [ [ [ 28.442154935522076, 56.385558799556165 ], [ 29.154201409296142, 56.135146128213485 ], [ 29.21068312204293, 55.582278917553424 ], [ 28.580255255873301, 55.27819787032012 ], [ 27.882065516530822, 55.525672247033313 ], [ 27.800529150936018, 56.080040861001685 ], [ 28.442154935522076, 56.385558799556165 ] ] ] ] } },
{ "type": "Feature", "properties": { "geogrid_id": "855881025029856409", "seqnum": 20571.0, "lat_c": 55.881025463381363, "lon_c": 29.856408888198978, "res": 8.0, "count_Flowering Plants": 208, "count_Ferns": 5, "count_Mammals": 16, "count_Insects": 63, "count_Birds": 31, "count_Sac Fungi": 7, "count_Basidiomycota": 3, "count_Amphibians": 0, "count_Arachnids": 11, "count_Molluscs": 2, "count_Mosses": 16, "count_Gymnosperms": 2, "count_Reptiles": 3, "unique_species_count": 367.0, "countryCode": "BY" }, "geometry": { "type": "MultiPolygon", "coordinates": [ [ [ [ 29.813138401345313, 56.43200343125676 ], [ 30.517131972477923, 56.174389329813536 ], [ 30.548886296380797, 55.623290800786059 ], [ 29.901424955130498, 55.327916871482302 ], [ 29.21068312204293, 55.582278917553424 ], [ 29.154201409296142, 56.135146128213485 ], [ 29.813138401345313, 56.43200343125676 ] ] ] ] } },
{ "type": "Feature", "properties": { "geogrid_id": "855913171031211186", "seqnum": 20652.0, "lat_c": 55.91317100578113, "lon_c": 31.211185782996854, "res": 8.0, "count_Flowering Plants": 5, "count_Ferns": 0, "count_Mammals": 1, "count_Insects": 0, "count_Birds": 2, "count_Sac Fungi": 0, "count_Basidiomycota": 0, "count_Amphibians": 0, "count_Arachnids": 0, "count_Molluscs": 0, "count_Mosses": 0, "count_Gymnosperms": 0, "count_Reptiles": 0, "unique_species_count": 8.0, "countryCode": "BY" }, "geometry": { "type": "MultiPolygon", "coordinates": [ [ [ [ 31.192567456381376, 56.462322195152808 ], [ 31.888016569375935, 56.19751478110927 ], [ 31.895423057600318, 55.648441117162278 ], [ 31.231747620964793, 55.362033977216001 ], [ 30.548886296380797, 55.623290800786059 ], [ 30.517131972477923, 56.174389329813536 ], [ 31.192567456381376, 56.462322195152808 ] ] ] ] } }
]
}
