{
"type": "FeatureCollection",
"name": "CF",
"crs": { "type": "name", "properties": { "name": "urn:ogc:def:crs:OGC:1.3:CRS84" } },
"features": [
{ "type": "Feature", "properties": { "geogrid_id": "802349398016085694", "seqnum": 16817.0, "lat_c": 2.3493982963284061, "lon_c": 16.085693812430772, "res": 8.0, "count_Mammals": 3, "count_Birds": 17, "count_Flowering Plants": 3, "count_Molluscs": 0, "count_Insects": 4, "count_Basidiomycota": 1, "count_Reptiles": 0, "count_Arachnids": 0, "count_Amphibians": 0, "count_Gymnosperms": 0, "unique_species_count": 28.0, "countryCode": "CF" }, "geometry": { "type": "MultiPolygon", "coordinates": [ [ [ [ 16.490730971227855, 2.610978777609966 ], [ 16.485250931319388, 2.089396880663353 ], [ 16.080724772947654, 1.827882634604829 ], [ 15.680946229679972, 2.088017205644449 ], [ 15.685668843688708, 2.609185848872871 ], [ 16.090938622033956, 2.8706208449259 ], [ 16.490730971227855, 2.610978777609966 ] ] ] ] } },
{ "type": "Feature", "properties": { "geogrid_id": "803132294016496504", "seqnum": 16818.0, "lat_c": 3.132294167633741, "lon_c": 16.496504129779055, "res": 8.0, "count_Mammals": 66, "count_Birds": 61, "count_Flowering Plants": 19, "count_Molluscs": 0, "count_Insects": 92, "count_Basidiomycota": 0, "count_Reptiles": 28, "count_Arachnids": 8, "count_Amphibians": 5, "count_Gymnosperms": 1, "unique_species_count": 280.0, "countryCode": "CF" }, "geometry": { "type": "MultiPolygon", "coordinates": [ [ [ [ 16.902343829423334, 3.394250216009728 ], [ 16.896039408158277, 2.87279977209867 ], [ 16.490730971227855, 2.610978777609966 ], [ 16.090938622033956, 2.8706208449259 ], [ 16.09645728158813, 3.391570186879749 ], [ 16.502567590923906, 3.653364947031494 ], [ 16.902343829423334, 3.394250216009728 ] ] ] ] } },
{ "type": "Feature", "properties": { "geogrid_id": "803909541015294751", "seqnum": 16655.0, "lat_c": 3.9095412789506212, "lon_c": 15.294751382249052, "res": 8.0, "count_Mammals": 0, "count_Birds": 0, "count_Flowering Plants": 6, "count_Molluscs": 0, "count_Insects": 2, "count_Basidiomycota": 0, "count_Reptiles": 0, "count_Arachnids": 0, "count_Amphibians": 0, "count_Gymnosperms": 0, "unique_species_count": 8.0, "countryCode": "CF" }, "geometry": { "type": "MultiPolygon", "coordinates": [ [ [ [ 15.701363963075613, 4.170976253273357 ], [ 15.695879278752672, 3.650645990224009 ], [ 15.289837498340594, 3.389302111521516 ], [ 14.888492379115611, 3.648379831155081 ], [ 14.893055813481208, 4.168277419065914 ], [ 15.299897910507301, 4.429513157152134 ], [ 15.701363963075613, 4.170976253273357 ] ] ] ] } },
{ "type": "Feature", "properties": { "geogrid_id": "803915488016908953", "seqnum": 16819.0, "lat_c": 3.9154880895562889, "lon_c": 16.908952765479128, "res": 8.0, "count_Mammals": 4, "count_Birds": 0, "count_Flowering Plants": 0, "count_Molluscs": 0, "count_Insects": 2, "count_Basidiomycota": 0, "count_Reptiles": 0, "count_Arachnids": 0, "count_Amphibians": 0, "count_Gymnosperms": 0, "unique_species_count": 6.0, "countryCode": "CF" }, "geometry": { "type": "MultiPolygon", "coordinates": [ [ [ [ 17.315582686081598, 4.177991020646894 ], [ 17.308431740445048, 3.656536465080035 ], [ 16.902343829423334, 3.394250216009728 ], [ 16.502567590923906, 3.653364947031494 ], [ 16.508918065375084, 4.174214233235992 ], [ 16.915861534579662, 4.436539164932277 ], [ 17.315582686081598, 4.177991020646894 ] ] ] ] } },
{ "type": "Feature", "properties": { "geogrid_id": "803919204017714737", "seqnum": 16901.0, "lat_c": 3.919203692081298, "lon_c": 17.714736974386113, "res": 8.0, "count_Mammals": 1, "count_Birds": 1, "count_Flowering Plants": 3, "count_Molluscs": 0, "count_Insects": 5, "count_Basidiomycota": 0, "count_Reptiles": 0, "count_Arachnids": 0, "count_Amphibians": 0, "count_Gymnosperms": 0, "unique_species_count": 10.0, "countryCode": "CF" }, "geometry": { "type": "MultiPolygon", "coordinates": [ [ [ [ 18.121223216927223, 4.182306221203427 ], [ 18.113346867155119, 3.660160268681172 ], [ 17.707376499200471, 3.397341987381102 ], [ 17.308431740445048, 3.656536465080035 ], [ 17.315582686081598, 4.177991020646894 ], [ 17.722421750693041, 4.440928791377407 ], [ 18.121223216927223, 4.182306221203427 ] ] ] ] } },
{ "type": "Feature", "properties": { "geogrid_id": "803923414018519471", "seqnum": 16983.0, "lat_c": 3.9234136358894589, "lon_c": 18.519470987055641, "res": 8.0, "count_Mammals": 1, "count_Birds": 13, "count_Flowering Plants": 7, "count_Molluscs": 1, "count_Insects": 71, "count_Basidiomycota": 0, "count_Reptiles": 2, "count_Arachnids": 0, "count_Amphibians": 0, "count_Gymnosperms": 0, "unique_species_count": 95.0, "countryCode": "CF" }, "geometry": { "type": "MultiPolygon", "coordinates": [ [ [ [ 18.925705997738998, 4.187159384785939 ], [ 18.917188931846578, 3.664236043059117 ], [ 18.511435363859135, 3.400845257114447 ], [ 18.113346867155119, 3.660160268681172 ], [ 18.121223216927223, 4.182306221203427 ], [ 18.527848150538212, 4.445902188462856 ], [ 18.925705997738998, 4.187159384785939 ] ] ] ] } },
{ "type": "Feature", "properties": { "geogrid_id": "803945188021725356", "seqnum": 17311.0, "lat_c": 3.9451881015488599, "lon_c": 21.725356226003537, "res": 8.0, "count_Mammals": 0, "count_Birds": 0, "count_Flowering Plants": 0, "count_Molluscs": 0, "count_Insects": 1, "count_Basidiomycota": 0, "count_Reptiles": 0, "count_Arachnids": 0, "count_Amphibians": 0, "count_Gymnosperms": 0, "unique_species_count": 1.0, "countryCode": "CF" }, "geometry": { "type": "MultiPolygon", "coordinates": [ [ [ [ 22.129426249868011, 4.211940725487199 ], [ 22.119380300262847, 3.685051191788091 ], [ 21.715564718014949, 3.418967314806081 ], [ 21.321050850896526, 3.679171459368646 ], [ 21.330887961934955, 4.204941319688795 ], [ 21.735469702870837, 4.471621186320866 ], [ 22.129426249868011, 4.211940725487199 ] ] ] ] } },
{ "type": "Feature", "properties": { "geogrid_id": "804691067015707099", "seqnum": 16656.0, "lat_c": 4.6910673981574256, "lon_c": 15.707099041264433, "res": 8.0, "count_Mammals": 0, "count_Birds": 1, "count_Flowering Plants": 1, "count_Molluscs": 0, "count_Insects": 3, "count_Basidiomycota": 0, "count_Reptiles": 2, "count_Arachnids": 0, "count_Amphibians": 0, "count_Gymnosperms": 0, "unique_species_count": 7.0, "countryCode": "CF" }, "geometry": { "type": "MultiPolygon", "coordinates": [ [ [ [ 16.114631951811624, 4.952993350935516 ], [ 16.108306827749306, 4.432733808960255 ], [ 15.701363963075613, 4.170976253273357 ], [ 15.299897910507301, 4.429513157152134 ], [ 15.305275616512816, 4.949237391596067 ], [ 15.713082077124572, 5.210941425053392 ], [ 16.114631951811624, 4.952993350935516 ] ] ] ] } },
{ "type": "Feature", "properties": { "geogrid_id": "804699298017323043", "seqnum": 16820.0, "lat_c": 4.6992977463734293, "lon_c": 17.323043172209722, "res": 8.0, "count_Mammals": 0, "count_Birds": 2, "count_Flowering Plants": 0, "count_Molluscs": 0, "count_Insects": 0, "count_Basidiomycota": 0, "count_Reptiles": 0, "count_Arachnids": 0, "count_Amphibians": 0, "count_Gymnosperms": 0, "unique_species_count": 2.0, "countryCode": "CF" }, "geometry": { "type": "MultiPolygon", "coordinates": [ [ [ [ 17.730422032892768, 4.962549781044415 ], [ 17.722421750693041, 4.440928791377407 ], [ 17.315582686081598, 4.177991020646894 ], [ 16.915861534579662, 4.436539164932277 ], [ 16.923064598265263, 4.95743101343124 ], [ 17.330805514317362, 5.220487761169153 ], [ 17.730422032892768, 4.962549781044415 ] ] ] ] } },
{ "type": "Feature", "properties": { "geogrid_id": "804704360018129428", "seqnum": 16902.0, "lat_c": 4.7043603745284548, "lon_c": 18.129428278027866, "res": 8.0, "count_Mammals": 0, "count_Birds": 1, "count_Flowering Plants": 0, "count_Molluscs": 0, "count_Insects": 0, "count_Basidiomycota": 0, "count_Reptiles": 0, "count_Arachnids": 0, "count_Amphibians": 0, "count_Gymnosperms": 0, "unique_species_count": 1.0, "countryCode": "CF" }, "geometry": { "type": "MultiPolygon", "coordinates": [ [ [ [ 18.536553840856239, 4.968348964675533 ], [ 18.527848150538212, 4.445902188462856 ], [ 18.121223216927223, 4.182306221203427 ], [ 17.722421750693041, 4.440928791377407 ], [ 17.730422032892768, 4.962549781044415 ], [ 18.137950331295372, 5.226359421554512 ], [ 18.536553840856239, 4.968348964675533 ] ] ] ] } },
{ "type": "Feature", "properties": { "geogrid_id": "804710054018934563", "seqnum": 16984.0, "lat_c": 4.7100538284176299, "lon_c": 18.934562810464236, "res": 8.0, "count_Mammals": 0, "count_Birds": 4, "count_Flowering Plants": 2, "count_Molluscs": 0, "count_Insects": 2, "count_Basidiomycota": 0, "count_Reptiles": 0, "count_Arachnids": 0, "count_Amphibians": 0, "count_Gymnosperms": 0, "unique_species_count": 8.0, "countryCode": "CF" }, "geometry": { "type": "MultiPolygon", "coordinates": [ [ [ [ 19.341310865874416, 4.974827784567108 ], [ 19.332002493355461, 4.451458790461018 ], [ 18.925705997738998, 4.187159384785939 ], [ 18.527848150538212, 4.445902188462856 ], [ 18.536553840856239, 4.968348964675533 ], [ 18.943742520179335, 5.232962303549406 ], [ 19.341310865874416, 4.974827784567108 ] ] ] ] } },
{ "type": "Feature", "properties": { "geogrid_id": "804730912021341041", "seqnum": 17230.0, "lat_c": 4.7309117157636029, "lon_c": 21.341040574082864, "res": 8.0, "count_Mammals": 13, "count_Birds": 1, "count_Flowering Plants": 0, "count_Molluscs": 0, "count_Insects": 2, "count_Basidiomycota": 0, "count_Reptiles": 0, "count_Arachnids": 0, "count_Amphibians": 0, "count_Gymnosperms": 0, "unique_species_count": 16.0, "countryCode": "CF" }, "geometry": { "type": "MultiPolygon", "coordinates": [ [ [ [ 21.745863628442464, 4.998332914270756 ], [ 21.735469702870837, 4.471621186320866 ], [ 21.330887961934955, 4.204941319688795 ], [ 20.935948231365693, 4.464319018518506 ], [ 20.946111115291696, 4.989820763592108 ], [ 21.351468799095173, 5.2571481389131 ], [ 21.745863628442464, 4.998332914270756 ] ] ] ] } },
{ "type": "Feature", "properties": { "geogrid_id": "804757417023731207", "seqnum": 17476.0, "lat_c": 4.757417082279483, "lon_c": 23.731206769420972, "res": 8.0, "count_Mammals": 0, "count_Birds": 0, "count_Flowering Plants": 1, "count_Molluscs": 0, "count_Insects": 2, "count_Basidiomycota": 0, "count_Reptiles": 1, "count_Arachnids": 0, "count_Amphibians": 0, "count_Gymnosperms": 0, "unique_species_count": 4.0, "countryCode": "CF" }, "geometry": { "type": "MultiPolygon", "coordinates": [ [ [ [ 24.132824770601381, 5.027918101406012 ], [ 24.122642085070758, 4.497005799143096 ], [ 23.720954125546786, 4.227543406694408 ], [ 23.328946690667514, 4.487965498889213 ], [ 23.339360140412303, 5.017382851968556 ], [ 23.741571660295154, 5.287874101487595 ], [ 24.132824770601381, 5.027918101406012 ] ] ] ] } },
{ "type": "Feature", "properties": { "geogrid_id": "804778211025313787", "seqnum": 17640.0, "lat_c": 4.7782106098999373, "lon_c": 25.313786551890995, "res": 8.0, "count_Mammals": 2, "count_Birds": 1, "count_Flowering Plants": 0, "count_Molluscs": 0, "count_Insects": 0, "count_Basidiomycota": 0, "count_Reptiles": 0, "count_Arachnids": 0, "count_Amphibians": 0, "count_Gymnosperms": 0, "unique_species_count": 3.0, "countryCode": "CF" }, "geometry": { "type": "MultiPolygon", "coordinates": [ [ [ [ 25.712504723347408, 5.051002168286553 ], [ 25.703310536065175, 4.516817601005997 ], [ 25.304255525132067, 4.245279112459282 ], [ 24.914138445032506, 4.506623526584315 ], [ 24.923917668338866, 5.039125034982939 ], [ 25.32324592688644, 5.311972121717019 ], [ 25.712504723347408, 5.051002168286553 ] ] ] ] } },
{ "type": "Feature", "properties": { "geogrid_id": "805468735015310883", "seqnum": 16575.0, "lat_c": 5.4687346803404298, "lon_c": 15.310882700001068, "res": 8.0, "count_Mammals": 0, "count_Birds": 1, "count_Flowering Plants": 0, "count_Molluscs": 0, "count_Insects": 0, "count_Basidiomycota": 0, "count_Reptiles": 0, "count_Arachnids": 0, "count_Amphibians": 0, "count_Gymnosperms": 0, "unique_species_count": 1.0, "countryCode": "CF" }, "geometry": { "type": "MultiPolygon", "coordinates": [ [ [ [ 15.719310103799005, 5.730621730771794 ], [ 15.713082077124572, 5.210941425053392 ], [ 15.305275616512816, 4.949237391596067 ], [ 14.902818525806786, 5.207268144112025 ], [ 14.908015593011591, 5.726399143720105 ], [ 15.316716931363581, 5.988026968235536 ], [ 15.719310103799005, 5.730621730771794 ] ] ] ] } },
{ "type": "Feature", "properties": { "geogrid_id": "805478193016930555", "seqnum": 16739.0, "lat_c": 5.4781933162977099, "lon_c": 16.930555352309639, "res": 8.0, "count_Mammals": 0, "count_Birds": 1, "count_Flowering Plants": 0, "count_Molluscs": 0, "count_Insects": 0, "count_Basidiomycota": 0, "count_Reptiles": 0, "count_Arachnids": 0, "count_Amphibians": 0, "count_Gymnosperms": 0, "unique_species_count": 1.0, "countryCode": "CF" }, "geometry": { "type": "MultiPolygon", "coordinates": [ [ [ [ 17.338860543528174, 5.741594814006723 ], [ 17.330805514317362, 5.220487761169153 ], [ 16.923064598265263, 4.95743101343124 ], [ 16.522463770316477, 5.215348178814779 ], [ 16.529648807080768, 5.735687243038219 ], [ 16.938325866055653, 5.99885823861195 ], [ 17.338860543528174, 5.741594814006723 ] ] ] ] } },
{ "type": "Feature", "properties": { "geogrid_id": "805490796018545573", "seqnum": 16903.0, "lat_c": 5.4907955108501696, "lon_c": 18.545572668635117, "res": 8.0, "count_Mammals": 0, "count_Birds": 0, "count_Flowering Plants": 0, "count_Molluscs": 0, "count_Insects": 2, "count_Basidiomycota": 0, "count_Reptiles": 0, "count_Arachnids": 0, "count_Amphibians": 0, "count_Gymnosperms": 0, "unique_species_count": 2.0, "countryCode": "CF" }, "geometry": { "type": "MultiPolygon", "coordinates": [ [ [ [ 18.953225164741255, 5.755931952784752 ], [ 18.943742520179335, 5.232962303549406 ], [ 18.536553840856239, 4.968348964675533 ], [ 18.137950331295372, 5.226359421554512 ], [ 18.146775453004494, 5.748343434372565 ], [ 18.554886322271422, 6.013287476508043 ], [ 18.953225164741255, 5.755931952784752 ] ] ] ] } },
{ "type": "Feature", "properties": { "geogrid_id": "805498273019350930", "seqnum": 16985.0, "lat_c": 5.4982730328304674, "lon_c": 19.350930070296215, "res": 8.0, "count_Mammals": 0, "count_Birds": 0, "count_Flowering Plants": 1, "count_Molluscs": 0, "count_Insects": 1, "count_Basidiomycota": 0, "count_Reptiles": 4, "count_Arachnids": 0, "count_Amphibians": 0, "count_Gymnosperms": 0, "unique_species_count": 6.0, "countryCode": "CF" }, "geometry": { "type": "MultiPolygon", "coordinates": [ [ [ [ 19.75804298345335, 5.764359076694884 ], [ 19.748027816940677, 5.240295445414471 ], [ 19.341310865874416, 4.974827784567108 ], [ 18.943742520179335, 5.232962303549406 ], [ 18.953225164741255, 5.755931952784752 ], [ 19.360834483399039, 6.021848114589035 ], [ 19.75804298345335, 5.764359076694884 ] ] ] ] } },
{ "type": "Feature", "properties": { "geogrid_id": "805506533020154640", "seqnum": 17067.0, "lat_c": 5.5065333083073122, "lon_c": 20.154640097415012, "res": 8.0, "count_Mammals": 0, "count_Birds": 0, "count_Flowering Plants": 0, "count_Molluscs": 0, "count_Insects": 0, "count_Basidiomycota": 0, "count_Reptiles": 0, "count_Arachnids": 0, "count_Amphibians": 1, "count_Gymnosperms": 0, "unique_species_count": 1.0, "countryCode": "CF" }, "geometry": { "type": "MultiPolygon", "coordinates": [ [ [ [ 20.561064070914153, 5.773623373307648 ], [ 20.55065355124373, 5.248357780699202 ], [ 20.144545357553024, 4.981985370758476 ], [ 19.748027816940677, 5.240295445414471 ], [ 19.75804298345335, 5.764359076694884 ], [ 20.164997441258215, 6.031304056586087 ], [ 20.561064070914153, 5.773623373307648 ] ] ] ] } },
{ "type": "Feature", "properties": { "geogrid_id": "805515575020956545", "seqnum": 17149.0, "lat_c": 5.5155750386149052, "lon_c": 20.95654505851655, "res": 8.0, "count_Mammals": 0, "count_Birds": 0, "count_Flowering Plants": 3, "count_Molluscs": 0, "count_Insects": 1, "count_Basidiomycota": 0, "count_Reptiles": 0, "count_Arachnids": 0, "count_Amphibians": 0, "count_Gymnosperms": 0, "unique_species_count": 4.0, "countryCode": "CF" }, "geometry": { "type": "MultiPolygon", "coordinates": [ [ [ [ 21.362125622533991, 5.7837232706314 ], [ 21.351468799095173, 5.2571481389131 ], [ 20.946111115291696, 4.989820763592108 ], [ 20.55065355124373, 5.248357780699202 ], [ 20.561064070914153, 5.773623373307648 ], [ 20.967204907581625, 6.041653569473501 ], [ 21.362125622533991, 5.7837232706314 ] ] ] ] } },
{ "type": "Feature", "properties": { "geogrid_id": "805525397021756489", "seqnum": 17231.0, "lat_c": 5.5253968049805877, "lon_c": 21.756489226093681, "res": 8.0, "count_Mammals": 0, "count_Birds": 0, "count_Flowering Plants": 0, "count_Molluscs": 0, "count_Insects": 0, "count_Basidiomycota": 0, "count_Reptiles": 0, "count_Arachnids": 1, "count_Amphibians": 0, "count_Gymnosperms": 0, "unique_species_count": 1.0, "countryCode": "CF" }, "geometry": { "type": "MultiPolygon", "coordinates": [ [ [ [ 22.161067038509952, 5.794657058627145 ], [ 22.150324531141486, 5.266665246260286 ], [ 21.745863628442464, 4.998332914270756 ], [ 21.351468799095173, 5.2571481389131 ], [ 21.362125622533991, 5.7837232706314 ], [ 21.767288884381923, 6.052894760723051 ], [ 22.161067038509952, 5.794657058627145 ] ] ] ] } },
{ "type": "Feature", "properties": { "geogrid_id": "805547374023349883", "seqnum": 17395.0, "lat_c": 5.5473741761000914, "lon_c": 23.349883025277258, "res": 8.0, "count_Mammals": 16, "count_Birds": 29, "count_Flowering Plants": 1, "count_Molluscs": 0, "count_Insects": 3, "count_Basidiomycota": 0, "count_Reptiles": 3, "count_Arachnids": 0, "count_Amphibians": 0, "count_Gymnosperms": 0, "unique_species_count": 52.0, "countryCode": "CF" }, "geometry": { "type": "MultiPolygon", "coordinates": [ [ [ [ 23.751959073930802, 5.819018783809443 ], [ 23.741571660295154, 5.287874101487595 ], [ 23.339360140412303, 5.017382851968556 ], [ 22.947073756283153, 5.276907726436528 ], [ 22.957730089141052, 5.806422890454041 ], [ 23.360426907077009, 6.078043819718175 ], [ 23.751959073930802, 5.819018783809443 ] ] ] ] } },
{ "type": "Feature", "properties": { "geogrid_id": "805559526024143032", "seqnum": 17477.0, "lat_c": 5.559526351800832, "lon_c": 24.143032404673644, "res": 8.0, "count_Mammals": 24, "count_Birds": 97, "count_Flowering Plants": 0, "count_Molluscs": 0, "count_Insects": 12, "count_Basidiomycota": 0, "count_Reptiles": 2, "count_Arachnids": 0, "count_Amphibians": 2, "count_Gymnosperms": 0, "unique_species_count": 137.0, "countryCode": "CF" }, "geometry": { "type": "MultiPolygon", "coordinates": [ [ [ [ 24.543600974128346, 5.832442622361339 ], [ 24.533675739165481, 5.29956279272773 ], [ 24.132824770601381, 5.027918101406012 ], [ 23.741571660295154, 5.287874101487595 ], [ 23.751959073930802, 5.819018783809443 ], [ 24.153158001728652, 6.091947118856877 ], [ 24.543600974128346, 5.832442622361339 ] ] ] ] } },
{ "type": "Feature", "properties": { "geogrid_id": "806245314014913421", "seqnum": 16494.0, "lat_c": 6.2453141783072699, "lon_c": 14.913421155164876, "res": 8.0, "count_Mammals": 0, "count_Birds": 0, "count_Flowering Plants": 1, "count_Molluscs": 0, "count_Insects": 0, "count_Basidiomycota": 0, "count_Reptiles": 0, "count_Arachnids": 0, "count_Amphibians": 0, "count_Gymnosperms": 0, "unique_species_count": 1.0, "countryCode": "CF" }, "geometry": { "type": "MultiPolygon", "coordinates": [ [ [ [ 15.322775531347492, 6.507137681943358 ], [ 15.316716931363581, 5.988026968235536 ], [ 14.908015593011591, 5.726399143720105 ], [ 14.504463825571484, 5.983963173853566 ], [ 14.509405661469307, 6.502513747350126 ], [ 14.919033211267003, 6.764035029857182 ], [ 15.322775531347492, 6.507137681943358 ] ] ] ] } },
{ "type": "Feature", "properties": { "geogrid_id": "806250133015725779", "seqnum": 16576.0, "lat_c": 6.2501333658553246, "lon_c": 15.725779481256382, "res": 8.0, "count_Mammals": 0, "count_Birds": 2, "count_Flowering Plants": 6, "count_Molluscs": 0, "count_Insects": 0, "count_Basidiomycota": 0, "count_Reptiles": 0, "count_Arachnids": 1, "count_Amphibians": 0, "count_Gymnosperms": 0, "unique_species_count": 9.0, "countryCode": "CF" }, "geometry": { "type": "MultiPolygon", "coordinates": [ [ [ [ 16.135160543746977, 6.512787131059485 ], [ 16.128063886019735, 5.992992295658681 ], [ 15.719310103799005, 5.730621730771794 ], [ 15.316716931363581, 5.988026968235536 ], [ 15.322775531347492, 6.507137681943358 ], [ 15.73248571649493, 6.769503346775379 ], [ 16.135160543746977, 6.512787131059485 ] ] ] ] } },
{ "type": "Feature", "properties": { "geogrid_id": "806255914016537100", "seqnum": 16658.0, "lat_c": 6.2559142747026169, "lon_c": 16.537100048204682, "res": 8.0, "count_Mammals": 0, "count_Birds": 0, "count_Flowering Plants": 3, "count_Molluscs": 0, "count_Insects": 0, "count_Basidiomycota": 0, "count_Reptiles": 0, "count_Arachnids": 0, "count_Amphibians": 0, "count_Gymnosperms": 0, "unique_species_count": 3.0, "countryCode": "CF" }, "geometry": { "type": "MultiPolygon", "coordinates": [ [ [ [ 16.946366555082452, 6.519460881730169 ], [ 16.938325866055653, 5.99885823861195 ], [ 16.529648807080768, 5.735687243038219 ], [ 16.128063886019735, 5.992992295658681 ], [ 16.135160543746977, 6.512787131059485 ], [ 16.544809300243138, 6.776062541228766 ], [ 16.946366555082452, 6.519460881730169 ] ] ] ] } },
{ "type": "Feature", "properties": { "geogrid_id": "806262656017347197", "seqnum": 16740.0, "lat_c": 6.2626557535706304, "lon_c": 17.347197248775107, "res": 8.0, "count_Mammals": 0, "count_Birds": 1, "count_Flowering Plants": 3, "count_Molluscs": 0, "count_Insects": 0, "count_Basidiomycota": 0, "count_Reptiles": 0, "count_Arachnids": 0, "count_Amphibians": 0, "count_Gymnosperms": 0, "unique_species_count": 4.0, "countryCode": "CF" }, "geometry": { "type": "MultiPolygon", "coordinates": [ [ [ [ 17.756200949742695, 6.527157503103028 ], [ 17.747325349291948, 6.005623714500418 ], [ 17.338860543528174, 5.741594814006723 ], [ 16.938325866055653, 5.99885823861195 ], [ 16.946366555082452, 6.519460881730169 ], [ 17.355802325935052, 6.783711098250087 ], [ 17.756200949742695, 6.527157503103028 ] ] ] ] } },
{ "type": "Feature", "properties": { "geogrid_id": "806270356018155887", "seqnum": 16822.0, "lat_c": 6.2703564618078271, "lon_c": 18.155886997780637, "res": 8.0, "count_Mammals": 0, "count_Birds": 1, "count_Flowering Plants": 0, "count_Molluscs": 0, "count_Insects": 0, "count_Basidiomycota": 0, "count_Reptiles": 0, "count_Arachnids": 0, "count_Amphibians": 0, "count_Gymnosperms": 0, "unique_species_count": 1.0, "countryCode": "CF" }, "geometry": { "type": "MultiPolygon", "coordinates": [ [ [ [ 18.564472882768506, 6.535875347759945 ], [ 18.554886322271422, 6.013287476508043 ], [ 18.146775453004494, 5.748343434372565 ], [ 17.747325349291948, 6.005623714500418 ], [ 17.756200949742695, 6.527157503103028 ], [ 18.165264947499313, 6.792447254185103 ], [ 18.564472882768506, 6.535875347759945 ] ] ] ] } },
{ "type": "Feature", "properties": { "geogrid_id": "806279015018962987", "seqnum": 16904.0, "lat_c": 6.2790148705377709, "lon_c": 18.962986954008691, "res": 8.0, "count_Mammals": 0, "count_Birds": 0, "count_Flowering Plants": 0, "count_Molluscs": 0, "count_Insects": 1, "count_Basidiomycota": 0, "count_Reptiles": 0, "count_Arachnids": 0, "count_Amphibians": 0, "count_Gymnosperms": 0, "unique_species_count": 1.0, "countryCode": "CF" }, "geometry": { "type": "MultiPolygon", "coordinates": [ [ [ [ 19.37099351712483, 6.545612553230943 ], [ 19.360834483399039, 6.021848114589035 ], [ 18.953225164741255, 5.755931952784752 ], [ 18.554886322271422, 6.013287476508043 ], [ 18.564472882768506, 6.535875347759945 ], [ 18.972999369295046, 6.802268998434518 ], [ 19.37099351712483, 6.545612553230943 ] ] ] ] } },
{ "type": "Feature", "properties": { "geogrid_id": "806299198020571698", "seqnum": 17068.0, "lat_c": 6.2991977408362816, "lon_c": 20.571698138323214, "res": 8.0, "count_Mammals": 0, "count_Birds": 0, "count_Flowering Plants": 2, "count_Molluscs": 0, "count_Insects": 0, "count_Basidiomycota": 0, "count_Reptiles": 0, "count_Arachnids": 0, "count_Amphibians": 0, "count_Gymnosperms": 0, "unique_species_count": 2.0, "countryCode": "CF" }, "geometry": { "type": "MultiPolygon", "coordinates": [ [ [ [ 20.978036961658834, 6.568136531903088 ], [ 20.967204907581625, 6.041653569473501 ], [ 20.561064070914153, 5.773623373307648 ], [ 20.164997441258215, 6.031304056586087 ], [ 20.175576254882515, 6.556367043700527 ], [ 20.582504196603544, 6.82515998686679 ], [ 20.978036961658834, 6.568136531903088 ] ] ] ] } },
{ "type": "Feature", "properties": { "geogrid_id": "806310718021372955", "seqnum": 17150.0, "lat_c": 6.3107182160542212, "lon_c": 21.372955326055649, "res": 8.0, "count_Mammals": 0, "count_Birds": 0, "count_Flowering Plants": 1, "count_Molluscs": 0, "count_Insects": 0, "count_Basidiomycota": 0, "count_Reptiles": 0, "count_Arachnids": 0, "count_Amphibians": 0, "count_Gymnosperms": 0, "unique_species_count": 1.0, "countryCode": "CF" }, "geometry": { "type": "MultiPolygon", "coordinates": [ [ [ [ 21.778194183702475, 6.580918521203545 ], [ 21.767288884381923, 6.052894760723051 ], [ 21.362125622533991, 5.7837232706314 ], [ 20.967204907581625, 6.041653569473501 ], [ 20.978036961658834, 6.568136531903088 ], [ 21.383891507125703, 6.838223994107851 ], [ 21.778194183702475, 6.580918521203545 ] ] ] ] } },
{ "type": "Feature", "properties": { "geogrid_id": "806336606022968407", "seqnum": 17314.0, "lat_c": 6.3366059126462622, "lon_c": 22.968406797916959, "res": 8.0, "count_Mammals": 0, "count_Birds": 1, "count_Flowering Plants": 2, "count_Molluscs": 0, "count_Insects": 0, "count_Basidiomycota": 0, "count_Reptiles": 0, "count_Arachnids": 0, "count_Amphibians": 0, "count_Gymnosperms": 0, "unique_species_count": 3.0, "countryCode": "CF" }, "geometry": { "type": "MultiPolygon", "coordinates": [ [ [ [ 23.370887008210421, 6.609508983457512 ], [ 23.360426907077009, 6.078043819718175 ], [ 22.957730089141052, 5.806422890454041 ], [ 22.565083844777174, 6.065025579790214 ], [ 22.57586935704844, 6.594710307859086 ], [ 22.97900046601244, 6.867574156179387 ], [ 23.370887008210421, 6.609508983457512 ] ] ] ] } },
{ "type": "Feature", "properties": { "geogrid_id": "806350968023762263", "seqnum": 17396.0, "lat_c": 6.3509680612026216, "lon_c": 23.76226304708489, "res": 8.0, "count_Mammals": 33, "count_Birds": 176, "count_Flowering Plants": 10, "count_Molluscs": 0, "count_Insects": 49, "count_Basidiomycota": 0, "count_Reptiles": 14, "count_Arachnids": 1, "count_Amphibians": 3, "count_Gymnosperms": 0, "unique_species_count": 286.0, "countryCode": "CF" }, "geometry": { "type": "MultiPolygon", "coordinates": [ [ [ [ 24.163074945922649, 6.625311437527379 ], [ 24.153158001728652, 6.091947118856877 ], [ 23.751959073930802, 5.819018783809443 ], [ 23.360426907077009, 6.078043819718175 ], [ 23.370887008210421, 6.609508983457512 ], [ 23.772357770024257, 6.88385365729001 ], [ 24.163074945922649, 6.625311437527379 ] ] ] ] } },
{ "type": "Feature", "properties": { "geogrid_id": "806366272024553319", "seqnum": 17478.0, "lat_c": 6.3662720667137158, "lon_c": 24.553319370439819, "res": 8.0, "count_Mammals": 15, "count_Birds": 12, "count_Flowering Plants": 2, "count_Molluscs": 0, "count_Insects": 2, "count_Basidiomycota": 0, "count_Reptiles": 1, "count_Arachnids": 0, "count_Amphibians": 0, "count_Gymnosperms": 0, "unique_species_count": 32.0, "countryCode": "CF" }, "geometry": { "type": "MultiPolygon", "coordinates": [ [ [ [ 24.952264443489462, 6.642114360314824 ], [ 24.943120030756518, 6.106732962694158 ], [ 24.543600974128346, 5.832442622361339 ], [ 24.153158001728652, 6.091947118856877 ], [ 24.163074945922649, 6.625311437527379 ], [ 24.562680009873986, 6.901197953166152 ], [ 24.952264443489462, 6.642114360314824 ] ] ] ] } },
{ "type": "Feature", "properties": { "geogrid_id": "806382515025341415", "seqnum": 17560.0, "lat_c": 6.3825149541820378, "lon_c": 25.341414637031775, "res": 8.0, "count_Mammals": 0, "count_Birds": 1, "count_Flowering Plants": 0, "count_Molluscs": 0, "count_Insects": 0, "count_Basidiomycota": 0, "count_Reptiles": 0, "count_Arachnids": 0, "count_Amphibians": 0, "count_Gymnosperms": 0, "unique_species_count": 1.0, "countryCode": "CF" }, "geometry": { "type": "MultiPolygon", "coordinates": [ [ [ [ 25.738290411348615, 6.659914245721684 ], [ 25.730159019364685, 6.122398685795877 ], [ 25.332505598389968, 5.846692157270899 ], [ 24.943120030756518, 6.106732962694158 ], [ 24.952264443489462, 6.642114360314824 ], [ 25.349794226759066, 6.919603147891529 ], [ 25.738290411348615, 6.659914245721684 ] ] ] ] } },
{ "type": "Feature", "properties": { "geogrid_id": "807032486016142502", "seqnum": 16577.0, "lat_c": 7.0324864914891521, "lon_c": 16.14250228319645, "res": 8.0, "count_Mammals": 0, "count_Birds": 0, "count_Flowering Plants": 1, "count_Molluscs": 0, "count_Insects": 0, "count_Basidiomycota": 0, "count_Reptiles": 0, "count_Arachnids": 0, "count_Amphibians": 0, "count_Gymnosperms": 0, "unique_species_count": 1.0, "countryCode": "CF" }, "geometry": { "type": "MultiPolygon", "coordinates": [ [ [ [ 16.552766531663632, 7.296168594729356 ], [ 16.544809300243138, 6.776062541228766 ], [ 16.135160543746977, 6.512787131059485 ], [ 15.73248571649493, 6.769503346775379 ], [ 15.739423234925212, 7.288761037632799 ], [ 16.150080646508794, 7.552124790733329 ], [ 16.552766531663632, 7.296168594729356 ] ] ] ] } },
{ "type": "Feature", "properties": { "geogrid_id": "807040040016954666", "seqnum": 16659.0, "lat_c": 7.0400398343113659, "lon_c": 16.954665767057477, "res": 8.0, "count_Mammals": 0, "count_Birds": 0, "count_Flowering Plants": 1, "count_Molluscs": 0, "count_Insects": 0, "count_Basidiomycota": 0, "count_Reptiles": 0, "count_Arachnids": 0, "count_Amphibians": 0, "count_Gymnosperms": 0, "unique_species_count": 1.0, "countryCode": "CF" }, "geometry": { "type": "MultiPolygon", "coordinates": [ [ [ [ 17.36465960534748, 7.304805732453801 ], [ 17.355802325935052, 6.783711098250087 ], [ 16.946366555082452, 6.519460881730169 ], [ 16.544809300243138, 6.776062541228766 ], [ 16.552766531663632, 7.296168594729356 ], [ 16.963209253558482, 7.560637847994704 ], [ 17.36465960534748, 7.304805732453801 ] ] ] ] } },
{ "type": "Feature", "properties": { "geogrid_id": "807058615018574306", "seqnum": 16823.0, "lat_c": 7.0586153392953337, "lon_c": 18.574305958071697, "res": 8.0, "count_Mammals": 0, "count_Birds": 0, "count_Flowering Plants": 0, "count_Molluscs": 0, "count_Insects": 2, "count_Basidiomycota": 0, "count_Reptiles": 0, "count_Arachnids": 0, "count_Amphibians": 0, "count_Gymnosperms": 0, "unique_species_count": 2.0, "countryCode": "CF" }, "geometry": { "type": "MultiPolygon", "coordinates": [ [ [ [ 18.983228021651186, 7.3257592173296 ], [ 18.972999369295046, 6.802268998434518 ], [ 18.564472882768506, 6.535875347759945 ], [ 18.165264947499313, 6.792447254185103 ], [ 18.174885085167688, 7.314670148054034 ], [ 18.584353580766521, 7.581570486368688 ], [ 18.983228021651186, 7.3257592173296 ] ] ] ] } },
{ "type": "Feature", "properties": { "geogrid_id": "807069633019381370", "seqnum": 16905.0, "lat_c": 7.0696329042659762, "lon_c": 19.381370443362176, "res": 8.0, "count_Mammals": 0, "count_Birds": 0, "count_Flowering Plants": 0, "count_Molluscs": 0, "count_Insects": 18, "count_Basidiomycota": 0, "count_Reptiles": 2, "count_Arachnids": 0, "count_Amphibians": 0, "count_Gymnosperms": 0, "unique_species_count": 20.0, "countryCode": "CF" }, "geometry": { "type": "MultiPolygon", "coordinates": [ [ [ [ 19.789476184008361, 7.338069997599679 ], [ 19.77881009955577, 6.813174075433823 ], [ 19.37099351712483, 6.545612553230943 ], [ 18.972999369295046, 6.802268998434518 ], [ 18.983228021651186, 7.3257592173296 ], [ 19.391920898758496, 7.593984085927655 ], [ 19.789476184008361, 7.338069997599679 ] ] ] ] } },
{ "type": "Feature", "properties": { "geogrid_id": "807081800020186327", "seqnum": 16987.0, "lat_c": 7.0818001473130563, "lon_c": 20.186327252802101, "res": 8.0, "count_Mammals": 0, "count_Birds": 0, "count_Flowering Plants": 0, "count_Molluscs": 0, "count_Insects": 2, "count_Basidiomycota": 0, "count_Reptiles": 0, "count_Arachnids": 0, "count_Amphibians": 0, "count_Gymnosperms": 0, "unique_species_count": 2.0, "countryCode": "CF" }, "geometry": { "type": "MultiPolygon", "coordinates": [ [ [ [ 20.593420348264456, 7.351599231018328 ], [ 20.582504196603544, 6.82515998686679 ], [ 20.175576254882515, 6.556367043700527 ], [ 19.77881009955577, 6.813174075433823 ], [ 19.789476184008361, 7.338069997599679 ], [ 20.197191032966167, 7.607691281677275 ], [ 20.593420348264456, 7.351599231018328 ] ] ] ] } },
{ "type": "Feature", "properties": { "geogrid_id": "807095114020988977", "seqnum": 17069.0, "lat_c": 7.0951140758059061, "lon_c": 20.988976990827645, "res": 8.0, "count_Mammals": 2, "count_Birds": 4, "count_Flowering Plants": 0, "count_Molluscs": 0, "count_Insects": 2, "count_Basidiomycota": 0, "count_Reptiles": 3, "count_Arachnids": 0, "count_Amphibians": 0, "count_Gymnosperms": 0, "unique_species_count": 11.0, "countryCode": "CF" }, "geometry": { "type": "MultiPolygon", "coordinates": [ [ [ [ 21.394854575287798, 7.366343348228775 ], [ 21.383891507125703, 6.838223994107851 ], [ 20.978036961658834, 6.568136531903088 ], [ 20.582504196603544, 6.82515998686679 ], [ 20.593420348264456, 7.351599231018328 ], [ 20.999947719644894, 7.622688184475865 ], [ 21.394854575287798, 7.366343348228775 ] ] ] ] } },
{ "type": "Feature", "properties": { "geogrid_id": "807159767024172633", "seqnum": 17397.0, "lat_c": 7.1597673356616713, "lon_c": 24.172632580198528, "res": 8.0, "count_Mammals": 20, "count_Birds": 29, "count_Flowering Plants": 2, "count_Molluscs": 1, "count_Insects": 1, "count_Basidiomycota": 0, "count_Reptiles": 1, "count_Arachnids": 0, "count_Amphibians": 2, "count_Gymnosperms": 0, "unique_species_count": 56.0, "countryCode": "CF" }, "geometry": { "type": "MultiPolygon", "coordinates": [ [ [ [ 24.571502922675649, 7.437386596992225 ], [ 24.562680009873986, 6.901197953166152 ], [ 24.163074945922649, 6.625311437527379 ], [ 23.772357770024257, 6.88385365729001 ], [ 23.782093040844277, 7.417824722286978 ], [ 24.18165063167428, 7.695482893953137 ], [ 24.571502922675649, 7.437386596992225 ] ] ] ] } },
{ "type": "Feature", "properties": { "geogrid_id": "807837086018184718", "seqnum": 16742.0, "lat_c": 7.8370861535431624, "lon_c": 18.184717938206376, "res": 8.0, "count_Mammals": 0, "count_Birds": 1, "count_Flowering Plants": 0, "count_Molluscs": 0, "count_Insects": 0, "count_Basidiomycota": 0, "count_Reptiles": 0, "count_Arachnids": 0, "count_Amphibians": 0, "count_Gymnosperms": 0, "unique_species_count": 1.0, "countryCode": "CF" }, "geometry": { "type": "MultiPolygon", "coordinates": [ [ [ [ 18.594576792701382, 8.104811990918924 ], [ 18.584353580766521, 7.581570486368688 ], [ 18.174885085167688, 7.314670148054034 ], [ 17.774708765067167, 7.570454016113209 ], [ 17.78429205926043, 8.092327840138852 ], [ 18.194727415000902, 8.359764300445796 ], [ 18.594576792701382, 8.104811990918924 ] ] ] ] } },
{ "type": "Feature", "properties": { "geogrid_id": "807878617020604372", "seqnum": 16988.0, "lat_c": 7.878616515212622, "lon_c": 20.604371833506285, "res": 8.0, "count_Mammals": 0, "count_Birds": 0, "count_Flowering Plants": 1, "count_Molluscs": 0, "count_Insects": 1, "count_Basidiomycota": 0, "count_Reptiles": 0, "count_Arachnids": 0, "count_Amphibians": 0, "count_Gymnosperms": 0, "unique_species_count": 2.0, "countryCode": "CF" }, "geometry": { "type": "MultiPolygon", "coordinates": [ [ [ [ 21.010855605945586, 8.150974956834759 ], [ 20.999947719644894, 7.622688184475865 ], [ 20.593420348264456, 7.351599231018328 ], [ 20.197191032966167, 7.607691281677275 ], [ 20.20809555828362, 8.134140348832329 ], [ 20.615267786723599, 8.406327153483975 ], [ 21.010855605945586, 8.150974956834759 ] ] ] ] } },
{ "type": "Feature", "properties": { "geogrid_id": "807895193021405749", "seqnum": 17070.0, "lat_c": 7.8951929601123432, "lon_c": 21.405748562048146, "res": 8.0, "count_Mammals": 0, "count_Birds": 0, "count_Flowering Plants": 2, "count_Molluscs": 0, "count_Insects": 0, "count_Basidiomycota": 0, "count_Reptiles": 0, "count_Arachnids": 0, "count_Amphibians": 0, "count_Gymnosperms": 0, "unique_species_count": 2.0, "countryCode": "CF" }, "geometry": { "type": "MultiPolygon", "coordinates": [ [ [ [ 21.810640554280464, 8.169249362320155 ], [ 21.799978411993717, 7.638970553808781 ], [ 21.394854575287798, 7.366343348228775 ], [ 20.999947719644894, 7.622688184475865 ], [ 21.010855605945586, 8.150974956834759 ], [ 21.416457022581476, 8.424906173707837 ], [ 21.810640554280464, 8.169249362320155 ] ] ] ] } },
{ "type": "Feature", "properties": { "geogrid_id": "807953051023791288", "seqnum": 17316.0, "lat_c": 7.9530510363301223, "lon_c": 23.791288495249006, "res": 8.0, "count_Mammals": 10, "count_Birds": 2, "count_Flowering Plants": 0, "count_Molluscs": 0, "count_Insects": 0, "count_Basidiomycota": 0, "count_Reptiles": 0, "count_Arachnids": 0, "count_Amphibians": 0, "count_Gymnosperms": 0, "unique_species_count": 12.0, "countryCode": "CF" }, "geometry": { "type": "MultiPolygon", "coordinates": [ [ [ [ 24.189912113209704, 8.232649972097276 ], [ 24.18165063167428, 7.695482893953137 ], [ 23.782093040844277, 7.417824722286978 ], [ 23.391031888578446, 7.675373003829516 ], [ 23.400386914514311, 8.210093440981451 ], [ 23.79972622443351, 8.489726925914532 ], [ 24.189912113209704, 8.232649972097276 ] ] ] ] } },
{ "type": "Feature", "properties": { "geogrid_id": "807975027024579572", "seqnum": 17398.0, "lat_c": 7.9750273474679911, "lon_c": 24.579572265154283, "res": 8.0, "count_Mammals": 0, "count_Birds": 0, "count_Flowering Plants": 0, "count_Molluscs": 0, "count_Insects": 59, "count_Basidiomycota": 0, "count_Reptiles": 0, "count_Arachnids": 0, "count_Amphibians": 0, "count_Gymnosperms": 0, "unique_species_count": 59.0, "countryCode": "CF" }, "geometry": { "type": "MultiPolygon", "coordinates": [ [ [ [ 24.975590352383346, 8.256620034120148 ], [ 24.96873579103238, 7.71685788142583 ], [ 24.571502922675649, 7.437386596992225 ], [ 24.18165063167428, 7.695482893953137 ], [ 24.189912113209704, 8.232649972097276 ], [ 24.586627605103047, 8.514336912477791 ], [ 24.975590352383346, 8.256620034120148 ] ] ] ] } },
{ "type": "Feature", "properties": { "geogrid_id": "808680107021021587", "seqnum": 16989.0, "lat_c": 8.6801074278879184, "lon_c": 21.021586681974586, "res": 8.0, "count_Mammals": 0, "count_Birds": 0, "count_Flowering Plants": 19, "count_Molluscs": 0, "count_Insects": 0, "count_Basidiomycota": 0, "count_Reptiles": 0, "count_Arachnids": 0, "count_Amphibians": 0, "count_Gymnosperms": 0, "unique_species_count": 19.0, "countryCode": "CF" }, "geometry": { "type": "MultiPolygon", "coordinates": [ [ [ [ 21.4268377241964, 8.955636369953325 ], [ 21.416457022581476, 8.424906173707837 ], [ 21.010855605945586, 8.150974956834759 ], [ 20.615267786723599, 8.406327153483975 ], [ 20.625997027137416, 8.934863649067488 ], [ 21.03200113541633, 9.210239079280919 ], [ 21.4268377241964, 8.955636369953325 ] ] ] ] } },
{ "type": "Feature", "properties": { "geogrid_id": "808746260023408985", "seqnum": 17235.0, "lat_c": 8.7462600303397817, "lon_c": 23.408985012309603, "res": 8.0, "count_Mammals": 0, "count_Birds": 0, "count_Flowering Plants": 1, "count_Molluscs": 0, "count_Insects": 0, "count_Basidiomycota": 0, "count_Reptiles": 0, "count_Arachnids": 0, "count_Amphibians": 0, "count_Gymnosperms": 0, "unique_species_count": 1.0, "countryCode": "CF" }, "geometry": { "type": "MultiPolygon", "coordinates": [ [ [ [ 23.807141251972094, 9.028076080382018 ], [ 23.79972622443351, 8.489726925914532 ], [ 23.400386914514311, 8.210093440981451 ], [ 23.008915815588399, 8.466613268642222 ], [ 23.017658367600738, 9.002251834525374 ], [ 23.416559294295087, 9.284099928011594 ], [ 23.807141251972094, 9.028076080382018 ] ] ] ] } },
{ "type": "Feature", "properties": { "geogrid_id": "809423706019025317", "seqnum": 16744.0, "lat_c": 9.4237061992954114, "lon_c": 19.025317031513229, "res": 8.0, "count_Mammals": 3, "count_Birds": 0, "count_Flowering Plants": 0, "count_Molluscs": 0, "count_Insects": 0, "count_Basidiomycota": 0, "count_Reptiles": 0, "count_Arachnids": 0, "count_Amphibians": 0, "count_Gymnosperms": 0, "unique_species_count": 3.0, "countryCode": "CF" }, "geometry": { "type": "MultiPolygon", "coordinates": [ [ [ [ 19.434578652508371, 9.696591880615973 ], [ 19.424010853266584, 9.169934507500223 ], [ 19.01474571934385, 8.898429780361079 ], [ 18.615347631360461, 9.152490164343591 ], [ 18.62576285522708, 9.677127346896286 ], [ 19.035775292380077, 9.949707341730635 ], [ 19.434578652508371, 9.696591880615973 ] ] ] ] } },
{ "type": "Feature", "properties": { "geogrid_id": "809487561021436716", "seqnum": 16990.0, "lat_c": 9.4875611778343529, "lon_c": 21.436715697296894, "res": 8.0, "count_Mammals": 0, "count_Birds": 1, "count_Flowering Plants": 1, "count_Molluscs": 0, "count_Insects": 0, "count_Basidiomycota": 0, "count_Reptiles": 0, "count_Arachnids": 0, "count_Amphibians": 0, "count_Gymnosperms": 0, "unique_species_count": 2.0, "countryCode": "CF" }, "geometry": { "type": "MultiPolygon", "coordinates": [ [ [ [ 21.839855818805034, 9.767017780625523 ], [ 21.830776639697952, 9.233081930338628 ], [ 21.4268377241964, 8.955636369953325 ], [ 21.03200113541633, 9.210239079280919 ], [ 21.041926178741765, 9.741548241898684 ], [ 21.445874051780539, 10.020887768962595 ], [ 21.839855818805034, 9.767017780625523 ] ] ] ] } },
{ "type": "Feature", "properties": { "geogrid_id": "810333167022640066", "seqnum": 17073.0, "lat_c": 10.333166663567917, "lon_c": 22.640066264569924, "res": 8.0, "count_Mammals": 0, "count_Birds": 0, "count_Flowering Plants": 0, "count_Molluscs": 1, "count_Insects": 0, "count_Basidiomycota": 0, "count_Reptiles": 0, "count_Arachnids": 0, "count_Amphibians": 0, "count_Gymnosperms": 0, "unique_species_count": 1.0, "countryCode": "CF" }, "geometry": { "type": "MultiPolygon", "coordinates": [ [ [ [ 23.036342252845422, 10.620319684015492 ], [ 23.031744025476709, 10.07881288675615 ], [ 22.633567797471535, 9.794465175868114 ], [ 22.241096347611187, 10.048812611153243 ], [ 22.24771720180274, 10.586940802460342 ], [ 22.644791734386878, 10.874132709718523 ], [ 23.036342252845422, 10.620319684015492 ] ] ] ] } }
]
}
