{
"type": "FeatureCollection",
"name": "CG",
"crs": { "type": "name", "properties": { "name": "urn:ogc:def:crs:OGC:1.3:CRS84" } },
"features": [
{ "type": "Feature", "properties": { "geogrid_id": "3000783112014465544", "seqnum": 16813.0, "lat_c": -0.78311158347079501, "lon_c": 14.465544372109896, "res": 8.0, "count_Flowering Plants": 3, "count_Arachnids": 0, "count_Insects": 16, "count_Reptiles": 0, "count_Birds": 0, "count_Amphibians": 0, "count_Mammals": 0, "count_Ferns": 0, "count_Molluscs": 0, "count_Basidiomycota": 0, "count_Mosses": 0, "count_Sac Fungi": 0, "unique_species_count": 19.0, "countryCode": "CG" }, "geometry": { "type": "MultiPolygon", "coordinates": [ [ [ [ 14.865605399311907, -0.522283070415475 ], [ 14.868882498445021, -1.044178593169676 ], [ 14.468571296241283, -1.304697220184507 ], [ 14.065096999091466, -1.043752214512393 ], [ 14.062519420376901, -0.522077624274438 ], [ 14.462710524350921, -0.26113732576584 ], [ 14.865605399311907, -0.522283070415475 ] ] ] ] } },
{ "type": "Feature", "properties": { "geogrid_id": "3000783465015268794", "seqnum": 16895.0, "lat_c": -0.78346471669371498, "lon_c": 15.268794240601917, "res": 8.0, "count_Flowering Plants": 131, "count_Arachnids": 0, "count_Insects": 4, "count_Reptiles": 0, "count_Birds": 1, "count_Amphibians": 0, "count_Mammals": 0, "count_Ferns": 2, "count_Molluscs": 0, "count_Basidiomycota": 0, "count_Mosses": 3, "count_Sac Fungi": 0, "unique_species_count": 141.0, "countryCode": "CG" }, "geometry": { "type": "MultiPolygon", "coordinates": [ [ [ [ 15.668323538575226, -0.522539872478605 ], [ 15.672272515903304, -1.044711547601113 ], [ 15.272529961447459, -1.305308131817976 ], [ 14.868882498445021, -1.044178593169676 ], [ 14.865605399311907, -0.522283070415475 ], [ 15.265296372849956, -0.261250794082232 ], [ 15.668323538575226, -0.522539872478605 ] ] ] ] } },
{ "type": "Feature", "properties": { "geogrid_id": "3000783896016071621", "seqnum": 16977.0, "lat_c": -0.78389631028741102, "lon_c": 16.071620540400854, "res": 8.0, "count_Flowering Plants": 5, "count_Arachnids": 0, "count_Insects": 4, "count_Reptiles": 4, "count_Birds": 0, "count_Amphibians": 0, "count_Mammals": 0, "count_Ferns": 0, "count_Molluscs": 0, "count_Basidiomycota": 0, "count_Mosses": 0, "count_Sac Fungi": 0, "unique_species_count": 13.0, "countryCode": "CG" }, "geometry": { "type": "MultiPolygon", "coordinates": [ [ [ [ 16.470592549993054, -0.522848026683461 ], [ 16.475179682337629, -1.045351065176965 ], [ 16.076033181812122, -1.306054766082461 ], [ 15.672272515903304, -1.044711547601113 ], [ 15.668323538575226, -0.522539872478605 ], [ 16.067488211692872, -0.261389475183338 ], [ 16.470592549993054, -0.522848026683461 ] ] ] ] } },
{ "type": "Feature", "properties": { "geogrid_id": "3000784406016873939", "seqnum": 17059.0, "lat_c": -0.78440635601506103, "lon_c": 16.873939137736969, "res": 8.0, "count_Flowering Plants": 1, "count_Arachnids": 0, "count_Insects": 0, "count_Reptiles": 0, "count_Birds": 33, "count_Amphibians": 0, "count_Mammals": 4, "count_Ferns": 0, "count_Molluscs": 0, "count_Basidiomycota": 0, "count_Mosses": 0, "count_Sac Fungi": 0, "unique_species_count": 38.0, "countryCode": "CG" }, "geometry": { "type": "MultiPolygon", "coordinates": [ [ [ [ 17.272331416707498, -0.523207528493942 ], [ 17.277516936782362, -1.046097130743888 ], [ 16.878990528137486, -1.306937101647149 ], [ 16.475179682337629, -1.045351065176965 ], [ 16.470592549993054, -0.522848026683461 ], [ 16.869207750209128, -0.261553367600347 ], [ 17.272331416707498, -0.523207528493942 ] ] ] ] } },
{ "type": "Feature", "properties": { "geogrid_id": "3001565702014872375", "seqnum": 16894.0, "lat_c": -1.5657015942011661, "lon_c": 14.872375123668235, "res": 8.0, "count_Flowering Plants": 1, "count_Arachnids": 0, "count_Insects": 0, "count_Reptiles": 3, "count_Birds": 0, "count_Amphibians": 20, "count_Mammals": 0, "count_Ferns": 0, "count_Molluscs": 0, "count_Basidiomycota": 0, "count_Mosses": 0, "count_Sac Fungi": 0, "unique_species_count": 24.0, "countryCode": "CG" }, "geometry": { "type": "MultiPolygon", "coordinates": [ [ [ [ 15.272529961447459, -1.305308131817976 ], [ 15.276502881643912, -1.826796991925817 ], [ 14.876082871945286, -2.086867377891396 ], [ 14.47179109122084, -1.82590868431927 ], [ 14.468571296241283, -1.304697220184507 ], [ 14.868882498445021, -1.044178593169676 ], [ 15.272529961447459, -1.305308131817976 ] ] ] ] } },
{ "type": "Feature", "properties": { "geogrid_id": "3001566532015676480", "seqnum": 16976.0, "lat_c": -1.5665316354417991, "lon_c": 15.676480415860128, "res": 8.0, "count_Flowering Plants": 0, "count_Arachnids": 0, "count_Insects": 1, "count_Reptiles": 0, "count_Birds": 8, "count_Amphibians": 0, "count_Mammals": 0, "count_Ferns": 0, "count_Molluscs": 0, "count_Basidiomycota": 0, "count_Mosses": 0, "count_Sac Fungi": 0, "unique_species_count": 9.0, "countryCode": "CG" }, "geometry": { "type": "MultiPolygon", "coordinates": [ [ [ [ 16.076033181812122, -1.306054766082461 ], [ 16.080724771407692, -1.827882630391506 ], [ 15.68094622824194, -2.088017201544049 ], [ 15.276502881643912, -1.826796991925817 ], [ 15.272529961447459, -1.305308131817976 ], [ 15.672272515903304, -1.044711547601113 ], [ 16.076033181812122, -1.306054766082461 ] ] ] ] } },
{ "type": "Feature", "properties": { "geogrid_id": "3001567528016480066", "seqnum": 17058.0, "lat_c": -1.5675276233894551, "lon_c": 16.480066450659162, "res": 8.0, "count_Flowering Plants": 1, "count_Arachnids": 0, "count_Insects": 0, "count_Reptiles": 0, "count_Birds": 0, "count_Amphibians": 0, "count_Mammals": 0, "count_Ferns": 0, "count_Molluscs": 0, "count_Basidiomycota": 0, "count_Mosses": 0, "count_Sac Fungi": 0, "unique_species_count": 1.0, "countryCode": "CG" }, "geometry": { "type": "MultiPolygon", "coordinates": [ [ [ [ 16.878990528137486, -1.306937101647149 ], [ 16.884359533035123, -1.829165557204098 ], [ 16.485250929878291, -2.089396876335068 ], [ 16.080724771407692, -1.827882630391506 ], [ 16.076033181812122, -1.306054766082461 ], [ 16.475179682337629, -1.045351065176965 ], [ 16.878990528137486, -1.306937101647149 ] ] ] ] } },
{ "type": "Feature", "properties": { "geogrid_id": "3002344782012056565", "seqnum": 16647.0, "lat_c": -2.3447821210253208, "lon_c": 12.05656517607893, "res": 8.0, "count_Flowering Plants": 2, "count_Arachnids": 0, "count_Insects": 1, "count_Reptiles": 0, "count_Birds": 0, "count_Amphibians": 0, "count_Mammals": 0, "count_Ferns": 0, "count_Molluscs": 0, "count_Basidiomycota": 0, "count_Mosses": 0, "count_Sac Fungi": 0, "unique_species_count": 3.0, "countryCode": "CG" }, "geometry": { "type": "MultiPolygon", "coordinates": [ [ [ [ 12.45915269124502, -2.084797478595559 ], [ 12.46049533583437, -2.60500154421307 ], [ 12.057486792990204, -2.864752991953168 ], [ 11.653516739258594, -2.604702622837865 ], [ 11.653067886865713, -2.084567472714411 ], [ 12.055693305958741, -1.824428055939931 ], [ 12.45915269124502, -2.084797478595559 ] ] ] ] } },
{ "type": "Feature", "properties": { "geogrid_id": "3002345178012863025", "seqnum": 16729.0, "lat_c": -2.3451778465322879, "lon_c": 12.863024591118739, "res": 8.0, "count_Flowering Plants": 0, "count_Arachnids": 0, "count_Insects": 0, "count_Reptiles": 29, "count_Birds": 0, "count_Amphibians": 38, "count_Mammals": 0, "count_Ferns": 0, "count_Molluscs": 0, "count_Basidiomycota": 0, "count_Mosses": 0, "count_Sac Fungi": 0, "unique_species_count": 67.0, "countryCode": "CG" }, "geometry": { "type": "MultiPolygon", "coordinates": [ [ [ [ 13.265084621860231, -2.08525748025406 ], [ 13.267309327304705, -2.605599370020746 ], [ 12.864859666479264, -2.865256036464033 ], [ 12.46049533583437, -2.60500154421307 ], [ 12.45915269124502, -2.084797478595559 ], [ 12.86128835776587, -1.824724193125336 ], [ 13.265084621860231, -2.08525748025406 ] ] ] ] } },
{ "type": "Feature", "properties": { "geogrid_id": "3002345837013669273", "seqnum": 16811.0, "lat_c": -2.3458373667644712, "lon_c": 13.669272562107952, "res": 8.0, "count_Flowering Plants": 0, "count_Arachnids": 0, "count_Insects": 0, "count_Reptiles": 0, "count_Birds": 0, "count_Amphibians": 0, "count_Mammals": 3, "count_Ferns": 0, "count_Molluscs": 0, "count_Basidiomycota": 0, "count_Mosses": 0, "count_Sac Fungi": 0, "unique_species_count": 3.0, "countryCode": "CG" }, "geometry": { "type": "MultiPolygon", "coordinates": [ [ [ [ 14.070761885367959, -2.085947457019589 ], [ 14.073849117307745, -2.606496065914271 ], [ 13.672004790959919, -2.866094408220514 ], [ 13.267309327304705, -2.605599370020746 ], [ 13.265084621860231, -2.08525748025406 ], [ 13.666686969022299, -1.825217742363759 ], [ 14.070761885367959, -2.085947457019589 ] ] ] ] } },
{ "type": "Feature", "properties": { "geogrid_id": "3002346761014475204", "seqnum": 16893.0, "lat_c": -2.3467606480752319, "lon_c": 14.475203563569206, "res": 8.0, "count_Flowering Plants": 0, "count_Arachnids": 0, "count_Insects": 0, "count_Reptiles": 0, "count_Birds": 1, "count_Amphibians": 0, "count_Mammals": 4, "count_Ferns": 0, "count_Molluscs": 0, "count_Basidiomycota": 0, "count_Mosses": 0, "count_Sac Fungi": 0, "unique_species_count": 5.0, "countryCode": "CG" }, "geometry": { "type": "MultiPolygon", "coordinates": [ [ [ [ 14.876082871945286, -2.086867377891396 ], [ 14.880005319766932, -2.607691580384104 ], [ 14.478808517477308, -2.867268053357643 ], [ 14.073849117307745, -2.606496065914271 ], [ 14.070761885367959, -2.085947457019589 ], [ 14.47179109122084, -1.82590868431927 ], [ 14.876082871945286, -2.086867377891396 ] ] ] ] } },
{ "type": "Feature", "properties": { "geogrid_id": "3002347948015280712", "seqnum": 16975.0, "lat_c": -2.3479476433692921, "lon_c": 15.280712305480494, "res": 8.0, "count_Flowering Plants": 0, "count_Arachnids": 0, "count_Insects": 8, "count_Reptiles": 1, "count_Birds": 2, "count_Amphibians": 0, "count_Mammals": 0, "count_Ferns": 0, "count_Molluscs": 0, "count_Basidiomycota": 0, "count_Mosses": 0, "count_Sac Fungi": 0, "unique_species_count": 11.0, "countryCode": "CG" }, "geometry": { "type": "MultiPolygon", "coordinates": [ [ [ [ 15.68094622824194, -2.088017201544049 ], [ 15.685668842451751, -2.609185844770291 ], [ 15.285157467246497, -2.868776896485097 ], [ 14.880005319766932, -2.607691580384104 ], [ 14.876082871945286, -2.086867377891396 ], [ 15.276502881643912, -1.826796991925817 ], [ 15.68094622824194, -2.088017201544049 ] ] ] ] } },
{ "type": "Feature", "properties": { "geogrid_id": "3002349398016085694", "seqnum": 17057.0, "lat_c": -2.349398292112769, "lon_c": 16.085693811091669, "res": 8.0, "count_Flowering Plants": 4, "count_Arachnids": 0, "count_Insects": 0, "count_Reptiles": 1, "count_Birds": 0, "count_Amphibians": 0, "count_Mammals": 0, "count_Ferns": 0, "count_Molluscs": 0, "count_Basidiomycota": 0, "count_Mosses": 0, "count_Sac Fungi": 0, "unique_species_count": 5.0, "countryCode": "CG" }, "geometry": { "type": "MultiPolygon", "coordinates": [ [ [ [ 16.485250929878291, -2.089396876335068 ], [ 16.490730969987396, -2.610978773279137 ], [ 16.09093862089572, -2.87062084070785 ], [ 15.685668842451751, -2.609185844770291 ], [ 15.68094622824194, -2.088017201544049 ], [ 16.080724771407692, -1.827882630391506 ], [ 16.485250929878291, -2.089396876335068 ] ] ] ] } },
{ "type": "Feature", "properties": { "geogrid_id": "3003124458011653991", "seqnum": 16646.0, "lat_c": -3.1244584520335348, "lon_c": 11.653990543671979, "res": 8.0, "count_Flowering Plants": 0, "count_Arachnids": 0, "count_Insects": 0, "count_Reptiles": 0, "count_Birds": 1, "count_Amphibians": 0, "count_Mammals": 0, "count_Ferns": 0, "count_Molluscs": 0, "count_Basidiomycota": 0, "count_Mosses": 0, "count_Sac Fungi": 0, "unique_species_count": 1.0, "countryCode": "CG" }, "geometry": { "type": "MultiPolygon", "coordinates": [ [ [ [ 12.057486792990204, -2.864752991953168 ], [ 12.058458303889505, -3.384352439408679 ], [ 11.654489384502106, -3.643846523012087 ], [ 11.25000000002866, -3.384146169459285 ], [ 11.249999999852022, -2.864585307012776 ], [ 11.653516739258594, -2.604702622837865 ], [ 12.057486792990204, -2.864752991953168 ] ] ] ] } },
{ "type": "Feature", "properties": { "geogrid_id": "3003124832012461912", "seqnum": 16728.0, "lat_c": -3.1248316698394381, "lon_c": 12.461912491152361, "res": 8.0, "count_Flowering Plants": 0, "count_Arachnids": 0, "count_Insects": 0, "count_Reptiles": 0, "count_Birds": 1, "count_Amphibians": 0, "count_Mammals": 0, "count_Ferns": 0, "count_Molluscs": 0, "count_Basidiomycota": 0, "count_Mosses": 0, "count_Sac Fungi": 0, "unique_species_count": 1.0, "countryCode": "CG" }, "geometry": { "type": "MultiPolygon", "coordinates": [ [ [ [ 12.864859666479264, -2.865256036464033 ], [ 12.866793797619886, -3.384971233412772 ], [ 12.463404367021591, -3.644299912542768 ], [ 12.058458303889505, -3.384352439408679 ], [ 12.057486792990204, -2.864752991953168 ], [ 12.46049533583437, -2.60500154421307 ], [ 12.864859666479264, -2.865256036464033 ] ] ] ] } },
{ "type": "Feature", "properties": { "geogrid_id": "3003130056015690647", "seqnum": 17056.0, "lat_c": -3.1300557882616209, "lon_c": 15.690647006591929, "res": 8.0, "count_Flowering Plants": 8, "count_Arachnids": 5, "count_Insects": 144, "count_Reptiles": 12, "count_Birds": 17, "count_Amphibians": 1, "count_Mammals": 9, "count_Ferns": 0, "count_Molluscs": 0, "count_Basidiomycota": 0, "count_Mosses": 0, "count_Sac Fungi": 0, "unique_species_count": 196.0, "countryCode": "CG" }, "geometry": { "type": "MultiPolygon", "coordinates": [ [ [ [ 16.09093862089572, -2.87062084070785 ], [ 16.096457280650821, -3.391570182659189 ], [ 15.695879277917996, -3.650645986116797 ], [ 15.28983749740728, -3.389302107530286 ], [ 15.285157467246497, -2.868776896485097 ], [ 15.685668842451751, -2.609185844770291 ], [ 16.09093862089572, -2.87062084070785 ] ] ] ] } },
{ "type": "Feature", "properties": { "geogrid_id": "3003132294016496504", "seqnum": 17138.0, "lat_c": -3.1322941633002652, "lon_c": 16.496504128739275, "res": 8.0, "count_Flowering Plants": 0, "count_Arachnids": 0, "count_Insects": 0, "count_Reptiles": 0, "count_Birds": 2, "count_Amphibians": 0, "count_Mammals": 0, "count_Ferns": 0, "count_Molluscs": 0, "count_Basidiomycota": 0, "count_Mosses": 0, "count_Sac Fungi": 0, "unique_species_count": 2.0, "countryCode": "CG" }, "geometry": { "type": "MultiPolygon", "coordinates": [ [ [ [ 16.89603940701619, -2.872799767652705 ], [ 16.90234382848174, -3.394250211560877 ], [ 16.50256759008488, -3.653364942695265 ], [ 16.096457280650821, -3.391570182659189 ], [ 16.09093862089572, -2.87062084070785 ], [ 16.490730969987396, -2.610978773279137 ], [ 16.89603940701619, -2.872799767652705 ] ] ] ] } },
{ "type": "Feature", "properties": { "geogrid_id": "3003903344011250000", "seqnum": 16645.0, "lat_c": -3.9033442628832522, "lon_c": 11.250000000205361, "res": 8.0, "count_Flowering Plants": 31, "count_Arachnids": 5, "count_Insects": 21, "count_Reptiles": 16, "count_Birds": 110, "count_Amphibians": 13, "count_Mammals": 9, "count_Ferns": 0, "count_Molluscs": 1, "count_Basidiomycota": 0, "count_Mosses": 0, "count_Sac Fungi": 0, "unique_species_count": 206.0, "countryCode": "CG" }, "geometry": { "type": "MultiPolygon", "coordinates": [ [ [ [ 11.654489384502106, -3.643846523012087 ], [ 11.655013357654111, -4.162878335241817 ], [ 11.250000000382164, -4.422190982663269 ], [ 10.84498664293333, -4.16287833547554 ], [ 10.845510615731843, -3.643846523245427 ], [ 11.25000000002866, -3.384146169459285 ], [ 11.654489384502106, -3.643846523012087 ] ] ] ] } },
{ "type": "Feature", "properties": { "geogrid_id": "3003903592012059480", "seqnum": 16727.0, "lat_c": -3.9035921906005928, "lon_c": 12.059479877405661, "res": 8.0, "count_Flowering Plants": 1, "count_Arachnids": 0, "count_Insects": 2, "count_Reptiles": 8, "count_Birds": 0, "count_Amphibians": 12, "count_Mammals": 0, "count_Ferns": 0, "count_Molluscs": 0, "count_Basidiomycota": 0, "count_Mosses": 0, "count_Sac Fungi": 0, "unique_species_count": 23.0, "countryCode": "CG" }, "geometry": { "type": "MultiPolygon", "coordinates": [ [ [ [ 12.463404367021591, -3.644299912542768 ], [ 12.464971200862093, -4.163418327879549 ], [ 12.060551703291363, -4.422483936226749 ], [ 11.655013357654111, -4.162878335241817 ], [ 11.654489384502106, -3.643846523012087 ], [ 12.058458303889505, -3.384352439408679 ], [ 12.463404367021591, -3.644299912542768 ] ] ] ] } },
{ "type": "Feature", "properties": { "geogrid_id": "3003904336012868827", "seqnum": 16809.0, "lat_c": -3.9043359505022108, "lon_c": 12.868827228494037, "res": 8.0, "count_Flowering Plants": 7, "count_Arachnids": 0, "count_Insects": 3, "count_Reptiles": 0, "count_Birds": 2, "count_Amphibians": 0, "count_Mammals": 1, "count_Ferns": 0, "count_Molluscs": 0, "count_Basidiomycota": 0, "count_Mosses": 0, "count_Sac Fungi": 0, "unique_species_count": 13.0, "countryCode": "CG" }, "geometry": { "type": "MultiPolygon", "coordinates": [ [ [ [ 13.272128046614606, -3.645206652334474 ], [ 13.274722494088016, -4.164498256854438 ], [ 12.870960230163728, -4.423362763907968 ], [ 12.464971200862093, -4.163418327879549 ], [ 12.463404367021591, -3.644299912542768 ], [ 12.866793797619886, -3.384971233412772 ], [ 13.272128046614606, -3.645206652334474 ] ] ] ] } },
{ "type": "Feature", "properties": { "geogrid_id": "3003905575013677910", "seqnum": 16891.0, "lat_c": -3.9055754714454611, "lon_c": 13.67790964734211, "res": 8.0, "count_Flowering Plants": 9, "count_Arachnids": 0, "count_Insects": 1, "count_Reptiles": 0, "count_Birds": 7, "count_Amphibians": 0, "count_Mammals": 0, "count_Ferns": 0, "count_Molluscs": 1, "count_Basidiomycota": 0, "count_Mosses": 0, "count_Sac Fungi": 0, "unique_species_count": 18.0, "countryCode": "CG" }, "geometry": { "type": "MultiPolygon", "coordinates": [ [ [ [ 14.080533073963355, -3.646566663396032 ], [ 14.084129752384237, -4.166118009123535 ], [ 13.681082543933307, -4.424827365292281 ], [ 13.274722494088016, -4.164498256854438 ], [ 13.272128046614606, -3.645206652334474 ], [ 13.674883775012978, -3.38600250254582 ], [ 14.080533073963355, -3.646566663396032 ] ] ] ] } },
{ "type": "Feature", "properties": { "geogrid_id": "3003907311014486595", "seqnum": 16973.0, "lat_c": -3.9073106348920388, "lon_c": 14.486594967525134, "res": 8.0, "count_Flowering Plants": 2, "count_Arachnids": 0, "count_Insects": 0, "count_Reptiles": 0, "count_Birds": 0, "count_Amphibians": 0, "count_Mammals": 3, "count_Ferns": 0, "count_Molluscs": 0, "count_Basidiomycota": 0, "count_Mosses": 0, "count_Sac Fungi": 0, "unique_species_count": 5.0, "countryCode": "CG" }, "geometry": { "type": "MultiPolygon", "coordinates": [ [ [ [ 14.888492378284992, -3.648379827277894 ], [ 14.893055812852282, -4.168277415186696 ], [ 14.490775885150244, -4.426877573077372 ], [ 14.084129752384237, -4.166118009123535 ], [ 14.080533073963355, -3.646566663396032 ], [ 14.482605737494927, -3.387446165283416 ], [ 14.888492378284992, -3.648379827277894 ] ] ] ] } },
{ "type": "Feature", "properties": { "geogrid_id": "3003909541015294751", "seqnum": 17055.0, "lat_c": -3.9095412749571898, "lon_c": 15.294751381517171, "res": 8.0, "count_Flowering Plants": 53, "count_Arachnids": 3, "count_Insects": 31, "count_Reptiles": 7, "count_Birds": 53, "count_Amphibians": 0, "count_Mammals": 1, "count_Ferns": 2, "count_Molluscs": 0, "count_Basidiomycota": 0, "count_Mosses": 0, "count_Sac Fungi": 0, "unique_species_count": 150.0, "countryCode": "CG" }, "geometry": { "type": "MultiPolygon", "coordinates": [ [ [ [ 15.695879277917996, -3.650645986116797 ], [ 15.701363962442224, -4.170976249163694 ], [ 15.299897909976981, -4.429513153156418 ], [ 14.893055812852282, -4.168277415186696 ], [ 14.888492378284992, -3.648379827277894 ], [ 15.28983749740728, -3.389302107530286 ], [ 15.695879277917996, -3.650645986116797 ] ] ] ] } },
{ "type": "Feature", "properties": { "geogrid_id": "3003912267016102248", "seqnum": 17137.0, "lat_c": -3.9122671784785319, "lon_c": 16.102247559101301, "res": 8.0, "count_Flowering Plants": 0, "count_Arachnids": 0, "count_Insects": 0, "count_Reptiles": 0, "count_Birds": 2, "count_Amphibians": 0, "count_Mammals": 0, "count_Ferns": 0, "count_Molluscs": 0, "count_Basidiomycota": 0, "count_Mosses": 0, "count_Sac Fungi": 0, "unique_species_count": 2.0, "countryCode": "CG" }, "geometry": { "type": "MultiPolygon", "coordinates": [ [ [ [ 16.50256759008488, -3.653364942695265 ], [ 16.508918064736932, -4.174214228896908 ], [ 16.108306827214168, -4.432733804734384 ], [ 15.701363962442224, -4.170976249163694 ], [ 15.695879277917996, -3.650645986116797 ], [ 16.096457280650821, -3.391570182659189 ], [ 16.50256759008488, -3.653364942695265 ] ] ] ] } },
{ "type": "Feature", "properties": { "geogrid_id": "3004681565010844437", "seqnum": 16644.0, "lat_c": -4.6815653288636074, "lon_c": 10.844437430397791, "res": 8.0, "count_Flowering Plants": 0, "count_Arachnids": 0, "count_Insects": 0, "count_Reptiles": 0, "count_Birds": 1, "count_Amphibians": 0, "count_Mammals": 4, "count_Ferns": 0, "count_Molluscs": 0, "count_Basidiomycota": 0, "count_Mosses": 0, "count_Sac Fungi": 0, "unique_species_count": 5.0, "countryCode": "CG" }, "geometry": { "type": "MultiPolygon", "coordinates": [ [ [ [ 11.250000000382164, -4.422190982663269 ], [ 11.250000000559096, -4.940697656882596 ], [ 10.843862859197303, -5.199918887639521 ], [ 10.43832600906928, -4.941039338739766 ], [ 10.439448297472758, -4.422483936694569 ], [ 10.84498664293333, -4.16287833547554 ], [ 11.250000000382164, -4.422190982663269 ] ] ] ] } },
{ "type": "Feature", "properties": { "geogrid_id": "3004681565011655563", "seqnum": 16726.0, "lat_c": -4.6815653286294836, "lon_c": 11.655562570543378, "res": 8.0, "count_Flowering Plants": 27, "count_Arachnids": 2, "count_Insects": 11, "count_Reptiles": 24, "count_Birds": 101, "count_Amphibians": 19, "count_Mammals": 5, "count_Ferns": 0, "count_Molluscs": 16, "count_Basidiomycota": 0, "count_Mosses": 0, "count_Sac Fungi": 1, "unique_species_count": 206.0, "countryCode": "CG" }, "geometry": { "type": "MultiPolygon", "coordinates": [ [ [ [ 12.060551703291363, -4.422483936226749 ], [ 12.061673992048703, -4.941039338271132 ], [ 11.656137142097887, -5.199918887404983 ], [ 11.250000000559096, -4.940697656882596 ], [ 11.250000000382164, -4.422190982663269 ], [ 11.655013357654111, -4.162878335241817 ], [ 12.060551703291363, -4.422483936226749 ] ] ] ] } },
{ "type": "Feature", "properties": { "geogrid_id": "3004682199012466613", "seqnum": 16808.0, "lat_c": -4.6821989833781954, "lon_c": 12.466613256331636, "res": 8.0, "count_Flowering Plants": 1, "count_Arachnids": 1, "count_Insects": 0, "count_Reptiles": 24, "count_Birds": 2, "count_Amphibians": 23, "count_Mammals": 1, "count_Ferns": 0, "count_Molluscs": 0, "count_Basidiomycota": 0, "count_Mosses": 0, "count_Sac Fungi": 0, "unique_species_count": 52.0, "countryCode": "CG" }, "geometry": { "type": "MultiPolygon", "coordinates": [ [ [ [ 12.870960230163728, -4.423362763907968 ], [ 12.873193097023931, -4.942064336712724 ], [ 12.468330821647086, -5.200653974155045 ], [ 12.061673992048703, -4.941039338271132 ], [ 12.060551703291363, -4.422483936226749 ], [ 12.464971200862093, -4.163418327879549 ], [ 12.870960230163728, -4.423362763907968 ] ] ] ] } },
{ "type": "Feature", "properties": { "geogrid_id": "3004683466013277441", "seqnum": 16890.0, "lat_c": -4.683466214271168, "lon_c": 13.27744065394671, "res": 8.0, "count_Flowering Plants": 3, "count_Arachnids": 0, "count_Insects": 0, "count_Reptiles": 0, "count_Birds": 0, "count_Amphibians": 0, "count_Mammals": 0, "count_Ferns": 0, "count_Molluscs": 0, "count_Basidiomycota": 0, "count_Mosses": 0, "count_Sac Fungi": 0, "unique_species_count": 3.0, "countryCode": "CG" }, "geometry": { "type": "MultiPolygon", "coordinates": [ [ [ [ 13.681082543933307, -4.424827365292281 ], [ 13.684402590480001, -4.943772513656415 ], [ 13.280282778344533, -5.202124040118727 ], [ 12.873193097023931, -4.942064336712724 ], [ 12.870960230163728, -4.423362763907968 ], [ 13.274722494088016, -4.164498256854438 ], [ 13.681082543933307, -4.424827365292281 ] ] ] ] } },
{ "type": "Feature", "properties": { "geogrid_id": "3004687901014897832", "seqnum": 17054.0, "lat_c": -4.6879006952411686, "lon_c": 14.897831521035341, "res": 8.0, "count_Flowering Plants": 11, "count_Arachnids": 0, "count_Insects": 4, "count_Reptiles": 0, "count_Birds": 0, "count_Amphibians": 0, "count_Mammals": 0, "count_Ferns": 0, "count_Molluscs": 0, "count_Basidiomycota": 0, "count_Mosses": 0, "count_Sac Fungi": 0, "unique_species_count": 15.0, "countryCode": "CG" }, "geometry": { "type": "MultiPolygon", "coordinates": [ [ [ [ 15.299897909976981, -4.429513153156418 ], [ 15.305275616184218, -4.949237387597983 ], [ 14.902818525581713, -5.207268140228519 ], [ 14.49514807002636, -4.94616363827445 ], [ 14.490775885150244, -4.426877573077372 ], [ 14.893055812852282, -4.168277415186696 ], [ 15.299897909976981, -4.429513153156418 ] ] ] ] } },
{ "type": "Feature", "properties": { "geogrid_id": "3005458876011250000", "seqnum": 16725.0, "lat_c": -5.4588755487277583, "lon_c": 11.250000000736193, "res": 8.0, "count_Flowering Plants": 0, "count_Arachnids": 0, "count_Insects": 0, "count_Reptiles": 1, "count_Birds": 4, "count_Amphibians": 0, "count_Mammals": 1, "count_Ferns": 0, "count_Molluscs": 5, "count_Basidiomycota": 0, "count_Mosses": 0, "count_Sac Fungi": 0, "unique_species_count": 11.0, "countryCode": "CG" }, "geometry": { "type": "MultiPolygon", "coordinates": [ [ [ [ 11.656137142097887, -5.199918887404983 ], [ 11.656737202757956, -5.717950344268637 ], [ 11.25000000091349, -5.976735858851818 ], [ 10.843262798891619, -5.717950344503607 ], [ 10.843862859197303, -5.199918887639521 ], [ 11.250000000559096, -4.940697656882596 ], [ 11.656137142097887, -5.199918887404983 ] ] ] ] } },
{ "type": "Feature", "properties": { "geogrid_id": "3005459270010437153", "seqnum": 16643.0, "lat_c": -5.4592700393063138, "lon_c": 10.437153027009831, "res": 8.0, "count_Flowering Plants": 0, "count_Arachnids": 0, "count_Insects": 0, "count_Reptiles": 0, "count_Birds": 2, "count_Amphibians": 0, "count_Mammals": 2, "count_Ferns": 0, "count_Molluscs": 0, "count_Basidiomycota": 0, "count_Mosses": 0, "count_Sac Fungi": 0, "unique_species_count": 4.0, "countryCode": "CG" }, "geometry": { "type": "MultiPolygon", "coordinates": [ [ [ [ 10.843862859197303, -5.199918887639521 ], [ 10.843262798891619, -5.717950344503607 ], [ 10.435929100820534, -5.977187670745657 ], [ 10.029875794162812, -5.718795441883761 ], [ 10.031669179647691, -5.200653974858567 ], [ 10.43832600906928, -4.941039338739766 ], [ 10.843862859197303, -5.199918887639521 ] ] ] ] } },
{ "type": "Feature", "properties": { "geogrid_id": "3005459270012062847", "seqnum": 16807.0, "lat_c": -5.4592700388368334, "lon_c": 12.062846974462346, "res": 8.0, "count_Flowering Plants": 2, "count_Arachnids": 0, "count_Insects": 0, "count_Reptiles": 0, "count_Birds": 8, "count_Amphibians": 0, "count_Mammals": 2, "count_Ferns": 0, "count_Molluscs": 0, "count_Basidiomycota": 0, "count_Mosses": 0, "count_Sac Fungi": 0, "unique_species_count": 12.0, "countryCode": "CG" }, "geometry": { "type": "MultiPolygon", "coordinates": [ [ [ [ 12.468330821647086, -5.200653974155045 ], [ 12.470124207486348, -5.718795441178949 ], [ 12.064070901006234, -5.977187670275297 ], [ 11.656737202757956, -5.717950344268637 ], [ 11.656137142097887, -5.199918887404983 ], [ 12.061673992048703, -4.941039338271132 ], [ 12.468330821647086, -5.200653974155045 ] ] ] ] } },
{ "type": "Feature", "properties": { "geogrid_id": "3005460453009624474", "seqnum": 16561.0, "lat_c": -5.4604534479459597, "lon_c": 9.6244738593555663, "res": 8.0, "count_Flowering Plants": 0, "count_Arachnids": 0, "count_Insects": 0, "count_Reptiles": 0, "count_Birds": 1, "count_Amphibians": 0, "count_Mammals": 2, "count_Ferns": 0, "count_Molluscs": 0, "count_Basidiomycota": 0, "count_Mosses": 0, "count_Sac Fungi": 0, "unique_species_count": 3.0, "countryCode": "CG" }, "geometry": { "type": "MultiPolygon", "coordinates": [ [ [ [ 10.031669179647691, -5.200653974858567 ], [ 10.029875794162812, -5.718795441883761 ], [ 9.622040310569814, -5.978543022211463 ], [ 9.2167508849413, -5.720485491362084 ], [ 9.21971722294942, -5.202124041290954 ], [ 9.626806904093439, -4.94206433764981 ], [ 10.031669179647691, -5.200653974858567 ] ] ] ] } },
{ "type": "Feature", "properties": { "geogrid_id": "3006236636010028006", "seqnum": 16642.0, "lat_c": -6.2366355935510036, "lon_c": 10.028006257666091, "res": 8.0, "count_Flowering Plants": 0, "count_Arachnids": 0, "count_Insects": 0, "count_Reptiles": 0, "count_Birds": 2, "count_Amphibians": 0, "count_Mammals": 1, "count_Ferns": 0, "count_Molluscs": 0, "count_Basidiomycota": 0, "count_Mosses": 0, "count_Sac Fungi": 0, "unique_species_count": 3.0, "countryCode": "CG" }, "geometry": { "type": "MultiPolygon", "coordinates": [ [ [ [ 10.435929100820534, -5.977187670745657 ], [ 10.434653961103388, -6.494803867417374 ], [ 10.026060223239107, -6.754186731415879 ], [ 9.619505926564505, -6.496346175304069 ], [ 9.622040310569814, -5.978543022211463 ], [ 10.029875794162812, -5.718795441883761 ], [ 10.435929100820534, -5.977187670745657 ] ] ] ] } },
{ "type": "Feature", "properties": { "geogrid_id": "3006238565009213660", "seqnum": 16560.0, "lat_c": -6.2385646173464213, "lon_c": 9.2136600994197302, "res": 8.0, "count_Flowering Plants": 0, "count_Arachnids": 0, "count_Insects": 0, "count_Reptiles": 0, "count_Birds": 0, "count_Amphibians": 0, "count_Mammals": 2, "count_Ferns": 0, "count_Molluscs": 0, "count_Basidiomycota": 0, "count_Mosses": 0, "count_Sac Fungi": 0, "unique_species_count": 2.0, "countryCode": "CG" }, "geometry": { "type": "MultiPolygon", "coordinates": [ [ [ [ 9.622040310569814, -5.978543022211463 ], [ 9.619505926564505, -6.496346175304069 ], [ 9.210444665361585, -6.756375834061093 ], [ 8.804753643588031, -6.498916319118351 ], [ 8.808515519431873, -5.980801662080577 ], [ 9.2167508849413, -5.720485491362084 ], [ 9.622040310569814, -5.978543022211463 ] ] ] ] } },
{ "type": "Feature", "properties": { "geogrid_id": "800000000014862544", "seqnum": 16814.0, "lat_c": -1.26552e-10, "lon_c": 14.862544227511876, "res": 8.0, "count_Flowering Plants": 7, "count_Arachnids": 1, "count_Insects": 49, "count_Reptiles": 0, "count_Birds": 4, "count_Amphibians": 0, "count_Mammals": 3, "count_Ferns": 0, "count_Molluscs": 0, "count_Basidiomycota": 3, "count_Mosses": 0, "count_Sac Fungi": 0, "unique_species_count": 67.0, "countryCode": "CG" }, "geometry": { "type": "MultiPolygon", "coordinates": [ [ [ [ 15.265296374991385, 0.261250798062006 ], [ 15.265296372849956, -0.261250794082232 ], [ 14.865605399311907, -0.522283070415475 ], [ 14.462710524350921, -0.26113732576584 ], [ 14.462710526491172, 0.261137329517525 ], [ 14.86560540135185, 0.522283074282071 ], [ 15.265296374991385, 0.261250798062006 ] ] ] ] } },
{ "type": "Feature", "properties": { "geogrid_id": "800000000015664634", "seqnum": 16896.0, "lat_c": 1.01747e-10, "lon_c": 15.664634427680337, "res": 8.0, "count_Flowering Plants": 5, "count_Arachnids": 0, "count_Insects": 4, "count_Reptiles": 1, "count_Birds": 10, "count_Amphibians": 0, "count_Mammals": 0, "count_Ferns": 0, "count_Molluscs": 0, "count_Basidiomycota": 0, "count_Mosses": 0, "count_Sac Fungi": 0, "unique_species_count": 20.0, "countryCode": "CG" }, "geometry": { "type": "MultiPolygon", "coordinates": [ [ [ [ 16.067488213835698, 0.261389479390308 ], [ 16.067488211692872, -0.261389475183338 ], [ 15.668323538575226, -0.522539872478605 ], [ 15.265296372849956, -0.261250794082232 ], [ 15.265296374991385, 0.261250798062006 ], [ 15.668323540616678, 0.522539876573011 ], [ 16.067488213835698, 0.261389479390308 ] ] ] ] } },
{ "type": "Feature", "properties": { "geogrid_id": "800000000016466307", "seqnum": 16978.0, "lat_c": 3.29284e-10, "lon_c": 16.466306809664779, "res": 8.0, "count_Flowering Plants": 2, "count_Arachnids": 0, "count_Insects": 1, "count_Reptiles": 1, "count_Birds": 37, "count_Amphibians": 0, "count_Mammals": 1, "count_Ferns": 0, "count_Molluscs": 0, "count_Basidiomycota": 0, "count_Mosses": 0, "count_Sac Fungi": 0, "unique_species_count": 42.0, "countryCode": "CG" }, "geometry": { "type": "MultiPolygon", "coordinates": [ [ [ [ 16.869207752353567, 0.261553372033556 ], [ 16.869207750209128, -0.261553367600347 ], [ 16.470592549993054, -0.522848026683461 ], [ 16.067488211692872, -0.261389475183338 ], [ 16.067488213835698, 0.261389479390308 ], [ 16.470592552036237, 0.522848031004748 ], [ 16.869207752353567, 0.261553372033556 ] ] ] ] } },
{ "type": "Feature", "properties": { "geogrid_id": "800000000017267486", "seqnum": 17060.0, "lat_c": 5.55995e-10, "lon_c": 17.267485973963272, "res": 8.0, "count_Flowering Plants": 2, "count_Arachnids": 0, "count_Insects": 2, "count_Reptiles": 0, "count_Birds": 15, "count_Amphibians": 0, "count_Mammals": 1, "count_Ferns": 0, "count_Molluscs": 0, "count_Basidiomycota": 0, "count_Mosses": 0, "count_Sac Fungi": 0, "unique_species_count": 20.0, "countryCode": "CG" }, "geometry": { "type": "MultiPolygon", "coordinates": [ [ [ [ 17.670376977498819, 0.261742474255883 ], [ 17.670376975352557, -0.261742469597458 ], [ 17.272331416707498, -0.523207528493942 ], [ 16.869207750209128, -0.261553367600347 ], [ 16.869207752353567, 0.261553372033556 ], [ 17.272331418752632, 0.523207533041114 ], [ 17.670376977498819, 0.261742474255883 ] ] ] ] } },
{ "type": "Feature", "properties": { "geogrid_id": "800783112014465544", "seqnum": 16733.0, "lat_c": 0.78311158722385299, "lon_c": 14.465544374048228, "res": 8.0, "count_Flowering Plants": 25, "count_Arachnids": 9, "count_Insects": 102, "count_Reptiles": 16, "count_Birds": 42, "count_Amphibians": 9, "count_Mammals": 18, "count_Ferns": 0, "count_Molluscs": 0, "count_Basidiomycota": 1, "count_Mosses": 0, "count_Sac Fungi": 0, "unique_species_count": 222.0, "countryCode": "CG" }, "geometry": { "type": "MultiPolygon", "coordinates": [ [ [ [ 14.868882500283318, 1.044178597037848 ], [ 14.86560540135185, 0.522283074282071 ], [ 14.462710526491172, 0.261137329517525 ], [ 14.062519422415564, 0.522077627912361 ], [ 14.065097000928061, 1.043752218151552 ], [ 14.468571297977805, 1.304697223939006 ], [ 14.868882500283318, 1.044178597037848 ] ] ] ] } },
{ "type": "Feature", "properties": { "geogrid_id": "800783465015268794", "seqnum": 16815.0, "lat_c": 0.78346472067518902, "lon_c": 15.268794242541857, "res": 8.0, "count_Flowering Plants": 91, "count_Arachnids": 15, "count_Insects": 223, "count_Reptiles": 41, "count_Birds": 140, "count_Amphibians": 31, "count_Mammals": 36, "count_Ferns": 1, "count_Molluscs": 2, "count_Basidiomycota": 16, "count_Mosses": 0, "count_Sac Fungi": 2, "unique_species_count": 598.0, "countryCode": "CG" }, "geometry": { "type": "MultiPolygon", "coordinates": [ [ [ [ 15.672272517743544, 1.044711551697426 ], [ 15.668323540616678, 0.522539876573011 ], [ 15.265296374991385, 0.261250798062006 ], [ 14.86560540135185, 0.522283074282071 ], [ 14.868882500283318, 1.044178597037848 ], [ 15.272529963186017, 1.305308135801234 ], [ 15.672272517743544, 1.044711551697426 ] ] ] ] } },
{ "type": "Feature", "properties": { "geogrid_id": "800783896016071621", "seqnum": 16897.0, "lat_c": 0.78389631449639996, "lon_c": 16.071620542342636, "res": 8.0, "count_Flowering Plants": 1, "count_Arachnids": 0, "count_Insects": 0, "count_Reptiles": 0, "count_Birds": 0, "count_Amphibians": 0, "count_Mammals": 0, "count_Ferns": 0, "count_Molluscs": 0, "count_Basidiomycota": 3, "count_Mosses": 0, "count_Sac Fungi": 0, "unique_species_count": 4.0, "countryCode": "CG" }, "geometry": { "type": "MultiPolygon", "coordinates": [ [ [ [ 16.475179684180048, 1.045351069500479 ], [ 16.470592552036237, 0.522848031004748 ], [ 16.067488213835698, 0.261389479390308 ], [ 15.668323540616678, 0.522539876573011 ], [ 15.672272517743544, 1.044711551697426 ], [ 16.076033183552962, 1.306054770293567 ], [ 16.475179684180048, 1.045351069500479 ] ] ] ] } },
{ "type": "Feature", "properties": { "geogrid_id": "800784406016873939", "seqnum": 16979.0, "lat_c": 0.78440636045059697, "lon_c": 16.873939139680822, "res": 8.0, "count_Flowering Plants": 0, "count_Arachnids": 0, "count_Insects": 0, "count_Reptiles": 0, "count_Birds": 2, "count_Amphibians": 0, "count_Mammals": 0, "count_Ferns": 0, "count_Molluscs": 0, "count_Basidiomycota": 0, "count_Mosses": 0, "count_Sac Fungi": 0, "unique_species_count": 2.0, "countryCode": "CG" }, "geometry": { "type": "MultiPolygon", "coordinates": [ [ [ [ 17.277516938627201, 1.046097135293595 ], [ 17.272331418752632, 0.523207533041114 ], [ 16.869207752353567, 0.261553372033556 ], [ 16.470592552036237, 0.522848031004748 ], [ 16.475179684180048, 1.045351069500479 ], [ 16.878990529880856, 1.306937106085124 ], [ 17.277516938627201, 1.046097135293595 ] ] ] ] } },
{ "type": "Feature", "properties": { "geogrid_id": "800784995017675666", "seqnum": 17061.0, "lat_c": 0.78499484880450299, "lon_c": 17.675666215647443, "res": 8.0, "count_Flowering Plants": 2, "count_Arachnids": 0, "count_Insects": 0, "count_Reptiles": 2, "count_Birds": 1, "count_Amphibians": 0, "count_Mammals": 0, "count_Ferns": 0, "count_Molluscs": 0, "count_Basidiomycota": 0, "count_Mosses": 0, "count_Sac Fungi": 0, "unique_species_count": 5.0, "countryCode": "CG" }, "geometry": { "type": "MultiPolygon", "coordinates": [ [ [ [ 18.079197583154411, 1.046949731401055 ], [ 18.073459443586032, 0.523618377390401 ], [ 17.670376977498819, 0.261742474255883 ], [ 17.272331418752632, 0.523207533041114 ], [ 17.277516938627201, 1.046097135293595 ], [ 17.681311931065444, 1.307955117972135 ], [ 18.079197583154411, 1.046949731401055 ] ] ] ] } },
{ "type": "Feature", "properties": { "geogrid_id": "801565038014067845", "seqnum": 16652.0, "lat_c": 1.565037531297901, "lon_c": 14.067844505431186, "res": 8.0, "count_Flowering Plants": 2, "count_Arachnids": 0, "count_Insects": 1, "count_Reptiles": 0, "count_Birds": 0, "count_Amphibians": 0, "count_Mammals": 0, "count_Ferns": 0, "count_Molluscs": 0, "count_Basidiomycota": 0, "count_Mosses": 0, "count_Sac Fungi": 0, "unique_species_count": 3.0, "countryCode": "CG" }, "geometry": { "type": "MultiPolygon", "coordinates": [ [ [ [ 14.471791092755625, 1.825908688075277 ], [ 14.468571297977805, 1.304697223939006 ], [ 14.065097000928061, 1.043752218151552 ], [ 13.664247916433155, 1.304222052162565 ], [ 13.666686970554887, 1.825217745889796 ], [ 14.070761886800653, 2.085947460661397 ], [ 14.471791092755625, 1.825908688075277 ] ] ] ] } },
{ "type": "Feature", "properties": { "geogrid_id": "801565702014872375", "seqnum": 16734.0, "lat_c": 1.565701598070989, "lon_c": 14.872375125304973, "res": 8.0, "count_Flowering Plants": 8, "count_Arachnids": 1, "count_Insects": 23, "count_Reptiles": 3, "count_Birds": 2, "count_Amphibians": 2, "count_Mammals": 1, "count_Ferns": 0, "count_Molluscs": 0, "count_Basidiomycota": 0, "count_Mosses": 0, "count_Sac Fungi": 0, "unique_species_count": 40.0, "countryCode": "CG" }, "geometry": { "type": "MultiPolygon", "coordinates": [ [ [ [ 15.276502883181154, 1.826796995910943 ], [ 15.272529963186017, 1.305308135801234 ], [ 14.868882500283318, 1.044178597037848 ], [ 14.468571297977805, 1.304697223939006 ], [ 14.471791092755625, 1.825908688075277 ], [ 14.876082873380515, 2.086867381762946 ], [ 15.276502883181154, 1.826796995910943 ] ] ] ] } },
{ "type": "Feature", "properties": { "geogrid_id": "801566532015676480", "seqnum": 16816.0, "lat_c": 1.5665316395401101, "lon_c": 15.67648041749924, "res": 8.0, "count_Flowering Plants": 7, "count_Arachnids": 3, "count_Insects": 29, "count_Reptiles": 3, "count_Birds": 18, "count_Amphibians": 0, "count_Mammals": 13, "count_Ferns": 0, "count_Molluscs": 2, "count_Basidiomycota": 47, "count_Mosses": 0, "count_Sac Fungi": 2, "unique_species_count": 124.0, "countryCode": "CG" }, "geometry": { "type": "MultiPolygon", "coordinates": [ [ [ [ 16.080724772947654, 1.827882634604829 ], [ 16.076033183552962, 1.306054770293567 ], [ 15.672272517743544, 1.044711551697426 ], [ 15.272529963186017, 1.305308135801234 ], [ 15.276502883181154, 1.826796995910943 ], [ 15.680946229679972, 2.088017205644449 ], [ 16.080724772947654, 1.827882634604829 ] ] ] ] } },
{ "type": "Feature", "properties": { "geogrid_id": "801567528016480066", "seqnum": 16898.0, "lat_c": 1.5675276277153021, "lon_c": 16.480066452300903, "res": 8.0, "count_Flowering Plants": 4, "count_Arachnids": 0, "count_Insects": 1, "count_Reptiles": 0, "count_Birds": 5, "count_Amphibians": 0, "count_Mammals": 0, "count_Ferns": 0, "count_Molluscs": 0, "count_Basidiomycota": 0, "count_Mosses": 0, "count_Sac Fungi": 0, "unique_species_count": 10.0, "countryCode": "CG" }, "geometry": { "type": "MultiPolygon", "coordinates": [ [ [ [ 16.88435953457806, 1.829165561644624 ], [ 16.878990529880856, 1.306937106085124 ], [ 16.475179684180048, 1.045351069500479 ], [ 16.076033183552962, 1.306054770293567 ], [ 16.080724772947654, 1.827882634604829 ], [ 16.485250931319388, 2.089396880663353 ], [ 16.88435953457806, 1.829165561644624 ] ] ] ] } },
{ "type": "Feature", "properties": { "geogrid_id": "801568690017283040", "seqnum": 16980.0, "lat_c": 1.5686895290167671, "lon_c": 17.283039650989284, "res": 8.0, "count_Flowering Plants": 7, "count_Arachnids": 1, "count_Insects": 25, "count_Reptiles": 11, "count_Birds": 18, "count_Amphibians": 0, "count_Mammals": 4, "count_Ferns": 0, "count_Molluscs": 0, "count_Basidiomycota": 2, "count_Mosses": 0, "count_Sac Fungi": 0, "unique_species_count": 68.0, "countryCode": "CG" }, "geometry": { "type": "MultiPolygon", "coordinates": [ [ [ [ 17.68731034898892, 1.830645726804388 ], [ 17.681311931065444, 1.307955117972135 ], [ 17.277516938627201, 1.046097135293595 ], [ 16.878990529880856, 1.306937106085124 ], [ 16.88435953457806, 1.829165561644624 ], [ 17.288896354806354, 2.091006344869612 ], [ 17.68731034898892, 1.830645726804388 ] ] ] ] } },
{ "type": "Feature", "properties": { "geogrid_id": "801570017018085307", "seqnum": 17062.0, "lat_c": 1.570017304279318, "lon_c": 18.085306848262178, "res": 8.0, "count_Flowering Plants": 5, "count_Arachnids": 0, "count_Insects": 0, "count_Reptiles": 0, "count_Birds": 0, "count_Amphibians": 0, "count_Mammals": 2, "count_Ferns": 0, "count_Molluscs": 0, "count_Basidiomycota": 0, "count_Mosses": 0, "count_Sac Fungi": 0, "unique_species_count": 7.0, "countryCode": "CG" }, "geometry": { "type": "MultiPolygon", "coordinates": [ [ [ [ 18.489480871778046, 1.832323072152484 ], [ 18.482907732301619, 1.309108776880663 ], [ 18.079197583154411, 1.046949731401055 ], [ 17.681311931065444, 1.307955117972135 ], [ 17.68731034898892, 1.830645726804388 ], [ 18.091782348745603, 2.092845526017126 ], [ 18.489480871778046, 1.832323072152484 ] ] ] ] } },
{ "type": "Feature", "properties": { "geogrid_id": "802346761014475204", "seqnum": 16653.0, "lat_c": 2.346760651832815, "lon_c": 14.475203564902284, "res": 8.0, "count_Flowering Plants": 0, "count_Arachnids": 0, "count_Insects": 0, "count_Reptiles": 1, "count_Birds": 0, "count_Amphibians": 0, "count_Mammals": 0, "count_Ferns": 0, "count_Molluscs": 0, "count_Basidiomycota": 0, "count_Mosses": 0, "count_Sac Fungi": 0, "unique_species_count": 1.0, "countryCode": "CG" }, "geometry": { "type": "MultiPolygon", "coordinates": [ [ [ [ 14.880005321000665, 2.607691584257457 ], [ 14.876082873380515, 2.086867381762946 ], [ 14.471791092755625, 1.825908688075277 ], [ 14.070761886800653, 2.085947460661397 ], [ 14.073849118538529, 2.606496069557495 ], [ 14.478808518608673, 2.86726805711687 ], [ 14.880005321000665, 2.607691584257457 ] ] ] ] } },
{ "type": "Feature", "properties": { "geogrid_id": "802347948015280712", "seqnum": 16735.0, "lat_c": 2.347947647356369, "lon_c": 15.280712306816449, "res": 8.0, "count_Flowering Plants": 0, "count_Arachnids": 0, "count_Insects": 0, "count_Reptiles": 0, "count_Birds": 1, "count_Amphibians": 0, "count_Mammals": 0, "count_Ferns": 0, "count_Molluscs": 0, "count_Basidiomycota": 0, "count_Mosses": 0, "count_Sac Fungi": 0, "unique_species_count": 1.0, "countryCode": "CG" }, "geometry": { "type": "MultiPolygon", "coordinates": [ [ [ [ 15.685668843688708, 2.609185848872871 ], [ 15.680946229679972, 2.088017205644449 ], [ 15.276502883181154, 1.826796995910943 ], [ 14.876082873380515, 2.086867381762946 ], [ 14.880005321000665, 2.607691584257457 ], [ 15.285157468381154, 2.868776900474209 ], [ 15.685668843688708, 2.609185848872871 ] ] ] ] } },
{ "type": "Feature", "properties": { "geogrid_id": "802349398016085694", "seqnum": 16817.0, "lat_c": 2.3493982963284061, "lon_c": 16.085693812430772, "res": 8.0, "count_Flowering Plants": 11, "count_Arachnids": 7, "count_Insects": 127, "count_Reptiles": 16, "count_Birds": 86, "count_Amphibians": 3, "count_Mammals": 12, "count_Ferns": 0, "count_Molluscs": 0, "count_Basidiomycota": 1, "count_Mosses": 0, "count_Sac Fungi": 0, "unique_species_count": 263.0, "countryCode": "CG" }, "geometry": { "type": "MultiPolygon", "coordinates": [ [ [ [ 16.490730971227855, 2.610978777609966 ], [ 16.485250931319388, 2.089396880663353 ], [ 16.080724772947654, 1.827882634604829 ], [ 15.680946229679972, 2.088017205644449 ], [ 15.685668843688708, 2.609185848872871 ], [ 16.090938622033956, 2.8706208449259 ], [ 16.490730971227855, 2.610978777609966 ] ] ] ] } },
{ "type": "Feature", "properties": { "geogrid_id": "802351113016890043", "seqnum": 16899.0, "lat_c": 2.3511125247892699, "lon_c": 16.890043495513261, "res": 8.0, "count_Flowering Plants": 5, "count_Arachnids": 1, "count_Insects": 3, "count_Reptiles": 4, "count_Birds": 10, "count_Amphibians": 0, "count_Mammals": 2, "count_Ferns": 0, "count_Molluscs": 0, "count_Basidiomycota": 0, "count_Mosses": 0, "count_Sac Fungi": 0, "unique_species_count": 25.0, "countryCode": "CG" }, "geometry": { "type": "MultiPolygon", "coordinates": [ [ [ [ 17.295083447403481, 2.613070267562046 ], [ 17.288896354806354, 2.091006344869612 ], [ 16.88435953457806, 1.829165561644624 ], [ 16.485250931319388, 2.089396880663353 ], [ 16.490730971227855, 2.610978777609966 ], [ 16.896039408158277, 2.87279977209867 ], [ 17.295083447403481, 2.613070267562046 ] ] ] ] } },
{ "type": "Feature", "properties": { "geogrid_id": "803137889018105809", "seqnum": 16982.0, "lat_c": 3.1378887076158191, "lon_c": 18.105809156924973, "res": 8.0, "count_Flowering Plants": 0, "count_Arachnids": 0, "count_Insects": 0, "count_Reptiles": 0, "count_Birds": 5, "count_Amphibians": 0, "count_Mammals": 0, "count_Ferns": 0, "count_Molluscs": 0, "count_Basidiomycota": 0, "count_Mosses": 0, "count_Sac Fungi": 0, "unique_species_count": 5.0, "countryCode": "CG" }, "geometry": { "type": "MultiPolygon", "coordinates": [ [ [ [ 18.511435363859135, 3.400845257114447 ], [ 18.503752357099462, 2.878161993923668 ], [ 18.098618556608706, 2.615460198734444 ], [ 17.700347790995973, 2.875313542173462 ], [ 17.707376499200471, 3.397341987381102 ], [ 18.113346867155119, 3.660160268681172 ], [ 18.511435363859135, 3.400845257114447 ] ] ] ] } }
]
}
