{
"type": "FeatureCollection",
"name": "CH",
"crs": { "type": "name", "properties": { "name": "urn:ogc:def:crs:OGC:1.3:CRS84" } },
"features": [
{ "type": "Feature", "properties": { "geogrid_id": "945624229007379132", "seqnum": 40975.0, "lat_c": 45.624229418872524, "lon_c": 7.3791317565045871, "res": 9.0, "count_Flowering Plants": 110, "count_Molluscs": 0, "count_Sac Fungi": 2, "count_Ferns": 1, "count_Insects": 148, "count_Arachnids": 0, "count_Mammals": 5, "count_Basidiomycota": 0, "count_Mosses": 3, "count_Birds": 11, "count_Reptiles": 0, "count_Gymnosperms": 0, "count_Amphibians": 1, "unique_species_count": 281.0, "countryCode": "CH" }, "geometry": { "type": "MultiPolygon", "coordinates": [ [ [ [ 7.581407741375661, 45.835486472398955 ], [ 7.811014672086941, 45.580733809204006 ], [ 7.608637807059269, 45.370323528781483 ], [ 7.178289630976471, 45.412195165151054 ], [ 6.947034926545827, 45.664746426952334 ], [ 7.147742648821707, 45.877597680625158 ], [ 7.581407741375661, 45.835486472398955 ] ] ] ] } },
{ "type": "Feature", "properties": { "geogrid_id": "945635522009312877", "seqnum": 41301.0, "lat_c": 45.635522455118178, "lon_c": 9.3128766846515845, "res": 9.0, "count_Flowering Plants": 48, "count_Molluscs": 2, "count_Sac Fungi": 0, "count_Ferns": 0, "count_Insects": 20, "count_Arachnids": 0, "count_Mammals": 1, "count_Basidiomycota": 0, "count_Mosses": 0, "count_Birds": 6, "count_Reptiles": 0, "count_Gymnosperms": 0, "count_Amphibians": 1, "unique_species_count": 78.0, "countryCode": "CH" }, "geometry": { "type": "MultiPolygon", "coordinates": [ [ [ [ 9.522396827982432, 45.838949203074769 ], [ 9.744590638376895, 45.577013536931545 ], [ 9.53513936820424, 45.374590072130466 ], [ 9.104760413179989, 45.431208926675069 ], [ 8.880624107417212, 45.690487682384919 ], [ 9.088768812199413, 45.895766309387007 ], [ 9.522396827982432, 45.838949203074769 ] ] ] ] } },
{ "type": "Feature", "properties": { "geogrid_id": "945790342008014819", "seqnum": 41057.0, "lat_c": 45.790342351164171, "lon_c": 8.0148187938644657, "res": 9.0, "count_Flowering Plants": 379, "count_Molluscs": 12, "count_Sac Fungi": 110, "count_Ferns": 3, "count_Insects": 204, "count_Arachnids": 3, "count_Mammals": 9, "count_Basidiomycota": 12, "count_Mosses": 7, "count_Birds": 42, "count_Reptiles": 0, "count_Gymnosperms": 5, "count_Amphibians": 1, "unique_species_count": 787.0, "countryCode": "CH" }, "geometry": { "type": "MultiPolygon", "coordinates": [ [ [ [ 8.220060337849391, 45.999140963162901 ], [ 8.447913515726569, 45.742050410989386 ], [ 8.242624425746612, 45.534146985929397 ], [ 7.811014672086941, 45.580733809204006 ], [ 7.581407741375661, 45.835486472398955 ], [ 7.785128479119811, 46.04595818530813 ], [ 8.220060337849391, 45.999140963162901 ] ] ] ] } },
{ "type": "Feature", "properties": { "geogrid_id": "945916783006713881", "seqnum": 40813.0, "lat_c": 45.916783437276138, "lon_c": 6.7138808159710104, "res": 9.0, "count_Flowering Plants": 409, "count_Molluscs": 4, "count_Sac Fungi": 8, "count_Ferns": 9, "count_Insects": 249, "count_Arachnids": 6, "count_Mammals": 13, "count_Basidiomycota": 13, "count_Mosses": 10, "count_Birds": 33, "count_Reptiles": 0, "count_Gymnosperms": 4, "count_Amphibians": 1, "unique_species_count": 759.0, "countryCode": "CH" }, "geometry": { "type": "MultiPolygon", "coordinates": [ [ [ [ 6.9144371394905, 46.13043905835832 ], [ 7.147742648821707, 45.877597680625158 ], [ 6.947034926545827, 45.664746426952334 ], [ 6.514778635336572, 45.702390125793762 ], [ 6.27987501840773, 45.953144325614211 ], [ 6.478793403606231, 46.168314982454454 ], [ 6.9144371394905, 46.13043905835832 ] ] ] ] } },
{ "type": "Feature", "properties": { "geogrid_id": "945949119008654631", "seqnum": 41139.0, "lat_c": 45.949118803617573, "lon_c": 8.6546308293949821, "res": 9.0, "count_Flowering Plants": 1181, "count_Molluscs": 107, "count_Sac Fungi": 30, "count_Ferns": 28, "count_Insects": 1929, "count_Arachnids": 38, "count_Mammals": 36, "count_Basidiomycota": 96, "count_Mosses": 60, "count_Birds": 169, "count_Reptiles": 15, "count_Gymnosperms": 23, "count_Amphibians": 4, "unique_species_count": 3716.0, "countryCode": "CH" }, "geometry": { "type": "MultiPolygon", "coordinates": [ [ [ [ 8.862785728743082, 46.155343948033035 ], [ 9.088768812199413, 45.895766309387007 ], [ 8.880624107417212, 45.690487682384919 ], [ 8.447913515726569, 45.742050410989386 ], [ 8.220060337849391, 45.999140963162901 ], [ 8.426749453278141, 46.207121460358742 ], [ 8.862785728743082, 46.155343948033035 ] ] ] ] } },
{ "type": "Feature", "properties": { "geogrid_id": "946089688007349901", "seqnum": 40895.0, "lat_c": 46.089687672374438, "lon_c": 7.3499006706299346, "res": 9.0, "count_Flowering Plants": 2092, "count_Molluscs": 97, "count_Sac Fungi": 268, "count_Ferns": 38, "count_Insects": 2418, "count_Arachnids": 79, "count_Mammals": 50, "count_Basidiomycota": 416, "count_Mosses": 159, "count_Birds": 157, "count_Reptiles": 12, "count_Gymnosperms": 18, "count_Amphibians": 4, "unique_species_count": 5808.0, "countryCode": "CH" }, "geometry": { "type": "MultiPolygon", "coordinates": [ [ [ [ 7.553520594035408, 46.301008320094759 ], [ 7.785128479119811, 46.04595818530813 ], [ 7.581407741375661, 45.835486472398955 ], [ 7.147742648821707, 45.877597680625158 ], [ 6.9144371394905, 46.13043905835832 ], [ 7.116459874041023, 46.343348976346391 ], [ 7.553520594035408, 46.301008320094759 ] ] ] ] } },
{ "type": "Feature", "properties": { "geogrid_id": "946100176009298339", "seqnum": 41220.0, "lat_c": 46.100176055711977, "lon_c": 9.2983391213767579, "res": 9.0, "count_Flowering Plants": 770, "count_Molluscs": 49, "count_Sac Fungi": 23, "count_Ferns": 22, "count_Insects": 1010, "count_Arachnids": 30, "count_Mammals": 26, "count_Basidiomycota": 45, "count_Mosses": 17, "count_Birds": 139, "count_Reptiles": 9, "count_Gymnosperms": 7, "count_Amphibians": 4, "unique_species_count": 2151.0, "countryCode": "CH" }, "geometry": { "type": "MultiPolygon", "coordinates": [ [ [ [ 9.509343511238244, 46.303708710843424 ], [ 9.733328508859312, 46.041480940377731 ], [ 9.522396827982432, 45.838949203074769 ], [ 9.088768812199413, 45.895766309387007 ], [ 8.862785728743082, 46.155343948033035 ], [ 9.07238753680576, 46.360717642134446 ], [ 9.509343511238244, 46.303708710843424 ] ] ] ] } },
{ "type": "Feature", "properties": { "geogrid_id": "946203412006043021", "seqnum": 40651.0, "lat_c": 46.203411614333362, "lon_c": 6.0430207054829133, "res": 9.0, "count_Flowering Plants": 1837, "count_Molluscs": 113, "count_Sac Fungi": 199, "count_Ferns": 21, "count_Insects": 2683, "count_Arachnids": 109, "count_Mammals": 74, "count_Basidiomycota": 248, "count_Mosses": 86, "count_Birds": 229, "count_Reptiles": 18, "count_Gymnosperms": 25, "count_Amphibians": 12, "unique_species_count": 5654.0, "countryCode": "CH" }, "geometry": { "type": "MultiPolygon", "coordinates": [ [ [ [ 6.241737991826485, 46.419348765460889 ], [ 6.478793403606231, 46.168314982454454 ], [ 6.27987501840773, 45.953144325614211 ], [ 5.84577392790349, 45.986774569190906 ], [ 5.607166403574601, 46.235819135575341 ], [ 5.804180560151896, 46.453198047150636 ], [ 6.241737991826485, 46.419348765460889 ] ] ] ] } },
{ "type": "Feature", "properties": { "geogrid_id": "946243109009945679", "seqnum": 41302.0, "lat_c": 46.243109465372619, "lon_c": 9.9456793164720434, "res": 9.0, "count_Flowering Plants": 892, "count_Molluscs": 29, "count_Sac Fungi": 86, "count_Ferns": 23, "count_Insects": 773, "count_Arachnids": 18, "count_Mammals": 22, "count_Basidiomycota": 48, "count_Mosses": 33, "count_Birds": 90, "count_Reptiles": 4, "count_Gymnosperms": 10, "count_Amphibians": 2, "unique_species_count": 2030.0, "countryCode": "CH" }, "geometry": { "type": "MultiPolygon", "coordinates": [ [ [ [ 10.15945675891623, 46.443826605564006 ], [ 10.381302592750293, 46.178770580268917 ], [ 10.167665541001693, 45.979111983323243 ], [ 9.733328508859312, 46.041480940377731 ], [ 9.509343511238244, 46.303708710843424 ], [ 9.721790395838701, 46.506356085662766 ], [ 10.15945675891623, 46.443826605564006 ] ] ] ] } },
{ "type": "Feature", "properties": { "geogrid_id": "946255636007990305", "seqnum": 40976.0, "lat_c": 46.255636417728795, "lon_c": 7.9903048656031892, "res": 9.0, "count_Flowering Plants": 1523, "count_Molluscs": 71, "count_Sac Fungi": 104, "count_Ferns": 26, "count_Insects": 2192, "count_Arachnids": 191, "count_Mammals": 31, "count_Basidiomycota": 167, "count_Mosses": 105, "count_Birds": 150, "count_Reptiles": 12, "count_Gymnosperms": 12, "count_Amphibians": 5, "unique_species_count": 4589.0, "countryCode": "CH" }, "geometry": { "type": "MultiPolygon", "coordinates": [ [ [ [ 8.196947795482616, 46.464513030579631 ], [ 8.426749453278141, 46.207121460358742 ], [ 8.220060337849391, 45.999140963162901 ], [ 7.785128479119811, 46.04595818530813 ], [ 7.553520594035408, 46.301008320094759 ], [ 7.758614038599604, 46.511551536721598 ], [ 8.196947795482616, 46.464513030579631 ] ] ] ] } },
{ "type": "Feature", "properties": { "geogrid_id": "946377491010596348", "seqnum": 41384.0, "lat_c": 46.377491231829566, "lon_c": 10.596348161424967, "res": 9.0, "count_Flowering Plants": 561, "count_Molluscs": 8, "count_Sac Fungi": 26, "count_Ferns": 12, "count_Insects": 495, "count_Arachnids": 5, "count_Mammals": 19, "count_Basidiomycota": 12, "count_Mosses": 3, "count_Birds": 44, "count_Reptiles": 2, "count_Gymnosperms": 5, "count_Amphibians": 1, "unique_species_count": 1193.0, "countryCode": "CH" }, "geometry": { "type": "MultiPolygon", "coordinates": [ [ [ [ 10.812808705154836, 46.575265839615895 ], [ 11.032359611491895, 46.307187031631756 ], [ 10.816112726946733, 46.110531973048843 ], [ 10.381302592750293, 46.178770580268917 ], [ 10.15945675891623, 46.443826605564006 ], [ 10.374668258488525, 46.643624218272414 ], [ 10.812808705154836, 46.575265839615895 ] ] ] ] } },
{ "type": "Feature", "properties": { "geogrid_id": "946382763006679181", "seqnum": 40732.0, "lat_c": 46.382763084862681, "lon_c": 6.6791810438665404, "res": 9.0, "count_Flowering Plants": 1876, "count_Molluscs": 128, "count_Sac Fungi": 301, "count_Ferns": 36, "count_Insects": 2219, "count_Arachnids": 93, "count_Mammals": 55, "count_Basidiomycota": 798, "count_Mosses": 109, "count_Birds": 225, "count_Reptiles": 12, "count_Gymnosperms": 23, "count_Amphibians": 6, "unique_species_count": 5881.0, "countryCode": "CH" }, "geometry": { "type": "MultiPolygon", "coordinates": [ [ [ [ 6.881050887887424, 46.596480684990183 ], [ 7.116459874041023, 46.343348976346391 ], [ 6.9144371394905, 46.13043905835832 ], [ 6.478793403606231, 46.168314982454454 ], [ 6.241737991826485, 46.419348765460889 ], [ 6.441939340670217, 46.634578159824706 ], [ 6.881050887887424, 46.596480684990183 ] ] ] ] } },
{ "type": "Feature", "properties": { "geogrid_id": "946414276008634896", "seqnum": 41058.0, "lat_c": 46.414275664908359, "lon_c": 8.6348962693299676, "res": 9.0, "count_Flowering Plants": 1354, "count_Molluscs": 88, "count_Sac Fungi": 92, "count_Ferns": 30, "count_Insects": 2119, "count_Arachnids": 75, "count_Mammals": 42, "count_Basidiomycota": 163, "count_Mosses": 61, "count_Birds": 180, "count_Reptiles": 13, "count_Gymnosperms": 13, "count_Amphibians": 6, "unique_species_count": 4236.0, "countryCode": "CH" }, "geometry": { "type": "MultiPolygon", "coordinates": [ [ [ [ 8.844510891165113, 46.620595406316056 ], [ 9.07238753680576, 46.360717642134446 ], [ 8.862785728743082, 46.155343948033035 ], [ 8.426749453278141, 46.207121460358742 ], [ 8.196947795482616, 46.464513030579631 ], [ 8.405068158531614, 46.672579885816361 ], [ 8.844510891165113, 46.620595406316056 ] ] ] ] } },
{ "type": "Feature", "properties": { "geogrid_id": "946555505007319961", "seqnum": 40814.0, "lat_c": 46.555505168282153, "lon_c": 7.3199613237476866, "res": 9.0, "count_Flowering Plants": 1347, "count_Molluscs": 98, "count_Sac Fungi": 187, "count_Ferns": 27, "count_Insects": 1629, "count_Arachnids": 47, "count_Mammals": 39, "count_Basidiomycota": 472, "count_Mosses": 66, "count_Birds": 141, "count_Reptiles": 10, "count_Gymnosperms": 12, "count_Amphibians": 6, "unique_species_count": 4081.0, "countryCode": "CH" }, "geometry": { "type": "MultiPolygon", "coordinates": [ [ [ [ 7.524953825706151, 46.76689960098691 ], [ 7.758614038599604, 46.511551536721598 ], [ 7.553520594035408, 46.301008320094759 ], [ 7.116459874041023, 46.343348976346391 ], [ 6.881050887887424, 46.596480684990183 ], [ 7.084415935894193, 46.809459819791442 ], [ 7.524953825706151, 46.76689960098691 ] ] ] ] } },
{ "type": "Feature", "properties": { "geogrid_id": "946565232009283446", "seqnum": 41140.0, "lat_c": 46.56523169795117, "lon_c": 9.2834455334471038, "res": 9.0, "count_Flowering Plants": 1020, "count_Molluscs": 80, "count_Sac Fungi": 66, "count_Ferns": 30, "count_Insects": 1424, "count_Arachnids": 38, "count_Mammals": 34, "count_Basidiomycota": 117, "count_Mosses": 35, "count_Birds": 111, "count_Reptiles": 4, "count_Gymnosperms": 7, "count_Amphibians": 5, "unique_species_count": 2971.0, "countryCode": "CH" }, "geometry": { "type": "MultiPolygon", "coordinates": [ [ [ [ 9.495968951022963, 46.768877942104716 ], [ 9.721790395838701, 46.506356085662766 ], [ 9.509343511238244, 46.303708710843424 ], [ 9.07238753680576, 46.360717642134446 ], [ 8.844510891165113, 46.620595406316056 ], [ 9.05560339583494, 46.826072521793002 ], [ 9.495968951022963, 46.768877942104716 ] ] ] ] } },
{ "type": "Feature", "properties": { "geogrid_id": "946669891006002679", "seqnum": 40570.0, "lat_c": 46.669891472957161, "lon_c": 6.0026790808335351, "res": 9.0, "count_Flowering Plants": 859, "count_Molluscs": 55, "count_Sac Fungi": 102, "count_Ferns": 13, "count_Insects": 912, "count_Arachnids": 36, "count_Mammals": 52, "count_Basidiomycota": 269, "count_Mosses": 81, "count_Birds": 81, "count_Reptiles": 4, "count_Gymnosperms": 8, "count_Amphibians": 4, "unique_species_count": 2476.0, "countryCode": "CH" }, "geometry": { "type": "MultiPolygon", "coordinates": [ [ [ [ 6.202676172950591, 46.885891620469891 ], [ 6.441939340670217, 46.634578159824706 ], [ 6.241737991826485, 46.419348765460889 ], [ 5.804180560151896, 46.453198047150636 ], [ 5.563318672644025, 46.702508765159067 ], [ 5.7615803664097, 46.91994883568443 ], [ 6.202676172950591, 46.885891620469891 ] ] ] ] } },
{ "type": "Feature", "properties": { "geogrid_id": "946708110009935688", "seqnum": 41221.0, "lat_c": 46.708110013010497, "lon_c": 9.9356881224549838, "res": 9.0, "count_Flowering Plants": 1374, "count_Molluscs": 95, "count_Sac Fungi": 176, "count_Ferns": 30, "count_Insects": 1541, "count_Arachnids": 39, "count_Mammals": 38, "count_Basidiomycota": 139, "count_Mosses": 168, "count_Birds": 121, "count_Reptiles": 5, "count_Gymnosperms": 10, "count_Amphibians": 6, "unique_species_count": 3742.0, "countryCode": "CH" }, "geometry": { "type": "MultiPolygon", "coordinates": [ [ [ [ 10.151044966924951, 46.908962348258683 ], [ 10.374668258488525, 46.643624218272414 ], [ 10.15945675891623, 46.443826605564006 ], [ 9.721790395838701, 46.506356085662766 ], [ 9.495968951022963, 46.768877942104716 ], [ 9.709966969918852, 46.971648216281267 ], [ 10.151044966924951, 46.908962348258683 ] ] ] ] } },
{ "type": "Feature", "properties": { "geogrid_id": "946721309007965193", "seqnum": 40896.0, "lat_c": 46.721309230376143, "lon_c": 7.9651926380256919, "res": 9.0, "count_Flowering Plants": 1320, "count_Molluscs": 155, "count_Sac Fungi": 123, "count_Ferns": 30, "count_Insects": 1395, "count_Arachnids": 63, "count_Mammals": 39, "count_Basidiomycota": 234, "count_Mosses": 72, "count_Birds": 147, "count_Reptiles": 14, "count_Gymnosperms": 13, "count_Amphibians": 7, "unique_species_count": 3612.0, "countryCode": "CH" }, "geometry": { "type": "MultiPolygon", "coordinates": [ [ [ [ 8.17326803667077, 46.93027330451752 ], [ 8.405068158531614, 46.672579885816361 ], [ 8.196947795482616, 46.464513030579631 ], [ 7.758614038599604, 46.511551536721598 ], [ 7.524953825706151, 46.76689960098691 ], [ 7.731449746841276, 46.97752423111104 ], [ 8.17326803667077, 46.93027330451752 ] ] ] ] } },
{ "type": "Feature", "properties": { "geogrid_id": "946842494010591321", "seqnum": 41303.0, "lat_c": 46.842494191302549, "lon_c": 10.591321146873915, "res": 9.0, "count_Flowering Plants": 977, "count_Molluscs": 71, "count_Sac Fungi": 68, "count_Ferns": 18, "count_Insects": 844, "count_Arachnids": 6, "count_Mammals": 31, "count_Basidiomycota": 60, "count_Mosses": 81, "count_Birds": 86, "count_Reptiles": 2, "count_Gymnosperms": 8, "count_Amphibians": 4, "unique_species_count": 2256.0, "countryCode": "CH" }, "geometry": { "type": "MultiPolygon", "coordinates": [ [ [ [ 10.809422660224593, 47.040428443623277 ], [ 11.030690572714956, 46.772086344165274 ], [ 10.812808705154836, 46.575265839615895 ], [ 10.374668258488525, 46.643624218272414 ], [ 10.151044966924951, 46.908962348258683 ], [ 10.367869128868152, 47.108904969895562 ], [ 10.809422660224593, 47.040428443623277 ] ] ] ] } },
{ "type": "Feature", "properties": { "geogrid_id": "946849092006643638", "seqnum": 40652.0, "lat_c": 46.84909191491716, "lon_c": 6.6436383754911557, "res": 9.0, "count_Flowering Plants": 1517, "count_Molluscs": 99, "count_Sac Fungi": 391, "count_Ferns": 23, "count_Insects": 1564, "count_Arachnids": 75, "count_Mammals": 41, "count_Basidiomycota": 741, "count_Mosses": 135, "count_Birds": 195, "count_Reptiles": 9, "count_Gymnosperms": 14, "count_Amphibians": 5, "unique_species_count": 4809.0, "countryCode": "CH" }, "geometry": { "type": "MultiPolygon", "coordinates": [ [ [ [ 6.84684878713024, 47.062882128322322 ], [ 7.084415935894193, 46.809459819791442 ], [ 6.881050887887424, 46.596480684990183 ], [ 6.441939340670217, 46.634578159824706 ], [ 6.202676172950591, 46.885891620469891 ], [ 6.404186129420386, 47.10119067299641 ], [ 6.84684878713024, 47.062882128322322 ] ] ] ] } },
{ "type": "Feature", "properties": { "geogrid_id": "946879829008614677", "seqnum": 40977.0, "lat_c": 46.879828846687474, "lon_c": 8.6146768358351355, "res": 9.0, "count_Flowering Plants": 1325, "count_Molluscs": 93, "count_Sac Fungi": 132, "count_Ferns": 30, "count_Insects": 1501, "count_Arachnids": 50, "count_Mammals": 33, "count_Basidiomycota": 188, "count_Mosses": 118, "count_Birds": 168, "count_Reptiles": 10, "count_Gymnosperms": 13, "count_Amphibians": 9, "unique_species_count": 3670.0, "countryCode": "CH" }, "geometry": { "type": "MultiPolygon", "coordinates": [ [ [ [ 8.825784695850253, 47.086251777999429 ], [ 9.05560339583494, 46.826072521793002 ], [ 8.844510891165113, 46.620595406316056 ], [ 8.405068158531614, 46.672579885816361 ], [ 8.17326803667077, 46.93027330451752 ], [ 8.382851885922067, 47.138435658103226 ], [ 8.825784695850253, 47.086251777999429 ] ] ] ] } },
{ "type": "Feature", "properties": { "geogrid_id": "947021693007289289", "seqnum": 40733.0, "lat_c": 47.021692510972976, "lon_c": 7.2892892368688074, "res": 9.0, "count_Flowering Plants": 1913, "count_Molluscs": 163, "count_Sac Fungi": 609, "count_Ferns": 34, "count_Insects": 2683, "count_Arachnids": 213, "count_Mammals": 47, "count_Basidiomycota": 1160, "count_Mosses": 88, "count_Birds": 246, "count_Reptiles": 16, "count_Gymnosperms": 20, "count_Amphibians": 11, "unique_species_count": 7203.0, "countryCode": "CH" }, "geometry": { "type": "MultiPolygon", "coordinates": [ [ [ [ 7.495683885645023, 47.233170764947126 ], [ 7.731449746841276, 46.97752423111104 ], [ 7.524953825706151, 46.76689960098691 ], [ 7.084415935894193, 46.809459819791442 ], [ 6.84684878713024, 47.062882128322322 ], [ 7.051584331283083, 47.27594087756961 ], [ 7.495683885645023, 47.233170764947126 ] ] ] ] } },
{ "type": "Feature", "properties": { "geogrid_id": "947030699009268184", "seqnum": 41059.0, "lat_c": 47.030698856626827, "lon_c": 9.2681838280617992, "res": 9.0, "count_Flowering Plants": 1434, "count_Molluscs": 88, "count_Sac Fungi": 124, "count_Ferns": 36, "count_Insects": 2434, "count_Arachnids": 57, "count_Mammals": 45, "count_Basidiomycota": 300, "count_Mosses": 43, "count_Birds": 180, "count_Reptiles": 11, "count_Gymnosperms": 14, "count_Amphibians": 11, "unique_species_count": 4777.0, "countryCode": "CH" }, "geometry": { "type": "MultiPolygon", "coordinates": [ [ [ [ 9.482262195886502, 47.2344662645624 ], [ 9.709966969918852, 46.971648216281267 ], [ 9.495968951022963, 46.768877942104716 ], [ 9.05560339583494, 46.826072521793002 ], [ 8.825784695850253, 47.086251777999429 ], [ 9.038402590330142, 47.291840546392017 ], [ 9.482262195886502, 47.2344662645624 ] ] ] ] } },
{ "type": "Feature", "properties": { "geogrid_id": "947173534009925449", "seqnum": 41141.0, "lat_c": 47.173534377715967, "lon_c": 9.9254487139615701, "res": 9.0, "count_Flowering Plants": 441, "count_Molluscs": 28, "count_Sac Fungi": 3, "count_Ferns": 5, "count_Insects": 359, "count_Arachnids": 4, "count_Mammals": 16, "count_Basidiomycota": 11, "count_Mosses": 1, "count_Birds": 62, "count_Reptiles": 6, "count_Gymnosperms": 4, "count_Amphibians": 2, "unique_species_count": 942.0, "countryCode": "CH" }, "geometry": { "type": "MultiPolygon", "coordinates": [ [ [ [ 10.142423245703004, 47.374528299689629 ], [ 10.367869128868152, 47.108904969895562 ], [ 10.151044966924951, 46.908962348258683 ], [ 9.709966969918852, 46.971648216281267 ], [ 9.482262195886502, 47.2344662645624 ], [ 9.69784846618119, 47.437366608194395 ], [ 10.142423245703004, 47.374528299689629 ] ] ] ] } },
{ "type": "Feature", "properties": { "geogrid_id": "947187371007939461", "seqnum": 40815.0, "lat_c": 47.187371005190371, "lon_c": 7.9394614806294772, "res": 9.0, "count_Flowering Plants": 1854, "count_Molluscs": 115, "count_Sac Fungi": 113, "count_Ferns": 27, "count_Insects": 1818, "count_Arachnids": 67, "count_Mammals": 36, "count_Basidiomycota": 228, "count_Mosses": 39, "count_Birds": 159, "count_Reptiles": 10, "count_Gymnosperms": 16, "count_Amphibians": 9, "unique_species_count": 4491.0, "countryCode": "CH" }, "geometry": { "type": "MultiPolygon", "coordinates": [ [ [ [ 8.149001443681142, 47.39643185970985 ], [ 8.382851885922067, 47.138435658103226 ], [ 8.17326803667077, 46.93027330451752 ], [ 7.731449746841276, 46.97752423111104 ], [ 7.495683885645023, 47.233170764947126 ], [ 7.703613019864605, 47.443886572791513 ], [ 8.149001443681142, 47.39643185970985 ] ] ] ] } },
{ "type": "Feature", "properties": { "geogrid_id": "947315781006607223", "seqnum": 40571.0, "lat_c": 47.315780789433425, "lon_c": 6.6072233266521057, "res": 9.0, "count_Flowering Plants": 594, "count_Molluscs": 48, "count_Sac Fungi": 120, "count_Ferns": 15, "count_Insects": 229, "count_Arachnids": 15, "count_Mammals": 22, "count_Basidiomycota": 154, "count_Mosses": 22, "count_Birds": 45, "count_Reptiles": 1, "count_Gymnosperms": 6, "count_Amphibians": 3, "unique_species_count": 1274.0, "countryCode": "CH" }, "geometry": { "type": "MultiPolygon", "coordinates": [ [ [ [ 6.811802222320243, 47.529654104024949 ], [ 7.051584331283083, 47.27594087756961 ], [ 6.84684878713024, 47.062882128322322 ], [ 6.404186129420386, 47.10119067299641 ], [ 6.16265707124068, 47.352783923354608 ], [ 6.365502097053634, 47.568163410957915 ], [ 6.811802222320243, 47.529654104024949 ] ] ] ] } },
{ "type": "Feature", "properties": { "geogrid_id": "947345788008593956", "seqnum": 40897.0, "lat_c": 47.345788185758423, "lon_c": 8.5939558404339564, "res": 9.0, "count_Flowering Plants": 2135, "count_Molluscs": 148, "count_Sac Fungi": 321, "count_Ferns": 33, "count_Insects": 3212, "count_Arachnids": 129, "count_Mammals": 47, "count_Basidiomycota": 494, "count_Mosses": 60, "count_Birds": 257, "count_Reptiles": 18, "count_Gymnosperms": 25, "count_Amphibians": 15, "unique_species_count": 6894.0, "countryCode": "CH" }, "geometry": { "type": "MultiPolygon", "coordinates": [ [ [ [ 8.806591554222569, 47.552322777954842 ], [ 9.038402590330142, 47.291840546392017 ], [ 8.825784695850253, 47.086251777999429 ], [ 8.382851885922067, 47.138435658103226 ], [ 8.149001443681142, 47.39643185970985 ], [ 8.360082072179514, 47.604698721175296 ], [ 8.806591554222569, 47.552322777954842 ] ] ] ] } },
{ "type": "Feature", "properties": { "geogrid_id": "947488260007257859", "seqnum": 40653.0, "lat_c": 47.488260219991183, "lon_c": 7.2578588258544539, "res": 9.0, "count_Flowering Plants": 1549, "count_Molluscs": 128, "count_Sac Fungi": 122, "count_Ferns": 23, "count_Insects": 1912, "count_Arachnids": 92, "count_Mammals": 41, "count_Basidiomycota": 297, "count_Mosses": 41, "count_Birds": 140, "count_Reptiles": 10, "count_Gymnosperms": 19, "count_Amphibians": 8, "unique_species_count": 4382.0, "countryCode": "CH" }, "geometry": { "type": "MultiPolygon", "coordinates": [ [ [ [ 7.46568614817209, 47.699832192583727 ], [ 7.703613019864605, 47.443886572791513 ], [ 7.495683885645023, 47.233170764947126 ], [ 7.051584331283083, 47.27594087756961 ], [ 6.811802222320243, 47.529654104024949 ], [ 7.017937353001248, 47.742802726122846 ], [ 7.46568614817209, 47.699832192583727 ] ] ] ] } },
{ "type": "Feature", "properties": { "geogrid_id": "947496587009252541", "seqnum": 40978.0, "lat_c": 47.496587020624553, "lon_c": 9.2525413501086469, "res": 9.0, "count_Flowering Plants": 1381, "count_Molluscs": 81, "count_Sac Fungi": 169, "count_Ferns": 18, "count_Insects": 2003, "count_Arachnids": 45, "count_Mammals": 45, "count_Basidiomycota": 158, "count_Mosses": 27, "count_Birds": 199, "count_Reptiles": 8, "count_Gymnosperms": 18, "count_Amphibians": 9, "unique_species_count": 4161.0, "countryCode": "CH" }, "geometry": { "type": "MultiPolygon", "coordinates": [ [ [ [ 9.46821178074279, 47.70048307187384 ], [ 9.69784846618119, 47.437366608194395 ], [ 9.482262195886502, 47.2344662645624 ], [ 9.038402590330142, 47.291840546392017 ], [ 8.806591554222569, 47.552322777954842 ], [ 9.020770676614863, 47.758031321200143 ], [ 9.46821178074279, 47.70048307187384 ] ] ] ] } },
{ "type": "Feature", "properties": { "geogrid_id": "947639392009914953", "seqnum": 41060.0, "lat_c": 47.639391759372529, "lon_c": 9.9149525600255934, "res": 9.0, "count_Flowering Plants": 0, "count_Molluscs": 0, "count_Sac Fungi": 0, "count_Ferns": 0, "count_Insects": 0, "count_Arachnids": 0, "count_Mammals": 0, "count_Basidiomycota": 0, "count_Mosses": 0, "count_Birds": 1, "count_Reptiles": 0, "count_Gymnosperms": 0, "count_Amphibians": 0, "unique_species_count": 1.0, "countryCode": "CH" }, "geometry": { "type": "MultiPolygon", "coordinates": [ [ [ [ 10.133584347944586, 47.840533599620144 ], [ 10.360899561574596, 47.574621872038733 ], [ 10.142423245703004, 47.374528299689629 ], [ 9.69784846618119, 47.437366608194395 ], [ 9.46821178074279, 47.70048307187384 ], [ 9.685424658010604, 47.903520574044471 ], [ 10.133584347944586, 47.840533599620144 ] ] ] ] } },
{ "type": "Feature", "properties": { "geogrid_id": "947653832007913090", "seqnum": 40734.0, "lat_c": 47.653831910214812, "lon_c": 7.913089816790607, "res": 9.0, "count_Flowering Plants": 1253, "count_Molluscs": 103, "count_Sac Fungi": 73, "count_Ferns": 15, "count_Insects": 2186, "count_Arachnids": 83, "count_Mammals": 41, "count_Basidiomycota": 176, "count_Mosses": 17, "count_Birds": 245, "count_Reptiles": 13, "count_Gymnosperms": 13, "count_Amphibians": 13, "unique_species_count": 4231.0, "countryCode": "CH" }, "geometry": { "type": "MultiPolygon", "coordinates": [ [ [ [ 8.124127489973636, 47.862998737529651 ], [ 8.360082072179514, 47.604698721175296 ], [ 8.149001443681142, 47.39643185970985 ], [ 7.703613019864605, 47.443886572791513 ], [ 7.46568614817209, 47.699832192583727 ], [ 7.675080232055425, 47.910648811875355 ], [ 8.124127489973636, 47.862998737529651 ] ] ] ] } },
{ "type": "Feature", "properties": { "geogrid_id": "947812164008572716", "seqnum": 40816.0, "lat_c": 47.812163506194096, "lon_c": 8.5727158181724015, "res": 9.0, "count_Flowering Plants": 1165, "count_Molluscs": 82, "count_Sac Fungi": 105, "count_Ferns": 13, "count_Insects": 945, "count_Arachnids": 24, "count_Mammals": 26, "count_Basidiomycota": 74, "count_Mosses": 15, "count_Birds": 120, "count_Reptiles": 8, "count_Gymnosperms": 13, "count_Amphibians": 7, "unique_species_count": 2597.0, "countryCode": "CH" }, "geometry": { "type": "MultiPolygon", "coordinates": [ [ [ [ 8.786915145712996, 48.018818121565438 ], [ 9.020770676614863, 47.758031321200143 ], [ 8.806591554222569, 47.552322777954842 ], [ 8.360082072179514, 47.604698721175296 ], [ 8.124127489973636, 47.862998737529651 ], [ 8.336739285767001, 48.071378999633311 ], [ 8.786915145712996, 48.018818121565438 ] ] ] ] } }
]
}
