{
"type": "FeatureCollection",
"name": "CI",
"crs": { "type": "name", "properties": { "name": "urn:ogc:def:crs:OGC:1.3:CRS84" } },
"features": [
{ "type": "Feature", "properties": { "geogrid_id": "5201595554004337599", "seqnum": 14766.0, "lat_c": 1.5955537406039719, "lon_c": -4.3375993260201229, "res": 8.0, "count_Reptiles": 0, "count_Amphibians": 0, "count_Insects": 0, "count_Molluscs": 0, "count_Flowering Plants": 0, "count_Mammals": 0, "count_Birds": 1, "count_Ferns": 0, "count_Arachnids": 0, "count_Basidiomycota": 0, "count_Mosses": 0, "count_Sac Fungi": 0, "unique_species_count": 1.0, "countryCode": "CI" }, "geometry": { "type": "MultiPolygon", "coordinates": [ [ [ [ -3.947541663697857, 1.859923203366568 ], [ -3.9396439347946, 1.328096796239389 ], [ -4.330075470822796, 1.063351714806609 ], [ -4.727515787217732, 1.330739550609888 ], [ -4.734969406754075, 1.863763515026908 ], [ -4.345441067272604, 2.128206917494186 ], [ -3.947541663697857, 1.859923203366568 ] ] ] ] } },
{ "type": "Feature", "properties": { "geogrid_id": "5203983467003194050", "seqnum": 14769.0, "lat_c": 3.983466992695456, "lon_c": -3.194050139085487, "res": 8.0, "count_Reptiles": 0, "count_Amphibians": 0, "count_Insects": 0, "count_Molluscs": 0, "count_Flowering Plants": 0, "count_Mammals": 4, "count_Birds": 1, "count_Ferns": 0, "count_Arachnids": 0, "count_Basidiomycota": 0, "count_Mosses": 0, "count_Sac Fungi": 0, "unique_species_count": 5.0, "countryCode": "CI" }, "geometry": { "type": "MultiPolygon", "coordinates": [ [ [ [ -2.804255523286953, 4.245279112437311 ], [ -2.794762031192958, 3.713062620966571 ], [ -3.18483320313029, 3.450835983246743 ], [ -3.583550115257765, 3.721185587842426 ], [ -3.592517569524398, 4.254944598300087 ], [ -3.203310534244949, 4.516817600981782 ], [ -2.804255523286953, 4.245279112437311 ] ] ] ] } },
{ "type": "Feature", "properties": { "geogrid_id": "5204012299005548936", "seqnum": 14523.0, "lat_c": 4.0122992831208144, "lon_c": -5.5489356031426924, "res": 8.0, "count_Reptiles": 0, "count_Amphibians": 0, "count_Insects": 0, "count_Molluscs": 0, "count_Flowering Plants": 2, "count_Mammals": 0, "count_Birds": 0, "count_Ferns": 0, "count_Arachnids": 0, "count_Basidiomycota": 0, "count_Mosses": 0, "count_Sac Fungi": 0, "unique_species_count": 2.0, "countryCode": "CI" }, "geometry": { "type": "MultiPolygon", "coordinates": [ [ [ [ -5.161674204619733, 4.275865871016466 ], [ -5.154278205091, 3.738770906572515 ], [ -5.541921281739781, 3.474848885542941 ], [ -5.936002823529786, 3.74823175403508 ], [ -5.942339084049779, 4.287119515389924 ], [ -5.555661100161657, 4.550846173352688 ], [ -5.161674204619733, 4.275865871016466 ] ] ] ] } },
{ "type": "Feature", "properties": { "geogrid_id": "5204033950007106011", "seqnum": 14359.0, "lat_c": 4.0339500802842254, "lon_c": -7.1060108435047606, "res": 8.0, "count_Reptiles": 0, "count_Amphibians": 0, "count_Insects": 0, "count_Molluscs": 1, "count_Flowering Plants": 0, "count_Mammals": 3, "count_Birds": 0, "count_Ferns": 0, "count_Arachnids": 0, "count_Basidiomycota": 0, "count_Mosses": 0, "count_Sac Fungi": 0, "unique_species_count": 4.0, "countryCode": "CI" }, "geometry": { "type": "MultiPolygon", "coordinates": [ [ [ [ -6.720245582238892, 4.298900317603163 ], [ -6.715160810811148, 3.758136996339796 ], [ -7.10135772439672, 3.492885707060594 ], [ -7.491649441555618, 3.768485790283005 ], [ -7.495284532821333, 4.311207078382455 ], [ -7.110076785397228, 4.576391043317353 ], [ -6.720245582238892, 4.298900317603163 ] ] ] ] } },
{ "type": "Feature", "properties": { "geogrid_id": "5204778211002813787", "seqnum": 14770.0, "lat_c": 4.7782106098749066, "lon_c": -2.8137865500990791, "res": 8.0, "count_Reptiles": 2, "count_Amphibians": 0, "count_Insects": 11, "count_Molluscs": 0, "count_Flowering Plants": 9, "count_Mammals": 14, "count_Birds": 27, "count_Ferns": 1, "count_Arachnids": 0, "count_Basidiomycota": 0, "count_Mosses": 0, "count_Sac Fungi": 0, "unique_species_count": 64.0, "countryCode": "CI" }, "geometry": { "type": "MultiPolygon", "coordinates": [ [ [ [ -2.423917666575229, 5.039125034957165 ], [ -2.414138443215665, 4.506623526561542 ], [ -2.804255523286953, 4.245279112437311 ], [ -3.203310534244949, 4.516817600981782 ], [ -3.212504721580395, 5.051002168259145 ], [ -2.823245925147744, 5.311972121688853 ], [ -2.423917666575229, 5.039125034957165 ] ] ] ] } },
{ "type": "Feature", "properties": { "geogrid_id": "5204789541003601425", "seqnum": 14688.0, "lat_c": 4.7895406609787079, "lon_c": -3.6014252106876228, "res": 8.0, "count_Reptiles": 7, "count_Amphibians": 2, "count_Insects": 11, "count_Molluscs": 5, "count_Flowering Plants": 32, "count_Mammals": 9, "count_Birds": 135, "count_Ferns": 0, "count_Arachnids": 0, "count_Basidiomycota": 0, "count_Mosses": 0, "count_Sac Fungi": 0, "unique_species_count": 201.0, "countryCode": "CI" }, "geometry": { "type": "MultiPolygon", "coordinates": [ [ [ [ -3.212504721580395, 5.051002168259145 ], [ -3.203310534244949, 4.516817600981782 ], [ -3.592517569524398, 4.254944598300087 ], [ -3.990035234535316, 4.52758687990664 ], [ -3.99845425978496, 5.063547932101391 ], [ -3.61014471571516, 5.325100311266352 ], [ -3.212504721580395, 5.051002168259145 ] ] ] ] } },
{ "type": "Feature", "properties": { "geogrid_id": "5204801491004386461", "seqnum": 14606.0, "lat_c": 4.801491089768323, "lon_c": -4.3864607435395824, "res": 8.0, "count_Reptiles": 1, "count_Amphibians": 0, "count_Insects": 4, "count_Molluscs": 39, "count_Flowering Plants": 8, "count_Mammals": 6, "count_Birds": 29, "count_Ferns": 0, "count_Arachnids": 0, "count_Basidiomycota": 0, "count_Mosses": 1, "count_Sac Fungi": 0, "unique_species_count": 88.0, "countryCode": "CI" }, "geometry": { "type": "MultiPolygon", "coordinates": [ [ [ [ -3.99845425978496, 5.063547932101391 ], [ -3.990035234535316, 4.52758687990664 ], [ -4.37836244544378, 4.265140532940047 ], [ -4.774191629245767, 4.538930159141831 ], [ -4.781637149662845, 5.076760673413448 ], [ -4.394237279135728, 5.338945486646335 ], [ -3.99845425978496, 5.063547932101391 ] ] ] ] } },
{ "type": "Feature", "properties": { "geogrid_id": "5204814060005168769", "seqnum": 14524.0, "lat_c": 4.8140604459530216, "lon_c": -5.168769414042286, "res": 8.0, "count_Reptiles": 2, "count_Amphibians": 0, "count_Insects": 1, "count_Molluscs": 2, "count_Flowering Plants": 1, "count_Mammals": 0, "count_Birds": 43, "count_Ferns": 0, "count_Arachnids": 0, "count_Basidiomycota": 0, "count_Mosses": 0, "count_Sac Fungi": 0, "unique_species_count": 49.0, "countryCode": "CI" }, "geometry": { "type": "MultiPolygon", "coordinates": [ [ [ [ -4.781637149662845, 5.076760673413448 ], [ -4.774191629245767, 4.538930159141831 ], [ -5.161674204619733, 4.275865871016466 ], [ -5.555661100161657, 4.550846173352688 ], [ -5.561926902902301, 5.090638656173815 ], [ -5.175391571216711, 5.353505676558754 ], [ -4.781637149662845, 5.076760673413448 ] ] ] ] } },
{ "type": "Feature", "properties": { "geogrid_id": "5204827247005948230", "seqnum": 14442.0, "lat_c": 4.827247208214426, "lon_c": -5.9482299961945753, "res": 8.0, "count_Reptiles": 7, "count_Amphibians": 3, "count_Insects": 14, "count_Molluscs": 6, "count_Flowering Plants": 32, "count_Mammals": 1, "count_Birds": 38, "count_Ferns": 0, "count_Arachnids": 2, "count_Basidiomycota": 0, "count_Mosses": 0, "count_Sac Fungi": 0, "unique_species_count": 103.0, "countryCode": "CI" }, "geometry": { "type": "MultiPolygon", "coordinates": [ [ [ [ -5.561926902902301, 5.090638656173815 ], [ -5.555661100161657, 4.550846173352688 ], [ -5.942339084049779, 4.287119515389924 ], [ -6.334327410592071, 4.563333596669199 ], [ -6.339199769259342, 5.105180062385263 ], [ -5.953478437005121, 5.368778814449763 ], [ -5.561926902902301, 5.090638656173815 ] ] ] ] } },
{ "type": "Feature", "properties": { "geogrid_id": "5204841050006724724", "seqnum": 14360.0, "lat_c": 4.8410497849943663, "lon_c": -6.7247238596861294, "res": 8.0, "count_Reptiles": 8, "count_Amphibians": 0, "count_Insects": 32, "count_Molluscs": 1, "count_Flowering Plants": 51, "count_Mammals": 9, "count_Birds": 55, "count_Ferns": 0, "count_Arachnids": 1, "count_Basidiomycota": 0, "count_Mosses": 0, "count_Sac Fungi": 0, "unique_species_count": 157.0, "countryCode": "CI" }, "geometry": { "type": "MultiPolygon", "coordinates": [ [ [ [ -6.339199769259342, 5.105180062385263 ], [ -6.334327410592071, 4.563333596669199 ], [ -6.720245582238892, 4.298900317603163 ], [ -7.110076785397228, 4.576391043317353 ], [ -7.113334825473504, 5.120382993091233 ], [ -6.728371707718662, 5.384762739732007 ], [ -6.339199769259342, 5.105180062385263 ] ] ] ] } },
{ "type": "Feature", "properties": { "geogrid_id": "5204855467007498135", "seqnum": 14278.0, "lat_c": 4.8554665153153236, "lon_c": -7.4981350515514356, "res": 8.0, "count_Reptiles": 2, "count_Amphibians": 1, "count_Insects": 5, "count_Molluscs": 0, "count_Flowering Plants": 21, "count_Mammals": 0, "count_Birds": 3, "count_Ferns": 0, "count_Arachnids": 0, "count_Basidiomycota": 0, "count_Mosses": 0, "count_Sac Fungi": 0, "unique_species_count": 32.0, "countryCode": "CI" }, "geometry": { "type": "MultiPolygon", "coordinates": [ [ [ [ -7.113334825473504, 5.120382993091233 ], [ -7.110076785397228, 4.576391043317353 ], [ -7.495284532821333, 4.311207078382455 ], [ -7.882797986053729, 4.590017068276154 ], [ -7.884214058146154, 5.136245469432084 ], [ -7.499948291056265, 5.401455199084803 ], [ -7.113334825473504, 5.120382993091233 ] ] ] ] } },
{ "type": "Feature", "properties": { "geogrid_id": "5205586148003221504", "seqnum": 14689.0, "lat_c": 5.5861482405426326, "lon_c": -3.221504453314207, "res": 8.0, "count_Reptiles": 3, "count_Amphibians": 5, "count_Insects": 15, "count_Molluscs": 1, "count_Flowering Plants": 23, "count_Mammals": 6, "count_Birds": 61, "count_Ferns": 0, "count_Arachnids": 1, "count_Basidiomycota": 0, "count_Mosses": 0, "count_Sac Fungi": 0, "unique_species_count": 115.0, "countryCode": "CI" }, "geometry": { "type": "MultiPolygon", "coordinates": [ [ [ [ -2.83250559670453, 5.846692157239519 ], [ -2.823245925147744, 5.311972121688853 ], [ -3.212504721580395, 5.051002168259145 ], [ -3.61014471571516, 5.325100311266352 ], [ -3.618525719585374, 5.861765008769413 ], [ -3.230159017704205, 6.122398685761834 ], [ -2.83250559670453, 5.846692157239519 ] ] ] ] } },
{ "type": "Feature", "properties": { "geogrid_id": "5205600614004006543", "seqnum": 14607.0, "lat_c": 5.6006138336229609, "lon_c": -4.0065426013656618, "res": 8.0, "count_Reptiles": 19, "count_Amphibians": 12, "count_Insects": 313, "count_Molluscs": 6, "count_Flowering Plants": 439, "count_Mammals": 33, "count_Birds": 226, "count_Ferns": 5, "count_Arachnids": 12, "count_Basidiomycota": 7, "count_Mosses": 0, "count_Sac Fungi": 3, "unique_species_count": 1075.0, "countryCode": "CI" }, "geometry": { "type": "MultiPolygon", "coordinates": [ [ [ [ -3.618525719585374, 5.861765008769413 ], [ -3.61014471571516, 5.325100311266352 ], [ -3.99845425978496, 5.063547932101391 ], [ -4.394237279135728, 5.338945486646335 ], [ -4.401517212623756, 5.877658667985084 ], [ -4.014124257744541, 6.138941473815637 ], [ -3.618525719585374, 5.861765008769413 ] ] ] ] } },
{ "type": "Feature", "properties": { "geogrid_id": "5205615846004788597", "seqnum": 14525.0, "lat_c": 5.615846258537049, "lon_c": -4.7885972976049613, "res": 8.0, "count_Reptiles": 2, "count_Amphibians": 1, "count_Insects": 18, "count_Molluscs": 2, "count_Flowering Plants": 37, "count_Mammals": 1, "count_Birds": 36, "count_Ferns": 0, "count_Arachnids": 0, "count_Basidiomycota": 0, "count_Mosses": 0, "count_Sac Fungi": 0, "unique_species_count": 97.0, "countryCode": "CI" }, "geometry": { "type": "MultiPolygon", "coordinates": [ [ [ [ -4.401517212623756, 5.877658667985084 ], [ -4.394237279135728, 5.338945486646335 ], [ -4.781637149662845, 5.076760673413448 ], [ -5.175391571216711, 5.353505676558754 ], [ -5.181339167762647, 5.894370498526942 ], [ -4.794868442811029, 6.156358365785261 ], [ -4.401517212623756, 5.877658667985084 ] ] ] ] } },
{ "type": "Feature", "properties": { "geogrid_id": "5205631843005567534", "seqnum": 14443.0, "lat_c": 5.6318431764973926, "lon_c": -5.5675336757601039, "res": 8.0, "count_Reptiles": 4, "count_Amphibians": 1, "count_Insects": 27, "count_Molluscs": 0, "count_Flowering Plants": 17, "count_Mammals": 8, "count_Birds": 8, "count_Ferns": 1, "count_Arachnids": 2, "count_Basidiomycota": 0, "count_Mosses": 0, "count_Sac Fungi": 0, "unique_species_count": 68.0, "countryCode": "CI" }, "geometry": { "type": "MultiPolygon", "coordinates": [ [ [ [ -5.181339167762647, 5.894370498526942 ], [ -5.175391571216711, 5.353505676558754 ], [ -5.561926902902301, 5.090638656173815 ], [ -5.953478437005121, 5.368778814449763 ], [ -5.957854012953227, 5.911897738470083 ], [ -5.572247794707526, 6.174646256151213 ], [ -5.181339167762647, 5.894370498526942 ] ] ] ] } },
{ "type": "Feature", "properties": { "geogrid_id": "5205648602006343220", "seqnum": 14361.0, "lat_c": 5.6486021398857904, "lon_c": -6.3432200251557447, "res": 8.0, "count_Reptiles": 10, "count_Amphibians": 9, "count_Insects": 8, "count_Molluscs": 0, "count_Flowering Plants": 36, "count_Mammals": 0, "count_Birds": 28, "count_Ferns": 0, "count_Arachnids": 1, "count_Basidiomycota": 0, "count_Mosses": 0, "count_Sac Fungi": 0, "unique_species_count": 92.0, "countryCode": "CI" }, "geometry": { "type": "MultiPolygon", "coordinates": [ [ [ [ -5.957854012953227, 5.911897738470083 ], [ -5.953478437005121, 5.368778814449763 ], [ -6.339199769259342, 5.105180062385263 ], [ -6.728371707718662, 5.384762739732007 ], [ -6.730927619768464, 5.930237502259032 ], [ -6.34612218114219, 6.193801897254681 ], [ -5.957854012953227, 5.911897738470083 ] ] ] ] } },
{ "type": "Feature", "properties": { "geogrid_id": "5205666121007115528", "seqnum": 14279.0, "lat_c": 5.6661205938437949, "lon_c": -7.115527889236672, "res": 8.0, "count_Reptiles": 22, "count_Amphibians": 15, "count_Insects": 51, "count_Molluscs": 1, "count_Flowering Plants": 66, "count_Mammals": 51, "count_Birds": 75, "count_Ferns": 4, "count_Arachnids": 6, "count_Basidiomycota": 0, "count_Mosses": 0, "count_Sac Fungi": 1, "unique_species_count": 292.0, "countryCode": "CI" }, "geometry": { "type": "MultiPolygon", "coordinates": [ [ [ [ -6.730927619768464, 5.930237502259032 ], [ -6.728371707718662, 5.384762739732007 ], [ -7.113334825473504, 5.120382993091233 ], [ -7.499948291056265, 5.401455199084803 ], [ -7.500429402907727, 5.949386782716487 ], [ -7.116355224488921, 6.213821901730574 ], [ -6.730927619768464, 5.930237502259032 ] ] ] ] } },
{ "type": "Feature", "properties": { "geogrid_id": "5205684396007884332", "seqnum": 14197.0, "lat_c": 5.6843958779229951, "lon_c": -7.88433215671889, "res": 8.0, "count_Reptiles": 1, "count_Amphibians": 0, "count_Insects": 0, "count_Molluscs": 0, "count_Flowering Plants": 0, "count_Mammals": 0, "count_Birds": 0, "count_Ferns": 0, "count_Arachnids": 0, "count_Basidiomycota": 0, "count_Mosses": 0, "count_Sac Fungi": 0, "unique_species_count": 1.0, "countryCode": "CI" }, "geometry": { "type": "MultiPolygon", "coordinates": [ [ [ [ -7.500429402907727, 5.949386782716487 ], [ -7.499948291056265, 5.401455199084803 ], [ -7.884214058146154, 5.136245469432084 ], [ -8.268088254798132, 5.418853847802444 ], [ -8.266232411502957, 5.969342453123049 ], [ -7.882814401513938, 6.234702745027837 ], [ -7.500429402907727, 5.949386782716487 ] ] ] ] } },
{ "type": "Feature", "properties": { "geogrid_id": "5206399694003626391", "seqnum": 14608.0, "lat_c": 6.3996935774287591, "lon_c": -3.626391160771866, "res": 8.0, "count_Reptiles": 1, "count_Amphibians": 2, "count_Insects": 20, "count_Molluscs": 1, "count_Flowering Plants": 16, "count_Mammals": 5, "count_Birds": 8, "count_Ferns": 0, "count_Arachnids": 1, "count_Basidiomycota": 0, "count_Mosses": 0, "count_Sac Fungi": 0, "unique_species_count": 54.0, "countryCode": "CI" }, "geometry": { "type": "MultiPolygon", "coordinates": [ [ [ [ -3.238290409741479, 6.659914245684194 ], [ -3.230159017704205, 6.122398685761834 ], [ -3.618525719585374, 5.861765008769413 ], [ -4.014124257744541, 6.138941473815637 ], [ -4.020991557892597, 6.678707394359463 ], [ -3.633531477992185, 6.939065124337966 ], [ -3.238290409741479, 6.659914245684194 ] ] ] ] } },
{ "type": "Feature", "properties": { "geogrid_id": "5206417805004408095", "seqnum": 14526.0, "lat_c": 6.4178046218222287, "lon_c": -4.4080948549993044, "res": 8.0, "count_Reptiles": 2, "count_Amphibians": 3, "count_Insects": 3, "count_Molluscs": 2, "count_Flowering Plants": 9, "count_Mammals": 1, "count_Birds": 1, "count_Ferns": 1, "count_Arachnids": 0, "count_Basidiomycota": 0, "count_Mosses": 0, "count_Sac Fungi": 0, "unique_species_count": 22.0, "countryCode": "CI" }, "geometry": { "type": "MultiPolygon", "coordinates": [ [ [ [ -4.020991557892597, 6.678707394359463 ], [ -4.014124257744541, 6.138941473815637 ], [ -4.401517212623756, 5.877658667985084 ], [ -4.794868442811029, 6.156358365785261 ], [ -4.800210547912251, 6.698489916949557 ], [ -4.413727010317467, 6.95957954819945 ], [ -4.020991557892597, 6.678707394359463 ] ] ] ] } },
{ "type": "Feature", "properties": { "geogrid_id": "5206436845005186375", "seqnum": 14444.0, "lat_c": 6.436844606768525, "lon_c": -5.1863753612391674, "res": 8.0, "count_Reptiles": 13, "count_Amphibians": 10, "count_Insects": 146, "count_Molluscs": 1, "count_Flowering Plants": 75, "count_Mammals": 19, "count_Birds": 163, "count_Ferns": 0, "count_Arachnids": 11, "count_Basidiomycota": 0, "count_Mosses": 0, "count_Sac Fungi": 0, "unique_species_count": 438.0, "countryCode": "CI" }, "geometry": { "type": "MultiPolygon", "coordinates": [ [ [ [ -4.800210547912251, 6.698489916949557 ], [ -4.794868442811029, 6.156358365785261 ], [ -5.181339167762647, 5.894370498526942 ], [ -5.572247794707526, 6.174646256151213 ], [ -5.575794134276143, 6.719257737478531 ], [ -5.190220405635946, 6.981141871807213 ], [ -4.800210547912251, 6.698489916949557 ] ] ] ] } },
{ "type": "Feature", "properties": { "geogrid_id": "5206456810005961086", "seqnum": 14362.0, "lat_c": 6.4568098886743162, "lon_c": -5.9610861846165237, "res": 8.0, "count_Reptiles": 0, "count_Amphibians": 0, "count_Insects": 1, "count_Molluscs": 0, "count_Flowering Plants": 13, "count_Mammals": 5, "count_Birds": 5, "count_Ferns": 0, "count_Arachnids": 0, "count_Basidiomycota": 0, "count_Mosses": 0, "count_Sac Fungi": 0, "unique_species_count": 24.0, "countryCode": "CI" }, "geometry": { "type": "MultiPolygon", "coordinates": [ [ [ [ -5.575794134276143, 6.719257737478531 ], [ -5.572247794707526, 6.174646256151213 ], [ -5.957854012953227, 5.911897738470083 ], [ -6.34612218114219, 6.193801897254681 ], [ -6.347593294826504, 6.741006596874543 ], [ -5.962855730519177, 7.003747338502534 ], [ -5.575794134276143, 6.719257737478531 ] ] ] ] } },
{ "type": "Feature", "properties": { "geogrid_id": "5206477697006732085", "seqnum": 14280.0, "lat_c": 6.4776966638461966, "lon_c": -6.7320848112613296, "res": 8.0, "count_Reptiles": 0, "count_Amphibians": 0, "count_Insects": 0, "count_Molluscs": 0, "count_Flowering Plants": 12, "count_Mammals": 14, "count_Birds": 9, "count_Ferns": 0, "count_Arachnids": 0, "count_Basidiomycota": 0, "count_Mosses": 0, "count_Sac Fungi": 0, "unique_species_count": 35.0, "countryCode": "CI" }, "geometry": { "type": "MultiPolygon", "coordinates": [ [ [ [ -6.347593294826504, 6.741006596874543 ], [ -6.34612218114219, 6.193801897254681 ], [ -6.730927619768464, 5.930237502259032 ], [ -7.116355224488921, 6.213821901730574 ], [ -7.115463350221921, 6.763732056624718 ], [ -6.731481665640632, 7.027390986976206 ], [ -6.347593294826504, 6.741006596874543 ] ] ] ] } },
{ "type": "Feature", "properties": { "geogrid_id": "5206499501007499233", "seqnum": 14198.0, "lat_c": 6.4995009715316314, "lon_c": -7.4992328173763338, "res": 8.0, "count_Reptiles": 1, "count_Amphibians": 0, "count_Insects": 1, "count_Molluscs": 0, "count_Flowering Plants": 9, "count_Mammals": 10, "count_Birds": 36, "count_Ferns": 0, "count_Arachnids": 0, "count_Basidiomycota": 0, "count_Mosses": 0, "count_Sac Fungi": 0, "unique_species_count": 57.0, "countryCode": "CI" }, "geometry": { "type": "MultiPolygon", "coordinates": [ [ [ [ -7.115463350221921, 6.763732056624718 ], [ -7.116355224488921, 6.213821901730574 ], [ -7.500429402907727, 5.949386782716487 ], [ -7.882814401513938, 6.234702745027837 ], [ -7.879264072275858, 6.787429502553967 ], [ -7.495951624484822, 7.052067655796747 ], [ -7.115463350221921, 6.763732056624718 ] ] ] ] } },
{ "type": "Feature", "properties": { "geogrid_id": "5206522219008262396", "seqnum": 14116.0, "lat_c": 6.522218697061585, "lon_c": -8.262395968254534, "res": 8.0, "count_Reptiles": 0, "count_Amphibians": 0, "count_Insects": 12, "count_Molluscs": 0, "count_Flowering Plants": 1, "count_Mammals": 0, "count_Birds": 0, "count_Ferns": 0, "count_Arachnids": 1, "count_Basidiomycota": 0, "count_Mosses": 0, "count_Sac Fungi": 0, "unique_species_count": 14.0, "countryCode": "CI" }, "geometry": { "type": "MultiPolygon", "coordinates": [ [ [ [ -7.879264072275858, 6.787429502553967 ], [ -7.882814401513938, 6.234702745027837 ], [ -8.266232411502957, 5.969342453123049 ], [ -8.64537113399933, 6.256440768012981 ], [ -8.638859781134805, 6.812094148720867 ], [ -8.256123859694801, 7.077771988080528 ], [ -7.879264072275858, 6.787429502553967 ] ] ] ] } },
{ "type": "Feature", "properties": { "geogrid_id": "5207198877003245687", "seqnum": 14609.0, "lat_c": 7.1988765985655814, "lon_c": -3.2456872863287098, "res": 8.0, "count_Reptiles": 1, "count_Amphibians": 3, "count_Insects": 0, "count_Molluscs": 0, "count_Flowering Plants": 3, "count_Mammals": 6, "count_Birds": 2, "count_Ferns": 0, "count_Arachnids": 0, "count_Basidiomycota": 0, "count_Mosses": 0, "count_Sac Fungi": 0, "unique_species_count": 15.0, "countryCode": "CI" }, "geometry": { "type": "MultiPolygon", "coordinates": [ [ [ [ -2.857431368009703, 7.458140986450488 ], [ -2.849794225180305, 6.91960314785347 ], [ -3.238290409741479, 6.659914245684194 ], [ -3.633531477992185, 6.939065124337966 ], [ -3.639697327033416, 7.480082546832995 ], [ -3.252097348237434, 7.739492051952658 ], [ -2.857431368009703, 7.458140986450488 ] ] ] ] } },
{ "type": "Feature", "properties": { "geogrid_id": "5207220111004026898", "seqnum": 14527.0, "lat_c": 7.2201111217910574, "lon_c": -4.0268981981422556, "res": 8.0, "count_Reptiles": 0, "count_Amphibians": 0, "count_Insects": 0, "count_Molluscs": 0, "count_Flowering Plants": 1, "count_Mammals": 0, "count_Birds": 2, "count_Ferns": 0, "count_Arachnids": 0, "count_Basidiomycota": 0, "count_Mosses": 0, "count_Sac Fungi": 0, "unique_species_count": 3.0, "countryCode": "CI" }, "geometry": { "type": "MultiPolygon", "coordinates": [ [ [ [ -3.639697327033416, 7.480082546832995 ], [ -3.633531477992185, 6.939065124337966 ], [ -4.020991557892597, 6.678707394359463 ], [ -4.413727010317467, 6.95957954819945 ], [ -4.418124632728264, 7.503205656916074 ], [ -4.031550480163586, 7.763379175705887 ], [ -3.639697327033416, 7.480082546832995 ] ] ] ] } },
{ "type": "Feature", "properties": { "geogrid_id": "5207242459004804339", "seqnum": 14445.0, "lat_c": 7.2424589051511914, "lon_c": -4.8043392226206274, "res": 8.0, "count_Reptiles": 1, "count_Amphibians": 2, "count_Insects": 25, "count_Molluscs": 0, "count_Flowering Plants": 21, "count_Mammals": 0, "count_Birds": 4, "count_Ferns": 0, "count_Arachnids": 1, "count_Basidiomycota": 0, "count_Mosses": 0, "count_Sac Fungi": 0, "unique_species_count": 54.0, "countryCode": "CI" }, "geometry": { "type": "MultiPolygon", "coordinates": [ [ [ [ -4.418124632728264, 7.503205656916074 ], [ -4.413727010317467, 6.95957954819945 ], [ -4.800210547912251, 6.698489916949557 ], [ -5.190220405635946, 6.981141871807213 ], [ -5.192542180264595, 7.527504424227745 ], [ -4.806915741103122, 7.788512714172183 ], [ -4.418124632728264, 7.503205656916074 ] ] ] ] } },
{ "type": "Feature", "properties": { "geogrid_id": "5207265915005577847", "seqnum": 14363.0, "lat_c": 7.2659146487623492, "lon_c": -5.5778470779892002, "res": 8.0, "count_Reptiles": 4, "count_Amphibians": 2, "count_Insects": 61, "count_Molluscs": 2, "count_Flowering Plants": 65, "count_Mammals": 1, "count_Birds": 63, "count_Ferns": 0, "count_Arachnids": 1, "count_Basidiomycota": 0, "count_Mosses": 0, "count_Sac Fungi": 0, "unique_species_count": 199.0, "countryCode": "CI" }, "geometry": { "type": "MultiPolygon", "coordinates": [ [ [ [ -5.192542180264595, 7.527504424227745 ], [ -5.190220405635946, 6.981141871807213 ], [ -5.575794134276143, 6.719257737478531 ], [ -5.962855730519177, 7.003747338502534 ], [ -5.962784083807073, 7.552972691232642 ], [ -5.578019243239591, 7.814885827716094 ], [ -5.192542180264595, 7.527504424227745 ] ] ] ] } },
{ "type": "Feature", "properties": { "geogrid_id": "5207290473006347263", "seqnum": 14281.0, "lat_c": 7.2904728196888389, "lon_c": -6.3472633880341052, "res": 8.0, "count_Reptiles": 0, "count_Amphibians": 0, "count_Insects": 9, "count_Molluscs": 0, "count_Flowering Plants": 26, "count_Mammals": 0, "count_Birds": 23, "count_Ferns": 0, "count_Arachnids": 0, "count_Basidiomycota": 0, "count_Mosses": 0, "count_Sac Fungi": 0, "unique_species_count": 58.0, "countryCode": "CI" }, "geometry": { "type": "MultiPolygon", "coordinates": [ [ [ [ -5.962784083807073, 7.552972691232642 ], [ -5.962855730519177, 7.003747338502534 ], [ -6.347593294826504, 6.741006596874543 ], [ -6.731481665640632, 7.027390986976206 ], [ -6.728689819700719, 7.579604041777521 ], [ -6.344692812796349, 7.842491383199427 ], [ -5.962784083807073, 7.552972691232642 ] ] ] ] } },
{ "type": "Feature", "properties": { "geogrid_id": "5207316128007112435", "seqnum": 14199.0, "lat_c": 7.3161276573526708, "lon_c": -7.1124348123727072, "res": 8.0, "count_Reptiles": 0, "count_Amphibians": 0, "count_Insects": 3, "count_Molluscs": 0, "count_Flowering Plants": 17, "count_Mammals": 0, "count_Birds": 2, "count_Ferns": 0, "count_Arachnids": 0, "count_Basidiomycota": 0, "count_Mosses": 0, "count_Sac Fungi": 0, "unique_species_count": 22.0, "countryCode": "CI" }, "geometry": { "type": "MultiPolygon", "coordinates": [ [ [ [ -6.728689819700719, 7.579604041777521 ], [ -6.731481665640632, 7.027390986976206 ], [ -7.115463350221921, 6.763732056624718 ], [ -7.495951624484822, 7.052067655796747 ], [ -7.490104354423754, 7.607391807744118 ], [ -7.106774130732557, 7.871321961892756 ], [ -6.728689819700719, 7.579604041777521 ] ] ] ] } },
{ "type": "Feature", "properties": { "geogrid_id": "5207342873007873213", "seqnum": 14117.0, "lat_c": 7.3428731791149806, "lon_c": -7.873213163011938, "res": 8.0, "count_Reptiles": 1, "count_Amphibians": 1, "count_Insects": 55, "count_Molluscs": 0, "count_Flowering Plants": 58, "count_Mammals": 10, "count_Birds": 62, "count_Ferns": 0, "count_Arachnids": 6, "count_Basidiomycota": 0, "count_Mosses": 2, "count_Sac Fungi": 0, "unique_species_count": 195.0, "countryCode": "CI" }, "geometry": { "type": "MultiPolygon", "coordinates": [ [ [ [ -7.490104354423754, 7.607391807744118 ], [ -7.495951624484822, 7.052067655796747 ], [ -7.879264072275858, 6.787429502553967 ], [ -8.256123859694801, 7.077771988080528 ], [ -8.246878257287843, 7.636329075894837 ], [ -7.864106856461048, 7.901369867618675 ], [ -7.490104354423754, 7.607391807744118 ] ] ] ] } },
{ "type": "Feature", "properties": { "geogrid_id": "5207370703008629456", "seqnum": 14035.0, "lat_c": 7.370703186017689, "lon_c": -8.6294555071822625, "res": 8.0, "count_Reptiles": 0, "count_Amphibians": 0, "count_Insects": 3, "count_Molluscs": 0, "count_Flowering Plants": 0, "count_Mammals": 0, "count_Birds": 32, "count_Ferns": 1, "count_Arachnids": 0, "count_Basidiomycota": 0, "count_Mosses": 0, "count_Sac Fungi": 0, "unique_species_count": 36.0, "countryCode": "CI" }, "geometry": { "type": "MultiPolygon", "coordinates": [ [ [ [ -8.246878257287843, 7.636329075894837 ], [ -8.256123859694801, 7.077771988080528 ], [ -8.638859781134805, 6.812094148720867 ], [ -9.011861557051374, 7.104498436294846 ], [ -8.998867797936144, 7.666408694896484 ], [ -8.616540734640594, 7.932627135108081 ], [ -8.246878257287843, 7.636329075894837 ] ] ] ] } },
{ "type": "Feature", "properties": { "geogrid_id": "5207998338002864071", "seqnum": 14610.0, "lat_c": 7.9983382211016556, "lon_c": -2.8640709157821491, "res": 8.0, "count_Reptiles": 0, "count_Amphibians": 0, "count_Insects": 0, "count_Molluscs": 0, "count_Flowering Plants": 6, "count_Mammals": 8, "count_Birds": 4, "count_Ferns": 0, "count_Arachnids": 0, "count_Basidiomycota": 0, "count_Mosses": 0, "count_Sac Fungi": 0, "unique_species_count": 18.0, "countryCode": "CI" }, "geometry": { "type": "MultiPolygon", "coordinates": [ [ [ [ -2.475590350939992, 8.256620034074704 ], [ -2.468735789535456, 7.716857881383881 ], [ -2.857431368009703, 7.458140986450488 ], [ -3.252097348237434, 7.739492051952658 ], [ -3.257217670006246, 8.28199601661608 ], [ -2.869405409120311, 8.540434837628 ], [ -2.475590350939992, 8.256620034074704 ] ] ] ] } },
{ "type": "Feature", "properties": { "geogrid_id": "5208022977003644590", "seqnum": 14528.0, "lat_c": 8.0229767657070816, "lon_c": -3.644590376700735, "res": 8.0, "count_Reptiles": 0, "count_Amphibians": 0, "count_Insects": 0, "count_Molluscs": 0, "count_Flowering Plants": 3, "count_Mammals": 0, "count_Birds": 1, "count_Ferns": 0, "count_Arachnids": 0, "count_Basidiomycota": 0, "count_Mosses": 0, "count_Sac Fungi": 0, "unique_species_count": 4.0, "countryCode": "CI" }, "geometry": { "type": "MultiPolygon", "coordinates": [ [ [ [ -3.257217670006246, 8.28199601661608 ], [ -3.252097348237434, 7.739492051952658 ], [ -3.639697327033416, 7.480082546832995 ], [ -4.031550480163586, 7.763379175705887 ], [ -4.034596207504506, 8.308769911000381 ], [ -3.647851591864596, 8.568011858599881 ], [ -3.257217670006246, 8.28199601661608 ] ] ] ] } },
{ "type": "Feature", "properties": { "geogrid_id": "5208048936004420942", "seqnum": 14446.0, "lat_c": 8.048935738961692, "lon_c": -4.4209423004142856, "res": 8.0, "count_Reptiles": 0, "count_Amphibians": 0, "count_Insects": 4, "count_Molluscs": 0, "count_Flowering Plants": 6, "count_Mammals": 9, "count_Birds": 44, "count_Ferns": 0, "count_Arachnids": 0, "count_Basidiomycota": 0, "count_Mosses": 0, "count_Sac Fungi": 0, "unique_species_count": 63.0, "countryCode": "CI" }, "geometry": { "type": "MultiPolygon", "coordinates": [ [ [ [ -4.034596207504506, 8.308769911000381 ], [ -4.031550480163586, 7.763379175705887 ], [ -4.418124632728264, 7.503205656916074 ], [ -4.806915741103122, 7.788512714172183 ], [ -4.807534414122359, 8.336933320623322 ], [ -4.421764840130066, 8.59705869252841 ], [ -4.034596207504506, 8.308769911000381 ] ] ] ] } },
{ "type": "Feature", "properties": { "geogrid_id": "5208076208005192944", "seqnum": 14364.0, "lat_c": 8.0762075566792078, "lon_c": -5.1929442608611591, "res": 8.0, "count_Reptiles": 3, "count_Amphibians": 2, "count_Insects": 13, "count_Molluscs": 0, "count_Flowering Plants": 23, "count_Mammals": 15, "count_Birds": 12, "count_Ferns": 0, "count_Arachnids": 0, "count_Basidiomycota": 0, "count_Mosses": 0, "count_Sac Fungi": 0, "unique_species_count": 68.0, "countryCode": "CI" }, "geometry": { "type": "MultiPolygon", "coordinates": [ [ [ [ -4.807534414122359, 8.336933320623322 ], [ -4.806915741103122, 7.788512714172183 ], [ -5.192542180264595, 7.527504424227745 ], [ -5.578019243239591, 7.814885827716094 ], [ -5.575847244814192, 8.366477471714463 ], [ -5.190950790473325, 8.627565629354233 ], [ -4.807534414122359, 8.336933320623322 ] ] ] ] } },
{ "type": "Feature", "properties": { "geogrid_id": "5208104784005960420", "seqnum": 14282.0, "lat_c": 8.1047843018548598, "lon_c": -5.9604199258147039, "res": 8.0, "count_Reptiles": 0, "count_Amphibians": 0, "count_Insects": 1, "count_Molluscs": 0, "count_Flowering Plants": 3, "count_Mammals": 0, "count_Birds": 1, "count_Ferns": 0, "count_Arachnids": 0, "count_Basidiomycota": 0, "count_Mosses": 0, "count_Sac Fungi": 0, "unique_species_count": 5.0, "countryCode": "CI" }, "geometry": { "type": "MultiPolygon", "coordinates": [ [ [ [ -5.575847244814192, 8.366477471714463 ], [ -5.578019243239591, 7.814885827716094 ], [ -5.962784083807073, 7.552972691232642 ], [ -6.344692812796349, 7.842491383199427 ], [ -6.339356329828992, 8.397393224460391 ], [ -5.955222216900814, 8.659522544935585 ], [ -5.575847244814192, 8.366477471714463 ] ] ] ] } },
{ "type": "Feature", "properties": { "geogrid_id": "5208134658006723199", "seqnum": 14200.0, "lat_c": 8.1346577340545441, "lon_c": -6.7231992118629602, "res": 8.0, "count_Reptiles": 0, "count_Amphibians": 0, "count_Insects": 0, "count_Molluscs": 0, "count_Flowering Plants": 5, "count_Mammals": 0, "count_Birds": 1, "count_Ferns": 0, "count_Arachnids": 0, "count_Basidiomycota": 0, "count_Mosses": 0, "count_Sac Fungi": 0, "unique_species_count": 6.0, "countryCode": "CI" }, "geometry": { "type": "MultiPolygon", "coordinates": [ [ [ [ -6.339356329828992, 8.397393224460391 ], [ -6.344692812796349, 7.842491383199427 ], [ -6.728689819700719, 7.579604041777521 ], [ -7.106774130732557, 7.871321961892756 ], [ -7.097890124594842, 8.429671084461898 ], [ -6.714399196313613, 8.692918914606821 ], [ -6.339356329828992, 8.397393224460391 ] ] ] ] } },
{ "type": "Feature", "properties": { "geogrid_id": "5208165819007481118", "seqnum": 14118.0, "lat_c": 8.1658192990822638, "lon_c": -7.4811184204580821, "res": 8.0, "count_Reptiles": 0, "count_Amphibians": 0, "count_Insects": 1, "count_Molluscs": 0, "count_Flowering Plants": 5, "count_Mammals": 0, "count_Birds": 9, "count_Ferns": 1, "count_Arachnids": 0, "count_Basidiomycota": 0, "count_Mosses": 0, "count_Sac Fungi": 0, "unique_species_count": 16.0, "countryCode": "CI" }, "geometry": { "type": "MultiPolygon", "coordinates": [ [ [ [ -7.097890124594842, 8.429671084461898 ], [ -7.106774130732557, 7.871321961892756 ], [ -7.490104354423754, 7.607391807744118 ], [ -7.864106856461048, 7.901369867618675 ], [ -7.85128403851502, 8.463301214495305 ], [ -7.468309250349233, 8.727743827100046 ], [ -7.097890124594842, 8.429671084461898 ] ] ] ] } },
{ "type": "Feature", "properties": { "geogrid_id": "5208198260008234020", "seqnum": 14036.0, "lat_c": 8.1982601389021657, "lon_c": -8.2340203550896245, "res": 8.0, "count_Reptiles": 0, "count_Amphibians": 0, "count_Insects": 0, "count_Molluscs": 0, "count_Flowering Plants": 0, "count_Mammals": 0, "count_Birds": 5, "count_Ferns": 0, "count_Arachnids": 0, "count_Basidiomycota": 0, "count_Mosses": 0, "count_Sac Fungi": 0, "unique_species_count": 5.0, "countryCode": "CI" }, "geometry": { "type": "MultiPolygon", "coordinates": [ [ [ [ -7.85128403851502, 8.463301214495305 ], [ -7.864106856461048, 7.901369867618675 ], [ -8.246878257287843, 7.636329075894837 ], [ -8.616540734640594, 7.932627135108081 ], [ -8.599380544970085, 8.498273446156112 ], [ -8.216787465904181, 8.763985998402468 ], [ -7.85128403851502, 8.463301214495305 ] ] ] ] } },
{ "type": "Feature", "properties": { "geogrid_id": "5208826658003260682", "seqnum": 14529.0, "lat_c": 8.8266584532076529, "lon_c": -3.2606823311802939, "res": 8.0, "count_Reptiles": 1, "count_Amphibians": 0, "count_Insects": 0, "count_Molluscs": 0, "count_Flowering Plants": 9, "count_Mammals": 0, "count_Birds": 4, "count_Ferns": 0, "count_Arachnids": 0, "count_Basidiomycota": 0, "count_Mosses": 0, "count_Sac Fungi": 0, "unique_species_count": 14.0, "countryCode": "CI" }, "geometry": { "type": "MultiPolygon", "coordinates": [ [ [ [ -2.873062016202244, 9.084706840505174 ], [ -2.869405409120311, 8.540434837628 ], [ -3.257217670006246, 8.28199601661608 ], [ -3.647851591864596, 8.568011858599881 ], [ -3.64904620176391, 9.115491313953324 ], [ -3.26204646773925, 9.373790535554258 ], [ -2.873062016202244, 9.084706840505174 ] ] ] ] } },
{ "type": "Feature", "properties": { "geogrid_id": "5208856579004035611", "seqnum": 14447.0, "lat_c": 8.8565793936517796, "lon_c": -4.0356105101779516, "res": 8.0, "count_Reptiles": 15, "count_Amphibians": 9, "count_Insects": 37, "count_Molluscs": 0, "count_Flowering Plants": 14, "count_Mammals": 30, "count_Birds": 50, "count_Ferns": 0, "count_Arachnids": 3, "count_Basidiomycota": 0, "count_Mosses": 0, "count_Sac Fungi": 0, "unique_species_count": 158.0, "countryCode": "CI" }, "geometry": { "type": "MultiPolygon", "coordinates": [ [ [ [ -3.64904620176391, 9.115491313953324 ], [ -3.647851591864596, 8.568011858599881 ], [ -4.034596207504506, 8.308769911000381 ], [ -4.421764840130066, 8.59705869252841 ], [ -4.420090202743852, 9.147906230738883 ], [ -4.034077605018898, 9.407148561811093 ], [ -3.64904620176391, 9.115491313953324 ] ] ] ] } },
{ "type": "Feature", "properties": { "geogrid_id": "5208888044004805706", "seqnum": 14365.0, "lat_c": 8.8880435842542305, "lon_c": -4.805706499248803, "res": 8.0, "count_Reptiles": 0, "count_Amphibians": 0, "count_Insects": 0, "count_Molluscs": 0, "count_Flowering Plants": 6, "count_Mammals": 0, "count_Birds": 0, "count_Ferns": 0, "count_Arachnids": 0, "count_Basidiomycota": 0, "count_Mosses": 0, "count_Sac Fungi": 0, "unique_species_count": 6.0, "countryCode": "CI" }, "geometry": { "type": "MultiPolygon", "coordinates": [ [ [ [ -4.420090202743852, 9.147906230738883 ], [ -4.421764840130066, 8.59705869252841 ], [ -4.807534414122359, 8.336933320623322 ], [ -5.190950790473325, 8.627565629354233 ], [ -5.185987151081908, 9.181939210138166 ], [ -4.800839543614292, 9.442214882943416 ], [ -4.420090202743852, 9.147906230738883 ] ] ] ] } },
{ "type": "Feature", "properties": { "geogrid_id": "5208921040005570774", "seqnum": 14283.0, "lat_c": 8.9210398235444099, "lon_c": -5.5707735928437527, "res": 8.0, "count_Reptiles": 0, "count_Amphibians": 0, "count_Insects": 1, "count_Molluscs": 0, "count_Flowering Plants": 7, "count_Mammals": 8, "count_Birds": 1, "count_Ferns": 0, "count_Arachnids": 0, "count_Basidiomycota": 0, "count_Mosses": 0, "count_Sac Fungi": 0, "unique_species_count": 17.0, "countryCode": "CI" }, "geometry": { "type": "MultiPolygon", "coordinates": [ [ [ [ -5.185987151081908, 9.181939210138166 ], [ -5.190950790473325, 8.627565629354233 ], [ -5.575847244814192, 8.366477471714463 ], [ -5.955222216900814, 8.659522544935585 ], [ -5.946538565476658, 9.217577360784134 ], [ -5.562123505589311, 9.478975250575852 ], [ -5.185987151081908, 9.181939210138166 ] ] ] ] } },
{ "type": "Feature", "properties": { "geogrid_id": "5208955556006330623", "seqnum": 14201.0, "lat_c": 8.9555564577778597, "lon_c": -6.3306229073571014, "res": 8.0, "count_Reptiles": 0, "count_Amphibians": 0, "count_Insects": 0, "count_Molluscs": 0, "count_Flowering Plants": 0, "count_Mammals": 0, "count_Birds": 1, "count_Ferns": 0, "count_Arachnids": 0, "count_Basidiomycota": 0, "count_Mosses": 0, "count_Sac Fungi": 0, "unique_species_count": 1.0, "countryCode": "CI" }, "geometry": { "type": "MultiPolygon", "coordinates": [ [ [ [ -5.946538565476658, 9.217577360784134 ], [ -5.955222216900814, 8.659522544935585 ], [ -6.339356329828992, 8.397393224460391 ], [ -6.714399196313613, 8.692918914606821 ], [ -6.701554524473701, 9.254807300107943 ], [ -6.317729907190746, 9.517414862710579 ], [ -5.946538565476658, 9.217577360784134 ] ] ] ] } },
{ "type": "Feature", "properties": { "geogrid_id": "5208991581007085074", "seqnum": 14119.0, "lat_c": 8.9915813973956968, "lon_c": -7.0850735376491913, "res": 8.0, "count_Reptiles": 0, "count_Amphibians": 0, "count_Insects": 0, "count_Molluscs": 0, "count_Flowering Plants": 1, "count_Mammals": 3, "count_Birds": 1, "count_Ferns": 0, "count_Arachnids": 0, "count_Basidiomycota": 0, "count_Mosses": 0, "count_Sac Fungi": 0, "unique_species_count": 5.0, "countryCode": "CI" }, "geometry": { "type": "MultiPolygon", "coordinates": [ [ [ [ -6.701554524473701, 9.254807300107943 ], [ -6.714399196313613, 8.692918914606821 ], [ -7.097890124594842, 8.429671084461898 ], [ -7.468309250349233, 8.727743827100046 ], [ -7.450853812082777, 9.293615173852931 ], [ -7.067468519460148, 9.557518386834998 ], [ -6.701554524473701, 9.254807300107943 ] ] ] ] } },
{ "type": "Feature", "properties": { "geogrid_id": "5209029102007833953", "seqnum": 14037.0, "lat_c": 9.0291021334824606, "lon_c": -7.8339526893762752, "res": 8.0, "count_Reptiles": 0, "count_Amphibians": 0, "count_Insects": 0, "count_Molluscs": 0, "count_Flowering Plants": 2, "count_Mammals": 0, "count_Birds": 1, "count_Ferns": 0, "count_Arachnids": 0, "count_Basidiomycota": 0, "count_Mosses": 0, "count_Sac Fungi": 0, "unique_species_count": 3.0, "countryCode": "CI" }, "geometry": { "type": "MultiPolygon", "coordinates": [ [ [ [ -7.450853812082777, 9.293615173852931 ], [ -7.468309250349233, 8.727743827100046 ], [ -7.85128403851502, 8.463301214495305 ], [ -8.216787465904181, 8.763985998402468 ], [ -8.378498482856077, 9.206133745942346 ], [ -7.995536240499688, 9.47169960804942 ], [ -7.450853812082777, 9.293615173852931 ] ] ] ] } },
{ "type": "Feature", "properties": { "geogrid_id": "5209631473002874586", "seqnum": 14530.0, "lat_c": 9.6314733597104372, "lon_c": -2.8745856021797742, "res": 8.0, "count_Reptiles": 0, "count_Amphibians": 0, "count_Insects": 0, "count_Molluscs": 0, "count_Flowering Plants": 12, "count_Mammals": 0, "count_Birds": 2, "count_Ferns": 0, "count_Arachnids": 0, "count_Basidiomycota": 0, "count_Mosses": 0, "count_Sac Fungi": 0, "unique_species_count": 14.0, "countryCode": "CI" }, "geometry": { "type": "MultiPolygon", "coordinates": [ [ [ [ -2.486637602504722, 9.888536337871184 ], [ -2.484963912061124, 9.342154475978296 ], [ -2.873062016202244, 9.084706840505174 ], [ -3.26204646773925, 9.373790535554258 ], [ -3.260765531354393, 9.923752841825152 ], [ -2.873416586211698, 10.18110542755163 ], [ -2.486637602504722, 9.888536337871184 ] ] ] ] } },
{ "type": "Feature", "properties": { "geogrid_id": "5209651871008535445", "seqnum": 13956.0, "lat_c": 9.6518705915602663, "lon_c": -8.5354453195316786, "res": 8.0, "count_Reptiles": 0, "count_Amphibians": 0, "count_Insects": 0, "count_Molluscs": 0, "count_Flowering Plants": 0, "count_Mammals": 0, "count_Birds": 1, "count_Ferns": 0, "count_Arachnids": 0, "count_Basidiomycota": 0, "count_Mosses": 0, "count_Sac Fungi": 0, "unique_species_count": 1.0, "countryCode": "CI" }, "geometry": { "type": "MultiPolygon", "coordinates": [ [ [ [ -8.152222143849709, 9.917962040910369 ], [ -7.995536240499688, 9.47169960804942 ], [ -8.378498482856077, 9.206133745942346 ], [ -8.918380592094609, 9.385188335564894 ], [ -9.07129850058622, 9.833543087477821 ], [ -8.68801290943237, 10.100806283150622 ], [ -8.152222143849709, 9.917962040910369 ] ] ] ] } },
{ "type": "Feature", "properties": { "geogrid_id": "5209665766003647644", "seqnum": 14448.0, "lat_c": 9.6657656851784157, "lon_c": -3.647644257533198, "res": 8.0, "count_Reptiles": 1, "count_Amphibians": 0, "count_Insects": 0, "count_Molluscs": 0, "count_Flowering Plants": 11, "count_Mammals": 0, "count_Birds": 2, "count_Ferns": 0, "count_Arachnids": 0, "count_Basidiomycota": 0, "count_Mosses": 0, "count_Sac Fungi": 0, "unique_species_count": 14.0, "countryCode": "CI" }, "geometry": { "type": "MultiPolygon", "coordinates": [ [ [ [ -3.260765531354393, 9.923752841825152 ], [ -3.26204646773925, 9.373790535554258 ], [ -3.64904620176391, 9.115491313953324 ], [ -4.034077605018898, 9.407148561811093 ], [ -4.029367131555102, 9.960871990105032 ], [ -3.642995266350193, 10.219242000097944 ], [ -3.260765531354393, 9.923752841825152 ] ] ] ] } },
{ "type": "Feature", "properties": { "geogrid_id": "5209701861004415307", "seqnum": 14366.0, "lat_c": 9.7018610563520582, "lon_c": -4.4153073644825893, "res": 8.0, "count_Reptiles": 0, "count_Amphibians": 0, "count_Insects": 0, "count_Molluscs": 0, "count_Flowering Plants": 6, "count_Mammals": 1, "count_Birds": 2, "count_Ferns": 0, "count_Arachnids": 0, "count_Basidiomycota": 0, "count_Mosses": 0, "count_Sac Fungi": 0, "unique_species_count": 9.0, "countryCode": "CI" }, "geometry": { "type": "MultiPolygon", "coordinates": [ [ [ [ -4.029367131555102, 9.960871990105032 ], [ -4.034077605018898, 9.407148561811093 ], [ -4.420090202743852, 9.147906230738883 ], [ -4.800839543614292, 9.442214882943416 ], [ -4.792210649557042, 9.999876412333347 ], [ -4.406667569645704, 10.25936686109104 ], [ -4.029367131555102, 9.960871990105032 ] ] ] ] } },
{ "type": "Feature", "properties": { "geogrid_id": "5209736664007612289", "seqnum": 14038.0, "lat_c": 9.7366640849166615, "lon_c": -7.6122891163217439, "res": 8.0, "count_Reptiles": 0, "count_Amphibians": 0, "count_Insects": 1, "count_Molluscs": 0, "count_Flowering Plants": 12, "count_Mammals": 0, "count_Birds": 2, "count_Ferns": 1, "count_Arachnids": 0, "count_Basidiomycota": 0, "count_Mosses": 0, "count_Sac Fungi": 0, "unique_species_count": 16.0, "countryCode": "CI" }, "geometry": { "type": "MultiPolygon", "coordinates": [ [ [ [ -7.228734519467512, 10.001020509647486 ], [ -7.067468519460148, 9.557518386834998 ], [ -7.450853812082777, 9.293615173852931 ], [ -7.995536240499688, 9.47169960804942 ], [ -8.152222143849709, 9.917962040910369 ], [ -7.768687839532281, 10.183456251511972 ], [ -7.228734519467512, 10.001020509647486 ] ] ] ] } },
{ "type": "Feature", "properties": { "geogrid_id": "5209739744005177355", "seqnum": 14284.0, "lat_c": 9.7397437363618451, "lon_c": -5.1773550802836441, "res": 8.0, "count_Reptiles": 0, "count_Amphibians": 0, "count_Insects": 3, "count_Molluscs": 0, "count_Flowering Plants": 14, "count_Mammals": 0, "count_Birds": 9, "count_Ferns": 0, "count_Arachnids": 0, "count_Basidiomycota": 0, "count_Mosses": 0, "count_Sac Fungi": 0, "unique_species_count": 26.0, "countryCode": "CI" }, "geometry": { "type": "MultiPolygon", "coordinates": [ [ [ [ -4.792210649557042, 9.999876412333347 ], [ -4.800839543614292, 9.442214882943416 ], [ -5.185987151081908, 9.181939210138166 ], [ -5.562123505589311, 9.478975250575852 ], [ -5.549074978447364, 10.0407480344172 ], [ -5.16420037746529, 10.301460052572427 ], [ -4.792210649557042, 9.999876412333347 ] ] ] ] } },
{ "type": "Feature", "properties": { "geogrid_id": "5209779397005933577", "seqnum": 14202.0, "lat_c": 9.7793973642651171, "lon_c": -5.9335774496870446, "res": 8.0, "count_Reptiles": 0, "count_Amphibians": 0, "count_Insects": 0, "count_Molluscs": 0, "count_Flowering Plants": 6, "count_Mammals": 21, "count_Birds": 9, "count_Ferns": 0, "count_Arachnids": 0, "count_Basidiomycota": 0, "count_Mosses": 0, "count_Sac Fungi": 0, "unique_species_count": 36.0, "countryCode": "CI" }, "geometry": { "type": "MultiPolygon", "coordinates": [ [ [ [ -5.549074978447364, 10.0407480344172 ], [ -5.562123505589311, 9.478975250575852 ], [ -5.946538565476658, 9.217577360784134 ], [ -6.317729907190746, 9.517414862710579 ], [ -6.299749854799907, 10.083468110866301 ], [ -5.915372269399437, 10.345500860868876 ], [ -5.549074978447364, 10.0407480344172 ] ] ] ] } },
{ "type": "Feature", "properties": { "geogrid_id": "5209820805006683775", "seqnum": 14120.0, "lat_c": 9.820804982382727, "lon_c": -6.6837745825214396, "res": 8.0, "count_Reptiles": 0, "count_Amphibians": 0, "count_Insects": 0, "count_Molluscs": 0, "count_Flowering Plants": 6, "count_Mammals": 9, "count_Birds": 1, "count_Ferns": 0, "count_Arachnids": 0, "count_Basidiomycota": 0, "count_Mosses": 0, "count_Sac Fungi": 0, "unique_species_count": 16.0, "countryCode": "CI" }, "geometry": { "type": "MultiPolygon", "coordinates": [ [ [ [ -6.299749854799907, 10.083468110866301 ], [ -6.317729907190746, 9.517414862710579 ], [ -6.701554524473701, 9.254807300107943 ], [ -7.067468519460148, 9.557518386834998 ], [ -7.228734519467512, 10.001020509647486 ], [ -6.844849923495147, 10.264762164155199 ], [ -6.299749854799907, 10.083468110866301 ] ] ] ] } },
{ "type": "Feature", "properties": { "geogrid_id": "5210527882006460613", "seqnum": 14121.0, "lat_c": 10.527882277824155, "lon_c": -6.4606128614892153, "res": 8.0, "count_Reptiles": 0, "count_Amphibians": 0, "count_Insects": 0, "count_Molluscs": 0, "count_Flowering Plants": 1, "count_Mammals": 0, "count_Birds": 0, "count_Ferns": 0, "count_Arachnids": 0, "count_Basidiomycota": 0, "count_Mosses": 0, "count_Sac Fungi": 0, "unique_species_count": 1.0, "countryCode": "CI" }, "geometry": { "type": "MultiPolygon", "coordinates": [ [ [ [ -6.076000921027769, 10.790374026302366 ], [ -5.915372269399437, 10.345500860868876 ], [ -6.299749854799907, 10.083468110866301 ], [ -6.844849923495147, 10.264762164155199 ], [ -7.000593059546341, 10.71262705290208 ], [ -6.615986222102832, 10.97629060519642 ], [ -6.076000921027769, 10.790374026302366 ] ] ] ] } },
{ "type": "Feature", "properties": { "geogrid_id": "5210606896005530620", "seqnum": 14203.0, "lat_c": 10.606896256996409, "lon_c": -5.530619836151649, "res": 8.0, "count_Reptiles": 0, "count_Amphibians": 0, "count_Insects": 0, "count_Molluscs": 0, "count_Flowering Plants": 0, "count_Mammals": 1, "count_Birds": 0, "count_Ferns": 0, "count_Arachnids": 0, "count_Basidiomycota": 0, "count_Mosses": 0, "count_Sac Fungi": 0, "unique_species_count": 1.0, "countryCode": "CI" }, "geometry": { "type": "MultiPolygon", "coordinates": [ [ [ [ -5.145470638879591, 10.867647257699698 ], [ -5.16420037746529, 10.301460052572427 ], [ -5.549074978447364, 10.0407480344172 ], [ -5.915372269399437, 10.345500860868876 ], [ -6.076000921027769, 10.790374026302366 ], [ -5.690991738961744, 11.052230530443692 ], [ -5.145470638879591, 10.867647257699698 ] ] ] ] } }
]
}
