{
"type": "FeatureCollection",
"name": "CO",
"crs": { "type": "name", "properties": { "name": "urn:ogc:def:crs:OGC:1.3:CRS84" } },
"features": [
{ "type": "Feature", "properties": { "geogrid_id": "5100000000070188338", "seqnum": 3434.0, "lat_c": -1.95012e-09, "lon_c": -70.18833838139291, "res": 7.0, "count_Amphibians": 1, "count_Reptiles": 1, "count_Mosses": 0, "count_Ferns": 0, "count_Flowering Plants": 53, "count_Insects": 1, "count_Birds": 6, "count_Mammals": 33, "count_Sac Fungi": 1, "count_Molluscs": 1, "count_Arachnids": 0, "count_Basidiomycota": 1, "count_Gymnosperms": 0, "unique_species_count": 98.0, "countryCode": "CO" }, "geometry": { "type": "MultiPolygon", "coordinates": [ [ [ [ -69.413668126310313, 0.406211559212078 ], [ -69.413668126280029, -0.406211562992453 ], [ -70.186646070962823, -0.81181369138827 ], [ -70.962723382947601, -0.405620011670578 ], [ -70.962723382975938, 0.405620007650946 ], [ -70.1866460710214, 0.811813687488524 ], [ -69.413668126310313, 0.406211559212078 ] ] ] ] } },
{ "type": "Feature", "properties": { "geogrid_id": "5100000000071738452", "seqnum": 3407.0, "lat_c": -2.069495e-09, "lon_c": -71.738451763569429, "res": 7.0, "count_Amphibians": 0, "count_Reptiles": 1, "count_Mosses": 4, "count_Ferns": 0, "count_Flowering Plants": 45, "count_Insects": 5, "count_Birds": 116, "count_Mammals": 51, "count_Sac Fungi": 0, "count_Molluscs": 0, "count_Arachnids": 0, "count_Basidiomycota": 0, "count_Gymnosperms": 0, "unique_species_count": 222.0, "countryCode": "CO" }, "geometry": { "type": "MultiPolygon", "coordinates": [ [ [ [ -70.962723382975938, 0.405620007650946 ], [ -70.962723382947601, -0.405620011670578 ], [ -71.737164442037184, -0.810563829967875 ], [ -72.514172649398333, -0.404952706424845 ], [ -72.514172649424935, 0.404952702166931 ], [ -71.737164442092094, 0.810563825829235 ], [ -70.962723382975938, 0.405620007650946 ] ] ] ] } },
{ "type": "Feature", "properties": { "geogrid_id": "5100000000073291124", "seqnum": 3379.0, "lat_c": -2.188355e-09, "lon_c": -73.291124452672037, "res": 7.0, "count_Amphibians": 0, "count_Reptiles": 1, "count_Mosses": 0, "count_Ferns": 0, "count_Flowering Plants": 5, "count_Insects": 18, "count_Birds": 0, "count_Mammals": 0, "count_Sac Fungi": 0, "count_Molluscs": 0, "count_Arachnids": 0, "count_Basidiomycota": 0, "count_Gymnosperms": 0, "unique_species_count": 24.0, "countryCode": "CO" }, "geometry": { "type": "MultiPolygon", "coordinates": [ [ [ [ -72.514172649424935, 0.404952702166931 ], [ -72.514172649398333, -0.404952706424845 ], [ -73.290183850974529, -0.809159722109437 ], [ -74.068317909483625, -0.404209470861018 ], [ -74.068317909508579, 0.40420946636593 ], [ -73.290183851026057, 0.809159717732972 ], [ -72.514172649424935, 0.404952702166931 ] ] ] ] } },
{ "type": "Feature", "properties": { "geogrid_id": "5100000000074846656", "seqnum": 3351.0, "lat_c": -2.306629e-09, "lon_c": -74.846655738521974, "res": 7.0, "count_Amphibians": 5, "count_Reptiles": 12, "count_Mosses": 1, "count_Ferns": 0, "count_Flowering Plants": 93, "count_Insects": 60, "count_Birds": 20, "count_Mammals": 7, "count_Sac Fungi": 0, "count_Molluscs": 0, "count_Arachnids": 3, "count_Basidiomycota": 2, "count_Gymnosperms": 0, "unique_species_count": 203.0, "countryCode": "CO" }, "geometry": { "type": "MultiPolygon", "coordinates": [ [ [ [ -74.068317909508579, 0.40420946636593 ], [ -74.068317909483625, -0.404209470861018 ], [ -74.846019398715271, -0.8076017718774 ], [ -75.625464033572641, -0.403390001860933 ], [ -75.625464033596032, 0.403389997129918 ], [ -74.846019398763588, 0.807601767264307 ], [ -74.068317909508579, 0.40420946636593 ] ] ] ] } },
{ "type": "Feature", "properties": { "geogrid_id": "5100000000076405350", "seqnum": 3324.0, "lat_c": -2.424247e-09, "lon_c": -76.405349790976828, "res": 7.0, "count_Amphibians": 34, "count_Reptiles": 34, "count_Mosses": 3, "count_Ferns": 3, "count_Flowering Plants": 194, "count_Insects": 151, "count_Birds": 159, "count_Mammals": 14, "count_Sac Fungi": 3, "count_Molluscs": 3, "count_Arachnids": 25, "count_Basidiomycota": 13, "count_Gymnosperms": 1, "unique_species_count": 637.0, "countryCode": "CO" }, "geometry": { "type": "MultiPolygon", "coordinates": [ [ [ [ -75.625464033596032, 0.403389997129918 ], [ -75.625464033572641, -0.403390001860933 ], [ -76.404985789853555, -0.805889815870447 ], [ -77.185920027224753, -0.402493905878271 ], [ -77.185920027246596, 0.402493900912715 ], [ -76.404985789898788, 0.805889811022055 ], [ -75.625464033596032, 0.403389997129918 ] ] ] ] } },
{ "type": "Feature", "properties": { "geogrid_id": "5101204524078750000", "seqnum": 3242.0, "lat_c": 1.2045240459420761, "lon_c": -78.750000000290441, "res": 7.0, "count_Amphibians": 21, "count_Reptiles": 50, "count_Mosses": 14, "count_Ferns": 32, "count_Flowering Plants": 729, "count_Insects": 277, "count_Birds": 234, "count_Mammals": 13, "count_Sac Fungi": 46, "count_Molluscs": 25, "count_Arachnids": 7, "count_Basidiomycota": 8, "count_Gymnosperms": 0, "unique_species_count": 1456.0, "countryCode": "CO" }, "geometry": { "type": "MultiPolygon", "coordinates": [ [ [ [ -77.967050952828686, 1.607961663122306 ], [ -77.967399936547707, 0.804023326275376 ], [ -78.750000000269921, 0.40152071122267 ], [ -79.532600063494471, 0.804023331357594 ], [ -79.53294904725567, 1.60796166820437 ], [ -78.750000000311175, 2.007413123822702 ], [ -77.967050952828686, 1.607961663122306 ] ] ] ] } },
{ "type": "Feature", "properties": { "geogrid_id": "5101207434077185445", "seqnum": 3269.0, "lat_c": 1.207434204832001, "lon_c": -77.185445114821761, "res": 7.0, "count_Amphibians": 61, "count_Reptiles": 92, "count_Mosses": 72, "count_Ferns": 97, "count_Flowering Plants": 1897, "count_Insects": 1159, "count_Birds": 510, "count_Mammals": 55, "count_Sac Fungi": 118, "count_Molluscs": 10, "count_Arachnids": 60, "count_Basidiomycota": 40, "count_Gymnosperms": 4, "unique_species_count": 4175.0, "countryCode": "CO" }, "geometry": { "type": "MultiPolygon", "coordinates": [ [ [ [ -76.403893529226508, 1.611673228348425 ], [ -76.404985789898788, 0.805889811022055 ], [ -77.185920027246596, 0.402493900912715 ], [ -77.967399936547707, 0.804023326275376 ], [ -77.967050952828686, 1.607961663122306 ], [ -77.184494939503935, 2.012232032144217 ], [ -76.403893529226508, 1.611673228348425 ] ] ] ] } },
{ "type": "Feature", "properties": { "geogrid_id": "5101207434080314555", "seqnum": 11989.0, "lat_c": 1.207434209797402, "lon_c": -80.314554885243794, "res": 7.0, "count_Amphibians": 0, "count_Reptiles": 0, "count_Mosses": 0, "count_Ferns": 0, "count_Flowering Plants": 0, "count_Insects": 0, "count_Birds": 2, "count_Mammals": 7, "count_Sac Fungi": 0, "count_Molluscs": 0, "count_Arachnids": 0, "count_Basidiomycota": 0, "count_Gymnosperms": 0, "unique_species_count": 9.0, "countryCode": "CO" }, "geometry": { "type": "MultiPolygon", "coordinates": [ [ [ [ -79.53294904725567, 1.60796166820437 ], [ -79.532600063494471, 0.804023331357594 ], [ -80.314079972775261, 0.402493905878266 ], [ -81.095014210146445, 0.805889815870443 ], [ -81.096106470863973, 1.611673233196508 ], [ -80.315505060605332, 2.012232037109318 ], [ -79.53294904725567, 1.60796166820437 ] ] ] ] } },
{ "type": "Feature", "properties": { "geogrid_id": "5101210110075624471", "seqnum": 3297.0, "lat_c": 1.210110275358026, "lon_c": -75.62447056006701, "res": 7.0, "count_Amphibians": 47, "count_Reptiles": 91, "count_Mosses": 1, "count_Ferns": 24, "count_Flowering Plants": 572, "count_Insects": 645, "count_Birds": 360, "count_Mammals": 106, "count_Sac Fungi": 16, "count_Molluscs": 6, "count_Arachnids": 22, "count_Basidiomycota": 42, "count_Gymnosperms": 0, "unique_species_count": 1932.0, "countryCode": "CO" }, "geometry": { "type": "MultiPolygon", "coordinates": [ [ [ [ -74.844109977837093, 1.615069139927048 ], [ -74.846019398763588, 0.807601767264307 ], [ -75.625464033596032, 0.403389997129918 ], [ -76.404985789898788, 0.805889811022055 ], [ -76.403893529226508, 1.611673228348425 ], [ -75.622482945535495, 2.016651439060419 ], [ -74.844109977837093, 1.615069139927048 ] ] ] ] } },
{ "type": "Feature", "properties": { "geogrid_id": "5101210110081875529", "seqnum": 11961.0, "lat_c": 1.210110280088776, "lon_c": -81.875529440003149, "res": 7.0, "count_Amphibians": 0, "count_Reptiles": 1, "count_Mosses": 0, "count_Ferns": 0, "count_Flowering Plants": 0, "count_Insects": 0, "count_Birds": 0, "count_Mammals": 3, "count_Sac Fungi": 0, "count_Molluscs": 0, "count_Arachnids": 0, "count_Basidiomycota": 0, "count_Gymnosperms": 0, "unique_species_count": 4.0, "countryCode": "CO" }, "geometry": { "type": "MultiPolygon", "coordinates": [ [ [ [ -81.096106470863973, 1.611673233196509 ], [ -81.095014210146445, 0.805889815870443 ], [ -81.874535966427359, 0.403390001860929 ], [ -82.653980601284744, 0.807601771877396 ], [ -82.655890022259584, 1.615069144539646 ], [ -81.87751705458146, 2.016651443790646 ], [ -81.096106470863973, 1.611673233196509 ] ] ] ] } },
{ "type": "Feature", "properties": { "geogrid_id": "5101212553074066750", "seqnum": 3325.0, "lat_c": 1.2125525595952411, "lon_c": -74.066749962818093, "res": 7.0, "count_Amphibians": 1, "count_Reptiles": 6, "count_Mosses": 0, "count_Ferns": 0, "count_Flowering Plants": 13, "count_Insects": 4, "count_Birds": 62, "count_Mammals": 4, "count_Sac Fungi": 0, "count_Molluscs": 0, "count_Arachnids": 0, "count_Basidiomycota": 1, "count_Gymnosperms": 0, "unique_species_count": 91.0, "countryCode": "CO" }, "geometry": { "type": "MultiPolygon", "coordinates": [ [ [ [ -73.287361548296616, 1.618147723316188 ], [ -73.290183851026057, 0.809159717732972 ], [ -74.068317909508579, 0.40420946636593 ], [ -74.846019398763588, 0.807601767264307 ], [ -74.844109977837093, 1.615069139927048 ], [ -74.063613153747241, 2.020668194317039 ], [ -73.287361548296616, 1.618147723316188 ] ] ] ] } },
{ "type": "Feature", "properties": { "geogrid_id": "5101212553083433250", "seqnum": 11934.0, "lat_c": 1.212552564089922, "lon_c": -83.433250037256784, "res": 7.0, "count_Amphibians": 0, "count_Reptiles": 1, "count_Mosses": 0, "count_Ferns": 0, "count_Flowering Plants": 0, "count_Insects": 0, "count_Birds": 0, "count_Mammals": 4, "count_Sac Fungi": 0, "count_Molluscs": 0, "count_Arachnids": 0, "count_Basidiomycota": 0, "count_Gymnosperms": 0, "unique_species_count": 5.0, "countryCode": "CO" }, "geometry": { "type": "MultiPolygon", "coordinates": [ [ [ [ -82.655890022259584, 1.615069144539646 ], [ -82.653980601284744, 0.807601771877396 ], [ -83.431682090516375, 0.404209470861014 ], [ -84.209816149025485, 0.809159722109433 ], [ -84.21263845180647, 1.618147727691916 ], [ -83.436386846377587, 2.020668198810914 ], [ -82.655890022259584, 1.615069144539646 ] ] ] ] } },
{ "type": "Feature", "properties": { "geogrid_id": "5101214761072511957", "seqnum": 3352.0, "lat_c": 1.2147605343178289, "lon_c": -72.511956875967201, "res": 7.0, "count_Amphibians": 2, "count_Reptiles": 6, "count_Mosses": 0, "count_Ferns": 0, "count_Flowering Plants": 28, "count_Insects": 8, "count_Birds": 20, "count_Mammals": 45, "count_Sac Fungi": 0, "count_Molluscs": 0, "count_Arachnids": 1, "count_Basidiomycota": 0, "count_Gymnosperms": 0, "unique_species_count": 110.0, "countryCode": "CO" }, "geometry": { "type": "MultiPolygon", "coordinates": [ [ [ [ -71.733301976377405, 1.620904995136929 ], [ -71.737164442092094, 0.810563825829235 ], [ -72.514172649424935, 0.404952702166931 ], [ -73.290183851026057, 0.809159717732972 ], [ -73.287361548296616, 1.618147723316188 ], [ -72.50752429879806, 2.024275754513042 ], [ -71.733301976377405, 1.620904995136929 ] ] ] ] } },
{ "type": "Feature", "properties": { "geogrid_id": "5101216732070959761", "seqnum": 3380.0, "lat_c": 1.216732346947148, "lon_c": -70.959760765725122, "res": 7.0, "count_Amphibians": 8, "count_Reptiles": 26, "count_Mosses": 6, "count_Ferns": 6, "count_Flowering Plants": 288, "count_Insects": 450, "count_Birds": 183, "count_Mammals": 16, "count_Sac Fungi": 3, "count_Molluscs": 1, "count_Arachnids": 16, "count_Basidiomycota": 8, "count_Gymnosperms": 0, "unique_species_count": 1011.0, "countryCode": "CO" }, "geometry": { "type": "MultiPolygon", "coordinates": [ [ [ [ -70.181568815205551, 1.623332985528157 ], [ -70.1866460710214, 0.811813687488524 ], [ -70.962723382975938, 0.405620007650946 ], [ -71.737164442092094, 0.810563825829235 ], [ -71.733301976377405, 1.620904995136929 ], [ -70.953834644080828, 2.027461842150242 ], [ -70.181568815205551, 1.623332985528157 ] ] ] ] } },
{ "type": "Feature", "properties": { "geogrid_id": "5101218464069409820", "seqnum": 3408.0, "lat_c": 1.218463807900791, "lon_c": -69.409820287175506, "res": 7.0, "count_Amphibians": 5, "count_Reptiles": 15, "count_Mosses": 0, "count_Ferns": 2, "count_Flowering Plants": 109, "count_Insects": 194, "count_Birds": 105, "count_Mammals": 12, "count_Sac Fungi": 0, "count_Molluscs": 0, "count_Arachnids": 4, "count_Basidiomycota": 5, "count_Gymnosperms": 0, "unique_species_count": 451.0, "countryCode": "CO" }, "geometry": { "type": "MultiPolygon", "coordinates": [ [ [ [ -68.631767867458606, 1.625416268651198 ], [ -68.638308922174033, 0.812907898288315 ], [ -69.413668126310313, 0.406211559212078 ], [ -70.1866460710214, 0.811813687488524 ], [ -70.181568815205551, 1.623332985528157 ], [ -69.402124372842579, 2.030203781413085 ], [ -68.631767867458606, 1.625416268651198 ] ] ] ] } },
{ "type": "Feature", "properties": { "geogrid_id": "5102411730077966469", "seqnum": 3215.0, "lat_c": 2.4117300688991379, "lon_c": -77.966469016704309, "res": 7.0, "count_Amphibians": 23, "count_Reptiles": 54, "count_Mosses": 44, "count_Ferns": 14, "count_Flowering Plants": 213, "count_Insects": 151, "count_Birds": 102, "count_Mammals": 24, "count_Sac Fungi": 1, "count_Molluscs": 236, "count_Arachnids": 8, "count_Basidiomycota": 2, "count_Gymnosperms": 2, "unique_species_count": 874.0, "countryCode": "CO" }, "geometry": { "type": "MultiPolygon", "coordinates": [ [ [ [ -77.183068799956331, 2.816792505084145 ], [ -77.184494939503935, 2.012232032144217 ], [ -77.967050952828686, 1.607961663122306 ], [ -78.750000000311175, 2.007413123822702 ], [ -78.750000000332136, 2.810111846723043 ], [ -77.965653682872315, 3.215243710161247 ], [ -77.183068799956331, 2.816792505084145 ] ] ] ] } },
{ "type": "Feature", "properties": { "geogrid_id": "5102411730079533531", "seqnum": 11962.0, "lat_c": 2.4117300739809449, "lon_c": -79.533530983422253, "res": 7.0, "count_Amphibians": 0, "count_Reptiles": 1, "count_Mosses": 0, "count_Ferns": 0, "count_Flowering Plants": 0, "count_Insects": 0, "count_Birds": 5, "count_Mammals": 8, "count_Sac Fungi": 0, "count_Molluscs": 0, "count_Arachnids": 0, "count_Basidiomycota": 0, "count_Gymnosperms": 0, "unique_species_count": 14.0, "countryCode": "CO" }, "geometry": { "type": "MultiPolygon", "coordinates": [ [ [ [ -78.749999999810214, 2.810111851921242 ], [ -78.749999999790461, 2.007413129021082 ], [ -79.53294904725567, 1.60796166820437 ], [ -80.315505060605332, 2.012232037109318 ], [ -80.316931200196692, 2.816792510048796 ], [ -79.534346317296496, 3.215243715242693 ], [ -78.749999999810214, 2.810111851921242 ] ] ] ] } },
{ "type": "Feature", "properties": { "geogrid_id": "5102417244076402072", "seqnum": 3243.0, "lat_c": 2.4172439313537568, "lon_c": -76.40207223649341, "res": 7.0, "count_Amphibians": 30, "count_Reptiles": 70, "count_Mosses": 105, "count_Ferns": 73, "count_Flowering Plants": 1677, "count_Insects": 553, "count_Birds": 479, "count_Mammals": 112, "count_Sac Fungi": 92, "count_Molluscs": 13, "count_Arachnids": 36, "count_Basidiomycota": 35, "count_Gymnosperms": 3, "unique_species_count": 3278.0, "countryCode": "CO" }, "geometry": { "type": "MultiPolygon", "coordinates": [ [ [ [ -75.619499854472906, 2.822894237664847 ], [ -75.622482945535495, 2.016651439060419 ], [ -76.403893529226508, 1.611673228348425 ], [ -77.184494939503935, 2.012232032144217 ], [ -77.183068799956331, 2.816792505084145 ], [ -76.399520623295402, 3.222495757529841 ], [ -75.619499854472906, 2.822894237664847 ] ] ] ] } },
{ "type": "Feature", "properties": { "geogrid_id": "5102417244081097928", "seqnum": 11935.0, "lat_c": 2.4172439362013338, "lon_c": -81.097927763642332, "res": 7.0, "count_Amphibians": 0, "count_Reptiles": 1, "count_Mosses": 0, "count_Ferns": 0, "count_Flowering Plants": 0, "count_Insects": 0, "count_Birds": 1, "count_Mammals": 6, "count_Sac Fungi": 0, "count_Molluscs": 0, "count_Arachnids": 0, "count_Basidiomycota": 0, "count_Gymnosperms": 0, "unique_species_count": 8.0, "countryCode": "CO" }, "geometry": { "type": "MultiPolygon", "coordinates": [ [ [ [ -80.316931200196692, 2.816792510048796 ], [ -80.315505060605332, 2.012232037109318 ], [ -81.096106470863973, 1.611673233196508 ], [ -81.87751705458146, 2.016651443790646 ], [ -81.880500145690888, 2.822894242394288 ], [ -81.100479376885659, 3.222495762376708 ], [ -80.316931200196692, 2.816792510048796 ] ] ] ] } },
{ "type": "Feature", "properties": { "geogrid_id": "5102422268074840926", "seqnum": 3270.0, "lat_c": 2.4222678367248962, "lon_c": -74.840926270640566, "res": 7.0, "count_Amphibians": 43, "count_Reptiles": 74, "count_Mosses": 19, "count_Ferns": 8, "count_Flowering Plants": 625, "count_Insects": 413, "count_Birds": 251, "count_Mammals": 36, "count_Sac Fungi": 13, "count_Molluscs": 3, "count_Arachnids": 33, "count_Basidiomycota": 28, "count_Gymnosperms": 1, "unique_species_count": 1547.0, "countryCode": "CO" }, "geometry": { "type": "MultiPolygon", "coordinates": [ [ [ [ -74.058905650535323, 2.828404976296476 ], [ -74.063613153747241, 2.020668194317039 ], [ -74.844109977837093, 1.615069139927048 ], [ -75.622482945535495, 2.016651439060419 ], [ -75.619499854472906, 2.822894237664847 ], [ -74.83646626769405, 3.229063814339212 ], [ -74.058905650535323, 2.828404976296476 ] ] ] ] } },
{ "type": "Feature", "properties": { "geogrid_id": "5102422268082659074", "seqnum": 11907.0, "lat_c": 2.4222678413366729, "lon_c": -82.659073729504499, "res": 7.0, "count_Amphibians": 0, "count_Reptiles": 1, "count_Mosses": 0, "count_Ferns": 0, "count_Flowering Plants": 0, "count_Insects": 0, "count_Birds": 0, "count_Mammals": 10, "count_Sac Fungi": 0, "count_Molluscs": 0, "count_Arachnids": 0, "count_Basidiomycota": 0, "count_Gymnosperms": 0, "unique_species_count": 11.0, "countryCode": "CO" }, "geometry": { "type": "MultiPolygon", "coordinates": [ [ [ [ -81.880500145690888, 2.822894242394288 ], [ -81.87751705458146, 2.016651443790646 ], [ -82.655890022259584, 1.615069144539646 ], [ -83.436386846377587, 2.020668198810914 ], [ -83.441094349639485, 2.828404980789141 ], [ -82.663533732499431, 3.22906381894984 ], [ -81.880500145690888, 2.822894242394288 ] ] ] ] } },
{ "type": "Feature", "properties": { "geogrid_id": "5102426792073282656", "seqnum": 3298.0, "lat_c": 2.4267924849569358, "lon_c": -73.282656051191012, "res": 7.0, "count_Amphibians": 23, "count_Reptiles": 62, "count_Mosses": 7, "count_Ferns": 7, "count_Flowering Plants": 404, "count_Insects": 482, "count_Birds": 273, "count_Mammals": 89, "count_Sac Fungi": 8, "count_Molluscs": 2, "count_Arachnids": 21, "count_Basidiomycota": 21, "count_Gymnosperms": 1, "unique_species_count": 1400.0, "countryCode": "CO" }, "geometry": { "type": "MultiPolygon", "coordinates": [ [ [ [ -72.500872857746913, 2.833303678982032 ], [ -72.50752429879806, 2.024275754513042 ], [ -73.287361548296616, 1.618147723316188 ], [ -74.063613153747241, 2.020668194317039 ], [ -74.058905650535323, 2.828404976296476 ], [ -73.276064870645001, 3.234922842011507 ], [ -72.500872857746913, 2.833303678982032 ] ] ] ] } },
{ "type": "Feature", "properties": { "geogrid_id": "5102426792084217344", "seqnum": 11879.0, "lat_c": 2.426792489331441, "lon_c": -84.217343948963645, "res": 7.0, "count_Amphibians": 0, "count_Reptiles": 1, "count_Mosses": 0, "count_Ferns": 0, "count_Flowering Plants": 0, "count_Insects": 0, "count_Birds": 0, "count_Mammals": 3, "count_Sac Fungi": 0, "count_Molluscs": 0, "count_Arachnids": 0, "count_Basidiomycota": 0, "count_Gymnosperms": 0, "unique_species_count": 4.0, "countryCode": "CO" }, "geometry": { "type": "MultiPolygon", "coordinates": [ [ [ [ -83.441094349639485, 2.828404980789141 ], [ -83.436386846377587, 2.020668198810914 ], [ -84.21263845180647, 1.618147727691916 ], [ -84.992475701334953, 2.024275758769191 ], [ -84.999127142439363, 2.833303683236418 ], [ -84.223935129561298, 3.2349228463843 ], [ -83.441094349639485, 2.828404980789141 ] ] ] ] } },
{ "type": "Feature", "properties": { "geogrid_id": "5102430801071726863", "seqnum": 3326.0, "lat_c": 2.4308011486264069, "lon_c": -71.726862863172968, "res": 7.0, "count_Amphibians": 12, "count_Reptiles": 21, "count_Mosses": 0, "count_Ferns": 0, "count_Flowering Plants": 46, "count_Insects": 33, "count_Birds": 88, "count_Mammals": 27, "count_Sac Fungi": 5, "count_Molluscs": 0, "count_Arachnids": 6, "count_Basidiomycota": 20, "count_Gymnosperms": 0, "unique_species_count": 258.0, "countryCode": "CO" }, "geometry": { "type": "MultiPolygon", "coordinates": [ [ [ [ -70.944943245386582, 2.837553916392064 ], [ -70.953834644080828, 2.027461842150242 ], [ -71.733301976377405, 1.620904995136929 ], [ -72.50752429879806, 2.024275754513042 ], [ -72.500872857746913, 2.833303678982032 ], [ -71.717844598494381, 3.240030530771381 ], [ -70.944943245386582, 2.837553916392064 ] ] ] ] } },
{ "type": "Feature", "properties": { "geogrid_id": "5102434264070173106", "seqnum": 3353.0, "lat_c": 2.4342640169547152, "lon_c": -70.173105641192492, "res": 7.0, "count_Amphibians": 5, "count_Reptiles": 14, "count_Mosses": 0, "count_Ferns": 0, "count_Flowering Plants": 7, "count_Insects": 11, "count_Birds": 57, "count_Mammals": 4, "count_Sac Fungi": 0, "count_Molluscs": 0, "count_Arachnids": 0, "count_Basidiomycota": 0, "count_Gymnosperms": 0, "unique_species_count": 98.0, "countryCode": "CO" }, "geometry": { "type": "MultiPolygon", "coordinates": [ [ [ [ -69.390579914279797, 2.841091112491892 ], [ -69.402124372842579, 2.030203781413085 ], [ -70.181568815205551, 1.623332985528157 ], [ -70.953834644080828, 2.027461842150242 ], [ -70.944943245386582, 2.837553916392064 ], [ -70.161254931641864, 3.244313936684571 ], [ -69.390579914279797, 2.841091112491892 ] ] ] ] } },
{ "type": "Feature", "properties": { "geogrid_id": "5102437127068620867", "seqnum": 3381.0, "lat_c": 2.4371265183425108, "lon_c": -68.620866825986226, "res": 7.0, "count_Amphibians": 0, "count_Reptiles": 3, "count_Mosses": 0, "count_Ferns": 0, "count_Flowering Plants": 17, "count_Insects": 3, "count_Birds": 4, "count_Mammals": 0, "count_Sac Fungi": 0, "count_Molluscs": 0, "count_Arachnids": 0, "count_Basidiomycota": 0, "count_Gymnosperms": 0, "unique_species_count": 27.0, "countryCode": "CO" }, "geometry": { "type": "MultiPolygon", "coordinates": [ [ [ [ -67.83710312886214, 2.843795123008217 ], [ -67.851902326509801, 2.032458460343092 ], [ -68.631767867458606, 1.625416268651198 ], [ -69.402124372842579, 2.030203781413085 ], [ -69.390579914279797, 2.841091112491892 ], [ -68.605606878076983, 3.247641928759192 ], [ -67.83710312886214, 2.843795123008217 ] ] ] ] } },
{ "type": "Feature", "properties": { "geogrid_id": "5102439283067069485", "seqnum": 3409.0, "lat_c": 2.4392830242691468, "lon_c": -67.069484861444266, "res": 7.0, "count_Amphibians": 0, "count_Reptiles": 0, "count_Mosses": 0, "count_Ferns": 0, "count_Flowering Plants": 6, "count_Insects": 1, "count_Birds": 2, "count_Mammals": 0, "count_Sac Fungi": 0, "count_Molluscs": 0, "count_Arachnids": 0, "count_Basidiomycota": 0, "count_Gymnosperms": 0, "unique_species_count": 9.0, "countryCode": "CO" }, "geometry": { "type": "MultiPolygon", "coordinates": [ [ [ [ -66.283557450496389, 2.845425227119928 ], [ -66.302537248225974, 2.03413849526254 ], [ -67.083442663780829, 1.627124138524108 ], [ -67.851902326509801, 2.032458460343092 ], [ -67.83710312886214, 2.843795123008217 ], [ -67.049954638081516, 3.249763240335533 ], [ -66.283557450496389, 2.845425227119928 ] ] ] ] } },
{ "type": "Feature", "properties": { "geogrid_id": "5103612544078750000", "seqnum": 3161.0, "lat_c": 3.6125442260177518, "lon_c": -78.75000000035331, "res": 7.0, "count_Amphibians": 0, "count_Reptiles": 1, "count_Mosses": 0, "count_Ferns": 0, "count_Flowering Plants": 1, "count_Insects": 0, "count_Birds": 0, "count_Mammals": 7, "count_Sac Fungi": 0, "count_Molluscs": 0, "count_Arachnids": 0, "count_Basidiomycota": 0, "count_Gymnosperms": 0, "unique_species_count": 9.0, "countryCode": "CO" }, "geometry": { "type": "MultiPolygon", "coordinates": [ [ [ [ -77.964604327039652, 4.018417911742203 ], [ -77.965653682872315, 3.215243710161247 ], [ -78.750000000332136, 2.810111846723043 ], [ -79.534346317296496, 3.215243715242693 ], [ -79.53539567317145, 4.018417916823185 ], [ -78.750000000374712, 4.414634426183619 ], [ -77.964604327039652, 4.018417911742203 ] ] ] ] } },
{ "type": "Feature", "properties": { "geogrid_id": "5103621021077181166", "seqnum": 3188.0, "lat_c": 3.6210209056557252, "lon_c": -77.181165643062315, "res": 7.0, "count_Amphibians": 129, "count_Reptiles": 149, "count_Mosses": 38, "count_Ferns": 103, "count_Flowering Plants": 2931, "count_Insects": 1434, "count_Birds": 695, "count_Mammals": 92, "count_Sac Fungi": 20, "count_Molluscs": 201, "count_Arachnids": 126, "count_Basidiomycota": 77, "count_Gymnosperms": 11, "unique_species_count": 6006.0, "countryCode": "CO" }, "geometry": { "type": "MultiPolygon", "coordinates": [ [ [ [ -76.396236883848815, 4.027322777545881 ], [ -76.399520623295402, 3.222495757529841 ], [ -77.183068799956331, 2.816792505084145 ], [ -77.965653682872315, 3.215243710161247 ], [ -77.964604327039652, 4.018417911742203 ], [ -77.178784062588676, 4.424822739159987 ], [ -76.396236883848815, 4.027322777545881 ] ] ] ] } },
{ "type": "Feature", "properties": { "geogrid_id": "5103621021080318834", "seqnum": 11908.0, "lat_c": 3.6210209106197739, "lon_c": -80.31883435713452, "res": 7.0, "count_Amphibians": 0, "count_Reptiles": 1, "count_Mosses": 0, "count_Ferns": 0, "count_Flowering Plants": 0, "count_Insects": 2, "count_Birds": 1, "count_Mammals": 9, "count_Sac Fungi": 0, "count_Molluscs": 0, "count_Arachnids": 0, "count_Basidiomycota": 0, "count_Gymnosperms": 0, "unique_species_count": 13.0, "countryCode": "CO" }, "geometry": { "type": "MultiPolygon", "coordinates": [ [ [ [ -79.53539567317145, 4.018417916823185 ], [ -79.534346317296496, 3.215243715242693 ], [ -80.316931200196692, 2.816792510048796 ], [ -81.100479376885659, 3.222495762376708 ], [ -81.103763116377607, 4.027322782391834 ], [ -80.321215937652013, 4.424822744123283 ], [ -79.53539567317145, 4.018417916823185 ] ] ] ] } },
{ "type": "Feature", "properties": { "geogrid_id": "5103628720075615519", "seqnum": 3216.0, "lat_c": 3.628719658925271, "lon_c": -75.61551928201439, "res": 7.0, "count_Amphibians": 71, "count_Reptiles": 82, "count_Mosses": 69, "count_Ferns": 34, "count_Flowering Plants": 1973, "count_Insects": 831, "count_Birds": 578, "count_Mammals": 119, "count_Sac Fungi": 130, "count_Molluscs": 16, "count_Arachnids": 51, "count_Basidiomycota": 35, "count_Gymnosperms": 4, "unique_species_count": 3993.0, "countryCode": "CO" }, "geometry": { "type": "MultiPolygon", "coordinates": [ [ [ [ -74.830727153672925, 4.0353233822464 ], [ -74.83646626769405, 3.229063814339212 ], [ -75.619499854472906, 2.822894237664847 ], [ -76.399520623295402, 3.222495757529841 ], [ -76.396236883848815, 4.027322777545881 ], [ -75.610538552069102, 4.434009023571098 ], [ -74.830727153672925, 4.0353233822464 ] ] ] ] } },
{ "type": "Feature", "properties": { "geogrid_id": "5103628720081884481", "seqnum": 11880.0, "lat_c": 3.6287196636536638, "lon_c": -81.884480718196286, "res": 7.0, "count_Amphibians": 0, "count_Reptiles": 5, "count_Mosses": 0, "count_Ferns": 0, "count_Flowering Plants": 0, "count_Insects": 1, "count_Birds": 6, "count_Mammals": 11, "count_Sac Fungi": 0, "count_Molluscs": 9, "count_Arachnids": 0, "count_Basidiomycota": 0, "count_Gymnosperms": 0, "unique_species_count": 32.0, "countryCode": "CO" }, "geometry": { "type": "MultiPolygon", "coordinates": [ [ [ [ -81.103763116377607, 4.027322782391834 ], [ -81.100479376885659, 3.222495762376708 ], [ -81.880500145690888, 2.822894242394288 ], [ -82.663533732499431, 3.22906381894984 ], [ -82.669272846569044, 4.035323386855548 ], [ -81.889461448188541, 4.434009028298178 ], [ -81.103763116377607, 4.027322782391834 ] ] ] ] } },
{ "type": "Feature", "properties": { "geogrid_id": "5103635612074052625", "seqnum": 3244.0, "lat_c": 3.6356118778166189, "lon_c": -74.052624704463753, "res": 7.0, "count_Amphibians": 88, "count_Reptiles": 126, "count_Mosses": 198, "count_Ferns": 125, "count_Flowering Plants": 2666, "count_Insects": 1810, "count_Birds": 589, "count_Mammals": 144, "count_Sac Fungi": 171, "count_Molluscs": 18, "count_Arachnids": 88, "count_Basidiomycota": 151, "count_Gymnosperms": 4, "unique_species_count": 6178.0, "countryCode": "CO" }, "geometry": { "type": "MultiPolygon", "coordinates": [ [ [ [ -73.267584521458062, 4.042368186011308 ], [ -73.276064870645001, 3.234922842011507 ], [ -74.058905650535323, 2.828404976296476 ], [ -74.83646626769405, 3.229063814339212 ], [ -74.830727153672925, 4.0353233822464 ], [ -74.044766648561477, 4.44213838301348 ], [ -73.267584521458062, 4.042368186011308 ] ] ] ] } },
{ "type": "Feature", "properties": { "geogrid_id": "5103635612083447375", "seqnum": 11853.0, "lat_c": 3.6356118823076691, "lon_c": -83.447375295761105, "res": 7.0, "count_Amphibians": 0, "count_Reptiles": 1, "count_Mosses": 0, "count_Ferns": 0, "count_Flowering Plants": 0, "count_Insects": 0, "count_Birds": 3, "count_Mammals": 6, "count_Sac Fungi": 0, "count_Molluscs": 0, "count_Arachnids": 0, "count_Basidiomycota": 0, "count_Gymnosperms": 0, "unique_species_count": 10.0, "countryCode": "CO" }, "geometry": { "type": "MultiPolygon", "coordinates": [ [ [ [ -82.669272846569044, 4.035323386855548 ], [ -82.663533732499431, 3.22906381894984 ], [ -83.441094349639485, 2.828404980789141 ], [ -84.223935129561298, 3.2349228463843 ], [ -84.232415478799936, 4.042368190381897 ], [ -83.455233351713503, 4.442138387502508 ], [ -82.669272846569044, 4.035323386855548 ] ] ] ] } },
{ "type": "Feature", "properties": { "geogrid_id": "5103641650072491999", "seqnum": 3271.0, "lat_c": 3.6416502090022211, "lon_c": -72.491999463266467, "res": 7.0, "count_Amphibians": 36, "count_Reptiles": 64, "count_Mosses": 201, "count_Ferns": 300, "count_Flowering Plants": 1286, "count_Insects": 268, "count_Birds": 356, "count_Mammals": 67, "count_Sac Fungi": 45, "count_Molluscs": 4, "count_Arachnids": 50, "count_Basidiomycota": 19, "count_Gymnosperms": 0, "unique_species_count": 2696.0, "countryCode": "CO" }, "geometry": { "type": "MultiPolygon", "coordinates": [ [ [ [ -71.706243679778012, 4.048372286034435 ], [ -71.717844598494381, 3.240030530771381 ], [ -72.500872857746913, 2.833303678982032 ], [ -73.276064870645001, 3.234922842011507 ], [ -73.267584521458062, 4.042368186011308 ], [ -72.480899997282791, 4.449122062420845 ], [ -71.706243679778012, 4.048372286034435 ] ] ] ] } },
{ "type": "Feature", "properties": { "geogrid_id": "5103641650085008001", "seqnum": 11825.0, "lat_c": 3.641650213254255, "lon_c": -85.008000536973142, "res": 7.0, "count_Amphibians": 0, "count_Reptiles": 0, "count_Mosses": 0, "count_Ferns": 0, "count_Flowering Plants": 0, "count_Insects": 0, "count_Birds": 0, "count_Mammals": 2, "count_Sac Fungi": 0, "count_Molluscs": 0, "count_Arachnids": 0, "count_Basidiomycota": 0, "count_Gymnosperms": 0, "unique_species_count": 2.0, "countryCode": "CO" }, "geometry": { "type": "MultiPolygon", "coordinates": [ [ [ [ -84.232415478799936, 4.042368190381897 ], [ -84.223935129561298, 3.2349228463843 ], [ -84.999127142439363, 2.833303683236418 ], [ -85.782155401725419, 3.240030534904756 ], [ -85.793756320496854, 4.048372290164651 ], [ -85.019100003010223, 4.449122066669936 ], [ -84.232415478799936, 4.042368190381897 ] ] ] ] } },
{ "type": "Feature", "properties": { "geogrid_id": "5103646755070933084", "seqnum": 3299.0, "lat_c": 3.6467549689709031, "lon_c": -70.933083914584856, "res": 7.0, "count_Amphibians": 18, "count_Reptiles": 33, "count_Mosses": 0, "count_Ferns": 5, "count_Flowering Plants": 336, "count_Insects": 7, "count_Birds": 183, "count_Mammals": 37, "count_Sac Fungi": 0, "count_Molluscs": 0, "count_Arachnids": 1, "count_Basidiomycota": 0, "count_Gymnosperms": 0, "unique_species_count": 620.0, "countryCode": "CO" }, "geometry": { "type": "MultiPolygon", "coordinates": [ [ [ [ -70.146014430484612, 4.053191439246355 ], [ -70.161254931641864, 3.244313936684571 ], [ -70.944943245386582, 2.837553916392064 ], [ -71.717844598494381, 3.240030530771381 ], [ -71.706243679778012, 4.048372286034435 ], [ -70.918253118921641, 4.454812760587242 ], [ -70.146014430484612, 4.053191439246355 ] ] ] ] } },
{ "type": "Feature", "properties": { "geogrid_id": "5103650787069375186", "seqnum": 3327.0, "lat_c": 3.650787152191258, "lon_c": -69.375186215510411, "res": 7.0, "count_Amphibians": 1, "count_Reptiles": 6, "count_Mosses": 0, "count_Ferns": 0, "count_Flowering Plants": 18, "count_Insects": 4, "count_Birds": 9, "count_Mammals": 0, "count_Sac Fungi": 0, "count_Molluscs": 0, "count_Arachnids": 2, "count_Basidiomycota": 0, "count_Gymnosperms": 0, "unique_species_count": 40.0, "countryCode": "CO" }, "geometry": { "type": "MultiPolygon", "coordinates": [ [ [ [ -68.585989547548735, 4.056568576402356 ], [ -68.605606878076983, 3.247641928759192 ], [ -69.390579914279797, 2.841091112491892 ], [ -70.161254931641864, 3.244313936684571 ], [ -70.146014430484612, 4.053191439246355 ], [ -69.355942362655611, 4.458955645295832 ], [ -68.585989547548735, 4.056568576402356 ] ] ] ] } },
{ "type": "Feature", "properties": { "geogrid_id": "5103653491067817378", "seqnum": 3354.0, "lat_c": 3.6534905086908571, "lon_c": -67.817377714218225, "res": 7.0, "count_Amphibians": 12, "count_Reptiles": 42, "count_Mosses": 4, "count_Ferns": 6, "count_Flowering Plants": 227, "count_Insects": 258, "count_Birds": 301, "count_Mammals": 17, "count_Sac Fungi": 1, "count_Molluscs": 1, "count_Arachnids": 11, "count_Basidiomycota": 12, "count_Gymnosperms": 0, "unique_species_count": 892.0, "countryCode": "CO" }, "geometry": { "type": "MultiPolygon", "coordinates": [ [ [ [ -67.024862687020189, 4.058013772720631 ], [ -67.049954638081516, 3.249763240335533 ], [ -67.83710312886214, 2.843795123008217 ], [ -68.605606878076983, 3.247641928759192 ], [ -68.585989547548735, 4.056568576402356 ], [ -67.792731966538184, 4.461083419312829 ], [ -67.024862687020189, 4.058013772720631 ] ] ] ] } },
{ "type": "Feature", "properties": { "geogrid_id": "5104821168077963320", "seqnum": 3134.0, "lat_c": 4.8211682091299881, "lon_c": -77.963320145049877, "res": 7.0, "count_Amphibians": 2, "count_Reptiles": 3, "count_Mosses": 7, "count_Ferns": 28, "count_Flowering Plants": 243, "count_Insects": 1, "count_Birds": 7, "count_Mammals": 9, "count_Sac Fungi": 0, "count_Molluscs": 15, "count_Arachnids": 0, "count_Basidiomycota": 0, "count_Gymnosperms": 2, "unique_species_count": 317.0, "countryCode": "CO" }, "geometry": { "type": "MultiPolygon", "coordinates": [ [ [ [ -77.175922297398344, 5.228103797344676 ], [ -77.178784062588676, 4.424822739159987 ], [ -77.964604327039652, 4.018417911742203 ], [ -78.750000000374712, 4.414634426183619 ], [ -78.750000000396355, 5.216306808165763 ], [ -77.961800151757302, 5.623410400516167 ], [ -77.175922297398344, 5.228103797344676 ] ] ] ] } },
{ "type": "Feature", "properties": { "geogrid_id": "5104821168079536680", "seqnum": 11881.0, "lat_c": 4.821168214210398, "lon_c": -79.536679855203602, "res": 7.0, "count_Amphibians": 0, "count_Reptiles": 2, "count_Mosses": 0, "count_Ferns": 0, "count_Flowering Plants": 0, "count_Insects": 0, "count_Birds": 2, "count_Mammals": 11, "count_Sac Fungi": 0, "count_Molluscs": 0, "count_Arachnids": 0, "count_Basidiomycota": 0, "count_Gymnosperms": 0, "unique_species_count": 15.0, "countryCode": "CO" }, "geometry": { "type": "MultiPolygon", "coordinates": [ [ [ [ -78.749999999868379, 5.216306813363046 ], [ -78.749999999849166, 4.41463443138127 ], [ -79.53539567317145, 4.018417916823185 ], [ -80.321215937652013, 4.424822744123283 ], [ -80.324077702886299, 5.228103802307063 ], [ -79.538199848538611, 5.6234104055959 ], [ -78.749999999868379, 5.216306813363046 ] ] ] ] } },
{ "type": "Feature", "properties": { "geogrid_id": "5104831619076392219", "seqnum": 3162.0, "lat_c": 4.8316193723000689, "lon_c": -76.392218692967433, "res": 7.0, "count_Amphibians": 133, "count_Reptiles": 144, "count_Mosses": 100, "count_Ferns": 171, "count_Flowering Plants": 2959, "count_Insects": 2220, "count_Birds": 629, "count_Mammals": 138, "count_Sac Fungi": 111, "count_Molluscs": 17, "count_Arachnids": 71, "count_Basidiomycota": 58, "count_Gymnosperms": 8, "unique_species_count": 6759.0, "countryCode": "CO" }, "geometry": { "type": "MultiPolygon", "coordinates": [ [ [ [ -75.604554314794981, 5.238644079278153 ], [ -75.610538552069102, 4.434009023571098 ], [ -76.396236883848815, 4.027322777545881 ], [ -77.178784062588676, 4.424822739159987 ], [ -77.175922297398344, 5.228103797344676 ], [ -76.387463203453706, 5.635280309396132 ], [ -75.604554314794981, 5.238644079278153 ] ] ] ] } },
{ "type": "Feature", "properties": { "geogrid_id": "5104831619081107781", "seqnum": 11854.0, "lat_c": 4.8316193771449001, "lon_c": -81.10778130730445, "res": 7.0, "count_Amphibians": 0, "count_Reptiles": 0, "count_Mosses": 0, "count_Ferns": 0, "count_Flowering Plants": 0, "count_Insects": 0, "count_Birds": 4, "count_Mammals": 9, "count_Sac Fungi": 0, "count_Molluscs": 0, "count_Arachnids": 0, "count_Basidiomycota": 0, "count_Gymnosperms": 0, "unique_species_count": 13.0, "countryCode": "CO" }, "geometry": { "type": "MultiPolygon", "coordinates": [ [ [ [ -80.324077702886299, 5.228103802307063 ], [ -80.321215937652013, 4.424822744123283 ], [ -81.103763116377607, 4.027322782391834 ], [ -81.889461448188541, 4.434009028298178 ], [ -81.895445685509728, 5.238644084003654 ], [ -81.112536796863708, 5.635280314239635 ], [ -80.324077702886299, 5.228103802307063 ] ] ] ] } },
{ "type": "Feature", "properties": { "geogrid_id": "5104840913074823705", "seqnum": 3189.0, "lat_c": 4.840913319083386, "lon_c": -74.823705305351382, "res": 7.0, "count_Amphibians": 155, "count_Reptiles": 167, "count_Mosses": 344, "count_Ferns": 304, "count_Flowering Plants": 5371, "count_Insects": 3245, "count_Birds": 841, "count_Mammals": 220, "count_Sac Fungi": 337, "count_Molluscs": 48, "count_Arachnids": 160, "count_Basidiomycota": 206, "count_Gymnosperms": 30, "unique_species_count": 11428.0, "countryCode": "CO" }, "geometry": { "type": "MultiPolygon", "coordinates": [ [ [ [ -74.035326895876523, 5.247834631945656 ], [ -74.044766648561477, 4.44213838301348 ], [ -74.830727153672925, 4.0353233822464 ], [ -75.610538552069102, 4.434009023571098 ], [ -75.604554314794981, 5.238644079278153 ], [ -74.815396288952755, 5.645700987962686 ], [ -74.035326895876523, 5.247834631945656 ] ] ] ] } },
{ "type": "Feature", "properties": { "geogrid_id": "5104840913082676295", "seqnum": 11826.0, "lat_c": 4.8409133236907227, "lon_c": -82.676294694939159, "res": 7.0, "count_Amphibians": 0, "count_Reptiles": 2, "count_Mosses": 0, "count_Ferns": 0, "count_Flowering Plants": 0, "count_Insects": 0, "count_Birds": 0, "count_Mammals": 7, "count_Sac Fungi": 0, "count_Molluscs": 0, "count_Arachnids": 0, "count_Basidiomycota": 0, "count_Gymnosperms": 0, "unique_species_count": 9.0, "countryCode": "CO" }, "geometry": { "type": "MultiPolygon", "coordinates": [ [ [ [ -81.895445685509728, 5.238644084003654 ], [ -81.889461448188541, 4.434009028298178 ], [ -82.669272846569044, 4.035323386855548 ], [ -83.455233351713503, 4.442138387502508 ], [ -83.464673104448664, 5.247834636432254 ], [ -82.684603711386458, 5.645700992567879 ], [ -81.895445685509728, 5.238644084003654 ] ] ] ] } },
{ "type": "Feature", "properties": { "geogrid_id": "5104848959073257211", "seqnum": 3217.0, "lat_c": 4.8489586423652797, "lon_c": -73.257210521782071, "res": 7.0, "count_Amphibians": 93, "count_Reptiles": 109, "count_Mosses": 243, "count_Ferns": 156, "count_Flowering Plants": 2834, "count_Insects": 1441, "count_Birds": 696, "count_Mammals": 184, "count_Sac Fungi": 170, "count_Molluscs": 21, "count_Arachnids": 104, "count_Basidiomycota": 91, "count_Gymnosperms": 11, "unique_species_count": 6153.0, "countryCode": "CO" }, "geometry": { "type": "MultiPolygon", "coordinates": [ [ [ [ -72.467569314328202, 5.255527002695937 ], [ -72.480899997282791, 4.449122062420845 ], [ -73.267584521458062, 4.042368186011308 ], [ -74.044766648561477, 4.44213838301348 ], [ -74.035326895876523, 5.247834631945656 ], [ -73.24493739246293, 5.654525250057808 ], [ -72.467569314328202, 5.255527002695937 ] ] ] ] } },
{ "type": "Feature", "properties": { "geogrid_id": "5104848959084242789", "seqnum": 11798.0, "lat_c": 4.8489586467331716, "lon_c": -84.242789478527726, "res": 7.0, "count_Amphibians": 0, "count_Reptiles": 1, "count_Mosses": 0, "count_Ferns": 0, "count_Flowering Plants": 0, "count_Insects": 0, "count_Birds": 0, "count_Mammals": 3, "count_Sac Fungi": 0, "count_Molluscs": 0, "count_Arachnids": 0, "count_Basidiomycota": 0, "count_Gymnosperms": 0, "unique_species_count": 4.0, "countryCode": "CO" }, "geometry": { "type": "MultiPolygon", "coordinates": [ [ [ [ -83.464673104448664, 5.247834636432254 ], [ -83.455233351713503, 4.442138387502508 ], [ -84.232415478799936, 4.042368190381897 ], [ -85.019100003010223, 4.449122066669936 ], [ -85.032430686018301, 5.255527006941493 ], [ -84.255062607898736, 5.654525254422508 ], [ -83.464673104448664, 5.247834636432254 ] ] ] ] } },
{ "type": "Feature", "properties": { "geogrid_id": "5104855607071692056", "seqnum": 3245.0, "lat_c": 4.855606754097769, "lon_c": -71.692055608892119, "res": 7.0, "count_Amphibians": 44, "count_Reptiles": 77, "count_Mosses": 2, "count_Ferns": 8, "count_Flowering Plants": 548, "count_Insects": 277, "count_Birds": 327, "count_Mammals": 116, "count_Sac Fungi": 11, "count_Molluscs": 10, "count_Arachnids": 20, "count_Basidiomycota": 28, "count_Gymnosperms": 0, "unique_species_count": 1468.0, "countryCode": "CO" }, "geometry": { "type": "MultiPolygon", "coordinates": [ [ [ [ -70.900446454205508, 5.261476793392355 ], [ -70.918253118921641, 4.454812760587242 ], [ -71.706243679778012, 4.048372286034435 ], [ -72.480899997282791, 4.449122062420845 ], [ -72.467569314328202, 5.255527002695937 ], [ -71.675274896003316, 5.66151576104696 ], [ -70.900446454205508, 5.261476793392355 ] ] ] ] } },
{ "type": "Feature", "properties": { "geogrid_id": "5104860607070127381", "seqnum": 3272.0, "lat_c": 4.8606072616121434, "lon_c": -70.127381251099791, "res": 7.0, "count_Amphibians": 34, "count_Reptiles": 39, "count_Mosses": 0, "count_Ferns": 2, "count_Flowering Plants": 65, "count_Insects": 44, "count_Birds": 39, "count_Mammals": 25, "count_Sac Fungi": 0, "count_Molluscs": 0, "count_Arachnids": 10, "count_Basidiomycota": 0, "count_Gymnosperms": 0, "unique_species_count": 258.0, "countryCode": "CO" }, "geometry": { "type": "MultiPolygon", "coordinates": [ [ [ [ -69.332847235922344, 5.265263393964438 ], [ -69.355942362655611, 4.458955645295832 ], [ -70.146014430484612, 4.053191439246355 ], [ -70.918253118921641, 4.454812760587242 ], [ -70.900446454205508, 5.261476793392355 ], [ -70.105351886783851, 5.6662746772429 ], [ -69.332847235922344, 5.265263393964438 ] ] ] ] } },
{ "type": "Feature", "properties": { "geogrid_id": "5104863516068562017", "seqnum": 3300.0, "lat_c": 4.8635162397866711, "lon_c": -68.562016812975898, "res": 7.0, "count_Amphibians": 12, "count_Reptiles": 29, "count_Mosses": 0, "count_Ferns": 0, "count_Flowering Plants": 65, "count_Insects": 9, "count_Birds": 121, "count_Mammals": 24, "count_Sac Fungi": 0, "count_Molluscs": 0, "count_Arachnids": 2, "count_Basidiomycota": 0, "count_Gymnosperms": 0, "unique_species_count": 262.0, "countryCode": "CO" }, "geometry": { "type": "MultiPolygon", "coordinates": [ [ [ [ -67.763173257338735, 5.266118389840596 ], [ -67.792731966538184, 4.461083419312829 ], [ -68.585989547548735, 4.056568576402356 ], [ -69.355942362655611, 4.458955645295832 ], [ -69.332847235922344, 5.265263393964438 ], [ -68.533691122008037, 5.668099285430911 ], [ -67.763173257338735, 5.266118389840596 ] ] ] ] } },
{ "type": "Feature", "properties": { "geogrid_id": "5106017486078750000", "seqnum": 3080.0, "lat_c": 6.0174859724622891, "lon_c": -78.750000000418254, "res": 7.0, "count_Amphibians": 0, "count_Reptiles": 2, "count_Mosses": 0, "count_Ferns": 0, "count_Flowering Plants": 0, "count_Insects": 0, "count_Birds": 0, "count_Mammals": 7, "count_Sac Fungi": 0, "count_Molluscs": 9, "count_Arachnids": 0, "count_Basidiomycota": 0, "count_Gymnosperms": 0, "unique_species_count": 18.0, "countryCode": "CO" }, "geometry": { "type": "MultiPolygon", "coordinates": [ [ [ [ -77.960043179644885, 6.425060598438053 ], [ -77.961800151757302, 5.623410400516167 ], [ -78.750000000396355, 5.216306808165763 ], [ -79.538199848538611, 5.6234104055959 ], [ -79.539956820693575, 6.425060603517001 ], [ -78.750000000440394, 6.818096801866329 ], [ -77.960043179644885, 6.425060598438053 ] ] ] ] } },
{ "type": "Feature", "properties": { "geogrid_id": "5106030770077172578", "seqnum": 3107.0, "lat_c": 6.0307702210694707, "lon_c": -77.172578229208042, "res": 7.0, "count_Amphibians": 40, "count_Reptiles": 74, "count_Mosses": 30, "count_Ferns": 54, "count_Flowering Plants": 1539, "count_Insects": 308, "count_Birds": 244, "count_Mammals": 49, "count_Sac Fungi": 3, "count_Molluscs": 191, "count_Arachnids": 27, "count_Basidiomycota": 12, "count_Gymnosperms": 3, "unique_species_count": 2574.0, "countryCode": "CO" }, "geometry": { "type": "MultiPolygon", "coordinates": [ [ [ [ -76.381967042898978, 6.438200818904721 ], [ -76.387463203453706, 5.635280309396132 ], [ -77.175922297398344, 5.228103797344676 ], [ -77.961800151757302, 5.623410400516167 ], [ -77.960043179644885, 6.425060598438053 ], [ -77.168749379885668, 6.832728562382215 ], [ -76.381967042898978, 6.438200818904721 ] ] ] ] } },
{ "type": "Feature", "properties": { "geogrid_id": "5106042507075597563", "seqnum": 3135.0, "lat_c": 6.0425070937718326, "lon_c": -75.597562543433426, "res": 7.0, "count_Amphibians": 179, "count_Reptiles": 173, "count_Mosses": 207, "count_Ferns": 203, "count_Flowering Plants": 5155, "count_Insects": 2576, "count_Birds": 754, "count_Mammals": 164, "count_Sac Fungi": 104, "count_Molluscs": 35, "count_Arachnids": 137, "count_Basidiomycota": 229, "count_Gymnosperms": 13, "unique_species_count": 9929.0, "countryCode": "CO" }, "geometry": { "type": "MultiPolygon", "coordinates": [ [ [ [ -74.805794856902779, 6.449554450482369 ], [ -74.815396288952755, 5.645700987962686 ], [ -75.604554314794981, 5.238644079278153 ], [ -76.387463203453706, 5.635280309396132 ], [ -76.381967042898978, 6.438200818904721 ], [ -75.589558530497726, 6.84548094687603 ], [ -74.805794856902779, 6.449554450482369 ] ] ] ] } },
{ "type": "Feature", "properties": { "geogrid_id": "5106052552074024300", "seqnum": 3163.0, "lat_c": 6.0525515630466344, "lon_c": -74.024299937311568, "res": 7.0, "count_Amphibians": 74, "count_Reptiles": 119, "count_Mosses": 102, "count_Ferns": 125, "count_Flowering Plants": 2791, "count_Insects": 1209, "count_Birds": 534, "count_Mammals": 93, "count_Sac Fungi": 155, "count_Molluscs": 18, "count_Arachnids": 60, "count_Basidiomycota": 101, "count_Gymnosperms": 5, "unique_species_count": 5386.0, "countryCode": "CO" }, "geometry": { "type": "MultiPolygon", "coordinates": [ [ [ [ -73.230758656234514, 6.45890013885949 ], [ -73.24493739246293, 5.654525250057808 ], [ -74.035326895876523, 5.247834631945656 ], [ -74.815396288952755, 5.645700987962686 ], [ -74.805794856902779, 6.449554450482369 ], [ -74.011679339020745, 6.856141053614931 ], [ -73.230758656234514, 6.45890013885949 ] ] ] ] } },
{ "type": "Feature", "properties": { "geogrid_id": "5106060674072452001", "seqnum": 3190.0, "lat_c": 6.0606740647709936, "lon_c": -72.452001242956385, "res": 7.0, "count_Amphibians": 102, "count_Reptiles": 97, "count_Mosses": 258, "count_Ferns": 138, "count_Flowering Plants": 2553, "count_Insects": 503, "count_Birds": 603, "count_Mammals": 119, "count_Sac Fungi": 151, "count_Molluscs": 64, "count_Arachnids": 44, "count_Basidiomycota": 84, "count_Gymnosperms": 3, "unique_species_count": 4719.0, "countryCode": "CO" }, "geometry": { "type": "MultiPolygon", "coordinates": [ [ [ [ -71.655895064294853, 6.465882905542788 ], [ -71.675274896003316, 5.66151576104696 ], [ -72.467569314328202, 5.255527002695937 ], [ -73.24493739246293, 5.654525250057808 ], [ -73.230758656234514, 6.45890013885949 ], [ -72.434188587439365, 6.864373777115111 ], [ -71.655895064294853, 6.465882905542788 ] ] ] ] } },
{ "type": "Feature", "properties": { "geogrid_id": "5106066499070879659", "seqnum": 3218.0, "lat_c": 6.0664986844296127, "lon_c": -70.879658652609535, "res": 7.0, "count_Amphibians": 23, "count_Reptiles": 38, "count_Mosses": 0, "count_Ferns": 1, "count_Flowering Plants": 428, "count_Insects": 85, "count_Birds": 224, "count_Mammals": 62, "count_Sac Fungi": 6, "count_Molluscs": 0, "count_Arachnids": 21, "count_Basidiomycota": 2, "count_Gymnosperms": 0, "unique_species_count": 890.0, "countryCode": "CO" }, "geometry": { "type": "MultiPolygon", "coordinates": [ [ [ [ -70.07992222348021, 6.469909979281809 ], [ -70.105351886783851, 5.6662746772429 ], [ -70.900446454205508, 5.261476793392355 ], [ -71.675274896003316, 5.66151576104696 ], [ -71.655895064294853, 6.465882905542788 ], [ -70.855883592002002, 6.869632531093807 ], [ -70.07992222348021, 6.469909979281809 ] ] ] ] } },
{ "type": "Feature", "properties": { "geogrid_id": "5106068147067728710", "seqnum": 3273.0, "lat_c": 6.0681468848988622, "lon_c": -67.728710456307596, "res": 7.0, "count_Amphibians": 19, "count_Reptiles": 40, "count_Mosses": 0, "count_Ferns": 2, "count_Flowering Plants": 145, "count_Insects": 31, "count_Birds": 79, "count_Mammals": 28, "count_Sac Fungi": 0, "count_Molluscs": 0, "count_Arachnids": 9, "count_Basidiomycota": 0, "count_Gymnosperms": 0, "unique_species_count": 353.0, "countryCode": "CO" }, "geometry": { "type": "MultiPolygon", "coordinates": [ [ [ [ -66.916369037517384, 6.463995816860139 ], [ -66.958051595578212, 5.665659613537446 ], [ -67.763173257338735, 5.266118389840596 ], [ -68.533691122008037, 5.668099285430911 ], [ -68.501015408632497, 6.469937528107875 ], [ -67.689353943619409, 6.866728450401815 ], [ -66.916369037517384, 6.463995816860139 ] ] ] ] } },
{ "type": "Feature", "properties": { "geogrid_id": "5106069381069305900", "seqnum": 3246.0, "lat_c": 6.0693809064154092, "lon_c": -69.305899524476814, "res": 7.0, "count_Amphibians": 12, "count_Reptiles": 28, "count_Mosses": 0, "count_Ferns": 0, "count_Flowering Plants": 209, "count_Insects": 20, "count_Birds": 57, "count_Mammals": 24, "count_Sac Fungi": 0, "count_Molluscs": 1, "count_Arachnids": 4, "count_Basidiomycota": 1, "count_Gymnosperms": 0, "unique_species_count": 356.0, "countryCode": "CO" }, "geometry": { "type": "MultiPolygon", "coordinates": [ [ [ [ -68.501015408632497, 6.469937528107875 ], [ -68.533691122008037, 5.668099285430911 ], [ -69.332847235922344, 5.265263393964438 ], [ -70.105351886783851, 5.6662746772429 ], [ -70.07992222348021, 6.469909979281809 ], [ -69.275097744130832, 6.870983027604545 ], [ -68.501015408632497, 6.469937528107875 ] ] ] ] } },
{ "type": "Feature", "properties": { "geogrid_id": "5107226035077958048", "seqnum": 3053.0, "lat_c": 7.2260352809350143, "lon_c": -77.958047877182196, "res": 7.0, "count_Amphibians": 2, "count_Reptiles": 8, "count_Mosses": 0, "count_Ferns": 10, "count_Flowering Plants": 205, "count_Insects": 6, "count_Birds": 4, "count_Mammals": 6, "count_Sac Fungi": 0, "count_Molluscs": 46, "count_Arachnids": 4, "count_Basidiomycota": 1, "count_Gymnosperms": 2, "unique_species_count": 294.0, "countryCode": "CO" }, "geometry": { "type": "MultiPolygon", "coordinates": [ [ [ [ -77.164432908280659, 7.633885845903367 ], [ -77.168749379885668, 6.832728562382215 ], [ -77.960043179644885, 6.425060598438053 ], [ -78.750000000440394, 6.818096801866329 ], [ -78.750000000462791, 7.618064503805392 ], [ -77.955812706919261, 8.02625134214149 ], [ -77.164432908280659, 7.633885845903367 ] ] ] ] } },
{ "type": "Feature", "properties": { "geogrid_id": "5107240277076375726", "seqnum": 3081.0, "lat_c": 7.2402766682718482, "lon_c": -76.375726309885266, "res": 7.0, "count_Amphibians": 115, "count_Reptiles": 96, "count_Mosses": 18, "count_Ferns": 43, "count_Flowering Plants": 1830, "count_Insects": 328, "count_Birds": 429, "count_Mammals": 64, "count_Sac Fungi": 4, "count_Molluscs": 6, "count_Arachnids": 35, "count_Basidiomycota": 13, "count_Gymnosperms": 3, "unique_species_count": 2984.0, "countryCode": "CO" }, "geometry": { "type": "MultiPolygon", "coordinates": [ [ [ [ -75.580536883308113, 7.647449221325203 ], [ -75.589558530497726, 6.84548094687603 ], [ -76.381967042898978, 6.438200818904721 ], [ -77.168749379885668, 6.832728562382215 ], [ -77.164432908280659, 7.633885845903367 ], [ -76.368736569580747, 8.041404236239424 ], [ -75.580536883308113, 7.647449221325203 ] ] ] ] } },
{ "type": "Feature", "properties": { "geogrid_id": "5107252343074794895", "seqnum": 3108.0, "lat_c": 7.2523425791813176, "lon_c": -74.794894943980523, "res": 7.0, "count_Amphibians": 69, "count_Reptiles": 87, "count_Mosses": 34, "count_Ferns": 49, "count_Flowering Plants": 2134, "count_Insects": 669, "count_Birds": 475, "count_Mammals": 49, "count_Sac Fungi": 11, "count_Molluscs": 5, "count_Arachnids": 33, "count_Basidiomycota": 18, "count_Gymnosperms": 1, "unique_species_count": 3634.0, "countryCode": "CO" }, "geometry": { "type": "MultiPolygon", "coordinates": [ [ [ [ -73.997457739364989, 7.658456058005789 ], [ -74.011679339020745, 6.856141053614931 ], [ -74.805794856902779, 6.449554450482369 ], [ -75.589558530497726, 6.84548094687603 ], [ -75.580536883308113, 7.647449221325203 ], [ -74.782689662861074, 8.053935168196439 ], [ -73.997457739364989, 7.658456058005789 ] ] ] ] } },
{ "type": "Feature", "properties": { "geogrid_id": "5107261917073214667", "seqnum": 3136.0, "lat_c": 7.2619167035802006, "lon_c": -73.214666836763755, "res": 7.0, "count_Amphibians": 70, "count_Reptiles": 151, "count_Mosses": 64, "count_Ferns": 115, "count_Flowering Plants": 2109, "count_Insects": 1371, "count_Birds": 589, "count_Mammals": 149, "count_Sac Fungi": 103, "count_Molluscs": 12, "count_Arachnids": 75, "count_Basidiomycota": 96, "count_Gymnosperms": 9, "unique_species_count": 4913.0, "countryCode": "CO" }, "geometry": { "type": "MultiPolygon", "coordinates": [ [ [ [ -72.414123129745647, 7.666438379281144 ], [ -72.434188587439365, 6.864373777115111 ], [ -73.230758656234514, 6.45890013885949 ], [ -74.011679339020745, 6.856141053614931 ], [ -73.997457739364989, 7.658456058005789 ], [ -73.196653457546432, 8.063409774908241 ], [ -72.414123129745647, 7.666438379281144 ] ] ] ] } },
{ "type": "Feature", "properties": { "geogrid_id": "5107268494071633909", "seqnum": 3164.0, "lat_c": 7.268493839046684, "lon_c": -71.633908655532238, "res": 7.0, "count_Amphibians": 20, "count_Reptiles": 44, "count_Mosses": 16, "count_Ferns": 10, "count_Flowering Plants": 378, "count_Insects": 65, "count_Birds": 163, "count_Mammals": 44, "count_Sac Fungi": 0, "count_Molluscs": 0, "count_Arachnids": 6, "count_Basidiomycota": 2, "count_Gymnosperms": 1, "unique_species_count": 749.0, "countryCode": "CO" }, "geometry": { "type": "MultiPolygon", "coordinates": [ [ [ [ -70.829114306788455, 7.670635267288399 ], [ -70.855883592002002, 6.869632531093807 ], [ -71.655895064294853, 6.465882905542788 ], [ -72.434188587439365, 6.864373777115111 ], [ -72.414123129745647, 7.666438379281144 ], [ -71.609307236471082, 8.06913653920134 ], [ -70.829114306788455, 7.670635267288399 ] ] ] ] } },
{ "type": "Feature", "properties": { "geogrid_id": "5107271233070051088", "seqnum": 3191.0, "lat_c": 7.271232950913463, "lon_c": -70.051087554729847, "res": 7.0, "count_Amphibians": 11, "count_Reptiles": 19, "count_Mosses": 0, "count_Ferns": 2, "count_Flowering Plants": 329, "count_Insects": 123, "count_Birds": 88, "count_Mammals": 23, "count_Sac Fungi": 0, "count_Molluscs": 0, "count_Arachnids": 1, "count_Basidiomycota": 1, "count_Gymnosperms": 0, "unique_species_count": 597.0, "countryCode": "CO" }, "geometry": { "type": "MultiPolygon", "coordinates": [ [ [ [ -69.240440257754969, 7.669749549005316 ], [ -69.275097744130832, 6.870983027604545 ], [ -70.07992222348021, 6.469909979281809 ], [ -70.855883592002002, 6.869632531093807 ], [ -70.829114306788455, 7.670635267288399 ], [ -70.018842598797121, 8.06996732100581 ], [ -69.240440257754969, 7.669749549005316 ] ] ] ] } },
{ "type": "Feature", "properties": { "geogrid_id": "5108434150077159626", "seqnum": 3026.0, "lat_c": 8.4341496294179947, "lon_c": -77.159625606579681, "res": 7.0, "count_Amphibians": 37, "count_Reptiles": 69, "count_Mosses": 7, "count_Ferns": 26, "count_Flowering Plants": 1061, "count_Insects": 271, "count_Birds": 329, "count_Mammals": 86, "count_Sac Fungi": 1, "count_Molluscs": 8, "count_Arachnids": 24, "count_Basidiomycota": 9, "count_Gymnosperms": 2, "unique_species_count": 1930.0, "countryCode": "CO" }, "geometry": { "type": "MultiPolygon", "coordinates": [ [ [ [ -76.360992848718908, 8.841480585646185 ], [ -76.368736569580747, 8.041404236239424 ], [ -77.164432908280659, 7.633885845903367 ], [ -77.955812706919261, 8.02625134214149 ], [ -77.953335943310876, 8.825626142240885 ], [ -77.154323896178667, 9.233428063577049 ], [ -76.360992848718908, 8.841480585646185 ] ] ] ] } },
{ "type": "Feature", "properties": { "geogrid_id": "5108448296075570492", "seqnum": 3054.0, "lat_c": 8.4482962921614604, "lon_c": -75.570491518864912, "res": 7.0, "count_Amphibians": 37, "count_Reptiles": 75, "count_Mosses": 0, "count_Ferns": 6, "count_Flowering Plants": 641, "count_Insects": 286, "count_Birds": 260, "count_Mammals": 80, "count_Sac Fungi": 9, "count_Molluscs": 4, "count_Arachnids": 27, "count_Basidiomycota": 9, "count_Gymnosperms": 1, "unique_species_count": 1435.0, "countryCode": "CO" }, "geometry": { "type": "MultiPolygon", "coordinates": [ [ [ [ -74.769171299043052, 8.854203041885418 ], [ -74.782689662861074, 8.053935168196439 ], [ -75.580536883308113, 7.647449221325203 ], [ -76.368736569580747, 8.041404236239424 ], [ -76.360992848718908, 8.841480585646185 ], [ -75.559415658050199, 9.247907414543496 ], [ -74.769171299043052, 8.854203041885418 ] ] ] ] } },
{ "type": "Feature", "properties": { "geogrid_id": "5108459351073981627", "seqnum": 3082.0, "lat_c": 8.4593507431981454, "lon_c": -73.981626845421772, "res": 7.0, "count_Amphibians": 16, "count_Reptiles": 41, "count_Mosses": 6, "count_Ferns": 17, "count_Flowering Plants": 277, "count_Insects": 164, "count_Birds": 176, "count_Mammals": 34, "count_Sac Fungi": 2, "count_Molluscs": 3, "count_Arachnids": 9, "count_Basidiomycota": 3, "count_Gymnosperms": 0, "unique_species_count": 748.0, "countryCode": "CO" }, "geometry": { "type": "MultiPolygon", "coordinates": [ [ [ [ -73.1767090406519, 8.863215786395729 ], [ -73.196653457546432, 8.063409774908241 ], [ -73.997457739364989, 7.658456058005789 ], [ -74.782689662861074, 8.053935168196439 ], [ -74.769171299043052, 8.854203041885418 ], [ -73.96417742904562, 9.258680621421957 ], [ -73.1767090406519, 8.863215786395729 ] ] ] ] } },
{ "type": "Feature", "properties": { "geogrid_id": "5108466682072391796", "seqnum": 3109.0, "lat_c": 8.4666820343585645, "lon_c": -72.391795631798871, "res": 7.0, "count_Amphibians": 10, "count_Reptiles": 31, "count_Mosses": 0, "count_Ferns": 4, "count_Flowering Plants": 334, "count_Insects": 88, "count_Birds": 141, "count_Mammals": 21, "count_Sac Fungi": 1, "count_Molluscs": 2, "count_Arachnids": 20, "count_Basidiomycota": 2, "count_Gymnosperms": 0, "unique_species_count": 654.0, "countryCode": "CO" }, "geometry": { "type": "MultiPolygon", "coordinates": [ [ [ [ -71.582081406101608, 8.867601575509081 ], [ -71.609307236471082, 8.06913653920134 ], [ -72.414123129745647, 7.666438379281144 ], [ -73.196653457546432, 8.063409774908241 ], [ -73.1767090406519, 8.863215786395729 ], [ -72.367195838016315, 9.264921035724944 ], [ -71.582081406101608, 8.867601575509081 ] ] ] ] } },
{ "type": "Feature", "properties": { "geogrid_id": "5109640404076352490", "seqnum": 3000.0, "lat_c": 9.6404035349809742, "lon_c": -76.352489629950639, "res": 7.0, "count_Amphibians": 13, "count_Reptiles": 29, "count_Mosses": 0, "count_Ferns": 4, "count_Flowering Plants": 297, "count_Insects": 160, "count_Birds": 177, "count_Mammals": 49, "count_Sac Fungi": 0, "count_Molluscs": 24, "count_Arachnids": 12, "count_Basidiomycota": 2, "count_Gymnosperms": 0, "unique_species_count": 767.0, "countryCode": "CO" }, "geometry": { "type": "MultiPolygon", "coordinates": [ [ [ [ -75.547301819146668, 10.046168809799925 ], [ -75.559415658050199, 9.247907414543496 ], [ -76.360992848718908, 8.841480585646185 ], [ -77.154323896178667, 9.233428063577049 ], [ -77.148523823060941, 10.031629950612357 ], [ -76.343220845556473, 10.438071728564369 ], [ -75.547301819146668, 10.046168809799925 ] ] ] ] } },
{ "type": "Feature", "properties": { "geogrid_id": "5109653018074754331", "seqnum": 3027.0, "lat_c": 9.6530181611866404, "lon_c": -74.754331305152988, "res": 7.0, "count_Amphibians": 35, "count_Reptiles": 80, "count_Mosses": 5, "count_Ferns": 6, "count_Flowering Plants": 663, "count_Insects": 612, "count_Birds": 228, "count_Mammals": 67, "count_Sac Fungi": 7, "count_Molluscs": 12, "count_Arachnids": 37, "count_Basidiomycota": 18, "count_Gymnosperms": 0, "unique_species_count": 1770.0, "countryCode": "CO" }, "geometry": { "type": "MultiPolygon", "coordinates": [ [ [ [ -73.945099322474363, 10.056302679543524 ], [ -73.96417742904562, 9.258680621421957 ], [ -74.769171299043052, 8.854203041885418 ], [ -75.559415658050199, 9.247907414543496 ], [ -75.547301819146668, 10.046168809799925 ], [ -74.738160294617671, 10.450253727496605 ], [ -73.945099322474363, 10.056302679543524 ] ] ] ] } },
{ "type": "Feature", "properties": { "geogrid_id": "5109661173073154823", "seqnum": 3055.0, "lat_c": 9.661172937168848, "lon_c": -73.154823105316154, "res": 7.0, "count_Amphibians": 18, "count_Reptiles": 66, "count_Mosses": 0, "count_Ferns": 12, "count_Flowering Plants": 419, "count_Insects": 269, "count_Birds": 298, "count_Mammals": 35, "count_Sac Fungi": 4, "count_Molluscs": 1, "count_Arachnids": 10, "count_Basidiomycota": 5, "count_Gymnosperms": 1, "unique_species_count": 1138.0, "countryCode": "CO" }, "geometry": { "type": "MultiPolygon", "coordinates": [ [ [ [ -72.340312478126535, 10.060974007530147 ], [ -72.367195838016315, 9.264921035724944 ], [ -73.1767090406519, 8.863215786395729 ], [ -73.96417742904562, 9.258680621421957 ], [ -73.945099322474363, 10.056302679543524 ], [ -73.130984166381566, 10.457121349961708 ], [ -72.340312478126535, 10.060974007530147 ] ] ] ] } },
{ "type": "Feature", "properties": { "geogrid_id": "5110828665077142221", "seqnum": 2945.0, "lat_c": 10.828664801972712, "lon_c": -77.142221052670322, "res": 7.0, "count_Amphibians": 0, "count_Reptiles": 0, "count_Mosses": 0, "count_Ferns": 0, "count_Flowering Plants": 0, "count_Insects": 1, "count_Birds": 2, "count_Mammals": 1, "count_Sac Fungi": 0, "count_Molluscs": 0, "count_Arachnids": 0, "count_Basidiomycota": 0, "count_Gymnosperms": 0, "unique_species_count": 4.0, "countryCode": "CO" }, "geometry": { "type": "MultiPolygon", "coordinates": [ [ [ [ -76.333179870505404, 11.234384705239123 ], [ -76.343220845556473, 10.438071728564369 ], [ -77.148523823060941, 10.031629950612357 ], [ -77.947649778414473, 10.421524024755973 ], [ -77.944435962086814, 11.217884596953983 ], [ -77.135410864266007, 11.62444289479167 ], [ -76.333179870505404, 11.234384705239123 ] ] ] ] } },
{ "type": "Feature", "properties": { "geogrid_id": "5110842968075534142", "seqnum": 2973.0, "lat_c": 10.842967749565698, "lon_c": -75.534141810661666, "res": 7.0, "count_Amphibians": 30, "count_Reptiles": 69, "count_Mosses": 0, "count_Ferns": 6, "count_Flowering Plants": 902, "count_Insects": 464, "count_Birds": 388, "count_Mammals": 79, "count_Sac Fungi": 3, "count_Molluscs": 93, "count_Arachnids": 39, "count_Basidiomycota": 18, "count_Gymnosperms": 3, "unique_species_count": 2094.0, "countryCode": "CO" }, "geometry": { "type": "MultiPolygon", "coordinates": [ [ [ [ -74.720648034694634, 11.245784283854725 ], [ -74.738160294617671, 10.450253727496605 ], [ -75.547301819146668, 10.046168809799925 ], [ -76.343220845556473, 10.438071728564369 ], [ -76.333179870505404, 11.234384705239123 ], [ -75.519926723442296, 11.638192637846991 ], [ -74.720648034694634, 11.245784283854725 ] ] ] ] } },
{ "type": "Feature", "properties": { "geogrid_id": "5110852076073924381", "seqnum": 3001.0, "lat_c": 10.852075504920247, "lon_c": -73.924381413476198, "res": 7.0, "count_Amphibians": 54, "count_Reptiles": 82, "count_Mosses": 129, "count_Ferns": 104, "count_Flowering Plants": 1508, "count_Insects": 1222, "count_Birds": 525, "count_Mammals": 113, "count_Sac Fungi": 69, "count_Molluscs": 122, "count_Arachnids": 103, "count_Basidiomycota": 47, "count_Gymnosperms": 3, "unique_species_count": 4081.0, "countryCode": "CO" }, "geometry": { "type": "MultiPolygon", "coordinates": [ [ [ [ -73.105179732582101, 11.250903224094579 ], [ -73.130984166381566, 10.457121349961708 ], [ -73.945099322474363, 10.056302679543524 ], [ -74.738160294617671, 10.450253727496605 ], [ -74.720648034694634, 11.245784283854725 ], [ -73.902011640031887, 11.645859407451141 ], [ -73.105179732582101, 11.250903224094579 ] ] ] ] } },
{ "type": "Feature", "properties": { "geogrid_id": "5110854662072311133", "seqnum": 3028.0, "lat_c": 10.854662098380167, "lon_c": -72.311133270265586, "res": 7.0, "count_Amphibians": 16, "count_Reptiles": 37, "count_Mosses": 0, "count_Ferns": 18, "count_Flowering Plants": 428, "count_Insects": 191, "count_Birds": 263, "count_Mammals": 32, "count_Sac Fungi": 1, "count_Molluscs": 9, "count_Arachnids": 12, "count_Basidiomycota": 2, "count_Gymnosperms": 1, "unique_species_count": 1010.0, "countryCode": "CO" }, "geometry": { "type": "MultiPolygon", "coordinates": [ [ [ [ -71.48454909588375, 11.247880609088719 ], [ -71.519714117841687, 10.45717542760314 ], [ -72.340312478126535, 10.060974007530147 ], [ -73.130984166381566, 10.457121349961708 ], [ -73.105179732582101, 11.250903224094579 ], [ -72.279644924351174, 11.645809167722744 ], [ -71.48454909588375, 11.247880609088719 ] ] ] ] } },
{ "type": "Feature", "properties": { "geogrid_id": "5112013079077940972", "seqnum": 2891.0, "lat_c": 12.013078981888086, "lon_c": -77.94097171599357, "res": 7.0, "count_Amphibians": 0, "count_Reptiles": 1, "count_Mosses": 0, "count_Ferns": 0, "count_Flowering Plants": 0, "count_Insects": 0, "count_Birds": 0, "count_Mammals": 0, "count_Sac Fungi": 0, "count_Molluscs": 0, "count_Arachnids": 0, "count_Basidiomycota": 0, "count_Gymnosperms": 0, "unique_species_count": 1.0, "countryCode": "CO" }, "geometry": { "type": "MultiPolygon", "coordinates": [ [ [ [ -77.12808814474559, 12.418875327101166 ], [ -77.135410864266007, 11.62444289479167 ], [ -77.944435962086814, 11.217884596953983 ], [ -78.75000000057895, 11.605666316807676 ], [ -78.75000000060308, 12.400227995881288 ], [ -77.937254331600485, 12.807027591860457 ], [ -77.12808814474559, 12.418875327101166 ] ] ] ] } },
{ "type": "Feature", "properties": { "geogrid_id": "5112013079079559028", "seqnum": 11638.0, "lat_c": 12.013078986958334, "lon_c": -79.559028284646445, "res": 7.0, "count_Amphibians": 0, "count_Reptiles": 0, "count_Mosses": 0, "count_Ferns": 0, "count_Flowering Plants": 0, "count_Insects": 1, "count_Birds": 0, "count_Mammals": 0, "count_Sac Fungi": 0, "count_Molluscs": 0, "count_Arachnids": 0, "count_Basidiomycota": 0, "count_Gymnosperms": 0, "unique_species_count": 1.0, "countryCode": "CO" }, "geometry": { "type": "MultiPolygon", "coordinates": [ [ [ [ -78.750000000034504, 12.40022800107214 ], [ -78.750000000016598, 11.605666321999546 ], [ -79.555564038509615, 11.217884602025835 ], [ -80.364589136374818, 11.624442899741034 ], [ -80.371911855940567, 12.418875332048144 ], [ -79.562745669083327, 12.807027596928977 ], [ -78.750000000034504, 12.40022800107214 ] ] ] ] } },
{ "type": "Feature", "properties": { "geogrid_id": "5112029243076322360", "seqnum": 2919.0, "lat_c": 12.029242965454607, "lon_c": -76.322359514844507, "res": 7.0, "count_Amphibians": 0, "count_Reptiles": 1, "count_Mosses": 0, "count_Ferns": 0, "count_Flowering Plants": 0, "count_Insects": 0, "count_Birds": 0, "count_Mammals": 0, "count_Sac Fungi": 0, "count_Molluscs": 0, "count_Arachnids": 0, "count_Basidiomycota": 0, "count_Gymnosperms": 0, "unique_species_count": 1.0, "countryCode": "CO" }, "geometry": { "type": "MultiPolygon", "coordinates": [ [ [ [ -75.504646922066783, 12.431733090867137 ], [ -75.519926723442296, 11.638192637846991 ], [ -76.333179870505404, 11.234384705239123 ], [ -77.135410864266007, 11.62444289479167 ], [ -77.12808814474559, 12.418875327101166 ], [ -76.310752015402571, 12.822548036635594 ], [ -75.504646922066783, 12.431733090867137 ] ] ] ] } },
{ "type": "Feature", "properties": { "geogrid_id": "5112029243081177640", "seqnum": 11611.0, "lat_c": 12.029242970279748, "lon_c": -81.177640485842431, "res": 7.0, "count_Amphibians": 4, "count_Reptiles": 19, "count_Mosses": 0, "count_Ferns": 0, "count_Flowering Plants": 63, "count_Insects": 8, "count_Birds": 79, "count_Mammals": 4, "count_Sac Fungi": 1, "count_Molluscs": 32, "count_Arachnids": 4, "count_Basidiomycota": 1, "count_Gymnosperms": 0, "unique_species_count": 215.0, "countryCode": "CO" }, "geometry": { "type": "MultiPolygon", "coordinates": [ [ [ [ -80.371911855940567, 12.418875332048144 ], [ -80.364589136374818, 11.624442899741034 ], [ -81.166820130134695, 11.234384710067337 ], [ -81.980073277243946, 11.638192642550015 ], [ -81.995353078668046, 12.431733095566075 ], [ -81.189247985331434, 12.822548041457429 ], [ -80.371911855940567, 12.418875332048144 ] ] ] ] } },
{ "type": "Feature", "properties": { "geogrid_id": "5112035601071446713", "seqnum": 3002.0, "lat_c": 12.035601323305031, "lon_c": -71.446712554717124, "res": 7.0, "count_Amphibians": 3, "count_Reptiles": 17, "count_Mosses": 0, "count_Ferns": 0, "count_Flowering Plants": 145, "count_Insects": 7, "count_Birds": 61, "count_Mammals": 7, "count_Sac Fungi": 0, "count_Molluscs": 65, "count_Arachnids": 1, "count_Basidiomycota": 0, "count_Gymnosperms": 0, "unique_species_count": 306.0, "countryCode": "CO" }, "geometry": { "type": "MultiPolygon", "coordinates": [ [ [ [ -70.605126942940132, 12.418728558358076 ], [ -70.650053350065917, 11.635416053072646 ], [ -71.48454909588375, 11.247880609088719 ], [ -72.279644924351174, 11.645809167722744 ], [ -72.245833145734338, 12.434241964474202 ], [ -71.406190391971748, 12.820144760745769 ], [ -70.605126942940132, 12.418728558358076 ] ] ] ] } },
{ "type": "Feature", "properties": { "geogrid_id": "5112039486074701783", "seqnum": 2946.0, "lat_c": 12.039485813235622, "lon_c": -74.701783438849887, "res": 7.0, "count_Amphibians": 0, "count_Reptiles": 0, "count_Mosses": 0, "count_Ferns": 0, "count_Flowering Plants": 0, "count_Insects": 0, "count_Birds": 1, "count_Mammals": 0, "count_Sac Fungi": 0, "count_Molluscs": 0, "count_Arachnids": 0, "count_Basidiomycota": 0, "count_Gymnosperms": 0, "unique_species_count": 1.0, "countryCode": "CO" }, "geometry": { "type": "MultiPolygon", "coordinates": [ [ [ [ -73.87797698454591, 12.43751653756525 ], [ -73.902011640031887, 11.645859407451141 ], [ -74.720648034694634, 11.245784283854725 ], [ -75.519926723442296, 11.638192637846991 ], [ -75.504646922066783, 12.431733090867137 ], [ -74.681554558470907, 12.831235833759944 ], [ -73.87797698454591, 12.43751653756525 ] ] ] ] } },
{ "type": "Feature", "properties": { "geogrid_id": "5112042363073077396", "seqnum": 2974.0, "lat_c": 12.042362983040594, "lon_c": -73.077396304672561, "res": 7.0, "count_Amphibians": 5, "count_Reptiles": 24, "count_Mosses": 0, "count_Ferns": 0, "count_Flowering Plants": 92, "count_Insects": 120, "count_Birds": 215, "count_Mammals": 15, "count_Sac Fungi": 0, "count_Molluscs": 20, "count_Arachnids": 10, "count_Basidiomycota": 0, "count_Gymnosperms": 0, "unique_species_count": 501.0, "countryCode": "CO" }, "geometry": { "type": "MultiPolygon", "coordinates": [ [ [ [ -72.245833145734338, 12.434241964474202 ], [ -72.279644924351174, 11.645809167722744 ], [ -73.105179732582101, 11.250903224094579 ], [ -73.902011640031887, 11.645859407451141 ], [ -73.87797698454591, 12.43751653756525 ], [ -73.047619373400522, 12.831347416249889 ], [ -72.245833145734338, 12.434241964474202 ] ] ] ] } },
{ "type": "Feature", "properties": { "geogrid_id": "5113193636078750000", "seqnum": 2837.0, "lat_c": 13.193635534512579, "lon_c": -78.750000000627523, "res": 7.0, "count_Amphibians": 0, "count_Reptiles": 1, "count_Mosses": 0, "count_Ferns": 0, "count_Flowering Plants": 0, "count_Insects": 0, "count_Birds": 2, "count_Mammals": 0, "count_Sac Fungi": 0, "count_Molluscs": 0, "count_Arachnids": 0, "count_Basidiomycota": 0, "count_Gymnosperms": 0, "unique_species_count": 3.0, "countryCode": "CO" }, "geometry": { "type": "MultiPolygon", "coordinates": [ [ [ [ -77.933280893186279, 13.599651587528742 ], [ -77.937254331600485, 12.807027591860457 ], [ -78.75000000060308, 12.400227995881288 ], [ -79.562745669083327, 12.807027596928977 ], [ -79.56671910754153, 13.5996515925954 ], [ -78.750000000652292, 13.98581819423951 ], [ -77.933280893186279, 13.599651587528742 ] ] ] ] } },
{ "type": "Feature", "properties": { "geogrid_id": "5113198315070557135", "seqnum": 2975.0, "lat_c": 13.198315330710326, "lon_c": -70.557135153046914, "res": 7.0, "count_Amphibians": 0, "count_Reptiles": 2, "count_Mosses": 0, "count_Ferns": 0, "count_Flowering Plants": 0, "count_Insects": 0, "count_Birds": 0, "count_Mammals": 0, "count_Sac Fungi": 0, "count_Molluscs": 0, "count_Arachnids": 0, "count_Basidiomycota": 0, "count_Gymnosperms": 0, "unique_species_count": 2.0, "countryCode": "CO" }, "geometry": { "type": "MultiPolygon", "coordinates": [ [ [ [ -69.69708521754302, 13.56644292298121 ], [ -69.753393846877643, 12.793145565527899 ], [ -70.605126942940132, 12.418728558358076 ], [ -71.406190391971748, 12.820144760745769 ], [ -71.362967598151243, 13.601322094344317 ], [ -70.506064831199637, 13.973967322438453 ], [ -69.69708521754302, 13.56644292298121 ] ] ] ] } },
{ "type": "Feature", "properties": { "geogrid_id": "5113211874077120247", "seqnum": 2864.0, "lat_c": 13.211874071708644, "lon_c": -77.120247381920279, "res": 7.0, "count_Amphibians": 0, "count_Reptiles": 1, "count_Mosses": 0, "count_Ferns": 0, "count_Flowering Plants": 0, "count_Insects": 0, "count_Birds": 4, "count_Mammals": 0, "count_Sac Fungi": 0, "count_Molluscs": 0, "count_Arachnids": 0, "count_Basidiomycota": 0, "count_Gymnosperms": 0, "unique_species_count": 5.0, "countryCode": "CO" }, "geometry": { "type": "MultiPolygon", "coordinates": [ [ [ [ -76.29834902678904, 13.614202536731066 ], [ -76.310752015402571, 12.822548036635594 ], [ -77.12808814474559, 12.418875327101166 ], [ -77.937254331600485, 12.807027591860457 ], [ -77.933280893186279, 13.599651587528742 ], [ -77.111882657225678, 14.003352028659416 ], [ -76.29834902678904, 13.614202536731066 ] ] ] ] } },
{ "type": "Feature", "properties": { "geogrid_id": "5113211874080379753", "seqnum": 11584.0, "lat_c": 13.211874076653055, "lon_c": -80.379752618811438, "res": 7.0, "count_Amphibians": 0, "count_Reptiles": 1, "count_Mosses": 0, "count_Ferns": 0, "count_Flowering Plants": 0, "count_Insects": 0, "count_Birds": 3, "count_Mammals": 1, "count_Sac Fungi": 0, "count_Molluscs": 0, "count_Arachnids": 0, "count_Basidiomycota": 0, "count_Gymnosperms": 0, "unique_species_count": 5.0, "countryCode": "CO" }, "geometry": { "type": "MultiPolygon", "coordinates": [ [ [ [ -79.56671910754153, 13.5996515925954 ], [ -79.562745669083327, 12.807027596928977 ], [ -80.371911855940567, 12.418875332048144 ], [ -81.189247985331434, 12.822548041457429 ], [ -81.201650973992301, 13.614202541549361 ], [ -80.388117343551826, 14.003352033601079 ], [ -79.56671910754153, 13.5996515925954 ] ] ] ] } },
{ "type": "Feature", "properties": { "geogrid_id": "5113219790072209683", "seqnum": 2947.0, "lat_c": 13.219790297466149, "lon_c": -72.209682639128317, "res": 7.0, "count_Amphibians": 0, "count_Reptiles": 3, "count_Mosses": 0, "count_Ferns": 0, "count_Flowering Plants": 0, "count_Insects": 0, "count_Birds": 1, "count_Mammals": 0, "count_Sac Fungi": 0, "count_Molluscs": 0, "count_Arachnids": 0, "count_Basidiomycota": 0, "count_Gymnosperms": 0, "unique_species_count": 4.0, "countryCode": "CO" }, "geometry": { "type": "MultiPolygon", "coordinates": [ [ [ [ -71.362967598151243, 13.601322094344317 ], [ -71.406190391971748, 12.820144760745769 ], [ -72.245833145734338, 12.434241964474202 ], [ -73.047619373400522, 12.831347416249889 ], [ -73.015833417319499, 13.617705814926019 ], [ -72.171177112814632, 14.002287197331217 ], [ -71.362967598151243, 13.601322094344317 ] ] ] ] } },
{ "type": "Feature", "properties": { "geogrid_id": "5113223480075488292", "seqnum": 2892.0, "lat_c": 13.223480014553756, "lon_c": -75.488292035495206, "res": 7.0, "count_Amphibians": 0, "count_Reptiles": 3, "count_Mosses": 0, "count_Ferns": 0, "count_Flowering Plants": 0, "count_Insects": 0, "count_Birds": 1, "count_Mammals": 0, "count_Sac Fungi": 0, "count_Molluscs": 0, "count_Arachnids": 0, "count_Basidiomycota": 0, "count_Gymnosperms": 0, "unique_species_count": 4.0, "countryCode": "CO" }, "geometry": { "type": "MultiPolygon", "coordinates": [ [ [ [ -74.659948573901929, 13.62091349064621 ], [ -74.681554558470907, 12.831235833759944 ], [ -75.504646922066783, 12.431733090867137 ], [ -76.310752015402571, 12.822548036635594 ], [ -76.29834902678904, 13.614202536731066 ], [ -75.470850946961733, 14.013325679535246 ], [ -74.659948573901929, 13.62091349064621 ] ] ] ] } },
{ "type": "Feature", "properties": { "geogrid_id": "5113223480082011708", "seqnum": 11556.0, "lat_c": 13.223480019248314, "lon_c": -82.011707965288466, "res": 7.0, "count_Amphibians": 1, "count_Reptiles": 15, "count_Mosses": 0, "count_Ferns": 1, "count_Flowering Plants": 108, "count_Insects": 15, "count_Birds": 60, "count_Mammals": 2, "count_Sac Fungi": 0, "count_Molluscs": 22, "count_Arachnids": 5, "count_Basidiomycota": 0, "count_Gymnosperms": 0, "unique_species_count": 229.0, "countryCode": "CO" }, "geometry": { "type": "MultiPolygon", "coordinates": [ [ [ [ -81.201650973992301, 13.614202541549361 ], [ -81.189247985331434, 12.822548041457429 ], [ -81.995353078668046, 12.431733095566075 ], [ -82.81844544231366, 12.831235838330388 ], [ -82.840051426933229, 13.620913495211017 ], [ -82.029149053871038, 14.013325684225125 ], [ -81.201650973992301, 13.614202541549361 ] ] ] ] } },
{ "type": "Feature", "properties": { "geogrid_id": "5113226911073852263", "seqnum": 2920.0, "lat_c": 13.226910999906856, "lon_c": -73.852263467579888, "res": 7.0, "count_Amphibians": 0, "count_Reptiles": 3, "count_Mosses": 0, "count_Ferns": 0, "count_Flowering Plants": 0, "count_Insects": 0, "count_Birds": 1, "count_Mammals": 0, "count_Sac Fungi": 0, "count_Molluscs": 0, "count_Arachnids": 0, "count_Basidiomycota": 0, "count_Gymnosperms": 0, "unique_species_count": 4.0, "countryCode": "CO" }, "geometry": { "type": "MultiPolygon", "coordinates": [ [ [ [ -73.015833417319499, 13.617705814926019 ], [ -73.047619373400522, 12.831347416249889 ], [ -73.87797698454591, 12.43751653756525 ], [ -74.681554558470907, 12.831235833759944 ], [ -74.659948573901929, 13.62091349064621 ], [ -73.824856141101336, 14.013908962493876 ], [ -73.015833417319499, 13.617705814926019 ] ] ] ] } },
{ "type": "Feature", "properties": { "geogrid_id": "5114378949071317028", "seqnum": 2921.0, "lat_c": 14.378948671556456, "lon_c": -71.317028269526446, "res": 7.0, "count_Amphibians": 0, "count_Reptiles": 2, "count_Mosses": 0, "count_Ferns": 0, "count_Flowering Plants": 0, "count_Insects": 0, "count_Birds": 0, "count_Mammals": 0, "count_Sac Fungi": 0, "count_Molluscs": 0, "count_Arachnids": 0, "count_Basidiomycota": 0, "count_Gymnosperms": 0, "unique_species_count": 2.0, "countryCode": "CO" }, "geometry": { "type": "MultiPolygon", "coordinates": [ [ [ [ -70.451902146333794, 14.745480928048321 ], [ -70.506064831199637, 13.973967322438453 ], [ -71.362967598151243, 13.601322094344317 ], [ -72.171177112814632, 14.002287197331217 ], [ -72.130299283126334, 14.781569069488915 ], [ -71.268355621801945, 15.152844193829663 ], [ -70.451902146333794, 14.745480928048321 ] ] ] ] } },
{ "type": "Feature", "properties": { "geogrid_id": "5114390873077929048", "seqnum": 2810.0, "lat_c": 14.390872921438163, "lon_c": -77.929048273573173, "res": 7.0, "count_Amphibians": 0, "count_Reptiles": 1, "count_Mosses": 0, "count_Ferns": 0, "count_Flowering Plants": 0, "count_Insects": 0, "count_Birds": 0, "count_Mammals": 0, "count_Sac Fungi": 0, "count_Molluscs": 0, "count_Arachnids": 0, "count_Basidiomycota": 0, "count_Gymnosperms": 0, "unique_species_count": 1.0, "countryCode": "CO" }, "geometry": { "type": "MultiPolygon", "coordinates": [ [ [ [ -77.102987637849353, 14.793223076209934 ], [ -77.111882657225678, 14.003352028659416 ], [ -77.933280893186279, 13.599651587528742 ], [ -78.750000000652292, 13.98581819423951 ], [ -78.750000000677403, 14.776705914891616 ], [ -77.924553129518003, 15.180614380388342 ], [ -77.102987637849353, 14.793223076209934 ] ] ] ] } },
{ "type": "Feature", "properties": { "geogrid_id": "5114390873079570952", "seqnum": 11557.0, "lat_c": 14.390872926502828, "lon_c": -79.570951727198889, "res": 7.0, "count_Amphibians": 0, "count_Reptiles": 2, "count_Mosses": 0, "count_Ferns": 0, "count_Flowering Plants": 0, "count_Insects": 0, "count_Birds": 0, "count_Mammals": 0, "count_Sac Fungi": 0, "count_Molluscs": 1, "count_Arachnids": 0, "count_Basidiomycota": 0, "count_Gymnosperms": 0, "unique_species_count": 3.0, "countryCode": "CO" }, "geometry": { "type": "MultiPolygon", "coordinates": [ [ [ [ -78.75000000008751, 14.776705920078909 ], [ -78.75000000006996, 13.985818199428078 ], [ -79.56671910754153, 13.5996515925954 ], [ -80.388117343551826, 14.003352033601079 ], [ -80.397012362974209, 14.793223081148664 ], [ -79.575446871298553, 15.180614385450875 ], [ -78.75000000008751, 14.776705920078909 ] ] ] ] } },
{ "type": "Feature", "properties": { "geogrid_id": "5114401290072982022", "seqnum": 2893.0, "lat_c": 14.40129010147651, "lon_c": -72.982021900442035, "res": 7.0, "count_Amphibians": 0, "count_Reptiles": 3, "count_Mosses": 0, "count_Ferns": 0, "count_Flowering Plants": 0, "count_Insects": 0, "count_Birds": 0, "count_Mammals": 0, "count_Sac Fungi": 0, "count_Molluscs": 0, "count_Arachnids": 0, "count_Basidiomycota": 0, "count_Gymnosperms": 0, "unique_species_count": 3.0, "countryCode": "CO" }, "geometry": { "type": "MultiPolygon", "coordinates": [ [ [ [ -72.130299283126334, 14.781569069488915 ], [ -72.171177112814632, 14.002287197331217 ], [ -73.015833417319499, 13.617705814926019 ], [ -73.824856141101336, 14.013908962493876 ], [ -73.795739081239972, 14.798378761143983 ], [ -72.946167269731376, 15.18195495238708 ], [ -72.130299283126334, 14.781569069488915 ] ] ] ] } },
{ "type": "Feature", "properties": { "geogrid_id": "5114404110076285142", "seqnum": 2838.0, "lat_c": 14.404110235844447, "lon_c": -76.285141611667768, "res": 7.0, "count_Amphibians": 0, "count_Reptiles": 2, "count_Mosses": 0, "count_Ferns": 0, "count_Flowering Plants": 0, "count_Insects": 0, "count_Birds": 0, "count_Mammals": 0, "count_Sac Fungi": 0, "count_Molluscs": 0, "count_Arachnids": 0, "count_Basidiomycota": 0, "count_Gymnosperms": 0, "unique_species_count": 2.0, "countryCode": "CO" }, "geometry": { "type": "MultiPolygon", "coordinates": [ [ [ [ -75.452311783088632, 14.801163793523175 ], [ -75.470850946961733, 14.013325679535246 ], [ -76.29834902678904, 13.614202536731066 ], [ -77.111882657225678, 14.003352028659416 ], [ -77.102987637849353, 14.793223076209934 ], [ -76.271120230283714, 15.192176115852519 ], [ -75.452311783088632, 14.801163793523175 ] ] ] ] } },
{ "type": "Feature", "properties": { "geogrid_id": "5114404110081214858", "seqnum": 11530.0, "lat_c": 14.404110240658962, "lon_c": -81.214858389161179, "res": 7.0, "count_Amphibians": 0, "count_Reptiles": 1, "count_Mosses": 0, "count_Ferns": 0, "count_Flowering Plants": 0, "count_Insects": 0, "count_Birds": 0, "count_Mammals": 0, "count_Sac Fungi": 0, "count_Molluscs": 4, "count_Arachnids": 0, "count_Basidiomycota": 0, "count_Gymnosperms": 0, "unique_species_count": 5.0, "countryCode": "CO" }, "geometry": { "type": "MultiPolygon", "coordinates": [ [ [ [ -80.397012362974209, 14.793223081148664 ], [ -80.388117343551826, 14.003352033601079 ], [ -81.201650973992301, 13.614202541549361 ], [ -82.029149053871038, 14.013325684225125 ], [ -82.047688217793535, 14.801163798208069 ], [ -81.22887977059311, 15.192176120663007 ], [ -80.397012362974209, 14.793223081148664 ] ] ] ] } },
{ "type": "Feature", "properties": { "geogrid_id": "5114408400074636952", "seqnum": 2865.0, "lat_c": 14.408399644738136, "lon_c": -74.636951784787684, "res": 7.0, "count_Amphibians": 0, "count_Reptiles": 3, "count_Mosses": 0, "count_Ferns": 0, "count_Flowering Plants": 0, "count_Insects": 1, "count_Birds": 0, "count_Mammals": 0, "count_Sac Fungi": 0, "count_Molluscs": 0, "count_Arachnids": 0, "count_Basidiomycota": 0, "count_Gymnosperms": 0, "unique_species_count": 4.0, "countryCode": "CO" }, "geometry": { "type": "MultiPolygon", "coordinates": [ [ [ [ -73.795739081239972, 14.798378761143983 ], [ -73.824856141101336, 14.013908962493876 ], [ -74.659948573901929, 13.62091349064621 ], [ -75.470850946961733, 14.013325679535246 ], [ -75.452311783088632, 14.801163793523175 ], [ -74.612549599710078, 15.193576957454395 ], [ -73.795739081239972, 14.798378761143983 ] ] ] ] } },
{ "type": "Feature", "properties": { "geogrid_id": "5115512658070394633", "seqnum": 2894.0, "lat_c": 15.51265819188381, "lon_c": -70.394632610012636, "res": 7.0, "count_Amphibians": 0, "count_Reptiles": 1, "count_Mosses": 0, "count_Ferns": 0, "count_Flowering Plants": 0, "count_Insects": 0, "count_Birds": 0, "count_Mammals": 0, "count_Sac Fungi": 0, "count_Molluscs": 0, "count_Arachnids": 0, "count_Basidiomycota": 0, "count_Gymnosperms": 0, "unique_species_count": 1.0, "countryCode": "CO" }, "geometry": { "type": "MultiPolygon", "coordinates": [ [ [ [ -69.507298444051159, 15.857799435450401 ], [ -69.574047025238855, 15.098989626346517 ], [ -70.451902146333794, 14.745480928048321 ], [ -71.268355621801945, 15.152844193829663 ], [ -71.21693200454645, 15.922832883126793 ], [ -70.334241102112657, 16.275306997422099 ], [ -69.507298444051159, 15.857799435450401 ] ] ] ] } },
{ "type": "Feature", "properties": { "geogrid_id": "5115566229078750000", "seqnum": 2756.0, "lat_c": 15.56622934990164, "lon_c": -78.750000000702855, "res": 7.0, "count_Amphibians": 0, "count_Reptiles": 0, "count_Mosses": 0, "count_Ferns": 0, "count_Flowering Plants": 1, "count_Insects": 0, "count_Birds": 0, "count_Mammals": 0, "count_Sac Fungi": 0, "count_Molluscs": 2, "count_Arachnids": 0, "count_Basidiomycota": 0, "count_Gymnosperms": 0, "unique_species_count": 3.0, "countryCode": "CO" }, "geometry": { "type": "MultiPolygon", "coordinates": [ [ [ [ -77.919791896750951, 15.968799626581507 ], [ -77.924553129518003, 15.180614380388342 ], [ -78.750000000677403, 14.776705914891616 ], [ -79.575446871298553, 15.180614385450875 ], [ -79.580208104110369, 15.968799631641771 ], [ -78.750000000728676, 16.354319900654176 ], [ -77.919791896750951, 15.968799626581507 ] ] ] ] } },
{ "type": "Feature", "properties": { "geogrid_id": "5115580191073764895", "seqnum": 2839.0, "lat_c": 15.580190998981738, "lon_c": -73.764895380543649, "res": 7.0, "count_Amphibians": 0, "count_Reptiles": 2, "count_Mosses": 0, "count_Ferns": 0, "count_Flowering Plants": 0, "count_Insects": 0, "count_Birds": 0, "count_Mammals": 0, "count_Sac Fungi": 0, "count_Molluscs": 0, "count_Arachnids": 0, "count_Basidiomycota": 0, "count_Gymnosperms": 0, "unique_species_count": 2.0, "countryCode": "CO" }, "geometry": { "type": "MultiPolygon", "coordinates": [ [ [ [ -72.90825095243062, 15.959557914297484 ], [ -72.946167269731376, 15.18195495238708 ], [ -73.795739081239972, 14.798378761143983 ], [ -74.612549599710078, 15.193576957454395 ], [ -74.586726525102009, 15.976329972020515 ], [ -73.732307139725222, 16.359218640859098 ], [ -72.90825095243062, 15.959557914297484 ] ] ] ] } },
{ "type": "Feature", "properties": { "geogrid_id": "5115581402080406444", "seqnum": 11503.0, "lat_c": 15.581402125177588, "lon_c": -80.406444432614961, "res": 7.0, "count_Amphibians": 0, "count_Reptiles": 3, "count_Mosses": 0, "count_Ferns": 0, "count_Flowering Plants": 0, "count_Insects": 0, "count_Birds": 0, "count_Mammals": 0, "count_Sac Fungi": 0, "count_Molluscs": 1, "count_Arachnids": 0, "count_Basidiomycota": 0, "count_Gymnosperms": 0, "unique_species_count": 4.0, "countryCode": "CO" }, "geometry": { "type": "MultiPolygon", "coordinates": [ [ [ [ -79.580208104110369, 15.968799631641771 ], [ -79.575446871298553, 15.180614385450875 ], [ -80.397012362974209, 14.793223081148664 ], [ -81.22887977059311, 15.192176120663007 ], [ -81.243725271706452, 15.978306432732614 ], [ -80.416420739835331, 16.367805146984409 ], [ -79.580208104110369, 15.968799631641771 ] ] ] ] } },
{ "type": "Feature", "properties": { "geogrid_id": "7301212553074066750", "seqnum": 3406.0, "lat_c": -1.212552564089926, "lon_c": -74.066749962743216, "res": 7.0, "count_Amphibians": 0, "count_Reptiles": 0, "count_Mosses": 0, "count_Ferns": 0, "count_Flowering Plants": 0, "count_Insects": 22, "count_Birds": 0, "count_Mammals": 0, "count_Sac Fungi": 0, "count_Molluscs": 0, "count_Arachnids": 0, "count_Basidiomycota": 0, "count_Gymnosperms": 0, "unique_species_count": 22.0, "countryCode": "CO" }, "geometry": { "type": "MultiPolygon", "coordinates": [ [ [ [ -73.290183850974529, -0.809159722109437 ], [ -73.287361548193545, -1.61814772769192 ], [ -74.063613153622427, -2.020668198810919 ], [ -74.84410997774043, -1.61506914453965 ], [ -74.846019398715271, -0.8076017718774 ], [ -74.068317909483625, -0.404209470861018 ], [ -73.290183850974529, -0.809159722109437 ] ] ] ] } },
{ "type": "Feature", "properties": { "geogrid_id": "7301214761072511957", "seqnum": 3433.0, "lat_c": -1.214760538575157, "lon_c": -72.511956875887407, "res": 7.0, "count_Amphibians": 15, "count_Reptiles": 18, "count_Mosses": 4, "count_Ferns": 7, "count_Flowering Plants": 364, "count_Insects": 13, "count_Birds": 17, "count_Mammals": 9, "count_Sac Fungi": 1, "count_Molluscs": 0, "count_Arachnids": 3, "count_Basidiomycota": 0, "count_Gymnosperms": 0, "unique_species_count": 451.0, "countryCode": "CO" }, "geometry": { "type": "MultiPolygon", "coordinates": [ [ [ [ -71.737164442037184, -0.810563829967875 ], [ -71.733301976267569, -1.620904999274517 ], [ -72.507524298665047, -2.024275758769195 ], [ -73.287361548193545, -1.61814772769192 ], [ -73.290183850974529, -0.809159722109437 ], [ -72.514172649398333, -0.404952706424845 ], [ -71.737164442037184, -0.810563829967875 ] ] ] ] } },
{ "type": "Feature", "properties": { "geogrid_id": "7301216732070959761", "seqnum": 3461.0, "lat_c": -1.216732350965946, "lon_c": -70.95976076564007, "res": 7.0, "count_Amphibians": 0, "count_Reptiles": 0, "count_Mosses": 0, "count_Ferns": 0, "count_Flowering Plants": 70, "count_Insects": 32, "count_Birds": 0, "count_Mammals": 1, "count_Sac Fungi": 0, "count_Molluscs": 0, "count_Arachnids": 0, "count_Basidiomycota": 0, "count_Gymnosperms": 0, "unique_species_count": 103.0, "countryCode": "CO" }, "geometry": { "type": "MultiPolygon", "coordinates": [ [ [ [ -70.186646070962823, -0.81181369138827 ], [ -70.181568815088383, -1.623332989426416 ], [ -70.953834643939061, -2.027461846167372 ], [ -71.733301976267569, -1.620904999274517 ], [ -71.737164442037184, -0.810563829967875 ], [ -70.962723382947601, -0.405620011670578 ], [ -70.186646070962823, -0.81181369138827 ] ] ] ] } },
{ "type": "Feature", "properties": { "geogrid_id": "7301218464069409820", "seqnum": 3489.0, "lat_c": -1.218463811679988, "lon_c": -69.409820287084642, "res": 7.0, "count_Amphibians": 2, "count_Reptiles": 10, "count_Mosses": 3, "count_Ferns": 0, "count_Flowering Plants": 129, "count_Insects": 60, "count_Birds": 0, "count_Mammals": 1, "count_Sac Fungi": 0, "count_Molluscs": 0, "count_Arachnids": 1, "count_Basidiomycota": 4, "count_Gymnosperms": 1, "unique_species_count": 211.0, "countryCode": "CO" }, "geometry": { "type": "MultiPolygon", "coordinates": [ [ [ [ -68.638308922111321, -0.81290790194821 ], [ -68.631767867333167, -1.625416272308985 ], [ -69.402124372691134, -2.030203785189924 ], [ -70.181568815088383, -1.623332989426416 ], [ -70.186646070962823, -0.81181369138827 ], [ -69.413668126280029, -0.406211562992453 ], [ -68.638308922111321, -0.81290790194821 ] ] ] ] } },
{ "type": "Feature", "properties": { "geogrid_id": "7302426792073282656", "seqnum": 3460.0, "lat_c": -2.4267924893314459, "lon_c": -73.282656051036355, "res": 7.0, "count_Amphibians": 3, "count_Reptiles": 3, "count_Mosses": 0, "count_Ferns": 0, "count_Flowering Plants": 1, "count_Insects": 11, "count_Birds": 0, "count_Mammals": 28, "count_Sac Fungi": 0, "count_Molluscs": 0, "count_Arachnids": 2, "count_Basidiomycota": 0, "count_Gymnosperms": 0, "unique_species_count": 48.0, "countryCode": "CO" }, "geometry": { "type": "MultiPolygon", "coordinates": [ [ [ [ -72.507524298665047, -2.024275758769195 ], [ -72.500872857560637, -2.833303683236422 ], [ -73.276064870438717, -3.234922846384304 ], [ -74.058905650360515, -2.828404980789145 ], [ -74.063613153622427, -2.020668198810919 ], [ -73.287361548193545, -1.61814772769192 ], [ -72.507524298665047, -2.024275758769195 ] ] ] ] } },
{ "type": "Feature", "properties": { "geogrid_id": "7302430801071726863", "seqnum": 3488.0, "lat_c": -2.4308011527622422, "lon_c": -71.726862863008179, "res": 7.0, "count_Amphibians": 0, "count_Reptiles": 1, "count_Mosses": 0, "count_Ferns": 0, "count_Flowering Plants": 4, "count_Insects": 24, "count_Birds": 0, "count_Mammals": 0, "count_Sac Fungi": 0, "count_Molluscs": 0, "count_Arachnids": 0, "count_Basidiomycota": 0, "count_Gymnosperms": 0, "unique_species_count": 29.0, "countryCode": "CO" }, "geometry": { "type": "MultiPolygon", "coordinates": [ [ [ [ -70.953834643939061, -2.027461846167372 ], [ -70.944943245188043, -2.837553920406691 ], [ -71.717844598274596, -3.24003053490476 ], [ -72.500872857560637, -2.833303683236422 ], [ -72.507524298665047, -2.024275758769195 ], [ -71.733301976267569, -1.620904999274517 ], [ -70.953834643939061, -2.027461846167372 ] ] ] ] } },
{ "type": "Feature", "properties": { "geogrid_id": "7302434264070173106", "seqnum": 3515.0, "lat_c": -2.4342640208504962, "lon_c": -70.173105641016704, "res": 7.0, "count_Amphibians": 0, "count_Reptiles": 1, "count_Mosses": 33, "count_Ferns": 0, "count_Flowering Plants": 13, "count_Insects": 3, "count_Birds": 0, "count_Mammals": 1, "count_Sac Fungi": 0, "count_Molluscs": 0, "count_Arachnids": 0, "count_Basidiomycota": 0, "count_Gymnosperms": 0, "unique_species_count": 51.0, "countryCode": "CO" }, "geometry": { "type": "MultiPolygon", "coordinates": [ [ [ [ -69.402124372691134, -2.030203785189924 ], [ -69.390579914067743, -2.841091116265196 ], [ -70.161254931407427, -3.244313940576883 ], [ -70.944943245188043, -2.837553920406691 ], [ -70.953834643939061, -2.027461846167372 ], [ -70.181568815088383, -1.623332989426416 ], [ -69.402124372691134, -2.030203785189924 ] ] ] ] } },
{ "type": "Feature", "properties": { "geogrid_id": "7303646755070933084", "seqnum": 3542.0, "lat_c": -3.6467549729821909, "lon_c": -70.933083914329501, "res": 7.0, "count_Amphibians": 48, "count_Reptiles": 58, "count_Mosses": 1, "count_Ferns": 9, "count_Flowering Plants": 317, "count_Insects": 381, "count_Birds": 254, "count_Mammals": 51, "count_Sac Fungi": 7, "count_Molluscs": 2, "count_Arachnids": 48, "count_Basidiomycota": 6, "count_Gymnosperms": 0, "unique_species_count": 1182.0, "countryCode": "CO" }, "geometry": { "type": "MultiPolygon", "coordinates": [ [ [ [ -70.161254931407427, -3.244313940576883 ], [ -70.146014430191471, -4.053191443134205 ], [ -70.9182531186094, -4.454812764594354 ], [ -71.706243679503146, -4.048372290164655 ], [ -71.717844598274596, -3.24003053490476 ], [ -70.944943245188043, -2.837553920406691 ], [ -70.161254931407427, -3.244313940576883 ] ] ] ] } },
{ "type": "Feature", "properties": { "geogrid_id": "7303650787069375186", "seqnum": 3570.0, "lat_c": -3.6507871559598488, "lon_c": -69.37518621523769, "res": 7.0, "count_Amphibians": 30, "count_Reptiles": 50, "count_Mosses": 1, "count_Ferns": 1, "count_Flowering Plants": 147, "count_Insects": 370, "count_Birds": 129, "count_Mammals": 25, "count_Sac Fungi": 0, "count_Molluscs": 2, "count_Arachnids": 36, "count_Basidiomycota": 7, "count_Gymnosperms": 1, "unique_species_count": 799.0, "countryCode": "CO" }, "geometry": { "type": "MultiPolygon", "coordinates": [ [ [ [ -68.605606877826077, -3.247641932408551 ], [ -68.585989547235044, -4.056568580045399 ], [ -69.355942362322196, -4.458955649058534 ], [ -70.146014430191471, -4.053191443134205 ], [ -70.161254931407427, -3.244313940576883 ], [ -69.390579914067743, -2.841091116265196 ], [ -68.605606877826077, -3.247641932408551 ] ] ] ] } },
{ "type": "Feature", "properties": { "geogrid_id": "7304860607070127381", "seqnum": 3596.0, "lat_c": -4.8606072654945391, "lon_c": -70.127381250747888, "res": 7.0, "count_Amphibians": 20, "count_Reptiles": 24, "count_Mosses": 1, "count_Ferns": 1, "count_Flowering Plants": 117, "count_Insects": 98, "count_Birds": 130, "count_Mammals": 17, "count_Sac Fungi": 1, "count_Molluscs": 2, "count_Arachnids": 9, "count_Basidiomycota": 3, "count_Gymnosperms": 0, "unique_species_count": 423.0, "countryCode": "CO" }, "geometry": { "type": "MultiPolygon", "coordinates": [ [ [ [ -69.355942362322196, -4.458955649058534 ], [ -69.332847235528178, -5.265263397720073 ], [ -70.105351886373086, -5.666274681118851 ], [ -70.900446453836295, -5.261476797394455 ], [ -70.9182531186094, -4.454812764594354 ], [ -70.146014430191471, -4.053191443134205 ], [ -69.355942362322196, -4.458955649058534 ] ] ] ] } }
]
}
