{
"type": "FeatureCollection",
"name": "CR",
"crs": { "type": "name", "properties": { "name": "urn:ogc:def:crs:OGC:1.3:CRS84" } },
"features": [
{ "type": "Feature", "properties": { "geogrid_id": "5202027462086546165", "seqnum": 35551.0, "lat_c": 2.027461846167367, "lon_c": -86.546165356060953, "res": 8.0, "count_Mosses": 0, "count_Amphibians": 0, "count_Molluscs": 0, "count_Mammals": 1, "count_Flowering Plants": 0, "count_Sac Fungi": 0, "count_Arachnids": 0, "count_Basidiomycota": 0, "count_Insects": 0, "count_Reptiles": 0, "count_Birds": 0, "count_Ferns": 0, "count_Gymnosperms": 0, "unique_species_count": 1.0, "countryCode": "CR" }, "geometry": { "type": "MultiPolygon", "coordinates": [ [ [ [ -86.028510521742646, 2.02644775677823 ], [ -86.2841822923683, 1.621751476104495 ], [ -86.801421851132829, 1.622560987083076 ], [ -87.063599704944266, 2.028426741509016 ], [ -86.809171665327526, 2.433173039753803 ], [ -86.291258896191081, 2.432018108656575 ], [ -86.028510521742646, 2.02644775677823 ] ] ] ] } },
{ "type": "Feature", "properties": { "geogrid_id": "5202430801085773137", "seqnum": 35552.0, "lat_c": 2.4308011527622382, "lon_c": -85.773137136991835, "res": 8.0, "count_Mosses": 0, "count_Amphibians": 0, "count_Molluscs": 0, "count_Mammals": 2, "count_Flowering Plants": 0, "count_Sac Fungi": 0, "count_Arachnids": 0, "count_Basidiomycota": 0, "count_Insects": 0, "count_Reptiles": 1, "count_Birds": 2, "count_Ferns": 0, "count_Gymnosperms": 0, "unique_species_count": 5.0, "countryCode": "CR" }, "geometry": { "type": "MultiPolygon", "coordinates": [ [ [ [ -85.254788561482698, 2.429523743305615 ], [ -85.510619110892378, 2.025385460071953 ], [ -86.028510521742646, 2.02644775677823 ], [ -86.291258896191081, 2.432018108656575 ], [ -86.036616235051994, 2.836212424745923 ], [ -85.517979577917757, 2.834794915604803 ], [ -85.254788561482698, 2.429523743305615 ] ] ] ] } },
{ "type": "Feature", "properties": { "geogrid_id": "5202434264087326894", "seqnum": 35469.0, "lat_c": 2.4342640208504909, "lon_c": -87.326894358983296, "res": 8.0, "count_Mosses": 0, "count_Amphibians": 0, "count_Molluscs": 0, "count_Mammals": 6, "count_Flowering Plants": 0, "count_Sac Fungi": 0, "count_Arachnids": 0, "count_Basidiomycota": 0, "count_Insects": 0, "count_Reptiles": 2, "count_Birds": 0, "count_Ferns": 0, "count_Gymnosperms": 0, "unique_species_count": 8.0, "countryCode": "CR" }, "geometry": { "type": "MultiPolygon", "coordinates": [ [ [ [ -86.809171665327526, 2.433173039753803 ], [ -87.063599704944266, 2.028426741509016 ], [ -87.580830483623458, 2.029341224909298 ], [ -87.844447228928018, 2.435288679575459 ], [ -87.591435015564201, 2.839997083454783 ], [ -87.07332213211626, 2.838816612732829 ], [ -86.809171665327526, 2.433173039753803 ] ] ] ] } },
{ "type": "Feature", "properties": { "geogrid_id": "5202833304084999127", "seqnum": 35553.0, "lat_c": 2.833303683236418, "lon_c": -84.999127142439363, "res": 8.0, "count_Mosses": 0, "count_Amphibians": 0, "count_Molluscs": 0, "count_Mammals": 3, "count_Flowering Plants": 0, "count_Sac Fungi": 0, "count_Arachnids": 0, "count_Basidiomycota": 0, "count_Insects": 0, "count_Reptiles": 0, "count_Birds": 0, "count_Ferns": 0, "count_Gymnosperms": 0, "unique_species_count": 3.0, "countryCode": "CR" }, "geometry": { "type": "MultiPolygon", "coordinates": [ [ [ [ -84.480040402042576, 2.831740617139725 ], [ -84.736196233709194, 2.428187168689936 ], [ -85.254788561482698, 2.429523743305615 ], [ -85.517979577917757, 2.834794915604803 ], [ -85.262959122677714, 3.238415111923276 ], [ -84.743559085342, 3.236711682911066 ], [ -84.480040402042576, 2.831740617139725 ] ] ] ] } },
{ "type": "Feature", "properties": { "geogrid_id": "5202837554086555057", "seqnum": 35470.0, "lat_c": 2.8375539204066862, "lon_c": -86.555056754811957, "res": 8.0, "count_Mosses": 0, "count_Amphibians": 0, "count_Molluscs": 0, "count_Mammals": 6, "count_Flowering Plants": 0, "count_Sac Fungi": 0, "count_Arachnids": 0, "count_Basidiomycota": 0, "count_Insects": 0, "count_Reptiles": 1, "count_Birds": 0, "count_Ferns": 0, "count_Gymnosperms": 0, "unique_species_count": 7.0, "countryCode": "CR" }, "geometry": { "type": "MultiPolygon", "coordinates": [ [ [ [ -86.036616235051994, 2.836212424745923 ], [ -86.291258896191081, 2.432018108656575 ], [ -86.809171665327526, 2.433173039753803 ], [ -87.07332213211626, 2.838816612732829 ], [ -86.820024283304136, 3.242984163591375 ], [ -86.30116941844021, 3.241554818195641 ], [ -86.036616235051994, 2.836212424745923 ] ] ] ] } },
{ "type": "Feature", "properties": { "geogrid_id": "5202841091088109420", "seqnum": 35387.0, "lat_c": 2.8410911162651922, "lon_c": -88.109420085932271, "res": 8.0, "count_Mosses": 0, "count_Amphibians": 0, "count_Molluscs": 2, "count_Mammals": 3, "count_Flowering Plants": 0, "count_Sac Fungi": 0, "count_Arachnids": 0, "count_Basidiomycota": 0, "count_Insects": 0, "count_Reptiles": 0, "count_Birds": 0, "count_Ferns": 0, "count_Gymnosperms": 0, "unique_species_count": 5.0, "countryCode": "CR" }, "geometry": { "type": "MultiPolygon", "coordinates": [ [ [ [ -87.591435015564201, 2.839997083454783 ], [ -87.844447228928018, 2.435288679575459 ], [ -88.361852179860691, 2.436244072954756 ], [ -88.627304538870405, 2.842093470928721 ], [ -88.375897234611017, 3.246650716450584 ], [ -87.857359244842527, 3.245538466637199 ], [ -87.591435015564201, 2.839997083454783 ] ] ] ] } },
{ "type": "Feature", "properties": { "geogrid_id": "5203234923084223935", "seqnum": 35554.0, "lat_c": 3.2349228463843001, "lon_c": -84.223935129561298, "res": 8.0, "count_Mosses": 0, "count_Amphibians": 0, "count_Molluscs": 0, "count_Mammals": 1, "count_Flowering Plants": 0, "count_Sac Fungi": 0, "count_Arachnids": 0, "count_Basidiomycota": 0, "count_Insects": 0, "count_Reptiles": 0, "count_Birds": 0, "count_Ferns": 0, "count_Gymnosperms": 0, "unique_species_count": 1.0, "countryCode": "CR" }, "geometry": { "type": "MultiPolygon", "coordinates": [ [ [ [ -83.704068205410707, 3.233050766454489 ], [ -83.960701751432353, 2.830107282645661 ], [ -84.480040402042576, 2.831740617139725 ], [ -84.743559085342, 3.236711682911066 ], [ -84.488011777231904, 3.639736351566263 ], [ -83.967810201802649, 3.637722624834824 ], [ -83.704068205410707, 3.233050766454489 ] ] ] ] } },
{ "type": "Feature", "properties": { "geogrid_id": "5203240031085782155", "seqnum": 35471.0, "lat_c": 3.240030534904756, "lon_c": -85.782155401725419, "res": 8.0, "count_Mosses": 0, "count_Amphibians": 0, "count_Molluscs": 0, "count_Mammals": 5, "count_Flowering Plants": 0, "count_Sac Fungi": 0, "count_Arachnids": 0, "count_Basidiomycota": 0, "count_Insects": 0, "count_Reptiles": 1, "count_Birds": 0, "count_Ferns": 0, "count_Gymnosperms": 0, "unique_species_count": 6.0, "countryCode": "CR" }, "geometry": { "type": "MultiPolygon", "coordinates": [ [ [ [ -85.262959122677714, 3.238415111923276 ], [ -85.517979577917757, 2.834794915604803 ], [ -86.036616235051994, 2.836212424745923 ], [ -86.30116941844021, 3.241554818195641 ], [ -86.04742839834131, 3.645164035387373 ], [ -85.527798290633555, 3.643460804156627 ], [ -85.262959122677714, 3.238415111923276 ] ] ] ] } },
{ "type": "Feature", "properties": { "geogrid_id": "5203244314087338745", "seqnum": 35388.0, "lat_c": 3.2443139405768782, "lon_c": -87.338745068592573, "res": 8.0, "count_Mosses": 0, "count_Amphibians": 0, "count_Molluscs": 0, "count_Mammals": 5, "count_Flowering Plants": 0, "count_Sac Fungi": 0, "count_Arachnids": 0, "count_Basidiomycota": 0, "count_Insects": 0, "count_Reptiles": 2, "count_Birds": 0, "count_Ferns": 0, "count_Gymnosperms": 0, "unique_species_count": 7.0, "countryCode": "CR" }, "geometry": { "type": "MultiPolygon", "coordinates": [ [ [ [ -86.820024283304136, 3.242984163591375 ], [ -87.07332213211626, 2.838816612732829 ], [ -87.591435015564201, 2.839997083454783 ], [ -87.857359244842527, 3.245538466637199 ], [ -87.605576871128946, 3.649574689390123 ], [ -87.0862888343582, 3.648227628993302 ], [ -86.820024283304136, 3.242984163591375 ] ] ] ] } },
{ "type": "Feature", "properties": { "geogrid_id": "5203247642088894393", "seqnum": 35305.0, "lat_c": 3.247641932408547, "lon_c": -88.894393122173938, "res": 8.0, "count_Mosses": 0, "count_Amphibians": 0, "count_Molluscs": 0, "count_Mammals": 2, "count_Flowering Plants": 0, "count_Sac Fungi": 0, "count_Arachnids": 0, "count_Basidiomycota": 0, "count_Insects": 0, "count_Reptiles": 0, "count_Birds": 0, "count_Ferns": 0, "count_Gymnosperms": 0, "unique_species_count": 2.0, "countryCode": "CR" }, "geometry": { "type": "MultiPolygon", "coordinates": [ [ [ [ -88.375897234611017, 3.246650716450584 ], [ -88.627304538870405, 2.842093470928721 ], [ -89.145118707056213, 2.842997578754035 ], [ -89.412885573054965, 3.248501096297683 ], [ -89.163290353272203, 3.652760868845723 ], [ -88.644037312574056, 3.651853869716105 ], [ -88.375897234611017, 3.246650716450584 ] ] ] ] } },
{ "type": "Feature", "properties": { "geogrid_id": "5203641650085008001", "seqnum": 35472.0, "lat_c": 3.641650213254255, "lon_c": -85.008000536973142, "res": 8.0, "count_Mosses": 0, "count_Amphibians": 0, "count_Molluscs": 0, "count_Mammals": 6, "count_Flowering Plants": 0, "count_Sac Fungi": 0, "count_Arachnids": 0, "count_Basidiomycota": 0, "count_Insects": 0, "count_Reptiles": 0, "count_Birds": 0, "count_Ferns": 0, "count_Gymnosperms": 0, "unique_species_count": 6.0, "countryCode": "CR" }, "geometry": { "type": "MultiPolygon", "coordinates": [ [ [ [ -84.488011777231904, 3.639736351566262 ], [ -84.743559085342, 3.236711682911066 ], [ -85.262959122677714, 3.238415111923276 ], [ -85.527798290633555, 3.643460804156627 ], [ -85.273470299743039, 4.046493823261931 ], [ -84.753031755561111, 4.044490742634754 ], [ -84.488011777231904, 3.639736351566262 ] ] ] ] } },
{ "type": "Feature", "properties": { "geogrid_id": "5203646755086566916", "seqnum": 35389.0, "lat_c": 3.646754972982186, "lon_c": -86.566916085670513, "res": 8.0, "count_Mosses": 0, "count_Amphibians": 0, "count_Molluscs": 0, "count_Mammals": 5, "count_Flowering Plants": 0, "count_Sac Fungi": 0, "count_Arachnids": 0, "count_Basidiomycota": 0, "count_Insects": 0, "count_Reptiles": 1, "count_Birds": 0, "count_Ferns": 0, "count_Gymnosperms": 0, "unique_species_count": 6.0, "countryCode": "CR" }, "geometry": { "type": "MultiPolygon", "coordinates": [ [ [ [ -86.04742839834131, 3.645164035387373 ], [ -86.30116941844021, 3.241554818195641 ], [ -86.820024283304136, 3.242984163591375 ], [ -87.0862888343582, 3.648227628993302 ], [ -86.833982575505942, 4.051729375558124 ], [ -86.313917130471367, 4.050119963713709 ], [ -86.04742839834131, 3.645164035387373 ] ] ] ] } },
{ "type": "Feature", "properties": { "geogrid_id": "5203650787088124814", "seqnum": 35306.0, "lat_c": 3.6507871559598439, "lon_c": -88.12481378476231, "res": 8.0, "count_Mosses": 0, "count_Amphibians": 0, "count_Molluscs": 0, "count_Mammals": 2, "count_Flowering Plants": 0, "count_Sac Fungi": 0, "count_Arachnids": 0, "count_Basidiomycota": 0, "count_Insects": 0, "count_Reptiles": 1, "count_Birds": 0, "count_Ferns": 0, "count_Gymnosperms": 0, "unique_species_count": 3.0, "countryCode": "CR" }, "geometry": { "type": "MultiPolygon", "coordinates": [ [ [ [ -87.605576871128946, 3.649574689390123 ], [ -87.857359244842527, 3.245538466637199 ], [ -88.375897234611017, 3.246650716450584 ], [ -88.644037312574056, 3.651853869716105 ], [ -88.39395541858201, 4.055626450758932 ], [ -87.87396276823678, 4.05449504368613 ], [ -87.605576871128946, 3.649574689390123 ] ] ] ] } },
{ "type": "Feature", "properties": { "geogrid_id": "5203653491089682622", "seqnum": 35223.0, "lat_c": 3.6534905122143062, "lon_c": -89.682622286074476, "res": 8.0, "count_Mosses": 0, "count_Amphibians": 0, "count_Molluscs": 0, "count_Mammals": 0, "count_Flowering Plants": 0, "count_Sac Fungi": 0, "count_Arachnids": 0, "count_Basidiomycota": 0, "count_Insects": 0, "count_Reptiles": 1, "count_Birds": 0, "count_Ferns": 0, "count_Gymnosperms": 0, "unique_species_count": 1.0, "countryCode": "CR" }, "geometry": { "type": "MultiPolygon", "coordinates": [ [ [ [ -89.163290353272203, 3.652760868845723 ], [ -89.412885573054965, 3.248501096297683 ], [ -89.931419039610617, 3.249214202620752 ], [ -90.202090709797972, 3.65402026537171 ], [ -89.954532729738048, 4.057793363543905 ], [ -89.434181898887658, 4.057299967253169 ], [ -89.163290353272203, 3.652760868845723 ] ] ] ] } },
{ "type": "Feature", "properties": { "geogrid_id": "5204042368084232415", "seqnum": 35473.0, "lat_c": 4.0423681903818967, "lon_c": -84.232415478799936, "res": 8.0, "count_Mosses": 0, "count_Amphibians": 0, "count_Molluscs": 0, "count_Mammals": 2, "count_Flowering Plants": 0, "count_Sac Fungi": 0, "count_Arachnids": 0, "count_Basidiomycota": 0, "count_Insects": 0, "count_Reptiles": 0, "count_Birds": 0, "count_Ferns": 0, "count_Gymnosperms": 0, "unique_species_count": 2.0, "countryCode": "CR" }, "geometry": { "type": "MultiPolygon", "coordinates": [ [ [ [ -83.711598016035239, 4.040130466720334 ], [ -83.967810201802649, 3.637722624834824 ], [ -84.488011777231904, 3.639736351566263 ], [ -84.753031755561111, 4.044490742634754 ], [ -84.4979835927018, 4.44692896962141 ], [ -83.976703067175208, 4.444599319752883 ], [ -83.711598016035239, 4.040130466720334 ] ] ] ] } },
{ "type": "Feature", "properties": { "geogrid_id": "5204048372085793756", "seqnum": 35390.0, "lat_c": 4.0483722901646511, "lon_c": -85.793756320496854, "res": 8.0, "count_Mosses": 0, "count_Amphibians": 0, "count_Molluscs": 0, "count_Mammals": 7, "count_Flowering Plants": 0, "count_Sac Fungi": 0, "count_Arachnids": 0, "count_Basidiomycota": 0, "count_Insects": 0, "count_Reptiles": 0, "count_Birds": 0, "count_Ferns": 0, "count_Gymnosperms": 0, "unique_species_count": 7.0, "countryCode": "CR" }, "geometry": { "type": "MultiPolygon", "coordinates": [ [ [ [ -85.273470299743039, 4.046493823261931 ], [ -85.527798290633555, 3.643460804156627 ], [ -86.04742839834131, 3.645164035387373 ], [ -86.313917130471367, 4.050119963713709 ], [ -86.06095090129061, 4.453072247710842 ], [ -85.540079322288378, 4.451172331858587 ], [ -85.273470299743039, 4.046493823261931 ] ] ] ] } },
{ "type": "Feature", "properties": { "geogrid_id": "5204053191087353986", "seqnum": 35307.0, "lat_c": 4.0531914431342004, "lon_c": -87.353985569808529, "res": 8.0, "count_Mosses": 0, "count_Amphibians": 0, "count_Molluscs": 0, "count_Mammals": 3, "count_Flowering Plants": 0, "count_Sac Fungi": 0, "count_Arachnids": 0, "count_Basidiomycota": 0, "count_Insects": 0, "count_Reptiles": 0, "count_Birds": 0, "count_Ferns": 0, "count_Gymnosperms": 0, "unique_species_count": 3.0, "countryCode": "CR" }, "geometry": { "type": "MultiPolygon", "coordinates": [ [ [ [ -86.833982575505942, 4.051729375558124 ], [ -87.0862888343582, 3.648227628993302 ], [ -87.605576871128946, 3.649574689390123 ], [ -87.87396276823678, 4.05449504368613 ], [ -87.623258160179461, 4.45776935565854 ], [ -87.102502770033126, 4.456382922015711 ], [ -86.833982575505942, 4.051729375558124 ] ] ] ] } },
{ "type": "Feature", "properties": { "geogrid_id": "5204056569088914010", "seqnum": 35224.0, "lat_c": 4.0565685800453943, "lon_c": -88.914010452764956, "res": 8.0, "count_Mosses": 0, "count_Amphibians": 0, "count_Molluscs": 0, "count_Mammals": 3, "count_Flowering Plants": 0, "count_Sac Fungi": 0, "count_Arachnids": 0, "count_Basidiomycota": 0, "count_Insects": 0, "count_Reptiles": 1, "count_Birds": 0, "count_Ferns": 0, "count_Gymnosperms": 0, "unique_species_count": 4.0, "countryCode": "CR" }, "geometry": { "type": "MultiPolygon", "coordinates": [ [ [ [ -88.39395541858201, 4.055626450758932 ], [ -88.644037312574056, 3.651853869716105 ], [ -89.163290353272203, 3.652760868845723 ], [ -89.434181898887658, 4.057299967253169 ], [ -89.185999424134721, 4.460641417074704 ], [ -88.664951936448148, 4.459921471414773 ], [ -88.39395541858201, 4.055626450758932 ] ] ] ] } },
{ "type": "Feature", "properties": { "geogrid_id": "5204449122085019100", "seqnum": 35391.0, "lat_c": 4.4491220666699363, "lon_c": -85.019100003010223, "res": 8.0, "count_Mosses": 0, "count_Amphibians": 0, "count_Molluscs": 0, "count_Mammals": 3, "count_Flowering Plants": 0, "count_Sac Fungi": 0, "count_Arachnids": 0, "count_Basidiomycota": 0, "count_Insects": 0, "count_Reptiles": 1, "count_Birds": 0, "count_Ferns": 0, "count_Gymnosperms": 0, "unique_species_count": 4.0, "countryCode": "CR" }, "geometry": { "type": "MultiPolygon", "coordinates": [ [ [ [ -84.4979835927018, 4.44692896962141 ], [ -84.753031755561111, 4.044490742634754 ], [ -85.273470299743039, 4.046493823261931 ], [ -85.540079322288378, 4.451172331858587 ], [ -85.286326716253058, 4.853558612635454 ], [ -84.76461885337001, 4.851339598725449 ], [ -84.4979835927018, 4.44692896962141 ] ] ] ] } },
{ "type": "Feature", "properties": { "geogrid_id": "5204454813086581747", "seqnum": 35308.0, "lat_c": 4.45481276459435, "lon_c": -86.5817468813906, "res": 8.0, "count_Mosses": 0, "count_Amphibians": 0, "count_Molluscs": 0, "count_Mammals": 3, "count_Flowering Plants": 0, "count_Sac Fungi": 0, "count_Arachnids": 0, "count_Basidiomycota": 0, "count_Insects": 0, "count_Reptiles": 1, "count_Birds": 3, "count_Ferns": 0, "count_Gymnosperms": 0, "unique_species_count": 7.0, "countryCode": "CR" }, "geometry": { "type": "MultiPolygon", "coordinates": [ [ [ [ -86.06095090129061, 4.453072247710842 ], [ -86.313917130471367, 4.050119963713709 ], [ -86.833982575505942, 4.051729375558124 ], [ -87.102502770033126, 4.456382922015711 ], [ -86.851050221561778, 4.859145390901538 ], [ -86.329506230390251, 4.857473324894392 ], [ -86.06095090129061, 4.453072247710842 ] ] ] ] } },
{ "type": "Feature", "properties": { "geogrid_id": "5204458956088144058", "seqnum": 35225.0, "lat_c": 4.4589556490585291, "lon_c": -88.144057637677804, "res": 8.0, "count_Mosses": 0, "count_Amphibians": 0, "count_Molluscs": 0, "count_Mammals": 2, "count_Flowering Plants": 0, "count_Sac Fungi": 0, "count_Arachnids": 0, "count_Basidiomycota": 0, "count_Insects": 0, "count_Reptiles": 2, "count_Birds": 0, "count_Ferns": 0, "count_Gymnosperms": 0, "unique_species_count": 4.0, "countryCode": "CR" }, "geometry": { "type": "MultiPolygon", "coordinates": [ [ [ [ -87.623258160179461, 4.45776935565854 ], [ -87.87396276823678, 4.05449504368613 ], [ -88.39395541858201, 4.055626450758932 ], [ -88.664951936448148, 4.459921471414773 ], [ -88.416026897977417, 4.862819220200477 ], [ -87.894259545916412, 4.86183975934554 ], [ -87.623258160179461, 4.45776935565854 ] ] ] ] } },
{ "type": "Feature", "properties": { "geogrid_id": "5204461083089707268", "seqnum": 35142.0, "lat_c": 4.4610834228278833, "lon_c": -89.707268033819545, "res": 8.0, "count_Mosses": 0, "count_Amphibians": 0, "count_Molluscs": 0, "count_Mammals": 7, "count_Flowering Plants": 0, "count_Sac Fungi": 0, "count_Arachnids": 0, "count_Basidiomycota": 0, "count_Insects": 0, "count_Reptiles": 1, "count_Birds": 0, "count_Ferns": 0, "count_Gymnosperms": 0, "unique_species_count": 8.0, "countryCode": "CR" }, "geometry": { "type": "MultiPolygon", "coordinates": [ [ [ [ -89.185999424134721, 4.460641417074704 ], [ -89.434181898887658, 4.057299967253169 ], [ -89.954532729738048, 4.057793363543905 ], [ -90.228837805798946, 4.461206578246842 ], [ -89.982765142720808, 4.863905470778678 ], [ -89.460200883120876, 4.863893926108974 ], [ -89.185999424134721, 4.460641417074704 ] ] ] ] } },
{ "type": "Feature", "properties": { "geogrid_id": "5204848959084242789", "seqnum": 35392.0, "lat_c": 4.8489586467331716, "lon_c": -84.242789478527726, "res": 8.0, "count_Mosses": 0, "count_Amphibians": 0, "count_Molluscs": 0, "count_Mammals": 4, "count_Flowering Plants": 0, "count_Sac Fungi": 0, "count_Arachnids": 0, "count_Basidiomycota": 0, "count_Insects": 0, "count_Reptiles": 0, "count_Birds": 0, "count_Ferns": 0, "count_Gymnosperms": 0, "unique_species_count": 4.0, "countryCode": "CR" }, "geometry": { "type": "MultiPolygon", "coordinates": [ [ [ [ -83.720809800838992, 4.84642324226687 ], [ -83.976703067175208, 4.444599319752883 ], [ -84.4979835927018, 4.44692896962141 ], [ -84.76461885337001, 4.851339598725449 ], [ -84.509960912991815, 5.253141820960558 ], [ -83.987385218650275, 5.250574781373026 ], [ -83.720809800838992, 4.84642324226687 ] ] ] ] } },
{ "type": "Feature", "properties": { "geogrid_id": "5204855607085807944", "seqnum": 35309.0, "lat_c": 4.8556067582241216, "lon_c": -85.8079443914379, "res": 8.0, "count_Mosses": 0, "count_Amphibians": 0, "count_Molluscs": 0, "count_Mammals": 9, "count_Flowering Plants": 0, "count_Sac Fungi": 0, "count_Arachnids": 0, "count_Basidiomycota": 0, "count_Insects": 0, "count_Reptiles": 0, "count_Birds": 1, "count_Ferns": 0, "count_Gymnosperms": 0, "unique_species_count": 10.0, "countryCode": "CR" }, "geometry": { "type": "MultiPolygon", "coordinates": [ [ [ [ -85.286326716253058, 4.853558612635454 ], [ -85.540079322288378, 4.451172331858587 ], [ -86.06095090129061, 4.453072247710842 ], [ -86.329506230390251, 4.857473324894392 ], [ -86.077188597874297, 5.259708182022965 ], [ -85.554827759552438, 5.257719937771834 ], [ -85.286326716253058, 4.853558612635454 ] ] ] ] } },
{ "type": "Feature", "properties": { "geogrid_id": "5204860607087372619", "seqnum": 35226.0, "lat_c": 4.8606072654945347, "lon_c": -87.372618749252126, "res": 8.0, "count_Mosses": 0, "count_Amphibians": 0, "count_Molluscs": 0, "count_Mammals": 5, "count_Flowering Plants": 0, "count_Sac Fungi": 0, "count_Arachnids": 0, "count_Basidiomycota": 0, "count_Insects": 0, "count_Reptiles": 1, "count_Birds": 3, "count_Ferns": 0, "count_Gymnosperms": 0, "unique_species_count": 9.0, "countryCode": "CR" }, "geometry": { "type": "MultiPolygon", "coordinates": [ [ [ [ -86.851050221561778, 4.859145390901538 ], [ -87.102502770033126, 4.456382922015711 ], [ -87.623258160179461, 4.45776935565854 ], [ -87.894259545916412, 4.86183975934554 ], [ -87.644481500665094, 5.264278913015664 ], [ -87.121967621492487, 5.263007710959942 ], [ -86.851050221561778, 4.859145390901538 ] ] ] ] } },
{ "type": "Feature", "properties": { "geogrid_id": "5204863491090505777", "seqnum": 35060.0, "lat_c": 4.8634908468662106, "lon_c": -90.505777253208791, "res": 8.0, "count_Mosses": 0, "count_Amphibians": 0, "count_Molluscs": 0, "count_Mammals": 1, "count_Flowering Plants": 0, "count_Sac Fungi": 0, "count_Arachnids": 0, "count_Basidiomycota": 0, "count_Insects": 0, "count_Reptiles": 0, "count_Birds": 0, "count_Ferns": 0, "count_Gymnosperms": 0, "unique_species_count": 1.0, "countryCode": "CR" }, "geometry": { "type": "MultiPolygon", "coordinates": [ [ [ [ -89.982765142720808, 4.863905470778678 ], [ -90.228837805798946, 4.461206578246842 ], [ -90.75080427577025, 4.460958048311172 ], [ -91.029359242659524, 4.862572062791005 ], [ -90.785611647699128, 5.264363880915767 ], [ -90.260907367258838, 5.265525076923073 ], [ -89.982765142720808, 4.863905470778678 ] ] ] ] } },
{ "type": "Feature", "properties": { "geogrid_id": "5204863516088937983", "seqnum": 35143.0, "lat_c": 4.8635162434219952, "lon_c": -88.93798318740059, "res": 8.0, "count_Mosses": 0, "count_Amphibians": 0, "count_Molluscs": 0, "count_Mammals": 4, "count_Flowering Plants": 0, "count_Sac Fungi": 0, "count_Arachnids": 0, "count_Basidiomycota": 0, "count_Insects": 0, "count_Reptiles": 0, "count_Birds": 0, "count_Ferns": 0, "count_Gymnosperms": 0, "unique_species_count": 4.0, "countryCode": "CR" }, "geometry": { "type": "MultiPolygon", "coordinates": [ [ [ [ -88.416026897977417, 4.862819220200477 ], [ -88.664951936448148, 4.459921471414773 ], [ -89.185999424134721, 4.460641417074704 ], [ -89.460200883120876, 4.863893926108974 ], [ -89.213242227799611, 5.266230280799058 ], [ -88.690047479338588, 5.265927755567071 ], [ -88.416026897977417, 4.862819220200477 ] ] ] ] } },
{ "type": "Feature", "properties": { "geogrid_id": "5205255527085032431", "seqnum": 35310.0, "lat_c": 5.2555270069414934, "lon_c": -85.032430686018301, "res": 8.0, "count_Mosses": 0, "count_Amphibians": 0, "count_Molluscs": 0, "count_Mammals": 3, "count_Flowering Plants": 0, "count_Sac Fungi": 0, "count_Arachnids": 0, "count_Basidiomycota": 0, "count_Insects": 0, "count_Reptiles": 1, "count_Birds": 0, "count_Ferns": 0, "count_Gymnosperms": 0, "unique_species_count": 4.0, "countryCode": "CR" }, "geometry": { "type": "MultiPolygon", "coordinates": [ [ [ [ -84.509960912991815, 5.253141820960558 ], [ -84.76461885337001, 4.851339598725449 ], [ -85.286326716253058, 4.853558612635454 ], [ -85.554827759552438, 5.257719937771834 ], [ -85.301534019031962, 5.659409472987437 ], [ -84.778326010862045, 5.657074571418117 ], [ -84.509960912991815, 5.253141820960558 ] ] ] ] } },
{ "type": "Feature", "properties": { "geogrid_id": "5205261477086599554", "seqnum": 35227.0, "lat_c": 5.261476797394451, "lon_c": -86.599553546163705, "res": 8.0, "count_Mosses": 0, "count_Amphibians": 0, "count_Molluscs": 0, "count_Mammals": 4, "count_Flowering Plants": 0, "count_Sac Fungi": 0, "count_Arachnids": 0, "count_Basidiomycota": 0, "count_Insects": 0, "count_Reptiles": 1, "count_Birds": 0, "count_Ferns": 0, "count_Gymnosperms": 0, "unique_species_count": 5.0, "countryCode": "CR" }, "geometry": { "type": "MultiPolygon", "coordinates": [ [ [ [ -86.077188597874297, 5.259708182022965 ], [ -86.329506230390251, 4.857473324894392 ], [ -86.851050221561778, 4.859145390901538 ], [ -87.121967621492487, 5.263007710959942 ], [ -86.871231702113874, 5.664971035055014 ], [ -86.347941837126967, 5.663376447502024 ], [ -86.077188597874297, 5.259708182022965 ] ] ] ] } },
{ "type": "Feature", "properties": { "geogrid_id": "5205265263088167153", "seqnum": 35144.0, "lat_c": 5.2652633977200676, "lon_c": -88.167152764471822, "res": 8.0, "count_Mosses": 0, "count_Amphibians": 0, "count_Molluscs": 2, "count_Mammals": 0, "count_Flowering Plants": 0, "count_Sac Fungi": 0, "count_Arachnids": 0, "count_Basidiomycota": 0, "count_Insects": 1, "count_Reptiles": 1, "count_Birds": 0, "count_Ferns": 0, "count_Gymnosperms": 0, "unique_species_count": 4.0, "countryCode": "CR" }, "geometry": { "type": "MultiPolygon", "coordinates": [ [ [ [ -87.644481500665094, 5.264278913015664 ], [ -87.894259545916412, 4.86183975934554 ], [ -88.416026897977417, 4.862819220200477 ], [ -88.690047479338588, 5.265927755567071 ], [ -88.442111847090004, 5.667880707185891 ], [ -87.91825168714665, 5.667257030813449 ], [ -87.644481500665094, 5.264278913015664 ] ] ] ] } },
{ "type": "Feature", "properties": { "geogrid_id": "5205266118089736827", "seqnum": 35061.0, "lat_c": 5.2661183933455904, "lon_c": -89.736826743084038, "res": 8.0, "count_Mosses": 0, "count_Amphibians": 0, "count_Molluscs": 0, "count_Mammals": 3, "count_Flowering Plants": 0, "count_Sac Fungi": 0, "count_Arachnids": 0, "count_Basidiomycota": 0, "count_Insects": 0, "count_Reptiles": 1, "count_Birds": 0, "count_Ferns": 0, "count_Gymnosperms": 0, "unique_species_count": 4.0, "countryCode": "CR" }, "geometry": { "type": "MultiPolygon", "coordinates": [ [ [ [ -89.213242227799611, 5.266230280799058 ], [ -89.460200883120876, 4.863893926108974 ], [ -89.982765142720808, 4.863905470778678 ], [ -90.260907367258838, 5.265525076923073 ], [ -90.016105667489413, 5.667072841798896 ], [ -89.490936571321242, 5.667854576362122 ], [ -89.213242227799611, 5.266230280799058 ] ] ] ] } },
{ "type": "Feature", "properties": { "geogrid_id": "5205654525084255063", "seqnum": 35311.0, "lat_c": 5.6545252544225084, "lon_c": -84.255062607898736, "res": 8.0, "count_Mosses": 0, "count_Amphibians": 0, "count_Molluscs": 0, "count_Mammals": 2, "count_Flowering Plants": 0, "count_Sac Fungi": 0, "count_Arachnids": 0, "count_Basidiomycota": 0, "count_Insects": 0, "count_Reptiles": 1, "count_Birds": 0, "count_Ferns": 0, "count_Gymnosperms": 0, "unique_species_count": 3.0, "countryCode": "CR" }, "geometry": { "type": "MultiPolygon", "coordinates": [ [ [ [ -83.731708774613395, 5.651773438181689 ], [ -83.987385218650275, 5.250574781373026 ], [ -84.509960912991815, 5.253141820960558 ], [ -84.778326010862045, 5.657074571418117 ], [ -84.523949815763913, 6.058199339167732 ], [ -83.999862504374775, 6.055487351924175 ], [ -83.731708774613395, 5.651773438181689 ] ] ] ] } },
{ "type": "Feature", "properties": { "geogrid_id": "5205661516085824725", "seqnum": 35228.0, "lat_c": 5.6615157651687431, "lon_c": -85.824725104381955, "res": 8.0, "count_Mosses": 0, "count_Amphibians": 0, "count_Molluscs": 0, "count_Mammals": 0, "count_Flowering Plants": 0, "count_Sac Fungi": 0, "count_Arachnids": 0, "count_Basidiomycota": 0, "count_Insects": 0, "count_Reptiles": 1, "count_Birds": 0, "count_Ferns": 0, "count_Gymnosperms": 0, "unique_species_count": 1.0, "countryCode": "CR" }, "geometry": { "type": "MultiPolygon", "coordinates": [ [ [ [ -85.301534019031962, 5.659409472987437 ], [ -85.554827759552438, 5.257719937771834 ], [ -86.077188597874297, 5.259708182022965 ], [ -86.347941837126967, 5.663376447502024 ], [ -86.09614730095862, 6.064844734151048 ], [ -85.572049699262351, 6.062895559648869 ], [ -85.301534019031962, 5.659409472987437 ] ] ] ] } },
{ "type": "Feature", "properties": { "geogrid_id": "5205665660090541948", "seqnum": 34979.0, "lat_c": 5.6656596169080817, "lon_c": -90.541948404894598, "res": 8.0, "count_Mosses": 0, "count_Amphibians": 0, "count_Molluscs": 0, "count_Mammals": 3, "count_Flowering Plants": 0, "count_Sac Fungi": 0, "count_Arachnids": 0, "count_Basidiomycota": 0, "count_Insects": 0, "count_Reptiles": 0, "count_Birds": 0, "count_Ferns": 0, "count_Gymnosperms": 0, "unique_species_count": 3.0, "countryCode": "CR" }, "geometry": { "type": "MultiPolygon", "coordinates": [ [ [ [ -90.016105667489413, 5.667072841798896 ], [ -90.260907367258838, 5.265525076923073 ], [ -90.785611647699128, 5.264363880915767 ], [ -91.068624588018977, 5.663492321655275 ], [ -90.826163461733572, 6.063977337817316 ], [ -90.298284690266939, 6.06647510813991 ], [ -90.016105667489413, 5.667072841798896 ] ] ] ] } },
{ "type": "Feature", "properties": { "geogrid_id": "5205666275087394648", "seqnum": 35145.0, "lat_c": 5.6662746811188462, "lon_c": -87.394648113626914, "res": 8.0, "count_Mosses": 10, "count_Amphibians": 0, "count_Molluscs": 57, "count_Mammals": 6, "count_Flowering Plants": 24, "count_Sac Fungi": 29, "count_Arachnids": 7, "count_Basidiomycota": 6, "count_Insects": 14, "count_Reptiles": 5, "count_Birds": 34, "count_Ferns": 5, "count_Gymnosperms": 0, "unique_species_count": 197.0, "countryCode": "CR" }, "geometry": { "type": "MultiPolygon", "coordinates": [ [ [ [ -86.871231702113874, 5.664971035055014 ], [ -87.121967621492487, 5.263007710959942 ], [ -87.644481500665094, 5.264278913015664 ], [ -87.91825168714665, 5.667257030813449 ], [ -87.669250005807626, 6.068804246396067 ], [ -87.144687784734984, 6.067829748673105 ], [ -86.871231702113874, 5.664971035055014 ] ] ] ] } },
{ "type": "Feature", "properties": { "geogrid_id": "5205668099088966309", "seqnum": 35062.0, "lat_c": 5.6680992890571247, "lon_c": -88.966308878431292, "res": 8.0, "count_Mosses": 0, "count_Amphibians": 0, "count_Molluscs": 0, "count_Mammals": 4, "count_Flowering Plants": 0, "count_Sac Fungi": 0, "count_Arachnids": 0, "count_Basidiomycota": 0, "count_Insects": 0, "count_Reptiles": 1, "count_Birds": 0, "count_Ferns": 0, "count_Gymnosperms": 0, "unique_species_count": 5.0, "countryCode": "CR" }, "geometry": { "type": "MultiPolygon", "coordinates": [ [ [ [ -88.442111847090004, 5.667880707185891 ], [ -88.690047479338588, 5.265927755567071 ], [ -89.213242227799611, 5.266230280799058 ], [ -89.490936571321242, 5.667854576362122 ], [ -89.245014300580181, 6.069124096084946 ], [ -88.719322788520159, 6.069508731074543 ], [ -88.442111847090004, 5.667880707185891 ] ] ] ] } },
{ "type": "Feature", "properties": { "geogrid_id": "5206052552083475700", "seqnum": 35312.0, "lat_c": 6.0525515675303918, "lon_c": -83.475700063063954, "res": 8.0, "count_Mosses": 0, "count_Amphibians": 0, "count_Molluscs": 0, "count_Mammals": 2, "count_Flowering Plants": 0, "count_Sac Fungi": 0, "count_Arachnids": 0, "count_Basidiomycota": 0, "count_Insects": 0, "count_Reptiles": 0, "count_Birds": 0, "count_Ferns": 0, "count_Gymnosperms": 0, "unique_species_count": 2.0, "countryCode": "CR" }, "geometry": { "type": "MultiPolygon", "coordinates": [ [ [ [ -82.951428783690133, 6.04940337772965 ], [ -83.208232371590881, 5.648829176924387 ], [ -83.731708774613395, 5.651773438181689 ], [ -83.999862504374775, 6.055487351924175 ], [ -83.744301104874467, 6.456026335886169 ], [ -83.21930077174008, 6.452906856494817 ], [ -82.951428783690133, 6.04940337772965 ] ] ] ] } },
{ "type": "Feature", "properties": { "geogrid_id": "5206060674085047999", "seqnum": 35229.0, "lat_c": 6.0606740690124221, "lon_c": -85.047998757443722, "res": 8.0, "count_Mosses": 0, "count_Amphibians": 0, "count_Molluscs": 0, "count_Mammals": 3, "count_Flowering Plants": 0, "count_Sac Fungi": 0, "count_Arachnids": 0, "count_Basidiomycota": 0, "count_Insects": 0, "count_Reptiles": 0, "count_Birds": 0, "count_Ferns": 0, "count_Gymnosperms": 0, "unique_species_count": 3.0, "countryCode": "CR" }, "geometry": { "type": "MultiPolygon", "coordinates": [ [ [ [ -84.523949815763913, 6.058199339167732 ], [ -84.778326010862045, 5.657074571418117 ], [ -85.301534019031962, 5.659409472987437 ], [ -85.572049699262351, 6.062895559648869 ], [ -85.319098875630473, 6.463847897689601 ], [ -84.794159882541507, 6.461513257284814 ], [ -84.523949815763913, 6.058199339167732 ] ] ] ] } },
{ "type": "Feature", "properties": { "geogrid_id": "5206066499086620341", "seqnum": 35146.0, "lat_c": 6.0664986884258578, "lon_c": -86.620341347816733, "res": 8.0, "count_Mosses": 0, "count_Amphibians": 0, "count_Molluscs": 1, "count_Mammals": 6, "count_Flowering Plants": 0, "count_Sac Fungi": 0, "count_Arachnids": 0, "count_Basidiomycota": 0, "count_Insects": 0, "count_Reptiles": 0, "count_Birds": 1, "count_Ferns": 0, "count_Gymnosperms": 0, "unique_species_count": 8.0, "countryCode": "CR" }, "geometry": { "type": "MultiPolygon", "coordinates": [ [ [ [ -86.09614730095862, 6.064844734151048 ], [ -86.347941837126967, 5.663376447502024 ], [ -86.871231702113874, 5.664971035055014 ], [ -87.144687784734984, 6.067829748673105 ], [ -86.894532288866642, 6.46894764722616 ], [ -86.369229983211937, 6.467592982343989 ], [ -86.09614730095862, 6.064844734151048 ] ] ] ] } },
{ "type": "Feature", "properties": { "geogrid_id": "5206068147089771290", "seqnum": 34980.0, "lat_c": 6.0681468883921372, "lon_c": -89.77128954418022, "res": 8.0, "count_Mosses": 0, "count_Amphibians": 0, "count_Molluscs": 0, "count_Mammals": 2, "count_Flowering Plants": 0, "count_Sac Fungi": 0, "count_Arachnids": 0, "count_Basidiomycota": 0, "count_Insects": 0, "count_Reptiles": 1, "count_Birds": 0, "count_Ferns": 0, "count_Gymnosperms": 0, "unique_species_count": 3.0, "countryCode": "CR" }, "geometry": { "type": "MultiPolygon", "coordinates": [ [ [ [ -89.245014300580181, 6.069124096084946 ], [ -89.490936571321242, 5.667854576362122 ], [ -90.016105667489413, 5.667072841798896 ], [ -90.298284690266939, 6.06647510813991 ], [ -90.054541746843626, 6.466826191678507 ], [ -89.526381891323325, 6.468760255933264 ], [ -89.245014300580181, 6.069124096084946 ] ] ] ] } },
{ "type": "Feature", "properties": { "geogrid_id": "5206069381088194100", "seqnum": 35063.0, "lat_c": 6.0693809101627991, "lon_c": -88.194100475978175, "res": 8.0, "count_Mosses": 0, "count_Amphibians": 0, "count_Molluscs": 0, "count_Mammals": 6, "count_Flowering Plants": 0, "count_Sac Fungi": 0, "count_Arachnids": 0, "count_Basidiomycota": 0, "count_Insects": 0, "count_Reptiles": 1, "count_Birds": 0, "count_Ferns": 0, "count_Gymnosperms": 0, "unique_species_count": 7.0, "countryCode": "CR" }, "geometry": { "type": "MultiPolygon", "coordinates": [ [ [ [ -87.669250005807626, 6.068804246396067 ], [ -87.91825168714665, 5.667257030813449 ], [ -88.442111847090004, 5.667880707185891 ], [ -88.719322788520159, 6.069508731074543 ], [ -88.47221043125414, 6.470467037372498 ], [ -87.945941648390473, 6.470434925761309 ], [ -87.669250005807626, 6.068804246396067 ] ] ] ] } },
{ "type": "Feature", "properties": { "geogrid_id": "5206458900084269241", "seqnum": 35230.0, "lat_c": 6.4589001432205002, "lon_c": -84.269241344179179, "res": 8.0, "count_Mosses": 0, "count_Amphibians": 0, "count_Molluscs": 0, "count_Mammals": 5, "count_Flowering Plants": 0, "count_Sac Fungi": 0, "count_Arachnids": 0, "count_Basidiomycota": 0, "count_Insects": 0, "count_Reptiles": 2, "count_Birds": 0, "count_Ferns": 0, "count_Gymnosperms": 0, "unique_species_count": 7.0, "countryCode": "CR" }, "geometry": { "type": "MultiPolygon", "coordinates": [ [ [ [ -83.744301104874467, 6.456026335886169 ], [ -83.999862504374775, 6.055487351924175 ], [ -84.523949815763913, 6.058199339167732 ], [ -84.794159882541507, 6.461513257284814 ], [ -84.539957391921078, 6.861927231573501 ], [ -84.014141751088886, 6.859176464859937 ], [ -83.744301104874467, 6.456026335886169 ] ] ] ] } },
{ "type": "Feature", "properties": { "geogrid_id": "5206463996090583631", "seqnum": 34898.0, "lat_c": 6.4639958202156969, "lon_c": -90.583630963022784, "res": 8.0, "count_Mosses": 0, "count_Amphibians": 0, "count_Molluscs": 0, "count_Mammals": 1, "count_Flowering Plants": 0, "count_Sac Fungi": 0, "count_Arachnids": 0, "count_Basidiomycota": 0, "count_Insects": 0, "count_Reptiles": 0, "count_Birds": 0, "count_Ferns": 0, "count_Gymnosperms": 0, "unique_species_count": 1.0, "countryCode": "CR" }, "geometry": { "type": "MultiPolygon", "coordinates": [ [ [ [ -90.054541746843626, 6.466826191678507 ], [ -90.298284690266939, 6.06647510813991 ], [ -90.826163461733572, 6.063977337817316 ], [ -91.113851355890461, 6.460088352174427 ], [ -90.872433623029238, 6.859250058426723 ], [ -90.340952619832777, 6.863566135177921 ], [ -90.054541746843626, 6.466826191678507 ] ] ] ] } },
{ "type": "Feature", "properties": { "geogrid_id": "5206465883085844105", "seqnum": 35147.0, "lat_c": 6.4658829096592934, "lon_c": -85.844104936145769, "res": 8.0, "count_Mosses": 0, "count_Amphibians": 0, "count_Molluscs": 0, "count_Mammals": 7, "count_Flowering Plants": 0, "count_Sac Fungi": 0, "count_Arachnids": 0, "count_Basidiomycota": 0, "count_Insects": 0, "count_Reptiles": 1, "count_Birds": 0, "count_Ferns": 0, "count_Gymnosperms": 0, "unique_species_count": 8.0, "countryCode": "CR" }, "geometry": { "type": "MultiPolygon", "coordinates": [ [ [ [ -85.319098875630473, 6.463847897689601 ], [ -85.572049699262351, 6.062895559648869 ], [ -86.09614730095862, 6.064844734151048 ], [ -86.369229983211937, 6.467592982343989 ], [ -86.117833775833063, 6.868256883463908 ], [ -85.591752244519938, 6.866492894836942 ], [ -85.319098875630473, 6.463847897689601 ] ] ] ] } },
{ "type": "Feature", "properties": { "geogrid_id": "5206469910087420078", "seqnum": 35064.0, "lat_c": 6.4699099831503162, "lon_c": -87.420077776989501, "res": 8.0, "count_Mosses": 0, "count_Amphibians": 0, "count_Molluscs": 0, "count_Mammals": 6, "count_Flowering Plants": 0, "count_Sac Fungi": 0, "count_Arachnids": 0, "count_Basidiomycota": 0, "count_Insects": 0, "count_Reptiles": 2, "count_Birds": 2, "count_Ferns": 0, "count_Gymnosperms": 0, "unique_species_count": 10.0, "countryCode": "CR" }, "geometry": { "type": "MultiPolygon", "coordinates": [ [ [ [ -86.894532288866642, 6.46894764722616 ], [ -87.144687784734984, 6.067829748673105 ], [ -87.669250005807626, 6.068804246396067 ], [ -87.945941648390473, 6.470434925761309 ], [ -87.69756726882548, 6.871049817688402 ], [ -87.170668357057508, 6.870579757576492 ], [ -86.894532288866642, 6.46894764722616 ] ] ] ] } },
{ "type": "Feature", "properties": { "geogrid_id": "5206469938088998985", "seqnum": 34981.0, "lat_c": 6.4699375317235877, "lon_c": -88.9989845918697, "res": 8.0, "count_Mosses": 0, "count_Amphibians": 0, "count_Molluscs": 0, "count_Mammals": 0, "count_Flowering Plants": 0, "count_Sac Fungi": 0, "count_Arachnids": 0, "count_Basidiomycota": 0, "count_Insects": 0, "count_Reptiles": 1, "count_Birds": 0, "count_Ferns": 0, "count_Gymnosperms": 0, "unique_species_count": 1.0, "countryCode": "CR" }, "geometry": { "type": "MultiPolygon", "coordinates": [ [ [ [ -88.47221043125414, 6.470467037372498 ], [ -88.719322788520159, 6.069508731074543 ], [ -89.245014300580181, 6.069124096084946 ], [ -89.526381891323325, 6.468760255933264 ], [ -89.281310389239479, 6.868926013362964 ], [ -88.752776470817523, 6.87030570182008 ], [ -88.47221043125414, 6.470467037372498 ] ] ] ] } },
{ "type": "Feature", "properties": { "geogrid_id": "5206856141083488321", "seqnum": 35231.0, "lat_c": 6.8561410580954369, "lon_c": -83.488320661405226, "res": 8.0, "count_Mosses": 0, "count_Amphibians": 0, "count_Molluscs": 0, "count_Mammals": 3, "count_Flowering Plants": 0, "count_Sac Fungi": 0, "count_Arachnids": 0, "count_Basidiomycota": 0, "count_Insects": 0, "count_Reptiles": 2, "count_Birds": 0, "count_Ferns": 0, "count_Gymnosperms": 0, "unique_species_count": 5.0, "countryCode": "CR" }, "geometry": { "type": "MultiPolygon", "coordinates": [ [ [ [ -82.962454190582491, 6.85283759918782 ], [ -83.21930077174008, 6.452906856494817 ], [ -83.744301104874467, 6.456026335886169 ], [ -84.014141751088886, 6.859176464859937 ], [ -83.758593914161878, 7.259028303139119 ], [ -83.231865004577998, 7.255830878256189 ], [ -82.962454190582491, 6.85283759918782 ] ] ] ] } },
{ "type": "Feature", "properties": { "geogrid_id": "5206864374085065811", "seqnum": 35148.0, "lat_c": 6.8643737813518149, "lon_c": -85.065811413014472, "res": 8.0, "count_Mosses": 0, "count_Amphibians": 0, "count_Molluscs": 0, "count_Mammals": 5, "count_Flowering Plants": 0, "count_Sac Fungi": 0, "count_Arachnids": 0, "count_Basidiomycota": 0, "count_Insects": 0, "count_Reptiles": 0, "count_Birds": 0, "count_Ferns": 0, "count_Gymnosperms": 0, "unique_species_count": 5.0, "countryCode": "CR" }, "geometry": { "type": "MultiPolygon", "coordinates": [ [ [ [ -84.539957391921078, 6.861927231573501 ], [ -84.794159882541507, 6.461513257284814 ], [ -85.319098875630473, 6.463847897689601 ], [ -85.591752244519938, 6.866492894836942 ], [ -85.339028971346792, 7.266677118661903 ], [ -84.812128144522305, 7.264474732493817 ], [ -84.539957391921078, 6.861927231573501 ] ] ] ] } },
{ "type": "Feature", "properties": { "geogrid_id": "5206866728089810646", "seqnum": 34899.0, "lat_c": 6.8667284538817226, "lon_c": -89.810646056933436, "res": 8.0, "count_Mosses": 0, "count_Amphibians": 0, "count_Molluscs": 0, "count_Mammals": 3, "count_Flowering Plants": 0, "count_Sac Fungi": 0, "count_Arachnids": 0, "count_Basidiomycota": 0, "count_Insects": 0, "count_Reptiles": 1, "count_Birds": 0, "count_Ferns": 0, "count_Gymnosperms": 0, "unique_species_count": 4.0, "countryCode": "CR" }, "geometry": { "type": "MultiPolygon", "coordinates": [ [ [ [ -89.281310389239479, 6.868926013362964 ], [ -89.526381891323325, 6.468760255933264 ], [ -90.054541746843626, 6.466826191678507 ], [ -90.340952619832777, 6.863566135177921 ], [ -90.098058869973102, 7.262705884790843 ], [ -89.566528636457932, 7.266197052850702 ], [ -89.281310389239479, 6.868926013362964 ] ] ] ] } },
{ "type": "Feature", "properties": { "geogrid_id": "5206869633086644116", "seqnum": 35065.0, "lat_c": 6.8696325350833618, "lon_c": -86.644116408481437, "res": 8.0, "count_Mosses": 0, "count_Amphibians": 0, "count_Molluscs": 0, "count_Mammals": 6, "count_Flowering Plants": 0, "count_Sac Fungi": 0, "count_Arachnids": 0, "count_Basidiomycota": 0, "count_Insects": 0, "count_Reptiles": 2, "count_Birds": 0, "count_Ferns": 0, "count_Gymnosperms": 0, "unique_species_count": 8.0, "countryCode": "CR" }, "geometry": { "type": "MultiPolygon", "coordinates": [ [ [ [ -86.117833775833063, 6.868256883463908 ], [ -86.369229983211937, 6.467592982343989 ], [ -86.894532288866642, 6.46894764722616 ], [ -87.170668357057508, 6.870579757576492 ], [ -86.920958032878559, 7.270819474142658 ], [ -86.393377606264124, 7.269889016615231 ], [ -86.117833775833063, 6.868256883463908 ] ] ] ] } },
{ "type": "Feature", "properties": { "geogrid_id": "5206870983088224902", "seqnum": 34982.0, "lat_c": 6.8709830313425204, "lon_c": -88.22490225638505, "res": 8.0, "count_Mosses": 0, "count_Amphibians": 0, "count_Molluscs": 0, "count_Mammals": 7, "count_Flowering Plants": 0, "count_Sac Fungi": 0, "count_Arachnids": 0, "count_Basidiomycota": 0, "count_Insects": 0, "count_Reptiles": 0, "count_Birds": 0, "count_Ferns": 0, "count_Gymnosperms": 0, "unique_species_count": 7.0, "countryCode": "CR" }, "geometry": { "type": "MultiPolygon", "coordinates": [ [ [ [ -87.69756726882548, 6.871049817688402 ], [ -87.945941648390473, 6.470434925761309 ], [ -88.47221043125414, 6.470467037372498 ], [ -88.752776470817523, 6.87030570182008 ], [ -88.506322786932301, 7.270239462321279 ], [ -87.977332215425051, 7.271065727330535 ], [ -87.69756726882548, 6.871049817688402 ] ] ] ] } },
{ "type": "Feature", "properties": { "geogrid_id": "5207261917084285333", "seqnum": 35149.0, "lat_c": 7.2619167079370239, "lon_c": -84.285333163702063, "res": 8.0, "count_Mosses": 0, "count_Amphibians": 0, "count_Molluscs": 0, "count_Mammals": 7, "count_Flowering Plants": 0, "count_Sac Fungi": 0, "count_Arachnids": 0, "count_Basidiomycota": 0, "count_Insects": 0, "count_Reptiles": 1, "count_Birds": 0, "count_Ferns": 0, "count_Gymnosperms": 0, "unique_species_count": 8.0, "countryCode": "CR" }, "geometry": { "type": "MultiPolygon", "coordinates": [ [ [ [ -83.758593914161878, 7.259028303139119 ], [ -84.014141751088886, 6.859176464859937 ], [ -84.539957391921078, 6.861927231573501 ], [ -84.812128144522305, 7.264474732493817 ], [ -84.557991745747174, 7.664152665507475 ], [ -84.030230765934348, 7.661482804973184 ], [ -83.758593914161878, 7.259028303139119 ] ] ] ] } },
{ "type": "Feature", "properties": { "geogrid_id": "5207268494085866091", "seqnum": 35066.0, "lat_c": 7.2684938431572013, "lon_c": -85.866091344963891, "res": 8.0, "count_Mosses": 0, "count_Amphibians": 0, "count_Molluscs": 0, "count_Mammals": 7, "count_Flowering Plants": 0, "count_Sac Fungi": 0, "count_Arachnids": 0, "count_Basidiomycota": 0, "count_Insects": 0, "count_Reptiles": 2, "count_Birds": 6, "count_Ferns": 0, "count_Gymnosperms": 0, "unique_species_count": 15.0, "countryCode": "CR" }, "geometry": { "type": "MultiPolygon", "coordinates": [ [ [ [ -85.339028971346792, 7.266677118661903 ], [ -85.591752244519938, 6.866492894836942 ], [ -86.117833775833063, 6.868256883463908 ], [ -86.393377606264124, 7.269889016615231 ], [ -86.142255732683353, 7.669721993657697 ], [ -85.613943500147698, 7.668307655508301 ], [ -85.339028971346792, 7.266677118661903 ] ] ] ] } },
{ "type": "Feature", "properties": { "geogrid_id": "5207268657089036007", "seqnum": 34900.0, "lat_c": 7.2686570643978889, "lon_c": -89.036006887322657, "res": 8.0, "count_Mosses": 0, "count_Amphibians": 0, "count_Molluscs": 0, "count_Mammals": 6, "count_Flowering Plants": 0, "count_Sac Fungi": 0, "count_Arachnids": 0, "count_Basidiomycota": 0, "count_Insects": 0, "count_Reptiles": 1, "count_Birds": 0, "count_Ferns": 0, "count_Gymnosperms": 0, "unique_species_count": 7.0, "countryCode": "CR" }, "geometry": { "type": "MultiPolygon", "coordinates": [ [ [ [ -88.506322786932301, 7.270239462321279 ], [ -88.752776470817523, 6.87030570182008 ], [ -89.281310389239479, 6.868926013362964 ], [ -89.566528636457932, 7.266197052850702 ], [ -89.322124430780747, 7.665246595251585 ], [ -88.790406870905827, 7.667966004339308 ], [ -88.506322786932301, 7.270239462321279 ] ] ] ] } },
{ "type": "Feature", "properties": { "geogrid_id": "5207271233087448912", "seqnum": 34983.0, "lat_c": 7.2712329547735397, "lon_c": -87.448912445798896, "res": 8.0, "count_Mosses": 0, "count_Amphibians": 0, "count_Molluscs": 0, "count_Mammals": 4, "count_Flowering Plants": 0, "count_Sac Fungi": 0, "count_Arachnids": 0, "count_Basidiomycota": 0, "count_Insects": 0, "count_Reptiles": 2, "count_Birds": 0, "count_Ferns": 0, "count_Gymnosperms": 0, "unique_species_count": 6.0, "countryCode": "CR" }, "geometry": { "type": "MultiPolygon", "coordinates": [ [ [ [ -86.920958032878559, 7.270819474142658 ], [ -87.170668357057508, 6.870579757576492 ], [ -87.69756726882548, 6.871049817688402 ], [ -87.977332215425051, 7.271065727330535 ], [ -87.729437345252293, 7.670724172712746 ], [ -87.19991512272999, 7.670991853487425 ], [ -86.920958032878559, 7.270819474142658 ] ] ] ] } },
{ "type": "Feature", "properties": { "geogrid_id": "5207658456083502542", "seqnum": 35150.0, "lat_c": 7.6584560624826272, "lon_c": -83.502542261111586, "res": 8.0, "count_Mosses": 0, "count_Amphibians": 0, "count_Molluscs": 0, "count_Mammals": 5, "count_Flowering Plants": 0, "count_Sac Fungi": 0, "count_Arachnids": 0, "count_Basidiomycota": 0, "count_Insects": 1, "count_Reptiles": 0, "count_Birds": 1, "count_Ferns": 0, "count_Gymnosperms": 0, "unique_species_count": 7.0, "countryCode": "CR" }, "geometry": { "type": "MultiPolygon", "coordinates": [ [ [ [ -82.974879386720772, 7.655095558672545 ], [ -83.231865004577998, 7.255830878256189 ], [ -83.758593914161878, 7.259028303139119 ], [ -84.030230765934348, 7.661482804973184 ], [ -83.774595282698442, 8.060626941298137 ], [ -83.245932611548454, 8.057460455741346 ], [ -82.974879386720772, 7.655095558672545 ] ] ] ] } },
{ "type": "Feature", "properties": { "geogrid_id": "5207661432089854884", "seqnum": 34818.0, "lat_c": 7.6614318167736846, "lon_c": -89.854884376884073, "res": 8.0, "count_Mosses": 0, "count_Amphibians": 0, "count_Molluscs": 0, "count_Mammals": 6, "count_Flowering Plants": 0, "count_Sac Fungi": 0, "count_Arachnids": 0, "count_Basidiomycota": 0, "count_Insects": 0, "count_Reptiles": 2, "count_Birds": 0, "count_Ferns": 0, "count_Gymnosperms": 0, "unique_species_count": 8.0, "countryCode": "CR" }, "geometry": { "type": "MultiPolygon", "coordinates": [ [ [ [ -89.322124430780747, 7.665246595251585 ], [ -89.566528636457932, 7.266197052850702 ], [ -90.098058869973102, 7.262705884790843 ], [ -90.388891550878114, 7.6563190940377 ], [ -90.146640564528383, 8.054263121698968 ], [ -89.611367446786531, 8.059759773924483 ], [ -89.322124430780747, 7.665246595251585 ] ] ] ] } },
{ "type": "Feature", "properties": { "geogrid_id": "5207666438085085877", "seqnum": 35067.0, "lat_c": 7.6664383835125252, "lon_c": -85.08587687076205, "res": 8.0, "count_Mosses": 0, "count_Amphibians": 0, "count_Molluscs": 0, "count_Mammals": 6, "count_Flowering Plants": 0, "count_Sac Fungi": 0, "count_Arachnids": 0, "count_Basidiomycota": 0, "count_Insects": 0, "count_Reptiles": 2, "count_Birds": 0, "count_Ferns": 0, "count_Gymnosperms": 0, "unique_species_count": 8.0, "countryCode": "CR" }, "geometry": { "type": "MultiPolygon", "coordinates": [ [ [ [ -84.557991745747174, 7.664152665507475 ], [ -84.812128144522305, 7.264474732493817 ], [ -85.339028971346792, 7.266677118661903 ], [ -85.613943500147698, 7.668307655508301 ], [ -85.361333005793341, 8.067702339102008 ], [ -84.832239493604476, 8.065779751792935 ], [ -84.557991745747174, 7.664152665507475 ] ] ] ] } },
{ "type": "Feature", "properties": { "geogrid_id": "5207669750088259560", "seqnum": 34901.0, "lat_c": 7.6697495527327062, "lon_c": -88.259559742821878, "res": 8.0, "count_Mosses": 0, "count_Amphibians": 0, "count_Molluscs": 0, "count_Mammals": 9, "count_Flowering Plants": 0, "count_Sac Fungi": 0, "count_Arachnids": 0, "count_Basidiomycota": 0, "count_Insects": 0, "count_Reptiles": 2, "count_Birds": 0, "count_Ferns": 0, "count_Gymnosperms": 0, "unique_species_count": 11.0, "countryCode": "CR" }, "geometry": { "type": "MultiPolygon", "coordinates": [ [ [ [ -87.729437345252293, 7.670724172712746 ], [ -87.977332215425051, 7.271065727330535 ], [ -88.506322786932301, 7.270239462321279 ], [ -88.790406870905827, 7.667966004339308 ], [ -88.544448999048299, 8.066865016441195 ], [ -88.012426482910598, 8.068846479777886 ], [ -87.729437345252293, 7.670724172712746 ] ] ] ] } },
{ "type": "Feature", "properties": { "geogrid_id": "5207670635086670886", "seqnum": 34984.0, "lat_c": 7.670635271270422, "lon_c": -86.670885693752282, "res": 8.0, "count_Mosses": 0, "count_Amphibians": 0, "count_Molluscs": 0, "count_Mammals": 3, "count_Flowering Plants": 0, "count_Sac Fungi": 0, "count_Arachnids": 0, "count_Basidiomycota": 0, "count_Insects": 0, "count_Reptiles": 2, "count_Birds": 0, "count_Ferns": 0, "count_Gymnosperms": 0, "unique_species_count": 5.0, "countryCode": "CR" }, "geometry": { "type": "MultiPolygon", "coordinates": [ [ [ [ -86.142255732683353, 7.669721993657697 ], [ -86.393377606264124, 7.269889016615231 ], [ -86.920958032878559, 7.270819474142658 ], [ -87.19991512272999, 7.670991853487425 ], [ -86.950515751122609, 8.070334052495562 ], [ -86.420392539204414, 8.070033396483819 ], [ -86.142255732683353, 7.669721993657697 ] ] ] ] } },
{ "type": "Feature", "properties": { "geogrid_id": "5208053935082717310", "seqnum": 35151.0, "lat_c": 8.0539351727931727, "lon_c": -82.717310337624937, "res": 8.0, "count_Mosses": 0, "count_Amphibians": 1, "count_Molluscs": 0, "count_Mammals": 6, "count_Flowering Plants": 7, "count_Sac Fungi": 1, "count_Arachnids": 0, "count_Basidiomycota": 1, "count_Insects": 2, "count_Reptiles": 4, "count_Birds": 13, "count_Ferns": 0, "count_Gymnosperms": 0, "unique_species_count": 35.0, "countryCode": "CR" }, "geometry": { "type": "MultiPolygon", "coordinates": [ [ [ [ -82.188684464311649, 8.05007232263795 ], [ -82.447199410131631, 7.651420993930049 ], [ -82.974879386720772, 7.655095558672545 ], [ -83.245932611548454, 8.057460455741346 ], [ -82.988712031819162, 8.456042420463509 ], [ -82.459105531649911, 8.452350025678362 ], [ -82.188684464311649, 8.05007232263795 ] ] ] ] } },
{ "type": "Feature", "properties": { "geogrid_id": "5208063410084303347", "seqnum": 35068.0, "lat_c": 8.0634097792603736, "lon_c": -84.303346542971695, "res": 8.0, "count_Mosses": 0, "count_Amphibians": 0, "count_Molluscs": 0, "count_Mammals": 2, "count_Flowering Plants": 0, "count_Sac Fungi": 0, "count_Arachnids": 0, "count_Basidiomycota": 0, "count_Insects": 0, "count_Reptiles": 0, "count_Birds": 0, "count_Ferns": 0, "count_Gymnosperms": 0, "unique_species_count": 2.0, "countryCode": "CR" }, "geometry": { "type": "MultiPolygon", "coordinates": [ [ [ [ -83.774595282698442, 8.060626941298137 ], [ -84.030230765934348, 7.661482804973184 ], [ -84.557991745747174, 7.664152665507475 ], [ -84.832239493604476, 8.065779751792935 ], [ -84.578061995068367, 8.46470445048571 ], [ -84.04813833852613, 8.462248465253523 ], [ -83.774595282698442, 8.060626941298137 ] ] ] ] } },
{ "type": "Feature", "properties": { "geogrid_id": "5208063891089077372", "seqnum": 34819.0, "lat_c": 8.0638910536550572, "lon_c": -89.077371795278225, "res": 8.0, "count_Mosses": 0, "count_Amphibians": 0, "count_Molluscs": 0, "count_Mammals": 6, "count_Flowering Plants": 0, "count_Sac Fungi": 0, "count_Arachnids": 0, "count_Basidiomycota": 0, "count_Insects": 0, "count_Reptiles": 1, "count_Birds": 0, "count_Ferns": 0, "count_Gymnosperms": 0, "unique_species_count": 7.0, "countryCode": "CR" }, "geometry": { "type": "MultiPolygon", "coordinates": [ [ [ [ -88.544448999048299, 8.066865016441195 ], [ -88.790406870905827, 7.667966004339308 ], [ -89.322124430780747, 7.665246595251585 ], [ -89.611367446786531, 8.059759773924483 ], [ -89.36744952993395, 8.457704671838369 ], [ -88.832212046935837, 8.462143713985673 ], [ -88.544448999048299, 8.066865016441195 ] ] ] ] } },
{ "type": "Feature", "properties": { "geogrid_id": "5208069137085890693", "seqnum": 34985.0, "lat_c": 8.0691365433051576, "lon_c": -85.890692764080669, "res": 8.0, "count_Mosses": 0, "count_Amphibians": 0, "count_Molluscs": 0, "count_Mammals": 7, "count_Flowering Plants": 0, "count_Sac Fungi": 0, "count_Arachnids": 0, "count_Basidiomycota": 0, "count_Insects": 0, "count_Reptiles": 1, "count_Birds": 6, "count_Ferns": 0, "count_Gymnosperms": 0, "unique_species_count": 14.0, "countryCode": "CR" }, "geometry": { "type": "MultiPolygon", "coordinates": [ [ [ [ -85.361333005793341, 8.067702339102008 ], [ -85.613943500147698, 7.668307655508301 ], [ -86.142255732683353, 7.669721993657697 ], [ -86.420392539204414, 8.070033396483819 ], [ -86.169421818015081, 8.469020105318453 ], [ -85.638632567504018, 8.468137817434915 ], [ -85.361333005793341, 8.067702339102008 ] ] ] ] } },
{ "type": "Feature", "properties": { "geogrid_id": "5208069967087481157", "seqnum": 34902.0, "lat_c": 8.0699673248564618, "lon_c": -87.481157401790782, "res": 8.0, "count_Mosses": 0, "count_Amphibians": 0, "count_Molluscs": 0, "count_Mammals": 6, "count_Flowering Plants": 0, "count_Sac Fungi": 0, "count_Arachnids": 0, "count_Basidiomycota": 0, "count_Insects": 0, "count_Reptiles": 0, "count_Birds": 0, "count_Ferns": 0, "count_Gymnosperms": 0, "unique_species_count": 6.0, "countryCode": "CR" }, "geometry": { "type": "MultiPolygon", "coordinates": [ [ [ [ -86.950515751122609, 8.070334052495562 ], [ -87.19991512272999, 7.670991853487425 ], [ -87.729437345252293, 7.670724172712746 ], [ -88.012426482910598, 8.068846479777886 ], [ -87.764864732912741, 8.467540430320124 ], [ -87.232434536731631, 8.468803955765225 ], [ -86.950515751122609, 8.070334052495562 ] ] ] ] } },
{ "type": "Feature", "properties": { "geogrid_id": "5208459351083518373", "seqnum": 35069.0, "lat_c": 8.4593507476708982, "lon_c": -83.51837315510555, "res": 8.0, "count_Mosses": 2, "count_Amphibians": 73, "count_Molluscs": 130, "count_Mammals": 134, "count_Flowering Plants": 1811, "count_Sac Fungi": 26, "count_Arachnids": 93, "count_Basidiomycota": 81, "count_Insects": 1838, "count_Reptiles": 106, "count_Birds": 440, "count_Ferns": 103, "count_Gymnosperms": 6, "unique_species_count": 4843.0, "countryCode": "CR" }, "geometry": { "type": "MultiPolygon", "coordinates": [ [ [ [ -82.988712031819162, 8.456042420463509 ], [ -83.245932611548454, 8.057460455741346 ], [ -83.774595282698442, 8.060626941298137 ], [ -84.04813833852613, 8.462248465253523 ], [ -83.792314251412819, 8.860671229482787 ], [ -83.261512035610508, 8.85765599157795 ], [ -82.988712031819162, 8.456042420463509 ] ] ] ] } },
{ "type": "Feature", "properties": { "geogrid_id": "5208465366088298075", "seqnum": 34820.0, "lat_c": 8.4653657984989881, "lon_c": -88.29807470231863, "res": 8.0, "count_Mosses": 0, "count_Amphibians": 0, "count_Molluscs": 0, "count_Mammals": 8, "count_Flowering Plants": 0, "count_Sac Fungi": 0, "count_Arachnids": 0, "count_Basidiomycota": 0, "count_Insects": 0, "count_Reptiles": 3, "count_Birds": 0, "count_Ferns": 0, "count_Gymnosperms": 0, "unique_species_count": 11.0, "countryCode": "CR" }, "geometry": { "type": "MultiPolygon", "coordinates": [ [ [ [ -87.764864732912741, 8.467540430320124 ], [ -88.012426482910598, 8.068846479777886 ], [ -88.544448999048299, 8.066865016441195 ], [ -88.832212046935837, 8.462143713985673 ], [ -88.586589075695443, 8.860017145240883 ], [ -88.051227831496732, 8.863479512481369 ], [ -87.764864732912741, 8.467540430320124 ] ] ] ] } },
{ "type": "Feature", "properties": { "geogrid_id": "5208466682085108204", "seqnum": 34986.0, "lat_c": 8.4666820385840218, "lon_c": -85.108204368762856, "res": 8.0, "count_Mosses": 0, "count_Amphibians": 0, "count_Molluscs": 0, "count_Mammals": 8, "count_Flowering Plants": 0, "count_Sac Fungi": 0, "count_Arachnids": 0, "count_Basidiomycota": 0, "count_Insects": 0, "count_Reptiles": 3, "count_Birds": 6, "count_Ferns": 0, "count_Gymnosperms": 0, "unique_species_count": 17.0, "countryCode": "CR" }, "geometry": { "type": "MultiPolygon", "coordinates": [ [ [ [ -84.578061995068367, 8.46470445048571 ], [ -84.832239493604476, 8.065779751792935 ], [ -85.361333005793341, 8.067702339102008 ], [ -85.638632567504018, 8.468137817434915 ], [ -85.386020689010536, 8.866730960141822 ], [ -84.854503646228849, 8.865250942670745 ], [ -84.578061995068367, 8.46470445048571 ] ] ] ] } },
{ "type": "Feature", "properties": { "geogrid_id": "5208469267086700657", "seqnum": 34903.0, "lat_c": 8.4692670129972729, "lon_c": -86.700657000352493, "res": 8.0, "count_Mosses": 0, "count_Amphibians": 0, "count_Molluscs": 0, "count_Mammals": 9, "count_Flowering Plants": 0, "count_Sac Fungi": 0, "count_Arachnids": 0, "count_Basidiomycota": 0, "count_Insects": 0, "count_Reptiles": 3, "count_Birds": 0, "count_Ferns": 0, "count_Gymnosperms": 0, "unique_species_count": 12.0, "countryCode": "CR" }, "geometry": { "type": "MultiPolygon", "coordinates": [ [ [ [ -86.169421818015081, 8.469020105318453 ], [ -86.420392539204414, 8.070033396483819 ], [ -86.950515751122609, 8.070334052495562 ], [ -87.232434536731631, 8.468803955765225 ], [ -86.983213011344645, 8.867242578699269 ], [ -86.450283499208368, 8.867798039833222 ], [ -86.169421818015081, 8.469020105318453 ] ] ] ] } },
{ "type": "Feature", "properties": { "geogrid_id": "5208854203082730829", "seqnum": 35070.0, "lat_c": 8.8542030464786485, "lon_c": -82.7308287014922, "res": 8.0, "count_Mosses": 2, "count_Amphibians": 68, "count_Molluscs": 4, "count_Mammals": 77, "count_Flowering Plants": 1034, "count_Sac Fungi": 95, "count_Arachnids": 47, "count_Basidiomycota": 89, "count_Insects": 1237, "count_Reptiles": 95, "count_Birds": 405, "count_Ferns": 59, "count_Gymnosperms": 4, "unique_species_count": 3216.0, "countryCode": "CR" }, "geometry": { "type": "MultiPolygon", "coordinates": [ [ [ [ -82.200213665047784, 8.850340584729413 ], [ -82.459105531649911, 8.452350025678362 ], [ -82.988712031819162, 8.456042420463509 ], [ -83.261512035610508, 8.85765599157795 ], [ -83.003960654231776, 9.255544512426608 ], [ -82.472231790296817, 9.251943513171996 ], [ -82.200213665047784, 8.850340584729413 ] ] ] ] } },
{ "type": "Feature", "properties": { "geogrid_id": "5208855280089123075", "seqnum": 34738.0, "lat_c": 8.8552804965972314, "lon_c": -89.123074791928758, "res": 8.0, "count_Mosses": 0, "count_Amphibians": 0, "count_Molluscs": 0, "count_Mammals": 2, "count_Flowering Plants": 0, "count_Sac Fungi": 0, "count_Arachnids": 0, "count_Basidiomycota": 0, "count_Insects": 0, "count_Reptiles": 0, "count_Birds": 1, "count_Ferns": 0, "count_Gymnosperms": 0, "unique_species_count": 3.0, "countryCode": "CR" }, "geometry": { "type": "MultiPolygon", "coordinates": [ [ [ [ -88.586589075695443, 8.860017145240883 ], [ -88.832212046935837, 8.462143713985673 ], [ -89.36744952993395, 8.457704671838369 ], [ -89.660887788577483, 8.84905286123573 ], [ -89.41727793455749, 9.245928149148927 ], [ -88.878189743644796, 9.252500316330339 ], [ -88.586589075695443, 8.860017145240883 ] ] ] ] } },
{ "type": "Feature", "properties": { "geogrid_id": "5208863216084323291", "seqnum": 34987.0, "lat_c": 8.8632157907426663, "lon_c": -84.323290959918694, "res": 8.0, "count_Mosses": 0, "count_Amphibians": 1, "count_Molluscs": 35, "count_Mammals": 11, "count_Flowering Plants": 2, "count_Sac Fungi": 0, "count_Arachnids": 0, "count_Basidiomycota": 0, "count_Insects": 2, "count_Reptiles": 3, "count_Birds": 13, "count_Ferns": 0, "count_Gymnosperms": 0, "unique_species_count": 67.0, "countryCode": "CR" }, "geometry": { "type": "MultiPolygon", "coordinates": [ [ [ [ -83.792314251412819, 8.860671229482787 ], [ -84.04813833852613, 8.462248465253523 ], [ -84.578061995068367, 8.46470445048571 ], [ -84.854503646228849, 8.865250942670745 ], [ -84.600178271436931, 9.263413215853589 ], [ -84.067874243289708, 9.261317100100012 ], [ -83.792314251412819, 8.860671229482787 ] ] ] ] } },
{ "type": "Feature", "properties": { "geogrid_id": "5208865841087516818", "seqnum": 34821.0, "lat_c": 8.8658412071041877, "lon_c": -87.516818482728368, "res": 8.0, "count_Mosses": 0, "count_Amphibians": 0, "count_Molluscs": 0, "count_Mammals": 5, "count_Flowering Plants": 0, "count_Sac Fungi": 0, "count_Arachnids": 0, "count_Basidiomycota": 0, "count_Insects": 0, "count_Reptiles": 3, "count_Birds": 0, "count_Ferns": 0, "count_Gymnosperms": 0, "unique_species_count": 8.0, "countryCode": "CR" }, "geometry": { "type": "MultiPolygon", "coordinates": [ [ [ [ -86.983213011344645, 8.867242578699269 ], [ -87.232434536731631, 8.468803955765225 ], [ -87.764864732912741, 8.467540430320124 ], [ -88.051227831496732, 8.863479512481369 ], [ -87.803854349626661, 9.261216751675514 ], [ -87.268233706590181, 9.263758182270104 ], [ -86.983213011344645, 8.867242578699269 ] ] ] ] } },
{ "type": "Feature", "properties": { "geogrid_id": "5208867602085917919", "seqnum": 34904.0, "lat_c": 8.8676015796054841, "lon_c": -85.917918594505949, "res": 8.0, "count_Mosses": 0, "count_Amphibians": 0, "count_Molluscs": 0, "count_Mammals": 13, "count_Flowering Plants": 0, "count_Sac Fungi": 0, "count_Arachnids": 0, "count_Basidiomycota": 0, "count_Insects": 0, "count_Reptiles": 2, "count_Birds": 1, "count_Ferns": 0, "count_Gymnosperms": 0, "unique_species_count": 16.0, "countryCode": "CR" }, "geometry": { "type": "MultiPolygon", "coordinates": [ [ [ [ -85.386020689010536, 8.866730960141822 ], [ -85.638632567504018, 8.468137817434915 ], [ -86.169421818015081, 8.469020105318453 ], [ -86.450283499208368, 8.867798039833222 ], [ -86.199341605037787, 9.26593421932418 ], [ -85.665829538661555, 9.26578386156252 ], [ -85.386020689010536, 8.866730960141822 ] ] ] ] } },
{ "type": "Feature", "properties": { "geogrid_id": "5209257523088340449", "seqnum": 34739.0, "lat_c": 9.2575231855632651, "lon_c": -88.340449006248022, "res": 8.0, "count_Mosses": 0, "count_Amphibians": 0, "count_Molluscs": 0, "count_Mammals": 8, "count_Flowering Plants": 0, "count_Sac Fungi": 0, "count_Arachnids": 0, "count_Basidiomycota": 0, "count_Insects": 0, "count_Reptiles": 3, "count_Birds": 0, "count_Ferns": 0, "count_Gymnosperms": 0, "unique_species_count": 11.0, "countryCode": "CR" }, "geometry": { "type": "MultiPolygon", "coordinates": [ [ [ [ -87.803854349626661, 9.261216751675514 ], [ -88.051227831496732, 8.863479512481369 ], [ -88.586589075695443, 8.860017145240883 ], [ -88.878189743644796, 9.252500316330339 ], [ -88.632742920361409, 9.649376302164159 ], [ -88.093739902560188, 9.654672940195681 ], [ -87.803854349626661, 9.261216751675514 ] ] ] ] } },
{ "type": "Feature", "properties": { "geogrid_id": "5209258681083535823", "seqnum": 34988.0, "lat_c": 9.2586806258902055, "lon_c": -83.535822571532648, "res": 8.0, "count_Mosses": 102, "count_Amphibians": 93, "count_Molluscs": 82, "count_Mammals": 94, "count_Flowering Plants": 1354, "count_Sac Fungi": 102, "count_Arachnids": 62, "count_Basidiomycota": 170, "count_Insects": 1742, "count_Reptiles": 136, "count_Birds": 565, "count_Ferns": 85, "count_Gymnosperms": 3, "unique_species_count": 4590.0, "countryCode": "CR" }, "geometry": { "type": "MultiPolygon", "coordinates": [ [ [ [ -83.003960654231776, 9.255544512426608 ], [ -83.261512035610508, 8.85765599157795 ], [ -83.792314251412819, 8.860671229482787 ], [ -84.067874243289708, 9.261317100100012 ], [ -83.811760825328662, 9.659011665297436 ], [ -83.278612626044591, 9.656279199623143 ], [ -83.003960654231776, 9.255544512426608 ] ] ] ] } },
{ "type": "Feature", "properties": { "geogrid_id": "5209264921085132804", "seqnum": 34905.0, "lat_c": 9.2649210399438715, "lon_c": -85.132804162599626, "res": 8.0, "count_Mosses": 0, "count_Amphibians": 12, "count_Molluscs": 72, "count_Mammals": 41, "count_Flowering Plants": 177, "count_Sac Fungi": 2, "count_Arachnids": 32, "count_Basidiomycota": 22, "count_Insects": 255, "count_Reptiles": 31, "count_Birds": 147, "count_Ferns": 3, "count_Gymnosperms": 0, "unique_species_count": 794.0, "countryCode": "CR" }, "geometry": { "type": "MultiPolygon", "coordinates": [ [ [ [ -84.600178271436931, 9.263413215853589 ], [ -84.854503646228849, 8.865250942670745 ], [ -85.386020689010536, 8.866730960141822 ], [ -85.665829538661555, 9.26578386156252 ], [ -85.413102737129705, 9.663572800782262 ], [ -84.878931337310448, 9.662712994174148 ], [ -84.600178271436931, 9.263413215853589 ] ] ] ] } },
{ "type": "Feature", "properties": { "geogrid_id": "5209265291086733439", "seqnum": 34822.0, "lat_c": 9.2652913922337561, "lon_c": -86.733438942330295, "res": 8.0, "count_Mosses": 0, "count_Amphibians": 0, "count_Molluscs": 0, "count_Mammals": 8, "count_Flowering Plants": 0, "count_Sac Fungi": 0, "count_Arachnids": 0, "count_Basidiomycota": 0, "count_Insects": 0, "count_Reptiles": 2, "count_Birds": 0, "count_Ferns": 0, "count_Gymnosperms": 0, "unique_species_count": 10.0, "countryCode": "CR" }, "geometry": { "type": "MultiPolygon", "coordinates": [ [ [ [ -86.199341605037787, 9.26593421932418 ], [ -86.450283499208368, 8.867798039833222 ], [ -86.983213011344645, 8.867242578699269 ], [ -87.268233706590181, 9.263758182270104 ], [ -87.019058115252292, 9.661300264675516 ], [ -86.483060075414613, 9.662958238140154 ], [ -86.199341605037787, 9.26593421932418 ] ] ] ] } },
{ "type": "Feature", "properties": { "geogrid_id": "5209642475089173111", "seqnum": 34657.0, "lat_c": 9.6424749357805748, "lon_c": -89.173110771728588, "res": 8.0, "count_Mosses": 0, "count_Amphibians": 0, "count_Molluscs": 0, "count_Mammals": 4, "count_Flowering Plants": 0, "count_Sac Fungi": 0, "count_Arachnids": 0, "count_Basidiomycota": 0, "count_Insects": 0, "count_Reptiles": 0, "count_Birds": 0, "count_Ferns": 0, "count_Gymnosperms": 0, "unique_species_count": 4.0, "countryCode": "CR" }, "geometry": { "type": "MultiPolygon", "coordinates": [ [ [ [ -88.632742920361409, 9.649376302164159 ], [ -88.878189743644796, 9.252500316330339 ], [ -89.41727793455749, 9.245928149148927 ], [ -89.715077932282313, 9.633691251826292 ], [ -89.471601009193577, 10.029554767008278 ], [ -88.928337363130524, 10.038705340860028 ], [ -88.632742920361409, 9.649376302164159 ] ] ] ] } },
{ "type": "Feature", "properties": { "geogrid_id": "5209653018082745669", "seqnum": 34989.0, "lat_c": 9.6530181657760217, "lon_c": -82.745668695431689, "res": 8.0, "count_Mosses": 10, "count_Amphibians": 60, "count_Molluscs": 189, "count_Mammals": 54, "count_Flowering Plants": 577, "count_Sac Fungi": 20, "count_Arachnids": 55, "count_Basidiomycota": 47, "count_Insects": 818, "count_Reptiles": 108, "count_Birds": 351, "count_Ferns": 16, "count_Gymnosperms": 0, "unique_species_count": 2305.0, "countryCode": "CR" }, "geometry": { "type": "MultiPolygon", "coordinates": [ [ [ [ -82.212871344452822, 9.649265035064007 ], [ -82.472231790296817, 9.251943513171996 ], [ -83.003960654231776, 9.255544512426608 ], [ -83.278612626044591, 9.656279199623143 ], [ -83.020634656559324, 10.053469438596084 ], [ -82.486586684549522, 10.050078775270107 ], [ -82.212871344452822, 9.649265035064007 ] ] ] ] } },
{ "type": "Feature", "properties": { "geogrid_id": "5209658588087555902", "seqnum": 34740.0, "lat_c": 9.6585875210780259, "lon_c": -87.555902061088219, "res": 8.0, "count_Mosses": 0, "count_Amphibians": 0, "count_Molluscs": 0, "count_Mammals": 3, "count_Flowering Plants": 0, "count_Sac Fungi": 0, "count_Arachnids": 0, "count_Basidiomycota": 0, "count_Insects": 0, "count_Reptiles": 3, "count_Birds": 1, "count_Ferns": 0, "count_Gymnosperms": 0, "unique_species_count": 7.0, "countryCode": "CR" }, "geometry": { "type": "MultiPolygon", "coordinates": [ [ [ [ -87.019058115252292, 9.661300264675516 ], [ -87.268233706590181, 9.263758182270104 ], [ -87.803854349626661, 9.261216751675514 ], [ -88.093739902560188, 9.654672940195681 ], [ -87.846411508719868, 10.051476787940288 ], [ -87.307320372370668, 10.055601227732915 ], [ -87.019058115252292, 9.661300264675516 ] ] ] ] } },
{ "type": "Feature", "properties": { "geogrid_id": "5209661173084345177", "seqnum": 34906.0, "lat_c": 9.6611729415100793, "lon_c": -84.345176895307091, "res": 8.0, "count_Mosses": 59, "count_Amphibians": 84, "count_Molluscs": 166, "count_Mammals": 121, "count_Flowering Plants": 2066, "count_Sac Fungi": 170, "count_Arachnids": 104, "count_Basidiomycota": 323, "count_Insects": 2840, "count_Reptiles": 153, "count_Birds": 656, "count_Ferns": 137, "count_Gymnosperms": 8, "unique_species_count": 6887.0, "countryCode": "CR" }, "geometry": { "type": "MultiPolygon", "coordinates": [ [ [ [ -83.811760825328662, 9.659011665297436 ], [ -84.067874243289708, 9.261317100100012 ], [ -84.600178271436931, 9.263413215853589 ], [ -84.878931337310448, 9.662712994174148 ], [ -84.624351720337785, 10.060111583427062 ], [ -84.089449242065896, 10.058534074518152 ], [ -83.811760825328662, 9.659011665297436 ] ] ] ] } },
{ "type": "Feature", "properties": { "geogrid_id": "5209663682085947779", "seqnum": 34823.0, "lat_c": 9.6636823705846702, "lon_c": -85.947779196940417, "res": 8.0, "count_Mosses": 0, "count_Amphibians": 12, "count_Molluscs": 64, "count_Mammals": 30, "count_Flowering Plants": 264, "count_Sac Fungi": 4, "count_Arachnids": 34, "count_Basidiomycota": 21, "count_Insects": 380, "count_Reptiles": 35, "count_Birds": 216, "count_Ferns": 6, "count_Gymnosperms": 0, "unique_species_count": 1066.0, "countryCode": "CR" }, "geometry": { "type": "MultiPolygon", "coordinates": [ [ [ [ -85.413102737129705, 9.663572800782262 ], [ -85.665829538661555, 9.26578386156252 ], [ -86.199341605037787, 9.26593421932418 ], [ -86.483060075414613, 9.662958238140154 ], [ -86.232025583020487, 10.060250570205515 ], [ -85.695545489952153, 10.061049007679788 ], [ -85.413102737129705, 9.663572800782262 ] ] ] ] } },
{ "type": "Feature", "properties": { "geogrid_id": "5210045920088386685", "seqnum": 34658.0, "lat_c": 10.045919755274456, "lon_c": -88.386684602373123, "res": 8.0, "count_Mosses": 0, "count_Amphibians": 0, "count_Molluscs": 0, "count_Mammals": 5, "count_Flowering Plants": 0, "count_Sac Fungi": 0, "count_Arachnids": 0, "count_Basidiomycota": 0, "count_Insects": 0, "count_Reptiles": 0, "count_Birds": 0, "count_Ferns": 0, "count_Gymnosperms": 0, "unique_species_count": 5.0, "countryCode": "CR" }, "geometry": { "type": "MultiPolygon", "coordinates": [ [ [ [ -87.846411508719868, 10.051476787940288 ], [ -88.093739902560188, 9.654672940195681 ], [ -88.632742920361409, 9.649376302164159 ], [ -88.928337363130524, 10.038705340860028 ], [ -88.682910301824066, 10.434630511561837 ], [ -88.139966570677188, 10.442141137637897 ], [ -87.846411508719868, 10.051476787940288 ] ] ] ] } },
{ "type": "Feature", "properties": { "geogrid_id": "5210046169081952698", "seqnum": 34990.0, "lat_c": 10.046168814510249, "lon_c": -81.952698181443111, "res": 8.0, "count_Mosses": 0, "count_Amphibians": 0, "count_Molluscs": 0, "count_Mammals": 1, "count_Flowering Plants": 0, "count_Sac Fungi": 0, "count_Arachnids": 0, "count_Basidiomycota": 0, "count_Insects": 0, "count_Reptiles": 0, "count_Birds": 0, "count_Ferns": 0, "count_Gymnosperms": 0, "unique_species_count": 1.0, "countryCode": "CR" }, "geometry": { "type": "MultiPolygon", "coordinates": [ [ [ [ -81.418915666727329, 10.04177239120979 ], [ -81.680167971897802, 9.645051147666704 ], [ -82.212871344452822, 9.649265035064007 ], [ -82.486586684549522, 10.050078775270107 ], [ -82.226665882802337, 10.44672809113521 ], [ -81.691663792382471, 10.442656000506839 ], [ -81.418915666727329, 10.04177239120979 ] ] ] ] } },
{ "type": "Feature", "properties": { "geogrid_id": "5210056303083554901", "seqnum": 34907.0, "lat_c": 10.056302684006843, "lon_c": -83.554900678155036, "res": 8.0, "count_Mosses": 100, "count_Amphibians": 136, "count_Molluscs": 36, "count_Mammals": 123, "count_Flowering Plants": 2098, "count_Sac Fungi": 143, "count_Arachnids": 158, "count_Basidiomycota": 214, "count_Insects": 2833, "count_Reptiles": 164, "count_Birds": 649, "count_Ferns": 110, "count_Gymnosperms": 5, "unique_species_count": 6769.0, "countryCode": "CR" }, "geometry": { "type": "MultiPolygon", "coordinates": [ [ [ [ -83.020634656559324, 10.053469438596084 ], [ -83.278612626044591, 9.656279199623143 ], [ -83.811760825328662, 9.659011665297436 ], [ -84.089449242065896, 10.058534074518152 ], [ -83.832945977323732, 10.455500401786825 ], [ -83.297244643787309, 10.453193224047384 ], [ -83.020634656559324, 10.053469438596084 ] ] ] ] } },
{ "type": "Feature", "properties": { "geogrid_id": "5210058476086769241", "seqnum": 34741.0, "lat_c": 10.058475877908693, "lon_c": -86.769240935810188, "res": 8.0, "count_Mosses": 0, "count_Amphibians": 0, "count_Molluscs": 0, "count_Mammals": 5, "count_Flowering Plants": 0, "count_Sac Fungi": 0, "count_Arachnids": 0, "count_Basidiomycota": 0, "count_Insects": 0, "count_Reptiles": 1, "count_Birds": 0, "count_Ferns": 0, "count_Gymnosperms": 0, "unique_species_count": 6.0, "countryCode": "CR" }, "geometry": { "type": "MultiPolygon", "coordinates": [ [ [ [ -86.232025583020487, 10.060250570205515 ], [ -86.483060075414613, 9.662958238140154 ], [ -87.019058115252292, 9.661300264675516 ], [ -87.307320372370668, 10.055601227732915 ], [ -87.058060080070192, 10.452266678464715 ], [ -86.518732715406315, 10.455292946535806 ], [ -86.232025583020487, 10.060250570205515 ] ] ] ] } },
{ "type": "Feature", "properties": { "geogrid_id": "5210060974085159688", "seqnum": 34824.0, "lat_c": 10.060974011741939, "lon_c": -85.159687522543805, "res": 8.0, "count_Mosses": 34, "count_Amphibians": 74, "count_Molluscs": 395, "count_Mammals": 136, "count_Flowering Plants": 1369, "count_Sac Fungi": 70, "count_Arachnids": 104, "count_Basidiomycota": 103, "count_Insects": 2054, "count_Reptiles": 118, "count_Birds": 607, "count_Ferns": 35, "count_Gymnosperms": 2, "unique_species_count": 5101.0, "countryCode": "CR" }, "geometry": { "type": "MultiPolygon", "coordinates": [ [ [ [ -84.624351720337785, 10.060111583427062 ], [ -84.878931337310448, 9.662712994174148 ], [ -85.413102737129705, 9.663572800782262 ], [ -85.695545489952153, 10.061049007679788 ], [ -85.442590867586475, 10.458040310494107 ], [ -84.905534318950714, 10.457992839887874 ], [ -84.624351720337785, 10.060111583427062 ] ] ] ] } },
{ "type": "Feature", "properties": { "geogrid_id": "5210447944087598415", "seqnum": 34659.0, "lat_c": 10.447944393567971, "lon_c": -87.598415020744667, "res": 8.0, "count_Mosses": 0, "count_Amphibians": 0, "count_Molluscs": 0, "count_Mammals": 3, "count_Flowering Plants": 0, "count_Sac Fungi": 0, "count_Arachnids": 0, "count_Basidiomycota": 0, "count_Insects": 0, "count_Reptiles": 3, "count_Birds": 0, "count_Ferns": 0, "count_Gymnosperms": 0, "unique_species_count": 6.0, "countryCode": "CR" }, "geometry": { "type": "MultiPolygon", "coordinates": [ [ [ [ -87.058060080070192, 10.452266678464715 ], [ -87.307320372370668, 10.055601227732915 ], [ -87.846411508719868, 10.051476787940288 ], [ -88.139966570677188, 10.442141137637897 ], [ -87.892541892426863, 10.838050104735961 ], [ -87.349702884864129, 10.844084724251317 ], [ -87.058060080070192, 10.452266678464715 ] ] ] ] } },
{ "type": "Feature", "properties": { "geogrid_id": "5210450254082761840", "seqnum": 34908.0, "lat_c": 10.450253732081787, "lon_c": -82.76183970601663, "res": 8.0, "count_Mosses": 0, "count_Amphibians": 0, "count_Molluscs": 0, "count_Mammals": 0, "count_Flowering Plants": 0, "count_Sac Fungi": 0, "count_Arachnids": 0, "count_Basidiomycota": 0, "count_Insects": 0, "count_Reptiles": 0, "count_Birds": 10, "count_Ferns": 0, "count_Gymnosperms": 0, "unique_species_count": 10.0, "countryCode": "CR" }, "geometry": { "type": "MultiPolygon", "coordinates": [ [ [ [ -82.226665882802337, 10.44672809113521 ], [ -82.486586684549522, 10.050078775270107 ], [ -83.020634656559324, 10.053469438596084 ], [ -83.297244643787309, 10.453193224047384 ], [ -83.038744321847247, 10.849686188889068 ], [ -82.502179514226682, 10.846634335252737 ], [ -82.226665882802337, 10.44672809113521 ] ] ] ] } },
{ "type": "Feature", "properties": { "geogrid_id": "5210457121084369016", "seqnum": 34825.0, "lat_c": 10.457121354296724, "lon_c": -84.369015834294544, "res": 8.0, "count_Mosses": 77, "count_Amphibians": 119, "count_Molluscs": 20, "count_Mammals": 159, "count_Flowering Plants": 2336, "count_Sac Fungi": 168, "count_Arachnids": 149, "count_Basidiomycota": 209, "count_Insects": 3423, "count_Reptiles": 164, "count_Birds": 657, "count_Ferns": 117, "count_Gymnosperms": 8, "unique_species_count": 7606.0, "countryCode": "CR" }, "geometry": { "type": "MultiPolygon", "coordinates": [ [ [ [ -83.832945977323732, 10.455500401786825 ], [ -84.089449242065896, 10.058534074518152 ], [ -84.624351720337785, 10.060111583427062 ], [ -84.905534318950714, 10.457992839887874 ], [ -84.650594501418524, 10.854634334699577 ], [ -84.112875086985838, 10.853746608948512 ], [ -83.832945977323732, 10.455500401786825 ] ] ] ] } },
{ "type": "Feature", "properties": { "geogrid_id": "5210457175085980286", "seqnum": 34742.0, "lat_c": 10.457175431682559, "lon_c": -85.980285882877993, "res": 8.0, "count_Mosses": 0, "count_Amphibians": 24, "count_Molluscs": 318, "count_Mammals": 56, "count_Flowering Plants": 379, "count_Sac Fungi": 5, "count_Arachnids": 46, "count_Basidiomycota": 23, "count_Insects": 410, "count_Reptiles": 65, "count_Birds": 255, "count_Ferns": 3, "count_Gymnosperms": 1, "unique_species_count": 1585.0, "countryCode": "CR" }, "geometry": { "type": "MultiPolygon", "coordinates": [ [ [ [ -85.442590867586475, 10.458040310494107 ], [ -85.695545489952153, 10.061049007679788 ], [ -86.232025583020487, 10.060250570205515 ], [ -86.518732715406315, 10.455292946535806 ], [ -86.267485145630772, 10.851758888645078 ], [ -85.727792474882619, 10.853739439522982 ], [ -85.442590867586475, 10.458040310494107 ] ] ] ] } },
{ "type": "Feature", "properties": { "geogrid_id": "5210842968081965858", "seqnum": 34909.0, "lat_c": 10.842967754272514, "lon_c": -81.965858189976231, "res": 8.0, "count_Mosses": 0, "count_Amphibians": 0, "count_Molluscs": 0, "count_Mammals": 0, "count_Flowering Plants": 0, "count_Sac Fungi": 0, "count_Arachnids": 0, "count_Basidiomycota": 0, "count_Insects": 0, "count_Reptiles": 1, "count_Birds": 0, "count_Ferns": 0, "count_Gymnosperms": 0, "unique_species_count": 1.0, "countryCode": "CR" }, "geometry": { "type": "MultiPolygon", "coordinates": [ [ [ [ -81.429720251225348, 10.838727652730805 ], [ -81.691663792382471, 10.442656000506839 ], [ -82.226665882802337, 10.44672809113521 ], [ -82.502179514226682, 10.846634335252737 ], [ -82.241606421169109, 11.242613338757007 ], [ -81.704116054025604, 11.238799265116738 ], [ -81.429720251225348, 10.838727652730805 ] ] ] ] } },
{ "type": "Feature", "properties": { "geogrid_id": "5210848592086808073", "seqnum": 34660.0, "lat_c": 10.848592083031859, "lon_c": -86.80807318232587, "res": 8.0, "count_Mosses": 0, "count_Amphibians": 0, "count_Molluscs": 0, "count_Mammals": 6, "count_Flowering Plants": 0, "count_Sac Fungi": 0, "count_Arachnids": 0, "count_Basidiomycota": 0, "count_Insects": 0, "count_Reptiles": 3, "count_Birds": 0, "count_Ferns": 0, "count_Gymnosperms": 0, "unique_species_count": 9.0, "countryCode": "CR" }, "geometry": { "type": "MultiPolygon", "coordinates": [ [ [ [ -86.267485145630772, 10.851758888645078 ], [ -86.518732715406315, 10.455292946535806 ], [ -87.058060080070192, 10.452266678464715 ], [ -87.349702884864129, 10.844084724251317 ], [ -87.100228618500708, 11.239906068570521 ], [ -86.557312710485249, 11.244585061172335 ], [ -86.267485145630772, 10.851758888645078 ] ] ] ] } },
{ "type": "Feature", "properties": { "geogrid_id": "5210852076083575619", "seqnum": 34826.0, "lat_c": 10.852075509378208, "lon_c": -83.575618587204545, "res": 8.0, "count_Mosses": 0, "count_Amphibians": 37, "count_Molluscs": 15, "count_Mammals": 68, "count_Flowering Plants": 373, "count_Sac Fungi": 6, "count_Arachnids": 44, "count_Basidiomycota": 38, "count_Insects": 605, "count_Reptiles": 88, "count_Birds": 367, "count_Ferns": 10, "count_Gymnosperms": 0, "unique_species_count": 1651.0, "countryCode": "CR" }, "geometry": { "type": "MultiPolygon", "coordinates": [ [ [ [ -83.038744321847247, 10.849686188889068 ], [ -83.297244643787309, 10.453193224047384 ], [ -83.832945977323732, 10.455500401786825 ], [ -84.112875086985838, 10.853746608948512 ], [ -83.855881652262838, 11.24999138031386 ], [ -83.317419267302384, 11.248262755112421 ], [ -83.038744321847247, 10.849686188889068 ] ] ] ] } },
{ "type": "Feature", "properties": { "geogrid_id": "5210854662085188867", "seqnum": 34743.0, "lat_c": 10.854662102584214, "lon_c": -85.188866730459353, "res": 8.0, "count_Mosses": 3, "count_Amphibians": 65, "count_Molluscs": 28, "count_Mammals": 129, "count_Flowering Plants": 1046, "count_Sac Fungi": 18, "count_Arachnids": 78, "count_Basidiomycota": 54, "count_Insects": 1584, "count_Reptiles": 150, "count_Birds": 550, "count_Ferns": 25, "count_Gymnosperms": 1, "unique_species_count": 3731.0, "countryCode": "CR" }, "geometry": { "type": "MultiPolygon", "coordinates": [ [ [ [ -84.650594501418524, 10.854634334699577 ], [ -84.905534318950714, 10.457992839887874 ], [ -85.442590867586475, 10.458040310494107 ], [ -85.727792474882619, 10.853739439522982 ], [ -85.474497793886741, 11.249948773912472 ], [ -84.934325359029003, 11.250919834610796 ], [ -84.650594501418524, 10.854634334699577 ] ] ] ] } },
{ "type": "Feature", "properties": { "geogrid_id": "5211245784082779352", "seqnum": 34827.0, "lat_c": 11.245784288435354, "lon_c": -82.77935196598952, "res": 8.0, "count_Mosses": 0, "count_Amphibians": 0, "count_Molluscs": 0, "count_Mammals": 2, "count_Flowering Plants": 0, "count_Sac Fungi": 0, "count_Arachnids": 0, "count_Basidiomycota": 0, "count_Insects": 0, "count_Reptiles": 0, "count_Birds": 0, "count_Ferns": 0, "count_Gymnosperms": 0, "unique_species_count": 2.0, "countryCode": "CR" }, "geometry": { "type": "MultiPolygon", "coordinates": [ [ [ [ -82.241606421169109, 11.242613338757007 ], [ -82.502179514226682, 10.846634335252737 ], [ -83.038744321847247, 10.849686188889068 ], [ -83.317419267302384, 11.248262755112421 ], [ -83.058300820384119, 11.644065245726953 ], [ -82.519020388124801, 11.641490014232458 ], [ -82.241606421169109, 11.242613338757007 ] ] ] ] } },
{ "type": "Feature", "properties": { "geogrid_id": "5211247881086015451", "seqnum": 34661.0, "lat_c": 11.247880613158566, "lon_c": -86.01545090489229, "res": 8.0, "count_Mosses": 0, "count_Amphibians": 12, "count_Molluscs": 167, "count_Mammals": 41, "count_Flowering Plants": 238, "count_Sac Fungi": 0, "count_Arachnids": 19, "count_Basidiomycota": 5, "count_Insects": 309, "count_Reptiles": 43, "count_Birds": 178, "count_Ferns": 0, "count_Gymnosperms": 0, "unique_species_count": 1012.0, "countryCode": "CR" }, "geometry": { "type": "MultiPolygon", "coordinates": [ [ [ [ -85.474497793886741, 11.249948773912472 ], [ -85.727792474882619, 10.853739439522982 ], [ -86.267485145630772, 10.851758888645078 ], [ -86.557312710485249, 11.244585061172335 ], [ -86.305732578270295, 11.640252652360612 ], [ -85.762583516425067, 11.643664520704156 ], [ -85.474497793886741, 11.249948773912472 ] ] ] ] } },
{ "type": "Feature", "properties": { "geogrid_id": "5211250903084394820", "seqnum": 34744.0, "lat_c": 11.250903228422864, "lon_c": -84.394820268147086, "res": 8.0, "count_Mosses": 1, "count_Amphibians": 1, "count_Molluscs": 0, "count_Mammals": 16, "count_Flowering Plants": 86, "count_Sac Fungi": 1, "count_Arachnids": 2, "count_Basidiomycota": 1, "count_Insects": 32, "count_Reptiles": 14, "count_Birds": 170, "count_Ferns": 1, "count_Gymnosperms": 0, "unique_species_count": 325.0, "countryCode": "CR" }, "geometry": { "type": "MultiPolygon", "coordinates": [ [ [ [ -83.855881652262838, 11.24999138031386 ], [ -84.112875086985838, 10.853746608948512 ], [ -84.650594501418524, 10.854634334699577 ], [ -84.934325359029003, 11.250919834610796 ], [ -84.678919788743357, 11.64681857220822 ], [ -84.138164523618627, 11.646803919393992 ], [ -83.855881652262838, 11.24999138031386 ] ] ] ] } }
]
}
