{
"type": "FeatureCollection",
"name": "CU",
"crs": { "type": "name", "properties": { "name": "urn:ogc:def:crs:OGC:1.3:CRS84" } },
"features": [
{ "type": "Feature", "properties": { "geogrid_id": "5219480280075317254", "seqnum": 8025.0, "lat_c": 19.480279557038457, "lon_c": -75.317253854987044, "res": 8.0, "count_Mosses": 0, "count_Flowering Plants": 0, "count_Amphibians": 0, "count_Arachnids": 0, "count_Ferns": 0, "count_Reptiles": 0, "count_Molluscs": 0, "count_Mammals": 0, "count_Birds": 0, "count_Insects": 1, "count_Sac Fungi": 0, "count_Gymnosperms": 0, "count_Basidiomycota": 0, "unique_species_count": 1.0, "countryCode": "CU" }, "geometry": { "type": "MultiPolygon", "coordinates": [ [ [ [ -74.741107229806886, 19.471214409583393 ], [ -75.043384569844363, 19.090075322468362 ], [ -75.61651902287997, 19.096936817592358 ], [ -75.892040527562102, 19.486973971389169 ], [ -75.592822920258826, 19.870231191612131 ], [ -75.01500743743911, 19.861336418149797 ], [ -74.741107229806886, 19.471214409583393 ] ] ] ] } },
{ "type": "Feature", "properties": { "geogrid_id": "5219491009078750000", "seqnum": 7859.0, "lat_c": 19.491009305202255, "lon_c": -78.750000000835755, "res": 8.0, "count_Mosses": 0, "count_Flowering Plants": 0, "count_Amphibians": 0, "count_Arachnids": 0, "count_Ferns": 0, "count_Reptiles": 0, "count_Molluscs": 0, "count_Mammals": 0, "count_Birds": 0, "count_Insects": 1, "count_Sac Fungi": 0, "count_Gymnosperms": 0, "count_Basidiomycota": 0, "unique_species_count": 1.0, "countryCode": "CU" }, "geometry": { "type": "MultiPolygon", "coordinates": [ [ [ [ -78.180168200563301, 19.493648112931201 ], [ -78.466177553569409, 19.102120372372251 ], [ -79.033822447447861, 19.102120377508015 ], [ -79.319831800489851, 19.493648118022712 ], [ -79.035850323915284, 19.882466165368239 ], [ -78.464149677147077, 19.882466160234767 ], [ -78.180168200563301, 19.493648112931201 ] ] ] ] } },
{ "type": "Feature", "properties": { "geogrid_id": "5219494017077038072", "seqnum": 7942.0, "lat_c": 19.494016805132411, "lon_c": -77.038072230389261, "res": 8.0, "count_Mosses": 0, "count_Flowering Plants": 3, "count_Amphibians": 0, "count_Arachnids": 1, "count_Ferns": 0, "count_Reptiles": 0, "count_Molluscs": 4, "count_Mammals": 0, "count_Birds": 0, "count_Insects": 0, "count_Sac Fungi": 0, "count_Gymnosperms": 0, "count_Basidiomycota": 0, "unique_species_count": 8.0, "countryCode": "CU" }, "geometry": { "type": "MultiPolygon", "coordinates": [ [ [ [ -76.465604760297012, 19.4914954078472 ], [ -76.759233837746677, 19.104372865723509 ], [ -77.32905832307371, 19.105274811962758 ], [ -77.609558104879767, 19.494689876490849 ], [ -77.318681986197092, 19.88335088857384 ], [ -76.744530570189966, 19.881055024876666 ], [ -76.465604760297012, 19.4914954078472 ] ] ] ] } },
{ "type": "Feature", "properties": { "geogrid_id": "5219796873084812978", "seqnum": 33853.0, "lat_c": 19.796872575137687, "lon_c": -84.812977732139558, "res": 8.0, "count_Mosses": 0, "count_Flowering Plants": 0, "count_Amphibians": 0, "count_Arachnids": 0, "count_Ferns": 0, "count_Reptiles": 0, "count_Molluscs": 0, "count_Mammals": 1, "count_Birds": 0, "count_Insects": 0, "count_Sac Fungi": 0, "count_Gymnosperms": 0, "count_Basidiomycota": 0, "unique_species_count": 1.0, "countryCode": "CU" }, "geometry": { "type": "MultiPolygon", "coordinates": [ [ [ [ -84.228113275585159, 19.817918612799797 ], [ -84.497078466770972, 19.427347780453786 ], [ -85.08033473918168, 19.406154673934658 ], [ -85.400101865149381, 19.77192020064037 ], [ -85.132727534728318, 20.162669149548201 ], [ -84.54399673601597, 20.187440527221405 ], [ -84.228113275585159, 19.817918612799797 ] ] ] ] } },
{ "type": "Feature", "properties": { "geogrid_id": "5219849831074435691", "seqnum": 8026.0, "lat_c": 19.849830726681713, "lon_c": -74.435690829158915, "res": 8.0, "count_Mosses": 1, "count_Flowering Plants": 50, "count_Amphibians": 2, "count_Arachnids": 9, "count_Ferns": 0, "count_Reptiles": 13, "count_Molluscs": 43, "count_Mammals": 1, "count_Birds": 37, "count_Insects": 16, "count_Sac Fungi": 0, "count_Gymnosperms": 1, "count_Basidiomycota": 0, "unique_species_count": 173.0, "countryCode": "CU" }, "geometry": { "type": "MultiPolygon", "coordinates": [ [ [ [ -73.854710322667586, 19.835456954218859 ], [ -74.163449786724868, 19.459551645106863 ], [ -74.741107229806886, 19.471214409583393 ], [ -75.01500743743911, 19.861336418149797 ], [ -74.70962951603336, 20.239895388494258 ], [ -74.126978435901194, 20.225690652077247 ], [ -73.854710322667586, 19.835456954218859 ] ] ] ] } },
{ "type": "Feature", "properties": { "geogrid_id": "5219876739076169286", "seqnum": 7943.0, "lat_c": 19.876738892521729, "lon_c": -76.169285514983486, "res": 8.0, "count_Mosses": 15, "count_Flowering Plants": 299, "count_Amphibians": 8, "count_Arachnids": 34, "count_Ferns": 48, "count_Reptiles": 36, "count_Molluscs": 174, "count_Mammals": 15, "count_Birds": 134, "count_Insects": 265, "count_Sac Fungi": 13, "count_Gymnosperms": 0, "count_Basidiomycota": 20, "unique_species_count": 1061.0, "countryCode": "CU" }, "geometry": { "type": "MultiPolygon", "coordinates": [ [ [ [ -75.592822920258826, 19.870231191612131 ], [ -75.892040527562102, 19.486973971389169 ], [ -76.465604760297012, 19.4914954078472 ], [ -76.744530570189966, 19.881055024876666 ], [ -76.448300820799631, 20.266228608387998 ], [ -75.870138030178964, 20.259927369663131 ], [ -75.592822920258826, 19.870231191612131 ] ] ] ] } },
{ "type": "Feature", "properties": { "geogrid_id": "5219883777077891853", "seqnum": 7860.0, "lat_c": 19.883777034260721, "lon_c": -77.89185347696197, "res": 8.0, "count_Mosses": 0, "count_Flowering Plants": 5, "count_Amphibians": 1, "count_Arachnids": 2, "count_Ferns": 0, "count_Reptiles": 13, "count_Molluscs": 9, "count_Mammals": 1, "count_Birds": 9, "count_Insects": 12, "count_Sac Fungi": 1, "count_Gymnosperms": 0, "count_Basidiomycota": 0, "unique_species_count": 53.0, "countryCode": "CU" }, "geometry": { "type": "MultiPolygon", "coordinates": [ [ [ [ -77.318681986197092, 19.88335088857384 ], [ -77.609558104879767, 19.494689876490849 ], [ -78.180168200563301, 19.493648112931201 ], [ -78.464149677147077, 19.882466160234767 ], [ -78.175992808328743, 20.272532739990197 ], [ -77.60111099236336, 20.272371794411125 ], [ -77.318681986197092, 19.88335088857384 ] ] ] ] } },
{ "type": "Feature", "properties": { "geogrid_id": "5220208318073542501", "seqnum": 8027.0, "lat_c": 20.208317784718584, "lon_c": -73.542500780491693, "res": 8.0, "count_Mosses": 0, "count_Flowering Plants": 0, "count_Amphibians": 0, "count_Arachnids": 0, "count_Ferns": 0, "count_Reptiles": 0, "count_Molluscs": 0, "count_Mammals": 0, "count_Birds": 4, "count_Insects": 0, "count_Sac Fungi": 0, "count_Gymnosperms": 0, "count_Basidiomycota": 0, "unique_species_count": 4.0, "countryCode": "CU" }, "geometry": { "type": "MultiPolygon", "coordinates": [ [ [ [ -72.95600326533139, 20.187440522959662 ], [ -73.27188672572052, 19.81791860848351 ], [ -73.854710322667586, 19.835456954218859 ], [ -74.126978435901194, 20.225690652077247 ], [ -73.814808067809238, 20.598542081820415 ], [ -73.226651940390923, 20.577855191744007 ], [ -72.95600326533139, 20.187440522959662 ] ] ] ] } },
{ "type": "Feature", "properties": { "geogrid_id": "5220208318083957499", "seqnum": 33854.0, "lat_c": 20.20831778907738, "lon_c": -83.95749922082824, "res": 8.0, "count_Mosses": 0, "count_Flowering Plants": 0, "count_Amphibians": 0, "count_Arachnids": 0, "count_Ferns": 0, "count_Reptiles": 0, "count_Molluscs": 0, "count_Mammals": 1, "count_Birds": 0, "count_Insects": 0, "count_Sac Fungi": 0, "count_Gymnosperms": 0, "count_Basidiomycota": 0, "unique_species_count": 1.0, "countryCode": "CU" }, "geometry": { "type": "MultiPolygon", "coordinates": [ [ [ [ -83.373021565391312, 20.225690656531533 ], [ -83.645289678611206, 19.835456958630726 ], [ -84.228113275585159, 19.817918612799797 ], [ -84.54399673601597, 20.187440527221405 ], [ -84.27334806097079, 20.577855196048542 ], [ -83.685191933524521, 20.598542086221887 ], [ -83.373021565391312, 20.225690656531533 ] ] ] ] } },
{ "type": "Feature", "properties": { "geogrid_id": "5220251223075290629", "seqnum": 7944.0, "lat_c": 20.251223238583151, "lon_c": -75.290629487178649, "res": 8.0, "count_Mosses": 65, "count_Flowering Plants": 630, "count_Amphibians": 18, "count_Arachnids": 52, "count_Ferns": 92, "count_Reptiles": 56, "count_Molluscs": 339, "count_Mammals": 13, "count_Birds": 154, "count_Insects": 493, "count_Sac Fungi": 27, "count_Gymnosperms": 1, "count_Basidiomycota": 46, "unique_species_count": 1986.0, "countryCode": "CU" }, "geometry": { "type": "MultiPolygon", "coordinates": [ [ [ [ -74.70962951603336, 20.239895388494258 ], [ -75.01500743743911, 19.861336418149797 ], [ -75.592822920258826, 19.870231191612131 ], [ -75.870138030178964, 20.259927369663131 ], [ -75.568019684045524, 20.640871695477468 ], [ -74.985311529886204, 20.629742488356897 ], [ -74.70962951603336, 20.239895388494258 ] ] ] ] } },
{ "type": "Feature", "properties": { "geogrid_id": "5220251223082209371", "seqnum": 33937.0, "lat_c": 20.251223243224281, "lon_c": -82.209370514058932, "res": 8.0, "count_Mosses": 0, "count_Flowering Plants": 0, "count_Amphibians": 0, "count_Arachnids": 0, "count_Ferns": 0, "count_Reptiles": 0, "count_Molluscs": 0, "count_Mammals": 0, "count_Birds": 1, "count_Insects": 0, "count_Sac Fungi": 0, "count_Gymnosperms": 0, "count_Basidiomycota": 0, "unique_species_count": 1.0, "countryCode": "CU" }, "geometry": { "type": "MultiPolygon", "coordinates": [ [ [ [ -81.62986197103109, 20.25992737439584 ], [ -81.907177080939277, 19.870231196302587 ], [ -82.484992563785909, 19.861336422748629 ], [ -82.790370485231705, 20.239895393042612 ], [ -82.514688471391551, 20.62974249294777 ], [ -81.93198031720415, 20.640871700161053 ], [ -81.62986197103109, 20.25992737439584 ] ] ] ] } },
{ "type": "Feature", "properties": { "geogrid_id": "5220270320077025251", "seqnum": 7861.0, "lat_c": 20.270320203074181, "lon_c": -77.025251089967909, "res": 8.0, "count_Mosses": 19, "count_Flowering Plants": 252, "count_Amphibians": 13, "count_Arachnids": 56, "count_Ferns": 19, "count_Reptiles": 39, "count_Molluscs": 94, "count_Mammals": 3, "count_Birds": 58, "count_Insects": 132, "count_Sac Fungi": 5, "count_Gymnosperms": 3, "count_Basidiomycota": 5, "unique_species_count": 698.0, "countryCode": "CU" }, "geometry": { "type": "MultiPolygon", "coordinates": [ [ [ [ -76.448300820799631, 20.266228608387998 ], [ -76.744530570189966, 19.881055024876666 ], [ -77.318681986197092, 19.88335088857384 ], [ -77.60111099236336, 20.272371794411125 ], [ -77.307814325052377, 20.659287403591691 ], [ -76.729133912315447, 20.655439741325797 ], [ -76.448300820799631, 20.266228608387998 ] ] ] ] } },
{ "type": "Feature", "properties": { "geogrid_id": "5220270935078750000", "seqnum": 7778.0, "lat_c": 20.27093490899944, "lon_c": -78.750000000863537, "res": 8.0, "count_Mosses": 0, "count_Flowering Plants": 0, "count_Amphibians": 0, "count_Arachnids": 0, "count_Ferns": 0, "count_Reptiles": 2, "count_Molluscs": 0, "count_Mammals": 0, "count_Birds": 0, "count_Insects": 0, "count_Sac Fungi": 0, "count_Gymnosperms": 0, "count_Basidiomycota": 0, "unique_species_count": 2.0, "countryCode": "CU" }, "geometry": { "type": "MultiPolygon", "coordinates": [ [ [ [ -78.175992808328743, 20.272532739990197 ], [ -78.464149677147077, 19.882466160234767 ], [ -79.035850323915284, 19.882466165368239 ], [ -79.324007192770296, 20.27253274507898 ], [ -79.037974905197984, 20.660953038785443 ], [ -78.462025095909837, 20.660953033654394 ], [ -78.175992808328743, 20.272532739990197 ] ] ] ] } },
{ "type": "Feature", "properties": { "geogrid_id": "5220553286084863712", "seqnum": 33772.0, "lat_c": 20.553286243732995, "lon_c": -84.863711679172312, "res": 8.0, "count_Mosses": 0, "count_Flowering Plants": 0, "count_Amphibians": 0, "count_Arachnids": 0, "count_Ferns": 0, "count_Reptiles": 0, "count_Molluscs": 0, "count_Mammals": 1, "count_Birds": 0, "count_Insects": 0, "count_Sac Fungi": 0, "count_Gymnosperms": 0, "count_Basidiomycota": 0, "unique_species_count": 1.0, "countryCode": "CU" }, "geometry": { "type": "MultiPolygon", "coordinates": [ [ [ [ -84.27334806097079, 20.577855196048542 ], [ -84.54399673601597, 20.187440527221405 ], [ -85.132727534728318, 20.162669149548201 ], [ -85.456512791989013, 20.524392914696012 ], [ -85.187440175676826, 20.91512073946463 ], [ -84.593010562782212, 20.943767707424328 ], [ -84.27334806097079, 20.577855196048542 ] ] ] ] } },
{ "type": "Feature", "properties": { "geogrid_id": "5220615728074400965", "seqnum": 7945.0, "lat_c": 20.615727985252491, "lon_c": -74.40096494458389, "res": 8.0, "count_Mosses": 7, "count_Flowering Plants": 337, "count_Amphibians": 11, "count_Arachnids": 10, "count_Ferns": 28, "count_Reptiles": 28, "count_Molluscs": 47, "count_Mammals": 5, "count_Birds": 65, "count_Insects": 57, "count_Sac Fungi": 2, "count_Gymnosperms": 2, "count_Basidiomycota": 8, "unique_species_count": 607.0, "countryCode": "CU" }, "geometry": { "type": "MultiPolygon", "coordinates": [ [ [ [ -73.814808067809238, 20.598542081820415 ], [ -74.126978435901194, 20.225690652077247 ], [ -74.70962951603336, 20.239895388494258 ], [ -74.985311529886204, 20.629742488356897 ], [ -74.676715577236166, 21.005565433510522 ], [ -74.08885365973768, 20.988587933424032 ], [ -73.814808067809238, 20.598542081820415 ] ] ] ] } },
{ "type": "Feature", "properties": { "geogrid_id": "5220615728083099035", "seqnum": 33855.0, "lat_c": 20.615727989749363, "lon_c": -83.099035056721888, "res": 8.0, "count_Mosses": 0, "count_Flowering Plants": 0, "count_Amphibians": 0, "count_Arachnids": 0, "count_Ferns": 0, "count_Reptiles": 0, "count_Molluscs": 0, "count_Mammals": 0, "count_Birds": 1, "count_Insects": 0, "count_Sac Fungi": 0, "count_Gymnosperms": 0, "count_Basidiomycota": 0, "unique_species_count": 1.0, "countryCode": "CU" }, "geometry": { "type": "MultiPolygon", "coordinates": [ [ [ [ -82.514688471391551, 20.62974249294777 ], [ -82.790370485231705, 20.239895393042612 ], [ -83.373021565391312, 20.225690656531533 ], [ -83.685191933524521, 20.598542086221887 ], [ -83.411146341609481, 20.988587937868349 ], [ -82.823284424082431, 21.005565438050148 ], [ -82.514688471391551, 20.62974249294777 ] ] ] ] } },
{ "type": "Feature", "properties": { "geogrid_id": "5220649365076149246", "seqnum": 7862.0, "lat_c": 20.649364836072756, "lon_c": -76.149246085132361, "res": 8.0, "count_Mosses": 8, "count_Flowering Plants": 400, "count_Amphibians": 2, "count_Arachnids": 14, "count_Ferns": 37, "count_Reptiles": 32, "count_Molluscs": 161, "count_Mammals": 5, "count_Birds": 66, "count_Insects": 77, "count_Sac Fungi": 12, "count_Gymnosperms": 2, "count_Basidiomycota": 31, "unique_species_count": 847.0, "countryCode": "CU" }, "geometry": { "type": "MultiPolygon", "coordinates": [ [ [ [ -75.568019684045524, 20.640871695477468 ], [ -75.870138030178964, 20.259927369663131 ], [ -76.448300820799631, 20.266228608387998 ], [ -76.729133912315447, 20.655439741325797 ], [ -76.430194657187741, 21.038539936556358 ], [ -75.847225010169282, 21.030278223662968 ], [ -75.568019684045524, 20.640871695477468 ] ] ] ] } },
{ "type": "Feature", "properties": { "geogrid_id": "5220661076077885408", "seqnum": 7779.0, "lat_c": 20.661075788278872, "lon_c": -77.885407763932378, "res": 8.0, "count_Mosses": 0, "count_Flowering Plants": 26, "count_Amphibians": 1, "count_Arachnids": 5, "count_Ferns": 1, "count_Reptiles": 8, "count_Molluscs": 128, "count_Mammals": 1, "count_Birds": 42, "count_Insects": 37, "count_Sac Fungi": 0, "count_Gymnosperms": 0, "count_Basidiomycota": 1, "unique_species_count": 250.0, "countryCode": "CU" }, "geometry": { "type": "MultiPolygon", "coordinates": [ [ [ [ -77.307814325052377, 20.659287403591691 ], [ -77.60111099236336, 20.272371794411125 ], [ -78.175992808328743, 20.272532739990197 ], [ -78.462025095909837, 20.660953033654394 ], [ -78.171621480207051, 21.049458720245823 ], [ -77.592268946258713, 21.047952675938156 ], [ -77.307814325052377, 20.659287403591691 ] ] ] ] } },
{ "type": "Feature", "properties": { "geogrid_id": "5221019369075262783", "seqnum": 7863.0, "lat_c": 21.019368506457717, "lon_c": -75.262783237429417, "res": 8.0, "count_Mosses": 0, "count_Flowering Plants": 73, "count_Amphibians": 2, "count_Arachnids": 1, "count_Ferns": 1, "count_Reptiles": 9, "count_Molluscs": 50, "count_Mammals": 6, "count_Birds": 27, "count_Insects": 13, "count_Sac Fungi": 0, "count_Gymnosperms": 0, "count_Basidiomycota": 0, "unique_species_count": 182.0, "countryCode": "CU" }, "geometry": { "type": "MultiPolygon", "coordinates": [ [ [ [ -74.676715577236166, 21.005565433510522 ], [ -74.985311529886204, 20.629742488356897 ], [ -75.568019684045524, 20.640871695477468 ], [ -75.847225010169282, 21.030278223662968 ], [ -75.542091723765111, 21.408769544687907 ], [ -74.954276788572699, 21.39519911373467 ], [ -74.676715577236166, 21.005565433510522 ] ] ] ] } },
{ "type": "Feature", "properties": { "geogrid_id": "5221044369077011833", "seqnum": 7780.0, "lat_c": 21.044368507363213, "lon_c": -77.011832924655536, "res": 8.0, "count_Mosses": 3, "count_Flowering Plants": 37, "count_Amphibians": 0, "count_Arachnids": 1, "count_Ferns": 0, "count_Reptiles": 10, "count_Molluscs": 103, "count_Mammals": 2, "count_Birds": 15, "count_Insects": 5, "count_Sac Fungi": 1, "count_Gymnosperms": 0, "count_Basidiomycota": 2, "unique_species_count": 179.0, "countryCode": "CU" }, "geometry": { "type": "MultiPolygon", "coordinates": [ [ [ [ -76.430194657187741, 21.038539936556358 ], [ -76.729133912315447, 20.655439741325797 ], [ -77.307814325052377, 20.659287403591691 ], [ -77.592268946258713, 21.047952675938156 ], [ -77.296446696511623, 21.433010714147532 ], [ -76.713032025512064, 21.427448616206462 ], [ -76.430194657187741, 21.038539936556358 ] ] ] ] } },
{ "type": "Feature", "properties": { "geogrid_id": "5221049034078750000", "seqnum": 7697.0, "lat_c": 21.049033536803403, "lon_c": -78.750000000891745, "res": 8.0, "count_Mosses": 0, "count_Flowering Plants": 1, "count_Amphibians": 0, "count_Arachnids": 0, "count_Ferns": 0, "count_Reptiles": 1, "count_Molluscs": 26, "count_Mammals": 1, "count_Birds": 16, "count_Insects": 1, "count_Sac Fungi": 0, "count_Gymnosperms": 0, "count_Basidiomycota": 0, "unique_species_count": 46.0, "countryCode": "CU" }, "geometry": { "type": "MultiPolygon", "coordinates": [ [ [ [ -78.171621480207051, 21.049458720245823 ], [ -78.462025095909837, 20.660953033654394 ], [ -79.037974905197984, 20.660953038785443 ], [ -79.328378520938273, 21.049458725331728 ], [ -79.040197980425759, 21.437516026411863 ], [ -78.459802020727864, 21.437516021283372 ], [ -78.171621480207051, 21.049458720245823 ] ] ] ] } },
{ "type": "Feature", "properties": { "geogrid_id": "5221305729084916666", "seqnum": 33691.0, "lat_c": 21.305729460925587, "lon_c": -84.916666133133788, "res": 8.0, "count_Mosses": 0, "count_Flowering Plants": 0, "count_Amphibians": 0, "count_Arachnids": 0, "count_Ferns": 0, "count_Reptiles": 0, "count_Molluscs": 0, "count_Mammals": 1, "count_Birds": 0, "count_Insects": 0, "count_Sac Fungi": 0, "count_Gymnosperms": 0, "count_Basidiomycota": 0, "unique_species_count": 1.0, "countryCode": "CU" }, "geometry": { "type": "MultiPolygon", "coordinates": [ [ [ [ -84.320579693946428, 21.334109468460944 ], [ -84.593010562782212, 20.943767707424328 ], [ -85.187440175676826, 20.91512073946463 ], [ -85.515369333111522, 21.272581383843939 ], [ -85.244499057603548, 21.663388192495173 ], [ -84.644146023269272, 21.696214626160959 ], [ -84.320579693946428, 21.334109468460944 ] ] ] ] } },
{ "type": "Feature", "properties": { "geogrid_id": "5221378451083135317", "seqnum": 33774.0, "lat_c": 21.378451433503482, "lon_c": -83.135316637719072, "res": 8.0, "count_Mosses": 1, "count_Flowering Plants": 73, "count_Amphibians": 3, "count_Arachnids": 3, "count_Ferns": 1, "count_Reptiles": 3, "count_Molluscs": 143, "count_Mammals": 1, "count_Birds": 10, "count_Insects": 10, "count_Sac Fungi": 4, "count_Gymnosperms": 1, "count_Basidiomycota": 8, "unique_species_count": 261.0, "countryCode": "CU" }, "geometry": { "type": "MultiPolygon", "coordinates": [ [ [ [ -82.545723212758233, 21.395199118317215 ], [ -82.823284424082431, 21.005565438050148 ], [ -83.411146341609481, 20.988587937868349 ], [ -83.726869311383055, 21.358209743524057 ], [ -83.45094816101988, 21.748141344812513 ], [ -82.857656247029965, 21.768128316669557 ], [ -82.545723212758233, 21.395199118317215 ] ] ] ] } },
{ "type": "Feature", "properties": { "geogrid_id": "5221419439076128293", "seqnum": 7781.0, "lat_c": 21.419438867232206, "lon_c": -76.128293159699112, "res": 8.0, "count_Mosses": 0, "count_Flowering Plants": 309, "count_Amphibians": 4, "count_Arachnids": 14, "count_Ferns": 2, "count_Reptiles": 23, "count_Molluscs": 116, "count_Mammals": 7, "count_Birds": 111, "count_Insects": 121, "count_Sac Fungi": 2, "count_Gymnosperms": 1, "count_Basidiomycota": 3, "unique_species_count": 713.0, "countryCode": "CU" }, "geometry": { "type": "MultiPolygon", "coordinates": [ [ [ [ -75.542091723765111, 21.408769544687907 ], [ -75.847225010169282, 21.030278223662968 ], [ -76.430194657187741, 21.038539936556358 ], [ -76.713032025512064, 21.427448616206462 ], [ -76.411272573452692, 21.808349277662863 ], [ -75.823284826391344, 21.797941325030308 ], [ -75.542091723765111, 21.408769544687907 ] ] ] ] } },
{ "type": "Feature", "properties": { "geogrid_id": "5221419439081371707", "seqnum": 33857.0, "lat_c": 21.419438872001187, "lon_c": -81.371706841573229, "res": 8.0, "count_Mosses": 0, "count_Flowering Plants": 26, "count_Amphibians": 0, "count_Arachnids": 0, "count_Ferns": 0, "count_Reptiles": 2, "count_Molluscs": 8, "count_Mammals": 3, "count_Birds": 40, "count_Insects": 7, "count_Sac Fungi": 0, "count_Gymnosperms": 0, "count_Basidiomycota": 0, "unique_species_count": 86.0, "countryCode": "CU" }, "geometry": { "type": "MultiPolygon", "coordinates": [ [ [ [ -80.786967975730803, 21.427448621066869 ], [ -81.06980534404471, 21.038539941374044 ], [ -81.652774991091988, 21.030278228389172 ], [ -81.957908277536575, 21.408769549364301 ], [ -81.676715174921569, 21.797941329749705 ], [ -81.088727427830193, 21.808349282474783 ], [ -80.786967975730803, 21.427448621066869 ] ] ] ] } },
{ "type": "Feature", "properties": { "geogrid_id": "5221436312077878664", "seqnum": 7698.0, "lat_c": 21.436311655205508, "lon_c": -77.878664325725225, "res": 8.0, "count_Mosses": 0, "count_Flowering Plants": 41, "count_Amphibians": 5, "count_Arachnids": 12, "count_Ferns": 2, "count_Reptiles": 13, "count_Molluscs": 101, "count_Mammals": 1, "count_Birds": 57, "count_Insects": 38, "count_Sac Fungi": 1, "count_Gymnosperms": 0, "count_Basidiomycota": 5, "unique_species_count": 276.0, "countryCode": "CU" }, "geometry": { "type": "MultiPolygon", "coordinates": [ [ [ [ -77.296446696511623, 21.433010714147532 ], [ -77.592268946258713, 21.047952675938156 ], [ -78.171621480207051, 21.049458720245823 ], [ -78.459802020727864, 21.437516021283372 ], [ -78.167050572513602, 21.824359558548025 ], [ -77.583024805572393, 21.821361758071465 ], [ -77.296446696511623, 21.433010714147532 ] ] ] ] } },
{ "type": "Feature", "properties": { "geogrid_id": "5221436312079621336", "seqnum": 33940.0, "lat_c": 21.4363116602456, "lon_c": -79.621335675458297, "res": 8.0, "count_Mosses": 0, "count_Flowering Plants": 21, "count_Amphibians": 0, "count_Arachnids": 0, "count_Ferns": 2, "count_Reptiles": 3, "count_Molluscs": 25, "count_Mammals": 6, "count_Birds": 33, "count_Insects": 6, "count_Sac Fungi": 7, "count_Gymnosperms": 0, "count_Basidiomycota": 5, "unique_species_count": 108.0, "countryCode": "CU" }, "geometry": { "type": "MultiPolygon", "coordinates": [ [ [ [ -79.040197980425759, 21.437516026411863 ], [ -79.328378520938273, 21.049458725331728 ], [ -79.907731054915786, 21.047952680935619 ], [ -80.203553304701643, 21.433010719098284 ], [ -79.916975195650039, 21.821361763065042 ], [ -79.332949428678361, 21.824359563630896 ], [ -79.040197980425759, 21.437516026411863 ] ] ] ] } },
{ "type": "Feature", "properties": { "geogrid_id": "5221625276085847691", "seqnum": 33609.0, "lat_c": 21.625275628698287, "lon_c": -85.847691048995159, "res": 8.0, "count_Mosses": 0, "count_Flowering Plants": 0, "count_Amphibians": 0, "count_Arachnids": 0, "count_Ferns": 0, "count_Reptiles": 0, "count_Molluscs": 32, "count_Mammals": 1, "count_Birds": 1, "count_Insects": 0, "count_Sac Fungi": 0, "count_Gymnosperms": 0, "count_Basidiomycota": 0, "unique_species_count": 34.0, "countryCode": "CU" }, "geometry": { "type": "MultiPolygon", "coordinates": [ [ [ [ -85.244499057603548, 21.663388192495173 ], [ -85.515369333111522, 21.272581383843939 ], [ -86.116955134670562, 21.234096738027038 ], [ -86.454006988859135, 21.581233110612423 ], [ -86.184601671856271, 21.97277851578437 ], [ -85.576698260705612, 22.016363066471801 ], [ -85.244499057603548, 21.663388192495173 ] ] ] ] } },
{ "type": "Feature", "properties": { "geogrid_id": "5221724307084046374", "seqnum": 33692.0, "lat_c": 21.724307155050642, "lon_c": -84.04637379551987, "res": 8.0, "count_Mosses": 0, "count_Flowering Plants": 182, "count_Amphibians": 1, "count_Arachnids": 4, "count_Ferns": 1, "count_Reptiles": 13, "count_Molluscs": 37, "count_Mammals": 4, "count_Birds": 74, "count_Insects": 30, "count_Sac Fungi": 0, "count_Gymnosperms": 1, "count_Basidiomycota": 2, "unique_species_count": 349.0, "countryCode": "CU" }, "geometry": { "type": "MultiPolygon", "coordinates": [ [ [ [ -83.45094816101988, 21.748141344812513 ], [ -83.726869311383055, 21.358209743524057 ], [ -84.320579693946428, 21.334109468460944 ], [ -84.644146023269272, 21.696214626160959 ], [ -84.36983438229889, 22.086571504313483 ], [ -83.770346774939568, 22.114356091749595 ], [ -83.45094816101988, 21.748141344812513 ] ] ] ] } },
{ "type": "Feature", "properties": { "geogrid_id": "5221784625082266304", "seqnum": 33775.0, "lat_c": 21.784624782984423, "lon_c": -82.266304208663044, "res": 8.0, "count_Mosses": 1, "count_Flowering Plants": 83, "count_Amphibians": 5, "count_Arachnids": 0, "count_Ferns": 2, "count_Reptiles": 8, "count_Molluscs": 18, "count_Mammals": 0, "count_Birds": 4, "count_Insects": 3, "count_Sac Fungi": 0, "count_Gymnosperms": 0, "count_Basidiomycota": 1, "unique_species_count": 125.0, "countryCode": "CU" }, "geometry": { "type": "MultiPolygon", "coordinates": [ [ [ [ -81.676715174921569, 21.797941329749705 ], [ -81.957908277536575, 21.408769549364301 ], [ -82.545723212758233, 21.395199118317215 ], [ -82.857656247029965, 21.768128316669557 ], [ -82.578117795060891, 22.157613982266856 ], [ -81.984979405207667, 22.173837817556386 ], [ -81.676715174921569, 21.797941329749705 ] ] ] ] } },
{ "type": "Feature", "properties": { "geogrid_id": "5221816086076997807", "seqnum": 7699.0, "lat_c": 21.81608641717963, "lon_c": -76.997807211488762, "res": 8.0, "count_Mosses": 0, "count_Flowering Plants": 40, "count_Amphibians": 0, "count_Arachnids": 0, "count_Ferns": 2, "count_Reptiles": 3, "count_Molluscs": 30, "count_Mammals": 1, "count_Birds": 22, "count_Insects": 5, "count_Sac Fungi": 0, "count_Gymnosperms": 0, "count_Basidiomycota": 0, "unique_species_count": 103.0, "countryCode": "CU" }, "geometry": { "type": "MultiPolygon", "coordinates": [ [ [ [ -76.411272573452692, 21.808349277662863 ], [ -76.713032025512064, 21.427448616206462 ], [ -77.296446696511623, 21.433010714147532 ], [ -77.583024805572393, 21.821361758071465 ], [ -77.284570013637932, 22.204448475550805 ], [ -76.69621247340271, 22.197004711068249 ], [ -76.411272573452692, 21.808349277662863 ] ] ] ] } },
{ "type": "Feature", "properties": { "geogrid_id": "5221816086080502193", "seqnum": 33858.0, "lat_c": 21.816086422082915, "lon_c": -80.502192789763981, "res": 8.0, "count_Mosses": 31, "count_Flowering Plants": 800, "count_Amphibians": 15, "count_Arachnids": 39, "count_Ferns": 73, "count_Reptiles": 37, "count_Molluscs": 108, "count_Mammals": 9, "count_Birds": 132, "count_Insects": 225, "count_Sac Fungi": 7, "count_Gymnosperms": 3, "count_Basidiomycota": 18, "unique_species_count": 1497.0, "countryCode": "CU" }, "geometry": { "type": "MultiPolygon", "coordinates": [ [ [ [ -79.916975195650039, 21.821361763065042 ], [ -80.203553304701643, 21.433010719098284 ], [ -80.786967975730803, 21.427448621066869 ], [ -81.088727427830193, 21.808349282474783 ], [ -80.803787527890194, 22.197004715923264 ], [ -80.21542998762412, 22.204448480497124 ], [ -79.916975195650039, 21.821361763065042 ] ] ] ] } },
{ "type": "Feature", "properties": { "geogrid_id": "5221825243078750000", "seqnum": 7616.0, "lat_c": 21.825242699043311, "lon_c": -78.750000000920409, "res": 8.0, "count_Mosses": 88, "count_Flowering Plants": 591, "count_Amphibians": 1, "count_Arachnids": 25, "count_Ferns": 66, "count_Reptiles": 10, "count_Molluscs": 183, "count_Mammals": 5, "count_Birds": 65, "count_Insects": 24, "count_Sac Fungi": 97, "count_Gymnosperms": 0, "count_Basidiomycota": 23, "unique_species_count": 1178.0, "countryCode": "CU" }, "geometry": { "type": "MultiPolygon", "coordinates": [ [ [ [ -78.167050572513602, 21.824359558548025 ], [ -78.459802020727864, 21.437516021283372 ], [ -79.040197980425759, 21.437516026411863 ], [ -79.332949428678361, 21.824359563630896 ], [ -79.042521433227108, 22.212091186050145 ], [ -78.4574785679727, 22.212091180924354 ], [ -78.167050572513602, 21.824359558548025 ] ] ] ] } },
{ "type": "Feature", "properties": { "geogrid_id": "5222054086084971868", "seqnum": 33610.0, "lat_c": 22.05408604710253, "lon_c": -84.971867940441584, "res": 8.0, "count_Mosses": 0, "count_Flowering Plants": 51, "count_Amphibians": 1, "count_Arachnids": 9, "count_Ferns": 2, "count_Reptiles": 9, "count_Molluscs": 27, "count_Mammals": 8, "count_Birds": 88, "count_Insects": 88, "count_Sac Fungi": 0, "count_Gymnosperms": 0, "count_Basidiomycota": 0, "unique_species_count": 283.0, "countryCode": "CU" }, "geometry": { "type": "MultiPolygon", "coordinates": [ [ [ [ -84.36983438229889, 22.086571504313483 ], [ -84.644146023269272, 21.696214626160959 ], [ -85.244499057603548, 21.663388192495173 ], [ -85.576698260705612, 22.016363066471801 ], [ -85.303931596475195, 22.407354069111033 ], [ -84.69743026150411, 22.444669920578662 ], [ -84.36983438229889, 22.086571504313483 ] ] ] ] } },
{ "type": "Feature", "properties": { "geogrid_id": "5222137903083173177", "seqnum": 33693.0, "lat_c": 22.137903102573805, "lon_c": -83.17317711802481, "res": 8.0, "count_Mosses": 1, "count_Flowering Plants": 130, "count_Amphibians": 7, "count_Arachnids": 10, "count_Ferns": 1, "count_Reptiles": 28, "count_Molluscs": 94, "count_Mammals": 4, "count_Birds": 20, "count_Insects": 4, "count_Sac Fungi": 16, "count_Gymnosperms": 2, "count_Basidiomycota": 9, "unique_species_count": 326.0, "countryCode": "CU" }, "geometry": { "type": "MultiPolygon", "coordinates": [ [ [ [ -82.578117795060891, 22.157613982266856 ], [ -82.857656247029965, 21.768128316669557 ], [ -83.45094816101988, 21.748141344812513 ], [ -83.770346774939568, 22.114356091749595 ], [ -83.492451694012956, 22.504251294696044 ], [ -82.893508610054738, 22.527490057019079 ], [ -82.578117795060891, 22.157613982266856 ] ] ] ] } },
{ "type": "Feature", "properties": { "geogrid_id": "5222186879081393589", "seqnum": 33776.0, "lat_c": 22.186879191809524, "lon_c": -81.393588832228204, "res": 8.0, "count_Mosses": 0, "count_Flowering Plants": 165, "count_Amphibians": 3, "count_Arachnids": 12, "count_Ferns": 4, "count_Reptiles": 26, "count_Molluscs": 58, "count_Mammals": 11, "count_Birds": 179, "count_Insects": 116, "count_Sac Fungi": 1, "count_Gymnosperms": 0, "count_Basidiomycota": 1, "unique_species_count": 576.0, "countryCode": "CU" }, "geometry": { "type": "MultiPolygon", "coordinates": [ [ [ [ -80.803787527890194, 22.197004715923264 ], [ -81.088727427830193, 21.808349282474783 ], [ -81.676715174921569, 21.797941329749705 ], [ -81.984979405207667, 22.173837817556386 ], [ -81.701699970128502, 22.562833237253052 ], [ -81.108479805510271, 22.575578089304248 ], [ -80.803787527890194, 22.197004715923264 ] ] ] ] } },
{ "type": "Feature", "properties": { "geogrid_id": "5222209417077871618", "seqnum": 7617.0, "lat_c": 22.209416620613013, "lon_c": -77.871617603730954, "res": 8.0, "count_Mosses": 0, "count_Flowering Plants": 35, "count_Amphibians": 1, "count_Arachnids": 1, "count_Ferns": 0, "count_Reptiles": 3, "count_Molluscs": 44, "count_Mammals": 4, "count_Birds": 78, "count_Insects": 17, "count_Sac Fungi": 2, "count_Gymnosperms": 0, "count_Basidiomycota": 0, "unique_species_count": 185.0, "countryCode": "CU" }, "geometry": { "type": "MultiPolygon", "coordinates": [ [ [ [ -77.284570013637932, 22.204448475550805 ], [ -77.583024805572393, 21.821361758071465 ], [ -78.167050572513602, 21.824359558548025 ], [ -78.4574785679727, 22.212091180924354 ], [ -78.162276252156985, 22.597169863902867 ], [ -77.573371042426814, 22.592529517355551 ], [ -77.284570013637932, 22.204448475550805 ] ] ] ] } },
{ "type": "Feature", "properties": { "geogrid_id": "5222209417079628382", "seqnum": 33859.0, "lat_c": 22.209416625649567, "lon_c": -79.628382397500062, "res": 8.0, "count_Mosses": 3, "count_Flowering Plants": 204, "count_Amphibians": 10, "count_Arachnids": 9, "count_Ferns": 31, "count_Reptiles": 28, "count_Molluscs": 183, "count_Mammals": 7, "count_Birds": 100, "count_Insects": 71, "count_Sac Fungi": 3, "count_Gymnosperms": 0, "count_Basidiomycota": 10, "unique_species_count": 659.0, "countryCode": "CU" }, "geometry": { "type": "MultiPolygon", "coordinates": [ [ [ [ -79.042521433227108, 22.212091186050145 ], [ -79.332949428678361, 21.824359563630896 ], [ -79.916975195650039, 21.821361763065042 ], [ -80.21542998762412, 22.204448480497124 ], [ -79.926628958843992, 22.592529522345053 ], [ -79.337723749082031, 22.597169868982547 ], [ -79.042521433227108, 22.212091186050145 ] ] ] ] } },
{ "type": "Feature", "properties": { "geogrid_id": "5222364242085913457", "seqnum": 33528.0, "lat_c": 22.364242337561762, "lon_c": -85.91345697906867, "res": 8.0, "count_Mosses": 0, "count_Flowering Plants": 0, "count_Amphibians": 0, "count_Arachnids": 0, "count_Ferns": 0, "count_Reptiles": 0, "count_Molluscs": 0, "count_Mammals": 1, "count_Birds": 2, "count_Insects": 0, "count_Sac Fungi": 0, "count_Gymnosperms": 0, "count_Basidiomycota": 0, "unique_species_count": 3.0, "countryCode": "CU" }, "geometry": { "type": "MultiPolygon", "coordinates": [ [ [ [ -85.303931596475195, 22.407354069111033 ], [ -85.576698260705612, 22.016363066471801 ], [ -86.184601671856271, 21.97277851578437 ], [ -86.396010972123577, 22.503174098276439 ], [ -86.123828279123842, 22.895081652818028 ], [ -85.640527328341179, 22.755619524993325 ], [ -85.303931596475195, 22.407354069111033 ] ] ] ] } },
{ "type": "Feature", "properties": { "geogrid_id": "5222476795084093685", "seqnum": 33611.0, "lat_c": 22.476795080831991, "lon_c": -84.093684894697645, "res": 8.0, "count_Mosses": 5, "count_Flowering Plants": 445, "count_Amphibians": 12, "count_Arachnids": 18, "count_Ferns": 18, "count_Reptiles": 31, "count_Molluscs": 229, "count_Mammals": 15, "count_Birds": 113, "count_Insects": 123, "count_Sac Fungi": 3, "count_Gymnosperms": 2, "count_Basidiomycota": 7, "unique_species_count": 1021.0, "countryCode": "CU" }, "geometry": { "type": "MultiPolygon", "coordinates": [ [ [ [ -83.492451694012956, 22.504251294696044 ], [ -83.770346774939568, 22.114356091749595 ], [ -84.36983438229889, 22.086571504313483 ], [ -84.69743026150411, 22.444669920578662 ], [ -84.421139416174299, 22.835134519566779 ], [ -83.815650363656729, 22.866880051099358 ], [ -83.492451694012956, 22.504251294696044 ] ] ] ] } },
{ "type": "Feature", "properties": { "geogrid_id": "5222546903082296653", "seqnum": 33694.0, "lat_c": 22.546903472994622, "lon_c": -82.296653075354186, "res": 8.0, "count_Mosses": 2, "count_Flowering Plants": 221, "count_Amphibians": 11, "count_Arachnids": 12, "count_Ferns": 11, "count_Reptiles": 8, "count_Molluscs": 174, "count_Mammals": 8, "count_Birds": 18, "count_Insects": 8, "count_Sac Fungi": 1, "count_Gymnosperms": 0, "count_Basidiomycota": 6, "unique_species_count": 480.0, "countryCode": "CU" }, "geometry": { "type": "MultiPolygon", "coordinates": [ [ [ [ -81.701699970128502, 22.562833237253052 ], [ -81.984979405207667, 22.173837817556386 ], [ -82.578117795060891, 22.157613982266856 ], [ -82.893508610054738, 22.527490057019079 ], [ -82.611894194373619, 22.916896912048372 ], [ -82.013213016963277, 22.935991474964325 ], [ -81.701699970128502, 22.562833237253052 ] ] ] ] } },
{ "type": "Feature", "properties": { "geogrid_id": "5222585400080516837", "seqnum": 33777.0, "lat_c": 22.585400029500665, "lon_c": -80.516837104212144, "res": 8.0, "count_Mosses": 4, "count_Flowering Plants": 189, "count_Amphibians": 17, "count_Arachnids": 19, "count_Ferns": 21, "count_Reptiles": 40, "count_Molluscs": 284, "count_Mammals": 7, "count_Birds": 34, "count_Insects": 18, "count_Sac Fungi": 15, "count_Gymnosperms": 0, "count_Basidiomycota": 21, "unique_species_count": 669.0, "countryCode": "CU" }, "geometry": { "type": "MultiPolygon", "coordinates": [ [ [ [ -79.926628958843992, 22.592529522345053 ], [ -80.21542998762412, 22.204448480497124 ], [ -80.803787527890194, 22.197004715923264 ], [ -81.108479805510271, 22.575578089304248 ], [ -80.821337796736117, 22.96403258597168 ], [ -80.227825269264713, 22.973529676984267 ], [ -79.926628958843992, 22.592529522345053 ] ] ] ] } },
{ "type": "Feature", "properties": { "geogrid_id": "5222599501078750000", "seqnum": 7535.0, "lat_c": 22.599500890109816, "lon_c": -78.750000000949512, "res": 8.0, "count_Mosses": 0, "count_Flowering Plants": 170, "count_Amphibians": 4, "count_Arachnids": 5, "count_Ferns": 0, "count_Reptiles": 24, "count_Molluscs": 175, "count_Mammals": 12, "count_Birds": 161, "count_Insects": 115, "count_Sac Fungi": 0, "count_Gymnosperms": 1, "count_Basidiomycota": 2, "unique_species_count": 669.0, "countryCode": "CU" }, "geometry": { "type": "MultiPolygon", "coordinates": [ [ [ [ -78.162276252156985, 22.597169863902867 ], [ -78.4574785679727, 22.212091180924354 ], [ -79.042521433227108, 22.212091186050145 ], [ -79.337723749082031, 22.597169868982547 ], [ -79.044947244934534, 22.984615630653831 ], [ -78.455052756311886, 22.984615625530878 ], [ -78.162276252156985, 22.597169863902867 ] ] ] ] } },
{ "type": "Feature", "properties": { "geogrid_id": "5222798243085029345", "seqnum": 33529.0, "lat_c": 22.798243409191326, "lon_c": -85.029344998678553, "res": 8.0, "count_Mosses": 0, "count_Flowering Plants": 0, "count_Amphibians": 0, "count_Arachnids": 0, "count_Ferns": 0, "count_Reptiles": 0, "count_Molluscs": 0, "count_Mammals": 1, "count_Birds": 3, "count_Insects": 0, "count_Sac Fungi": 0, "count_Gymnosperms": 0, "count_Basidiomycota": 0, "unique_species_count": 4.0, "countryCode": "CU" }, "geometry": { "type": "MultiPolygon", "coordinates": [ [ [ [ -84.421139416174299, 22.835134519566779 ], [ -84.69743026150411, 22.444669920578662 ], [ -85.303931596475195, 22.407354069111033 ], [ -85.640527328341179, 22.755619524993325 ], [ -85.365766230949717, 23.146904786823708 ], [ -84.752891496941345, 23.18902560545742 ], [ -84.421139416174299, 22.835134519566779 ] ] ] ] } },
{ "type": "Feature", "properties": { "geogrid_id": "5222893987083212641", "seqnum": 33612.0, "lat_c": 22.893987466127019, "lon_c": -83.21264073832026, "res": 8.0, "count_Mosses": 29, "count_Flowering Plants": 655, "count_Amphibians": 15, "count_Arachnids": 16, "count_Ferns": 38, "count_Reptiles": 35, "count_Molluscs": 393, "count_Mammals": 16, "count_Birds": 123, "count_Insects": 134, "count_Sac Fungi": 15, "count_Gymnosperms": 3, "count_Basidiomycota": 25, "unique_species_count": 1497.0, "countryCode": "CU" }, "geometry": { "type": "MultiPolygon", "coordinates": [ [ [ [ -82.611894194373619, 22.916896912048372 ], [ -82.893508610054738, 22.527490057019079 ], [ -83.492451694012956, 22.504251294696044 ], [ -83.815650363656729, 22.866880051099358 ], [ -83.535682680998505, 23.256820813458585 ], [ -82.930865186176575, 23.283558988201573 ], [ -82.611894194373619, 22.916896912048372 ] ] ] ] } },
{ "type": "Feature", "properties": { "geogrid_id": "5222951606081416416", "seqnum": 33695.0, "lat_c": 22.951605682810481, "lon_c": -81.416416212197632, "res": 8.0, "count_Mosses": 1, "count_Flowering Plants": 300, "count_Amphibians": 8, "count_Arachnids": 9, "count_Ferns": 5, "count_Reptiles": 32, "count_Molluscs": 348, "count_Mammals": 17, "count_Birds": 141, "count_Insects": 120, "count_Sac Fungi": 4, "count_Gymnosperms": 0, "count_Basidiomycota": 6, "unique_species_count": 991.0, "countryCode": "CU" }, "geometry": { "type": "MultiPolygon", "coordinates": [ [ [ [ -80.821337796736117, 22.96403258597168 ], [ -81.108479805510271, 22.575578089304248 ], [ -81.701699970128502, 22.562833237253052 ], [ -82.013213016963277, 22.935991474964325 ], [ -81.727747651678925, 23.324872312513655 ], [ -81.129077547743236, 23.340149415464627 ], [ -80.821337796736117, 22.96403258597168 ] ] ] ] } },
{ "type": "Feature", "properties": { "geogrid_id": "5222980324079635738", "seqnum": 33778.0, "lat_c": 22.98032385887031, "lon_c": -79.635738246227717, "res": 8.0, "count_Mosses": 1, "count_Flowering Plants": 53, "count_Amphibians": 0, "count_Arachnids": 0, "count_Ferns": 0, "count_Reptiles": 2, "count_Molluscs": 54, "count_Mammals": 4, "count_Birds": 2, "count_Insects": 0, "count_Sac Fungi": 0, "count_Gymnosperms": 0, "count_Basidiomycota": 1, "unique_species_count": 117.0, "countryCode": "CU" }, "geometry": { "type": "MultiPolygon", "coordinates": [ [ [ [ -79.044947244934534, 22.984615630653831 ], [ -79.337723749082031, 22.597169868982547 ], [ -79.926628958843992, 22.592529522345053 ], [ -80.227825269264713, 22.973529676984267 ], [ -79.936700251022344, 23.361387703553774 ], [ -79.342705511024917, 23.367825380991416 ], [ -79.044947244934534, 22.984615630653831 ] ] ] ] } },
{ "type": "Feature", "properties": { "geogrid_id": "5223225474084142948", "seqnum": 33530.0, "lat_c": 23.225474276574165, "lon_c": -84.142947886162844, "res": 8.0, "count_Mosses": 0, "count_Flowering Plants": 0, "count_Amphibians": 0, "count_Arachnids": 0, "count_Ferns": 0, "count_Reptiles": 0, "count_Molluscs": 0, "count_Mammals": 2, "count_Birds": 1, "count_Insects": 1, "count_Sac Fungi": 0, "count_Gymnosperms": 0, "count_Basidiomycota": 0, "unique_species_count": 4.0, "countryCode": "CU" }, "geometry": { "type": "MultiPolygon", "coordinates": [ [ [ [ -83.535682680998505, 23.256820813458585 ], [ -83.815650363656729, 22.866880051099358 ], [ -84.421139416174299, 22.835134519566779 ], [ -84.752891496941345, 23.18902560545742 ], [ -84.474523178939336, 23.57969491378973 ], [ -83.862807209655784, 23.615683341616236 ], [ -83.535682680998505, 23.256820813458585 ] ] ] ] } },
{ "type": "Feature", "properties": { "geogrid_id": "5223286907085849829", "seqnum": 33447.0, "lat_c": 23.286906727541798, "lon_c": -85.849829086167333, "res": 8.0, "count_Mosses": 0, "count_Flowering Plants": 0, "count_Amphibians": 0, "count_Arachnids": 0, "count_Ferns": 0, "count_Reptiles": 0, "count_Molluscs": 0, "count_Mammals": 1, "count_Birds": 1, "count_Insects": 0, "count_Sac Fungi": 0, "count_Gymnosperms": 0, "count_Basidiomycota": 0, "unique_species_count": 2.0, "countryCode": "CU" }, "geometry": { "type": "MultiPolygon", "coordinates": [ [ [ [ -85.365766230949717, 23.146904786823708 ], [ -85.640527328341179, 22.755619524993325 ], [ -86.123828279123842, 22.895081652818028 ], [ -86.337936225353516, 23.421342180685784 ], [ -86.062831231248381, 23.813709987283573 ], [ -85.573965922808881, 23.678644012800671 ], [ -85.365766230949717, 23.146904786823708 ] ] ] ] } },
{ "type": "Feature", "properties": { "geogrid_id": "5223306118082328285", "seqnum": 33613.0, "lat_c": 23.306118029679702, "lon_c": -82.328284525901424, "res": 8.0, "count_Mosses": 11, "count_Flowering Plants": 908, "count_Amphibians": 4, "count_Arachnids": 27, "count_Ferns": 31, "count_Reptiles": 39, "count_Molluscs": 326, "count_Mammals": 21, "count_Birds": 124, "count_Insects": 152, "count_Sac Fungi": 19, "count_Gymnosperms": 3, "count_Basidiomycota": 107, "unique_species_count": 1772.0, "countryCode": "CU" }, "geometry": { "type": "MultiPolygon", "coordinates": [ [ [ [ -81.727747651678925, 23.324872312513655 ], [ -82.013213016963277, 22.935991474964325 ], [ -82.611894194373619, 22.916896912048372 ], [ -82.930865186176575, 23.283558988201573 ], [ -82.647075377103533, 23.672959916148901 ], [ -82.04262932486094, 23.695147423741169 ], [ -81.727747651678925, 23.324872312513655 ] ] ] ] } },
{ "type": "Feature", "properties": { "geogrid_id": "5223352237080532112", "seqnum": 33696.0, "lat_c": 23.352236850488939, "lon_c": -80.532111619731864, "res": 8.0, "count_Mosses": 0, "count_Flowering Plants": 3, "count_Amphibians": 0, "count_Arachnids": 0, "count_Ferns": 0, "count_Reptiles": 0, "count_Molluscs": 8, "count_Mammals": 3, "count_Birds": 8, "count_Insects": 0, "count_Sac Fungi": 0, "count_Gymnosperms": 0, "count_Basidiomycota": 0, "unique_species_count": 22.0, "countryCode": "CU" }, "geometry": { "type": "MultiPolygon", "coordinates": [ [ [ [ -79.936700251022344, 23.361387703553774 ], [ -80.227825269264713, 22.973529676984267 ], [ -80.821337796736117, 22.96403258597168 ], [ -81.129077547743236, 23.340149415464627 ], [ -80.839632466915177, 23.728458311140262 ], [ -80.240749165927227, 23.740184650637055 ], [ -79.936700251022344, 23.361387703553774 ] ] ] ] } },
{ "type": "Feature", "properties": { "geogrid_id": "5223538093085089126", "seqnum": 33448.0, "lat_c": 23.538092582263854, "lon_c": -85.089126262700461, "res": 8.0, "count_Mosses": 0, "count_Flowering Plants": 0, "count_Amphibians": 0, "count_Arachnids": 0, "count_Ferns": 0, "count_Reptiles": 0, "count_Molluscs": 0, "count_Mammals": 1, "count_Birds": 1, "count_Insects": 0, "count_Sac Fungi": 0, "count_Gymnosperms": 0, "count_Basidiomycota": 0, "unique_species_count": 2.0, "countryCode": "CU" }, "geometry": { "type": "MultiPolygon", "coordinates": [ [ [ [ -84.474523178939336, 23.57969491378973 ], [ -84.752891496941345, 23.18902560545742 ], [ -85.365766230949717, 23.146904786823708 ], [ -85.573965922808881, 23.678644012800671 ], [ -85.296190351559673, 24.07028793869944 ], [ -84.810559034216951, 23.92917711140872 ], [ -84.474523178939336, 23.57969491378973 ] ] ] ] } },
{ "type": "Feature", "properties": { "geogrid_id": "5223646611083253733", "seqnum": 33531.0, "lat_c": 23.646611461648501, "lon_c": -83.253732796507791, "res": 8.0, "count_Mosses": 0, "count_Flowering Plants": 0, "count_Amphibians": 0, "count_Arachnids": 0, "count_Ferns": 0, "count_Reptiles": 0, "count_Molluscs": 0, "count_Mammals": 1, "count_Birds": 3, "count_Insects": 0, "count_Sac Fungi": 0, "count_Gymnosperms": 0, "count_Basidiomycota": 0, "unique_species_count": 4.0, "countryCode": "CU" }, "geometry": { "type": "MultiPolygon", "coordinates": [ [ [ [ -82.647075377103533, 23.672959916148901 ], [ -82.930865186176575, 23.283558988201573 ], [ -83.535682680998505, 23.256820813458585 ], [ -83.862807209655784, 23.615683341616236 ], [ -83.580667950754531, 24.005755573370415 ], [ -82.969750686639145, 24.036245776656997 ], [ -82.647075377103533, 23.672959916148901 ] ] ] ] } },
{ "type": "Feature", "properties": { "geogrid_id": "5223713540081440206", "seqnum": 33614.0, "lat_c": 23.713539942244477, "lon_c": -81.4402060809321, "res": 8.0, "count_Mosses": 0, "count_Flowering Plants": 0, "count_Amphibians": 0, "count_Arachnids": 0, "count_Ferns": 0, "count_Reptiles": 0, "count_Molluscs": 3, "count_Mammals": 4, "count_Birds": 0, "count_Insects": 0, "count_Sac Fungi": 0, "count_Gymnosperms": 0, "count_Basidiomycota": 0, "unique_species_count": 7.0, "countryCode": "CU" }, "geometry": { "type": "MultiPolygon", "coordinates": [ [ [ [ -80.839632466915177, 23.728458311140262 ], [ -81.129077547743236, 23.340149415464627 ], [ -81.727747651678925, 23.324872312513655 ], [ -82.04262932486094, 23.695147423741169 ], [ -81.75487734396971, 24.083978752843866 ], [ -81.150536442316834, 24.101987946303741 ], [ -80.839632466915177, 23.728458311140262 ] ] ] ] } },
{ "type": "Feature", "properties": { "geogrid_id": "5224062184082361221", "seqnum": 33532.0, "lat_c": 24.062183970755658, "lon_c": -82.361220679763704, "res": 8.0, "count_Mosses": 0, "count_Flowering Plants": 0, "count_Amphibians": 0, "count_Arachnids": 0, "count_Ferns": 0, "count_Reptiles": 0, "count_Molluscs": 0, "count_Mammals": 0, "count_Birds": 1, "count_Insects": 0, "count_Sac Fungi": 0, "count_Gymnosperms": 0, "count_Basidiomycota": 0, "unique_species_count": 1.0, "countryCode": "CU" }, "geometry": { "type": "MultiPolygon", "coordinates": [ [ [ [ -81.75487734396971, 24.083978752843866 ], [ -82.04262932486094, 23.695147423741169 ], [ -82.647075377103533, 23.672959916148901 ], [ -82.969750686639145, 24.036245776656997 ], [ -82.683685322562383, 24.425717217996311 ], [ -82.073249459314027, 24.451224530202659 ], [ -81.75487734396971, 24.083978752843866 ] ] ] ] } },
{ "type": "Feature", "properties": { "geogrid_id": "5224205992085785830", "seqnum": 33366.0, "lat_c": 24.205991759986517, "lon_c": -85.785830403773105, "res": 8.0, "count_Mosses": 0, "count_Flowering Plants": 0, "count_Amphibians": 0, "count_Arachnids": 0, "count_Ferns": 0, "count_Reptiles": 0, "count_Molluscs": 0, "count_Mammals": 1, "count_Birds": 0, "count_Insects": 0, "count_Sac Fungi": 0, "count_Gymnosperms": 0, "count_Basidiomycota": 0, "unique_species_count": 1.0, "countryCode": "CU" }, "geometry": { "type": "MultiPolygon", "coordinates": [ [ [ [ -85.296190351559673, 24.07028793869944 ], [ -85.573965922808881, 23.678644012800671 ], [ -86.062831231248381, 23.813709987283573 ], [ -86.279171146431921, 24.336512659285454 ], [ -86.001008264055287, 24.729416372596202 ], [ -85.506884209734295, 24.598182010809591 ], [ -85.296190351559673, 24.07028793869944 ] ] ] ] } },
{ "type": "Feature", "properties": { "geogrid_id": "5224461833085016453", "seqnum": 33367.0, "lat_c": 24.461832665618651, "lon_c": -85.016452936740137, "res": 8.0, "count_Mosses": 0, "count_Flowering Plants": 0, "count_Amphibians": 0, "count_Arachnids": 0, "count_Ferns": 0, "count_Reptiles": 0, "count_Molluscs": 0, "count_Mammals": 1, "count_Birds": 0, "count_Insects": 0, "count_Sac Fungi": 0, "count_Gymnosperms": 0, "count_Basidiomycota": 0, "unique_species_count": 1.0, "countryCode": "CU" }, "geometry": { "type": "MultiPolygon", "coordinates": [ [ [ [ -84.530015160390377, 24.320152305286857 ], [ -84.810559034216951, 23.92917711140872 ], [ -85.296190351559673, 24.07028793869944 ], [ -85.506884209734295, 24.598182010809591 ], [ -85.22594208626748, 24.990274964777349 ], [ -84.734703212467409, 24.853272074317196 ], [ -84.530015160390377, 24.320152305286857 ] ] ] ] } },
{ "type": "Feature", "properties": { "geogrid_id": "5224855741086498546", "seqnum": 33284.0, "lat_c": 24.85574080399115, "lon_c": -86.498545692486161, "res": 8.0, "count_Mosses": 0, "count_Flowering Plants": 0, "count_Amphibians": 0, "count_Arachnids": 0, "count_Ferns": 0, "count_Reptiles": 0, "count_Molluscs": 0, "count_Mammals": 1, "count_Birds": 0, "count_Insects": 0, "count_Sac Fungi": 0, "count_Gymnosperms": 0, "count_Basidiomycota": 0, "unique_species_count": 1.0, "countryCode": "CU" }, "geometry": { "type": "MultiPolygon", "coordinates": [ [ [ [ -86.001008264055287, 24.729416372596202 ], [ -86.279171146431921, 24.336512659285454 ], [ -86.775926771754115, 24.462063130788096 ], [ -86.999236937786165, 24.977349954149624 ], [ -86.720701685522286, 25.371771227198877 ], [ -86.21920507577525, 25.24933155177381 ], [ -86.001008264055287, 24.729416372596202 ] ] ] ] } }
]
}
