{
"type": "FeatureCollection",
"name": "CZ",
"crs": { "type": "name", "properties": { "name": "urn:ogc:def:crs:OGC:1.3:CRS84" } },
"features": [
{ "type": "Feature", "properties": { "geogrid_id": "848120702014613945", "seqnum": 14010.0, "lat_c": 48.120702075380237, "lon_c": 14.61394493366759, "res": 8.0, "count_Flowering Plants": 0, "count_Sac Fungi": 0, "count_Birds": 0, "count_Reptiles": 0, "count_Basidiomycota": 0, "count_Molluscs": 0, "count_Mammals": 0, "count_Mosses": 0, "count_Arachnids": 0, "count_Amphibians": 0, "count_Insects": 6, "count_Ferns": 0, "count_Gymnosperms": 0, "unique_species_count": 6.0, "countryCode": "CZ" }, "geometry": { "type": "MultiPolygon", "coordinates": [ [ [ [ 15.307385252297035, 48.422578451213802 ], [ 15.274356666743875, 47.955218741564835 ], [ 14.586910181647973, 47.65383191177105 ], [ 13.927284180257306, 47.812163507717635 ], [ 13.949061518706094, 48.27896462754606 ], [ 14.641666423821702, 48.587991593864395 ], [ 15.307385252297035, 48.422578451213802 ] ] ] ] } },
{ "type": "Feature", "properties": { "geogrid_id": "848354208017325000", "seqnum": 14174.0, "lat_c": 48.354207857309156, "lon_c": 17.324999524583834, "res": 8.0, "count_Flowering Plants": 441, "count_Sac Fungi": 1, "count_Birds": 10, "count_Reptiles": 1, "count_Basidiomycota": 0, "count_Molluscs": 2, "count_Mammals": 4, "count_Mosses": 10, "count_Arachnids": 0, "count_Amphibians": 1, "count_Insects": 12, "count_Ferns": 1, "count_Gymnosperms": 0, "unique_species_count": 483.0, "countryCode": "CZ" }, "geometry": { "type": "MultiPolygon", "coordinates": [ [ [ [ 18.031955934752379, 48.631460556544951 ], [ 17.975837857830793, 48.163095561393085 ], [ 17.275337655408105, 47.886242273791304 ], [ 16.624382041834167, 48.071405904557203 ], [ 16.668869038504763, 48.539305349941543 ], [ 17.375915421656885, 48.822533562250982 ], [ 18.031955934752379, 48.631460556544951 ] ] ] ] } },
{ "type": "Feature", "properties": { "geogrid_id": "848746201013971395", "seqnum": 13929.0, "lat_c": 48.746201364837212, "lon_c": 13.971395338391742, "res": 8.0, "count_Flowering Plants": 1576, "count_Sac Fungi": 181, "count_Birds": 201, "count_Reptiles": 6, "count_Basidiomycota": 437, "count_Molluscs": 34, "count_Mammals": 39, "count_Mosses": 182, "count_Arachnids": 66, "count_Amphibians": 11, "count_Insects": 1690, "count_Ferns": 28, "count_Gymnosperms": 21, "unique_species_count": 4472.0, "countryCode": "CZ" }, "geometry": { "type": "MultiPolygon", "coordinates": [ [ [ [ 14.670099437503932, 49.055710538541611 ], [ 14.641666423821702, 48.587991593864395 ], [ 13.949061518706094, 48.27896462754606 ], [ 13.279939560947183, 48.429664423653264 ], [ 13.296806436487845, 48.896872755563173 ], [ 13.994305734827776, 49.213883543491235 ], [ 14.670099437503932, 49.055710538541611 ] ] ] ] } },
{ "type": "Feature", "properties": { "geogrid_id": "848890350015341256", "seqnum": 14011.0, "lat_c": 48.890349671607616, "lon_c": 15.341256265971747, "res": 8.0, "count_Flowering Plants": 1654, "count_Sac Fungi": 135, "count_Birds": 172, "count_Reptiles": 9, "count_Basidiomycota": 163, "count_Molluscs": 24, "count_Mammals": 37, "count_Mosses": 190, "count_Arachnids": 53, "count_Amphibians": 17, "count_Insects": 1561, "count_Ferns": 24, "count_Gymnosperms": 19, "unique_species_count": 4058.0, "countryCode": "CZ" }, "geometry": { "type": "MultiPolygon", "coordinates": [ [ [ [ 16.047798858602921, 49.186350312389983 ], [ 16.007571463201266, 48.718114703436825 ], [ 15.307385252297035, 48.422578451213802 ], [ 14.641666423821702, 48.587991593864395 ], [ 14.670099437503932, 49.055710538541611 ], [ 15.376000457732422, 49.358542673702608 ], [ 16.047798858602921, 49.186350312389983 ] ] ] ] } },
{ "type": "Feature", "properties": { "geogrid_id": "849007587016714488", "seqnum": 14093.0, "lat_c": 49.007586648116096, "lon_c": 16.714487535324949, "res": 8.0, "count_Flowering Plants": 2472, "count_Sac Fungi": 326, "count_Birds": 266, "count_Reptiles": 11, "count_Basidiomycota": 395, "count_Molluscs": 61, "count_Mammals": 58, "count_Mosses": 242, "count_Arachnids": 157, "count_Amphibians": 15, "count_Insects": 2773, "count_Ferns": 29, "count_Gymnosperms": 27, "unique_species_count": 6832.0, "countryCode": "CZ" }, "geometry": { "type": "MultiPolygon", "coordinates": [ [ [ [ 17.428131505660733, 49.291230068371192 ], [ 17.375915421656885, 48.822533562250982 ], [ 16.668869038504763, 48.539305349941543 ], [ 16.007571463201266, 48.718114703436825 ], [ 16.047798858602921, 49.186350312389983 ], [ 16.761279230370789, 49.476260354411984 ], [ 17.428131505660733, 49.291230068371192 ] ] ] ] } },
{ "type": "Feature", "properties": { "geogrid_id": "849100174018089497", "seqnum": 14175.0, "lat_c": 49.100173819586232, "lon_c": 18.089496542881022, "res": 8.0, "count_Flowering Plants": 1742, "count_Sac Fungi": 59, "count_Birds": 195, "count_Reptiles": 8, "count_Basidiomycota": 347, "count_Molluscs": 28, "count_Mammals": 39, "count_Mosses": 205, "count_Arachnids": 71, "count_Amphibians": 15, "count_Insects": 1334, "count_Ferns": 24, "count_Gymnosperms": 15, "unique_species_count": 4082.0, "countryCode": "CZ" }, "geometry": { "type": "MultiPolygon", "coordinates": [ [ [ [ 18.809630026593094, 49.372402477584195 ], [ 18.745268853251435, 48.903346054594017 ], [ 18.031955934752379, 48.631460556544951 ], [ 17.375915421656885, 48.822533562250982 ], [ 17.428131505660733, 49.291230068371192 ], [ 18.14851251786877, 49.569245958341646 ], [ 18.809630026593094, 49.372402477584195 ] ] ] ] } },
{ "type": "Feature", "properties": { "geogrid_id": "849364540013314111", "seqnum": 13848.0, "lat_c": 49.3645402905683, "lon_c": 13.314111047246564, "res": 8.0, "count_Flowering Plants": 1738, "count_Sac Fungi": 185, "count_Birds": 149, "count_Reptiles": 7, "count_Basidiomycota": 231, "count_Molluscs": 19, "count_Mammals": 44, "count_Mosses": 183, "count_Arachnids": 46, "count_Amphibians": 13, "count_Insects": 863, "count_Ferns": 24, "count_Gymnosperms": 23, "unique_species_count": 3525.0, "countryCode": "CZ" }, "geometry": { "type": "MultiPolygon", "coordinates": [ [ [ [ 14.017813792822173, 49.682020998515632 ], [ 13.994305734827776, 49.213883543491235 ], [ 13.296806436487845, 48.896872755563173 ], [ 12.618167928622006, 49.039654720290471 ], [ 12.629784883471395, 49.507337143878239 ], [ 13.331869422249333, 49.832676661315155 ], [ 14.017813792822173, 49.682020998515632 ] ] ] ] } },
{ "type": "Feature", "properties": { "geogrid_id": "849523869014699270", "seqnum": 13930.0, "lat_c": 49.523868962194747, "lon_c": 14.699269967659445, "res": 8.0, "count_Flowering Plants": 1672, "count_Sac Fungi": 147, "count_Birds": 198, "count_Reptiles": 11, "count_Basidiomycota": 377, "count_Molluscs": 53, "count_Mammals": 40, "count_Mosses": 171, "count_Arachnids": 93, "count_Amphibians": 14, "count_Insects": 1274, "count_Ferns": 25, "count_Gymnosperms": 19, "unique_species_count": 4094.0, "countryCode": "CZ" }, "geometry": { "type": "MultiPolygon", "coordinates": [ [ [ [ 15.411650081533679, 49.827167685170593 ], [ 15.376000457732422, 49.358542673702608 ], [ 14.670099437503932, 49.055710538541611 ], [ 13.994305734827776, 49.213883543491235 ], [ 14.017813792822173, 49.682020998515632 ], [ 14.729205292047737, 49.992476905005709 ], [ 15.411650081533679, 49.827167685170593 ] ] ] ] } },
{ "type": "Feature", "properties": { "geogrid_id": "849654999016089068", "seqnum": 14012.0, "lat_c": 49.654998808142459, "lon_c": 16.089067848833363, "res": 8.0, "count_Flowering Plants": 1730, "count_Sac Fungi": 134, "count_Birds": 189, "count_Reptiles": 8, "count_Basidiomycota": 272, "count_Molluscs": 34, "count_Mammals": 50, "count_Mosses": 212, "count_Arachnids": 67, "count_Amphibians": 14, "count_Insects": 901, "count_Ferns": 24, "count_Gymnosperms": 17, "unique_species_count": 3652.0, "countryCode": "CZ" }, "geometry": { "type": "MultiPolygon", "coordinates": [ [ [ [ 16.809287847460848, 49.945336924247151 ], [ 16.761279230370789, 49.476260354411984 ], [ 16.047798858602921, 49.186350312389983 ], [ 15.376000457732422, 49.358542673702608 ], [ 15.411650081533679, 49.827167685170593 ], [ 16.131417316469253, 50.124070524798817 ], [ 16.809287847460848, 49.945336924247151 ] ] ] ] } },
{ "type": "Feature", "properties": { "geogrid_id": "849760308017481696", "seqnum": 14094.0, "lat_c": 49.76030792390322, "lon_c": 17.481696152326101, "res": 8.0, "count_Flowering Plants": 2055, "count_Sac Fungi": 189, "count_Birds": 227, "count_Reptiles": 13, "count_Basidiomycota": 301, "count_Molluscs": 72, "count_Mammals": 47, "count_Mosses": 216, "count_Arachnids": 85, "count_Amphibians": 14, "count_Insects": 1259, "count_Ferns": 24, "count_Gymnosperms": 24, "unique_species_count": 4526.0, "countryCode": "CZ" }, "geometry": { "type": "MultiPolygon", "coordinates": [ [ [ [ 18.209059245790097, 50.038687424465543 ], [ 18.14851251786877, 49.569245958341646 ], [ 17.428131505660733, 49.291230068371192 ], [ 16.761279230370789, 49.476260354411984 ], [ 16.809287847460848, 49.945336924247151 ], [ 17.536660099143823, 50.229777552078872 ], [ 18.209059245790097, 50.038687424465543 ] ] ] ] } },
{ "type": "Feature", "properties": { "geogrid_id": "849841805018875648", "seqnum": 14176.0, "lat_c": 49.841804962437372, "lon_c": 18.875648351217411, "res": 8.0, "count_Flowering Plants": 1439, "count_Sac Fungi": 48, "count_Birds": 115, "count_Reptiles": 8, "count_Basidiomycota": 165, "count_Molluscs": 30, "count_Mammals": 39, "count_Mosses": 180, "count_Arachnids": 58, "count_Amphibians": 13, "count_Insects": 632, "count_Ferns": 22, "count_Gymnosperms": 16, "unique_species_count": 2765.0, "countryCode": "CZ" }, "geometry": { "type": "MultiPolygon", "coordinates": [ [ [ [ 19.609563343306625, 50.109051148043513 ], [ 19.53634022182613, 49.639368590534239 ], [ 18.809630026593094, 49.372402477584195 ], [ 18.14851251786877, 49.569245958341646 ], [ 18.209059245790097, 50.038687424465543 ], [ 18.943386556708735, 50.311563771672837 ], [ 19.609563343306625, 50.109051148043513 ] ] ] ] } },
{ "type": "Feature", "properties": { "geogrid_id": "849975499012641708", "seqnum": 13767.0, "lat_c": 49.975499343943881, "lon_c": 12.641707856281172, "res": 8.0, "count_Flowering Plants": 1433, "count_Sac Fungi": 102, "count_Birds": 193, "count_Reptiles": 8, "count_Basidiomycota": 168, "count_Molluscs": 22, "count_Mammals": 35, "count_Mosses": 135, "count_Arachnids": 46, "count_Amphibians": 14, "count_Insects": 849, "count_Ferns": 19, "count_Gymnosperms": 21, "unique_species_count": 3045.0, "countryCode": "CZ" }, "geometry": { "type": "MultiPolygon", "coordinates": [ [ [ [ 13.350098397574715, 50.301291541889313 ], [ 13.331869422249333, 49.832676661315155 ], [ 12.629784883471395, 49.507337143878239 ], [ 11.941632976411604, 49.64191460884318 ], [ 11.947636140449513, 50.110137401158532 ], [ 12.653948224900322, 50.444150846687386 ], [ 13.350098397574715, 50.301291541889313 ] ] ] ] } },
{ "type": "Feature", "properties": { "geogrid_id": "850150624014041942", "seqnum": 13849.0, "lat_c": 50.150623580953344, "lon_c": 14.041941649577344, "res": 8.0, "count_Flowering Plants": 2352, "count_Sac Fungi": 296, "count_Birds": 244, "count_Reptiles": 13, "count_Basidiomycota": 552, "count_Molluscs": 78, "count_Mammals": 65, "count_Mosses": 203, "count_Arachnids": 179, "count_Amphibians": 13, "count_Insects": 2567, "count_Ferns": 23, "count_Gymnosperms": 28, "unique_species_count": 6613.0, "countryCode": "CZ" }, "geometry": { "type": "MultiPolygon", "coordinates": [ [ [ [ 14.759934056175794, 50.461544400000655 ], [ 14.729205292047737, 49.992476905005709 ], [ 14.017813792822173, 49.682020998515632 ], [ 13.331869422249333, 49.832676661315155 ], [ 13.350098397574715, 50.301291541889313 ], [ 14.066712562493295, 50.619701162467209 ], [ 14.759934056175794, 50.461544400000655 ] ] ] ] } },
{ "type": "Feature", "properties": { "geogrid_id": "850296235015448239", "seqnum": 13931.0, "lat_c": 50.296234896606457, "lon_c": 15.448238992614636, "res": 8.0, "count_Flowering Plants": 2045, "count_Sac Fungi": 141, "count_Birds": 288, "count_Reptiles": 8, "count_Basidiomycota": 274, "count_Molluscs": 53, "count_Mammals": 46, "count_Mosses": 239, "count_Arachnids": 111, "count_Amphibians": 15, "count_Insects": 1836, "count_Ferns": 21, "count_Gymnosperms": 23, "unique_species_count": 5100.0, "countryCode": "CZ" }, "geometry": { "type": "MultiPolygon", "coordinates": [ [ [ [ 16.174888083619894, 50.593575734319636 ], [ 16.131417316469253, 50.124070524798817 ], [ 15.411650081533679, 49.827167685170593 ], [ 14.729205292047737, 49.992476905005709 ], [ 14.759934056175794, 50.461544400000655 ], [ 15.485802751959781, 50.765754467141939 ], [ 16.174888083619894, 50.593575734319636 ] ] ] ] } },
{ "type": "Feature", "properties": { "geogrid_id": "850414827016858559", "seqnum": 14013.0, "lat_c": 50.414826719528889, "lon_c": 16.85855926859761, "res": 8.0, "count_Flowering Plants": 1338, "count_Sac Fungi": 141, "count_Birds": 129, "count_Reptiles": 7, "count_Basidiomycota": 274, "count_Molluscs": 37, "count_Mammals": 35, "count_Mosses": 203, "count_Arachnids": 82, "count_Amphibians": 11, "count_Insects": 1036, "count_Ferns": 30, "count_Gymnosperms": 13, "unique_species_count": 3336.0, "countryCode": "CZ" }, "geometry": { "type": "MultiPolygon", "coordinates": [ [ [ [ 17.593076600847166, 50.699649256722459 ], [ 17.536660099143823, 50.229777552078872 ], [ 16.809287847460848, 49.945336924247151 ], [ 16.131417316469253, 50.124070524798817 ], [ 16.174888083619894, 50.593575734319636 ], [ 16.909141676068291, 50.884740014242944 ], [ 17.593076600847166, 50.699649256722459 ] ] ] ] } },
{ "type": "Feature", "properties": { "geogrid_id": "850508509018271195", "seqnum": 14095.0, "lat_c": 50.508508518854036, "lon_c": 18.271194830986008, "res": 8.0, "count_Flowering Plants": 200, "count_Sac Fungi": 0, "count_Birds": 0, "count_Reptiles": 0, "count_Basidiomycota": 1, "count_Molluscs": 0, "count_Mammals": 1, "count_Mosses": 6, "count_Arachnids": 0, "count_Amphibians": 0, "count_Insects": 12, "count_Ferns": 3, "count_Gymnosperms": 2, "unique_species_count": 225.0, "countryCode": "CZ" }, "geometry": { "type": "MultiPolygon", "coordinates": [ [ [ [ 19.01291046821801, 50.781688990131997 ], [ 18.943386556708735, 50.311563771672837 ], [ 18.209059245790097, 50.038687424465543 ], [ 17.536660099143823, 50.229777552078872 ], [ 17.593076600847166, 50.699649256722459 ], [ 18.334980276053066, 50.97871939605222 ], [ 19.01291046821801, 50.781688990131997 ] ] ] ] } },
{ "type": "Feature", "properties": { "geogrid_id": "850578857011953800", "seqnum": 13686.0, "lat_c": 50.578857292130294, "lon_c": 11.953799734180674, "res": 8.0, "count_Flowering Plants": 277, "count_Sac Fungi": 4, "count_Birds": 41, "count_Reptiles": 0, "count_Basidiomycota": 6, "count_Molluscs": 2, "count_Mammals": 2, "count_Mosses": 10, "count_Arachnids": 3, "count_Amphibians": 0, "count_Insects": 78, "count_Ferns": 4, "count_Gymnosperms": 5, "unique_species_count": 432.0, "countryCode": "CZ" }, "geometry": { "type": "MultiPolygon", "coordinates": [ [ [ [ 12.666517951816999, 50.913301243345757 ], [ 12.653948224900322, 50.444150846687386 ], [ 11.947636140449513, 50.110137401158532 ], [ 11.249999998235467, 50.236223585222014 ], [ 11.24999999819199, 50.705051913665933 ], [ 11.960129820842242, 51.048083788212466 ], [ 12.666517951816999, 50.913301243345757 ] ] ] ] } },
{ "type": "Feature", "properties": { "geogrid_id": "850770395013368816", "seqnum": 13768.0, "lat_c": 50.770394651513158, "lon_c": 13.368815668281302, "res": 8.0, "count_Flowering Plants": 1443, "count_Sac Fungi": 84, "count_Birds": 178, "count_Reptiles": 10, "count_Basidiomycota": 149, "count_Molluscs": 24, "count_Mammals": 29, "count_Mosses": 92, "count_Arachnids": 47, "count_Amphibians": 12, "count_Insects": 675, "count_Ferns": 16, "count_Gymnosperms": 18, "unique_species_count": 2777.0, "countryCode": "CZ" }, "geometry": { "type": "MultiPolygon", "coordinates": [ [ [ [ 14.092150982110372, 51.089263639607111 ], [ 14.066712562493295, 50.619701162467209 ], [ 13.350098397574715, 50.301291541889313 ], [ 12.653948224900322, 50.444150846687386 ], [ 12.666517951816999, 50.913301243345757 ], [ 13.388039844320428, 51.239995758057596 ], [ 14.092150982110372, 51.089263639607111 ] ] ] ] } },
{ "type": "Feature", "properties": { "geogrid_id": "850931081014791486", "seqnum": 13850.0, "lat_c": 50.931081478039346, "lon_c": 14.791486362431561, "res": 8.0, "count_Flowering Plants": 1655, "count_Sac Fungi": 121, "count_Birds": 152, "count_Reptiles": 6, "count_Basidiomycota": 198, "count_Molluscs": 26, "count_Mammals": 50, "count_Mosses": 250, "count_Arachnids": 72, "count_Amphibians": 12, "count_Insects": 1238, "count_Ferns": 26, "count_Gymnosperms": 18, "unique_species_count": 3824.0, "countryCode": "CZ" }, "geometry": { "type": "MultiPolygon", "coordinates": [ [ [ [ 15.524378738602751, 51.235736529497778 ], [ 15.485802751959781, 50.765754467141939 ], [ 14.759934056175794, 50.461544400000655 ], [ 14.066712562493295, 50.619701162467209 ], [ 14.092150982110372, 51.089263639607111 ], [ 14.823893865999972, 51.401098172376848 ], [ 15.524378738602751, 51.235736529497778 ] ] ] ] } },
{ "type": "Feature", "properties": { "geogrid_id": "851063525016219523", "seqnum": 13932.0, "lat_c": 51.063524651924979, "lon_c": 16.21952303963149, "res": 8.0, "count_Flowering Plants": 523, "count_Sac Fungi": 66, "count_Birds": 63, "count_Reptiles": 4, "count_Basidiomycota": 33, "count_Molluscs": 5, "count_Mammals": 8, "count_Mosses": 108, "count_Arachnids": 12, "count_Amphibians": 4, "count_Insects": 264, "count_Ferns": 15, "count_Gymnosperms": 9, "unique_species_count": 1114.0, "countryCode": "CZ" }, "geometry": { "type": "MultiPolygon", "coordinates": [ [ [ [ 16.961085705125289, 51.355086999256514 ], [ 16.909141676068291, 50.884740014242944 ], [ 16.174888083619894, 50.593575734319636 ], [ 15.485802751959781, 50.765754467141939 ], [ 15.524378738602751, 51.235736529497778 ], [ 16.265367278429206, 51.533927440834276 ], [ 16.961085705125289, 51.355086999256514 ] ] ] ] } }
]
}
