{
"type": "FeatureCollection",
"name": "DE",
"crs": { "type": "name", "properties": { "name": "urn:ogc:def:crs:OGC:1.3:CRS84" } },
"features": [
{ "type": "Feature", "properties": { "geogrid_id": "846967945011250000", "seqnum": 13845.0, "lat_c": 46.967944725710652, "lon_c": 11.249999998516596, "res": 8.0, "count_Insects": 413, "count_Molluscs": 8, "count_Mammals": 5, "count_Flowering Plants": 328, "count_Mosses": 5, "count_Basidiomycota": 21, "count_Sac Fungi": 8, "count_Birds": 77, "count_Arachnids": 8, "count_Gymnosperms": 9, "count_Reptiles": 5, "count_Ferns": 7, "count_Amphibians": 4, "unique_species_count": 898.0, "countryCode": "DE" }, "geometry": { "type": "MultiPolygon", "coordinates": [ [ [ [ 11.913831271696097, 47.307929781497556 ], [ 11.908678851646744, 46.842494192652772 ], [ 11.24999999855379, 46.502869104145752 ], [ 10.591321146873915, 46.842494191302549 ], [ 10.586168726787331, 47.307929780122763 ], [ 11.249999998478714, 47.433457622000951 ], [ 11.913831271696097, 47.307929781497556 ] ] ] ] } },
{ "type": "Feature", "properties": { "geogrid_id": "847173534009925449", "seqnum": 13763.0, "lat_c": 47.173534377715967, "lon_c": 9.9254487139615701, "res": 8.0, "count_Insects": 1702, "count_Molluscs": 34, "count_Mammals": 34, "count_Flowering Plants": 1202, "count_Mosses": 101, "count_Basidiomycota": 240, "count_Sac Fungi": 111, "count_Birds": 187, "count_Arachnids": 63, "count_Gymnosperms": 18, "count_Reptiles": 6, "count_Ferns": 24, "count_Amphibians": 10, "unique_species_count": 3732.0, "countryCode": "DE" }, "geometry": { "type": "MultiPolygon", "coordinates": [ [ [ [ 10.586168726787331, 47.307929780122763 ], [ 10.591321146873915, 46.842494191302549 ], [ 9.935688122454984, 46.708110013010497 ], [ 9.268183828061799, 47.030698856626827 ], [ 9.252541350108647, 47.496587020624553 ], [ 9.914952560025593, 47.639391759372529 ], [ 10.586168726787331, 47.307929780122763 ] ] ] ] } },
{ "type": "Feature", "properties": { "geogrid_id": "847173534012574551", "seqnum": 13927.0, "lat_c": 47.173534379123716, "lon_c": 12.574551284527347, "res": 8.0, "count_Insects": 826, "count_Molluscs": 22, "count_Mammals": 17, "count_Flowering Plants": 536, "count_Mosses": 27, "count_Basidiomycota": 23, "count_Sac Fungi": 35, "count_Birds": 98, "count_Arachnids": 20, "count_Gymnosperms": 8, "count_Reptiles": 6, "count_Ferns": 25, "count_Amphibians": 7, "unique_species_count": 1650.0, "countryCode": "DE" }, "geometry": { "type": "MultiPolygon", "coordinates": [ [ [ [ 13.247458648349939, 47.496587022090075 ], [ 13.231816170433294, 47.030698858067325 ], [ 12.564311876070496, 46.70811001439349 ], [ 11.908678851646744, 46.842494192652772 ], [ 11.913831271696097, 47.307929781497556 ], [ 12.585047438426106, 47.639391760805125 ], [ 13.247458648349939, 47.496587022090075 ] ] ] ] } },
{ "type": "Feature", "properties": { "geogrid_id": "847345788008593956", "seqnum": 13681.0, "lat_c": 47.345788185758423, "lon_c": 8.5939558404339564, "res": 8.0, "count_Insects": 1909, "count_Molluscs": 68, "count_Mammals": 25, "count_Flowering Plants": 1165, "count_Mosses": 87, "count_Basidiomycota": 140, "count_Sac Fungi": 85, "count_Birds": 167, "count_Arachnids": 91, "count_Gymnosperms": 14, "count_Reptiles": 8, "count_Ferns": 34, "count_Amphibians": 14, "unique_species_count": 3807.0, "countryCode": "DE" }, "geometry": { "type": "MultiPolygon", "coordinates": [ [ [ [ 9.252541350108647, 47.496587020624553 ], [ 9.268183828061799, 47.030698856626827 ], [ 8.614676835835136, 46.879828846687474 ], [ 7.939461480629477, 47.187371005190371 ], [ 7.913089816790607, 47.653831910214812 ], [ 8.572715818172401, 47.812163506194096 ], [ 9.252541350108647, 47.496587020624553 ] ] ] ] } },
{ "type": "Feature", "properties": { "geogrid_id": "847488260007257859", "seqnum": 13599.0, "lat_c": 47.488260219991183, "lon_c": 7.2578588258544539, "res": 8.0, "count_Insects": 1562, "count_Molluscs": 64, "count_Mammals": 37, "count_Flowering Plants": 1214, "count_Mosses": 69, "count_Basidiomycota": 173, "count_Sac Fungi": 81, "count_Birds": 193, "count_Arachnids": 101, "count_Gymnosperms": 18, "count_Reptiles": 14, "count_Ferns": 20, "count_Amphibians": 14, "unique_species_count": 3560.0, "countryCode": "DE" }, "geometry": { "type": "MultiPolygon", "coordinates": [ [ [ [ 7.913089816790607, 47.653831910214812 ], [ 7.939461480629477, 47.187371005190371 ], [ 7.289289236868807, 47.021692510972976 ], [ 6.607223326652106, 47.315780789433425 ], [ 6.569905079561207, 47.782840459848735 ], [ 7.225643331668675, 47.955218739950354 ], [ 7.913089816790607, 47.653831910214812 ] ] ] ] } },
{ "type": "Feature", "properties": { "geogrid_id": "847773807010580887", "seqnum": 13764.0, "lat_c": 47.773807001679252, "lon_c": 10.580886586911133, "res": 8.0, "count_Insects": 4062, "count_Molluscs": 117, "count_Mammals": 71, "count_Flowering Plants": 1904, "count_Mosses": 258, "count_Basidiomycota": 501, "count_Sac Fungi": 329, "count_Birds": 314, "count_Arachnids": 160, "count_Gymnosperms": 25, "count_Reptiles": 11, "count_Ferns": 35, "count_Amphibians": 16, "unique_species_count": 7803.0, "countryCode": "DE" }, "geometry": { "type": "MultiPolygon", "coordinates": [ [ [ [ 11.249999998440117, 47.899416732985749 ], [ 11.249999998478714, 47.433457622000951 ], [ 10.586168726787331, 47.307929780122763 ], [ 9.914952560025593, 47.639391759372529 ], [ 9.904190723261687, 48.105691404092433 ], [ 10.575470205770483, 48.240134924396713 ], [ 11.249999998440117, 47.899416732985749 ] ] ] ] } },
{ "type": "Feature", "properties": { "geogrid_id": "847773807011919113", "seqnum": 13846.0, "lat_c": 47.773807003078687, "lon_c": 11.919113411534381, "res": 8.0, "count_Insects": 4671, "count_Molluscs": 120, "count_Mammals": 68, "count_Flowering Plants": 1931, "count_Mosses": 349, "count_Basidiomycota": 436, "count_Sac Fungi": 221, "count_Birds": 310, "count_Arachnids": 205, "count_Gymnosperms": 18, "count_Reptiles": 11, "count_Ferns": 29, "count_Amphibians": 20, "unique_species_count": 8389.0, "countryCode": "DE" }, "geometry": { "type": "MultiPolygon", "coordinates": [ [ [ [ 12.595809275152115, 48.10569140554994 ], [ 12.585047438426106, 47.639391760805125 ], [ 11.913831271696097, 47.307929781497556 ], [ 11.249999998478714, 47.433457622000951 ], [ 11.249999998440117, 47.899416732985749 ], [ 11.924529792636408, 48.240134925820875 ], [ 12.595809275152115, 48.10569140554994 ] ] ] ] } },
{ "type": "Feature", "properties": { "geogrid_id": "847962906009236505", "seqnum": 13682.0, "lat_c": 47.962905698238387, "lon_c": 9.2365048480489538, "res": 8.0, "count_Insects": 3850, "count_Molluscs": 159, "count_Mammals": 67, "count_Flowering Plants": 1868, "count_Mosses": 190, "count_Basidiomycota": 496, "count_Sac Fungi": 249, "count_Birds": 319, "count_Arachnids": 246, "count_Gymnosperms": 36, "count_Reptiles": 14, "count_Ferns": 28, "count_Amphibians": 16, "unique_species_count": 7538.0, "countryCode": "DE" }, "geometry": { "type": "MultiPolygon", "coordinates": [ [ [ [ 9.904190723261687, 48.105691404092433 ], [ 9.914952560025593, 47.639391759372529 ], [ 9.252541350108647, 47.496587020624553 ], [ 8.572715818172401, 47.812163506194096 ], [ 8.550938479686574, 48.278964625997133 ], [ 9.22006043743642, 48.429664422137435 ], [ 9.904190723261687, 48.105691404092433 ] ] ] ] } },
{ "type": "Feature", "properties": { "geogrid_id": "847962906013263495", "seqnum": 13928.0, "lat_c": 47.962905699729021, "lon_c": 13.263495150372476, "res": 8.0, "count_Insects": 2792, "count_Molluscs": 147, "count_Mammals": 55, "count_Flowering Plants": 1777, "count_Mosses": 230, "count_Basidiomycota": 299, "count_Sac Fungi": 155, "count_Birds": 287, "count_Arachnids": 131, "count_Gymnosperms": 17, "count_Reptiles": 12, "count_Ferns": 32, "count_Amphibians": 14, "unique_species_count": 5948.0, "countryCode": "DE" }, "geometry": { "type": "MultiPolygon", "coordinates": [ [ [ [ 13.949061518706094, 48.27896462754606 ], [ 13.927284180257306, 47.812163507717635 ], [ 13.247458648349939, 47.496587022090075 ], [ 12.585047438426106, 47.639391760805125 ], [ 12.595809275152115, 48.10569140554994 ], [ 13.279939560947183, 48.429664423653264 ], [ 13.949061518706094, 48.27896462754606 ] ] ] ] } },
{ "type": "Feature", "properties": { "geogrid_id": "848120702007886055", "seqnum": 13600.0, "lat_c": 48.120702073798427, "lon_c": 7.8860550647347463, "res": 8.0, "count_Insects": 4547, "count_Molluscs": 95, "count_Mammals": 75, "count_Flowering Plants": 2287, "count_Mosses": 407, "count_Basidiomycota": 840, "count_Sac Fungi": 578, "count_Birds": 285, "count_Arachnids": 255, "count_Gymnosperms": 41, "count_Reptiles": 32, "count_Ferns": 36, "count_Amphibians": 20, "unique_species_count": 9498.0, "countryCode": "DE" }, "geometry": { "type": "MultiPolygon", "coordinates": [ [ [ [ 8.550938479686574, 48.278964625997133 ], [ 8.572715818172401, 47.812163506194096 ], [ 7.913089816790607, 47.653831910214812 ], [ 7.225643331668675, 47.955218739950354 ], [ 7.192614746079488, 48.422578449573464 ], [ 7.858333574543764, 48.587991592256913 ], [ 8.550938479686574, 48.278964625997133 ] ] ] ] } },
{ "type": "Feature", "properties": { "geogrid_id": "848365831011250000", "seqnum": 13765.0, "lat_c": 48.365831071120084, "lon_c": 11.249999998400781, "res": 8.0, "count_Insects": 4254, "count_Molluscs": 130, "count_Mammals": 61, "count_Flowering Plants": 1971, "count_Mosses": 179, "count_Basidiomycota": 478, "count_Sac Fungi": 320, "count_Birds": 341, "count_Arachnids": 234, "count_Gymnosperms": 31, "count_Reptiles": 18, "count_Ferns": 22, "count_Amphibians": 18, "unique_species_count": 8057.0, "countryCode": "DE" }, "geometry": { "type": "MultiPolygon", "coordinates": [ [ [ [ 11.930085156236766, 48.706922685477245 ], [ 11.924529792636408, 48.240134925820875 ], [ 11.249999998440117, 47.899416732985749 ], [ 10.575470205770483, 48.240134924396713 ], [ 10.569914842130762, 48.706922684028285 ], [ 11.249999998360678, 48.832709723183179 ], [ 11.930085156236766, 48.706922685477245 ] ] ] ] } },
{ "type": "Feature", "properties": { "geogrid_id": "848572443009893154", "seqnum": 13683.0, "lat_c": 48.572442607651588, "lon_c": 9.8931538351789836, "res": 8.0, "count_Insects": 4084, "count_Molluscs": 111, "count_Mammals": 76, "count_Flowering Plants": 2302, "count_Mosses": 206, "count_Basidiomycota": 1099, "count_Sac Fungi": 563, "count_Birds": 341, "count_Arachnids": 289, "count_Gymnosperms": 50, "count_Reptiles": 16, "count_Ferns": 26, "count_Amphibians": 17, "unique_species_count": 9180.0, "countryCode": "DE" }, "geometry": { "type": "MultiPolygon", "coordinates": [ [ [ [ 10.569914842130762, 48.706922684028285 ], [ 10.575470205770483, 48.240134924396713 ], [ 9.904190723261687, 48.105691404092433 ], [ 9.22006043743642, 48.429664422137435 ], [ 9.203193561857235, 48.896872754022056 ], [ 9.881832069713866, 49.039654718782877 ], [ 10.569914842130762, 48.706922684028285 ] ] ] ] } },
{ "type": "Feature", "properties": { "geogrid_id": "848572443012606846", "seqnum": 13847.0, "lat_c": 48.5724426091341, "lon_c": 12.606846163196217, "res": 8.0, "count_Insects": 3099, "count_Molluscs": 124, "count_Mammals": 54, "count_Flowering Plants": 1632, "count_Mosses": 106, "count_Basidiomycota": 573, "count_Sac Fungi": 230, "count_Birds": 278, "count_Arachnids": 290, "count_Gymnosperms": 23, "count_Reptiles": 13, "count_Ferns": 24, "count_Amphibians": 15, "unique_species_count": 6461.0, "countryCode": "DE" }, "geometry": { "type": "MultiPolygon", "coordinates": [ [ [ [ 13.296806436487845, 48.896872755563173 ], [ 13.279939560947183, 48.429664423653264 ], [ 12.595809275152115, 48.10569140554994 ], [ 11.924529792636408, 48.240134925820875 ], [ 11.930085156236766, 48.706922685477245 ], [ 12.618167928622006, 49.039654720290471 ], [ 13.296806436487845, 48.896872755563173 ] ] ] ] } },
{ "type": "Feature", "properties": { "geogrid_id": "848746201008528605", "seqnum": 13601.0, "lat_c": 48.746201363262799, "lon_c": 8.5286046599632233, "res": 8.0, "count_Insects": 6053, "count_Molluscs": 124, "count_Mammals": 77, "count_Flowering Plants": 2287, "count_Mosses": 166, "count_Basidiomycota": 833, "count_Sac Fungi": 386, "count_Birds": 344, "count_Arachnids": 444, "count_Gymnosperms": 54, "count_Reptiles": 39, "count_Ferns": 32, "count_Amphibians": 23, "unique_species_count": 10862.0, "countryCode": "DE" }, "geometry": { "type": "MultiPolygon", "coordinates": [ [ [ [ 9.203193561857235, 48.896872754022056 ], [ 9.22006043743642, 48.429664422137435 ], [ 8.550938479686574, 48.278964625997133 ], [ 7.858333574543764, 48.587991592256913 ], [ 7.829900560824016, 49.05571053690835 ], [ 8.505694263488804, 49.213883541891249 ], [ 9.203193561857235, 48.896872754022056 ] ] ] ] } },
{ "type": "Feature", "properties": { "geogrid_id": "848746201013971395", "seqnum": 13929.0, "lat_c": 48.746201364837212, "lon_c": 13.971395338391742, "res": 8.0, "count_Insects": 2149, "count_Molluscs": 47, "count_Mammals": 48, "count_Flowering Plants": 1155, "count_Mosses": 93, "count_Basidiomycota": 529, "count_Sac Fungi": 144, "count_Birds": 187, "count_Arachnids": 91, "count_Gymnosperms": 12, "count_Reptiles": 12, "count_Ferns": 22, "count_Amphibians": 12, "unique_species_count": 4501.0, "countryCode": "DE" }, "geometry": { "type": "MultiPolygon", "coordinates": [ [ [ [ 14.670099437503932, 49.055710538541611 ], [ 14.641666423821702, 48.587991593864395 ], [ 13.949061518706094, 48.27896462754606 ], [ 13.279939560947183, 48.429664423653264 ], [ 13.296806436487845, 48.896872755563173 ], [ 13.994305734827776, 49.213883543491235 ], [ 14.670099437503932, 49.055710538541611 ] ] ] ] } },
{ "type": "Feature", "properties": { "geogrid_id": "848890350007158744", "seqnum": 13519.0, "lat_c": 48.890349669941322, "lon_c": 7.1587437323681371, "res": 8.0, "count_Insects": 2474, "count_Molluscs": 53, "count_Mammals": 48, "count_Flowering Plants": 1224, "count_Mosses": 114, "count_Basidiomycota": 373, "count_Sac Fungi": 205, "count_Birds": 180, "count_Arachnids": 179, "count_Gymnosperms": 19, "count_Reptiles": 11, "count_Ferns": 22, "count_Amphibians": 15, "unique_species_count": 4917.0, "countryCode": "DE" }, "geometry": { "type": "MultiPolygon", "coordinates": [ [ [ [ 7.829900560824016, 49.05571053690835 ], [ 7.858333574543764, 48.587991592256913 ], [ 7.192614746079488, 48.422578449573464 ], [ 6.492428535151062, 48.718114701737704 ], [ 6.452201139713061, 49.186350310664608 ], [ 7.123999540570193, 49.358542672010245 ], [ 7.829900560824016, 49.05571053690835 ] ] ] ] } },
{ "type": "Feature", "properties": { "geogrid_id": "849174179010564216", "seqnum": 13684.0, "lat_c": 49.174179485933038, "lon_c": 10.564215521540333, "res": 8.0, "count_Insects": 3354, "count_Molluscs": 61, "count_Mammals": 62, "count_Flowering Plants": 1768, "count_Mosses": 87, "count_Basidiomycota": 272, "count_Sac Fungi": 120, "count_Birds": 311, "count_Arachnids": 127, "count_Gymnosperms": 42, "count_Reptiles": 14, "count_Ferns": 15, "count_Amphibians": 18, "unique_species_count": 6251.0, "countryCode": "DE" }, "geometry": { "type": "MultiPolygon", "coordinates": [ [ [ [ 11.249999998319778, 49.30006185215278 ], [ 11.249999998360678, 48.832709723183179 ], [ 10.569914842130762, 48.706922684028285 ], [ 9.881832069713866, 49.039654718782877 ], [ 9.870215114824392, 49.50733714234547 ], [ 10.558367021874888, 49.641914607344376 ], [ 11.249999998319778, 49.30006185215278 ] ] ] ] } },
{ "type": "Feature", "properties": { "geogrid_id": "849174179011935784", "seqnum": 13766.0, "lat_c": 49.174179487406882, "lon_c": 11.935784476787072, "res": 8.0, "count_Insects": 3587, "count_Molluscs": 98, "count_Mammals": 65, "count_Flowering Plants": 1571, "count_Mosses": 107, "count_Basidiomycota": 494, "count_Sac Fungi": 258, "count_Birds": 278, "count_Arachnids": 213, "count_Gymnosperms": 15, "count_Reptiles": 10, "count_Ferns": 23, "count_Amphibians": 17, "unique_species_count": 6736.0, "countryCode": "DE" }, "geometry": { "type": "MultiPolygon", "coordinates": [ [ [ [ 12.629784883471395, 49.507337143878239 ], [ 12.618167928622006, 49.039654720290471 ], [ 11.930085156236766, 48.706922685477245 ], [ 11.249999998360678, 48.832709723183179 ], [ 11.249999998319778, 49.30006185215278 ], [ 11.941632976411604, 49.64191460884318 ], [ 12.629784883471395, 49.507337143878239 ] ] ] ] } },
{ "type": "Feature", "properties": { "geogrid_id": "849364540009185889", "seqnum": 13602.0, "lat_c": 49.364540289001809, "lon_c": 9.1858889510592743, "res": 8.0, "count_Insects": 4841, "count_Molluscs": 123, "count_Mammals": 86, "count_Flowering Plants": 2387, "count_Mosses": 131, "count_Basidiomycota": 638, "count_Sac Fungi": 319, "count_Birds": 343, "count_Arachnids": 302, "count_Gymnosperms": 50, "count_Reptiles": 23, "count_Ferns": 29, "count_Amphibians": 21, "unique_species_count": 9293.0, "countryCode": "DE" }, "geometry": { "type": "MultiPolygon", "coordinates": [ [ [ [ 9.870215114824392, 49.50733714234547 ], [ 9.881832069713866, 49.039654718782877 ], [ 9.203193561857235, 48.896872754022056 ], [ 8.505694263488804, 49.213883541891249 ], [ 8.482186205455317, 49.682020996889968 ], [ 9.168130576016518, 49.832676659723184 ], [ 9.870215114824392, 49.50733714234547 ] ] ] ] } },
{ "type": "Feature", "properties": { "geogrid_id": "849364540013314111", "seqnum": 13848.0, "lat_c": 49.3645402905683, "lon_c": 13.314111047246564, "res": 8.0, "count_Insects": 2277, "count_Molluscs": 30, "count_Mammals": 38, "count_Flowering Plants": 735, "count_Mosses": 111, "count_Basidiomycota": 463, "count_Sac Fungi": 255, "count_Birds": 161, "count_Arachnids": 117, "count_Gymnosperms": 13, "count_Reptiles": 6, "count_Ferns": 19, "count_Amphibians": 10, "unique_species_count": 4235.0, "countryCode": "DE" }, "geometry": { "type": "MultiPolygon", "coordinates": [ [ [ [ 14.017813792822173, 49.682020998515632 ], [ 13.994305734827776, 49.213883543491235 ], [ 13.296806436487845, 48.896872755563173 ], [ 12.618167928622006, 49.039654720290471 ], [ 12.629784883471395, 49.507337143878239 ], [ 13.331869422249333, 49.832676661315155 ], [ 14.017813792822173, 49.682020998515632 ] ] ] ] } },
{ "type": "Feature", "properties": { "geogrid_id": "849523869007800730", "seqnum": 13520.0, "lat_c": 49.523868960535609, "lon_c": 7.8007300306303193, "res": 8.0, "count_Insects": 5528, "count_Molluscs": 115, "count_Mammals": 85, "count_Flowering Plants": 2264, "count_Mosses": 173, "count_Basidiomycota": 1023, "count_Sac Fungi": 266, "count_Birds": 343, "count_Arachnids": 331, "count_Gymnosperms": 31, "count_Reptiles": 31, "count_Ferns": 32, "count_Amphibians": 20, "unique_species_count": 10242.0, "countryCode": "DE" }, "geometry": { "type": "MultiPolygon", "coordinates": [ [ [ [ 8.482186205455317, 49.682020996889968 ], [ 8.505694263488804, 49.213883541891249 ], [ 7.829900560824016, 49.05571053690835 ], [ 7.123999540570193, 49.358542672010245 ], [ 7.088349916731017, 49.827167683452046 ], [ 7.77079470620315, 49.992476903320593 ], [ 8.482186205455317, 49.682020996889968 ] ] ] ] } },
{ "type": "Feature", "properties": { "geogrid_id": "849654999006410932", "seqnum": 13438.0, "lat_c": 49.654998806390722, "lon_c": 6.4109321494456672, "res": 8.0, "count_Insects": 3147, "count_Molluscs": 55, "count_Mammals": 64, "count_Flowering Plants": 1448, "count_Mosses": 104, "count_Basidiomycota": 545, "count_Sac Fungi": 174, "count_Birds": 249, "count_Arachnids": 154, "count_Gymnosperms": 21, "count_Reptiles": 17, "count_Ferns": 27, "count_Amphibians": 16, "unique_species_count": 6021.0, "countryCode": "DE" }, "geometry": { "type": "MultiPolygon", "coordinates": [ [ [ [ 7.088349916731017, 49.827167683452046 ], [ 7.123999540570193, 49.358542672010245 ], [ 6.452201139713061, 49.186350310664608 ], [ 5.738720767923041, 49.476260352627271 ], [ 5.690712150796414, 49.945336922435779 ], [ 6.368582681772192, 50.124070523020592 ], [ 7.088349916731017, 49.827167683452046 ] ] ] ] } },
{ "type": "Feature", "properties": { "geogrid_id": "849767897011250000", "seqnum": 13685.0, "lat_c": 49.767896699116555, "lon_c": 11.249999998278051, "res": 8.0, "count_Insects": 3541, "count_Molluscs": 73, "count_Mammals": 71, "count_Flowering Plants": 1844, "count_Mosses": 153, "count_Basidiomycota": 566, "count_Sac Fungi": 403, "count_Birds": 312, "count_Arachnids": 340, "count_Gymnosperms": 21, "count_Reptiles": 14, "count_Ferns": 25, "count_Amphibians": 17, "unique_species_count": 7380.0, "countryCode": "DE" }, "geometry": { "type": "MultiPolygon", "coordinates": [ [ [ [ 11.947636140449513, 50.110137401158532 ], [ 11.941632976411604, 49.64191460884318 ], [ 11.249999998319778, 49.30006185215278 ], [ 10.558367021874888, 49.641914607344376 ], [ 10.552363857795244, 50.110137399634681 ], [ 11.249999998235467, 50.236223585222014 ], [ 11.947636140449513, 50.110137401158532 ] ] ] ] } },
{ "type": "Feature", "properties": { "geogrid_id": "849975499009858292", "seqnum": 13603.0, "lat_c": 49.975499342385845, "lon_c": 9.8582921419737453, "res": 8.0, "count_Insects": 4230, "count_Molluscs": 109, "count_Mammals": 66, "count_Flowering Plants": 1864, "count_Mosses": 121, "count_Basidiomycota": 868, "count_Sac Fungi": 340, "count_Birds": 343, "count_Arachnids": 233, "count_Gymnosperms": 24, "count_Reptiles": 14, "count_Ferns": 22, "count_Amphibians": 18, "unique_species_count": 8252.0, "countryCode": "DE" }, "geometry": { "type": "MultiPolygon", "coordinates": [ [ [ [ 10.552363857795244, 50.110137399634681 ], [ 10.558367021874888, 49.641914607344376 ], [ 9.870215114824392, 49.50733714234547 ], [ 9.168130576016518, 49.832676659723184 ], [ 9.149901600650375, 50.301291540271777 ], [ 9.846051773312915, 50.444150845104005 ], [ 10.552363857795244, 50.110137399634681 ] ] ] ] } },
{ "type": "Feature", "properties": { "geogrid_id": "849975499012641708", "seqnum": 13767.0, "lat_c": 49.975499343943881, "lon_c": 12.641707856281172, "res": 8.0, "count_Insects": 806, "count_Molluscs": 51, "count_Mammals": 32, "count_Flowering Plants": 718, "count_Mosses": 39, "count_Basidiomycota": 112, "count_Sac Fungi": 68, "count_Birds": 164, "count_Arachnids": 34, "count_Gymnosperms": 10, "count_Reptiles": 6, "count_Ferns": 16, "count_Amphibians": 12, "unique_species_count": 2068.0, "countryCode": "DE" }, "geometry": { "type": "MultiPolygon", "coordinates": [ [ [ [ 13.350098397574715, 50.301291541889313 ], [ 13.331869422249333, 49.832676661315155 ], [ 12.629784883471395, 49.507337143878239 ], [ 11.941632976411604, 49.64191460884318 ], [ 11.947636140449513, 50.110137401158532 ], [ 12.653948224900322, 50.444150846687386 ], [ 13.350098397574715, 50.301291541889313 ] ] ] ] } },
{ "type": "Feature", "properties": { "geogrid_id": "850150624008458058", "seqnum": 13521.0, "lat_c": 50.1506235793019, "lon_c": 8.4580583486603214, "res": 8.0, "count_Insects": 6210, "count_Molluscs": 137, "count_Mammals": 116, "count_Flowering Plants": 3328, "count_Mosses": 146, "count_Basidiomycota": 1158, "count_Sac Fungi": 598, "count_Birds": 432, "count_Arachnids": 394, "count_Gymnosperms": 75, "count_Reptiles": 42, "count_Ferns": 40, "count_Amphibians": 26, "unique_species_count": 12702.0, "countryCode": "DE" }, "geometry": { "type": "MultiPolygon", "coordinates": [ [ [ [ 9.149901600650375, 50.301291540271777 ], [ 9.168130576016518, 49.832676659723184 ], [ 8.482186205455317, 49.682020996889968 ], [ 7.77079470620315, 49.992476903320593 ], [ 7.740065942035502, 50.461544398289455 ], [ 8.433287435703788, 50.61970116078988 ], [ 9.149901600650375, 50.301291540271777 ] ] ] ] } },
{ "type": "Feature", "properties": { "geogrid_id": "850296235007051761", "seqnum": 13439.0, "lat_c": 50.296234894861627, "lon_c": 7.0517610056114686, "res": 8.0, "count_Insects": 4891, "count_Molluscs": 107, "count_Mammals": 84, "count_Flowering Plants": 2099, "count_Mosses": 180, "count_Basidiomycota": 816, "count_Sac Fungi": 512, "count_Birds": 307, "count_Arachnids": 249, "count_Gymnosperms": 31, "count_Reptiles": 22, "count_Ferns": 29, "count_Amphibians": 19, "unique_species_count": 9346.0, "countryCode": "DE" }, "geometry": { "type": "MultiPolygon", "coordinates": [ [ [ [ 7.740065942035502, 50.461544398289455 ], [ 7.77079470620315, 49.992476903320593 ], [ 7.088349916731017, 49.827167683452046 ], [ 6.368582681772192, 50.124070523020592 ], [ 6.325111914583318, 50.593575732514807 ], [ 7.014197246227035, 50.765754465370698 ], [ 7.740065942035502, 50.461544398289455 ] ] ] ] } },
{ "type": "Feature", "properties": { "geogrid_id": "850414827005641441", "seqnum": 13357.0, "lat_c": 50.414826717690723, "lon_c": 5.6414407296224729, "res": 8.0, "count_Insects": 1269, "count_Molluscs": 23, "count_Mammals": 39, "count_Flowering Plants": 692, "count_Mosses": 61, "count_Basidiomycota": 119, "count_Sac Fungi": 41, "count_Birds": 135, "count_Arachnids": 29, "count_Gymnosperms": 7, "count_Reptiles": 7, "count_Ferns": 22, "count_Amphibians": 10, "unique_species_count": 2454.0, "countryCode": "DE" }, "geometry": { "type": "MultiPolygon", "coordinates": [ [ [ [ 6.325111914583318, 50.593575732514807 ], [ 6.368582681772192, 50.124070523020592 ], [ 5.690712150796414, 49.945336922435779 ], [ 4.963339899093555, 50.229777550207608 ], [ 4.90692339735352, 50.699649254824088 ], [ 5.590858322113993, 50.884740012377854 ], [ 6.325111914583318, 50.593575732514807 ] ] ] ] } },
{ "type": "Feature", "properties": { "geogrid_id": "850578857010546200", "seqnum": 13604.0, "lat_c": 50.578857290581304, "lon_c": 10.546200264021495, "res": 8.0, "count_Insects": 3600, "count_Molluscs": 74, "count_Mammals": 73, "count_Flowering Plants": 1535, "count_Mosses": 179, "count_Basidiomycota": 583, "count_Sac Fungi": 305, "count_Birds": 291, "count_Arachnids": 158, "count_Gymnosperms": 56, "count_Reptiles": 10, "count_Ferns": 24, "count_Amphibians": 17, "unique_species_count": 6905.0, "countryCode": "DE" }, "geometry": { "type": "MultiPolygon", "coordinates": [ [ [ [ 11.24999999819199, 50.705051913665933 ], [ 11.249999998235467, 50.236223585222014 ], [ 10.552363857795244, 50.110137399634681 ], [ 9.846051773312915, 50.444150845104005 ], [ 9.833482046353712, 50.913301241736924 ], [ 10.539870177316452, 51.048083786638266 ], [ 11.24999999819199, 50.705051913665933 ] ] ] ] } },
{ "type": "Feature", "properties": { "geogrid_id": "850578857011953800", "seqnum": 13686.0, "lat_c": 50.578857292130294, "lon_c": 11.953799734180674, "res": 8.0, "count_Insects": 2832, "count_Molluscs": 59, "count_Mammals": 74, "count_Flowering Plants": 1615, "count_Mosses": 112, "count_Basidiomycota": 624, "count_Sac Fungi": 226, "count_Birds": 301, "count_Arachnids": 134, "count_Gymnosperms": 27, "count_Reptiles": 7, "count_Ferns": 22, "count_Amphibians": 18, "unique_species_count": 6051.0, "countryCode": "DE" }, "geometry": { "type": "MultiPolygon", "coordinates": [ [ [ [ 12.666517951816999, 50.913301243345757 ], [ 12.653948224900322, 50.444150846687386 ], [ 11.947636140449513, 50.110137401158532 ], [ 11.249999998235467, 50.236223585222014 ], [ 11.24999999819199, 50.705051913665933 ], [ 11.960129820842242, 51.048083788212466 ], [ 12.666517951816999, 50.913301243345757 ] ] ] ] } },
{ "type": "Feature", "properties": { "geogrid_id": "850770395009131184", "seqnum": 13522.0, "lat_c": 50.770394649869949, "lon_c": 9.1311843299022293, "res": 8.0, "count_Insects": 3981, "count_Molluscs": 97, "count_Mammals": 77, "count_Flowering Plants": 1974, "count_Mosses": 148, "count_Basidiomycota": 768, "count_Sac Fungi": 400, "count_Birds": 401, "count_Arachnids": 266, "count_Gymnosperms": 42, "count_Reptiles": 21, "count_Ferns": 26, "count_Amphibians": 20, "unique_species_count": 8221.0, "countryCode": "DE" }, "geometry": { "type": "MultiPolygon", "coordinates": [ [ [ [ 9.833482046353712, 50.913301241736924 ], [ 9.846051773312915, 50.444150845104005 ], [ 9.149901600650375, 50.301291540271777 ], [ 8.433287435703788, 50.61970116078988 ], [ 8.407849016045343, 51.089263637903798 ], [ 9.111960153820711, 51.239995756388623 ], [ 9.833482046353712, 50.913301241736924 ] ] ] ] } },
{ "type": "Feature", "properties": { "geogrid_id": "850770395013368816", "seqnum": 13768.0, "lat_c": 50.770394651513158, "lon_c": 13.368815668281302, "res": 8.0, "count_Insects": 3824, "count_Molluscs": 78, "count_Mammals": 69, "count_Flowering Plants": 1890, "count_Mosses": 244, "count_Basidiomycota": 566, "count_Sac Fungi": 352, "count_Birds": 271, "count_Arachnids": 198, "count_Gymnosperms": 40, "count_Reptiles": 14, "count_Ferns": 34, "count_Amphibians": 18, "unique_species_count": 7598.0, "countryCode": "DE" }, "geometry": { "type": "MultiPolygon", "coordinates": [ [ [ [ 14.092150982110372, 51.089263639607111 ], [ 14.066712562493295, 50.619701162467209 ], [ 13.350098397574715, 50.301291541889313 ], [ 12.653948224900322, 50.444150846687386 ], [ 12.666517951816999, 50.913301243345757 ], [ 13.388039844320428, 51.239995758057596 ], [ 14.092150982110372, 51.089263639607111 ] ] ] ] } },
{ "type": "Feature", "properties": { "geogrid_id": "850931081007708514", "seqnum": 13440.0, "lat_c": 50.931081476301948, "lon_c": 7.7085136357394024, "res": 8.0, "count_Insects": 4582, "count_Molluscs": 85, "count_Mammals": 88, "count_Flowering Plants": 1951, "count_Mosses": 146, "count_Basidiomycota": 714, "count_Sac Fungi": 369, "count_Birds": 328, "count_Arachnids": 281, "count_Gymnosperms": 30, "count_Reptiles": 21, "count_Ferns": 29, "count_Amphibians": 20, "unique_species_count": 8644.0, "countryCode": "DE" }, "geometry": { "type": "MultiPolygon", "coordinates": [ [ [ [ 8.407849016045343, 51.089263637903798 ], [ 8.433287435703788, 50.61970116078988 ], [ 7.740065942035502, 50.461544398289455 ], [ 7.014197246227035, 50.765754465370698 ], [ 6.975621259544059, 51.23573652770002 ], [ 7.676106132129892, 51.401098170613132 ], [ 8.407849016045343, 51.089263637903798 ] ] ] ] } },
{ "type": "Feature", "properties": { "geogrid_id": "850931081014791486", "seqnum": 13850.0, "lat_c": 50.931081478039346, "lon_c": 14.791486362431561, "res": 8.0, "count_Insects": 2256, "count_Molluscs": 41, "count_Mammals": 52, "count_Flowering Plants": 1253, "count_Mosses": 103, "count_Basidiomycota": 308, "count_Sac Fungi": 143, "count_Birds": 243, "count_Arachnids": 124, "count_Gymnosperms": 27, "count_Reptiles": 9, "count_Ferns": 24, "count_Amphibians": 17, "unique_species_count": 4600.0, "countryCode": "DE" }, "geometry": { "type": "MultiPolygon", "coordinates": [ [ [ [ 15.524378738602751, 51.235736529497778 ], [ 15.485802751959781, 50.765754467141939 ], [ 14.759934056175794, 50.461544400000655 ], [ 14.066712562493295, 50.619701162467209 ], [ 14.092150982110372, 51.089263639607111 ], [ 14.823893865999972, 51.401098172376848 ], [ 15.524378738602751, 51.235736529497778 ] ] ] ] } },
{ "type": "Feature", "properties": { "geogrid_id": "851063525006280477", "seqnum": 13358.0, "lat_c": 51.063524650093427, "lon_c": 6.2804769585328133, "res": 8.0, "count_Insects": 5273, "count_Molluscs": 115, "count_Mammals": 90, "count_Flowering Plants": 2295, "count_Mosses": 125, "count_Basidiomycota": 653, "count_Sac Fungi": 319, "count_Birds": 406, "count_Arachnids": 271, "count_Gymnosperms": 53, "count_Reptiles": 31, "count_Ferns": 31, "count_Amphibians": 22, "unique_species_count": 9684.0, "countryCode": "DE" }, "geometry": { "type": "MultiPolygon", "coordinates": [ [ [ [ 6.975621259544059, 51.23573652770002 ], [ 7.014197246227035, 50.765754465370698 ], [ 6.325111914583318, 50.593575732514807 ], [ 5.590858322113993, 50.884740012377854 ], [ 5.538914293018551, 51.355086997364381 ], [ 6.234632719695497, 51.533927438975873 ], [ 6.975621259544059, 51.23573652770002 ] ] ] ] } },
{ "type": "Feature", "properties": { "geogrid_id": "851174391011250000", "seqnum": 13605.0, "lat_c": 51.174391171724778, "lon_c": 11.249999998147587, "res": 8.0, "count_Insects": 3249, "count_Molluscs": 107, "count_Mammals": 72, "count_Flowering Plants": 1780, "count_Mosses": 125, "count_Basidiomycota": 564, "count_Sac Fungi": 425, "count_Birds": 308, "count_Arachnids": 200, "count_Gymnosperms": 32, "count_Reptiles": 12, "count_Ferns": 19, "count_Amphibians": 19, "unique_species_count": 6912.0, "countryCode": "DE" }, "geometry": { "type": "MultiPolygon", "coordinates": [ [ [ [ 11.966632781054045, 51.517826476817248 ], [ 11.960129820842242, 51.048083788212466 ], [ 11.24999999819199, 50.705051913665933 ], [ 10.539870177316452, 51.048083786638266 ], [ 10.533367217060254, 51.517826475217738 ], [ 11.249999998102219, 51.644250932827369 ], [ 11.966632781054045, 51.517826476817248 ] ] ] ] } },
{ "type": "Feature", "properties": { "geogrid_id": "851382960009820570", "seqnum": 13523.0, "lat_c": 51.382960191369733, "lon_c": 9.8205703759018252, "res": 8.0, "count_Insects": 5025, "count_Molluscs": 126, "count_Mammals": 86, "count_Flowering Plants": 1965, "count_Mosses": 179, "count_Basidiomycota": 945, "count_Sac Fungi": 447, "count_Birds": 335, "count_Arachnids": 259, "count_Gymnosperms": 32, "count_Reptiles": 15, "count_Ferns": 29, "count_Amphibians": 19, "unique_species_count": 9462.0, "countryCode": "DE" }, "geometry": { "type": "MultiPolygon", "coordinates": [ [ [ [ 10.533367217060254, 51.517826475217738 ], [ 10.539870177316452, 51.048083786638266 ], [ 9.833482046353712, 50.913301241736924 ], [ 9.111960153820711, 51.239995756388623 ], [ 9.092209487292809, 51.710104679688882 ], [ 9.807303512995578, 51.853137423683691 ], [ 10.533367217060254, 51.517826475217738 ] ] ] ] } },
{ "type": "Feature", "properties": { "geogrid_id": "851382960012679430", "seqnum": 13687.0, "lat_c": 51.382960193004102, "lon_c": 12.679429622225484, "res": 8.0, "count_Insects": 3699, "count_Molluscs": 66, "count_Mammals": 70, "count_Flowering Plants": 1592, "count_Mosses": 108, "count_Basidiomycota": 520, "count_Sac Fungi": 199, "count_Birds": 317, "count_Arachnids": 237, "count_Gymnosperms": 25, "count_Reptiles": 17, "count_Ferns": 16, "count_Amphibians": 17, "unique_species_count": 6883.0, "countryCode": "DE" }, "geometry": { "type": "MultiPolygon", "coordinates": [ [ [ [ 13.407790510805077, 51.710104681383726 ], [ 13.388039844320428, 51.239995758057596 ], [ 12.666517951816999, 50.913301243345757 ], [ 11.960129820842242, 51.048083788212466 ], [ 11.966632781054045, 51.517826476817248 ], [ 12.692696485087422, 51.853137425343704 ], [ 13.407790510805077, 51.710104681383726 ] ] ] ] } },
{ "type": "Feature", "properties": { "geogrid_id": "851559321008381717", "seqnum": 13441.0, "lat_c": 51.559320936052899, "lon_c": 8.3817173674415706, "res": 8.0, "count_Insects": 3947, "count_Molluscs": 79, "count_Mammals": 96, "count_Flowering Plants": 1856, "count_Mosses": 109, "count_Basidiomycota": 645, "count_Sac Fungi": 316, "count_Birds": 323, "count_Arachnids": 235, "count_Gymnosperms": 58, "count_Reptiles": 15, "count_Ferns": 24, "count_Amphibians": 17, "unique_species_count": 7720.0, "countryCode": "DE" }, "geometry": { "type": "MultiPolygon", "coordinates": [ [ [ [ 9.092209487292809, 51.710104679688882 ], [ 9.111960153820711, 51.239995756388623 ], [ 8.407849016045343, 51.089263637903798 ], [ 7.676106132129892, 51.401098170613132 ], [ 7.642810119885482, 51.871604521030804 ], [ 8.354865411233707, 52.029883013202223 ], [ 9.092209487292809, 51.710104679688882 ] ] ] ] } },
{ "type": "Feature", "properties": { "geogrid_id": "851559321014118283", "seqnum": 13769.0, "lat_c": 51.559320937782303, "lon_c": 14.118282630671962, "res": 8.0, "count_Insects": 3081, "count_Molluscs": 36, "count_Mammals": 52, "count_Flowering Plants": 1222, "count_Mosses": 89, "count_Basidiomycota": 421, "count_Sac Fungi": 218, "count_Birds": 273, "count_Arachnids": 159, "count_Gymnosperms": 19, "count_Reptiles": 8, "count_Ferns": 17, "count_Amphibians": 17, "unique_species_count": 5612.0, "countryCode": "DE" }, "geometry": { "type": "MultiPolygon", "coordinates": [ [ [ [ 14.857189878202487, 51.871604522820952 ], [ 14.823893865999972, 51.401098172376848 ], [ 14.092150982110372, 51.089263639607111 ], [ 13.388039844320428, 51.239995758057596 ], [ 13.407790510805077, 51.710104681383726 ], [ 14.145134586836797, 52.029883014957846 ], [ 14.857189878202487, 51.871604522820952 ] ] ] ] } },
{ "type": "Feature", "properties": { "geogrid_id": "851706191006935994", "seqnum": 13359.0, "lat_c": 51.706191192676428, "lon_c": 6.9359937275897998, "res": 8.0, "count_Insects": 5327, "count_Molluscs": 118, "count_Mammals": 88, "count_Flowering Plants": 2150, "count_Mosses": 137, "count_Basidiomycota": 829, "count_Sac Fungi": 607, "count_Birds": 393, "count_Arachnids": 392, "count_Gymnosperms": 38, "count_Reptiles": 37, "count_Ferns": 26, "count_Amphibians": 19, "unique_species_count": 10161.0, "countryCode": "DE" }, "geometry": { "type": "MultiPolygon", "coordinates": [ [ [ [ 7.642810119885482, 51.871604521030804 ], [ 7.676106132129892, 51.401098170613132 ], [ 6.975621259544059, 51.23573652770002 ], [ 6.234632719695497, 51.533927438975873 ], [ 6.187531751667571, 52.004794214478444 ], [ 6.895273263157605, 52.177128553235605 ], [ 7.642810119885482, 51.871604521030804 ] ] ] ] } },
{ "type": "Feature", "properties": { "geogrid_id": "851706191015564006", "seqnum": 13851.0, "lat_c": 51.706191194500832, "lon_c": 15.564006270516259, "res": 8.0, "count_Insects": 263, "count_Molluscs": 6, "count_Mammals": 15, "count_Flowering Plants": 90, "count_Mosses": 2, "count_Basidiomycota": 11, "count_Sac Fungi": 0, "count_Birds": 141, "count_Arachnids": 16, "count_Gymnosperms": 2, "count_Reptiles": 4, "count_Ferns": 1, "count_Amphibians": 4, "unique_species_count": 555.0, "countryCode": "DE" }, "geometry": { "type": "MultiPolygon", "coordinates": [ [ [ [ 16.312468246416817, 52.00479421636382 ], [ 16.265367278429206, 51.533927440834276 ], [ 15.524378738602751, 51.235736529497778 ], [ 14.823893865999972, 51.401098172376848 ], [ 14.857189878202487, 51.871604522820952 ], [ 15.604726734906933, 52.177128555086782 ], [ 16.312468246416817, 52.00479421636382 ] ] ] ] } },
{ "type": "Feature", "properties": { "geogrid_id": "851825878005485555", "seqnum": 13277.0, "lat_c": 51.825877784435761, "lon_c": 5.4855553898478906, "res": 8.0, "count_Insects": 1368, "count_Molluscs": 51, "count_Mammals": 43, "count_Flowering Plants": 1030, "count_Mosses": 40, "count_Basidiomycota": 143, "count_Sac Fungi": 58, "count_Birds": 240, "count_Arachnids": 71, "count_Gymnosperms": 12, "count_Reptiles": 6, "count_Ferns": 22, "count_Amphibians": 8, "unique_species_count": 3092.0, "countryCode": "DE" }, "geometry": { "type": "MultiPolygon", "coordinates": [ [ [ [ 6.187531751667571, 52.004794214478444 ], [ 6.234632719695497, 51.533927438975873 ], [ 5.538914293018551, 51.355086997364381 ], [ 4.789506110184651, 51.64063953899862 ], [ 4.728384663284086, 52.111778167003003 ], [ 5.430725565905054, 52.297122409579231 ], [ 6.187531751667571, 52.004794214478444 ] ] ] ] } },
{ "type": "Feature", "properties": { "geogrid_id": "851988095010526685", "seqnum": 13524.0, "lat_c": 51.9880950269851, "lon_c": 10.526684664285479, "res": 8.0, "count_Insects": 4260, "count_Molluscs": 137, "count_Mammals": 84, "count_Flowering Plants": 2017, "count_Mosses": 259, "count_Basidiomycota": 1478, "count_Sac Fungi": 673, "count_Birds": 345, "count_Arachnids": 276, "count_Gymnosperms": 43, "count_Reptiles": 15, "count_Ferns": 29, "count_Amphibians": 19, "unique_species_count": 9635.0, "countryCode": "DE" }, "geometry": { "type": "MultiPolygon", "coordinates": [ [ [ [ 11.249999998055847, 52.114640858671187 ], [ 11.249999998102219, 51.644250932827369 ], [ 10.533367217060254, 51.517826475217738 ], [ 9.807303512995578, 51.853137423683691 ], [ 9.793667500569212, 52.323842741648981 ], [ 10.519815439028172, 52.458899198170855 ], [ 11.249999998055847, 52.114640858671187 ] ] ] ] } },
{ "type": "Feature", "properties": { "geogrid_id": "851988095011973315", "seqnum": 13606.0, "lat_c": 51.988095028610019, "lon_c": 11.973315333783471, "res": 8.0, "count_Insects": 2910, "count_Molluscs": 67, "count_Mammals": 65, "count_Flowering Plants": 1605, "count_Mosses": 38, "count_Basidiomycota": 595, "count_Sac Fungi": 265, "count_Birds": 316, "count_Arachnids": 196, "count_Gymnosperms": 25, "count_Reptiles": 10, "count_Ferns": 12, "count_Amphibians": 18, "unique_species_count": 6122.0, "countryCode": "DE" }, "geometry": { "type": "MultiPolygon", "coordinates": [ [ [ [ 12.706332497468532, 52.32384274333473 ], [ 12.692696485087422, 51.853137425343704 ], [ 11.966632781054045, 51.517826476817248 ], [ 11.249999998102219, 51.644250932827369 ], [ 11.249999998055847, 52.114640858671187 ], [ 11.980184558994434, 52.458899199821261 ], [ 12.706332497468532, 52.32384274333473 ] ] ] ] } },
{ "type": "Feature", "properties": { "geogrid_id": "852180731009071912", "seqnum": 13442.0, "lat_c": 52.180731294806954, "lon_c": 9.0719117050090965, "res": 8.0, "count_Insects": 3645, "count_Molluscs": 98, "count_Mammals": 86, "count_Flowering Plants": 1741, "count_Mosses": 198, "count_Basidiomycota": 954, "count_Sac Fungi": 536, "count_Birds": 346, "count_Arachnids": 182, "count_Gymnosperms": 27, "count_Reptiles": 17, "count_Ferns": 22, "count_Amphibians": 18, "unique_species_count": 7870.0, "countryCode": "DE" }, "geometry": { "type": "MultiPolygon", "coordinates": [ [ [ [ 9.793667500569212, 52.323842741648981 ], [ 9.807303512995578, 51.853137423683691 ], [ 9.092209487292809, 51.710104679688882 ], [ 8.354865411233707, 52.029883013202223 ], [ 8.327264620900547, 52.500959863308736 ], [ 9.051045071209932, 52.651885534993966 ], [ 9.793667500569212, 52.323842741648981 ] ] ] ] } },
{ "type": "Feature", "properties": { "geogrid_id": "852180731013428088", "seqnum": 13688.0, "lat_c": 52.180731296527775, "lon_c": 13.428088293044642, "res": 8.0, "count_Insects": 5408, "count_Molluscs": 114, "count_Mammals": 86, "count_Flowering Plants": 2259, "count_Mosses": 145, "count_Basidiomycota": 1274, "count_Sac Fungi": 820, "count_Birds": 360, "count_Arachnids": 419, "count_Gymnosperms": 45, "count_Reptiles": 25, "count_Ferns": 27, "count_Amphibians": 19, "unique_species_count": 11001.0, "countryCode": "DE" }, "geometry": { "type": "MultiPolygon", "coordinates": [ [ [ [ 14.172735377126052, 52.500959865090678 ], [ 14.145134586836797, 52.029883014957846 ], [ 13.407790510805077, 51.710104681383726 ], [ 12.692696485087422, 51.853137425343704 ], [ 12.706332497468532, 52.32384274333473 ], [ 13.448954926798725, 52.65188553674087 ], [ 14.172735377126052, 52.500959865090678 ] ] ] ] } },
{ "type": "Feature", "properties": { "geogrid_id": "852342611007608591", "seqnum": 13360.0, "lat_c": 52.342610577687488, "lon_c": 7.6085905200780211, "res": 8.0, "count_Insects": 3663, "count_Molluscs": 106, "count_Mammals": 82, "count_Flowering Plants": 1903, "count_Mosses": 175, "count_Basidiomycota": 659, "count_Sac Fungi": 314, "count_Birds": 359, "count_Arachnids": 268, "count_Gymnosperms": 29, "count_Reptiles": 13, "count_Ferns": 21, "count_Amphibians": 15, "unique_species_count": 7607.0, "countryCode": "DE" }, "geometry": { "type": "MultiPolygon", "coordinates": [ [ [ [ 8.327264620900547, 52.500959863308736 ], [ 8.354865411233707, 52.029883013202223 ], [ 7.642810119885482, 51.871604521030804 ], [ 6.895273263157605, 52.177128553235605 ], [ 6.853416269203562, 52.648558687926247 ], [ 7.573410365790452, 52.814126404441872 ], [ 8.327264620900547, 52.500959863308736 ] ] ] ] } },
{ "type": "Feature", "properties": { "geogrid_id": "852342611014891409", "seqnum": 13770.0, "lat_c": 52.342610579504182, "lon_c": 14.89140947796723, "res": 8.0, "count_Insects": 1135, "count_Molluscs": 25, "count_Mammals": 45, "count_Flowering Plants": 687, "count_Mosses": 17, "count_Basidiomycota": 257, "count_Sac Fungi": 68, "count_Birds": 217, "count_Arachnids": 103, "count_Gymnosperms": 10, "count_Reptiles": 8, "count_Ferns": 8, "count_Amphibians": 13, "unique_species_count": 2593.0, "countryCode": "DE" }, "geometry": { "type": "MultiPolygon", "coordinates": [ [ [ [ 15.646583728818658, 52.648558689804318 ], [ 15.604726734906933, 52.177128555086782 ], [ 14.857189878202487, 51.871604522820952 ], [ 14.145134586836797, 52.029883014957846 ], [ 14.172735377126052, 52.500959865090678 ], [ 14.926589632211229, 52.814126406285233 ], [ 15.646583728818658, 52.648558689804318 ] ] ] ] } },
{ "type": "Feature", "properties": { "geogrid_id": "852476135006139124", "seqnum": 13278.0, "lat_c": 52.47613504748454, "lon_c": 6.1391240960954834, "res": 8.0, "count_Insects": 651, "count_Molluscs": 51, "count_Mammals": 32, "count_Flowering Plants": 441, "count_Mosses": 14, "count_Basidiomycota": 73, "count_Sac Fungi": 25, "count_Birds": 163, "count_Arachnids": 58, "count_Gymnosperms": 4, "count_Reptiles": 3, "count_Ferns": 6, "count_Amphibians": 6, "unique_species_count": 1527.0, "countryCode": "DE" }, "geometry": { "type": "MultiPolygon", "coordinates": [ [ [ [ 6.853416269203562, 52.648558687926247 ], [ 6.895273263157605, 52.177128553235605 ], [ 6.187531751667571, 52.004794214478444 ], [ 5.430725565905054, 52.297122409579231 ], [ 5.374365789382712, 52.768830835520113 ], [ 6.089357110513638, 52.947959967296647 ], [ 6.853416269203562, 52.648558687926247 ] ] ] ] } },
{ "type": "Feature", "properties": { "geogrid_id": "852585571011250000", "seqnum": 13525.0, "lat_c": 52.585570701383695, "lon_c": 11.249999998008432, "res": 8.0, "count_Insects": 1833, "count_Molluscs": 59, "count_Mammals": 56, "count_Flowering Plants": 1057, "count_Mosses": 44, "count_Basidiomycota": 399, "count_Sac Fungi": 90, "count_Birds": 256, "count_Arachnids": 95, "count_Gymnosperms": 17, "count_Reptiles": 7, "count_Ferns": 14, "count_Amphibians": 16, "unique_species_count": 3943.0, "countryCode": "DE" }, "geometry": { "type": "MultiPolygon", "coordinates": [ [ [ [ 11.987247922140702, 52.930248834578514 ], [ 11.980184558994434, 52.458899199821261 ], [ 11.249999998055847, 52.114640858671187 ], [ 10.519815439028172, 52.458899198170855 ], [ 10.512752075834522, 52.930248832902521 ], [ 11.249999997959931, 53.057050305730264 ], [ 11.987247922140702, 52.930248834578514 ] ] ] ] } },
{ "type": "Feature", "properties": { "geogrid_id": "852795086009779648", "seqnum": 13443.0, "lat_c": 52.795086024169123, "lon_c": 9.7796476255292255, "res": 8.0, "count_Insects": 4765, "count_Molluscs": 101, "count_Mammals": 75, "count_Flowering Plants": 1767, "count_Mosses": 174, "count_Basidiomycota": 678, "count_Sac Fungi": 417, "count_Birds": 331, "count_Arachnids": 213, "count_Gymnosperms": 33, "count_Reptiles": 16, "count_Ferns": 24, "count_Amphibians": 17, "unique_species_count": 8611.0, "countryCode": "DE" }, "geometry": { "type": "MultiPolygon", "coordinates": [ [ [ [ 10.512752075834522, 52.930248832902521 ], [ 10.519815439028172, 52.458899198170855 ], [ 9.793667500569212, 52.323842741648981 ], [ 9.051045071209932, 52.651885534993966 ], [ 9.029586663710546, 53.123577394619836 ], [ 9.765228366898379, 53.266877228682979 ], [ 10.512752075834522, 52.930248832902521 ] ] ] ] } },
{ "type": "Feature", "properties": { "geogrid_id": "852795086012720352", "seqnum": 13607.0, "lat_c": 52.795086025880721, "lon_c": 12.72035237246228, "res": 8.0, "count_Insects": 3080, "count_Molluscs": 79, "count_Mammals": 73, "count_Flowering Plants": 1451, "count_Mosses": 99, "count_Basidiomycota": 630, "count_Sac Fungi": 309, "count_Birds": 309, "count_Arachnids": 211, "count_Gymnosperms": 17, "count_Reptiles": 13, "count_Ferns": 15, "count_Amphibians": 14, "unique_species_count": 6300.0, "countryCode": "DE" }, "geometry": { "type": "MultiPolygon", "coordinates": [ [ [ [ 13.470413334252067, 53.123577396392939 ], [ 13.448954926798725, 52.65188553674087 ], [ 12.706332497468532, 52.32384274333473 ], [ 11.980184558994434, 52.458899199821261 ], [ 11.987247922140702, 52.930248834578514 ], [ 12.734771631045865, 53.266877230420519 ], [ 13.470413334252067, 53.123577396392939 ] ] ] ] } },
{ "type": "Feature", "properties": { "geogrid_id": "852972562008298885", "seqnum": 13361.0, "lat_c": 52.97256151950964, "lon_c": 8.2988849232290072, "res": 8.0, "count_Insects": 2997, "count_Molluscs": 140, "count_Mammals": 65, "count_Flowering Plants": 1507, "count_Mosses": 96, "count_Basidiomycota": 425, "count_Sac Fungi": 172, "count_Birds": 347, "count_Arachnids": 210, "count_Gymnosperms": 27, "count_Reptiles": 15, "count_Ferns": 19, "count_Amphibians": 15, "unique_species_count": 6035.0, "countryCode": "DE" }, "geometry": { "type": "MultiPolygon", "coordinates": [ [ [ [ 9.029586663710546, 53.123577394619836 ], [ 9.051045071209932, 52.651885534993966 ], [ 8.327264620900547, 52.500959863308736 ], [ 7.573410365790452, 52.814126404441872 ], [ 7.537230671957169, 53.28616208192026 ], [ 8.2696945913845, 53.444698057072614 ], [ 9.029586663710546, 53.123577394619836 ] ] ] ] } },
{ "type": "Feature", "properties": { "geogrid_id": "852972562014201115", "seqnum": 13689.0, "lat_c": 52.972561521318021, "lon_c": 14.201115074752778, "res": 8.0, "count_Insects": 2552, "count_Molluscs": 77, "count_Mammals": 63, "count_Flowering Plants": 1253, "count_Mosses": 105, "count_Basidiomycota": 769, "count_Sac Fungi": 374, "count_Birds": 267, "count_Arachnids": 166, "count_Gymnosperms": 18, "count_Reptiles": 8, "count_Ferns": 15, "count_Amphibians": 14, "unique_species_count": 5681.0, "countryCode": "DE" }, "geometry": { "type": "MultiPolygon", "coordinates": [ [ [ [ 14.962769326000055, 53.286162083790423 ], [ 14.926589632211229, 52.814126406285233 ], [ 14.172735377126052, 52.500959865090678 ], [ 13.448954926798725, 52.65188553674087 ], [ 13.470413334252067, 53.123577396392939 ], [ 14.230305406551526, 53.444698058907548 ], [ 14.962769326000055, 53.286162083790423 ] ] ] ] } },
{ "type": "Feature", "properties": { "geogrid_id": "853120492006810377", "seqnum": 13279.0, "lat_c": 53.120491663926138, "lon_c": 6.8103767869353309, "res": 8.0, "count_Insects": 1390, "count_Molluscs": 88, "count_Mammals": 50, "count_Flowering Plants": 803, "count_Mosses": 82, "count_Basidiomycota": 213, "count_Sac Fungi": 66, "count_Birds": 271, "count_Arachnids": 61, "count_Gymnosperms": 8, "count_Reptiles": 6, "count_Ferns": 10, "count_Amphibians": 11, "unique_species_count": 3059.0, "countryCode": "DE" }, "geometry": { "type": "MultiPolygon", "coordinates": [ [ [ [ 7.537230671957169, 53.28616208192026 ], [ 7.573410365790452, 52.814126404441872 ], [ 6.853416269203562, 52.648558687926247 ], [ 6.089357110513638, 52.947959967296647 ], [ 6.038175282251969, 53.42027896387296 ], [ 6.766106331486101, 53.592937539575765 ], [ 7.537230671957169, 53.28616208192026 ] ] ] ] } },
{ "type": "Feature", "properties": { "geogrid_id": "853402154010505487", "seqnum": 13444.0, "lat_c": 53.40215386555942, "lon_c": 10.505486697245265, "res": 8.0, "count_Insects": 4910, "count_Molluscs": 133, "count_Mammals": 80, "count_Flowering Plants": 2181, "count_Mosses": 173, "count_Basidiomycota": 876, "count_Sac Fungi": 560, "count_Birds": 372, "count_Arachnids": 270, "count_Gymnosperms": 51, "count_Reptiles": 17, "count_Ferns": 23, "count_Amphibians": 17, "unique_species_count": 9663.0, "countryCode": "DE" }, "geometry": { "type": "MultiPolygon", "coordinates": [ [ [ [ 11.249999997910296, 53.529089611370075 ], [ 11.249999997959931, 53.057050305730264 ], [ 10.512752075834522, 52.930248832902521 ], [ 9.765228366898379, 53.266877228682979 ], [ 9.750393339643699, 53.739226393729183 ], [ 10.498010985060059, 53.874624323152972 ], [ 11.249999997910296, 53.529089611370075 ] ] ] ] } },
{ "type": "Feature", "properties": { "geogrid_id": "853402154011994513", "seqnum": 13526.0, "lat_c": 53.402153867261106, "lon_c": 11.994513300681499, "res": 8.0, "count_Insects": 3241, "count_Molluscs": 94, "count_Mammals": 72, "count_Flowering Plants": 1220, "count_Mosses": 105, "count_Basidiomycota": 651, "count_Sac Fungi": 255, "count_Birds": 267, "count_Arachnids": 263, "count_Gymnosperms": 16, "count_Reptiles": 12, "count_Ferns": 12, "count_Amphibians": 14, "unique_species_count": 6222.0, "countryCode": "DE" }, "geometry": { "type": "MultiPolygon", "coordinates": [ [ [ [ 12.749606658252221, 53.739226395492771 ], [ 12.734771631045865, 53.266877230420519 ], [ 11.987247922140702, 52.930248834578514 ], [ 11.249999997959931, 53.057050305730264 ], [ 11.249999997910296, 53.529089611370075 ], [ 12.001989012817125, 53.874624324880443 ], [ 12.749606658252221, 53.739226395492771 ] ] ] ] } },
{ "type": "Feature", "properties": { "geogrid_id": "853595817009007512", "seqnum": 13362.0, "lat_c": 53.595816931948768, "lon_c": 9.0075122916477905, "res": 8.0, "count_Insects": 2368, "count_Molluscs": 118, "count_Mammals": 75, "count_Flowering Plants": 1346, "count_Mosses": 90, "count_Basidiomycota": 376, "count_Sac Fungi": 249, "count_Birds": 376, "count_Arachnids": 96, "count_Gymnosperms": 27, "count_Reptiles": 15, "count_Ferns": 17, "count_Amphibians": 15, "unique_species_count": 5168.0, "countryCode": "DE" }, "geometry": { "type": "MultiPolygon", "coordinates": [ [ [ [ 9.750393339643699, 53.739226393729183 ], [ 9.765228366898379, 53.266877228682979 ], [ 9.029586663710546, 53.123577394619836 ], [ 8.2696945913845, 53.444698057072614 ], [ 8.239660129084038, 53.917379596114635 ], [ 8.984796406329352, 54.068614271792264 ], [ 9.750393339643699, 53.739226393729183 ] ] ] ] } },
{ "type": "Feature", "properties": { "geogrid_id": "853595817013492488", "seqnum": 13608.0, "lat_c": 53.595816933748182, "lon_c": 13.492487706267774, "res": 8.0, "count_Insects": 2166, "count_Molluscs": 65, "count_Mammals": 58, "count_Flowering Plants": 1158, "count_Mosses": 74, "count_Basidiomycota": 412, "count_Sac Fungi": 113, "count_Birds": 272, "count_Arachnids": 110, "count_Gymnosperms": 16, "count_Reptiles": 7, "count_Ferns": 13, "count_Amphibians": 13, "unique_species_count": 4477.0, "countryCode": "DE" }, "geometry": { "type": "MultiPolygon", "coordinates": [ [ [ [ 14.260339868805248, 53.91737959797625 ], [ 14.230305406551526, 53.444698058907548 ], [ 13.470413334252067, 53.123577396392939 ], [ 12.734771631045865, 53.266877230420519 ], [ 12.749606658252221, 53.739226395492771 ], [ 13.515203591538118, 54.068614273618095 ], [ 14.260339868805248, 53.91737959797625 ] ] ] ] } },
{ "type": "Feature", "properties": { "geogrid_id": "853758728007500010", "seqnum": 13280.0, "lat_c": 53.758727710205036, "lon_c": 7.5000102944672253, "res": 8.0, "count_Insects": 2265, "count_Molluscs": 160, "count_Mammals": 64, "count_Flowering Plants": 1159, "count_Mosses": 89, "count_Basidiomycota": 228, "count_Sac Fungi": 165, "count_Birds": 338, "count_Arachnids": 97, "count_Gymnosperms": 16, "count_Reptiles": 8, "count_Ferns": 19, "count_Amphibians": 10, "unique_species_count": 4618.0, "countryCode": "DE" }, "geometry": { "type": "MultiPolygon", "coordinates": [ [ [ [ 8.239660129084038, 53.917379596114635 ], [ 8.2696945913845, 53.444698057072614 ], [ 7.537230671957169, 53.28616208192026 ], [ 6.766106331486101, 53.592937539575765 ], [ 6.720553713944972, 54.065906366430156 ], [ 7.461705777464078, 54.231833411172943 ], [ 8.239660129084038, 53.917379596114635 ] ] ] ] } },
{ "type": "Feature", "properties": { "geogrid_id": "853758728014999990", "seqnum": 13690.0, "lat_c": 53.758727712102122, "lon_c": 14.999989703444626, "res": 8.0, "count_Insects": 429, "count_Molluscs": 8, "count_Mammals": 12, "count_Flowering Plants": 141, "count_Mosses": 6, "count_Basidiomycota": 24, "count_Sac Fungi": 7, "count_Birds": 134, "count_Arachnids": 31, "count_Gymnosperms": 2, "count_Reptiles": 5, "count_Ferns": 4, "count_Amphibians": 3, "unique_species_count": 806.0, "countryCode": "DE" }, "geometry": { "type": "MultiPolygon", "coordinates": [ [ [ [ 15.779446283945225, 54.065906368389712 ], [ 15.733893666448978, 53.592937541508014 ], [ 14.962769326000055, 53.286162083790423 ], [ 14.230305406551526, 53.444698058907548 ], [ 14.260339868805248, 53.91737959797625 ], [ 15.038294220401449, 54.231833413097085 ], [ 15.779446283945225, 54.065906368389712 ] ] ] ] } },
{ "type": "Feature", "properties": { "geogrid_id": "853893102005985520", "seqnum": 13198.0, "lat_c": 53.893101989445782, "lon_c": 5.9855200270399074, "res": 8.0, "count_Insects": 279, "count_Molluscs": 78, "count_Mammals": 22, "count_Flowering Plants": 489, "count_Mosses": 23, "count_Basidiomycota": 66, "count_Sac Fungi": 44, "count_Birds": 203, "count_Arachnids": 19, "count_Gymnosperms": 5, "count_Reptiles": 1, "count_Ferns": 5, "count_Amphibians": 5, "unique_species_count": 1239.0, "countryCode": "DE" }, "geometry": { "type": "MultiPolygon", "coordinates": [ [ [ [ 6.720553713944972, 54.065906366430156 ], [ 6.766106331486101, 53.592937539575765 ], [ 6.038175282251969, 53.42027896387296 ], [ 5.248345925560177, 53.7060743245735 ], [ 5.175310202869896, 54.170166957276891 ], [ 5.920634224870531, 54.357059992813788 ], [ 6.720553713944972, 54.065906366430156 ] ] ] ] } },
{ "type": "Feature", "properties": { "geogrid_id": "854001699011250000", "seqnum": 13445.0, "lat_c": 54.001698655161718, "lon_c": 11.249999997859479, "res": 8.0, "count_Insects": 3267, "count_Molluscs": 150, "count_Mammals": 76, "count_Flowering Plants": 1627, "count_Mosses": 149, "count_Basidiomycota": 946, "count_Sac Fungi": 784, "count_Birds": 351, "count_Arachnids": 175, "count_Gymnosperms": 34, "count_Reptiles": 9, "count_Ferns": 16, "count_Amphibians": 21, "unique_species_count": 7605.0, "countryCode": "DE" }, "geometry": { "type": "MultiPolygon", "coordinates": [ [ [ [ 12.009683848664732, 54.347670329488189 ], [ 12.001989012817125, 53.874624324880443 ], [ 11.249999997910296, 53.529089611370075 ], [ 10.498010985060059, 53.874624323152972 ], [ 10.4903161491617, 54.347670327734825 ], [ 11.249999997807432, 54.474887573519993 ], [ 12.009683848664732, 54.347670329488189 ] ] ] ] } },
{ "type": "Feature", "properties": { "geogrid_id": "854212144009735125", "seqnum": 13363.0, "lat_c": 54.212143641477226, "lon_c": 9.735125233761714, "res": 8.0, "count_Insects": 3679, "count_Molluscs": 156, "count_Mammals": 80, "count_Flowering Plants": 1761, "count_Mosses": 180, "count_Basidiomycota": 883, "count_Sac Fungi": 677, "count_Birds": 336, "count_Arachnids": 158, "count_Gymnosperms": 31, "count_Reptiles": 12, "count_Ferns": 21, "count_Amphibians": 18, "unique_species_count": 7992.0, "countryCode": "DE" }, "geometry": { "type": "MultiPolygon", "coordinates": [ [ [ [ 10.4903161491617, 54.347670327734825 ], [ 10.498010985060059, 53.874624323152972 ], [ 9.750393339643699, 53.739226393729183 ], [ 8.984796406329352, 54.068614271792264 ], [ 8.961412004496024, 54.541979608043512 ], [ 9.719405748145459, 54.685639180228343 ], [ 10.4903161491617, 54.347670327734825 ] ] ] ] } },
{ "type": "Feature", "properties": { "geogrid_id": "854212144012764875", "seqnum": 13527.0, "lat_c": 54.212143643266977, "lon_c": 12.764874764084775, "res": 8.0, "count_Insects": 2474, "count_Molluscs": 74, "count_Mammals": 66, "count_Flowering Plants": 1430, "count_Mosses": 68, "count_Basidiomycota": 632, "count_Sac Fungi": 180, "count_Birds": 318, "count_Arachnids": 177, "count_Gymnosperms": 24, "count_Reptiles": 10, "count_Ferns": 17, "count_Amphibians": 19, "unique_species_count": 5489.0, "countryCode": "DE" }, "geometry": { "type": "MultiPolygon", "coordinates": [ [ [ [ 13.538587993322267, 54.54197960989589 ], [ 13.515203591538118, 54.068614273618095 ], [ 12.749606658252221, 53.739226395492771 ], [ 12.001989012817125, 53.874624324880443 ], [ 12.009683848664732, 54.347670329488189 ], [ 12.780594249650443, 54.685639182044369 ], [ 13.538587993322267, 54.54197960989589 ] ] ] ] } },
{ "type": "Feature", "properties": { "geogrid_id": "854390616008208746", "seqnum": 13281.0, "lat_c": 54.390616304093591, "lon_c": 8.2087461449856463, "res": 8.0, "count_Insects": 1575, "count_Molluscs": 144, "count_Mammals": 56, "count_Flowering Plants": 987, "count_Mosses": 57, "count_Basidiomycota": 220, "count_Sac Fungi": 216, "count_Birds": 425, "count_Arachnids": 54, "count_Gymnosperms": 15, "count_Reptiles": 10, "count_Ferns": 11, "count_Amphibians": 6, "unique_species_count": 3776.0, "countryCode": "DE" }, "geometry": { "type": "MultiPolygon", "coordinates": [ [ [ [ 8.961412004496024, 54.541979608043512 ], [ 8.984796406329352, 54.068614271792264 ], [ 8.239660129084038, 53.917379596114635 ], [ 7.461705777464078, 54.231833411172943 ], [ 7.422271187655189, 54.705489330482543 ], [ 8.176915216306588, 54.864418398073923 ], [ 8.961412004496024, 54.541979608043512 ] ] ] ] } },
{ "type": "Feature", "properties": { "geogrid_id": "854390616014291254", "seqnum": 13609.0, "lat_c": 54.390616305982014, "lon_c": 14.291253852855881, "res": 8.0, "count_Insects": 1342, "count_Molluscs": 63, "count_Mammals": 39, "count_Flowering Plants": 904, "count_Mosses": 47, "count_Basidiomycota": 257, "count_Sac Fungi": 78, "count_Birds": 261, "count_Arachnids": 99, "count_Gymnosperms": 14, "count_Reptiles": 6, "count_Ferns": 8, "count_Amphibians": 12, "unique_species_count": 3130.0, "countryCode": "DE" }, "geometry": { "type": "MultiPolygon", "coordinates": [ [ [ [ 15.077728810163023, 54.705489332433878 ], [ 15.038294220401449, 54.231833413097085 ], [ 14.260339868805248, 53.91737959797625 ], [ 13.515203591538118, 54.068614273618095 ], [ 13.538587993322267, 54.54197960989589 ], [ 14.323084781486122, 54.864418399989276 ], [ 15.077728810163023, 54.705489332433878 ] ] ] ] } },
{ "type": "Feature", "properties": { "geogrid_id": "854539408006673665", "seqnum": 13199.0, "lat_c": 54.539408190824602, "lon_c": 6.6736648483778058, "res": 8.0, "count_Insects": 14, "count_Molluscs": 6, "count_Mammals": 5, "count_Flowering Plants": 0, "count_Mosses": 0, "count_Basidiomycota": 0, "count_Sac Fungi": 0, "count_Birds": 32, "count_Arachnids": 0, "count_Gymnosperms": 0, "count_Reptiles": 0, "count_Ferns": 0, "count_Amphibians": 0, "unique_species_count": 57.0, "countryCode": "DE" }, "geometry": { "type": "MultiPolygon", "coordinates": [ [ [ [ 7.422271187655189, 54.705489330482543 ], [ 7.461705777464078, 54.231833411172943 ], [ 6.720553713944972, 54.065906366430156 ], [ 5.920634224870531, 54.357059992813788 ], [ 5.850549952240733, 54.81999034643205 ], [ 6.612166845681902, 55.002193133551707 ], [ 7.422271187655189, 54.705489330482543 ] ] ] ] } },
{ "type": "Feature", "properties": { "geogrid_id": "854633187005096840", "seqnum": 7129.0, "lat_c": 54.633187384152002, "lon_c": 5.0968404650617058, "res": 8.0, "count_Insects": 3, "count_Molluscs": 17, "count_Mammals": 3, "count_Flowering Plants": 0, "count_Mosses": 0, "count_Basidiomycota": 0, "count_Sac Fungi": 0, "count_Birds": 17, "count_Arachnids": 0, "count_Gymnosperms": 0, "count_Reptiles": 0, "count_Ferns": 0, "count_Amphibians": 0, "unique_species_count": 40.0, "countryCode": "DE" }, "geometry": { "type": "MultiPolygon", "coordinates": [ [ [ [ 5.920634224870531, 54.357059992813788 ], [ 5.175310202869896, 54.170166957276891 ], [ 4.35106253424851, 54.441873770196757 ], [ 4.258234458593729, 54.903694531111455 ], [ 5.012433271481083, 55.095023179148299 ], [ 5.850549952240733, 54.81999034643205 ], [ 5.920634224870531, 54.357059992813788 ] ] ] ] } },
{ "type": "Feature", "properties": { "geogrid_id": "854821302010482393", "seqnum": 13364.0, "lat_c": 54.821302098835211, "lon_c": 10.482392893654797, "res": 8.0, "count_Insects": 827, "count_Molluscs": 75, "count_Mammals": 48, "count_Flowering Plants": 712, "count_Mosses": 60, "count_Basidiomycota": 137, "count_Sac Fungi": 199, "count_Birds": 305, "count_Arachnids": 53, "count_Gymnosperms": 9, "count_Reptiles": 4, "count_Ferns": 6, "count_Amphibians": 13, "unique_species_count": 2448.0, "countryCode": "DE" }, "geometry": { "type": "MultiPolygon", "coordinates": [ [ [ [ 11.249999997754101, 54.948666604825675 ], [ 11.249999997807432, 54.474887573519993 ], [ 10.4903161491617, 54.347670327734825 ], [ 9.719405748145459, 54.685639180228343 ], [ 9.703215518702759, 55.159723306888779 ], [ 10.474231380044868, 55.295529955933439 ], [ 11.249999997754101, 54.948666604825675 ] ] ] ] } },
{ "type": "Feature", "properties": { "geogrid_id": "854821302012017607", "seqnum": 13446.0, "lat_c": 54.82130210061456, "lon_c": 12.017607104119664, "res": 8.0, "count_Insects": 3, "count_Molluscs": 0, "count_Mammals": 2, "count_Flowering Plants": 8, "count_Mosses": 0, "count_Basidiomycota": 0, "count_Sac Fungi": 0, "count_Birds": 19, "count_Arachnids": 0, "count_Gymnosperms": 0, "count_Reptiles": 0, "count_Ferns": 0, "count_Amphibians": 0, "unique_species_count": 32.0, "countryCode": "DE" }, "geometry": { "type": "MultiPolygon", "coordinates": [ [ [ [ 12.796784479041357, 55.159723308731188 ], [ 12.780594249650443, 54.685639182044369 ], [ 12.009683848664732, 54.347670329488189 ], [ 11.249999997807432, 54.474887573519993 ], [ 11.249999997754101, 54.948666604825675 ], [ 12.02576861767635, 55.295529957738893 ], [ 12.796784479041357, 55.159723308731188 ] ] ] ] } },
{ "type": "Feature", "properties": { "geogrid_id": "855015923008937331", "seqnum": 13282.0, "lat_c": 55.015923206095714, "lon_c": 8.9373305232284856, "res": 8.0, "count_Insects": 1768, "count_Molluscs": 114, "count_Mammals": 60, "count_Flowering Plants": 1016, "count_Mosses": 124, "count_Basidiomycota": 543, "count_Sac Fungi": 397, "count_Birds": 352, "count_Arachnids": 77, "count_Gymnosperms": 19, "count_Reptiles": 7, "count_Ferns": 13, "count_Amphibians": 13, "unique_species_count": 4503.0, "countryCode": "DE" }, "geometry": { "type": "MultiPolygon", "coordinates": [ [ [ [ 9.703215518702759, 55.159723306888779 ], [ 9.719405748145459, 54.685639180228343 ], [ 8.961412004496024, 54.541979608043512 ], [ 8.176915216306588, 54.864418398073923 ], [ 8.144127740568621, 55.338796146765013 ], [ 8.912521725640318, 55.490455405144914 ], [ 9.703215518702759, 55.159723306888779 ] ] ] ] } },
{ "type": "Feature", "properties": { "geogrid_id": "855015923013562669", "seqnum": 13528.0, "lat_c": 55.015923207974758, "lon_c": 13.562669474539494, "res": 8.0, "count_Insects": 279, "count_Molluscs": 27, "count_Mammals": 23, "count_Flowering Plants": 405, "count_Mosses": 13, "count_Basidiomycota": 88, "count_Sac Fungi": 16, "count_Birds": 212, "count_Arachnids": 20, "count_Gymnosperms": 5, "count_Reptiles": 5, "count_Ferns": 4, "count_Amphibians": 8, "unique_species_count": 1105.0, "countryCode": "DE" }, "geometry": { "type": "MultiPolygon", "coordinates": [ [ [ [ 14.355872257174168, 55.338796148707431 ], [ 14.323084781486122, 54.864418399989276 ], [ 13.538587993322267, 54.54197960989589 ], [ 12.780594249650443, 54.685639182044369 ], [ 12.796784479041357, 55.159723308731188 ], [ 13.587478272076172, 55.490455407050753 ], [ 14.355872257174168, 55.338796148707431 ] ] ] ] } },
{ "type": "Feature", "properties": { "geogrid_id": "855179706007381658", "seqnum": 13200.0, "lat_c": 55.17970563920602, "lon_c": 7.3816579343086133, "res": 8.0, "count_Insects": 1, "count_Molluscs": 4, "count_Mammals": 4, "count_Flowering Plants": 0, "count_Mosses": 0, "count_Basidiomycota": 0, "count_Sac Fungi": 0, "count_Birds": 31, "count_Arachnids": 0, "count_Gymnosperms": 0, "count_Reptiles": 0, "count_Ferns": 0, "count_Amphibians": 0, "unique_species_count": 40.0, "countryCode": "DE" }, "geometry": { "type": "MultiPolygon", "coordinates": [ [ [ [ 8.144127740568621, 55.338796146765013 ], [ 8.176915216306588, 54.864418398073923 ], [ 7.422271187655189, 54.705489330482543 ], [ 6.612166845681902, 55.002193133551707 ], [ 6.545230995727714, 55.463892020346847 ], [ 7.323768673372379, 55.641247559757765 ], [ 8.144127740568621, 55.338796146765013 ] ] ] ] } },
{ "type": "Feature", "properties": { "geogrid_id": "855281786005774774", "seqnum": 7048.0, "lat_c": 55.281786353685867, "lon_c": 5.774774064645614, "res": 8.0, "count_Insects": 0, "count_Molluscs": 6, "count_Mammals": 2, "count_Flowering Plants": 0, "count_Mosses": 0, "count_Basidiomycota": 0, "count_Sac Fungi": 0, "count_Birds": 22, "count_Arachnids": 0, "count_Gymnosperms": 0, "count_Reptiles": 0, "count_Ferns": 0, "count_Amphibians": 0, "unique_species_count": 30.0, "countryCode": "DE" }, "geometry": { "type": "MultiPolygon", "coordinates": [ [ [ [ 6.612166845681902, 55.002193133551707 ], [ 5.850549952240733, 54.81999034643205 ], [ 5.012433271481083, 55.095023179148299 ], [ 4.921545028239374, 55.555552161673162 ], [ 5.692773752113928, 55.742332147317143 ], [ 6.545230995727714, 55.463892020346847 ], [ 6.612166845681902, 55.002193133551707 ] ] ] ] } },
{ "type": "Feature", "properties": { "geogrid_id": "855364150004158677", "seqnum": 7047.0, "lat_c": 55.364149776316232, "lon_c": 4.1586771009872816, "res": 8.0, "count_Insects": 1, "count_Molluscs": 22, "count_Mammals": 4, "count_Flowering Plants": 0, "count_Mosses": 0, "count_Basidiomycota": 0, "count_Sac Fungi": 0, "count_Birds": 8, "count_Arachnids": 0, "count_Gymnosperms": 0, "count_Reptiles": 0, "count_Ferns": 0, "count_Amphibians": 0, "unique_species_count": 35.0, "countryCode": "DE" }, "geometry": { "type": "MultiPolygon", "coordinates": [ [ [ [ 5.012433271481083, 55.095023179148299 ], [ 4.258234458593729, 54.903694531111455 ], [ 3.404187858320542, 55.168218924383538 ], [ 3.288604266326082, 55.626972462887679 ], [ 4.051792799619686, 55.823099518262069 ], [ 4.921545028239374, 55.555552161673162 ], [ 5.012433271481083, 55.095023179148299 ] ] ] ] } },
{ "type": "Feature", "properties": { "geogrid_id": "856014642004823589", "seqnum": 6966.0, "lat_c": 56.014641519409665, "lon_c": 4.8235888730585783, "res": 8.0, "count_Insects": 0, "count_Molluscs": 0, "count_Mammals": 0, "count_Flowering Plants": 0, "count_Mosses": 0, "count_Basidiomycota": 0, "count_Sac Fungi": 0, "count_Birds": 3, "count_Arachnids": 0, "count_Gymnosperms": 0, "count_Reptiles": 0, "count_Ferns": 0, "count_Amphibians": 0, "unique_species_count": 3.0, "countryCode": "DE" }, "geometry": { "type": "MultiPolygon", "coordinates": [ [ [ [ 5.692773752113928, 55.742332147317143 ], [ 4.921545028239374, 55.555552161673162 ], [ 4.051792799619686, 55.823099518262069 ], [ 3.936936864546487, 56.280391441035782 ], [ 4.717931360878698, 56.472146843003038 ], [ 5.603973428202089, 56.20150187095058 ], [ 5.692773752113928, 55.742332147317143 ] ] ] ] } },
{ "type": "Feature", "properties": { "geogrid_id": "856083992003164788", "seqnum": 6965.0, "lat_c": 56.083991902444446, "lon_c": 3.1647880974827678, "res": 8.0, "count_Insects": 0, "count_Molluscs": 16, "count_Mammals": 4, "count_Flowering Plants": 0, "count_Mosses": 0, "count_Basidiomycota": 0, "count_Sac Fungi": 0, "count_Birds": 1, "count_Arachnids": 0, "count_Gymnosperms": 0, "count_Reptiles": 0, "count_Ferns": 0, "count_Amphibians": 0, "unique_species_count": 21.0, "countryCode": "DE" }, "geometry": { "type": "MultiPolygon", "coordinates": [ [ [ [ 4.051792799619686, 55.823099518262069 ], [ 3.288604266326082, 55.626972462887679 ], [ 2.401494951633452, 55.88304672451936 ], [ 2.259756088256306, 56.337740465830031 ], [ 3.032033009748304, 56.539102475571077 ], [ 3.936936864546487, 56.280391441035782 ], [ 4.051792799619686, 55.823099518262069 ] ] ] ] } }
]
}
