{
"type": "FeatureCollection",
"name": "DK",
"crs": { "type": "name", "properties": { "name": "urn:ogc:def:crs:OGC:1.3:CRS84" } },
"features": [
{ "type": "Feature", "properties": { "geogrid_id": "5389739064078750000", "seqnum": 123.0, "lat_c": 89.739064400997634, "lon_c": -78.750000254795879, "res": 9.0, "count_Mammals": 0, "count_Molluscs": 0, "count_Arachnids": 0, "count_Gymnosperms": 0, "count_Sac Fungi": 0, "count_Birds": 0, "count_Insects": 0, "count_Mosses": 0, "count_Flowering Plants": 51, "count_Basidiomycota": 0, "count_Amphibians": 1, "count_Ferns": 1, "count_Reptiles": 1, "unique_species_count": 54.0, "countryCode": "DK" }, "geometry": { "type": "MultiPolygon", "coordinates": [ [ [ [ -33.007118434281203, 89.626098818738257 ], [ -64.351307204804769, 89.461315063583754 ], [ -93.148693031415746, 89.461315063013657 ], [ -124.492881813925138, 89.626098817076169 ], [ -168.75000009188355, 89.866159290571943 ], [ 11.250000091849973, 89.866159292920528 ], [ -33.007118434281203, 89.626098818738257 ] ] ] ] } },
{ "type": "Feature", "properties": { "geogrid_id": "954347670010490316", "seqnum": 40012.0, "lat_c": 54.347670327734825, "lon_c": 10.4903161491617, "res": 9.0, "count_Mammals": 0, "count_Molluscs": 0, "count_Arachnids": 0, "count_Gymnosperms": 0, "count_Sac Fungi": 0, "count_Birds": 1, "count_Insects": 0, "count_Mosses": 0, "count_Flowering Plants": 0, "count_Basidiomycota": 0, "count_Amphibians": 0, "count_Ferns": 0, "count_Reptiles": 0, "unique_species_count": 1.0, "countryCode": "DK" }, "geometry": { "type": "MultiPolygon", "coordinates": [ [ [ [ 10.741316217035886, 54.548842096583222 ], [ 10.997165044644202, 54.275646361257849 ], [ 10.746509661933182, 54.075555587685493 ], [ 10.241511652009656, 54.145671093311719 ], [ 9.98199709265343, 54.416004951847931 ], [ 10.23107785753669, 54.619060810234977 ], [ 10.741316217035886, 54.548842096583222 ] ] ] ] } },
{ "type": "Feature", "properties": { "geogrid_id": "954347670012009684", "seqnum": 40256.0, "lat_c": 54.347670329488189, "lon_c": 12.009683848664732, "res": 9.0, "count_Mammals": 29, "count_Molluscs": 4, "count_Arachnids": 6, "count_Gymnosperms": 0, "count_Sac Fungi": 47, "count_Birds": 308, "count_Insects": 652, "count_Mosses": 0, "count_Flowering Plants": 242, "count_Basidiomycota": 104, "count_Amphibians": 6, "count_Ferns": 0, "count_Reptiles": 3, "unique_species_count": 1401.0, "countryCode": "DK" }, "geometry": { "type": "MultiPolygon", "coordinates": [ [ [ [ 12.268922140262115, 54.619060812017885 ], [ 12.518002905169382, 54.4160049536343 ], [ 12.258488345840256, 54.145671095068572 ], [ 11.753490335921049, 54.075555589409447 ], [ 11.502834953186767, 54.2756463629782 ], [ 11.75868378076675, 54.548842098333012 ], [ 12.268922140262115, 54.619060812017885 ] ] ] ] } },
{ "type": "Feature", "properties": { "geogrid_id": "954390616014291254", "seqnum": 40663.0, "lat_c": 54.390616305982014, "lon_c": 14.291253852855883, "res": 9.0, "count_Mammals": 0, "count_Molluscs": 0, "count_Arachnids": 0, "count_Gymnosperms": 0, "count_Sac Fungi": 0, "count_Birds": 7, "count_Insects": 0, "count_Mosses": 0, "count_Flowering Plants": 0, "count_Basidiomycota": 0, "count_Amphibians": 0, "count_Ferns": 0, "count_Reptiles": 0, "unique_species_count": 7.0, "countryCode": "DK" }, "geometry": { "type": "MultiPolygon", "coordinates": [ [ [ [ 14.563714839277665, 54.65427241486816 ], [ 14.802108268429341, 54.443407826097541 ], [ 14.529667173983105, 54.180706350565089 ], [ 14.021938411208497, 54.126326521641765 ], [ 13.781363456199356, 54.334529473385082 ], [ 14.050635341045576, 54.599795026218949 ], [ 14.563714839277665, 54.65427241486816 ] ] ] ] } },
{ "type": "Feature", "properties": { "geogrid_id": "954474888011250000", "seqnum": 40094.0, "lat_c": 54.474887573519993, "lon_c": 11.249999997807432, "res": 9.0, "count_Mammals": 41, "count_Molluscs": 23, "count_Arachnids": 232, "count_Gymnosperms": 15, "count_Sac Fungi": 277, "count_Birds": 281, "count_Insects": 1729, "count_Mosses": 42, "count_Flowering Plants": 989, "count_Basidiomycota": 677, "count_Amphibians": 11, "count_Ferns": 9, "count_Reptiles": 3, "unique_species_count": 4329.0, "countryCode": "DK" }, "geometry": { "type": "MultiPolygon", "coordinates": [ [ [ [ 11.505463945089964, 54.749177263110568 ], [ 11.75868378076675, 54.548842098333012 ], [ 11.502834953186767, 54.2756463629782 ], [ 10.997165044644202, 54.275646361257849 ], [ 10.741316217035886, 54.548842096583222 ], [ 10.994536052688549, 54.749177261364444 ], [ 11.505463945089964, 54.749177263110568 ] ] ] ] } },
{ "type": "Feature", "properties": { "geogrid_id": "954685639009719406", "seqnum": 39850.0, "lat_c": 54.685639180228343, "lon_c": 9.7194057481454585, "res": 9.0, "count_Mammals": 51, "count_Molluscs": 38, "count_Arachnids": 67, "count_Gymnosperms": 22, "count_Sac Fungi": 357, "count_Birds": 276, "count_Insects": 1348, "count_Mosses": 85, "count_Flowering Plants": 1152, "count_Basidiomycota": 1000, "count_Amphibians": 11, "count_Ferns": 16, "count_Reptiles": 5, "unique_species_count": 4428.0, "countryCode": "DK" }, "geometry": { "type": "MultiPolygon", "coordinates": [ [ [ [ 9.968732510414991, 54.889740985087897 ], [ 10.23107785753669, 54.619060810234977 ], [ 9.98199709265343, 54.416004951847931 ], [ 9.472325092434003, 54.4807447539404 ], [ 9.206415251670496, 54.748667994218359 ], [ 9.453673822996636, 54.954585601609615 ], [ 9.968732510414991, 54.889740985087897 ] ] ] ] } },
{ "type": "Feature", "properties": { "geogrid_id": "954685639012780594", "seqnum": 40338.0, "lat_c": 54.685639182044369, "lon_c": 12.780594249650443, "res": 9.0, "count_Mammals": 1, "count_Molluscs": 0, "count_Arachnids": 0, "count_Gymnosperms": 0, "count_Sac Fungi": 0, "count_Birds": 11, "count_Insects": 2, "count_Mosses": 0, "count_Flowering Plants": 0, "count_Basidiomycota": 0, "count_Amphibians": 0, "count_Ferns": 0, "count_Reptiles": 0, "unique_species_count": 14.0, "countryCode": "DK" }, "geometry": { "type": "MultiPolygon", "coordinates": [ [ [ [ 13.046326174772565, 54.954585603455435 ], [ 13.293584746123429, 54.748667996067503 ], [ 13.027674905386096, 54.48074475575978 ], [ 12.518002905169382, 54.4160049536343 ], [ 12.268922140262115, 54.619060812017885 ], [ 12.53126748735637, 54.889740986900485 ], [ 13.046326174772565, 54.954585603455435 ] ] ] ] } },
{ "type": "Feature", "properties": { "geogrid_id": "954705489015077729", "seqnum": 40744.0, "lat_c": 54.705489332433878, "lon_c": 15.077728810163023, "res": 9.0, "count_Mammals": 0, "count_Molluscs": 0, "count_Arachnids": 0, "count_Gymnosperms": 0, "count_Sac Fungi": 0, "count_Birds": 6, "count_Insects": 2, "count_Mosses": 0, "count_Flowering Plants": 0, "count_Basidiomycota": 0, "count_Amphibians": 0, "count_Ferns": 0, "count_Reptiles": 0, "unique_species_count": 8.0, "countryCode": "DK" }, "geometry": { "type": "MultiPolygon", "coordinates": [ [ [ [ 15.356596445866089, 54.966955088977215 ], [ 15.592583740643761, 54.753519712330117 ], [ 15.313832182930273, 54.492980748580585 ], [ 14.802108268429341, 54.443407826097541 ], [ 14.563714839277665, 54.65427241486816 ], [ 14.839388010434179, 54.917300636356174 ], [ 15.356596445866089, 54.966955088977215 ] ] ] ] } },
{ "type": "Feature", "properties": { "geogrid_id": "954821302010482393", "seqnum": 39932.0, "lat_c": 54.821302098835211, "lon_c": 10.482392893654797, "res": 9.0, "count_Mammals": 39, "count_Molluscs": 54, "count_Arachnids": 61, "count_Gymnosperms": 21, "count_Sac Fungi": 543, "count_Birds": 342, "count_Insects": 2242, "count_Mosses": 104, "count_Flowering Plants": 1392, "count_Basidiomycota": 1078, "count_Amphibians": 12, "count_Ferns": 14, "count_Reptiles": 6, "unique_species_count": 5908.0, "countryCode": "DK" }, "geometry": { "type": "MultiPolygon", "coordinates": [ [ [ [ 10.735967749496552, 55.022719615240597 ], [ 10.994536052688549, 54.749177261364444 ], [ 10.741316217035886, 54.548842096583222 ], [ 10.23107785753669, 54.619060810234977 ], [ 9.968732510414991, 54.889740985087897 ], [ 10.220332081222221, 55.0930409977057 ], [ 10.735967749496552, 55.022719615240597 ] ] ] ] } },
{ "type": "Feature", "properties": { "geogrid_id": "954821302012017607", "seqnum": 40176.0, "lat_c": 54.82130210061456, "lon_c": 12.017607104119664, "res": 9.0, "count_Mammals": 54, "count_Molluscs": 65, "count_Arachnids": 326, "count_Gymnosperms": 25, "count_Sac Fungi": 998, "count_Birds": 340, "count_Insects": 3895, "count_Mosses": 208, "count_Flowering Plants": 1701, "count_Basidiomycota": 1808, "count_Amphibians": 13, "count_Ferns": 21, "count_Reptiles": 6, "unique_species_count": 9460.0, "countryCode": "DK" }, "geometry": { "type": "MultiPolygon", "coordinates": [ [ [ [ 12.279667916524245, 55.093040999514763 ], [ 12.53126748735637, 54.889740986900485 ], [ 12.268922140262115, 54.619060812017885 ], [ 11.75868378076675, 54.548842098333012 ], [ 11.505463945089964, 54.749177263110568 ], [ 11.764032248253228, 55.022719617016314 ], [ 12.279667916524245, 55.093040999514763 ] ] ] ] } },
{ "type": "Feature", "properties": { "geogrid_id": "954864418008176915", "seqnum": 39606.0, "lat_c": 54.864418398073923, "lon_c": 8.1769152163065879, "res": 9.0, "count_Mammals": 0, "count_Molluscs": 0, "count_Arachnids": 0, "count_Gymnosperms": 0, "count_Sac Fungi": 0, "count_Birds": 14, "count_Insects": 2, "count_Mosses": 0, "count_Flowering Plants": 0, "count_Basidiomycota": 0, "count_Amphibians": 0, "count_Ferns": 0, "count_Reptiles": 0, "unique_species_count": 16.0, "countryCode": "DK" }, "geometry": { "type": "MultiPolygon", "coordinates": [ [ [ [ 8.41981139113228, 55.073836898742897 ], [ 8.692216601840775, 54.808233645496962 ], [ 8.449364656771802, 54.599795024333574 ], [ 7.936285158539688, 54.654272412949801 ], [ 7.660611987359282, 54.917300634407731 ], [ 7.901220588943572, 55.128405871174984 ], [ 8.41981139113228, 55.073836898742897 ] ] ] ] } },
{ "type": "Feature", "properties": { "geogrid_id": "954864418014323085", "seqnum": 40582.0, "lat_c": 54.864418399989276, "lon_c": 14.323084781486122, "res": 9.0, "count_Mammals": 0, "count_Molluscs": 5, "count_Arachnids": 0, "count_Gymnosperms": 0, "count_Sac Fungi": 0, "count_Birds": 26, "count_Insects": 1, "count_Mosses": 0, "count_Flowering Plants": 2, "count_Basidiomycota": 2, "count_Amphibians": 0, "count_Ferns": 0, "count_Reptiles": 0, "unique_species_count": 36.0, "countryCode": "DK" }, "geometry": { "type": "MultiPolygon", "coordinates": [ [ [ [ 14.598779408824749, 55.128405873120457 ], [ 14.839388010434179, 54.917300636356174 ], [ 14.563714839277665, 54.65427241486816 ], [ 14.050635341045576, 54.599795026218949 ], [ 13.807783395952086, 54.808233647379211 ], [ 14.080188606635408, 55.073836900655159 ], [ 14.598779408824749, 55.128405873120457 ] ] ] ] } },
{ "type": "Feature", "properties": { "geogrid_id": "954948667011250000", "seqnum": 40013.0, "lat_c": 54.948666604825675, "lon_c": 11.249999997754101, "res": 9.0, "count_Mammals": 42, "count_Molluscs": 34, "count_Arachnids": 86, "count_Gymnosperms": 23, "count_Sac Fungi": 482, "count_Birds": 293, "count_Insects": 2070, "count_Mosses": 81, "count_Flowering Plants": 1377, "count_Basidiomycota": 1127, "count_Amphibians": 13, "count_Ferns": 16, "count_Reptiles": 6, "unique_species_count": 5650.0, "countryCode": "DK" }, "geometry": { "type": "MultiPolygon", "coordinates": [ [ [ [ 11.508171846331173, 55.223304073054855 ], [ 11.764032248253228, 55.022719617016314 ], [ 11.505463945089964, 54.749177263110568 ], [ 10.994536052688549, 54.749177261364444 ], [ 10.735967749496552, 55.022719615240597 ], [ 10.991828151393586, 55.223304071282868 ], [ 11.508171846331173, 55.223304073054855 ] ] ] ] } },
{ "type": "Feature", "properties": { "geogrid_id": "955002193015887833", "seqnum": 59207.0, "lat_c": 55.002193131583049, "lon_c": 15.887833156468533, "res": 9.0, "count_Mammals": 0, "count_Molluscs": 2, "count_Arachnids": 0, "count_Gymnosperms": 0, "count_Sac Fungi": 0, "count_Birds": 0, "count_Insects": 0, "count_Mosses": 0, "count_Flowering Plants": 0, "count_Basidiomycota": 0, "count_Amphibians": 0, "count_Ferns": 0, "count_Reptiles": 0, "unique_species_count": 2.0, "countryCode": "DK" }, "geometry": { "type": "MultiPolygon", "coordinates": [ [ [ [ 15.652904164403415, 55.215898095938023 ], [ 16.188540637315512, 55.249929887584173 ], [ 16.420090615766284, 55.035293204847527 ], [ 16.120532515461907, 54.787812824468688 ], [ 15.592583741945147, 54.753519710024321 ], [ 15.356596447184636, 54.966955086670694 ], [ 15.652904164403415, 55.215898095938023 ] ] ] ] } },
{ "type": "Feature", "properties": { "geogrid_id": "955015923008937331", "seqnum": 39688.0, "lat_c": 55.015923206095714, "lon_c": 8.9373305232284856, "res": 9.0, "count_Mammals": 53, "count_Molluscs": 89, "count_Arachnids": 212, "count_Gymnosperms": 27, "count_Sac Fungi": 481, "count_Birds": 355, "count_Insects": 2983, "count_Mosses": 115, "count_Flowering Plants": 1489, "count_Basidiomycota": 1156, "count_Amphibians": 12, "count_Ferns": 16, "count_Reptiles": 6, "unique_species_count": 6994.0, "countryCode": "DK" }, "geometry": { "type": "MultiPolygon", "coordinates": [ [ [ [ 9.184735262522883, 55.222854645323402 ], [ 9.453673822996636, 54.954585601609615 ], [ 9.206415251670496, 54.748667994218359 ], [ 8.692216601840775, 54.808233645496962 ], [ 8.41981139113228, 55.073836898742897 ], [ 8.665003507651681, 55.282518930864896 ], [ 9.184735262522883, 55.222854645323402 ] ] ] ] } },
{ "type": "Feature", "properties": { "geogrid_id": "955015923013562669", "seqnum": 40420.0, "lat_c": 55.015923207974758, "lon_c": 13.562669474539494, "res": 9.0, "count_Mammals": 0, "count_Molluscs": 0, "count_Arachnids": 0, "count_Gymnosperms": 0, "count_Sac Fungi": 0, "count_Birds": 2, "count_Insects": 0, "count_Mosses": 0, "count_Flowering Plants": 4, "count_Basidiomycota": 0, "count_Amphibians": 0, "count_Ferns": 0, "count_Reptiles": 0, "unique_species_count": 6.0, "countryCode": "DK" }, "geometry": { "type": "MultiPolygon", "coordinates": [ [ [ [ 13.834996490090603, 55.282518932773989 ], [ 14.080188606635408, 55.073836900655159 ], [ 13.807783395952086, 54.808233647379211 ], [ 13.293584746123429, 54.748667996067503 ], [ 13.046326174772565, 54.954585603455435 ], [ 13.31526473521984, 55.222854647199163 ], [ 13.834996490090603, 55.282518932773989 ] ] ] ] } },
{ "type": "Feature", "properties": { "geogrid_id": "955095023005012433", "seqnum": 21060.0, "lat_c": 55.095023179148299, "lon_c": 5.0124332714810826, "res": 9.0, "count_Mammals": 1, "count_Molluscs": 0, "count_Arachnids": 0, "count_Gymnosperms": 0, "count_Sac Fungi": 0, "count_Birds": 3, "count_Insects": 0, "count_Mosses": 0, "count_Flowering Plants": 0, "count_Basidiomycota": 0, "count_Amphibians": 0, "count_Ferns": 0, "count_Reptiles": 0, "unique_species_count": 4.0, "countryCode": "DK" }, "geometry": { "type": "MultiPolygon", "coordinates": [ [ [ [ 5.546656496589433, 55.06624135592206 ], [ 5.320688748162565, 54.850039008907416 ], [ 4.789908730151488, 54.877945124221611 ], [ 4.47726452024967, 55.121623778735298 ], [ 4.698358043679979, 55.338912239770139 ], [ 5.23706527119357, 55.311452355662787 ], [ 5.546656496589433, 55.06624135592206 ] ] ] ] } },
{ "type": "Feature", "properties": { "geogrid_id": "955159723009703216", "seqnum": 39769.0, "lat_c": 55.159723306888779, "lon_c": 9.7032155187027591, "res": 9.0, "count_Mammals": 50, "count_Molluscs": 81, "count_Arachnids": 150, "count_Gymnosperms": 28, "count_Sac Fungi": 490, "count_Birds": 327, "count_Insects": 2875, "count_Mosses": 141, "count_Flowering Plants": 1655, "count_Basidiomycota": 1242, "count_Amphibians": 13, "count_Ferns": 18, "count_Reptiles": 5, "unique_species_count": 7075.0, "countryCode": "DK" }, "geometry": { "type": "MultiPolygon", "coordinates": [ [ [ [ 9.955068396061684, 55.364071890293971 ], [ 10.220332081222221, 55.0930409977057 ], [ 9.968732510414991, 54.889740985087897 ], [ 9.453673822996636, 54.954585601609615 ], [ 9.184735262522883, 55.222854645323402 ], [ 9.434459957624675, 55.429018801318158 ], [ 9.955068396061684, 55.364071890293971 ] ] ] ] } },
{ "type": "Feature", "properties": { "geogrid_id": "955159723012796784", "seqnum": 40257.0, "lat_c": 55.159723308731188, "lon_c": 12.796784479041357, "res": 9.0, "count_Mammals": 34, "count_Molluscs": 52, "count_Arachnids": 185, "count_Gymnosperms": 13, "count_Sac Fungi": 602, "count_Birds": 302, "count_Insects": 1808, "count_Mosses": 149, "count_Flowering Plants": 942, "count_Basidiomycota": 1208, "count_Amphibians": 8, "count_Ferns": 13, "count_Reptiles": 5, "unique_species_count": 5321.0, "countryCode": "DK" }, "geometry": { "type": "MultiPolygon", "coordinates": [ [ [ [ 13.065540040092417, 55.429018803190537 ], [ 13.31526473521984, 55.222854647199163 ], [ 13.046326174772565, 54.954585603455435 ], [ 12.53126748735637, 54.889740986900485 ], [ 12.279667916524245, 55.093040999514763 ], [ 12.544931601656982, 55.364071892132891 ], [ 13.065540040092417, 55.429018803190537 ] ] ] ] } },
{ "type": "Feature", "properties": { "geogrid_id": "955179706007381658", "seqnum": 39444.0, "lat_c": 55.17970563920602, "lon_c": 7.3816579343086133, "res": 9.0, "count_Mammals": 0, "count_Molluscs": 0, "count_Arachnids": 0, "count_Gymnosperms": 0, "count_Sac Fungi": 0, "count_Birds": 25, "count_Insects": 0, "count_Mosses": 0, "count_Flowering Plants": 0, "count_Basidiomycota": 0, "count_Amphibians": 0, "count_Ferns": 0, "count_Reptiles": 0, "unique_species_count": 25.0, "countryCode": "DK" }, "geometry": { "type": "MultiPolygon", "coordinates": [ [ [ [ 7.622211015477869, 55.391762575564833 ], [ 7.901220588943572, 55.128405871174984 ], [ 7.660611987359282, 54.917300634407731 ], [ 7.14340355192902, 54.966955086995696 ], [ 6.847095837771648, 55.215898097904024 ], [ 7.084285845907087, 55.428919136643742 ], [ 7.622211015477869, 55.391762575564833 ] ] ] ] } },
{ "type": "Feature", "properties": { "geogrid_id": "955179706015118342", "seqnum": 59127.0, "lat_c": 55.179705638877458, "lon_c": 15.118342064797297, "res": 9.0, "count_Mammals": 44, "count_Molluscs": 34, "count_Arachnids": 198, "count_Gymnosperms": 27, "count_Sac Fungi": 635, "count_Birds": 365, "count_Insects": 3019, "count_Mosses": 214, "count_Flowering Plants": 1502, "count_Basidiomycota": 1359, "count_Amphibians": 12, "count_Ferns": 24, "count_Reptiles": 5, "unique_species_count": 7438.0, "countryCode": "DK" }, "geometry": { "type": "MultiPolygon", "coordinates": [ [ [ [ 14.87778898362023, 55.391762575232654 ], [ 15.415714156292999, 55.428919134680484 ], [ 15.652904164403415, 55.215898095938023 ], [ 15.356596447184636, 54.966955086670694 ], [ 14.839388010434179, 54.917300636356174 ], [ 14.598779408824749, 55.128405873120457 ], [ 14.87778898362023, 55.391762575232654 ] ] ] ] } },
{ "type": "Feature", "properties": { "geogrid_id": "955281786005774774", "seqnum": 20980.0, "lat_c": 55.281786353685867, "lon_c": 5.774774064645614, "res": 9.0, "count_Mammals": 1, "count_Molluscs": 0, "count_Arachnids": 0, "count_Gymnosperms": 0, "count_Sac Fungi": 0, "count_Birds": 6, "count_Insects": 0, "count_Mosses": 0, "count_Flowering Plants": 0, "count_Basidiomycota": 0, "count_Amphibians": 0, "count_Ferns": 0, "count_Reptiles": 0, "unique_species_count": 7.0, "countryCode": "DK" }, "geometry": { "type": "MultiPolygon", "coordinates": [ [ [ [ 6.311459364804691, 55.249929889537107 ], [ 6.07990938632991, 55.035293206802933 ], [ 5.546656496589433, 55.06624135592206 ], [ 5.23706527119357, 55.311452355662787 ], [ 5.463835145806977, 55.527224695040999 ], [ 6.005072238347317, 55.496665836088802 ], [ 6.311459364804691, 55.249929889537107 ] ] ] ] } },
{ "type": "Feature", "properties": { "geogrid_id": "955281786016725226", "seqnum": 59370.0, "lat_c": 55.281786351746369, "lon_c": 16.72522593741995, "res": 9.0, "count_Mammals": 0, "count_Molluscs": 0, "count_Arachnids": 0, "count_Gymnosperms": 0, "count_Sac Fungi": 0, "count_Birds": 1, "count_Insects": 0, "count_Mosses": 0, "count_Flowering Plants": 0, "count_Basidiomycota": 0, "count_Amphibians": 0, "count_Ferns": 0, "count_Reptiles": 0, "unique_species_count": 1.0, "countryCode": "DK" }, "geometry": { "type": "MultiPolygon", "coordinates": [ [ [ [ 16.494927763742012, 55.496665834151649 ], [ 17.036164856227312, 55.527224693117489 ], [ 17.262934730817594, 55.31145235373711 ], [ 16.95334350545275, 55.066241353980281 ], [ 16.420090615766284, 55.035293204847527 ], [ 16.188540637315512, 55.249929887584173 ], [ 16.494927763742012, 55.496665834151649 ] ] ] ] } },
{ "type": "Feature", "properties": { "geogrid_id": "955295530010474231", "seqnum": 39851.0, "lat_c": 55.295529955933439, "lon_c": 10.474231380044868, "res": 9.0, "count_Mammals": 49, "count_Molluscs": 74, "count_Arachnids": 262, "count_Gymnosperms": 29, "count_Sac Fungi": 712, "count_Birds": 323, "count_Insects": 4207, "count_Mosses": 182, "count_Flowering Plants": 1877, "count_Basidiomycota": 1752, "count_Amphibians": 11, "count_Ferns": 20, "count_Reptiles": 6, "unique_species_count": 9504.0, "countryCode": "DK" }, "geometry": { "type": "MultiPolygon", "coordinates": [ [ [ [ 10.730457539039747, 55.497198504938034 ], [ 10.991828151393586, 55.223304071282868 ], [ 10.735967749496552, 55.022719615240597 ], [ 10.220332081222221, 55.0930409977057 ], [ 9.955068396061684, 55.364071890293971 ], [ 10.20926076564302, 55.56762203407898 ], [ 10.730457539039747, 55.497198504938034 ] ] ] ] } },
{ "type": "Feature", "properties": { "geogrid_id": "955295530012025769", "seqnum": 40095.0, "lat_c": 55.295529957738893, "lon_c": 12.02576861767635, "res": 9.0, "count_Mammals": 56, "count_Molluscs": 61, "count_Arachnids": 288, "count_Gymnosperms": 29, "count_Sac Fungi": 1009, "count_Birds": 353, "count_Insects": 3750, "count_Mosses": 179, "count_Flowering Plants": 1767, "count_Basidiomycota": 1917, "count_Amphibians": 13, "count_Ferns": 19, "count_Reptiles": 6, "unique_species_count": 9447.0, "countryCode": "DK" }, "geometry": { "type": "MultiPolygon", "coordinates": [ [ [ [ 12.290739232049823, 55.567622035914312 ], [ 12.544931601656982, 55.364071892132891 ], [ 12.279667916524245, 55.093040999514763 ], [ 11.764032248253228, 55.022719617016314 ], [ 11.508171846331173, 55.223304073054855 ], [ 11.769542458655867, 55.497198506739785 ], [ 12.290739232049823, 55.567622035914312 ] ] ] ] } },
{ "type": "Feature", "properties": { "geogrid_id": "955338796008144128", "seqnum": 39525.0, "lat_c": 55.338796146765013, "lon_c": 8.1441277405686208, "res": 9.0, "count_Mammals": 47, "count_Molluscs": 87, "count_Arachnids": 113, "count_Gymnosperms": 18, "count_Sac Fungi": 258, "count_Birds": 395, "count_Insects": 1650, "count_Mosses": 80, "count_Flowering Plants": 1052, "count_Basidiomycota": 599, "count_Amphibians": 7, "count_Ferns": 12, "count_Reptiles": 5, "unique_species_count": 4323.0, "countryCode": "DK" }, "geometry": { "type": "MultiPolygon", "coordinates": [ [ [ [ 8.389364563768334, 55.548462458277761 ], [ 8.665003507651681, 55.282518930864896 ], [ 8.41981139113228, 55.073836898742897 ], [ 7.901220588943572, 55.128405871174984 ], [ 7.622211015477869, 55.391762575564833 ], [ 7.865094817463761, 55.60311699256593 ], [ 8.389364563768334, 55.548462458277761 ] ] ] ] } },
{ "type": "Feature", "properties": { "geogrid_id": "955338796014355872", "seqnum": 40501.0, "lat_c": 55.338796148707431, "lon_c": 14.355872257174168, "res": 9.0, "count_Mammals": 23, "count_Molluscs": 1, "count_Arachnids": 13, "count_Gymnosperms": 8, "count_Sac Fungi": 126, "count_Birds": 254, "count_Insects": 185, "count_Mosses": 25, "count_Flowering Plants": 493, "count_Basidiomycota": 123, "count_Amphibians": 7, "count_Ferns": 10, "count_Reptiles": 5, "unique_species_count": 1273.0, "countryCode": "DK" }, "geometry": { "type": "MultiPolygon", "coordinates": [ [ [ [ 14.634905180254425, 55.603116994538652 ], [ 14.877788982266365, 55.391762577540568 ], [ 14.598779408824749, 55.128405873120457 ], [ 14.080188606635408, 55.073836900655159 ], [ 13.834996490090603, 55.282518932773989 ], [ 14.110635433948524, 55.548462460217046 ], [ 14.634905180254425, 55.603116994538652 ] ] ] ] } },
{ "type": "Feature", "properties": { "geogrid_id": "955423046011250000", "seqnum": 39933.0, "lat_c": 55.423046091889965, "lon_c": 11.249999997699424, "res": 9.0, "count_Mammals": 47, "count_Molluscs": 105, "count_Arachnids": 227, "count_Gymnosperms": 25, "count_Sac Fungi": 888, "count_Birds": 323, "count_Insects": 2912, "count_Mosses": 166, "count_Flowering Plants": 1665, "count_Basidiomycota": 1882, "count_Amphibians": 14, "count_Ferns": 16, "count_Reptiles": 7, "unique_species_count": 8277.0, "countryCode": "DK" }, "geometry": { "type": "MultiPolygon", "coordinates": [ [ [ [ 11.510962099873323, 55.698037197657008 ], [ 11.769542458655867, 55.497198506739785 ], [ 11.508171846331173, 55.223304073054855 ], [ 10.991828151393584, 55.223304071282868 ], [ 10.730457539039747, 55.497198504938034 ], [ 10.989037897796322, 55.698037195859051 ], [ 11.510962099873323, 55.698037197657008 ] ] ] ] } },
{ "type": "Feature", "properties": { "geogrid_id": "955463892006545231", "seqnum": 20899.0, "lat_c": 55.463892020346847, "lon_c": 6.5452309957277137, "res": 9.0, "count_Mammals": 2, "count_Molluscs": 0, "count_Arachnids": 0, "count_Gymnosperms": 0, "count_Sac Fungi": 0, "count_Birds": 21, "count_Insects": 1, "count_Mosses": 0, "count_Flowering Plants": 0, "count_Basidiomycota": 10, "count_Amphibians": 0, "count_Ferns": 0, "count_Reptiles": 0, "unique_species_count": 34.0, "countryCode": "DK" }, "geometry": { "type": "MultiPolygon", "coordinates": [ [ [ [ 7.084285845907087, 55.428919136643742 ], [ 6.847095837771648, 55.215898097904024 ], [ 6.311459364804691, 55.249929889537107 ], [ 6.005072238347317, 55.496665836088802 ], [ 6.23758223876804, 55.710871540295756 ], [ 6.781255815551173, 55.677171122910302 ], [ 7.084285845907087, 55.428919136643742 ] ] ] ] } },
{ "type": "Feature", "properties": { "geogrid_id": "955463892015954769", "seqnum": 59289.0, "lat_c": 55.463892018396443, "lon_c": 15.954769006416889, "res": 9.0, "count_Mammals": 0, "count_Molluscs": 3, "count_Arachnids": 0, "count_Gymnosperms": 0, "count_Sac Fungi": 0, "count_Birds": 2, "count_Insects": 0, "count_Mosses": 0, "count_Flowering Plants": 0, "count_Basidiomycota": 0, "count_Amphibians": 0, "count_Ferns": 0, "count_Reptiles": 0, "unique_species_count": 5.0, "countryCode": "DK" }, "geometry": { "type": "MultiPolygon", "coordinates": [ [ [ [ 15.718744186618224, 55.677171120962512 ], [ 16.262417763345447, 55.710871538361026 ], [ 16.494927763742012, 55.496665834151649 ], [ 16.188540637315512, 55.249929887584173 ], [ 15.652904164403415, 55.215898095938023 ], [ 15.415714156292999, 55.428919134680484 ], [ 15.718744186618224, 55.677171120962512 ] ] ] ] } },
{ "type": "Feature", "properties": { "geogrid_id": "955490455008912522", "seqnum": 39607.0, "lat_c": 55.490455405144914, "lon_c": 8.9125217256403175, "res": 9.0, "count_Mammals": 54, "count_Molluscs": 50, "count_Arachnids": 199, "count_Gymnosperms": 26, "count_Sac Fungi": 480, "count_Birds": 346, "count_Insects": 2482, "count_Mosses": 174, "count_Flowering Plants": 1645, "count_Basidiomycota": 1078, "count_Amphibians": 11, "count_Ferns": 21, "count_Reptiles": 5, "unique_species_count": 6571.0, "countryCode": "DK" }, "geometry": { "type": "MultiPolygon", "coordinates": [ [ [ [ 9.162396538587723, 55.697637125151914 ], [ 9.434459957624675, 55.429018801318158 ], [ 9.184735262522883, 55.222854645323402 ], [ 8.665003507651681, 55.282518930864896 ], [ 8.389364563768334, 55.548462458277761 ], [ 8.636962553257959, 55.757395691820911 ], [ 9.162396538587723, 55.697637125151914 ] ] ] ] } },
{ "type": "Feature", "properties": { "geogrid_id": "955555552004921545", "seqnum": 20898.0, "lat_c": 55.555552161673162, "lon_c": 4.9215450282393736, "res": 9.0, "count_Mammals": 3, "count_Molluscs": 2, "count_Arachnids": 0, "count_Gymnosperms": 0, "count_Sac Fungi": 0, "count_Birds": 10, "count_Insects": 2, "count_Mosses": 0, "count_Flowering Plants": 0, "count_Basidiomycota": 0, "count_Amphibians": 0, "count_Ferns": 0, "count_Reptiles": 0, "unique_species_count": 17.0, "countryCode": "DK" }, "geometry": { "type": "MultiPolygon", "coordinates": [ [ [ [ 5.463835145806977, 55.527224695040999 ], [ 5.23706527119357, 55.311452355662787 ], [ 4.698358043679979, 55.338912239770139 ], [ 4.378226866856973, 55.581631198897291 ], [ 4.59985398030503, 55.798464349776815 ], [ 5.146855917289695, 55.771535706308086 ], [ 5.463835145806977, 55.527224695040999 ] ] ] ] } },
{ "type": "Feature", "properties": { "geogrid_id": "955634406009686534", "seqnum": 39689.0, "lat_c": 55.634406409416982, "lon_c": 9.6865340401329068, "res": 9.0, "count_Mammals": 58, "count_Molluscs": 128, "count_Arachnids": 260, "count_Gymnosperms": 30, "count_Sac Fungi": 900, "count_Birds": 326, "count_Insects": 3054, "count_Mosses": 181, "count_Flowering Plants": 1799, "count_Basidiomycota": 1917, "count_Amphibians": 11, "count_Ferns": 22, "count_Reptiles": 7, "unique_species_count": 8693.0, "countryCode": "DK" }, "geometry": { "type": "MultiPolygon", "coordinates": [ [ [ [ 9.940987232334987, 55.839008100403106 ], [ 10.20926076564302, 55.56762203407898 ], [ 9.955068396061684, 55.364071890293971 ], [ 9.434459957624675, 55.429018801318158 ], [ 9.162396538587723, 55.697637125151914 ], [ 9.414658771898335, 55.904054785371514 ], [ 9.940987232334987, 55.839008100403106 ] ] ] ] } },
{ "type": "Feature", "properties": { "geogrid_id": "955634406012813466", "seqnum": 40177.0, "lat_c": 55.634406411285902, "lon_c": 12.813465957558169, "res": 9.0, "count_Mammals": 53, "count_Molluscs": 77, "count_Arachnids": 278, "count_Gymnosperms": 32, "count_Sac Fungi": 1491, "count_Birds": 363, "count_Insects": 4025, "count_Mosses": 208, "count_Flowering Plants": 2018, "count_Basidiomycota": 1961, "count_Amphibians": 14, "count_Ferns": 17, "count_Reptiles": 10, "unique_species_count": 10547.0, "countryCode": "DK" }, "geometry": { "type": "MultiPolygon", "coordinates": [ [ [ [ 13.085341225765385, 55.904054787270574 ], [ 13.337603459102581, 55.697637127054406 ], [ 13.065540040092417, 55.429018803190537 ], [ 12.544931601656982, 55.364071892132891 ], [ 12.290739232049823, 55.567622035914312 ], [ 12.559012765329687, 55.839008102268465 ], [ 13.085341225765385, 55.904054787270574 ] ] ] ] } },
{ "type": "Feature", "properties": { "geogrid_id": "955641248007323769", "seqnum": 20818.0, "lat_c": 55.641247559757765, "lon_c": 7.3237686733723786, "res": 9.0, "count_Mammals": 1, "count_Molluscs": 0, "count_Arachnids": 0, "count_Gymnosperms": 0, "count_Sac Fungi": 0, "count_Birds": 29, "count_Insects": 0, "count_Mosses": 0, "count_Flowering Plants": 0, "count_Basidiomycota": 0, "count_Amphibians": 0, "count_Ferns": 0, "count_Reptiles": 0, "unique_species_count": 30.0, "countryCode": "DK" }, "geometry": { "type": "MultiPolygon", "coordinates": [ [ [ [ 7.865094820655346, 55.603116994202814 ], [ 7.622211018635531, 55.391762577208397 ], [ 7.084285845907087, 55.428919136643742 ], [ 6.781255815551173, 55.677171122910302 ], [ 7.019565791615609, 55.889758616662853 ], [ 7.565576545569732, 55.852874567824429 ], [ 7.865094820655346, 55.603116994202814 ] ] ] ] } },
{ "type": "Feature", "properties": { "geogrid_id": "955641248015176231", "seqnum": 59208.0, "lat_c": 55.641247557797314, "lon_c": 15.176231328853133, "res": 9.0, "count_Mammals": 0, "count_Molluscs": 3, "count_Arachnids": 0, "count_Gymnosperms": 0, "count_Sac Fungi": 0, "count_Birds": 3, "count_Insects": 2, "count_Mosses": 0, "count_Flowering Plants": 0, "count_Basidiomycota": 0, "count_Amphibians": 0, "count_Ferns": 0, "count_Reptiles": 0, "unique_species_count": 8.0, "countryCode": "DK" }, "geometry": { "type": "MultiPolygon", "coordinates": [ [ [ [ 14.934423456681614, 55.852874565866863 ], [ 15.480434210578986, 55.889758614717756 ], [ 15.718744186618224, 55.677171120962512 ], [ 15.415714156292999, 55.428919134680484 ], [ 14.87778898362023, 55.391762575232654 ], [ 14.634905181626461, 55.603116992230092 ], [ 14.934423456681614, 55.852874565866863 ] ] ] ] } },
{ "type": "Feature", "properties": { "geogrid_id": "955742332005692774", "seqnum": 20817.0, "lat_c": 55.742332147317143, "lon_c": 5.6927737521139283, "res": 9.0, "count_Mammals": 2, "count_Molluscs": 0, "count_Arachnids": 0, "count_Gymnosperms": 0, "count_Sac Fungi": 0, "count_Birds": 8, "count_Insects": 0, "count_Mosses": 0, "count_Flowering Plants": 0, "count_Basidiomycota": 0, "count_Amphibians": 0, "count_Ferns": 0, "count_Reptiles": 0, "unique_species_count": 10.0, "countryCode": "DK" }, "geometry": { "type": "MultiPolygon", "coordinates": [ [ [ [ 6.23758223876804, 55.710871540295756 ], [ 6.005072238347317, 55.496665836088802 ], [ 5.463835145806977, 55.527224695040999 ], [ 5.146855917289695, 55.771535706308086 ], [ 5.374321602533054, 55.986854947899836 ], [ 5.923912390946412, 55.956766569176963 ], [ 6.23758223876804, 55.710871540295756 ] ] ] ] } },
{ "type": "Feature", "properties": { "geogrid_id": "955770364010465821", "seqnum": 39770.0, "lat_c": 55.7703643209625, "lon_c": 10.465821187151505, "res": 9.0, "count_Mammals": 41, "count_Molluscs": 70, "count_Arachnids": 133, "count_Gymnosperms": 23, "count_Sac Fungi": 1060, "count_Birds": 325, "count_Insects": 2793, "count_Mosses": 111, "count_Flowering Plants": 1507, "count_Basidiomycota": 1411, "count_Amphibians": 13, "count_Ferns": 17, "count_Reptiles": 5, "unique_species_count": 7509.0, "countryCode": "DK" }, "geometry": { "type": "MultiPolygon", "coordinates": [ [ [ [ 10.72477846483093, 55.972289232579563 ], [ 10.989037897796322, 55.698037195859051 ], [ 10.730457539039747, 55.497198504938034 ], [ 10.20926076564302, 55.56762203407898 ], [ 9.940987232334987, 55.839008100403106 ], [ 10.197849543779872, 56.042814398747907 ], [ 10.72477846483093, 55.972289232579563 ] ] ] ] } },
{ "type": "Feature", "properties": { "geogrid_id": "955770364012034179", "seqnum": 40014.0, "lat_c": 55.770364322794158, "lon_c": 12.034178810515142, "res": 9.0, "count_Mammals": 54, "count_Molluscs": 132, "count_Arachnids": 450, "count_Gymnosperms": 30, "count_Sac Fungi": 1984, "count_Birds": 372, "count_Insects": 4692, "count_Mosses": 307, "count_Flowering Plants": 2251, "count_Basidiomycota": 2621, "count_Amphibians": 11, "count_Ferns": 26, "count_Reptiles": 9, "unique_species_count": 12939.0, "countryCode": "DK" }, "geometry": { "type": "MultiPolygon", "coordinates": [ [ [ [ 12.302150453858006, 56.042814400609629 ], [ 12.559012765329687, 55.839008102268465 ], [ 12.290739232049823, 55.567622035914312 ], [ 11.769542458655867, 55.497198506739785 ], [ 11.510962099873323, 55.698037197657008 ], [ 11.775221532809143, 55.972289234407455 ], [ 12.302150453858006, 56.042814400609629 ] ] ] ] } },
{ "type": "Feature", "properties": { "geogrid_id": "955813760008110342", "seqnum": 39445.0, "lat_c": 55.813759872328127, "lon_c": 8.1103417742389254, "res": 9.0, "count_Mammals": 49, "count_Molluscs": 71, "count_Arachnids": 178, "count_Gymnosperms": 23, "count_Sac Fungi": 350, "count_Birds": 349, "count_Insects": 1953, "count_Mosses": 113, "count_Flowering Plants": 1288, "count_Basidiomycota": 812, "count_Amphibians": 8, "count_Ferns": 15, "count_Reptiles": 5, "unique_species_count": 5214.0, "countryCode": "DK" }, "geometry": { "type": "MultiPolygon", "coordinates": [ [ [ [ 8.357984732490381, 56.023682080285049 ], [ 8.636962553257959, 55.757395691820911 ], [ 8.389364563768334, 55.548462458277761 ], [ 7.865094817463761, 55.60311699256593 ], [ 7.565576545569732, 55.852874567824429 ], [ 7.809742111548853, 56.063791249732958 ], [ 8.357984732490381, 56.023682080285049 ] ] ] ] } },
{ "type": "Feature", "properties": { "geogrid_id": "955823100004051793", "seqnum": 20816.0, "lat_c": 55.823099518262069, "lon_c": 4.0517927996196859, "res": 9.0, "count_Mammals": 7, "count_Molluscs": 4, "count_Arachnids": 0, "count_Gymnosperms": 0, "count_Sac Fungi": 0, "count_Birds": 11, "count_Insects": 0, "count_Mosses": 0, "count_Flowering Plants": 0, "count_Basidiomycota": 0, "count_Amphibians": 0, "count_Ferns": 0, "count_Reptiles": 0, "unique_species_count": 22.0, "countryCode": "DK" }, "geometry": { "type": "MultiPolygon", "coordinates": [ [ [ [ 4.59985398030503, 55.798464349776815 ], [ 4.378226866856972, 55.581631198897291 ], [ 3.833905243465467, 55.605444108003987 ], [ 3.502696770552265, 55.845421892280761 ], [ 3.718797697731644, 56.063230669752016 ], [ 4.271739341904746, 56.040106839302346 ], [ 4.59985398030503, 55.798464349776815 ] ] ] ] } },
{ "type": "Feature", "properties": { "geogrid_id": "955898036011250000", "seqnum": 39852.0, "lat_c": 55.898036484475426, "lon_c": 11.249999997643346, "res": 9.0, "count_Mammals": 41, "count_Molluscs": 59, "count_Arachnids": 215, "count_Gymnosperms": 21, "count_Sac Fungi": 683, "count_Birds": 332, "count_Insects": 2732, "count_Mosses": 131, "count_Flowering Plants": 1457, "count_Basidiomycota": 1287, "count_Amphibians": 13, "count_Ferns": 11, "count_Reptiles": 6, "unique_species_count": 6988.0, "countryCode": "DK" }, "geometry": { "type": "MultiPolygon", "coordinates": [ [ [ [ 11.513838355200612, 56.173387149761055 ], [ 11.775221532809143, 55.972289234407455 ], [ 11.510962099873323, 55.698037197657008 ], [ 10.989037897796322, 55.698037195859051 ], [ 10.72477846483093, 55.972289232579563 ], [ 10.986161642412501, 56.173387147937021 ], [ 11.513838355200612, 56.173387149761055 ] ] ] ] } },
{ "type": "Feature", "properties": { "geogrid_id": "955924395006472336", "seqnum": 20737.0, "lat_c": 55.924395104585287, "lon_c": 6.4723357251908666, "res": 9.0, "count_Mammals": 2, "count_Molluscs": 8, "count_Arachnids": 0, "count_Gymnosperms": 0, "count_Sac Fungi": 0, "count_Birds": 17, "count_Insects": 0, "count_Mosses": 0, "count_Flowering Plants": 0, "count_Basidiomycota": 1, "count_Amphibians": 0, "count_Ferns": 0, "count_Reptiles": 0, "unique_species_count": 28.0, "countryCode": "DK" }, "geometry": { "type": "MultiPolygon", "coordinates": [ [ [ [ 7.019565791615609, 55.889758616662853 ], [ 6.781255815551173, 55.677171122910302 ], [ 6.23758223876804, 55.710871540295756 ], [ 5.923912390946412, 55.956766569176963 ], [ 6.157282810764954, 56.170519721813683 ], [ 6.709364798051642, 56.137228066152417 ], [ 7.019565791615609, 55.889758616662853 ] ] ] ] } },
{ "type": "Feature", "properties": { "geogrid_id": "955965587008886954", "seqnum": 39526.0, "lat_c": 55.965586620376413, "lon_c": 8.8869535763972323, "res": 9.0, "count_Mammals": 48, "count_Molluscs": 32, "count_Arachnids": 133, "count_Gymnosperms": 29, "count_Sac Fungi": 558, "count_Birds": 284, "count_Insects": 2196, "count_Mosses": 176, "count_Flowering Plants": 1485, "count_Basidiomycota": 1205, "count_Amphibians": 9, "count_Ferns": 20, "count_Reptiles": 5, "unique_species_count": 6180.0, "countryCode": "DK" }, "geometry": { "type": "MultiPolygon", "coordinates": [ [ [ [ 9.139369872286656, 56.173025901646362 ], [ 9.414658771898335, 55.904054785371514 ], [ 9.162396538587723, 55.697637125151914 ], [ 8.636962553257959, 55.757395691820911 ], [ 8.357984732490381, 56.023682080285049 ], [ 8.608056952053346, 56.232874362846431 ], [ 9.139369872286656, 56.173025901646362 ] ] ] ] } },
{ "type": "Feature", "properties": { "geogrid_id": "956014642004823589", "seqnum": 20736.0, "lat_c": 56.014641519409665, "lon_c": 4.8235888730585783, "res": 9.0, "count_Mammals": 2, "count_Molluscs": 3, "count_Arachnids": 0, "count_Gymnosperms": 0, "count_Sac Fungi": 0, "count_Birds": 16, "count_Insects": 0, "count_Mosses": 0, "count_Flowering Plants": 0, "count_Basidiomycota": 0, "count_Amphibians": 0, "count_Ferns": 0, "count_Reptiles": 0, "unique_species_count": 21.0, "countryCode": "DK" }, "geometry": { "type": "MultiPolygon", "coordinates": [ [ [ [ 5.374321602533054, 55.986854947899836 ], [ 5.146855917289695, 55.771535706308086 ], [ 4.59985398030503, 55.798464349776815 ], [ 4.271739341904746, 56.040106839302346 ], [ 4.493775248665519, 56.256458498361624 ], [ 5.049462432668457, 56.230154914465984 ], [ 5.374321602533054, 55.986854947899836 ] ] ] ] } },
{ "type": "Feature", "properties": { "geogrid_id": "956083992003164788", "seqnum": 20735.0, "lat_c": 56.083991902444446, "lon_c": 3.1647880974827678, "res": 9.0, "count_Mammals": 4, "count_Molluscs": 0, "count_Arachnids": 0, "count_Gymnosperms": 0, "count_Sac Fungi": 0, "count_Birds": 6, "count_Insects": 0, "count_Mosses": 0, "count_Flowering Plants": 0, "count_Basidiomycota": 0, "count_Amphibians": 0, "count_Ferns": 0, "count_Reptiles": 0, "unique_species_count": 10.0, "countryCode": "DK" }, "geometry": { "type": "MultiPolygon", "coordinates": [ [ [ [ 3.718797697731644, 56.063230669752016 ], [ 3.502696770552265, 55.845421892280761 ], [ 2.95258974576707, 55.865411317789729 ], [ 2.609734081189002, 56.102368474142779 ], [ 2.819903769844633, 56.321056052915061 ], [ 3.378971750097193, 56.301931653654918 ], [ 3.718797697731644, 56.063230669752016 ] ] ] ] } },
{ "type": "Feature", "properties": { "geogrid_id": "956101646007260193", "seqnum": 20656.0, "lat_c": 56.101645814554317, "lon_c": 7.2601933244053729, "res": 9.0, "count_Mammals": 2, "count_Molluscs": 2, "count_Arachnids": 0, "count_Gymnosperms": 0, "count_Sac Fungi": 0, "count_Birds": 22, "count_Insects": 0, "count_Mosses": 0, "count_Flowering Plants": 0, "count_Basidiomycota": 0, "count_Amphibians": 0, "count_Ferns": 0, "count_Reptiles": 0, "unique_species_count": 26.0, "countryCode": "DK" }, "geometry": { "type": "MultiPolygon", "coordinates": [ [ [ [ 7.809742111548853, 56.063791249732958 ], [ 7.565576545569732, 55.852874567824429 ], [ 7.019565791615609, 55.889758616662853 ], [ 6.709364798051642, 56.137228066152417 ], [ 6.948702001655042, 56.349361858875902 ], [ 7.503171249541366, 56.31282392077263 ], [ 7.809742111548853, 56.063791249732958 ] ] ] ] } },
{ "type": "Feature", "properties": { "geogrid_id": "956109699009669340", "seqnum": 39608.0, "lat_c": 56.10969896924577, "lon_c": 9.6693395806981677, "res": 9.0, "count_Mammals": 51, "count_Molluscs": 94, "count_Arachnids": 337, "count_Gymnosperms": 31, "count_Sac Fungi": 886, "count_Birds": 311, "count_Insects": 3307, "count_Mosses": 263, "count_Flowering Plants": 1797, "count_Basidiomycota": 2038, "count_Amphibians": 10, "count_Ferns": 22, "count_Reptiles": 7, "unique_species_count": 9154.0, "countryCode": "DK" }, "geometry": { "type": "MultiPolygon", "coordinates": [ [ [ [ 9.92647044722457, 56.314560147201519 ], [ 10.197849543779872, 56.042814398747907 ], [ 9.940987232334987, 55.839008100403106 ], [ 9.414658771898335, 55.904054785371514 ], [ 9.139369872286656, 56.173025901646362 ], [ 9.394244050473873, 56.379704075879424 ], [ 9.92647044722457, 56.314560147201519 ] ] ] ] } },
{ "type": "Feature", "properties": { "geogrid_id": "956109699012830660", "seqnum": 40096.0, "lat_c": 56.109698971141313, "lon_c": 12.83066041693856, "res": 9.0, "count_Mammals": 41, "count_Molluscs": 59, "count_Arachnids": 212, "count_Gymnosperms": 30, "count_Sac Fungi": 920, "count_Birds": 306, "count_Insects": 2129, "count_Mosses": 192, "count_Flowering Plants": 1409, "count_Basidiomycota": 1424, "count_Amphibians": 8, "count_Ferns": 18, "count_Reptiles": 5, "unique_species_count": 6753.0, "countryCode": "DK" }, "geometry": { "type": "MultiPolygon", "coordinates": [ [ [ [ 13.105755947135155, 56.3797040778053 ], [ 13.360630125349957, 56.17302590357572 ], [ 13.085341225765385, 55.904054787270574 ], [ 12.559012765329687, 55.839008102268465 ], [ 12.302150453858006, 56.042814400609629 ], [ 12.573529550384759, 56.314560149093445 ], [ 13.105755947135155, 56.3797040778053 ] ] ] ] } },
{ "type": "Feature", "properties": { "geogrid_id": "956201502005603973", "seqnum": 20655.0, "lat_c": 56.20150187095058, "lon_c": 5.6039734282020888, "res": 9.0, "count_Mammals": 3, "count_Molluscs": 28, "count_Arachnids": 0, "count_Gymnosperms": 0, "count_Sac Fungi": 0, "count_Birds": 9, "count_Insects": 2, "count_Mosses": 0, "count_Flowering Plants": 0, "count_Basidiomycota": 0, "count_Amphibians": 0, "count_Ferns": 0, "count_Reptiles": 0, "unique_species_count": 42.0, "countryCode": "DK" }, "geometry": { "type": "MultiPolygon", "coordinates": [ [ [ [ 6.157282810764954, 56.170519721813683 ], [ 5.923912390946412, 55.956766569176963 ], [ 5.374321602533054, 55.986854947899836 ], [ 5.049462432668457, 56.230154914465984 ], [ 5.277506007127675, 56.444996655774659 ], [ 5.835843195092238, 56.415468368117267 ], [ 6.157282810764954, 56.170519721813683 ] ] ] ] } },
{ "type": "Feature", "properties": { "geogrid_id": "956245816010457151", "seqnum": 39690.0, "lat_c": 56.245815720849407, "lon_c": 10.457151267412433, "res": 9.0, "count_Mammals": 55, "count_Molluscs": 141, "count_Arachnids": 338, "count_Gymnosperms": 32, "count_Sac Fungi": 1146, "count_Birds": 329, "count_Insects": 3952, "count_Mosses": 241, "count_Flowering Plants": 1984, "count_Basidiomycota": 2057, "count_Amphibians": 11, "count_Ferns": 22, "count_Reptiles": 7, "unique_species_count": 10315.0, "countryCode": "DK" }, "geometry": { "type": "MultiPolygon", "coordinates": [ [ [ [ 10.718922975246095, 56.448002373269098 ], [ 10.986161642412501, 56.173387147937021 ], [ 10.72477846483093, 55.972289232579563 ], [ 10.197849543779872, 56.042814398747907 ], [ 9.92647044722457, 56.314560147201519 ], [ 10.186083177775455, 56.518628674669031 ], [ 10.718922975246095, 56.448002373269098 ] ] ] ] } },
{ "type": "Feature", "properties": { "geogrid_id": "956245816012042849", "seqnum": 39934.0, "lat_c": 56.245815722707391, "lon_c": 12.042848730198255, "res": 9.0, "count_Mammals": 42, "count_Molluscs": 55, "count_Arachnids": 245, "count_Gymnosperms": 21, "count_Sac Fungi": 768, "count_Birds": 338, "count_Insects": 2627, "count_Mosses": 145, "count_Flowering Plants": 1196, "count_Basidiomycota": 1488, "count_Amphibians": 9, "count_Ferns": 12, "count_Reptiles": 5, "unique_species_count": 6951.0, "countryCode": "DK" }, "geometry": { "type": "MultiPolygon", "coordinates": [ [ [ [ 12.31391681980606, 56.518628676557249 ], [ 12.573529550384759, 56.314560149093445 ], [ 12.302150453858006, 56.042814400609629 ], [ 11.775221532809143, 55.972289234407455 ], [ 11.513838355200612, 56.173387149761055 ], [ 11.781077022337001, 56.448002375123245 ], [ 12.31391681980606, 56.518628676557249 ] ] ] ] } },
{ "type": "Feature", "properties": { "geogrid_id": "956273989008056298", "seqnum": 20575.0, "lat_c": 56.273988580371778, "lon_c": 8.0562984452376742, "res": 9.0, "count_Mammals": 42, "count_Molluscs": 68, "count_Arachnids": 187, "count_Gymnosperms": 26, "count_Sac Fungi": 430, "count_Birds": 318, "count_Insects": 1297, "count_Mosses": 137, "count_Flowering Plants": 1274, "count_Basidiomycota": 985, "count_Amphibians": 6, "count_Ferns": 16, "count_Reptiles": 6, "unique_species_count": 4792.0, "countryCode": "DK" }, "geometry": { "type": "MultiPolygon", "coordinates": [ [ [ [ 8.608056955349596, 56.232874364462454 ], [ 8.357984735751256, 56.023682081908163 ], [ 7.809742111548853, 56.063791249732958 ], [ 7.503171249541366, 56.31282392077263 ], [ 7.748532839490621, 56.523284028434603 ], [ 8.305279046352524, 56.483457418286378 ], [ 8.608056955349596, 56.232874364462454 ] ] ] ] } },
{ "type": "Feature", "properties": { "geogrid_id": "956280391003936937", "seqnum": 20654.0, "lat_c": 56.280391441035782, "lon_c": 3.9369368645464871, "res": 9.0, "count_Mammals": 3, "count_Molluscs": 0, "count_Arachnids": 0, "count_Gymnosperms": 0, "count_Sac Fungi": 0, "count_Birds": 10, "count_Insects": 19, "count_Mosses": 0, "count_Flowering Plants": 0, "count_Basidiomycota": 0, "count_Amphibians": 0, "count_Ferns": 0, "count_Reptiles": 0, "unique_species_count": 32.0, "countryCode": "DK" }, "geometry": { "type": "MultiPolygon", "coordinates": [ [ [ [ 4.493775248665519, 56.256458498361624 ], [ 4.271739341904746, 56.040106839302346 ], [ 3.718797697731644, 56.063230669752016 ], [ 3.378971750097193, 56.301931653654918 ], [ 3.595170368234708, 56.519223366214042 ], [ 4.157144550785779, 56.496896778512003 ], [ 4.493775248665519, 56.256458498361624 ] ] ] ] } },
{ "type": "Feature", "properties": { "geogrid_id": "956373648011250000", "seqnum": 39771.0, "lat_c": 56.373648341875317, "lon_c": 11.249999997585803, "res": 9.0, "count_Mammals": 39, "count_Molluscs": 31, "count_Arachnids": 48, "count_Gymnosperms": 20, "count_Sac Fungi": 166, "count_Birds": 296, "count_Insects": 1233, "count_Mosses": 40, "count_Flowering Plants": 973, "count_Basidiomycota": 554, "count_Amphibians": 6, "count_Ferns": 11, "count_Reptiles": 5, "unique_species_count": 3422.0, "countryCode": "DK" }, "geometry": { "type": "MultiPolygon", "coordinates": [ [ [ [ 11.516804484005018, 56.649364552819499 ], [ 11.781077022337001, 56.448002375123245 ], [ 11.513838355200612, 56.173387149761055 ], [ 10.986161642412501, 56.173387147937021 ], [ 10.718922975246095, 56.448002373269098 ], [ 10.983195513550081, 56.649364550969281 ], [ 11.516804484005018, 56.649364552819499 ] ] ] ] } },
{ "type": "Feature", "properties": { "geogrid_id": "956383583006392917", "seqnum": 20574.0, "lat_c": 56.383583268746598, "lon_c": 6.392917211055698, "res": 9.0, "count_Mammals": 2, "count_Molluscs": 3, "count_Arachnids": 0, "count_Gymnosperms": 0, "count_Sac Fungi": 0, "count_Birds": 18, "count_Insects": 0, "count_Mosses": 0, "count_Flowering Plants": 0, "count_Basidiomycota": 0, "count_Amphibians": 0, "count_Ferns": 0, "count_Reptiles": 0, "unique_species_count": 23.0, "countryCode": "DK" }, "geometry": { "type": "MultiPolygon", "coordinates": [ [ [ [ 6.948702001655042, 56.349361858875902 ], [ 6.709364798051642, 56.137228066152417 ], [ 6.157282810764954, 56.170519721813683 ], [ 5.835843195092238, 56.415468368117267 ], [ 6.069963164420096, 56.628746238050745 ], [ 6.630848245517861, 56.595948773602835 ], [ 6.948702001655042, 56.349361858875902 ] ] ] ] } },
{ "type": "Feature", "properties": { "geogrid_id": "956441327008860592", "seqnum": 39446.0, "lat_c": 56.441327345031972, "lon_c": 8.8605921059870187, "res": 9.0, "count_Mammals": 48, "count_Molluscs": 75, "count_Arachnids": 95, "count_Gymnosperms": 27, "count_Sac Fungi": 779, "count_Birds": 284, "count_Insects": 2729, "count_Mosses": 214, "count_Flowering Plants": 1606, "count_Basidiomycota": 1329, "count_Amphibians": 10, "count_Ferns": 21, "count_Reptiles": 5, "unique_species_count": 7222.0, "countryCode": "DK" }, "geometry": { "type": "MultiPolygon", "coordinates": [ [ [ [ 9.115624280268074, 56.649031528078865 ], [ 9.394244050473873, 56.379704075879424 ], [ 9.139369872286656, 56.173025901646362 ], [ 8.608056952053346, 56.232874362846431 ], [ 8.305279046352524, 56.483457418286378 ], [ 8.556717840964833, 56.692188503307776 ], [ 9.115624280268074, 56.649031528078865 ] ] ] ] } },
{ "type": "Feature", "properties": { "geogrid_id": "956472147004717931", "seqnum": 20573.0, "lat_c": 56.472146843003038, "lon_c": 4.7179313608786977, "res": 9.0, "count_Mammals": 1, "count_Molluscs": 1, "count_Arachnids": 0, "count_Gymnosperms": 0, "count_Sac Fungi": 0, "count_Birds": 21, "count_Insects": 1, "count_Mosses": 0, "count_Flowering Plants": 0, "count_Basidiomycota": 0, "count_Amphibians": 0, "count_Ferns": 0, "count_Reptiles": 0, "unique_species_count": 24.0, "countryCode": "DK" }, "geometry": { "type": "MultiPolygon", "coordinates": [ [ [ [ 5.277506007127675, 56.444996655774659 ], [ 5.049462432668457, 56.230154914465984 ], [ 4.493775248665519, 56.256458498361624 ], [ 4.157144550785778, 56.496896778512003 ], [ 4.379451504903054, 56.712739179259778 ], [ 4.944238987199419, 56.687164139091593 ], [ 5.277506007127675, 56.444996655774659 ] ] ] ] } },
{ "type": "Feature", "properties": { "geogrid_id": "956560788007190380", "seqnum": 20494.0, "lat_c": 56.560787811050339, "lon_c": 7.1903803266445516, "res": 9.0, "count_Mammals": 2, "count_Molluscs": 2, "count_Arachnids": 0, "count_Gymnosperms": 0, "count_Sac Fungi": 0, "count_Birds": 22, "count_Insects": 0, "count_Mosses": 0, "count_Flowering Plants": 0, "count_Basidiomycota": 0, "count_Amphibians": 0, "count_Ferns": 0, "count_Reptiles": 0, "unique_species_count": 26.0, "countryCode": "DK" }, "geometry": { "type": "MultiPolygon", "coordinates": [ [ [ [ 7.748532839490621, 56.523284028434603 ], [ 7.503171249541366, 56.31282392077263 ], [ 6.948702001655042, 56.349361858875902 ], [ 6.630848245517861, 56.595948773602835 ], [ 6.871109025023112, 56.807607697862423 ], [ 7.434433212206317, 56.771497143083735 ], [ 7.748532839490621, 56.523284028434603 ] ] ] ] } },
{ "type": "Feature", "properties": { "geogrid_id": "956585612009651609", "seqnum": 39527.0, "lat_c": 56.585611563679379, "lon_c": 9.6516090892460689, "res": 9.0, "count_Mammals": 50, "count_Molluscs": 83, "count_Arachnids": 157, "count_Gymnosperms": 29, "count_Sac Fungi": 727, "count_Birds": 300, "count_Insects": 2821, "count_Mosses": 218, "count_Flowering Plants": 1866, "count_Basidiomycota": 1610, "count_Amphibians": 8, "count_Ferns": 21, "count_Reptiles": 6, "unique_species_count": 7896.0, "countryCode": "DK" }, "geometry": { "type": "MultiPolygon", "coordinates": [ [ [ [ 9.911498333483259, 56.790738663797256 ], [ 10.186083177775455, 56.518628674669031 ], [ 9.92647044722457, 56.314560147201519 ], [ 9.394244050473873, 56.379704075879424 ], [ 9.115624280268074, 56.649031528078865 ], [ 9.373187973076472, 56.855977287024352 ], [ 9.911498333483259, 56.790738663797256 ] ] ] ] } },
{ "type": "Feature", "properties": { "geogrid_id": "956659159005507751", "seqnum": 20493.0, "lat_c": 56.659158776227137, "lon_c": 5.5077514093505533, "res": 9.0, "count_Mammals": 1, "count_Molluscs": 28, "count_Arachnids": 0, "count_Gymnosperms": 0, "count_Sac Fungi": 0, "count_Birds": 18, "count_Insects": 0, "count_Mosses": 0, "count_Flowering Plants": 0, "count_Basidiomycota": 0, "count_Amphibians": 0, "count_Ferns": 0, "count_Reptiles": 0, "unique_species_count": 47.0, "countryCode": "DK" }, "geometry": { "type": "MultiPolygon", "coordinates": [ [ [ [ 6.069963164420096, 56.628746238050745 ], [ 5.835843195092238, 56.415468368117267 ], [ 5.277506007127675, 56.444996655774659 ], [ 4.944238987199419, 56.687164139091593 ], [ 5.172729908888197, 56.901502568729235 ], [ 5.740230921497243, 56.872633218641809 ], [ 6.069963164420096, 56.628746238050745 ] ] ] ] } },
{ "type": "Feature", "properties": { "geogrid_id": "956721895010448210", "seqnum": 39609.0, "lat_c": 56.721894790092911, "lon_c": 10.448209899193486, "res": 9.0, "count_Mammals": 48, "count_Molluscs": 70, "count_Arachnids": 167, "count_Gymnosperms": 29, "count_Sac Fungi": 774, "count_Birds": 319, "count_Insects": 2866, "count_Mosses": 189, "count_Flowering Plants": 1499, "count_Basidiomycota": 1322, "count_Amphibians": 11, "count_Ferns": 16, "count_Reptiles": 5, "unique_species_count": 7315.0, "countryCode": "DK" }, "geometry": { "type": "MultiPolygon", "coordinates": [ [ [ [ 10.712883054859649, 56.924348612937045 ], [ 10.983195513550081, 56.649364550969281 ], [ 10.718922975246095, 56.448002373269098 ], [ 10.186083177775455, 56.518628674669031 ], [ 9.911498333483259, 56.790738663797256 ], [ 10.173945492046245, 56.995075550908908 ], [ 10.712883054859649, 56.924348612937045 ] ] ] ] } },
{ "type": "Feature", "properties": { "geogrid_id": "956721895012051790", "seqnum": 39853.0, "lat_c": 56.72189479197732, "lon_c": 12.051790098359794, "res": 9.0, "count_Mammals": 5, "count_Molluscs": 2, "count_Arachnids": 5, "count_Gymnosperms": 4, "count_Sac Fungi": 36, "count_Birds": 193, "count_Insects": 278, "count_Mosses": 19, "count_Flowering Plants": 107, "count_Basidiomycota": 137, "count_Amphibians": 0, "count_Ferns": 4, "count_Reptiles": 1, "unique_species_count": 791.0, "countryCode": "DK" }, "geometry": { "type": "MultiPolygon", "coordinates": [ [ [ [ 12.32605450547744, 56.995075552823749 ], [ 12.588501664069311, 56.790738665715871 ], [ 12.31391681980606, 56.518628676557249 ], [ 11.781077022337001, 56.448002375123245 ], [ 11.516804484005018, 56.649364552819499 ], [ 11.787116942664971, 56.924348614817553 ], [ 12.32605450547744, 56.995075552823749 ] ] ] ] } },
{ "type": "Feature", "properties": { "geogrid_id": "956733017007996312", "seqnum": 20413.0, "lat_c": 56.733017117244472, "lon_c": 7.9963118049712207, "res": 9.0, "count_Mammals": 50, "count_Molluscs": 54, "count_Arachnids": 27, "count_Gymnosperms": 19, "count_Sac Fungi": 391, "count_Birds": 317, "count_Insects": 936, "count_Mosses": 124, "count_Flowering Plants": 1159, "count_Basidiomycota": 522, "count_Amphibians": 6, "count_Ferns": 15, "count_Reptiles": 4, "unique_species_count": 3624.0, "countryCode": "DK" }, "geometry": { "type": "MultiPolygon", "coordinates": [ [ [ [ 8.556717840964833, 56.692188503307776 ], [ 8.305279046352524, 56.483457418286378 ], [ 7.748532839490621, 56.523284028434603 ], [ 7.434433212206317, 56.771497143083735 ], [ 7.680894547985782, 56.981480965161069 ], [ 8.24654229602994, 56.942014051121127 ], [ 8.556717840964833, 56.692188503307776 ] ] ] ] } },
{ "type": "Feature", "properties": { "geogrid_id": "956841327006306366", "seqnum": 20412.0, "lat_c": 56.841327183196597, "lon_c": 6.3063660614909081, "res": 9.0, "count_Mammals": 1, "count_Molluscs": 0, "count_Arachnids": 0, "count_Gymnosperms": 0, "count_Sac Fungi": 0, "count_Birds": 11, "count_Insects": 0, "count_Mosses": 0, "count_Flowering Plants": 0, "count_Basidiomycota": 0, "count_Amphibians": 0, "count_Ferns": 0, "count_Reptiles": 0, "unique_species_count": 12.0, "countryCode": "DK" }, "geometry": { "type": "MultiPolygon", "coordinates": [ [ [ [ 6.871109025023112, 56.807607697862423 ], [ 6.630848245517861, 56.595948773602835 ], [ 6.069963164420096, 56.628746238050745 ], [ 5.740230921497243, 56.872633218641809 ], [ 5.974977299127374, 57.085411833588914 ], [ 6.545085079157333, 57.053202807558002 ], [ 6.871109025023112, 56.807607697862423 ] ] ] ] } },
{ "type": "Feature", "properties": { "geogrid_id": "956849892011250000", "seqnum": 39691.0, "lat_c": 56.849892335553157, "lon_c": 11.249999997526725, "res": 9.0, "count_Mammals": 10, "count_Molluscs": 32, "count_Arachnids": 18, "count_Gymnosperms": 10, "count_Sac Fungi": 70, "count_Birds": 223, "count_Insects": 1233, "count_Mosses": 47, "count_Flowering Plants": 538, "count_Basidiomycota": 361, "count_Amphibians": 4, "count_Ferns": 9, "count_Reptiles": 2, "unique_species_count": 2557.0, "countryCode": "DK" }, "geometry": { "type": "MultiPolygon", "coordinates": [ [ [ [ 11.519864597325821, 57.125980143562465 ], [ 11.787116942664971, 56.924348614817553 ], [ 11.516804484005018, 56.649364552819499 ], [ 10.983195513550081, 56.649364550969281 ], [ 10.712883054859649, 56.924348612937045 ], [ 10.98013540016971, 57.125980141685964 ], [ 11.519864597325821, 57.125980143562465 ] ] ] ] } },
{ "type": "Feature", "properties": { "geogrid_id": "956900172008810649", "seqnum": 20332.0, "lat_c": 56.900172454152667, "lon_c": 8.8106491817003043, "res": 9.0, "count_Mammals": 58, "count_Molluscs": 88, "count_Arachnids": 257, "count_Gymnosperms": 26, "count_Sac Fungi": 671, "count_Birds": 363, "count_Insects": 2602, "count_Mosses": 215, "count_Flowering Plants": 1578, "count_Basidiomycota": 1334, "count_Amphibians": 7, "count_Ferns": 18, "count_Reptiles": 5, "unique_species_count": 7222.0, "countryCode": "DK" }, "geometry": { "type": "MultiPolygon", "coordinates": [ [ [ [ 9.373187976481827, 56.855977288618185 ], [ 9.115624283636558, 56.649031529680244 ], [ 8.556717840964833, 56.692188503307776 ], [ 8.24654229602994, 56.942014051121127 ], [ 8.499258902768812, 57.150265575794862 ], [ 9.067107847545314, 57.107399765996291 ], [ 9.373187976481827, 56.855977288618185 ] ] ] ] } },
{ "type": "Feature", "properties": { "geogrid_id": "957018551007113733", "seqnum": 20331.0, "lat_c": 57.018551398567269, "lon_c": 7.1137331203273151, "res": 9.0, "count_Mammals": 2, "count_Molluscs": 0, "count_Arachnids": 0, "count_Gymnosperms": 0, "count_Sac Fungi": 0, "count_Birds": 19, "count_Insects": 0, "count_Mosses": 0, "count_Flowering Plants": 0, "count_Basidiomycota": 0, "count_Amphibians": 0, "count_Ferns": 0, "count_Reptiles": 0, "unique_species_count": 21.0, "countryCode": "DK" }, "geometry": { "type": "MultiPolygon", "coordinates": [ [ [ [ 7.680894547985782, 56.981480965161069 ], [ 7.434433212206317, 56.771497143083735 ], [ 6.871109025023112, 56.807607697862423 ], [ 6.545085079157333, 57.053202807558002 ], [ 6.786153881050512, 57.26436461442087 ], [ 7.358754564514047, 57.228771125994356 ], [ 7.680894547985782, 56.981480965161069 ] ] ] ] } },
{ "type": "Feature", "properties": { "geogrid_id": "957062155009633318", "seqnum": 39447.0, "lat_c": 57.062154868264734, "lon_c": 9.6333180936469454, "res": 9.0, "count_Mammals": 54, "count_Molluscs": 103, "count_Arachnids": 189, "count_Gymnosperms": 28, "count_Sac Fungi": 950, "count_Birds": 325, "count_Insects": 2891, "count_Mosses": 226, "count_Flowering Plants": 1725, "count_Basidiomycota": 1896, "count_Amphibians": 7, "count_Ferns": 23, "count_Reptiles": 5, "unique_species_count": 8422.0, "countryCode": "DK" }, "geometry": { "type": "MultiPolygon", "coordinates": [ [ [ [ 9.896049960658313, 57.267554387092353 ], [ 10.173945492046245, 56.995075550908908 ], [ 9.911498333483259, 56.790738663797256 ], [ 9.373187973076472, 56.855977287024352 ], [ 9.067107847545314, 57.107399765996291 ], [ 9.326129043234035, 57.313860808019513 ], [ 9.896049960658313, 57.267554387092353 ] ] ] ] } },
{ "type": "Feature", "properties": { "geogrid_id": "957190730007929799", "seqnum": 20251.0, "lat_c": 57.190730274874646, "lon_c": 7.9297986756948671, "res": 9.0, "count_Mammals": 5, "count_Molluscs": 1, "count_Arachnids": 0, "count_Gymnosperms": 0, "count_Sac Fungi": 9, "count_Birds": 48, "count_Insects": 1, "count_Mosses": 0, "count_Flowering Plants": 0, "count_Basidiomycota": 5, "count_Amphibians": 0, "count_Ferns": 0, "count_Reptiles": 0, "unique_species_count": 69.0, "countryCode": "DK" }, "geometry": { "type": "MultiPolygon", "coordinates": [ [ [ [ 8.499258902768812, 57.150265575794862 ], [ 8.24654229602994, 56.942014051121127 ], [ 7.680894547985782, 56.981480965161069 ], [ 7.358754564514047, 57.228771125994356 ], [ 7.606207855148145, 57.438258021293947 ], [ 8.181180390386279, 57.399235954822004 ], [ 8.499258902768812, 57.150265575794862 ] ] ] ] } },
{ "type": "Feature", "properties": { "geogrid_id": "957198612010438985", "seqnum": 39528.0, "lat_c": 57.19861227337978, "lon_c": 10.438984634671888, "res": 9.0, "count_Mammals": 42, "count_Molluscs": 93, "count_Arachnids": 150, "count_Gymnosperms": 25, "count_Sac Fungi": 429, "count_Birds": 287, "count_Insects": 1369, "count_Mosses": 114, "count_Flowering Plants": 1385, "count_Basidiomycota": 1161, "count_Amphibians": 7, "count_Ferns": 21, "count_Reptiles": 5, "unique_species_count": 5088.0, "countryCode": "DK" }, "geometry": { "type": "MultiPolygon", "coordinates": [ [ [ [ 10.706650188347218, 57.401338751018969 ], [ 10.98013540016971, 57.125980141685964 ], [ 10.712883054859649, 56.924348612937045 ], [ 10.173945492046245, 56.995075550908908 ], [ 9.896049960658313, 57.267554387092353 ], [ 10.161419300131513, 57.47216582521235 ], [ 10.706650188347218, 57.401338751018969 ] ] ] ] } },
{ "type": "Feature", "properties": { "geogrid_id": "957198612012061015", "seqnum": 39772.0, "lat_c": 57.198612275290742, "lon_c": 12.061015362822467, "res": 9.0, "count_Mammals": 1, "count_Molluscs": 0, "count_Arachnids": 0, "count_Gymnosperms": 0, "count_Sac Fungi": 0, "count_Birds": 8, "count_Insects": 1, "count_Mosses": 0, "count_Flowering Plants": 0, "count_Basidiomycota": 0, "count_Amphibians": 0, "count_Ferns": 0, "count_Reptiles": 0, "unique_species_count": 10.0, "countryCode": "DK" }, "geometry": { "type": "MultiPolygon", "coordinates": [ [ [ [ 12.338580697332814, 57.47216582715393 ], [ 12.603950036836022, 57.267554389037777 ], [ 12.32605450547744, 56.995075552823749 ], [ 11.787116942664971, 56.924348614817553 ], [ 11.519864597325821, 57.125980143562465 ], [ 11.793349809117355, 57.401338752925959 ], [ 12.338580697332814, 57.47216582715393 ] ] ] ] } },
{ "type": "Feature", "properties": { "geogrid_id": "957297486006212024", "seqnum": 20250.0, "lat_c": 57.297486377714449, "lon_c": 6.2120237712213386, "res": 9.0, "count_Mammals": 0, "count_Molluscs": 0, "count_Arachnids": 0, "count_Gymnosperms": 0, "count_Sac Fungi": 0, "count_Birds": 1, "count_Insects": 0, "count_Mosses": 0, "count_Flowering Plants": 0, "count_Basidiomycota": 0, "count_Amphibians": 0, "count_Ferns": 0, "count_Reptiles": 0, "unique_species_count": 1.0, "countryCode": "DK" }, "geometry": { "type": "MultiPolygon", "coordinates": [ [ [ [ 6.786153881050512, 57.26436461442087 ], [ 6.545085079157333, 57.053202807558002 ], [ 5.974977299127374, 57.085411833588914 ], [ 5.766357517237079, 57.3574051528716 ], [ 6.133913408227995, 57.598323910508306 ], [ 6.582825599354666, 57.537336674906399 ], [ 6.786153881050512, 57.26436461442087 ] ] ] ] } },
{ "type": "Feature", "properties": { "geogrid_id": "957326779011250000", "seqnum": 39610.0, "lat_c": 57.326779251844691, "lon_c": 11.249999997466041, "res": 9.0, "count_Mammals": 11, "count_Molluscs": 45, "count_Arachnids": 143, "count_Gymnosperms": 16, "count_Sac Fungi": 318, "count_Birds": 245, "count_Insects": 1204, "count_Mosses": 78, "count_Flowering Plants": 797, "count_Basidiomycota": 659, "count_Amphibians": 4, "count_Ferns": 9, "count_Reptiles": 3, "unique_species_count": 3532.0, "countryCode": "DK" }, "geometry": { "type": "MultiPolygon", "coordinates": [ [ [ [ 11.523023064301656, 57.603244774727706 ], [ 11.793349809117355, 57.401338752925959 ], [ 11.519864597325821, 57.125980143562465 ], [ 10.98013540016971, 57.125980141685964 ], [ 10.706650188347218, 57.401338751018969 ], [ 10.976976933132679, 57.603244772824802 ], [ 11.523023064301656, 57.603244774727706 ] ] ] ] } },
{ "type": "Feature", "properties": { "geogrid_id": "957357762008754497", "seqnum": 20170.0, "lat_c": 57.35776231637481, "lon_c": 8.7544966556956378, "res": 9.0, "count_Mammals": 19, "count_Molluscs": 23, "count_Arachnids": 32, "count_Gymnosperms": 13, "count_Sac Fungi": 148, "count_Birds": 271, "count_Insects": 455, "count_Mosses": 54, "count_Flowering Plants": 655, "count_Basidiomycota": 435, "count_Amphibians": 6, "count_Ferns": 15, "count_Reptiles": 4, "unique_species_count": 2130.0, "countryCode": "DK" }, "geometry": { "type": "MultiPolygon", "coordinates": [ [ [ [ 9.326129043234035, 57.313860808019513 ], [ 9.067107847545314, 57.107399765996291 ], [ 8.499258902768812, 57.150265575794862 ], [ 8.181180390386279, 57.399235954822004 ], [ 8.435074941370342, 57.606988770172336 ], [ 9.01229102567221, 57.564494774888225 ], [ 9.326129043234035, 57.313860808019513 ] ] ] ] } },
{ "type": "Feature", "properties": { "geogrid_id": "957474804007029607", "seqnum": 20169.0, "lat_c": 57.474804004610718, "lon_c": 7.0296066005568356, "res": 9.0, "count_Mammals": 1, "count_Molluscs": 0, "count_Arachnids": 0, "count_Gymnosperms": 0, "count_Sac Fungi": 0, "count_Birds": 1, "count_Insects": 0, "count_Mosses": 0, "count_Flowering Plants": 0, "count_Basidiomycota": 0, "count_Amphibians": 0, "count_Ferns": 0, "count_Reptiles": 0, "unique_species_count": 2.0, "countryCode": "DK" }, "geometry": { "type": "MultiPolygon", "coordinates": [ [ [ [ 7.606207855148145, 57.438258021293947 ], [ 7.358754564514047, 57.228771125994356 ], [ 6.786153881050512, 57.26436461442087 ], [ 6.582825599354666, 57.537336674906399 ], [ 6.958368015603942, 57.775814471298759 ], [ 7.4083454759454, 57.712177768528598 ], [ 7.606207855148145, 57.438258021293947 ] ] ] ] } },
{ "type": "Feature", "properties": { "geogrid_id": "957519546009587748", "seqnum": 20089.0, "lat_c": 57.51954582093142, "lon_c": 9.5877483981885749, "res": 9.0, "count_Mammals": 44, "count_Molluscs": 71, "count_Arachnids": 100, "count_Gymnosperms": 21, "count_Sac Fungi": 304, "count_Birds": 307, "count_Insects": 1197, "count_Mosses": 104, "count_Flowering Plants": 1236, "count_Basidiomycota": 839, "count_Amphibians": 8, "count_Ferns": 15, "count_Reptiles": 5, "unique_species_count": 4251.0, "countryCode": "DK" }, "geometry": { "type": "MultiPolygon", "coordinates": [ [ [ [ 10.161419303650531, 57.472165826782614 ], [ 9.896049964138928, 57.267554388670632 ], [ 9.326129043234035, 57.313860808019513 ], [ 9.01229102567221, 57.564494774888225 ], [ 9.272677923432701, 57.770453327792872 ], [ 9.852001964983039, 57.724444914469132 ], [ 10.161419303650531, 57.472165826782614 ] ] ] ] } },
{ "type": "Feature", "properties": { "geogrid_id": "957647003007856128", "seqnum": 20088.0, "lat_c": 57.647003114693916, "lon_c": 7.856127952048185, "res": 9.0, "count_Mammals": 1, "count_Molluscs": 0, "count_Arachnids": 0, "count_Gymnosperms": 0, "count_Sac Fungi": 0, "count_Birds": 11, "count_Insects": 0, "count_Mosses": 0, "count_Flowering Plants": 0, "count_Basidiomycota": 0, "count_Amphibians": 0, "count_Ferns": 0, "count_Reptiles": 0, "unique_species_count": 12.0, "countryCode": "DK" }, "geometry": { "type": "MultiPolygon", "coordinates": [ [ [ [ 8.435074941370342, 57.606988770172336 ], [ 8.181180390386279, 57.399235954822004 ], [ 7.606207855148145, 57.438258021293947 ], [ 7.4083454759454, 57.712177768528598 ], [ 7.791927846019816, 57.948137272278338 ], [ 8.24285279384751, 57.881823282931506 ], [ 8.435074941370342, 57.606988770172336 ] ] ] ] } },
{ "type": "Feature", "properties": { "geogrid_id": "957675979010429462", "seqnum": 39448.0, "lat_c": 57.675979028241024, "lon_c": 10.429462242805849, "res": 9.0, "count_Mammals": 53, "count_Molluscs": 99, "count_Arachnids": 192, "count_Gymnosperms": 26, "count_Sac Fungi": 548, "count_Birds": 403, "count_Insects": 2188, "count_Mosses": 117, "count_Flowering Plants": 1257, "count_Basidiomycota": 1102, "count_Amphibians": 7, "count_Ferns": 16, "count_Reptiles": 6, "unique_species_count": 6014.0, "countryCode": "DK" }, "geometry": { "type": "MultiPolygon", "coordinates": [ [ [ [ 10.700215320961718, 57.878983703187927 ], [ 10.976976933132679, 57.603244772824802 ], [ 10.706650188347218, 57.401338751018969 ], [ 10.161419300131513, 57.47216582521235 ], [ 9.852001964983039, 57.724444914469132 ], [ 10.118926217301148, 57.92854806487653 ], [ 10.700215320961718, 57.878983703187927 ] ] ] ] } },
{ "type": "Feature", "properties": { "geogrid_id": "957804320011250000", "seqnum": 39529.0, "lat_c": 57.804319994724175, "lon_c": 11.249999997403673, "res": 9.0, "count_Mammals": 2, "count_Molluscs": 0, "count_Arachnids": 0, "count_Gymnosperms": 0, "count_Sac Fungi": 0, "count_Birds": 27, "count_Insects": 5, "count_Mosses": 0, "count_Flowering Plants": 0, "count_Basidiomycota": 0, "count_Amphibians": 0, "count_Ferns": 0, "count_Reptiles": 0, "unique_species_count": 34.0, "countryCode": "DK" }, "geometry": { "type": "MultiPolygon", "coordinates": [ [ [ [ 11.52628453271487, 58.081169417853289 ], [ 11.799784676441167, 57.878983705121506 ], [ 11.523023064301656, 57.603244774727706 ], [ 10.976976933132679, 57.603244772824802 ], [ 10.700215320961718, 57.878983703187927 ], [ 10.97371546465657, 58.081169415923867 ], [ 11.52628453271487, 58.081169417853289 ] ] ] ] } },
{ "type": "Feature", "properties": { "geogrid_id": "957813979008691518", "seqnum": 20008.0, "lat_c": 57.813979366835369, "lon_c": 8.6915180286196225, "res": 9.0, "count_Mammals": 1, "count_Molluscs": 0, "count_Arachnids": 0, "count_Gymnosperms": 0, "count_Sac Fungi": 0, "count_Birds": 23, "count_Insects": 0, "count_Mosses": 0, "count_Flowering Plants": 0, "count_Basidiomycota": 0, "count_Amphibians": 0, "count_Ferns": 0, "count_Reptiles": 0, "unique_species_count": 24.0, "countryCode": "DK" }, "geometry": { "type": "MultiPolygon", "coordinates": [ [ [ [ 9.272677923432701, 57.770453327792872 ], [ 9.01229102567221, 57.564494774888225 ], [ 8.435074941370342, 57.606988770172336 ], [ 8.24285279384751, 57.881823282931506 ], [ 8.634520730947195, 58.115186033184976 ], [ 9.086269833228231, 58.046167795558567 ], [ 9.272677923432701, 57.770453327792872 ] ] ] ] } },
{ "type": "Feature", "properties": { "geogrid_id": "957975628009535694", "seqnum": 19927.0, "lat_c": 57.975628224130212, "lon_c": 9.5356936944548139, "res": 9.0, "count_Mammals": 1, "count_Molluscs": 0, "count_Arachnids": 0, "count_Gymnosperms": 0, "count_Sac Fungi": 0, "count_Birds": 19, "count_Insects": 0, "count_Mosses": 0, "count_Flowering Plants": 0, "count_Basidiomycota": 0, "count_Amphibians": 0, "count_Ferns": 0, "count_Reptiles": 0, "unique_species_count": 20.0, "countryCode": "DK" }, "geometry": { "type": "MultiPolygon", "coordinates": [ [ [ [ 10.118926217301148, 57.92854806487653 ], [ 9.852001964983039, 57.724444914469132 ], [ 9.272677923432701, 57.770453327792872 ], [ 9.086269833228231, 58.046167795558567 ], [ 9.486060637932184, 58.276854281684159 ], [ 9.938505051596399, 58.205105770224471 ], [ 10.118926217301148, 57.92854806487653 ] ] ] ] } },
{ "type": "Feature", "properties": { "geogrid_id": "958131845010388558", "seqnum": 19846.0, "lat_c": 58.131845113064159, "lon_c": 10.388558043108345, "res": 9.0, "count_Mammals": 1, "count_Molluscs": 0, "count_Arachnids": 1, "count_Gymnosperms": 0, "count_Sac Fungi": 0, "count_Birds": 8, "count_Insects": 0, "count_Mosses": 0, "count_Flowering Plants": 0, "count_Basidiomycota": 0, "count_Amphibians": 0, "count_Ferns": 0, "count_Reptiles": 0, "unique_species_count": 10.0, "countryCode": "DK" }, "geometry": { "type": "MultiPolygon", "coordinates": [ [ [ [ 10.973715468293936, 58.081169417469098 ], [ 10.700215324559107, 57.878983704741671 ], [ 10.118926217301148, 57.92854806487653 ], [ 9.938505051596399, 58.205105770224471 ], [ 10.346447218660009, 58.433035519154913 ], [ 10.799452657462361, 58.358531723789085 ], [ 10.973715468293936, 58.081169417469098 ] ] ] ] } },
{ "type": "Feature", "properties": { "geogrid_id": "989739064101250000", "seqnum": 88615.0, "lat_c": 89.739064400997634, "lon_c": 101.2499997689069, "res": 9.0, "count_Mammals": 1, "count_Molluscs": 0, "count_Arachnids": 0, "count_Gymnosperms": 0, "count_Sac Fungi": 0, "count_Birds": 0, "count_Insects": 1, "count_Mosses": 1, "count_Flowering Plants": 54, "count_Basidiomycota": 0, "count_Amphibians": 2, "count_Ferns": 0, "count_Reptiles": 0, "unique_species_count": 59.0, "countryCode": "DK" }, "geometry": { "type": "MultiPolygon", "coordinates": [ [ [ [ 146.992881577284948, 89.626098818661063 ], [ 115.648692806202405, 89.461315063557308 ], [ 86.851306979591428, 89.461315063040104 ], [ 55.507118197641034, 89.626098817153363 ], [ 11.249999908150039, 89.866159290680983 ], [ 180.0, 89.866159292678333 ], [ 180.0, 89.805136785090866 ], [ 146.992881577284948, 89.626098818661063 ] ] ], [ [ [ -168.749999908116422, 89.866159292811489 ], [ -180.0, 89.805136785090866 ], [ -180.0, 89.866159292678333 ], [ -168.749999908116422, 89.866159292811489 ] ] ] ] } }
]
}
