{
"type": "FeatureCollection",
"name": "DO",
"crs": { "type": "name", "properties": { "name": "urn:ogc:def:crs:OGC:1.3:CRS84" } },
"features": [
{ "type": "Feature", "properties": { "geogrid_id": "5315152844071268356", "seqnum": 26012.0, "lat_c": 15.152844193829663, "lon_c": -71.268355621801945, "res": 9.0, "count_Flowering Plants": 0, "count_Birds": 0, "count_Ferns": 0, "count_Reptiles": 1, "count_Arachnids": 0, "count_Mammals": 0, "count_Basidiomycota": 0, "count_Gymnosperms": 0, "count_Sac Fungi": 0, "count_Molluscs": 0, "count_Mosses": 0, "count_Insects": 0, "count_Amphibians": 0, "unique_species_count": 1.0, "countryCode": "DO" }, "geometry": { "type": "MultiPolygon", "coordinates": [ [ [ [ -70.978507759386076, 15.274196442430233 ], [ -70.995974633728409, 15.017370804563072 ], [ -71.284884611706815, 14.895304526648644 ], [ -71.556896908682376, 15.030224608791192 ], [ -71.540983811245553, 15.288014653100744 ], [ -71.251520975620352, 15.409949729975748 ], [ -70.978507759386076, 15.274196442430233 ] ] ] ] } },
{ "type": "Feature", "properties": { "geogrid_id": "5315435636068681385", "seqnum": 26258.0, "lat_c": 15.435635668817971, "lon_c": -68.681385278914902, "res": 9.0, "count_Flowering Plants": 0, "count_Birds": 1, "count_Ferns": 0, "count_Reptiles": 1, "count_Arachnids": 0, "count_Mammals": 1, "count_Basidiomycota": 0, "count_Gymnosperms": 0, "count_Sac Fungi": 0, "count_Molluscs": 0, "count_Mosses": 0, "count_Insects": 0, "count_Amphibians": 0, "unique_species_count": 3.0, "countryCode": "DO" }, "geometry": { "type": "MultiPolygon", "coordinates": [ [ [ [ -68.380126382646466, 15.543259469387761 ], [ -68.40620545215522, 15.29374954289429 ], [ -68.70625542313941, 15.184855109076008 ], [ -68.980728074033379, 15.325580129922047 ], [ -68.956611394775976, 15.576918305877841 ], [ -68.656084511188723, 15.685762262669453 ], [ -68.380126382646466, 15.543259469387761 ] ] ] ] } },
{ "type": "Feature", "properties": { "geogrid_id": "5315465765069255281", "seqnum": 26176.0, "lat_c": 15.465764976417422, "lon_c": -69.255281002965162, "res": 9.0, "count_Flowering Plants": 0, "count_Birds": 0, "count_Ferns": 0, "count_Reptiles": 2, "count_Arachnids": 0, "count_Mammals": 0, "count_Basidiomycota": 0, "count_Gymnosperms": 0, "count_Sac Fungi": 0, "count_Molluscs": 0, "count_Mosses": 0, "count_Insects": 0, "count_Amphibians": 0, "unique_species_count": 2.0, "countryCode": "DO" }, "geometry": { "type": "MultiPolygon", "coordinates": [ [ [ [ -68.956611394775976, 15.576918305877841 ], [ -68.980728074033379, 15.325580129922047 ], [ -69.278251563100198, 15.213301826775881 ], [ -69.552185710017881, 15.352497541715364 ], [ -69.529936305481343, 15.605436719111628 ], [ -69.231908143840442, 15.717629839944047 ], [ -68.956611394775976, 15.576918305877841 ] ] ] ] } },
{ "type": "Feature", "properties": { "geogrid_id": "5315491230069826251", "seqnum": 26094.0, "lat_c": 15.491230411901766, "lon_c": -69.826250947641867, "res": 9.0, "count_Flowering Plants": 0, "count_Birds": 0, "count_Ferns": 0, "count_Reptiles": 1, "count_Arachnids": 0, "count_Mammals": 0, "count_Basidiomycota": 0, "count_Gymnosperms": 0, "count_Sac Fungi": 0, "count_Molluscs": 0, "count_Mosses": 0, "count_Insects": 0, "count_Amphibians": 0, "unique_species_count": 1.0, "countryCode": "DO" }, "geometry": { "type": "MultiPolygon", "coordinates": [ [ [ [ -69.529936305481343, 15.605436719111628 ], [ -69.552185710017881, 15.352497541715364 ], [ -69.847412705573745, 15.237292815309319 ], [ -70.120935444425911, 15.375176712266416 ], [ -70.100466287049258, 15.629520766498446 ], [ -69.804714835134376, 15.744619747637055 ], [ -69.529936305481343, 15.605436719111628 ] ] ] ] } },
{ "type": "Feature", "properties": { "geogrid_id": "5315545385071524778", "seqnum": 25849.0, "lat_c": 15.545385083726684, "lon_c": -71.524777862470842, "res": 9.0, "count_Flowering Plants": 0, "count_Birds": 0, "count_Ferns": 0, "count_Reptiles": 1, "count_Arachnids": 0, "count_Mammals": 0, "count_Basidiomycota": 0, "count_Gymnosperms": 0, "count_Sac Fungi": 0, "count_Molluscs": 0, "count_Mosses": 0, "count_Insects": 0, "count_Amphibians": 0, "unique_species_count": 1.0, "countryCode": "DO" }, "geometry": { "type": "MultiPolygon", "coordinates": [ [ [ [ -71.234379998302501, 15.666614738997708 ], [ -71.251520975620352, 15.409949729975748 ], [ -71.540983811245553, 15.288014653100744 ], [ -71.81387158863194, 15.422889644475182 ], [ -71.798291264951715, 15.680510785816319 ], [ -71.50827836067127, 15.802329746385407 ], [ -71.234379998302501, 15.666614738997708 ] ] ] ] } },
{ "type": "Feature", "properties": { "geogrid_id": "5315557476072087031", "seqnum": 25768.0, "lat_c": 15.557475837935351, "lon_c": -72.087030879208982, "res": 9.0, "count_Flowering Plants": 0, "count_Birds": 0, "count_Ferns": 0, "count_Reptiles": 1, "count_Arachnids": 0, "count_Mammals": 0, "count_Basidiomycota": 0, "count_Gymnosperms": 0, "count_Sac Fungi": 0, "count_Molluscs": 0, "count_Mosses": 0, "count_Insects": 0, "count_Amphibians": 0, "unique_species_count": 1.0, "countryCode": "DO" }, "geometry": { "type": "MultiPolygon", "coordinates": [ [ [ [ -71.798291264951715, 15.680510785816319 ], [ -71.81387158863194, 15.422889644475182 ], [ -72.101720468178854, 15.299224992295562 ], [ -72.374554338172487, 15.433316535890517 ], [ -72.360473185717126, 15.691779183722643 ], [ -72.072073539697868, 15.815334260606861 ], [ -71.798291264951715, 15.680510785816319 ] ] ] ] } },
{ "type": "Feature", "properties": { "geogrid_id": "5315567142072647684", "seqnum": 25686.0, "lat_c": 15.567142096426801, "lon_c": -72.647684043440435, "res": 9.0, "count_Flowering Plants": 0, "count_Birds": 0, "count_Ferns": 0, "count_Reptiles": 1, "count_Arachnids": 0, "count_Mammals": 0, "count_Basidiomycota": 0, "count_Gymnosperms": 0, "count_Sac Fungi": 0, "count_Molluscs": 0, "count_Mosses": 0, "count_Insects": 0, "count_Amphibians": 0, "unique_species_count": 1.0, "countryCode": "DO" }, "geometry": { "type": "MultiPolygon", "coordinates": [ [ [ [ -72.360473185717126, 15.691779183722643 ], [ -72.374554338172487, 15.433316535890517 ], [ -72.66091593054324, 15.308117084212146 ], [ -72.93375852018697, 15.441503099501194 ], [ -72.921119989666693, 15.70070580884725 ], [ -72.634209623517535, 15.825804976788163 ], [ -72.360473185717126, 15.691779183722643 ] ] ] ] } },
{ "type": "Feature", "properties": { "geogrid_id": "5315574641073206918", "seqnum": 25604.0, "lat_c": 15.574640926440766, "lon_c": -73.206918328175377, "res": 9.0, "count_Flowering Plants": 0, "count_Birds": 0, "count_Ferns": 0, "count_Reptiles": 1, "count_Arachnids": 0, "count_Mammals": 0, "count_Basidiomycota": 0, "count_Gymnosperms": 0, "count_Sac Fungi": 0, "count_Molluscs": 0, "count_Mosses": 0, "count_Insects": 0, "count_Amphibians": 0, "unique_species_count": 1.0, "countryCode": "DO" }, "geometry": { "type": "MultiPolygon", "coordinates": [ [ [ [ -72.921119989666693, 15.70070580884725 ], [ -72.93375852018697, 15.441503099501194 ], [ -73.218746485097, 15.314935987398291 ], [ -73.491652862589646, 15.447680694418258 ], [ -73.480404861541828, 15.707533279271049 ], [ -73.194872275379723, 15.834011304442603 ], [ -72.921119989666693, 15.70070580884725 ] ] ] ] } },
{ "type": "Feature", "properties": { "geogrid_id": "5315827627068932078", "seqnum": 26095.0, "lat_c": 15.827627011352257, "lon_c": -68.932078210932573, "res": 9.0, "count_Flowering Plants": 0, "count_Birds": 0, "count_Ferns": 0, "count_Reptiles": 2, "count_Arachnids": 0, "count_Mammals": 1, "count_Basidiomycota": 0, "count_Gymnosperms": 0, "count_Sac Fungi": 0, "count_Molluscs": 0, "count_Mosses": 0, "count_Insects": 0, "count_Amphibians": 0, "unique_species_count": 3.0, "countryCode": "DO" }, "geometry": { "type": "MultiPolygon", "coordinates": [ [ [ [ -68.630353077369293, 15.935226474198501 ], [ -68.656084511188723, 15.685762262669453 ], [ -68.956611394775976, 15.576918305877841 ], [ -69.231908143840442, 15.717629839944047 ], [ -69.208132710393542, 15.96888849752883 ], [ -68.907128356036523, 16.077698135569381 ], [ -68.630353077369293, 15.935226474198501 ] ] ] ] } },
{ "type": "Feature", "properties": { "geogrid_id": "5315857799069507298", "seqnum": 26014.0, "lat_c": 15.857799435450401, "lon_c": -69.507298444051159, "res": 9.0, "count_Flowering Plants": 0, "count_Birds": 0, "count_Ferns": 0, "count_Reptiles": 1, "count_Arachnids": 0, "count_Mammals": 0, "count_Basidiomycota": 0, "count_Gymnosperms": 0, "count_Sac Fungi": 0, "count_Molluscs": 0, "count_Mosses": 0, "count_Insects": 0, "count_Amphibians": 0, "unique_species_count": 1.0, "countryCode": "DO" }, "geometry": { "type": "MultiPolygon", "coordinates": [ [ [ [ -69.208132710393542, 15.96888849752883 ], [ -69.231908143840442, 15.717629839944047 ], [ -69.529936305481343, 15.605436719111628 ], [ -69.804714835134376, 15.744619747637055 ], [ -69.782803918553043, 15.997453387300439 ], [ -69.484271755220746, 16.109578062803276 ], [ -69.208132710393542, 15.96888849752883 ] ] ] ] } },
{ "type": "Feature", "properties": { "geogrid_id": "5315883336070079636", "seqnum": 25932.0, "lat_c": 15.883336058065149, "lon_c": -70.079636316943933, "res": 9.0, "count_Flowering Plants": 0, "count_Birds": 0, "count_Ferns": 0, "count_Reptiles": 1, "count_Arachnids": 0, "count_Mammals": 0, "count_Basidiomycota": 0, "count_Gymnosperms": 0, "count_Sac Fungi": 0, "count_Molluscs": 0, "count_Mosses": 0, "count_Insects": 0, "count_Amphibians": 0, "unique_species_count": 1.0, "countryCode": "DO" }, "geometry": { "type": "MultiPolygon", "coordinates": [ [ [ [ -69.782803918553043, 15.997453387300439 ], [ -69.804714835134376, 15.744619747637055 ], [ -70.100466287049258, 15.629520766498446 ], [ -70.374849757470571, 15.76738693808163 ], [ -70.354719449011156, 16.021605504416151 ], [ -70.058445013239407, 16.13661542814916 ], [ -69.782803918553043, 15.997453387300439 ] ] ] ] } },
{ "type": "Feature", "properties": { "geogrid_id": "5315922833071216932", "seqnum": 25769.0, "lat_c": 15.922832883126793, "lon_c": -71.21693200454645, "res": 9.0, "count_Flowering Plants": 0, "count_Birds": 0, "count_Ferns": 0, "count_Reptiles": 0, "count_Arachnids": 0, "count_Mammals": 1, "count_Basidiomycota": 0, "count_Gymnosperms": 0, "count_Sac Fungi": 0, "count_Molluscs": 0, "count_Mosses": 0, "count_Insects": 0, "count_Amphibians": 0, "unique_species_count": 1.0, "countryCode": "DO" }, "geometry": { "type": "MultiPolygon", "coordinates": [ [ [ [ -70.924188816049082, 16.041911289651289 ], [ -70.942615506395953, 15.786473239315727 ], [ -71.234379998302501, 15.666614738997708 ], [ -71.50827836067127, 15.802329746385407 ], [ -71.49148459306808, 16.058842541063573 ], [ -71.19917629867345, 16.178597883490514 ], [ -70.924188816049082, 16.041911289651289 ] ] ] ] } },
{ "type": "Feature", "properties": { "geogrid_id": "5316219533069183954", "seqnum": 25933.0, "lat_c": 16.21953313311958, "lon_c": -69.183954426316589, "res": 9.0, "count_Flowering Plants": 0, "count_Birds": 0, "count_Ferns": 0, "count_Reptiles": 2, "count_Arachnids": 0, "count_Mammals": 0, "count_Basidiomycota": 0, "count_Gymnosperms": 0, "count_Sac Fungi": 0, "count_Molluscs": 0, "count_Mosses": 0, "count_Insects": 0, "count_Amphibians": 0, "unique_species_count": 2.0, "countryCode": "DO" }, "geometry": { "type": "MultiPolygon", "coordinates": [ [ [ [ -68.881761664804984, 16.32712368096713 ], [ -68.907128356036523, 16.077698135569381 ], [ -69.208132710393542, 15.96888849752883 ], [ -69.484271755220746, 16.109578062803276 ], [ -69.460855865711935, 16.360765069110894 ], [ -69.159373014494605, 16.469556035150987 ], [ -68.881761664804984, 16.32712368096713 ] ] ] ] } },
{ "type": "Feature", "properties": { "geogrid_id": "5316249724069760518", "seqnum": 25851.0, "lat_c": 16.249723983672176, "lon_c": -69.76051774386562, "res": 9.0, "count_Flowering Plants": 0, "count_Birds": 0, "count_Ferns": 0, "count_Reptiles": 1, "count_Arachnids": 0, "count_Mammals": 0, "count_Basidiomycota": 0, "count_Gymnosperms": 0, "count_Sac Fungi": 0, "count_Molluscs": 0, "count_Mosses": 0, "count_Insects": 0, "count_Amphibians": 0, "unique_species_count": 1.0, "countryCode": "DO" }, "geometry": { "type": "MultiPolygon", "coordinates": [ [ [ [ -69.460855865711935, 16.360765069110894 ], [ -69.484271755220746, 16.109578062803276 ], [ -69.782803918553043, 15.997453387300439 ], [ -70.058445013239407, 16.13661542814916 ], [ -70.036891849096662, 16.389351799399339 ], [ -69.737855852650597, 16.501424278201117 ], [ -69.460855865711935, 16.360765069110894 ] ] ] ] } },
{ "type": "Feature", "properties": { "geogrid_id": "5316275307070334241", "seqnum": 25770.0, "lat_c": 16.275306997422099, "lon_c": -70.334241102112657, "res": 9.0, "count_Flowering Plants": 0, "count_Birds": 0, "count_Ferns": 0, "count_Reptiles": 1, "count_Arachnids": 0, "count_Mammals": 0, "count_Basidiomycota": 0, "count_Gymnosperms": 0, "count_Sac Fungi": 0, "count_Molluscs": 0, "count_Mosses": 0, "count_Insects": 0, "count_Amphibians": 0, "unique_species_count": 1.0, "countryCode": "DO" }, "geometry": { "type": "MultiPolygon", "coordinates": [ [ [ [ -70.036891849096662, 16.389351799399339 ], [ -70.058445013239407, 16.13661542814916 ], [ -70.354719449011156, 16.021605504416151 ], [ -70.629981993677717, 16.159446019353634 ], [ -70.610210581878633, 16.413547477430772 ], [ -70.31341412701228, 16.528484599141009 ], [ -70.036891849096662, 16.389351799399339 ] ] ] ] } },
{ "type": "Feature", "properties": { "geogrid_id": "5316296874070905441", "seqnum": 25688.0, "lat_c": 16.296873808313723, "lon_c": -70.905440859442677, "res": 9.0, "count_Flowering Plants": 0, "count_Birds": 0, "count_Ferns": 0, "count_Reptiles": 1, "count_Arachnids": 0, "count_Mammals": 1, "count_Basidiomycota": 0, "count_Gymnosperms": 0, "count_Sac Fungi": 0, "count_Molluscs": 0, "count_Mosses": 0, "count_Insects": 0, "count_Amphibians": 0, "unique_species_count": 2.0, "countryCode": "DO" }, "geometry": { "type": "MultiPolygon", "coordinates": [ [ [ [ -70.610210581878633, 16.413547477430772 ], [ -70.629981993677717, 16.159446019353634 ], [ -70.924188816049082, 16.041911289651289 ], [ -71.19917629867345, 16.178597883490514 ], [ -71.181112174694519, 16.433903520669926 ], [ -70.886370957012559, 16.551354401113191 ], [ -70.610210581878633, 16.413547477430772 ] ] ] ] } },
{ "type": "Feature", "properties": { "geogrid_id": "5316575896068855978", "seqnum": 25852.0, "lat_c": 16.575895763899805, "lon_c": -68.855977973315134, "res": 9.0, "count_Flowering Plants": 0, "count_Birds": 0, "count_Ferns": 0, "count_Reptiles": 1, "count_Arachnids": 0, "count_Mammals": 0, "count_Basidiomycota": 0, "count_Gymnosperms": 0, "count_Sac Fungi": 0, "count_Molluscs": 0, "count_Mosses": 0, "count_Insects": 0, "count_Amphibians": 0, "unique_species_count": 1.0, "countryCode": "DO" }, "geometry": { "type": "MultiPolygon", "coordinates": [ [ [ [ -68.55057440502938, 16.679562497122905 ], [ -68.577598058103149, 16.432134699376956 ], [ -68.881761664804984, 16.32712368096713 ], [ -69.159373014494605, 16.469556035150987 ], [ -69.134388197175127, 16.718949597216515 ], [ -68.829777119181585, 16.824006615295577 ], [ -68.55057440502938, 16.679562497122905 ] ] ] ] } },
{ "type": "Feature", "properties": { "geogrid_id": "5316611353069437050", "seqnum": 25771.0, "lat_c": 16.611353018859479, "lon_c": -69.437050399633392, "res": 9.0, "count_Flowering Plants": 0, "count_Birds": 0, "count_Ferns": 0, "count_Reptiles": 1, "count_Arachnids": 0, "count_Mammals": 0, "count_Basidiomycota": 0, "count_Gymnosperms": 0, "count_Sac Fungi": 0, "count_Molluscs": 0, "count_Mosses": 0, "count_Insects": 0, "count_Amphibians": 0, "unique_species_count": 1.0, "countryCode": "DO" }, "geometry": { "type": "MultiPolygon", "coordinates": [ [ [ [ -69.134388197175127, 16.718949597216515 ], [ -69.159373014494605, 16.469556035150987 ], [ -69.460855865711935, 16.360765069110894 ], [ -69.737855852650597, 16.501424278201117 ], [ -69.714817782243614, 16.752547101646176 ], [ -69.412854978640581, 16.861334573721525 ], [ -69.134388197175127, 16.718949597216515 ] ] ] ] } },
{ "type": "Feature", "properties": { "geogrid_id": "5316641538070014976", "seqnum": 25689.0, "lat_c": 16.641538176566733, "lon_c": -70.014976291839403, "res": 9.0, "count_Flowering Plants": 0, "count_Birds": 0, "count_Ferns": 0, "count_Reptiles": 1, "count_Arachnids": 0, "count_Mammals": 1, "count_Basidiomycota": 0, "count_Gymnosperms": 0, "count_Sac Fungi": 0, "count_Molluscs": 0, "count_Mosses": 0, "count_Insects": 0, "count_Amphibians": 0, "unique_species_count": 2.0, "countryCode": "DO" }, "geometry": { "type": "MultiPolygon", "coordinates": [ [ [ [ -69.714817782243614, 16.752547101646176 ], [ -69.737855852650597, 16.501424278201117 ], [ -70.036891849096662, 16.389351799399339 ], [ -70.31341412701228, 16.528484599141009 ], [ -70.292237926822679, 16.781131567721054 ], [ -69.992697803086713, 16.893167647111824 ], [ -69.714817782243614, 16.752547101646176 ] ] ] ] } },
{ "type": "Feature", "properties": { "geogrid_id": "5316667143070590104", "seqnum": 25607.0, "lat_c": 16.667143274016233, "lon_c": -70.590103614993836, "res": 9.0, "count_Flowering Plants": 0, "count_Birds": 0, "count_Ferns": 0, "count_Reptiles": 1, "count_Arachnids": 0, "count_Mammals": 1, "count_Basidiomycota": 0, "count_Gymnosperms": 0, "count_Sac Fungi": 0, "count_Molluscs": 0, "count_Mosses": 0, "count_Insects": 0, "count_Amphibians": 0, "unique_species_count": 2.0, "countryCode": "DO" }, "geometry": { "type": "MultiPolygon", "coordinates": [ [ [ [ -70.292237926822679, 16.781131567721054 ], [ -70.31341412701228, 16.528484599141009 ], [ -70.610210581878633, 16.413547477430772 ], [ -70.886370957012559, 16.551354401113191 ], [ -70.866978419858995, 16.805346738937004 ], [ -70.569660441207148, 16.92022691106563 ], [ -70.292237926822679, 16.781131567721054 ] ] ] ] } },
{ "type": "Feature", "properties": { "geogrid_id": "5316721778072301587", "seqnum": 25362.0, "lat_c": 16.721778323345212, "lon_c": -72.301586672399964, "res": 9.0, "count_Flowering Plants": 0, "count_Birds": 0, "count_Ferns": 0, "count_Reptiles": 0, "count_Arachnids": 0, "count_Mammals": 1, "count_Basidiomycota": 0, "count_Gymnosperms": 0, "count_Sac Fungi": 0, "count_Molluscs": 0, "count_Mosses": 0, "count_Insects": 0, "count_Amphibians": 0, "unique_species_count": 1.0, "countryCode": "DO" }, "geometry": { "type": "MultiPolygon", "coordinates": [ [ [ [ -72.009551751046132, 16.842730408540149 ], [ -72.025587585367063, 16.58649821548472 ], [ -72.316694104472049, 16.4648671455939 ], [ -72.592323716970668, 16.599567769685205 ], [ -72.577871653122742, 16.856729270698999 ], [ -72.286220741812244, 16.978288133152372 ], [ -72.009551751046132, 16.842730408540149 ] ] ] ] } },
{ "type": "Feature", "properties": { "geogrid_id": "5316926295068523120", "seqnum": 25772.0, "lat_c": 16.926295482051557, "lon_c": -68.52311995096855, "res": 9.0, "count_Flowering Plants": 0, "count_Birds": 1, "count_Ferns": 0, "count_Reptiles": 1, "count_Arachnids": 0, "count_Mammals": 0, "count_Basidiomycota": 0, "count_Gymnosperms": 0, "count_Sac Fungi": 0, "count_Molluscs": 0, "count_Mosses": 0, "count_Insects": 0, "count_Amphibians": 0, "unique_species_count": 2.0, "countryCode": "DO" }, "geometry": { "type": "MultiPolygon", "coordinates": [ [ [ [ -68.214314136183091, 17.025563903577858 ], [ -68.243060584218313, 16.780311378179771 ], [ -68.55057440502938, 16.679562497122905 ], [ -68.829777119181585, 16.824006615295577 ], [ -68.803158941734893, 17.071448581269166 ], [ -68.495234671965932, 17.172325858628163 ], [ -68.214314136183091, 17.025563903577858 ] ] ] ] } },
{ "type": "Feature", "properties": { "geogrid_id": "5316967706069109000", "seqnum": 25690.0, "lat_c": 16.967706318700184, "lon_c": -69.10899969613925, "res": 9.0, "count_Flowering Plants": 0, "count_Birds": 0, "count_Ferns": 0, "count_Reptiles": 2, "count_Arachnids": 0, "count_Mammals": 0, "count_Basidiomycota": 0, "count_Gymnosperms": 0, "count_Sac Fungi": 0, "count_Molluscs": 0, "count_Mosses": 0, "count_Insects": 0, "count_Amphibians": 0, "unique_species_count": 2.0, "countryCode": "DO" }, "geometry": { "type": "MultiPolygon", "coordinates": [ [ [ [ -68.803158941734893, 17.071448581269166 ], [ -68.829777119181585, 16.824006615295577 ], [ -69.134388197175127, 16.718949597216515 ], [ -69.412854978640581, 16.861334573721525 ], [ -69.388269222097236, 17.110702493160652 ], [ -69.083207232873889, 17.215818805368368 ], [ -68.803158941734893, 17.071448581269166 ] ] ] ] } },
{ "type": "Feature", "properties": { "geogrid_id": "5317003085069691403", "seqnum": 25608.0, "lat_c": 17.003085374685735, "lon_c": -69.691403065885453, "res": 9.0, "count_Flowering Plants": 0, "count_Birds": 5, "count_Ferns": 0, "count_Reptiles": 1, "count_Arachnids": 0, "count_Mammals": 0, "count_Basidiomycota": 0, "count_Gymnosperms": 0, "count_Sac Fungi": 0, "count_Molluscs": 0, "count_Mosses": 0, "count_Insects": 0, "count_Amphibians": 0, "unique_species_count": 6.0, "countryCode": "DO" }, "geometry": { "type": "MultiPolygon", "coordinates": [ [ [ [ -69.388269222097236, 17.110702493160652 ], [ -69.412854978640581, 16.861334573721525 ], [ -69.714817782243614, 16.752547101646176 ], [ -69.992697803086713, 16.893167647111824 ], [ -69.970055838887347, 17.144233381783035 ], [ -69.667611232871479, 17.253032108495052 ], [ -69.388269222097236, 17.110702493160652 ] ] ] ] } },
{ "type": "Feature", "properties": { "geogrid_id": "5317033241070270712", "seqnum": 25527.0, "lat_c": 17.033241237991145, "lon_c": -70.27071189764979, "res": 9.0, "count_Flowering Plants": 0, "count_Birds": 3, "count_Ferns": 0, "count_Reptiles": 1, "count_Arachnids": 0, "count_Mammals": 1, "count_Basidiomycota": 0, "count_Gymnosperms": 0, "count_Sac Fungi": 0, "count_Molluscs": 0, "count_Mosses": 0, "count_Insects": 0, "count_Amphibians": 0, "unique_species_count": 5.0, "countryCode": "DO" }, "geometry": { "type": "MultiPolygon", "coordinates": [ [ [ [ -69.970055838887347, 17.144233381783035 ], [ -69.992697803086713, 16.893167647111824 ], [ -70.292237926822679, 16.781131567721054 ], [ -70.569660441207148, 16.92022691106563 ], [ -70.548880400545258, 17.172791961702568 ], [ -70.248835428712184, 17.284807022009286 ], [ -69.970055838887347, 17.144233381783035 ] ] ] ] } },
{ "type": "Feature", "properties": { "geogrid_id": "5317058845070847263", "seqnum": 25445.0, "lat_c": 17.058844558282118, "lon_c": -70.847262549831981, "res": 9.0, "count_Flowering Plants": 0, "count_Birds": 2, "count_Ferns": 0, "count_Reptiles": 1, "count_Arachnids": 0, "count_Mammals": 0, "count_Basidiomycota": 0, "count_Gymnosperms": 0, "count_Sac Fungi": 0, "count_Molluscs": 0, "count_Mosses": 0, "count_Insects": 0, "count_Amphibians": 0, "unique_species_count": 3.0, "countryCode": "DO" }, "geometry": { "type": "MultiPolygon", "coordinates": [ [ [ [ -70.548880400545258, 17.172791961702568 ], [ -70.569660441207148, 16.92022691106563 ], [ -70.866978419858995, 16.805346738937004 ], [ -71.144055797318345, 16.943112128281179 ], [ -71.125062081005325, 17.197002961897677 ], [ -70.82722263961773, 17.311841661766845 ], [ -70.548880400545258, 17.172791961702568 ] ] ] ] } },
{ "type": "Feature", "properties": { "geogrid_id": "5317080455071421352", "seqnum": 25363.0, "lat_c": 17.080454968880868, "lon_c": -71.421352223701561, "res": 9.0, "count_Flowering Plants": 0, "count_Birds": 1, "count_Ferns": 0, "count_Reptiles": 1, "count_Arachnids": 0, "count_Mammals": 0, "count_Basidiomycota": 0, "count_Gymnosperms": 0, "count_Sac Fungi": 0, "count_Molluscs": 0, "count_Mosses": 0, "count_Insects": 0, "count_Amphibians": 0, "unique_species_count": 2.0, "countryCode": "DO" }, "geometry": { "type": "MultiPolygon", "coordinates": [ [ [ [ -71.125062081005325, 17.197002961897677 ], [ -71.144055797318345, 16.943112128281179 ], [ -71.439330402345746, 16.825729542338056 ], [ -71.716160673241035, 16.962325124149579 ], [ -71.698883460801738, 17.217389333288214 ], [ -71.403076050791597, 17.334718859710762 ], [ -71.125062081005325, 17.197002961897677 ] ] ] ] } },
{ "type": "Feature", "properties": { "geogrid_id": "5317098542071993244", "seqnum": 25282.0, "lat_c": 17.098542148946809, "lon_c": -71.993244359848759, "res": 9.0, "count_Flowering Plants": 0, "count_Birds": 0, "count_Ferns": 0, "count_Reptiles": 1, "count_Arachnids": 0, "count_Mammals": 0, "count_Basidiomycota": 0, "count_Gymnosperms": 0, "count_Sac Fungi": 0, "count_Molluscs": 0, "count_Mosses": 0, "count_Insects": 0, "count_Amphibians": 0, "unique_species_count": 1.0, "countryCode": "DO" }, "geometry": { "type": "MultiPolygon", "coordinates": [ [ [ [ -71.698883460801738, 17.217389333288214 ], [ -71.716160673241035, 16.962325124149579 ], [ -72.009551751046132, 16.842730408540149 ], [ -72.286220741812244, 16.978288133152372 ], [ -72.270595516615472, 17.234391264800852 ], [ -71.976664614583342, 17.353927975851917 ], [ -71.698883460801738, 17.217389333288214 ] ] ] ] } },
{ "type": "Feature", "properties": { "geogrid_id": "5317113502072563173", "seqnum": 25200.0, "lat_c": 17.11350242047871, "lon_c": -72.563173237338773, "res": 9.0, "count_Flowering Plants": 0, "count_Birds": 0, "count_Ferns": 0, "count_Reptiles": 0, "count_Arachnids": 0, "count_Mammals": 1, "count_Basidiomycota": 0, "count_Gymnosperms": 0, "count_Sac Fungi": 0, "count_Molluscs": 0, "count_Mosses": 0, "count_Insects": 0, "count_Amphibians": 0, "unique_species_count": 1.0, "countryCode": "DO" }, "geometry": { "type": "MultiPolygon", "coordinates": [ [ [ [ -72.270595516615472, 17.234391264800852 ], [ -72.286220741812244, 16.978288133152372 ], [ -72.577871653122742, 16.856729270698999 ], [ -72.854454778573952, 16.991358300615527 ], [ -72.840421878525149, 17.24838122629485 ], [ -72.548227668112744, 17.369882100522315 ], [ -72.270595516615472, 17.234391264800852 ] ] ] ] } },
{ "type": "Feature", "properties": { "geogrid_id": "5317318214068776123", "seqnum": 25609.0, "lat_c": 17.318214123689913, "lon_c": -68.776123282201155, "res": 9.0, "count_Flowering Plants": 0, "count_Birds": 0, "count_Ferns": 0, "count_Reptiles": 2, "count_Arachnids": 0, "count_Mammals": 1, "count_Basidiomycota": 0, "count_Gymnosperms": 0, "count_Sac Fungi": 0, "count_Molluscs": 0, "count_Mosses": 0, "count_Insects": 0, "count_Amphibians": 0, "unique_species_count": 3.0, "countryCode": "DO" }, "geometry": { "type": "MultiPolygon", "coordinates": [ [ [ [ -68.466918548337134, 17.417645957290361 ], [ -68.495234671965932, 17.172325858628163 ], [ -68.803158941734893, 17.071448581269166 ], [ -69.083207232873889, 17.215818805368368 ], [ -69.057010528745465, 17.463279769921826 ], [ -68.74866998388255, 17.564295820705471 ], [ -68.466918548337134, 17.417645957290361 ] ] ] ] } },
{ "type": "Feature", "properties": { "geogrid_id": "5317359450069363293", "seqnum": 25528.0, "lat_c": 17.359449635000765, "lon_c": -69.363292747238191, "res": 9.0, "count_Flowering Plants": 0, "count_Birds": 0, "count_Ferns": 0, "count_Reptiles": 1, "count_Arachnids": 0, "count_Mammals": 1, "count_Basidiomycota": 0, "count_Gymnosperms": 0, "count_Sac Fungi": 0, "count_Molluscs": 0, "count_Mosses": 0, "count_Insects": 0, "count_Amphibians": 0, "unique_species_count": 2.0, "countryCode": "DO" }, "geometry": { "type": "MultiPolygon", "coordinates": [ [ [ [ -69.057010528745465, 17.463279769921826 ], [ -69.083207232873889, 17.215818805368368 ], [ -69.388269222097236, 17.110702493160652 ], [ -69.667611232871479, 17.253032108495052 ], [ -69.643441808702548, 17.502380405291738 ], [ -69.337925169333673, 17.607568955959696 ], [ -69.057010528745465, 17.463279769921826 ] ] ] ] } },
{ "type": "Feature", "properties": { "geogrid_id": "5317394729069947050", "seqnum": 25446.0, "lat_c": 17.394728635166643, "lon_c": -69.947049849855389, "res": 9.0, "count_Flowering Plants": 0, "count_Birds": 0, "count_Ferns": 0, "count_Reptiles": 1, "count_Arachnids": 0, "count_Mammals": 1, "count_Basidiomycota": 0, "count_Gymnosperms": 0, "count_Sac Fungi": 0, "count_Molluscs": 0, "count_Mosses": 0, "count_Insects": 0, "count_Amphibians": 0, "unique_species_count": 2.0, "countryCode": "DO" }, "geometry": { "type": "MultiPolygon", "coordinates": [ [ [ [ -69.643441808702548, 17.502380405291738 ], [ -69.667611232871479, 17.253032108495052 ], [ -69.970055838887347, 17.144233381783035 ], [ -70.248835428712184, 17.284807022009286 ], [ -70.22660790246178, 17.535822409585251 ], [ -69.923679281307443, 17.644646746208046 ], [ -69.643441808702548, 17.502380405291738 ] ] ] ] } },
{ "type": "Feature", "properties": { "geogrid_id": "5317424832070527763", "seqnum": 25364.0, "lat_c": 17.424832070737796, "lon_c": -70.527762824981309, "res": 9.0, "count_Flowering Plants": 0, "count_Birds": 0, "count_Ferns": 0, "count_Reptiles": 1, "count_Arachnids": 0, "count_Mammals": 0, "count_Basidiomycota": 0, "count_Gymnosperms": 0, "count_Sac Fungi": 0, "count_Molluscs": 0, "count_Mosses": 0, "count_Insects": 0, "count_Amphibians": 0, "unique_species_count": 1.0, "countryCode": "DO" }, "geometry": { "type": "MultiPolygon", "coordinates": [ [ [ [ -70.22660790246178, 17.535822409585251 ], [ -70.248835428712184, 17.284807022009286 ], [ -70.548880400545258, 17.172791961702568 ], [ -70.82722263961773, 17.311841661766845 ], [ -70.80685797282635, 17.564331918621797 ], [ -70.506307038539902, 17.676340955165205 ], [ -70.22660790246178, 17.535822409585251 ] ] ] ] } },
{ "type": "Feature", "properties": { "geogrid_id": "5317450410071105757", "seqnum": 25283.0, "lat_c": 17.450410159683209, "lon_c": -71.105757020895027, "res": 9.0, "count_Flowering Plants": 0, "count_Birds": 3, "count_Ferns": 0, "count_Reptiles": 1, "count_Arachnids": 0, "count_Mammals": 0, "count_Basidiomycota": 0, "count_Gymnosperms": 0, "count_Sac Fungi": 0, "count_Molluscs": 0, "count_Mosses": 0, "count_Insects": 0, "count_Amphibians": 0, "unique_species_count": 4.0, "countryCode": "DO" }, "geometry": { "type": "MultiPolygon", "coordinates": [ [ [ [ -70.80685797282635, 17.564331918621797 ], [ -70.82722263961773, 17.311841661766845 ], [ -71.125062081005325, 17.197002961897677 ], [ -71.403076050791597, 17.334718859710762 ], [ -71.384501105382924, 17.588515451169286 ], [ -71.086139860481282, 17.703327807193396 ], [ -70.80685797282635, 17.564331918621797 ] ] ] ] } },
{ "type": "Feature", "properties": { "geogrid_id": "5317472007071681321", "seqnum": 25201.0, "lat_c": 17.472007438223343, "lon_c": -71.681320730214878, "res": 9.0, "count_Flowering Plants": 17, "count_Birds": 16, "count_Ferns": 0, "count_Reptiles": 12, "count_Arachnids": 2, "count_Mammals": 2, "count_Basidiomycota": 0, "count_Gymnosperms": 0, "count_Sac Fungi": 0, "count_Molluscs": 0, "count_Mosses": 0, "count_Insects": 9, "count_Amphibians": 0, "unique_species_count": 58.0, "countryCode": "DO" }, "geometry": { "type": "MultiPolygon", "coordinates": [ [ [ [ -71.384501105382924, 17.588515451169286 ], [ -71.403076050791597, 17.334718859710762 ], [ -71.698883460801738, 17.217389333288214 ], [ -71.976664614583342, 17.353927975851917 ], [ -71.959811706139959, 17.608882477771246 ], [ -71.66347167858379, 17.726173880099118 ], [ -71.384501105382924, 17.588515451169286 ] ] ] ] } },
{ "type": "Feature", "properties": { "geogrid_id": "5317490082072254710", "seqnum": 25119.0, "lat_c": 17.490082453777049, "lon_c": -72.254710188410328, "res": 9.0, "count_Flowering Plants": 0, "count_Birds": 0, "count_Ferns": 0, "count_Reptiles": 0, "count_Arachnids": 0, "count_Mammals": 1, "count_Basidiomycota": 0, "count_Gymnosperms": 0, "count_Sac Fungi": 0, "count_Molluscs": 0, "count_Mosses": 0, "count_Insects": 0, "count_Amphibians": 0, "unique_species_count": 1.0, "countryCode": "DO" }, "geometry": { "type": "MultiPolygon", "coordinates": [ [ [ [ -71.959811706139959, 17.608882477771246 ], [ -71.976664614583342, 17.353927975851917 ], [ -72.270595516615472, 17.234391264800852 ], [ -72.548227668112744, 17.369882100522315 ], [ -72.533034131373185, 17.625863235036 ], [ -72.238563936502516, 17.74535648166178 ], [ -71.959811706139959, 17.608882477771246 ] ] ] ] } },
{ "type": "Feature", "properties": { "geogrid_id": "5317662248068438172", "seqnum": 25529.0, "lat_c": 17.662248234929773, "lon_c": -68.438171564850691, "res": 9.0, "count_Flowering Plants": 0, "count_Birds": 1, "count_Ferns": 0, "count_Reptiles": 0, "count_Arachnids": 0, "count_Mammals": 1, "count_Basidiomycota": 0, "count_Gymnosperms": 0, "count_Sac Fungi": 0, "count_Molluscs": 0, "count_Mosses": 0, "count_Insects": 0, "count_Amphibians": 0, "unique_species_count": 2.0, "countryCode": "DO" }, "geometry": { "type": "MultiPolygon", "coordinates": [ [ [ [ -68.206692423892974, 17.882671324111147 ], [ -68.196022062448463, 17.576704560729265 ], [ -68.466918548337134, 17.417645957290361 ], [ -68.74866998388255, 17.564295820705471 ], [ -68.720798892338777, 17.809686367221477 ], [ -68.449733015118767, 17.968976594225026 ], [ -68.206692423892974, 17.882671324111147 ] ] ] ] } },
{ "type": "Feature", "properties": { "geogrid_id": "5317710082069030409", "seqnum": 25447.0, "lat_c": 17.710082032508119, "lon_c": -69.03040930517453, "res": 9.0, "count_Flowering Plants": 0, "count_Birds": 0, "count_Ferns": 0, "count_Reptiles": 1, "count_Arachnids": 0, "count_Mammals": 1, "count_Basidiomycota": 0, "count_Gymnosperms": 0, "count_Sac Fungi": 0, "count_Molluscs": 0, "count_Mosses": 0, "count_Insects": 0, "count_Amphibians": 0, "unique_species_count": 2.0, "countryCode": "DO" }, "geometry": { "type": "MultiPolygon", "coordinates": [ [ [ [ -68.720798892338777, 17.809686367221477 ], [ -68.74866998388255, 17.564295820705471 ], [ -69.057010528745465, 17.463279769921826 ], [ -69.337925169333673, 17.607568955959696 ], [ -69.312166101854785, 17.855053512147439 ], [ -69.003403283811792, 17.956218521194696 ], [ -68.720798892338777, 17.809686367221477 ] ] ] ] } },
{ "type": "Feature", "properties": { "geogrid_id": "5317751123069618894", "seqnum": 25365.0, "lat_c": 17.751123458849428, "lon_c": -69.618894315237398, "res": 9.0, "count_Flowering Plants": 0, "count_Birds": 0, "count_Ferns": 0, "count_Reptiles": 0, "count_Arachnids": 0, "count_Mammals": 1, "count_Basidiomycota": 0, "count_Gymnosperms": 0, "count_Sac Fungi": 0, "count_Molluscs": 0, "count_Mosses": 0, "count_Insects": 0, "count_Amphibians": 0, "unique_species_count": 1.0, "countryCode": "DO" }, "geometry": { "type": "MultiPolygon", "coordinates": [ [ [ [ -69.312166101854785, 17.855053512147439 ], [ -69.337925169333673, 17.607568955959696 ], [ -69.643441808702548, 17.502380405291738 ], [ -69.923679281307443, 17.644646746208046 ], [ -69.899943573401245, 17.893981138704543 ], [ -69.593968270846403, 17.99925455497976 ], [ -69.312166101854785, 17.855053512147439 ] ] ] ] } },
{ "type": "Feature", "properties": { "geogrid_id": "5317786281070204029", "seqnum": 25284.0, "lat_c": 17.786280968777593, "lon_c": -70.204028694705968, "res": 9.0, "count_Flowering Plants": 0, "count_Birds": 0, "count_Ferns": 0, "count_Reptiles": 1, "count_Arachnids": 0, "count_Mammals": 0, "count_Basidiomycota": 0, "count_Gymnosperms": 0, "count_Sac Fungi": 0, "count_Molluscs": 0, "count_Mosses": 0, "count_Insects": 0, "count_Amphibians": 0, "unique_species_count": 1.0, "countryCode": "DO" }, "geometry": { "type": "MultiPolygon", "coordinates": [ [ [ [ -69.899943573401245, 17.893981138704543 ], [ -69.923679281307443, 17.644646746208046 ], [ -70.22660790246178, 17.535822409585251 ], [ -70.506307038539902, 17.676340955165205 ], [ -70.484512357403418, 17.927312404634829 ], [ -70.181097174731164, 18.036176346365046 ], [ -69.899943573401245, 17.893981138704543 ] ] ] ] } },
{ "type": "Feature", "properties": { "geogrid_id": "5317816309070786168", "seqnum": 25202.0, "lat_c": 17.816309265160065, "lon_c": -70.78616782408065, "res": 9.0, "count_Flowering Plants": 0, "count_Birds": 0, "count_Ferns": 0, "count_Reptiles": 1, "count_Arachnids": 0, "count_Mammals": 1, "count_Basidiomycota": 0, "count_Gymnosperms": 0, "count_Sac Fungi": 0, "count_Molluscs": 0, "count_Mosses": 0, "count_Insects": 0, "count_Amphibians": 0, "unique_species_count": 2.0, "countryCode": "DO" }, "geometry": { "type": "MultiPolygon", "coordinates": [ [ [ [ -70.484512357403418, 17.927312404634829 ], [ -70.506307038539902, 17.676340955165205 ], [ -70.80685797282635, 17.564331918621797 ], [ -71.086139860481282, 17.703327807193396 ], [ -71.066209833368191, 17.955750052389323 ], [ -70.76515145910615, 18.067767705226647 ], [ -70.484512357403418, 17.927312404634829 ] ] ] ] } },
{ "type": "Feature", "properties": { "geogrid_id": "5317841839071365627", "seqnum": 25120.0, "lat_c": 17.841839037289141, "lon_c": -71.365626598523903, "res": 9.0, "count_Flowering Plants": 239, "count_Birds": 76, "count_Ferns": 4, "count_Reptiles": 37, "count_Arachnids": 20, "count_Mammals": 15, "count_Basidiomycota": 4, "count_Gymnosperms": 0, "count_Sac Fungi": 0, "count_Molluscs": 10, "count_Mosses": 1, "count_Insects": 309, "count_Amphibians": 7, "unique_species_count": 722.0, "countryCode": "DO" }, "geometry": { "type": "MultiPolygon", "coordinates": [ [ [ [ -71.066209833368191, 17.955750052389323 ], [ -71.086139860481282, 17.703327807193396 ], [ -71.384501105382924, 17.588515451169286 ], [ -71.66347167858379, 17.726173880099118 ], [ -71.645335491659907, 17.979883153829192 ], [ -71.34645173060072, 18.094683970215474 ], [ -71.066209833368191, 17.955750052389323 ] ] ] ] } },
{ "type": "Feature", "properties": { "geogrid_id": "5317863400071942685", "seqnum": 25039.0, "lat_c": 17.863400292993411, "lon_c": -71.942684813515271, "res": 9.0, "count_Flowering Plants": 24, "count_Birds": 43, "count_Ferns": 0, "count_Reptiles": 9, "count_Arachnids": 1, "count_Mammals": 4, "count_Basidiomycota": 0, "count_Gymnosperms": 0, "count_Sac Fungi": 0, "count_Molluscs": 6, "count_Mosses": 0, "count_Insects": 25, "count_Amphibians": 2, "unique_species_count": 114.0, "countryCode": "DO" }, "geometry": { "type": "MultiPolygon", "coordinates": [ [ [ [ -71.645335491659907, 17.979883153829192 ], [ -71.66347167858379, 17.726173880099118 ], [ -71.959811706139959, 17.608882477771246 ], [ -72.238563936502516, 17.74535648166178 ], [ -72.222155927913775, 18.000208176511293 ], [ -71.925283103838041, 18.117476109970365 ], [ -71.645335491659907, 17.979883153829192 ] ] ] ] } },
{ "type": "Feature", "properties": { "geogrid_id": "5318054379068692510", "seqnum": 25366.0, "lat_c": 18.054378575337442, "lon_c": -68.692509855569298, "res": 9.0, "count_Flowering Plants": 93, "count_Birds": 43, "count_Ferns": 1, "count_Reptiles": 16, "count_Arachnids": 6, "count_Mammals": 2, "count_Basidiomycota": 2, "count_Gymnosperms": 1, "count_Sac Fungi": 0, "count_Molluscs": 92, "count_Mosses": 0, "count_Insects": 44, "count_Amphibians": 1, "unique_species_count": 301.0, "countryCode": "DO" }, "geometry": { "type": "MultiPolygon", "coordinates": [ [ [ [ -68.461083312157896, 18.275064263375775 ], [ -68.449733015118767, 17.968976594225026 ], [ -68.720798892338777, 17.809686367221477 ], [ -69.003403283811792, 17.956218521194696 ], [ -68.975992186715047, 18.201682272402849 ], [ -68.704754254530471, 18.361209916736794 ], [ -68.461083312157896, 18.275064263375775 ] ] ] ] } },
{ "type": "Feature", "properties": { "geogrid_id": "5318101896069286015", "seqnum": 25285.0, "lat_c": 18.101896459529154, "lon_c": -69.286015156640531, "res": 9.0, "count_Flowering Plants": 0, "count_Birds": 1, "count_Ferns": 0, "count_Reptiles": 0, "count_Arachnids": 0, "count_Mammals": 1, "count_Basidiomycota": 0, "count_Gymnosperms": 0, "count_Sac Fungi": 0, "count_Molluscs": 0, "count_Mosses": 0, "count_Insects": 0, "count_Amphibians": 0, "unique_species_count": 2.0, "countryCode": "DO" }, "geometry": { "type": "MultiPolygon", "coordinates": [ [ [ [ -68.975992186715047, 18.201682272402849 ], [ -69.003403283811792, 17.956218521194696 ], [ -69.312166101854785, 17.855053512147439 ], [ -69.593968270846403, 17.99925455497976 ], [ -69.568663190566738, 18.246767071982806 ], [ -69.259471944065751, 18.348091054353173 ], [ -68.975992186715047, 18.201682272402849 ] ] ] ] } },
{ "type": "Feature", "properties": { "geogrid_id": "5318142725069875842", "seqnum": 25203.0, "lat_c": 18.142725321769685, "lon_c": -69.875842161275614, "res": 9.0, "count_Flowering Plants": 12, "count_Birds": 25, "count_Ferns": 0, "count_Reptiles": 11, "count_Arachnids": 1, "count_Mammals": 2, "count_Basidiomycota": 1, "count_Gymnosperms": 0, "count_Sac Fungi": 0, "count_Molluscs": 7, "count_Mosses": 0, "count_Insects": 15, "count_Amphibians": 0, "unique_species_count": 74.0, "countryCode": "DO" }, "geometry": { "type": "MultiPolygon", "coordinates": [ [ [ [ -69.568663190566738, 18.246767071982806 ], [ -69.593968270846403, 17.99925455497976 ], [ -69.899943573401245, 17.893981138704543 ], [ -70.181097174731164, 18.036176346365046 ], [ -70.157812705427588, 18.285502268292419 ], [ -69.85137447519196, 18.390872890269296 ], [ -69.568663190566738, 18.246767071982806 ] ] ] ] } },
{ "type": "Feature", "properties": { "geogrid_id": "5318177740070462378", "seqnum": 25121.0, "lat_c": 18.177740281902778, "lon_c": -70.462378090019484, "res": 9.0, "count_Flowering Plants": 150, "count_Birds": 85, "count_Ferns": 0, "count_Reptiles": 21, "count_Arachnids": 10, "count_Mammals": 2, "count_Basidiomycota": 3, "count_Gymnosperms": 0, "count_Sac Fungi": 1, "count_Molluscs": 28, "count_Mosses": 0, "count_Insects": 94, "count_Amphibians": 4, "unique_species_count": 398.0, "countryCode": "DO" }, "geometry": { "type": "MultiPolygon", "coordinates": [ [ [ [ -70.157812705427588, 18.285502268292419 ], [ -70.181097174731164, 18.036176346365046 ], [ -70.484512357403418, 17.927312404634829 ], [ -70.76515145910615, 18.067767705226647 ], [ -70.743808134822189, 18.318701310627127 ], [ -70.439903537209844, 18.42761852325825 ], [ -70.157812705427588, 18.285502268292419 ] ] ] ] } },
{ "type": "Feature", "properties": { "geogrid_id": "5318188031068217173", "seqnum": 25448.0, "lat_c": 18.188030650881291, "lon_c": -68.217172702229917, "res": 9.0, "count_Flowering Plants": 0, "count_Birds": 1, "count_Ferns": 0, "count_Reptiles": 1, "count_Arachnids": 0, "count_Mammals": 0, "count_Basidiomycota": 0, "count_Gymnosperms": 0, "count_Sac Fungi": 0, "count_Molluscs": 0, "count_Mosses": 0, "count_Insects": 0, "count_Amphibians": 0, "unique_species_count": 2.0, "countryCode": "DO" }, "geometry": { "type": "MultiPolygon", "coordinates": [ [ [ [ -67.982528705085628, 18.404227744597534 ], [ -67.973032258434188, 18.100110388240008 ], [ -68.206692423892974, 17.882671324111147 ], [ -68.449733015118767, 17.968976594225026 ], [ -68.461083312157896, 18.275064263375775 ], [ -68.227497448646005, 18.492830409235928 ], [ -67.982528705085628, 18.404227744597534 ] ] ] ] } },
{ "type": "Feature", "properties": { "geogrid_id": "5318207671071045966", "seqnum": 25040.0, "lat_c": 18.207671106064048, "lon_c": -71.045966163343849, "res": 9.0, "count_Flowering Plants": 583, "count_Birds": 80, "count_Ferns": 75, "count_Reptiles": 46, "count_Arachnids": 25, "count_Mammals": 6, "count_Basidiomycota": 16, "count_Gymnosperms": 2, "count_Sac Fungi": 6, "count_Molluscs": 39, "count_Mosses": 14, "count_Insects": 298, "count_Amphibians": 15, "unique_species_count": 1205.0, "countryCode": "DO" }, "geometry": { "type": "MultiPolygon", "coordinates": [ [ [ [ -70.743808134822189, 18.318701310627127 ], [ -70.76515145910615, 18.067767705226647 ], [ -71.066209833368191, 17.955750052389323 ], [ -71.34645173060072, 18.094683970215474 ], [ -71.32697569139475, 18.347044660610308 ], [ -71.025408064454751, 18.459085242250453 ], [ -70.743808134822189, 18.318701310627127 ] ] ] ] } },
{ "type": "Feature", "properties": { "geogrid_id": "5318233130071626911", "seqnum": 24958.0, "lat_c": 18.233129808495139, "lon_c": -71.626911343883663, "res": 9.0, "count_Flowering Plants": 430, "count_Birds": 93, "count_Ferns": 14, "count_Reptiles": 54, "count_Arachnids": 30, "count_Mammals": 7, "count_Basidiomycota": 4, "count_Gymnosperms": 3, "count_Sac Fungi": 7, "count_Molluscs": 10, "count_Mosses": 8, "count_Insects": 344, "count_Amphibians": 16, "unique_species_count": 1020.0, "countryCode": "DO" }, "geometry": { "type": "MultiPolygon", "coordinates": [ [ [ [ -71.32697569139475, 18.347044660610308 ], [ -71.34645173060072, 18.094683970215474 ], [ -71.645335491659907, 17.979883153829192 ], [ -71.925283103838041, 18.117476109970365 ], [ -71.907605732394785, 18.37110466769407 ], [ -71.608198398425898, 18.485908447729663 ], [ -71.32697569139475, 18.347044660610308 ] ] ] ] } },
{ "type": "Feature", "properties": { "geogrid_id": "5318446466068948176", "seqnum": 25204.0, "lat_c": 18.446466431302809, "lon_c": -68.948175736527205, "res": 9.0, "count_Flowering Plants": 255, "count_Birds": 98, "count_Ferns": 1, "count_Reptiles": 36, "count_Arachnids": 23, "count_Mammals": 8, "count_Basidiomycota": 10, "count_Gymnosperms": 1, "count_Sac Fungi": 11, "count_Molluscs": 189, "count_Mosses": 0, "count_Insects": 193, "count_Amphibians": 7, "unique_species_count": 832.0, "countryCode": "DO" }, "geometry": { "type": "MultiPolygon", "coordinates": [ [ [ [ -68.716804369791816, 18.66741865657804 ], [ -68.704754254530471, 18.361209916736794 ], [ -68.975992186715047, 18.201682272402849 ], [ -69.259471944065751, 18.348091054353173 ], [ -69.232536073210596, 18.593630653544203 ], [ -68.961123515086044, 18.753401553592639 ], [ -68.716804369791816, 18.66741865657804 ] ] ] ] } },
{ "type": "Feature", "properties": { "geogrid_id": "5318493654069542979", "seqnum": 25122.0, "lat_c": 18.493654481066081, "lon_c": -69.54297858625884, "res": 9.0, "count_Flowering Plants": 238, "count_Birds": 61, "count_Ferns": 4, "count_Reptiles": 24, "count_Arachnids": 21, "count_Mammals": 4, "count_Basidiomycota": 7, "count_Gymnosperms": 1, "count_Sac Fungi": 1, "count_Molluscs": 20, "count_Mosses": 8, "count_Insects": 130, "count_Amphibians": 2, "unique_species_count": 521.0, "countryCode": "DO" }, "geometry": { "type": "MultiPolygon", "coordinates": [ [ [ [ -69.232536073210596, 18.593630653544203 ], [ -69.259471944065751, 18.348091054353173 ], [ -69.568663190566738, 18.246767071982806 ], [ -69.85137447519196, 18.390872890269296 ], [ -69.826539940676923, 18.638417525229322 ], [ -69.51691396676415, 18.739910346732362 ], [ -69.232536073210596, 18.593630653544203 ] ] ] ] } },
{ "type": "Feature", "properties": { "geogrid_id": "5318534253070134175", "seqnum": 25041.0, "lat_c": 18.534252540091011, "lon_c": -70.134174643415562, "res": 9.0, "count_Flowering Plants": 623, "count_Birds": 104, "count_Ferns": 30, "count_Reptiles": 48, "count_Arachnids": 41, "count_Mammals": 9, "count_Basidiomycota": 39, "count_Gymnosperms": 1, "count_Sac Fungi": 30, "count_Molluscs": 55, "count_Mosses": 4, "count_Insects": 430, "count_Amphibians": 11, "unique_species_count": 1425.0, "countryCode": "DO" }, "geometry": { "type": "MultiPolygon", "coordinates": [ [ [ [ -69.826539940676923, 18.638417525229322 ], [ -69.85137447519196, 18.390872890269296 ], [ -70.157812705427588, 18.285502268292419 ], [ -70.439903537209844, 18.42761852325825 ], [ -70.417087992280429, 18.676941138927592 ], [ -70.110182339173022, 18.782421047273694 ], [ -69.826539940676923, 18.638417525229322 ] ] ] ] } },
{ "type": "Feature", "properties": { "geogrid_id": "5318569104070722137", "seqnum": 24959.0, "lat_c": 18.569104221535682, "lon_c": -70.722137099434164, "res": 9.0, "count_Flowering Plants": 244, "count_Birds": 34, "count_Ferns": 6, "count_Reptiles": 30, "count_Arachnids": 14, "count_Mammals": 2, "count_Basidiomycota": 1, "count_Gymnosperms": 2, "count_Sac Fungi": 6, "count_Molluscs": 18, "count_Mosses": 12, "count_Insects": 81, "count_Amphibians": 12, "unique_species_count": 462.0, "countryCode": "DO" }, "geometry": { "type": "MultiPolygon", "coordinates": [ [ [ [ -70.417087992280429, 18.676941138927592 ], [ -70.439903537209844, 18.42761852325825 ], [ -70.743808134822189, 18.318701310627127 ], [ -71.025408064454751, 18.459085242250453 ], [ -71.004534741081457, 18.709986798610402 ], [ -70.700137592526957, 18.818970646882448 ], [ -70.417087992280429, 18.676941138927592 ] ] ] ] } },
{ "type": "Feature", "properties": { "geogrid_id": "5318580561068472259", "seqnum": 25286.0, "lat_c": 18.580561181571468, "lon_c": -68.472259181002514, "res": 9.0, "count_Flowering Plants": 359, "count_Birds": 113, "count_Ferns": 7, "count_Reptiles": 34, "count_Arachnids": 36, "count_Mammals": 9, "count_Basidiomycota": 13, "count_Gymnosperms": 1, "count_Sac Fungi": 3, "count_Molluscs": 75, "count_Mosses": 3, "count_Insects": 351, "count_Amphibians": 10, "unique_species_count": 1014.0, "countryCode": "DO" }, "geometry": { "type": "MultiPolygon", "coordinates": [ [ [ [ -68.237698108284675, 18.79711473074131 ], [ -68.227497448646005, 18.492830409235928 ], [ -68.461083312157896, 18.275064263375775 ], [ -68.704754254530471, 18.361209916736794 ], [ -68.716804369791816, 18.66741865657804 ], [ -68.483294050155379, 18.885513389466684 ], [ -68.237698108284675, 18.79711473074131 ] ] ] ] } },
{ "type": "Feature", "properties": { "geogrid_id": "5318598916071307198", "seqnum": 24877.0, "lat_c": 18.598915578040071, "lon_c": -71.307197660140631, "res": 9.0, "count_Flowering Plants": 154, "count_Birds": 10, "count_Ferns": 6, "count_Reptiles": 20, "count_Arachnids": 8, "count_Mammals": 1, "count_Basidiomycota": 1, "count_Gymnosperms": 0, "count_Sac Fungi": 9, "count_Molluscs": 2, "count_Mosses": 0, "count_Insects": 62, "count_Amphibians": 5, "unique_species_count": 278.0, "countryCode": "DO" }, "geometry": { "type": "MultiPolygon", "coordinates": [ [ [ [ -71.004534741081457, 18.709986798610402 ], [ -71.025408064454751, 18.459085242250453 ], [ -71.32697569139475, 18.347044660610308 ], [ -71.608198398425898, 18.485908447729663 ], [ -71.58919580722997, 18.738213730084492 ], [ -71.287116805585242, 18.850291251346263 ], [ -71.004534741081457, 18.709986798610402 ] ] ] ] } },
{ "type": "Feature", "properties": { "geogrid_id": "5318624281071889652", "seqnum": 24796.0, "lat_c": 18.624280756059367, "lon_c": -71.889651842656079, "res": 9.0, "count_Flowering Plants": 143, "count_Birds": 42, "count_Ferns": 9, "count_Reptiles": 25, "count_Arachnids": 6, "count_Mammals": 0, "count_Basidiomycota": 1, "count_Gymnosperms": 0, "count_Sac Fungi": 0, "count_Molluscs": 2, "count_Mosses": 4, "count_Insects": 43, "count_Amphibians": 7, "unique_species_count": 282.0, "countryCode": "DO" }, "geometry": { "type": "MultiPolygon", "coordinates": [ [ [ [ -71.58919580722997, 18.738213730084492 ], [ -71.608198398425898, 18.485908447729663 ], [ -71.907605732394785, 18.37110466769407 ], [ -72.188551247428521, 18.50862411390565 ], [ -72.171352848257996, 18.762178248194484 ], [ -71.87142056630303, 18.876999216213004 ], [ -71.58919580722997, 18.738213730084492 ] ] ] ] } },
{ "type": "Feature", "properties": { "geogrid_id": "5318707858067991917", "seqnum": 25367.0, "lat_c": 18.707858294591414, "lon_c": -67.991917095540103, "res": 9.0, "count_Flowering Plants": 0, "count_Birds": 4, "count_Ferns": 0, "count_Reptiles": 1, "count_Arachnids": 0, "count_Mammals": 1, "count_Basidiomycota": 0, "count_Gymnosperms": 0, "count_Sac Fungi": 0, "count_Molluscs": 0, "count_Mosses": 0, "count_Insects": 0, "count_Amphibians": 1, "unique_species_count": 7.0, "countryCode": "DO" }, "geometry": { "type": "MultiPolygon", "coordinates": [ [ [ [ -67.754490394829631, 18.920315175732455 ], [ -67.745960275115124, 18.617745693378666 ], [ -67.982528705085628, 18.404227744597534 ], [ -68.227497448646005, 18.492830409235928 ], [ -68.237698108284675, 18.79711473074131 ], [ -68.001224372538601, 19.011041069776066 ], [ -67.754490394829631, 18.920315175732455 ] ] ] ] } },
{ "type": "Feature", "properties": { "geogrid_id": "5318838509069205207", "seqnum": 25042.0, "lat_c": 18.838508715061955, "lon_c": -69.205207152030894, "res": 9.0, "count_Flowering Plants": 142, "count_Birds": 33, "count_Ferns": 5, "count_Reptiles": 15, "count_Arachnids": 28, "count_Mammals": 1, "count_Basidiomycota": 3, "count_Gymnosperms": 0, "count_Sac Fungi": 0, "count_Molluscs": 8, "count_Mosses": 1, "count_Insects": 40, "count_Amphibians": 9, "unique_species_count": 285.0, "countryCode": "DO" }, "geometry": { "type": "MultiPolygon", "coordinates": [ [ [ [ -68.973893787167839, 19.059731522095326 ], [ -68.961123515086044, 18.753401553592639 ], [ -69.232536073210596, 18.593630653544203 ], [ -69.51691396676415, 18.739910346732362 ], [ -69.490468838064189, 18.98552832713645 ], [ -69.218879180408493, 19.145548366902489 ], [ -68.973893787167839, 19.059731522095326 ] ] ] ] } },
{ "type": "Feature", "properties": { "geogrid_id": "5318885353069801338", "seqnum": 24960.0, "lat_c": 18.885352994215609, "lon_c": -69.80133797866651, "res": 9.0, "count_Flowering Plants": 100, "count_Birds": 28, "count_Ferns": 2, "count_Reptiles": 14, "count_Arachnids": 9, "count_Mammals": 0, "count_Basidiomycota": 7, "count_Gymnosperms": 1, "count_Sac Fungi": 5, "count_Molluscs": 4, "count_Mosses": 1, "count_Insects": 46, "count_Amphibians": 5, "unique_species_count": 222.0, "countryCode": "DO" }, "geometry": { "type": "MultiPolygon", "coordinates": [ [ [ [ -69.490468838064189, 18.98552832713645 ], [ -69.51691396676415, 18.739910346732362 ], [ -69.826539940676923, 18.638417525229322 ], [ -70.110182339173022, 18.782421047273694 ], [ -70.085835137164295, 19.030001755704745 ], [ -69.775768005651443, 19.131673151685781 ], [ -69.490468838064189, 18.98552832713645 ] ] ] ] } },
{ "type": "Feature", "properties": { "geogrid_id": "5318925702070393931", "seqnum": 24878.0, "lat_c": 18.925702213455569, "lon_c": -70.39393074113265, "res": 9.0, "count_Flowering Plants": 635, "count_Birds": 71, "count_Ferns": 40, "count_Reptiles": 32, "count_Arachnids": 46, "count_Mammals": 12, "count_Basidiomycota": 10, "count_Gymnosperms": 3, "count_Sac Fungi": 24, "count_Molluscs": 16, "count_Mosses": 33, "count_Insects": 309, "count_Amphibians": 19, "unique_species_count": 1250.0, "countryCode": "DO" }, "geometry": { "type": "MultiPolygon", "coordinates": [ [ [ [ -70.085835137164295, 19.030001755704745 ], [ -70.110182339173022, 18.782421047273694 ], [ -70.417087992280429, 18.676941138927592 ], [ -70.700137592526957, 18.818970646882448 ], [ -70.677808845159404, 19.068294864720265 ], [ -70.370431062375928, 19.173895906063855 ], [ -70.085835137164295, 19.030001755704745 ] ] ] ] } },
{ "type": "Feature", "properties": { "geogrid_id": "5318960370070983345", "seqnum": 24797.0, "lat_c": 18.960370176805263, "lon_c": -70.98334538801501, "res": 9.0, "count_Flowering Plants": 409, "count_Birds": 59, "count_Ferns": 27, "count_Reptiles": 23, "count_Arachnids": 29, "count_Mammals": 2, "count_Basidiomycota": 23, "count_Gymnosperms": 2, "count_Sac Fungi": 31, "count_Molluscs": 113, "count_Mosses": 23, "count_Insects": 178, "count_Amphibians": 16, "unique_species_count": 935.0, "countryCode": "DO" }, "geometry": { "type": "MultiPolygon", "coordinates": [ [ [ [ -70.677808845159404, 19.068294864720265 ], [ -70.700137592526957, 18.818970646882448 ], [ -71.004534741081457, 18.709986798610402 ], [ -71.287116805585242, 18.850291251346263 ], [ -71.266732286047443, 19.101166268999282 ], [ -70.961839190534477, 19.210229842847856 ], [ -70.677808845159404, 19.068294864720265 ] ] ] ] } },
{ "type": "Feature", "properties": { "geogrid_id": "5318973053068728696", "seqnum": 25123.0, "lat_c": 18.97305277786743, "lon_c": -68.728695681303606, "res": 9.0, "count_Flowering Plants": 78, "count_Birds": 64, "count_Ferns": 0, "count_Reptiles": 12, "count_Arachnids": 6, "count_Mammals": 1, "count_Basidiomycota": 5, "count_Gymnosperms": 1, "count_Sac Fungi": 1, "count_Molluscs": 10, "count_Mosses": 0, "count_Insects": 60, "count_Amphibians": 4, "unique_species_count": 242.0, "countryCode": "DO" }, "geometry": { "type": "MultiPolygon", "coordinates": [ [ [ [ -68.494218424860392, 19.18996341222368 ], [ -68.483294050155379, 18.885513389466684 ], [ -68.716804369791816, 18.66741865657804 ], [ -68.961123515086044, 18.753401553592639 ], [ -68.973893787167839, 19.059731522095326 ], [ -68.740460570504567, 19.278156599210686 ], [ -68.494218424860392, 19.18996341222368 ] ] ] ] } },
{ "type": "Feature", "properties": { "geogrid_id": "5318990040071569903", "seqnum": 24715.0, "lat_c": 18.990040369383024, "lon_c": -71.569902711054453, "res": 9.0, "count_Flowering Plants": 174, "count_Birds": 38, "count_Ferns": 5, "count_Reptiles": 18, "count_Arachnids": 1, "count_Mammals": 1, "count_Basidiomycota": 2, "count_Gymnosperms": 0, "count_Sac Fungi": 1, "count_Molluscs": 4, "count_Mosses": 0, "count_Insects": 23, "count_Amphibians": 4, "unique_species_count": 271.0, "countryCode": "DO" }, "geometry": { "type": "MultiPolygon", "coordinates": [ [ [ [ -71.266732286047443, 19.101166268999282 ], [ -71.287116805585242, 18.850291251346263 ], [ -71.58919580722997, 18.738213730084492 ], [ -71.87142056630303, 18.876999216213004 ], [ -71.852911023254336, 19.12925494088886 ], [ -71.550318239516386, 19.241383135057745 ], [ -71.266732286047443, 19.101166268999282 ] ] ] ] } },
{ "type": "Feature", "properties": { "geogrid_id": "5319100924068247803", "seqnum": 25205.0, "lat_c": 19.100924377905091, "lon_c": -68.247803373529067, "res": 9.0, "count_Flowering Plants": 0, "count_Birds": 1, "count_Ferns": 0, "count_Reptiles": 0, "count_Arachnids": 0, "count_Mammals": 1, "count_Basidiomycota": 0, "count_Gymnosperms": 0, "count_Sac Fungi": 0, "count_Molluscs": 0, "count_Mosses": 0, "count_Insects": 0, "count_Amphibians": 0, "unique_species_count": 2.0, "countryCode": "DO" }, "geometry": { "type": "MultiPolygon", "coordinates": [ [ [ [ -68.010475182022077, 19.313812189653937 ], [ -68.001224372538601, 19.011041069776066 ], [ -68.237698108284675, 18.79711473074131 ], [ -68.483294050155379, 18.885513389466684 ], [ -68.494218424860392, 19.18996341222368 ], [ -68.257839492491257, 19.404297069895343 ], [ -68.010475182022077, 19.313812189653937 ] ] ] ] } },
{ "type": "Feature", "properties": { "geogrid_id": "5319222498067762976", "seqnum": 25287.0, "lat_c": 19.222497715079321, "lon_c": -67.762975974069349, "res": 9.0, "count_Flowering Plants": 0, "count_Birds": 1, "count_Ferns": 0, "count_Reptiles": 0, "count_Arachnids": 0, "count_Mammals": 0, "count_Basidiomycota": 0, "count_Gymnosperms": 0, "count_Sac Fungi": 0, "count_Molluscs": 0, "count_Mosses": 0, "count_Insects": 0, "count_Amphibians": 0, "unique_species_count": 1.0, "countryCode": "DO" }, "geometry": { "type": "MultiPolygon", "coordinates": [ [ [ [ -67.523077179124215, 19.431630315560177 ], [ -67.515350569696309, 19.130355513247231 ], [ -67.754490394829631, 18.920315175732455 ], [ -68.001224372538601, 19.011041069776066 ], [ -68.010475182022077, 19.313812189653937 ], [ -67.771438199862217, 19.524325344889625 ], [ -67.523077179124215, 19.431630315560177 ] ] ] ] } },
{ "type": "Feature", "properties": { "geogrid_id": "5319230502069463643", "seqnum": 24879.0, "lat_c": 19.230502174411097, "lon_c": -69.463642703440769, "res": 9.0, "count_Flowering Plants": 417, "count_Birds": 92, "count_Ferns": 23, "count_Reptiles": 34, "count_Arachnids": 30, "count_Mammals": 6, "count_Basidiomycota": 24, "count_Gymnosperms": 2, "count_Sac Fungi": 13, "count_Molluscs": 164, "count_Mosses": 4, "count_Insects": 207, "count_Amphibians": 11, "unique_species_count": 1027.0, "countryCode": "DO" }, "geometry": { "type": "MultiPolygon", "coordinates": [ [ [ [ -69.232390416229521, 19.451999706969424 ], [ -69.218879180408493, 19.145548366902489 ], [ -69.490468838064189, 18.98552832713645 ], [ -69.775768005651443, 19.131673151685781 ], [ -69.749829433823834, 19.377371939313385 ], [ -69.47806030537329, 19.537647049421444 ], [ -69.232390416229521, 19.451999706969424 ] ] ] ] } },
{ "type": "Feature", "properties": { "geogrid_id": "5319276989070061132", "seqnum": 24798.0, "lat_c": 19.276988711944558, "lon_c": -70.06113237597026, "res": 9.0, "count_Flowering Plants": 172, "count_Birds": 35, "count_Ferns": 8, "count_Reptiles": 20, "count_Arachnids": 17, "count_Mammals": 1, "count_Basidiomycota": 4, "count_Gymnosperms": 0, "count_Sac Fungi": 3, "count_Molluscs": 6, "count_Mosses": 0, "count_Insects": 132, "count_Amphibians": 8, "unique_species_count": 406.0, "countryCode": "DO" }, "geometry": { "type": "MultiPolygon", "coordinates": [ [ [ [ -69.749829433823834, 19.377371939313385 ], [ -69.775768005651443, 19.131673151685781 ], [ -70.085835137164295, 19.030001755704745 ], [ -70.370431062375928, 19.173895906063855 ], [ -70.346588227441501, 19.421516450986896 ], [ -70.036073388419766, 19.523376043569364 ], [ -69.749829433823834, 19.377371939313385 ] ] ] ] } },
{ "type": "Feature", "properties": { "geogrid_id": "5319317071070655150", "seqnum": 24716.0, "lat_c": 19.317071222570924, "lon_c": -70.655150079959995, "res": 9.0, "count_Flowering Plants": 609, "count_Birds": 80, "count_Ferns": 20, "count_Reptiles": 24, "count_Arachnids": 25, "count_Mammals": 9, "count_Basidiomycota": 19, "count_Gymnosperms": 2, "count_Sac Fungi": 24, "count_Molluscs": 18, "count_Mosses": 0, "count_Insects": 244, "count_Amphibians": 11, "unique_species_count": 1085.0, "countryCode": "DO" }, "geometry": { "type": "MultiPolygon", "coordinates": [ [ [ [ -70.346588227441501, 19.421516450986896 ], [ -70.370431062375928, 19.173895906063855 ], [ -70.677808845159404, 19.068294864720265 ], [ -70.961839190534477, 19.210229842847856 ], [ -70.940015324485387, 19.459560327435824 ], [ -70.632160511223503, 19.565294137750964 ], [ -70.346588227441501, 19.421516450986896 ] ] ] ] } },
{ "type": "Feature", "properties": { "geogrid_id": "5319351535071246043", "seqnum": 24634.0, "lat_c": 19.351535279435424, "lon_c": -71.246043249478518, "res": 9.0, "count_Flowering Plants": 345, "count_Birds": 35, "count_Ferns": 17, "count_Reptiles": 15, "count_Arachnids": 12, "count_Mammals": 0, "count_Basidiomycota": 9, "count_Gymnosperms": 0, "count_Sac Fungi": 13, "count_Molluscs": 7, "count_Mosses": 0, "count_Insects": 97, "count_Amphibians": 7, "unique_species_count": 557.0, "countryCode": "DO" }, "geometry": { "type": "MultiPolygon", "coordinates": [ [ [ [ -70.940015324485387, 19.459560327435824 ], [ -70.961839190534477, 19.210229842847856 ], [ -71.266732286047443, 19.101166268999282 ], [ -71.550318239516386, 19.241383135057745 ], [ -71.530441511135194, 19.492236852472391 ], [ -71.225048833523644, 19.601392991377125 ], [ -70.940015324485387, 19.459560327435824 ] ] ] ] } },
{ "type": "Feature", "properties": { "geogrid_id": "5319365502068986521", "seqnum": 24961.0, "lat_c": 19.365502479391285, "lon_c": -68.986520873187999, "res": 9.0, "count_Flowering Plants": 99, "count_Birds": 26, "count_Ferns": 0, "count_Reptiles": 22, "count_Arachnids": 17, "count_Mammals": 5, "count_Basidiomycota": 1, "count_Gymnosperms": 1, "count_Sac Fungi": 0, "count_Molluscs": 22, "count_Mosses": 0, "count_Insects": 43, "count_Amphibians": 6, "unique_species_count": 242.0, "countryCode": "DO" }, "geometry": { "type": "MultiPolygon", "coordinates": [ [ [ [ -68.752128664910714, 19.582771127853547 ], [ -68.740460570504567, 19.278156599210686 ], [ -68.973893787167839, 19.059731522095326 ], [ -69.218879180408493, 19.145548366902489 ], [ -69.232390416229521, 19.451999706969424 ], [ -68.99903617815373, 19.670757119503772 ], [ -68.752128664910714, 19.582771127853547 ] ] ] ] } },
{ "type": "Feature", "properties": { "geogrid_id": "5319381043071834122", "seqnum": 24553.0, "lat_c": 19.381042874729324, "lon_c": -71.834122321693641, "res": 9.0, "count_Flowering Plants": 84, "count_Birds": 9, "count_Ferns": 0, "count_Reptiles": 12, "count_Arachnids": 1, "count_Mammals": 0, "count_Basidiomycota": 2, "count_Gymnosperms": 0, "count_Sac Fungi": 1, "count_Molluscs": 1, "count_Mosses": 2, "count_Insects": 18, "count_Amphibians": 8, "unique_species_count": 138.0, "countryCode": "DO" }, "geometry": { "type": "MultiPolygon", "coordinates": [ [ [ [ -71.530441511135194, 19.492236852472391 ], [ -71.550318239516386, 19.241383135057745 ], [ -71.852911023254336, 19.12925494088886 ], [ -72.136159522074877, 19.26795393586492 ], [ -72.118162794397733, 19.520165669167476 ], [ -71.815053558097318, 19.632358014592882 ], [ -71.530441511135194, 19.492236852472391 ] ] ] ] } },
{ "type": "Feature", "properties": { "geogrid_id": "5319493951068505060", "seqnum": 25043.0, "lat_c": 19.493950598527125, "lon_c": -68.505060213701626, "res": 9.0, "count_Flowering Plants": 0, "count_Birds": 1, "count_Ferns": 0, "count_Reptiles": 1, "count_Arachnids": 0, "count_Mammals": 1, "count_Basidiomycota": 0, "count_Gymnosperms": 0, "count_Sac Fungi": 0, "count_Molluscs": 0, "count_Mosses": 0, "count_Insects": 0, "count_Amphibians": 0, "unique_species_count": 3.0, "countryCode": "DO" }, "geometry": { "type": "MultiPolygon", "coordinates": [ [ [ [ -68.267830539062956, 19.707267771788494 ], [ -68.257839492491257, 19.404297069895343 ], [ -68.494218424860392, 19.18996341222368 ], [ -68.740460570504567, 19.278156599210686 ], [ -68.752128664910714, 19.582771127853547 ], [ -68.515845014619387, 19.79751142175073 ], [ -68.267830539062956, 19.707267771788494 ] ] ] ] } },
{ "type": "Feature", "properties": { "geogrid_id": "5319616205068019692", "seqnum": 25124.0, "lat_c": 19.616205139102711, "lon_c": -68.019692127660036, "res": 9.0, "count_Flowering Plants": 0, "count_Birds": 0, "count_Ferns": 0, "count_Reptiles": 0, "count_Arachnids": 0, "count_Mammals": 1, "count_Basidiomycota": 0, "count_Gymnosperms": 0, "count_Sac Fungi": 0, "count_Molluscs": 0, "count_Mosses": 0, "count_Insects": 0, "count_Amphibians": 0, "unique_species_count": 1.0, "countryCode": "DO" }, "geometry": { "type": "MultiPolygon", "coordinates": [ [ [ [ -67.779896554395108, 19.825827817929436 ], [ -67.771438199862217, 19.524325344889625 ], [ -68.010475182022077, 19.313812189653937 ], [ -68.257839492491257, 19.404297069895343 ], [ -68.267830539062956, 19.707267771788494 ], [ -68.028895994126756, 19.918251015165627 ], [ -67.779896554395108, 19.825827817929436 ] ] ] ] } },
{ "type": "Feature", "properties": { "geogrid_id": "5319622443069723522", "seqnum": 24717.0, "lat_c": 19.622443386284477, "lon_c": -69.723521671225058, "res": 9.0, "count_Flowering Plants": 80, "count_Birds": 11, "count_Ferns": 1, "count_Reptiles": 11, "count_Arachnids": 6, "count_Mammals": 4, "count_Basidiomycota": 2, "count_Gymnosperms": 0, "count_Sac Fungi": 2, "count_Molluscs": 1, "count_Mosses": 0, "count_Insects": 106, "count_Amphibians": 5, "unique_species_count": 229.0, "countryCode": "DO" }, "geometry": { "type": "MultiPolygon", "coordinates": [ [ [ [ -69.492333793232476, 19.844219881125035 ], [ -69.47806030537329, 19.537647049421444 ], [ -69.749829433823834, 19.377371939313385 ], [ -70.036073388419766, 19.523376043569364 ], [ -70.010657501722136, 19.76915795946611 ], [ -69.738706638712387, 19.929694118164484 ], [ -69.492333793232476, 19.844219881125035 ] ] ] ] } },
{ "type": "Feature", "properties": { "geogrid_id": "5319668558070322401", "seqnum": 24635.0, "lat_c": 19.668558157785213, "lon_c": -70.322401500697325, "res": 9.0, "count_Flowering Plants": 520, "count_Birds": 68, "count_Ferns": 32, "count_Reptiles": 24, "count_Arachnids": 16, "count_Mammals": 9, "count_Basidiomycota": 26, "count_Gymnosperms": 0, "count_Sac Fungi": 4, "count_Molluscs": 80, "count_Mosses": 3, "count_Insects": 262, "count_Amphibians": 10, "unique_species_count": 1054.0, "countryCode": "DO" }, "geometry": { "type": "MultiPolygon", "coordinates": [ [ [ [ -70.010657501722136, 19.76915795946611 ], [ -70.036073388419766, 19.523376043569364 ], [ -70.346588227441501, 19.421516450986896 ], [ -70.632160511223503, 19.565294137750964 ], [ -70.60883934500896, 19.812958097677086 ], [ -70.297870139564267, 19.915015411636301 ], [ -70.010657501722136, 19.76915795946611 ] ] ] ] } },
{ "type": "Feature", "properties": { "geogrid_id": "5319708356070917873", "seqnum": 24554.0, "lat_c": 19.708356226266545, "lon_c": -70.91787295635919, "res": 9.0, "count_Flowering Plants": 664, "count_Birds": 109, "count_Ferns": 39, "count_Reptiles": 24, "count_Arachnids": 38, "count_Mammals": 6, "count_Basidiomycota": 45, "count_Gymnosperms": 2, "count_Sac Fungi": 11, "count_Molluscs": 165, "count_Mosses": 13, "count_Insects": 496, "count_Amphibians": 6, "unique_species_count": 1618.0, "countryCode": "DO" }, "geometry": { "type": "MultiPolygon", "coordinates": [ [ [ [ -70.60883934500896, 19.812958097677086 ], [ -70.632160511223503, 19.565294137750964 ], [ -70.940015324485387, 19.459560327435824 ], [ -71.225048833523644, 19.601392991377125 ], [ -71.203748165583903, 19.850734174136434 ], [ -70.895411243373559, 19.956612200333613 ], [ -70.60883934500896, 19.812958097677086 ] ] ] ] } },
{ "type": "Feature", "properties": { "geogrid_id": "5319732601067530808", "seqnum": 25206.0, "lat_c": 19.732601341411144, "lon_c": -67.53080848556877, "res": 9.0, "count_Flowering Plants": 0, "count_Birds": 0, "count_Ferns": 0, "count_Reptiles": 0, "count_Arachnids": 0, "count_Mammals": 1, "count_Basidiomycota": 0, "count_Gymnosperms": 0, "count_Sac Fungi": 0, "count_Molluscs": 0, "count_Mosses": 0, "count_Insects": 0, "count_Amphibians": 0, "unique_species_count": 1.0, "countryCode": "DO" }, "geometry": { "type": "MultiPolygon", "coordinates": [ [ [ [ -67.288690721853087, 19.938767583666369 ], [ -67.281639940132109, 19.638573667725517 ], [ -67.523077179124215, 19.431630315560177 ], [ -67.771438199862217, 19.524325344889625 ], [ -67.779896554395108, 19.825827817929436 ], [ -67.538561296313503, 20.033295052813738 ], [ -67.288690721853087, 19.938767583666369 ] ] ] ] } },
{ "type": "Feature", "properties": { "geogrid_id": "5319742596071510272", "seqnum": 24472.0, "lat_c": 19.742596403228919, "lon_c": -71.510271633377187, "res": 9.0, "count_Flowering Plants": 199, "count_Birds": 86, "count_Ferns": 0, "count_Reptiles": 23, "count_Arachnids": 8, "count_Mammals": 8, "count_Basidiomycota": 18, "count_Gymnosperms": 0, "count_Sac Fungi": 16, "count_Molluscs": 139, "count_Mosses": 4, "count_Insects": 53, "count_Amphibians": 6, "unique_species_count": 560.0, "countryCode": "DO" }, "geometry": { "type": "MultiPolygon", "coordinates": [ [ [ [ -71.203748165583903, 19.850734174136434 ], [ -71.225048833523644, 19.601392991377125 ], [ -71.530441511135194, 19.492236852472391 ], [ -71.815053558097318, 19.632358014592882 ], [ -71.795703817262662, 19.883195409847932 ], [ -71.489807702700659, 19.992456725459352 ], [ -71.203748165583903, 19.850734174136434 ] ] ] ] } },
{ "type": "Feature", "properties": { "geogrid_id": "5319757907069245774", "seqnum": 24799.0, "lat_c": 19.757907144139299, "lon_c": -69.245774099987457, "res": 9.0, "count_Flowering Plants": 0, "count_Birds": 1, "count_Ferns": 0, "count_Reptiles": 1, "count_Arachnids": 0, "count_Mammals": 2, "count_Basidiomycota": 0, "count_Gymnosperms": 0, "count_Sac Fungi": 0, "count_Molluscs": 0, "count_Mosses": 0, "count_Insects": 0, "count_Amphibians": 0, "unique_species_count": 4.0, "countryCode": "DO" }, "geometry": { "type": "MultiPolygon", "coordinates": [ [ [ [ -69.011468510297107, 19.97553501382103 ], [ -68.99903617815373, 19.670757119503772 ], [ -69.232390416229521, 19.451999706969424 ], [ -69.47806030537329, 19.537647049421444 ], [ -69.492333793232476, 19.844219881125035 ], [ -69.259060726381662, 20.063311838030707 ], [ -69.011468510297107, 19.97553501382103 ] ] ] ] } },
{ "type": "Feature", "properties": { "geogrid_id": "5319771920072099898", "seqnum": 24390.0, "lat_c": 19.771920196520174, "lon_c": -72.099898136210157, "res": 9.0, "count_Flowering Plants": 1, "count_Birds": 1, "count_Ferns": 0, "count_Reptiles": 3, "count_Arachnids": 0, "count_Mammals": 0, "count_Basidiomycota": 0, "count_Gymnosperms": 0, "count_Sac Fungi": 0, "count_Molluscs": 0, "count_Mosses": 0, "count_Insects": 0, "count_Amphibians": 0, "unique_species_count": 5.0, "countryCode": "DO" }, "geometry": { "type": "MultiPolygon", "coordinates": [ [ [ [ -71.795703817262662, 19.883195409847932 ], [ -71.815053558097318, 19.632358014592882 ], [ -72.118162794397733, 19.520165669167476 ], [ -72.402457170191383, 19.658769953457014 ], [ -72.384993218308097, 19.910942988735613 ], [ -72.08136461668316, 20.023212729997944 ], [ -71.795703817262662, 19.883195409847932 ] ] ] ] } },
{ "type": "Feature", "properties": { "geogrid_id": "5319886934068763727", "seqnum": 24880.0, "lat_c": 19.886934372851655, "lon_c": -68.76372714052961, "res": 9.0, "count_Flowering Plants": 0, "count_Birds": 0, "count_Ferns": 0, "count_Reptiles": 1, "count_Arachnids": 0, "count_Mammals": 1, "count_Basidiomycota": 0, "count_Gymnosperms": 0, "count_Sac Fungi": 0, "count_Molluscs": 0, "count_Mosses": 0, "count_Insects": 0, "count_Amphibians": 0, "unique_species_count": 2.0, "countryCode": "DO" }, "geometry": { "type": "MultiPolygon", "coordinates": [ [ [ [ -68.526596365991097, 20.100679748048755 ], [ -68.515845014619387, 19.79751142175073 ], [ -68.752128664910714, 19.582771127853547 ], [ -68.99903617815373, 19.670757119503772 ], [ -69.011468510297107, 19.97553501382103 ], [ -68.775280987436105, 20.190681623946478 ], [ -68.526596365991097, 20.100679748048755 ] ] ] ] } },
{ "type": "Feature", "properties": { "geogrid_id": "5320009869068277799", "seqnum": 24962.0, "lat_c": 20.009868951961707, "lon_c": -68.277798649893683, "res": 9.0, "count_Flowering Plants": 0, "count_Birds": 0, "count_Ferns": 0, "count_Reptiles": 0, "count_Arachnids": 0, "count_Mammals": 1, "count_Basidiomycota": 0, "count_Gymnosperms": 0, "count_Sac Fungi": 0, "count_Molluscs": 0, "count_Mosses": 0, "count_Insects": 0, "count_Amphibians": 0, "unique_species_count": 1.0, "countryCode": "DO" }, "geometry": { "type": "MultiPolygon", "coordinates": [ [ [ [ -68.038105943431304, 20.21997874703402 ], [ -68.028895994126756, 19.918251015165627 ], [ -68.267830539062956, 19.707267771788494 ], [ -68.515845014619387, 19.79751142175073 ], [ -68.526596365991097, 20.100679748048755 ], [ -68.28776423284036, 20.312130811598223 ], [ -68.038105943431304, 20.21997874703402 ] ] ] ] } },
{ "type": "Feature", "properties": { "geogrid_id": "5320014329069984884", "seqnum": 24555.0, "lat_c": 20.014328750102642, "lon_c": -69.984884037601162, "res": 9.0, "count_Flowering Plants": 0, "count_Birds": 1, "count_Ferns": 0, "count_Reptiles": 0, "count_Arachnids": 0, "count_Mammals": 2, "count_Basidiomycota": 0, "count_Gymnosperms": 0, "count_Sac Fungi": 0, "count_Molluscs": 0, "count_Mosses": 0, "count_Insects": 0, "count_Amphibians": 0, "unique_species_count": 3.0, "countryCode": "DO" }, "geometry": { "type": "MultiPolygon", "coordinates": [ [ [ [ -69.753764162046352, 20.236388531277981 ], [ -69.738706638712387, 19.929694118164484 ], [ -70.010657501722136, 19.76915795946611 ], [ -70.297870139564267, 19.915015411636301 ], [ -70.272993394633446, 20.160882673603194 ], [ -70.000858646212123, 20.321685907765637 ], [ -69.753764162046352, 20.236388531277981 ] ] ] ] } },
{ "type": "Feature", "properties": { "geogrid_id": "5320099554071182140", "seqnum": 24391.0, "lat_c": 20.099553657901854, "lon_c": -71.182140362879267, "res": 9.0, "count_Flowering Plants": 19, "count_Birds": 0, "count_Ferns": 0, "count_Reptiles": 0, "count_Arachnids": 0, "count_Mammals": 0, "count_Basidiomycota": 0, "count_Gymnosperms": 0, "count_Sac Fungi": 0, "count_Molluscs": 3, "count_Mosses": 0, "count_Insects": 0, "count_Amphibians": 0, "unique_species_count": 22.0, "countryCode": "DO" }, "geometry": { "type": "MultiPolygon", "coordinates": [ [ [ [ -70.87262933355386, 20.204322976204988 ], [ -70.895411243373559, 19.956612200333613 ], [ -71.203748165583903, 19.850734174136434 ], [ -71.489807702700659, 19.992456725459352 ], [ -71.469048804601655, 20.241812814102417 ], [ -71.160224532512274, 20.347846334008523 ], [ -70.87262933355386, 20.204322976204988 ] ] ] ] } },
{ "type": "Feature", "properties": { "geogrid_id": "5320127033067788369", "seqnum": 25044.0, "lat_c": 20.127032816825025, "lon_c": -67.788368999592763, "res": 9.0, "count_Flowering Plants": 0, "count_Birds": 0, "count_Ferns": 0, "count_Reptiles": 0, "count_Arachnids": 0, "count_Mammals": 1, "count_Basidiomycota": 0, "count_Gymnosperms": 0, "count_Sac Fungi": 0, "count_Molluscs": 0, "count_Mosses": 0, "count_Insects": 0, "count_Amphibians": 0, "unique_species_count": 1.0, "countryCode": "DO" }, "geometry": { "type": "MultiPolygon", "coordinates": [ [ [ [ -67.546351149609848, 20.333736117307605 ], [ -67.538561296313503, 20.033295052813738 ], [ -67.779896554395108, 19.825827817929436 ], [ -68.028895994126756, 19.918251015165627 ], [ -68.038105943431304, 20.21997874703402 ], [ -67.796872139748288, 20.427966142070748 ], [ -67.546351149609848, 20.333736117307605 ] ] ] ] } },
{ "type": "Feature", "properties": { "geogrid_id": "5320133550071776072", "seqnum": 24310.0, "lat_c": 20.133550162652813, "lon_c": -71.776072172336555, "res": 9.0, "count_Flowering Plants": 2, "count_Birds": 1, "count_Ferns": 0, "count_Reptiles": 2, "count_Arachnids": 0, "count_Mammals": 0, "count_Basidiomycota": 0, "count_Gymnosperms": 0, "count_Sac Fungi": 0, "count_Molluscs": 0, "count_Mosses": 0, "count_Insects": 0, "count_Amphibians": 0, "unique_species_count": 5.0, "countryCode": "DO" }, "geometry": { "type": "MultiPolygon", "coordinates": [ [ [ [ -71.469048804601655, 20.241812814102417 ], [ -71.489807702700659, 19.992456725459352 ], [ -71.795703817262662, 19.883195409847932 ], [ -72.08136461668316, 20.023212729997944 ], [ -72.062561292811893, 20.274038531016981 ], [ -71.756157684844382, 20.383417428222124 ], [ -71.469048804601655, 20.241812814102417 ] ] ] ] } },
{ "type": "Feature", "properties": { "geogrid_id": "5320150263069506495", "seqnum": 24636.0, "lat_c": 20.150263443235119, "lon_c": -69.506495401853343, "res": 9.0, "count_Flowering Plants": 0, "count_Birds": 0, "count_Ferns": 0, "count_Reptiles": 1, "count_Arachnids": 0, "count_Mammals": 1, "count_Basidiomycota": 0, "count_Gymnosperms": 0, "count_Sac Fungi": 0, "count_Molluscs": 0, "count_Mosses": 0, "count_Insects": 0, "count_Amphibians": 0, "unique_species_count": 2.0, "countryCode": "DO" }, "geometry": { "type": "MultiPolygon", "coordinates": [ [ [ [ -69.272278339418662, 20.368252000365828 ], [ -69.259060726381662, 20.063311838030707 ], [ -69.492333793232476, 19.844219881125035 ], [ -69.738706638712387, 19.929694118164484 ], [ -69.753764162046352, 20.236388531277981 ], [ -69.520574777671257, 20.455817444512135 ], [ -69.272278339418662, 20.368252000365828 ] ] ] ] } },
{ "type": "Feature", "properties": { "geogrid_id": "5320279873069023844", "seqnum": 24718.0, "lat_c": 20.279872900830245, "lon_c": -69.023844361528987, "res": 9.0, "count_Flowering Plants": 0, "count_Birds": 0, "count_Ferns": 0, "count_Reptiles": 1, "count_Arachnids": 0, "count_Mammals": 2, "count_Basidiomycota": 0, "count_Gymnosperms": 0, "count_Sac Fungi": 0, "count_Molluscs": 0, "count_Mosses": 0, "count_Insects": 0, "count_Amphibians": 0, "unique_species_count": 3.0, "countryCode": "DO" }, "geometry": { "type": "MultiPolygon", "coordinates": [ [ [ [ -68.786813243541218, 20.494045700390416 ], [ -68.775280987436105, 20.190681623946478 ], [ -69.011468510297107, 19.97553501382103 ], [ -69.259060726381662, 20.063311838030707 ], [ -69.272278339418662, 20.368252000365828 ], [ -69.036188154393002, 20.583804944719368 ], [ -68.786813243541218, 20.494045700390416 ] ] ] ] } },
{ "type": "Feature", "properties": { "geogrid_id": "5320403487068537336", "seqnum": 24800.0, "lat_c": 20.403487075478882, "lon_c": -68.537335967562782, "res": 9.0, "count_Flowering Plants": 0, "count_Birds": 0, "count_Ferns": 0, "count_Reptiles": 0, "count_Arachnids": 0, "count_Mammals": 2, "count_Basidiomycota": 0, "count_Gymnosperms": 0, "count_Sac Fungi": 0, "count_Molluscs": 0, "count_Mosses": 0, "count_Insects": 0, "count_Amphibians": 0, "unique_species_count": 2.0, "countryCode": "DO" }, "geometry": { "type": "MultiPolygon", "coordinates": [ [ [ [ -68.297746150747258, 20.614081489726068 ], [ -68.28776423284036, 20.312130811598223 ], [ -68.526596365991097, 20.100679748048755 ], [ -68.775280987436105, 20.190681623946478 ], [ -68.786813243541218, 20.494045700390416 ], [ -68.54808387529755, 20.705962747698113 ], [ -68.297746150747258, 20.614081489726068 ] ] ] ] } },
{ "type": "Feature", "properties": { "geogrid_id": "5320406154070247771", "seqnum": 24392.0, "lat_c": 20.406154480880925, "lon_c": -70.247770509784658, "res": 9.0, "count_Flowering Plants": 0, "count_Birds": 3, "count_Ferns": 0, "count_Reptiles": 0, "count_Arachnids": 0, "count_Mammals": 1, "count_Basidiomycota": 0, "count_Gymnosperms": 0, "count_Sac Fungi": 0, "count_Molluscs": 0, "count_Mosses": 0, "count_Insects": 0, "count_Amphibians": 0, "unique_species_count": 4.0, "countryCode": "DO" }, "geometry": { "type": "MultiPolygon", "coordinates": [ [ [ [ -70.01672249804345, 20.628501954533089 ], [ -70.000858646212123, 20.321685907765637 ], [ -70.272993394633446, 20.160882673603194 ], [ -70.56119900379727, 20.306587453626037 ], [ -70.536878200634831, 20.552542177448835 ], [ -70.264557534527682, 20.713618563573842 ], [ -70.01672249804345, 20.628501954533089 ] ] ] ] } },
{ "type": "Feature", "properties": { "geogrid_id": "5320451483070849526", "seqnum": 24311.0, "lat_c": 20.45148334628287, "lon_c": -70.849526365815322, "res": 9.0, "count_Flowering Plants": 0, "count_Birds": 2, "count_Ferns": 0, "count_Reptiles": 0, "count_Arachnids": 0, "count_Mammals": 0, "count_Basidiomycota": 0, "count_Gymnosperms": 0, "count_Sac Fungi": 0, "count_Molluscs": 0, "count_Mosses": 0, "count_Insects": 0, "count_Amphibians": 0, "unique_species_count": 2.0, "countryCode": "DO" }, "geometry": { "type": "MultiPolygon", "coordinates": [ [ [ [ -70.536878200634831, 20.552542177448835 ], [ -70.56119900379727, 20.306587453626037 ], [ -70.87262933355386, 20.204322976204988 ], [ -71.160224532512274, 20.347846334008523 ], [ -71.137999771532662, 20.595607155191853 ], [ -70.826101470046396, 20.69808816904542 ], [ -70.536878200634831, 20.552542177448835 ] ] ] ] } },
{ "type": "Feature", "properties": { "geogrid_id": "5320490660071447994", "seqnum": 24229.0, "lat_c": 20.490659721165208, "lon_c": -71.447994013660278, "res": 9.0, "count_Flowering Plants": 0, "count_Birds": 1, "count_Ferns": 0, "count_Reptiles": 0, "count_Arachnids": 0, "count_Mammals": 0, "count_Basidiomycota": 0, "count_Gymnosperms": 0, "count_Sac Fungi": 0, "count_Molluscs": 0, "count_Mosses": 0, "count_Insects": 0, "count_Amphibians": 0, "unique_species_count": 1.0, "countryCode": "DO" }, "geometry": { "type": "MultiPolygon", "coordinates": [ [ [ [ -71.137999771532662, 20.595607155191853 ], [ -71.160224532512274, 20.347846334008523 ], [ -71.469048804601655, 20.241812814102417 ], [ -71.756157684844382, 20.383417428222124 ], [ -71.735959404719566, 20.632792415079333 ], [ -71.426642393587656, 20.738992555969727 ], [ -71.137999771532662, 20.595607155191853 ] ] ] ] } },
{ "type": "Feature", "properties": { "geogrid_id": "5320521415068047340", "seqnum": 24881.0, "lat_c": 20.521415292520498, "lon_c": -68.047339687956395, "res": 9.0, "count_Flowering Plants": 0, "count_Birds": 0, "count_Ferns": 0, "count_Reptiles": 0, "count_Arachnids": 0, "count_Mammals": 2, "count_Basidiomycota": 0, "count_Gymnosperms": 0, "count_Sac Fungi": 0, "count_Molluscs": 0, "count_Mosses": 0, "count_Insects": 0, "count_Amphibians": 0, "unique_species_count": 2.0, "countryCode": "DO" }, "geometry": { "type": "MultiPolygon", "coordinates": [ [ [ [ -67.805421365144227, 20.7286518802206 ], [ -67.796872139748288, 20.427966142070748 ], [ -68.038105943431304, 20.21997874703402 ], [ -68.28776423284036, 20.312130811598223 ], [ -68.297746150747258, 20.614081489726068 ], [ -68.056613643316837, 20.822585813870564 ], [ -67.805421365144227, 20.7286518802206 ] ] ] ] } },
{ "type": "Feature", "properties": { "geogrid_id": "5320524393072043487", "seqnum": 24147.0, "lat_c": 20.524392910590624, "lon_c": -72.043487209428591, "res": 9.0, "count_Flowering Plants": 0, "count_Birds": 1, "count_Ferns": 0, "count_Reptiles": 0, "count_Arachnids": 0, "count_Mammals": 0, "count_Basidiomycota": 0, "count_Gymnosperms": 0, "count_Sac Fungi": 0, "count_Molluscs": 0, "count_Mosses": 0, "count_Insects": 0, "count_Amphibians": 0, "unique_species_count": 1.0, "countryCode": "DO" }, "geometry": { "type": "MultiPolygon", "coordinates": [ [ [ [ -71.735959404719566, 20.632792415079333 ], [ -71.756157684844382, 20.383417428222124 ], [ -72.062561292811893, 20.274038531016981 ], [ -72.349293962778532, 20.413943839355991 ], [ -72.331056741685529, 20.664762533002094 ], [ -72.024141399215864, 20.774271229572737 ], [ -71.735959404719566, 20.632792415079333 ] ] ] ] } },
{ "type": "Feature", "properties": { "geogrid_id": "5320542568069768726", "seqnum": 24474.0, "lat_c": 20.542567855292262, "lon_c": -69.768725539841128, "res": 9.0, "count_Flowering Plants": 0, "count_Birds": 1, "count_Ferns": 0, "count_Reptiles": 1, "count_Arachnids": 0, "count_Mammals": 2, "count_Basidiomycota": 0, "count_Gymnosperms": 0, "count_Sac Fungi": 0, "count_Molluscs": 0, "count_Mosses": 0, "count_Insects": 0, "count_Amphibians": 0, "unique_species_count": 4.0, "countryCode": "DO" }, "geometry": { "type": "MultiPolygon", "coordinates": [ [ [ [ -69.534599252450406, 20.760918807838749 ], [ -69.520574777671257, 20.455817444512135 ], [ -69.753764162046352, 20.236388531277981 ], [ -70.000858646212123, 20.321685907765637 ], [ -70.01672249804345, 20.628501954533089 ], [ -69.783619628618098, 20.848270425611588 ], [ -69.534599252450406, 20.760918807838749 ] ] ] ] } },
{ "type": "Feature", "properties": { "geogrid_id": "5320633948067554192", "seqnum": 24963.0, "lat_c": 20.633947568632646, "lon_c": -67.55419244936482, "res": 9.0, "count_Flowering Plants": 0, "count_Birds": 1, "count_Ferns": 0, "count_Reptiles": 0, "count_Arachnids": 0, "count_Mammals": 0, "count_Basidiomycota": 0, "count_Gymnosperms": 0, "count_Sac Fungi": 0, "count_Molluscs": 0, "count_Mosses": 0, "count_Insects": 0, "count_Amphibians": 0, "unique_species_count": 1.0, "countryCode": "DO" }, "geometry": { "type": "MultiPolygon", "coordinates": [ [ [ [ -67.310153025744299, 20.838031273242343 ], [ -67.30293428165416, 20.538475091169477 ], [ -67.546351149609848, 20.333736117307605 ], [ -67.796872139748288, 20.427966142070748 ], [ -67.805421365144227, 20.7286518802206 ], [ -67.562098584319855, 20.933950950702283 ], [ -67.310153025744299, 20.838031273242343 ] ] ] ] } },
{ "type": "Feature", "properties": { "geogrid_id": "5320672763069285453", "seqnum": 24556.0, "lat_c": 20.672763163413155, "lon_c": -69.285452792891135, "res": 9.0, "count_Flowering Plants": 0, "count_Birds": 0, "count_Ferns": 0, "count_Reptiles": 0, "count_Arachnids": 0, "count_Mammals": 1, "count_Basidiomycota": 0, "count_Gymnosperms": 0, "count_Sac Fungi": 0, "count_Molluscs": 0, "count_Mosses": 0, "count_Insects": 0, "count_Amphibians": 0, "unique_species_count": 1.0, "countryCode": "DO" }, "geometry": { "type": "MultiPolygon", "coordinates": [ [ [ [ -69.048522460011199, 20.887362966627261 ], [ -69.036188154393002, 20.583804944719368 ], [ -69.272278339418662, 20.368252000365828 ], [ -69.520574777671257, 20.455817444512135 ], [ -69.534599252450406, 20.760918807838749 ], [ -69.298607980339455, 20.97687842011705 ], [ -69.048522460011199, 20.887362966627261 ] ] ] ] } },
{ "type": "Feature", "properties": { "geogrid_id": "5320797057068798345", "seqnum": 24637.0, "lat_c": 20.797057173382779, "lon_c": -68.798345200831179, "res": 9.0, "count_Flowering Plants": 0, "count_Birds": 1, "count_Ferns": 0, "count_Reptiles": 0, "count_Arachnids": 0, "count_Mammals": 1, "count_Basidiomycota": 0, "count_Gymnosperms": 0, "count_Sac Fungi": 0, "count_Molluscs": 0, "count_Mosses": 0, "count_Insects": 0, "count_Amphibians": 0, "unique_species_count": 2.0, "countryCode": "DO" }, "geometry": { "type": "MultiPolygon", "coordinates": [ [ [ [ -68.558858673605314, 21.008134145293244 ], [ -68.54808387529755, 20.705962747698113 ], [ -68.786813243541218, 20.494045700390416 ], [ -69.036188154393002, 20.583804944719368 ], [ -69.048522460011199, 20.887362966627261 ], [ -68.809896587722903, 21.099744565284013 ], [ -68.558858673605314, 21.008134145293244 ] ] ] ] } },
{ "type": "Feature", "properties": { "geogrid_id": "5320915747068307762", "seqnum": 24719.0, "lat_c": 20.915747246745156, "lon_c": -68.307761883841835, "res": 9.0, "count_Flowering Plants": 0, "count_Birds": 0, "count_Ferns": 0, "count_Reptiles": 0, "count_Arachnids": 0, "count_Mammals": 1, "count_Basidiomycota": 0, "count_Gymnosperms": 0, "count_Sac Fungi": 0, "count_Molluscs": 0, "count_Mosses": 0, "count_Insects": 0, "count_Amphibians": 0, "unique_species_count": 1.0, "countryCode": "DO" }, "geometry": { "type": "MultiPolygon", "coordinates": [ [ [ [ -68.065943063691378, 21.123513835377416 ], [ -68.056613643316837, 20.822585813870564 ], [ -68.297746150747258, 20.614081489726068 ], [ -68.54808387529755, 20.705962747698113 ], [ -68.558858673605314, 21.008134145293244 ], [ -68.317827673551591, 21.217152629001493 ], [ -68.065943063691378, 21.123513835377416 ] ] ] ] } },
{ "type": "Feature", "properties": { "geogrid_id": "5320934817070032506", "seqnum": 24312.0, "lat_c": 20.934816660394929, "lon_c": -70.032506020568491, "res": 9.0, "count_Flowering Plants": 0, "count_Birds": 0, "count_Ferns": 0, "count_Reptiles": 0, "count_Arachnids": 0, "count_Mammals": 1, "count_Basidiomycota": 0, "count_Gymnosperms": 0, "count_Sac Fungi": 0, "count_Molluscs": 0, "count_Mosses": 0, "count_Insects": 0, "count_Amphibians": 0, "unique_species_count": 1.0, "countryCode": "DO" }, "geometry": { "type": "MultiPolygon", "coordinates": [ [ [ [ -69.798473097088703, 21.153531942192135 ], [ -69.783619628618098, 20.848270425611588 ], [ -70.01672249804345, 20.628501954533089 ], [ -70.264557534527682, 20.713618563573842 ], [ -70.281250532600282, 21.020556251669937 ], [ -70.048237335398753, 21.24066705938144 ], [ -69.798473097088703, 21.153531942192135 ] ] ] ] } },
{ "type": "Feature", "properties": { "geogrid_id": "5321029113067814031", "seqnum": 24801.0, "lat_c": 21.029112554633912, "lon_c": -67.814030979171008, "res": 9.0, "count_Flowering Plants": 0, "count_Birds": 0, "count_Ferns": 0, "count_Reptiles": 0, "count_Arachnids": 0, "count_Mammals": 1, "count_Basidiomycota": 0, "count_Gymnosperms": 0, "count_Sac Fungi": 0, "count_Molluscs": 0, "count_Mosses": 0, "count_Insects": 0, "count_Amphibians": 0, "unique_species_count": 1.0, "countryCode": "DO" }, "geometry": { "type": "MultiPolygon", "coordinates": [ [ [ [ -67.570082033740519, 21.233766446848119 ], [ -67.562098584319855, 20.933950950702283 ], [ -67.805421365144227, 20.7286518802206 ], [ -68.056613643316837, 20.822585813870564 ], [ -68.065943063691378, 21.123513835377416 ], [ -67.822714311086258, 21.329369260830191 ], [ -67.570082033740519, 21.233766446848119 ] ] ] ] } },
{ "type": "Feature", "properties": { "geogrid_id": "5321065602069548594", "seqnum": 24393.0, "lat_c": 21.065601919284948, "lon_c": -69.548594085563309, "res": 9.0, "count_Flowering Plants": 0, "count_Birds": 0, "count_Ferns": 0, "count_Reptiles": 0, "count_Arachnids": 0, "count_Mammals": 1, "count_Basidiomycota": 0, "count_Gymnosperms": 0, "count_Sac Fungi": 0, "count_Molluscs": 0, "count_Mosses": 0, "count_Insects": 0, "count_Amphibians": 0, "unique_species_count": 1.0, "countryCode": "DO" }, "geometry": { "type": "MultiPolygon", "coordinates": [ [ [ [ -69.311766038513994, 21.280628639289773 ], [ -69.298607980339455, 20.97687842011705 ], [ -69.534599252450406, 20.760918807838749 ], [ -69.783619628618098, 20.848270425611588 ], [ -69.798473097088703, 21.153531942192135 ], [ -69.56258267842307, 21.369898851378643 ], [ -69.311766038513994, 21.280628639289773 ] ] ] ] } },
{ "type": "Feature", "properties": { "geogrid_id": "5321190577069060868", "seqnum": 24475.0, "lat_c": 21.190576651814368, "lon_c": -69.060868190852133, "res": 9.0, "count_Flowering Plants": 0, "count_Birds": 0, "count_Ferns": 0, "count_Reptiles": 0, "count_Arachnids": 0, "count_Mammals": 1, "count_Basidiomycota": 0, "count_Gymnosperms": 0, "count_Sac Fungi": 0, "count_Molluscs": 0, "count_Mosses": 0, "count_Insects": 0, "count_Amphibians": 0, "unique_species_count": 1.0, "countryCode": "DO" }, "geometry": { "type": "MultiPolygon", "coordinates": [ [ [ [ -68.82148573065183, 21.402134528353784 ], [ -68.809896587722903, 21.099744565284013 ], [ -69.048522460011199, 20.887362966627261 ], [ -69.298607980339455, 20.97687842011705 ], [ -69.311766038513994, 21.280628639289773 ], [ -69.073244771597331, 21.493473735591991 ], [ -68.82148573065183, 21.402134528353784 ] ] ] ] } },
{ "type": "Feature", "properties": { "geogrid_id": "5321704252068833130", "seqnum": 24394.0, "lat_c": 21.704252005398299, "lon_c": -68.833129697561944, "res": 9.0, "count_Flowering Plants": 0, "count_Birds": 1, "count_Ferns": 0, "count_Reptiles": 0, "count_Arachnids": 0, "count_Mammals": 0, "count_Basidiomycota": 0, "count_Gymnosperms": 0, "count_Sac Fungi": 0, "count_Molluscs": 0, "count_Mosses": 0, "count_Insects": 0, "count_Amphibians": 0, "unique_species_count": 1.0, "countryCode": "DO" }, "geometry": { "type": "MultiPolygon", "coordinates": [ [ [ [ -68.591511269034484, 21.913070534252046 ], [ -68.580556820108001, 21.611664835902591 ], [ -68.82148573065183, 21.402134528353784 ], [ -69.073244771597331, 21.493473735591991 ], [ -69.085670290913654, 21.796080170477346 ], [ -68.844844425590978, 22.006120374403636 ], [ -68.591511269034484, 21.913070534252046 ] ] ] ] } },
{ "type": "Feature", "properties": { "geogrid_id": "5321719132070564888", "seqnum": 23987.0, "lat_c": 21.71913153868438, "lon_c": -70.564887916731024, "res": 9.0, "count_Flowering Plants": 0, "count_Birds": 1, "count_Ferns": 0, "count_Reptiles": 0, "count_Arachnids": 0, "count_Mammals": 0, "count_Basidiomycota": 0, "count_Gymnosperms": 0, "count_Sac Fungi": 0, "count_Molluscs": 0, "count_Mosses": 0, "count_Insects": 0, "count_Amphibians": 0, "unique_species_count": 1.0, "countryCode": "DO" }, "geometry": { "type": "MultiPolygon", "coordinates": [ [ [ [ -70.331050867927146, 21.938582112524998 ], [ -70.314470739833638, 21.633003409262145 ], [ -70.547390778237983, 21.412547320112733 ], [ -70.796764631953266, 21.497290065443295 ], [ -70.815186554427299, 21.804470846579168 ], [ -70.582363496078472, 22.025275317644862 ], [ -70.331050867927146, 21.938582112524998 ] ] ] ] } }
]
}
