{
"type": "FeatureCollection",
"name": "DZ",
"crs": { "type": "name", "properties": { "name": "urn:ogc:def:crs:OGC:1.3:CRS84" } },
"features": [
{ "type": "Feature", "properties": { "geogrid_id": "5123637561003130191", "seqnum": 4659.0, "lat_c": 23.637561433323178, "lon_c": -3.1301912838811239, "res": 7.0, "count_Birds": 1, "count_Amphibians": 0, "count_Flowering Plants": 0, "count_Basidiomycota": 0, "count_Mammals": 0, "count_Reptiles": 0, "count_Insects": 0, "count_Molluscs": 0, "count_Gymnosperms": 0, "count_Ferns": 0, "count_Arachnids": 0, "count_Sac Fungi": 0, "count_Mosses": 0, "unique_species_count": 1.0, "countryCode": "DZ" }, "geometry": { "type": "MultiPolygon", "coordinates": [ [ [ [ -2.779223682595854, 24.380638231132085 ], [ -2.182732756089022, 23.687015171785557 ], [ -2.532405603410329, 22.94445216490918 ], [ -3.473773345019545, 22.893553536124614 ], [ -4.077459181880376, 23.582763264906678 ], [ -3.732905638347665, 24.327347936732917 ], [ -2.779223682595854, 24.380638231132085 ] ] ] ] } },
{ "type": "Feature", "properties": { "geogrid_id": "5125070916003381299", "seqnum": 4633.0, "lat_c": 25.070916358452997, "lon_c": -3.3812990367085578, "res": 7.0, "count_Birds": 1, "count_Amphibians": 0, "count_Flowering Plants": 0, "count_Basidiomycota": 0, "count_Mammals": 0, "count_Reptiles": 0, "count_Insects": 0, "count_Molluscs": 0, "count_Gymnosperms": 0, "count_Ferns": 0, "count_Arachnids": 0, "count_Sac Fungi": 0, "count_Mosses": 0, "unique_species_count": 1.0, "countryCode": "DZ" }, "geometry": { "type": "MultiPolygon", "coordinates": [ [ [ [ -3.022493644763036, 25.813206198747032 ], [ -2.42073474117492, 25.122490229433428 ], [ -2.779223682595854, 24.380638231132085 ], [ -3.732905638347665, 24.327347936732917 ], [ -4.341357986824358, 25.013736046827464 ], [ -3.989690688570776, 25.757800921856784 ], [ -3.022493644763036, 25.813206198747032 ] ] ] ] } },
{ "type": "Feature", "properties": { "geogrid_id": "5125696663004956256", "seqnum": 4578.0, "lat_c": 25.696663483477728, "lon_c": -4.9562558370950791, "res": 7.0, "count_Birds": 1, "count_Amphibians": 0, "count_Flowering Plants": 0, "count_Basidiomycota": 0, "count_Mammals": 0, "count_Reptiles": 0, "count_Insects": 0, "count_Molluscs": 0, "count_Gymnosperms": 0, "count_Ferns": 0, "count_Arachnids": 0, "count_Sac Fungi": 0, "count_Mosses": 0, "unique_species_count": 1.0, "countryCode": "DZ" }, "geometry": { "type": "MultiPolygon", "coordinates": [ [ [ [ -4.605047805970103, 26.441246894208341 ], [ -3.989690688570776, 25.757800921856784 ], [ -4.341357986824358, 25.013736046827464 ], [ -5.300969055104388, 24.950987063216662 ], [ -5.922250281652933, 25.629840052213307 ], [ -5.578233041061302, 26.376072571219897 ], [ -4.605047805970103, 26.441246894208341 ] ] ] ] } },
{ "type": "Feature", "properties": { "geogrid_id": "5125862821002054587", "seqnum": 4660.0, "lat_c": 25.862820999738126, "lon_c": -2.0545865224222299, "res": 7.0, "count_Birds": 1, "count_Amphibians": 0, "count_Flowering Plants": 0, "count_Basidiomycota": 0, "count_Mammals": 0, "count_Reptiles": 0, "count_Insects": 0, "count_Molluscs": 0, "count_Gymnosperms": 0, "count_Ferns": 0, "count_Arachnids": 0, "count_Sac Fungi": 0, "count_Mosses": 0, "unique_species_count": 1.0, "countryCode": "DZ" }, "geometry": { "type": "MultiPolygon", "coordinates": [ [ [ [ -1.680639080909456, 26.601331758159962 ], [ -1.085868995931254, 25.906570048740793 ], [ -1.459590587645068, 25.168409293184457 ], [ -2.42073474117492, 25.122490229433428 ], [ -3.022493644763036, 25.813206198747032 ], [ -2.65634060953565, 26.553952745046608 ], [ -1.680639080909456, 26.601331758159962 ] ] ] ] } },
{ "type": "Feature", "properties": { "geogrid_id": "5126305094006550729", "seqnum": 4524.0, "lat_c": 26.30509355149232, "lon_c": -6.5507285212210524, "res": 7.0, "count_Birds": 1, "count_Amphibians": 0, "count_Flowering Plants": 0, "count_Basidiomycota": 0, "count_Mammals": 0, "count_Reptiles": 0, "count_Insects": 0, "count_Molluscs": 0, "count_Gymnosperms": 0, "count_Ferns": 0, "count_Arachnids": 0, "count_Sac Fungi": 0, "count_Mosses": 0, "unique_species_count": 1.0, "countryCode": "DZ" }, "geometry": { "type": "MultiPolygon", "coordinates": [ [ [ [ -6.207869974731457, 27.051904871092184 ], [ -5.578233041061302, 26.376072571219897 ], [ -5.922250281652933, 25.629840052213307 ], [ -6.887722112268627, 25.557367985521651 ], [ -7.522584125868424, 26.228353878843212 ], [ -7.186973718445686, 26.976678741996821 ], [ -6.207869974731457, 27.051904871092184 ] ] ] ] } },
{ "type": "Feature", "properties": { "geogrid_id": "5126500563003631110", "seqnum": 4606.0, "lat_c": 26.500562667073893, "lon_c": -3.631110067380912, "res": 7.0, "count_Birds": 1, "count_Amphibians": 0, "count_Flowering Plants": 0, "count_Basidiomycota": 0, "count_Mammals": 0, "count_Reptiles": 0, "count_Insects": 0, "count_Molluscs": 0, "count_Gymnosperms": 0, "count_Ferns": 0, "count_Arachnids": 0, "count_Sac Fungi": 0, "count_Mosses": 0, "unique_species_count": 1.0, "countryCode": "DZ" }, "geometry": { "type": "MultiPolygon", "coordinates": [ [ [ [ -3.265457496070976, 27.241783719312373 ], [ -2.65634060953565, 26.553952745046608 ], [ -3.022493644763036, 25.813206198747032 ], [ -3.989690688570776, 25.757800921856784 ], [ -4.605047805970103, 26.441246894208341 ], [ -4.247182259356735, 27.184525140236413 ], [ -3.265457496070976, 27.241783719312373 ] ] ] ] } },
{ "type": "Feature", "properties": { "geogrid_id": "5126895579008165322", "seqnum": 4470.0, "lat_c": 26.895579057684433, "lon_c": -8.1653217847026287, "res": 7.0, "count_Birds": 1, "count_Amphibians": 0, "count_Flowering Plants": 0, "count_Basidiomycota": 0, "count_Mammals": 0, "count_Reptiles": 0, "count_Insects": 0, "count_Molluscs": 0, "count_Gymnosperms": 0, "count_Ferns": 0, "count_Arachnids": 0, "count_Sac Fungi": 0, "count_Mosses": 0, "unique_species_count": 1.0, "countryCode": "DZ" }, "geometry": { "type": "MultiPolygon", "coordinates": [ [ [ [ -7.831520438641602, 27.644523600731166 ], [ -7.186973718445686, 26.976678741996821 ], [ -7.522584125868424, 26.228353878843212 ], [ -8.493839669685856, 26.145890284341505 ], [ -9.142954611127529, 26.808648034475251 ], [ -8.81646180239218, 27.558962687595415 ], [ -7.831520438641602, 27.644523600731166 ] ] ] ] } },
{ "type": "Feature", "properties": { "geogrid_id": "5127121207005227960", "seqnum": 4552.0, "lat_c": 27.121207251117777, "lon_c": -5.2279603463432727, "res": 7.0, "count_Birds": 1, "count_Amphibians": 0, "count_Flowering Plants": 0, "count_Basidiomycota": 0, "count_Mammals": 0, "count_Reptiles": 0, "count_Insects": 0, "count_Molluscs": 0, "count_Gymnosperms": 0, "count_Ferns": 0, "count_Arachnids": 0, "count_Sac Fungi": 0, "count_Mosses": 0, "unique_species_count": 1.0, "countryCode": "DZ" }, "geometry": { "type": "MultiPolygon", "coordinates": [ [ [ [ -4.871262319167441, 27.865052215246266 ], [ -4.247182259356735, 27.184525140236413 ], [ -4.605047805970103, 26.441246894208341 ], [ -5.578233041061302, 26.376072571219897 ], [ -6.207869974731457, 27.051904871092184 ], [ -5.858975899716897, 27.797629669562351 ], [ -4.871262319167441, 27.865052215246266 ] ] ] ] } },
{ "type": "Feature", "properties": { "geogrid_id": "5127292889002282688", "seqnum": 4634.0, "lat_c": 27.292889175744435, "lon_c": -2.2826880205401192, "res": 7.0, "count_Birds": 1, "count_Amphibians": 0, "count_Flowering Plants": 1, "count_Basidiomycota": 0, "count_Mammals": 0, "count_Reptiles": 0, "count_Insects": 0, "count_Molluscs": 0, "count_Gymnosperms": 0, "count_Ferns": 0, "count_Arachnids": 0, "count_Sac Fungi": 0, "count_Mosses": 0, "unique_species_count": 2.0, "countryCode": "DZ" }, "geometry": { "type": "MultiPolygon", "coordinates": [ [ [ [ -1.901380988249362, 28.029746835638885 ], [ -1.298750610681785, 27.337721744528348 ], [ -1.680639080909456, 26.601331758159962 ], [ -2.65634060953565, 26.553952745046608 ], [ -3.265457496070976, 27.241783719312373 ], [ -2.892570398287599, 27.981224571285864 ], [ -1.901380988249362, 28.029746835638885 ] ] ] ] } },
{ "type": "Feature", "properties": { "geogrid_id": "5127724098006845708", "seqnum": 4497.0, "lat_c": 27.724097853676142, "lon_c": -6.8457082575388153, "res": 7.0, "count_Birds": 1, "count_Amphibians": 0, "count_Flowering Plants": 0, "count_Basidiomycota": 0, "count_Mammals": 0, "count_Reptiles": 0, "count_Insects": 0, "count_Molluscs": 0, "count_Gymnosperms": 0, "count_Ferns": 0, "count_Arachnids": 0, "count_Sac Fungi": 0, "count_Mosses": 0, "unique_species_count": 1.0, "countryCode": "DZ" }, "geometry": { "type": "MultiPolygon", "coordinates": [ [ [ [ -6.498611984842154, 28.470454578525764 ], [ -5.858975899716897, 27.797629669562351 ], [ -6.207869974731457, 27.051904871092184 ], [ -7.186973718445686, 26.976678741996821 ], [ -7.831520438641602, 27.644523600731166 ], [ -7.492261662989608, 28.392582817161902 ], [ -6.498611984842154, 28.470454578525764 ] ] ] ] } },
{ "type": "Feature", "properties": { "geogrid_id": "5127926284003882492", "seqnum": 4579.0, "lat_c": 27.926284099660105, "lon_c": -3.882491828439822, "res": 7.0, "count_Birds": 1, "count_Amphibians": 0, "count_Flowering Plants": 0, "count_Basidiomycota": 0, "count_Mammals": 0, "count_Reptiles": 0, "count_Insects": 0, "count_Molluscs": 1, "count_Gymnosperms": 0, "count_Ferns": 0, "count_Arachnids": 0, "count_Sac Fungi": 0, "count_Mosses": 0, "unique_species_count": 2.0, "countryCode": "DZ" }, "geometry": { "type": "MultiPolygon", "coordinates": [ [ [ [ -3.510804421794593, 28.666307820450452 ], [ -2.892570398287599, 27.981224571285864 ], [ -3.265457496070976, 27.241783719312373 ], [ -4.247182259356735, 27.184525140236413 ], [ -4.871262319167441, 27.865052215246266 ], [ -4.507963787075743, 28.607413748605733 ], [ -3.510804421794593, 28.666307820450452 ] ] ] ] } },
{ "type": "Feature", "properties": { "geogrid_id": "5128071689000908778", "seqnum": 4661.0, "lat_c": 28.071688606427657, "lon_c": -0.90877761297263804, "res": 7.0, "count_Birds": 4, "count_Amphibians": 0, "count_Flowering Plants": 8, "count_Basidiomycota": 0, "count_Mammals": 0, "count_Reptiles": 0, "count_Insects": 0, "count_Molluscs": 0, "count_Gymnosperms": 0, "count_Ferns": 0, "count_Arachnids": 0, "count_Sac Fungi": 0, "count_Mosses": 0, "unique_species_count": 12.0, "countryCode": "DZ" }, "geometry": { "type": "MultiPolygon", "coordinates": [ [ [ [ -0.510575085244661, 28.802928786953647 ], [ 0.085422242603148, 28.106838504779443 ], [ -0.313489892657987, 27.376125679505662 ], [ -1.298750610681785, 27.337721744528348 ], [ -1.901380988249362, 28.029746835638885 ], [ -1.512261739074249, 28.764255513805534 ], [ -0.510575085244661, 28.802928786953647 ] ] ] ] } },
{ "type": "Feature", "properties": { "geogrid_id": "5128308551008484878", "seqnum": 4443.0, "lat_c": 28.308550765800913, "lon_c": -8.4848775455516208, "res": 7.0, "count_Birds": 10, "count_Amphibians": 0, "count_Flowering Plants": 5, "count_Basidiomycota": 0, "count_Mammals": 0, "count_Reptiles": 0, "count_Insects": 0, "count_Molluscs": 0, "count_Gymnosperms": 0, "count_Ferns": 0, "count_Arachnids": 0, "count_Sac Fungi": 0, "count_Mosses": 0, "unique_species_count": 15.0, "countryCode": "DZ" }, "geometry": { "type": "MultiPolygon", "coordinates": [ [ [ [ -8.148024326303734, 29.057283567603029 ], [ -7.492261662989608, 28.392582817161902 ], [ -7.831520438641602, 27.644523600731166 ], [ -8.81646180239218, 27.558962687595415 ], [ -9.476507214923139, 28.218419229371712 ], [ -9.147535568931749, 28.968676116612066 ], [ -8.148024326303734, 29.057283567603029 ] ] ] ] } },
{ "type": "Feature", "properties": { "geogrid_id": "5128542094005503870", "seqnum": 4525.0, "lat_c": 28.542093876329815, "lon_c": -5.5038700330242358, "res": 7.0, "count_Birds": 1, "count_Amphibians": 0, "count_Flowering Plants": 0, "count_Basidiomycota": 0, "count_Mammals": 0, "count_Reptiles": 0, "count_Insects": 0, "count_Molluscs": 0, "count_Gymnosperms": 0, "count_Ferns": 0, "count_Arachnids": 0, "count_Sac Fungi": 0, "count_Mosses": 0, "unique_species_count": 1.0, "countryCode": "DZ" }, "geometry": { "type": "MultiPolygon", "coordinates": [ [ [ [ -5.142370258548952, 29.285121682274408 ], [ -4.507963787075743, 28.607413748605733 ], [ -4.871262319167441, 27.865052215246266 ], [ -5.858975899716897, 27.797629669562351 ], [ -6.498611984842154, 28.470454578525764 ], [ -6.145502995426798, 29.215590594573367 ], [ -5.142370258548952, 29.285121682274408 ] ] ] ] } },
{ "type": "Feature", "properties": { "geogrid_id": "5128718644002512282", "seqnum": 4607.0, "lat_c": 28.718643968307092, "lon_c": -2.5122822617739611, "res": 7.0, "count_Birds": 1, "count_Amphibians": 0, "count_Flowering Plants": 0, "count_Basidiomycota": 0, "count_Mammals": 0, "count_Reptiles": 0, "count_Insects": 0, "count_Molluscs": 0, "count_Gymnosperms": 0, "count_Ferns": 0, "count_Arachnids": 0, "count_Sac Fungi": 0, "count_Mosses": 0, "unique_species_count": 1.0, "countryCode": "DZ" }, "geometry": { "type": "MultiPolygon", "coordinates": [ [ [ [ -2.124422664329113, 29.453799105612159 ], [ -1.512261739074249, 28.764255513805534 ], [ -1.901380988249362, 28.029746835638885 ], [ -2.892570398287599, 27.981224571285864 ], [ -3.510804421794593, 28.666307820450452 ], [ -3.131943176799747, 29.404378656693385 ], [ -2.124422664329113, 29.453799105612159 ] ] ] ] } },
{ "type": "Feature", "properties": { "geogrid_id": "5129139614007147365", "seqnum": 4471.0, "lat_c": 29.139614005075952, "lon_c": -7.1473651763407746, "res": 7.0, "count_Birds": 1, "count_Amphibians": 0, "count_Flowering Plants": 0, "count_Basidiomycota": 0, "count_Mammals": 0, "count_Reptiles": 0, "count_Insects": 1, "count_Molluscs": 0, "count_Gymnosperms": 0, "count_Ferns": 0, "count_Arachnids": 0, "count_Sac Fungi": 0, "count_Mosses": 0, "unique_species_count": 2.0, "countryCode": "DZ" }, "geometry": { "type": "MultiPolygon", "coordinates": [ [ [ [ -6.796644138659963, 29.885472868669943 ], [ -6.145502995426798, 29.215590594573367 ], [ -6.498611984842154, 28.470454578525764 ], [ -7.492261662989608, 28.392582817161902 ], [ -8.148024326303734, 29.057283567603029 ], [ -7.805717983439559, 29.805030884747232 ], [ -6.796644138659963, 29.885472868669943 ] ] ] ] } },
{ "type": "Feature", "properties": { "geogrid_id": "5129348096004137884", "seqnum": 4553.0, "lat_c": 29.348096388722109, "lon_c": -4.1378841722432158, "res": 7.0, "count_Birds": 1, "count_Amphibians": 0, "count_Flowering Plants": 15, "count_Basidiomycota": 0, "count_Mammals": 0, "count_Reptiles": 1, "count_Insects": 2, "count_Molluscs": 0, "count_Gymnosperms": 0, "count_Ferns": 0, "count_Arachnids": 0, "count_Sac Fungi": 0, "count_Mosses": 0, "unique_species_count": 19.0, "countryCode": "DZ" }, "geometry": { "type": "MultiPolygon", "coordinates": [ [ [ [ -3.760837383873165, 30.086903014974073 ], [ -3.131943176799747, 29.404378656693385 ], [ -3.510804421794593, 28.666307820450452 ], [ -4.507963787075743, 28.607413748605733 ], [ -5.142370258548952, 29.285121682274408 ], [ -4.774288443407857, 30.026535594846333 ], [ -3.760837383873165, 30.086903014974073 ] ] ] ] } },
{ "type": "Feature", "properties": { "geogrid_id": "5129496144001115170", "seqnum": 4635.0, "lat_c": 29.496143723101302, "lon_c": -1.115169728228701, "res": 7.0, "count_Birds": 1, "count_Amphibians": 0, "count_Flowering Plants": 2, "count_Basidiomycota": 0, "count_Mammals": 1, "count_Reptiles": 0, "count_Insects": 1, "count_Molluscs": 0, "count_Gymnosperms": 0, "count_Ferns": 0, "count_Arachnids": 0, "count_Sac Fungi": 0, "count_Mosses": 0, "unique_species_count": 5.0, "countryCode": "DZ" }, "geometry": { "type": "MultiPolygon", "coordinates": [ [ [ [ -0.709941771933476, 30.225138980527941 ], [ -0.103996732908699, 29.531137914991508 ], [ -0.510575085244661, 28.802928786953647 ], [ -1.512261739074249, 28.764255513805534 ], [ -2.124422664329113, 29.453799105612159 ], [ -1.72881731379612, 30.186445825742108 ], [ -0.709941771933476, 30.225138980527941 ] ] ] ] } },
{ "type": "Feature", "properties": { "geogrid_id": "5129959346005786193", "seqnum": 4498.0, "lat_c": 29.959345923182752, "lon_c": -5.7861930282164744, "res": 7.0, "count_Birds": 6, "count_Amphibians": 0, "count_Flowering Plants": 0, "count_Basidiomycota": 0, "count_Mammals": 0, "count_Reptiles": 0, "count_Insects": 0, "count_Molluscs": 0, "count_Gymnosperms": 0, "count_Ferns": 0, "count_Arachnids": 0, "count_Sac Fungi": 0, "count_Mosses": 0, "unique_species_count": 6.0, "countryCode": "DZ" }, "geometry": { "type": "MultiPolygon", "coordinates": [ [ [ [ -5.420487251748987, 30.701558956091638 ], [ -4.774288443407857, 30.026535594846333 ], [ -5.142370258548952, 29.285121682274408 ], [ -6.145502995426798, 29.215590594573367 ], [ -6.796644138659963, 29.885472868669943 ], [ -6.439904897075343, 30.630013526695318 ], [ -5.420487251748987, 30.701558956091638 ] ] ] ] } },
{ "type": "Feature", "properties": { "geogrid_id": "5130140277002745726", "seqnum": 4580.0, "lat_c": 30.140277404047406, "lon_c": -2.7457264197368718, "res": 7.0, "count_Birds": 16, "count_Amphibians": 0, "count_Flowering Plants": 10, "count_Basidiomycota": 0, "count_Mammals": 2, "count_Reptiles": 1, "count_Insects": 0, "count_Molluscs": 0, "count_Gymnosperms": 0, "count_Ferns": 0, "count_Arachnids": 0, "count_Sac Fungi": 0, "count_Mosses": 0, "unique_species_count": 29.0, "countryCode": "DZ" }, "geometry": { "type": "MultiPolygon", "coordinates": [ [ [ [ -2.351967635790144, 30.873783434008971 ], [ -1.72881731379612, 30.186445825742108 ], [ -2.124422664329113, 29.453799105612159 ], [ -3.131943176799747, 29.404378656693385 ], [ -3.760837383873165, 30.086903014974073 ], [ -3.376631715145294, 30.823634936034779 ], [ -2.351967635790144, 30.873783434008971 ] ] ] ] } },
{ "type": "Feature", "properties": { "geogrid_id": "5130766156004399430", "seqnum": 4526.0, "lat_c": 30.76615649071438, "lon_c": -4.3994302737549438, "res": 7.0, "count_Birds": 1, "count_Amphibians": 0, "count_Flowering Plants": 0, "count_Basidiomycota": 0, "count_Mammals": 0, "count_Reptiles": 0, "count_Insects": 0, "count_Molluscs": 0, "count_Gymnosperms": 0, "count_Ferns": 0, "count_Arachnids": 0, "count_Sac Fungi": 0, "count_Mosses": 0, "unique_species_count": 1.0, "countryCode": "DZ" }, "geometry": { "type": "MultiPolygon", "coordinates": [ [ [ [ -4.017595090923235, 31.503803665630084 ], [ -3.376631715145294, 30.823634936034779 ], [ -3.760837383873165, 30.086903014974073 ], [ -4.774288443407857, 30.026535594846333 ], [ -5.420487251748987, 30.701558956091638 ], [ -5.048184045550905, 31.442066479225286 ], [ -4.017595090923235, 31.503803665630084 ] ] ] ] } },
{ "type": "Feature", "properties": { "geogrid_id": "5130916339001325288", "seqnum": 4608.0, "lat_c": 30.916338815456012, "lon_c": -1.3252881035157951, "res": 7.0, "count_Birds": 4, "count_Amphibians": 0, "count_Flowering Plants": 7, "count_Basidiomycota": 0, "count_Mammals": 0, "count_Reptiles": 4, "count_Insects": 2, "count_Molluscs": 0, "count_Gymnosperms": 0, "count_Ferns": 0, "count_Arachnids": 0, "count_Sac Fungi": 0, "count_Mosses": 0, "unique_species_count": 17.0, "countryCode": "DZ" }, "geometry": { "type": "MultiPolygon", "coordinates": [ [ [ [ -0.913653184788347, 31.643231801677647 ], [ -0.296412200485362, 30.950968087710219 ], [ -0.709941771933476, 30.225138980527941 ], [ -1.72881731379612, 30.186445825742108 ], [ -2.351967635790144, 30.873783434008971 ], [ -1.950475450276243, 31.604674826597471 ], [ -0.913653184788347, 31.643231801677647 ] ] ] ] } },
{ "type": "Feature", "properties": { "geogrid_id": "5131558092002985070", "seqnum": 4554.0, "lat_c": 31.558091975092317, "lon_c": -2.9850697457446911, "res": 7.0, "count_Birds": 33, "count_Amphibians": 1, "count_Flowering Plants": 78, "count_Basidiomycota": 0, "count_Mammals": 4, "count_Reptiles": 0, "count_Insects": 9, "count_Molluscs": 0, "count_Gymnosperms": 0, "count_Ferns": 0, "count_Arachnids": 1, "count_Sac Fungi": 0, "count_Mosses": 0, "unique_species_count": 126.0, "countryCode": "DZ" }, "geometry": { "type": "MultiPolygon", "coordinates": [ [ [ [ -2.585948251120216, 32.29007255252877 ], [ -1.950475450276243, 31.604674826597471 ], [ -2.351967635790144, 30.873783434008971 ], [ -3.376631715145294, 30.823634936034779 ], [ -4.017595090923235, 31.503803665630084 ], [ -3.628575728680268, 32.239294881200664 ], [ -2.585948251120216, 32.29007255252877 ] ] ] ] } },
{ "type": "Feature", "properties": { "geogrid_id": "5132332729001541054", "seqnum": 4581.0, "lat_c": 32.332728501096241, "lon_c": -1.5410536225585221, "res": 7.0, "count_Birds": 26, "count_Amphibians": 1, "count_Flowering Plants": 17, "count_Basidiomycota": 0, "count_Mammals": 1, "count_Reptiles": 6, "count_Insects": 4, "count_Molluscs": 0, "count_Gymnosperms": 1, "count_Ferns": 0, "count_Arachnids": 0, "count_Sac Fungi": 0, "count_Mosses": 0, "unique_species_count": 56.0, "countryCode": "DZ" }, "geometry": { "type": "MultiPolygon", "coordinates": [ [ [ [ -1.123501054232047, 33.05772034451477 ], [ -0.493727057994726, 32.366877746011689 ], [ -0.913653184788347, 31.643231801677647 ], [ -1.950475450276243, 31.604674826597471 ], [ -2.585948251120216, 32.29007255252877 ], [ -2.179058119752707, 33.019373765756868 ], [ -1.123501054232047, 33.05772034451477 ] ] ] ] } },
{ "type": "Feature", "properties": { "geogrid_id": "5133087029000065321", "seqnum": 4609.0, "lat_c": 33.087029037404527, "lon_c": -0.065320684142432001, "res": 7.0, "count_Birds": 39, "count_Amphibians": 2, "count_Flowering Plants": 13, "count_Basidiomycota": 0, "count_Mammals": 5, "count_Reptiles": 6, "count_Insects": 14, "count_Molluscs": 0, "count_Gymnosperms": 0, "count_Ferns": 0, "count_Arachnids": 2, "count_Sac Fungi": 0, "count_Mosses": 0, "unique_species_count": 81.0, "countryCode": "DZ" }, "geometry": { "type": "MultiPolygon", "coordinates": [ [ [ [ 0.371758381283795, 33.803437682570056 ], [ 0.995676333758038, 33.106721661541222 ], [ 0.556225818960149, 32.392033159005678 ], [ -0.493727057994726, 32.366877746011689 ], [ -1.123501054232047, 33.05772034451477 ], [ -0.697611813307104, 33.779425337471018 ], [ 0.371758381283795, 33.803437682570056 ] ] ] ] } },
{ "type": "Feature", "properties": { "geogrid_id": "5133745791001764184", "seqnum": 4555.0, "lat_c": 33.74579146593603, "lon_c": -1.764184279857099, "res": 7.0, "count_Birds": 33, "count_Amphibians": 0, "count_Flowering Plants": 8, "count_Basidiomycota": 0, "count_Mammals": 0, "count_Reptiles": 0, "count_Insects": 7, "count_Molluscs": 0, "count_Gymnosperms": 0, "count_Ferns": 0, "count_Arachnids": 0, "count_Sac Fungi": 0, "count_Mosses": 0, "unique_species_count": 48.0, "countryCode": "DZ" }, "geometry": { "type": "MultiPolygon", "coordinates": [ [ [ [ -1.341105637098798, 34.469120331316425 ], [ -0.697611813307104, 33.779425337471018 ], [ -1.123501054232047, 33.05772034451477 ], [ -2.179058119752707, 33.019373765756868 ], [ -2.828122301894885, 33.703073066650234 ], [ -2.416239936956853, 34.430988260855393 ], [ -1.341105637098798, 34.469120331316425 ] ] ] ] } },
{ "type": "Feature", "properties": { "geogrid_id": "5134497618000263175", "seqnum": 4582.0, "lat_c": 34.497617677231204, "lon_c": -0.26317517626822901, "res": 7.0, "count_Birds": 65, "count_Amphibians": 2, "count_Flowering Plants": 188, "count_Basidiomycota": 3, "count_Mammals": 5, "count_Reptiles": 8, "count_Insects": 22, "count_Molluscs": 2, "count_Gymnosperms": 3, "count_Ferns": 0, "count_Arachnids": 0, "count_Sac Fungi": 3, "count_Mosses": 0, "unique_species_count": 301.0, "countryCode": "DZ" }, "geometry": { "type": "MultiPolygon", "coordinates": [ [ [ [ 0.18002430995645, 35.212070897687376 ], [ 0.817705830168388, 34.515855493851411 ], [ 0.371758381283795, 33.803437682570056 ], [ -0.697611813307104, 33.779425337471018 ], [ -1.341105637098798, 34.469120331316425 ], [ -0.909595025074026, 35.189153936990287 ], [ 0.18002430995645, 35.212070897687376 ] ] ] ] } },
{ "type": "Feature", "properties": { "geogrid_id": "5135156004001996276", "seqnum": 4528.0, "lat_c": 35.156004011721372, "lon_c": -1.996276490493502, "res": 7.0, "count_Birds": 165, "count_Amphibians": 4, "count_Flowering Plants": 198, "count_Basidiomycota": 2, "count_Mammals": 12, "count_Reptiles": 15, "count_Insects": 94, "count_Molluscs": 29, "count_Gymnosperms": 2, "count_Ferns": 3, "count_Arachnids": 10, "count_Sac Fungi": 1, "count_Mosses": 0, "unique_species_count": 535.0, "countryCode": "DZ" }, "geometry": { "type": "MultiPolygon", "coordinates": [ [ [ [ -1.567989927224749, 35.877930983551529 ], [ -0.909595025074026, 35.189153936990287 ], [ -1.341105637098798, 34.469120331316425 ], [ -2.416239936956853, 34.430988260855393 ], [ -3.080146303841281, 35.113198770894094 ], [ -2.663615873553796, 35.839957860853538 ], [ -1.567989927224749, 35.877930983551529 ] ] ] ] } },
{ "type": "Feature", "properties": { "geogrid_id": "5135905685000469419", "seqnum": 4556.0, "lat_c": 35.905684820864977, "lon_c": -0.46941917048713, "res": 7.0, "count_Birds": 177, "count_Amphibians": 4, "count_Flowering Plants": 652, "count_Basidiomycota": 11, "count_Mammals": 18, "count_Reptiles": 17, "count_Insects": 306, "count_Molluscs": 87, "count_Gymnosperms": 8, "count_Ferns": 4, "count_Arachnids": 33, "count_Sac Fungi": 8, "count_Mosses": 0, "unique_species_count": 1325.0, "countryCode": "DZ" }, "geometry": { "type": "MultiPolygon", "coordinates": [ [ [ [ -0.020338675155342, 36.618504545711616 ], [ 0.632206743915084, 35.922557986101545 ], [ 0.18002430995645, 35.212070897687376 ], [ -0.909595025074026, 35.189153936990287 ], [ -1.567989927224749, 35.877930983551529 ], [ -1.131130811777736, 36.596578506666987 ], [ -0.020338675155342, 36.618504545711616 ] ] ] ] } },
{ "type": "Feature", "properties": { "geogrid_id": "5136563825002238868", "seqnum": 4501.0, "lat_c": 36.563825162145925, "lon_c": -2.2388675276628769, "res": 7.0, "count_Birds": 0, "count_Amphibians": 0, "count_Flowering Plants": 0, "count_Basidiomycota": 0, "count_Mammals": 1, "count_Reptiles": 0, "count_Insects": 0, "count_Molluscs": 0, "count_Gymnosperms": 0, "count_Ferns": 0, "count_Arachnids": 0, "count_Sac Fungi": 0, "count_Mosses": 0, "unique_species_count": 1.0, "countryCode": "DZ" }, "geometry": { "type": "MultiPolygon", "coordinates": [ [ [ [ -1.805637120214464, 37.284624984675993 ], [ -1.131130811777736, 36.596578506666987 ], [ -1.567989927224749, 35.877930983551529 ], [ -2.663615873553796, 35.839957860853538 ], [ -3.343633297424396, 36.520854540094298 ], [ -2.922755151528602, 37.246704190648501 ], [ -1.805637120214464, 37.284624984675993 ] ] ] ] } },
{ "type": "Feature", "properties": { "geogrid_id": "5137311755000685442", "seqnum": 4529.0, "lat_c": 37.311754595163961, "lon_c": -0.68544218739303098, "res": 7.0, "count_Birds": 3, "count_Amphibians": 0, "count_Flowering Plants": 0, "count_Basidiomycota": 0, "count_Mammals": 3, "count_Reptiles": 0, "count_Insects": 0, "count_Molluscs": 0, "count_Gymnosperms": 0, "count_Ferns": 0, "count_Arachnids": 0, "count_Sac Fungi": 0, "count_Mosses": 0, "unique_species_count": 6.0, "countryCode": "DZ" }, "geometry": { "type": "MultiPolygon", "coordinates": [ [ [ [ -0.230659467501406, 38.023265959745125 ], [ 0.437891982816193, 37.327403757187447 ], [ -0.020338675155342, 36.618504545711616 ], [ -1.131130811777736, 36.596578506666987 ], [ -1.805637120214464, 37.284624984675993 ], [ -1.36365165545929, 38.002180052497707 ], [ -0.230659467501406, 38.023265959745125 ] ] ] ] } },
{ "type": "Feature", "properties": { "geogrid_id": "719503254003180382", "seqnum": 4903.0, "lat_c": 19.503254106772552, "lon_c": 3.1803816577742832, "res": 7.0, "count_Birds": 3, "count_Amphibians": 0, "count_Flowering Plants": 0, "count_Basidiomycota": 0, "count_Mammals": 0, "count_Reptiles": 0, "count_Insects": 0, "count_Molluscs": 0, "count_Gymnosperms": 0, "count_Ferns": 0, "count_Arachnids": 0, "count_Sac Fungi": 0, "count_Mosses": 0, "unique_species_count": 3.0, "countryCode": "DZ" }, "geometry": { "type": "MultiPolygon", "coordinates": [ [ [ [ 3.515725705910417, 20.235511267007869 ], [ 4.099626167836988, 19.516288245227038 ], [ 3.78007996058047, 18.788752098513857 ], [ 2.86009962027798, 18.773154410204342 ], [ 2.261688529683965, 19.485490932912001 ], [ 2.595027328736149, 20.219492348704989 ], [ 3.515725705910417, 20.235511267007869 ] ] ] ] } },
{ "type": "Feature", "properties": { "geogrid_id": "719528684005941820", "seqnum": 4985.0, "lat_c": 19.528684198568047, "lon_c": 5.9418202418015067, "res": 7.0, "count_Birds": 0, "count_Amphibians": 0, "count_Flowering Plants": 1, "count_Basidiomycota": 0, "count_Mammals": 0, "count_Reptiles": 1, "count_Insects": 0, "count_Molluscs": 0, "count_Gymnosperms": 0, "count_Ferns": 0, "count_Arachnids": 0, "count_Sac Fungi": 0, "count_Mosses": 0, "unique_species_count": 2.0, "countryCode": "DZ" }, "geometry": { "type": "MultiPolygon", "coordinates": [ [ [ [ 6.277848087736826, 20.254184187637883 ], [ 6.867130380402243, 19.528755901397087 ], [ 6.564866476943017, 18.815323537331619 ], [ 5.629718430962508, 18.808657761248018 ], [ 5.019846655324741, 19.524694834187038 ], [ 5.356997634558311, 20.252835912777478 ], [ 6.277848087736826, 20.254184187637883 ] ] ] ] } },
{ "type": "Feature", "properties": { "geogrid_id": "720198555001674200", "seqnum": 4849.0, "lat_c": 20.198555356068237, "lon_c": 1.6741998770616571, "res": 7.0, "count_Birds": 59, "count_Amphibians": 2, "count_Flowering Plants": 2, "count_Basidiomycota": 0, "count_Mammals": 4, "count_Reptiles": 5, "count_Insects": 23, "count_Molluscs": 0, "count_Gymnosperms": 0, "count_Ferns": 0, "count_Arachnids": 2, "count_Sac Fungi": 0, "count_Mosses": 0, "unique_species_count": 97.0, "countryCode": "DZ" }, "geometry": { "type": "MultiPolygon", "coordinates": [ [ [ [ 2.017185762603784, 20.934806010184374 ], [ 2.595027328736149, 20.219492348704989 ], [ 2.261688529683965, 19.485490932912001 ], [ 1.343295982659704, 19.46294449657244 ], [ 0.753210287529842, 20.17269449855138 ], [ 1.092360754629076, 20.910373442377043 ], [ 2.017185762603784, 20.934806010184374 ] ] ] ] } },
{ "type": "Feature", "properties": { "geogrid_id": "720954246002941756", "seqnum": 4877.0, "lat_c": 20.954245811343398, "lon_c": 2.9417560063820281, "res": 7.0, "count_Birds": 67, "count_Amphibians": 2, "count_Flowering Plants": 3, "count_Basidiomycota": 0, "count_Mammals": 7, "count_Reptiles": 4, "count_Insects": 18, "count_Molluscs": 0, "count_Gymnosperms": 0, "count_Ferns": 0, "count_Arachnids": 1, "count_Sac Fungi": 0, "count_Mosses": 0, "unique_species_count": 102.0, "countryCode": "DZ" }, "geometry": { "type": "MultiPolygon", "coordinates": [ [ [ [ 3.301831339109477, 21.688747579055754 ], [ 3.866063213574891, 20.968695676270045 ], [ 3.515725705910417, 20.235511267007869 ], [ 2.595027328736149, 20.219492348704989 ], [ 2.017185762603784, 20.934806010184374 ], [ 2.372262819214537, 21.670881410709718 ], [ 3.301831339109477, 21.688747579055754 ] ] ] ] } },
{ "type": "Feature", "properties": { "geogrid_id": "721647946001442544", "seqnum": 4822.0, "lat_c": 21.647946047861375, "lon_c": 1.4425439848513779, "res": 7.0, "count_Birds": 0, "count_Amphibians": 0, "count_Flowering Plants": 0, "count_Basidiomycota": 0, "count_Mammals": 1, "count_Reptiles": 0, "count_Insects": 0, "count_Molluscs": 0, "count_Gymnosperms": 0, "count_Ferns": 0, "count_Arachnids": 0, "count_Sac Fungi": 0, "count_Mosses": 0, "unique_species_count": 1.0, "countryCode": "DZ" }, "geometry": { "type": "MultiPolygon", "coordinates": [ [ [ [ 1.803791980600566, 22.384726081143818 ], [ 2.372262819214537, 21.670881410709718 ], [ 2.017185762603784, 20.934806010184374 ], [ 1.092360754629076, 20.910373442377043 ], [ 0.512661568085355, 21.619942361342858 ], [ 0.868219620136863, 22.358319508715816 ], [ 1.803791980600566, 22.384726081143818 ] ] ] ] } },
{ "type": "Feature", "properties": { "geogrid_id": "721709391007019505", "seqnum": 4986.0, "lat_c": 21.709390693899525, "lon_c": 7.0195053155389306, "res": 7.0, "count_Birds": 2, "count_Amphibians": 0, "count_Flowering Plants": 0, "count_Basidiomycota": 0, "count_Mammals": 0, "count_Reptiles": 0, "count_Insects": 1, "count_Molluscs": 0, "count_Gymnosperms": 0, "count_Ferns": 0, "count_Arachnids": 0, "count_Sac Fungi": 0, "count_Mosses": 0, "unique_species_count": 3.0, "countryCode": "DZ" }, "geometry": { "type": "MultiPolygon", "coordinates": [ [ [ [ 7.423423425096715, 22.432679613747929 ], [ 7.94947170448679, 21.701697606431914 ], [ 7.56048794702394, 20.976669422088186 ], [ 6.637320123241306, 20.982141255877693 ], [ 6.089995634658487, 21.711885599639714 ], [ 6.484861274047335, 22.438301096058932 ], [ 7.423423425096715, 22.432679613747929 ] ] ] ] } },
{ "type": "Feature", "properties": { "geogrid_id": "722438242005547640", "seqnum": 4932.0, "lat_c": 22.438242490332112, "lon_c": 5.5476395953434681, "res": 7.0, "count_Birds": 33, "count_Amphibians": 5, "count_Flowering Plants": 91, "count_Basidiomycota": 0, "count_Mammals": 5, "count_Reptiles": 11, "count_Insects": 19, "count_Molluscs": 0, "count_Gymnosperms": 0, "count_Ferns": 0, "count_Arachnids": 1, "count_Sac Fungi": 0, "count_Mosses": 0, "unique_species_count": 165.0, "countryCode": "DZ" }, "geometry": { "type": "MultiPolygon", "coordinates": [ [ [ [ 5.950704585969916, 23.163410370374383 ], [ 6.484861274047335, 22.438301096058932 ], [ 6.089995634658487, 21.711885599639714 ], [ 5.160635573325132, 21.709259198113173 ], [ 4.611185512019135, 22.432759580449328 ], [ 5.005569909023408, 23.161041118947217 ], [ 5.950704585969916, 23.163410370374383 ] ] ] ] } },
{ "type": "Feature", "properties": { "geogrid_id": "723152891004061678", "seqnum": 4878.0, "lat_c": 23.152890567272056, "lon_c": 4.0616780655970732, "res": 7.0, "count_Birds": 4, "count_Amphibians": 1, "count_Flowering Plants": 0, "count_Basidiomycota": 0, "count_Mammals": 1, "count_Reptiles": 0, "count_Insects": 7, "count_Molluscs": 0, "count_Gymnosperms": 0, "count_Ferns": 0, "count_Arachnids": 0, "count_Sac Fungi": 0, "count_Mosses": 0, "unique_species_count": 13.0, "countryCode": "DZ" }, "geometry": { "type": "MultiPolygon", "coordinates": [ [ [ [ 4.461188780793006, 23.880452205142294 ], [ 5.005569909023408, 23.161041118947217 ], [ 4.611185512019135, 22.432759580449328 ], [ 3.675176129113948, 22.421974602827596 ], [ 3.118617083112882, 23.139175103131173 ], [ 3.509799719066481, 23.86970395433649 ], [ 4.461188780793006, 23.880452205142294 ] ] ] ] } },
{ "type": "Feature", "properties": { "geogrid_id": "723159590006897751", "seqnum": 4960.0, "lat_c": 23.159589854646065, "lon_c": 6.8977505766820144, "res": 7.0, "count_Birds": 3, "count_Amphibians": 0, "count_Flowering Plants": 46, "count_Basidiomycota": 0, "count_Mammals": 0, "count_Reptiles": 0, "count_Insects": 2, "count_Molluscs": 0, "count_Gymnosperms": 1, "count_Ferns": 0, "count_Arachnids": 0, "count_Sac Fungi": 0, "count_Mosses": 0, "unique_species_count": 52.0, "countryCode": "DZ" }, "geometry": { "type": "MultiPolygon", "coordinates": [ [ [ [ 7.327827594383916, 23.873466443465297 ], [ 7.847852621111245, 23.148732574690989 ], [ 7.423423425096715, 22.432679613747929 ], [ 6.484861274047335, 22.438301096058932 ], [ 5.950704585969916, 23.163410370374383 ], [ 6.369339240994619, 23.88306294214707 ], [ 7.327827594383916, 23.873466443465297 ] ] ] ] } },
{ "type": "Feature", "properties": { "geogrid_id": "723625272011250000", "seqnum": 5069.0, "lat_c": 23.625272492363234, "lon_c": 11.249999999880655, "res": 7.0, "count_Birds": 6, "count_Amphibians": 0, "count_Flowering Plants": 19, "count_Basidiomycota": 2, "count_Mammals": 2, "count_Reptiles": 3, "count_Insects": 12, "count_Molluscs": 0, "count_Gymnosperms": 0, "count_Ferns": 0, "count_Arachnids": 0, "count_Sac Fungi": 0, "count_Mosses": 0, "unique_species_count": 44.0, "countryCode": "DZ" }, "geometry": { "type": "MultiPolygon", "coordinates": [ [ [ [ 11.756525688474078, 24.393071643577166 ], [ 12.252642485056311, 23.760652599193346 ], [ 11.750232855495291, 23.022959741216514 ], [ 10.749767144395845, 23.022959741077234 ], [ 10.247357514785042, 23.760652598982269 ], [ 10.743474311356197, 24.393071643369911 ], [ 11.756525688474078, 24.393071643577166 ] ] ] ] } },
{ "type": "Feature", "properties": { "geogrid_id": "723853119002559537", "seqnum": 4823.0, "lat_c": 23.853119029045189, "lon_c": 2.559536698103372, "res": 7.0, "count_Birds": 0, "count_Amphibians": 0, "count_Flowering Plants": 0, "count_Basidiomycota": 0, "count_Mammals": 0, "count_Reptiles": 0, "count_Insects": 1, "count_Molluscs": 0, "count_Gymnosperms": 0, "count_Ferns": 0, "count_Arachnids": 0, "count_Sac Fungi": 0, "count_Mosses": 0, "unique_species_count": 1.0, "countryCode": "DZ" }, "geometry": { "type": "MultiPolygon", "coordinates": [ [ [ [ 2.954021544678438, 24.583323175899167 ], [ 3.509799719066481, 23.86970395433649 ], [ 3.118617083112882, 23.139175103131173 ], [ 2.176122182553857, 23.120017876736277 ], [ 1.610100514789673, 23.830872778086608 ], [ 1.996503246002434, 24.563863869570827 ], [ 2.954021544678438, 24.583323175899167 ] ] ] ] } },
{ "type": "Feature", "properties": { "geogrid_id": "723885074005414145", "seqnum": 4905.0, "lat_c": 23.885074103408165, "lon_c": 5.4141451184973874, "res": 7.0, "count_Birds": 8, "count_Amphibians": 1, "count_Flowering Plants": 14, "count_Basidiomycota": 0, "count_Mammals": 2, "count_Reptiles": 2, "count_Insects": 5, "count_Molluscs": 0, "count_Gymnosperms": 0, "count_Ferns": 0, "count_Arachnids": 0, "count_Sac Fungi": 0, "count_Mosses": 0, "unique_species_count": 32.0, "countryCode": "DZ" }, "geometry": { "type": "MultiPolygon", "coordinates": [ [ [ [ 5.836573800020092, 24.603550775423692 ], [ 6.369339240994619, 23.88306294214707 ], [ 5.950704585969916, 23.163410370374383 ], [ 5.005569909023408, 23.161041118947217 ], [ 4.461188780793006, 23.880452205142294 ], [ 4.873523122824378, 24.603615800067519 ], [ 5.836573800020092, 24.603550775423692 ] ] ] ] } },
{ "type": "Feature", "properties": { "geogrid_id": "724492745009740680", "seqnum": 5015.0, "lat_c": 24.492745344673118, "lon_c": 9.7406796386792767, "res": 7.0, "count_Birds": 14, "count_Amphibians": 3, "count_Flowering Plants": 34, "count_Basidiomycota": 0, "count_Mammals": 3, "count_Reptiles": 5, "count_Insects": 26, "count_Molluscs": 0, "count_Gymnosperms": 1, "count_Ferns": 0, "count_Arachnids": 2, "count_Sac Fungi": 0, "count_Mosses": 0, "unique_species_count": 88.0, "countryCode": "DZ" }, "geometry": { "type": "MultiPolygon", "coordinates": [ [ [ [ 10.233380052059825, 25.139897460157034 ], [ 10.743474311356197, 24.393071643369911 ], [ 10.247357514785042, 23.760652598982269 ], [ 9.262851372174023, 23.821021565869177 ], [ 8.752248671162759, 24.54632468730183 ], [ 9.228738580683419, 25.221807442698189 ], [ 10.233380052059825, 25.139897460157034 ] ] ] ] } },
{ "type": "Feature", "properties": { "geogrid_id": "725270093008235568", "seqnum": 4961.0, "lat_c": 25.270092878565737, "lon_c": 8.2355675293783115, "res": 7.0, "count_Birds": 15, "count_Amphibians": 1, "count_Flowering Plants": 17, "count_Basidiomycota": 1, "count_Mammals": 8, "count_Reptiles": 9, "count_Insects": 16, "count_Molluscs": 0, "count_Gymnosperms": 0, "count_Ferns": 0, "count_Arachnids": 1, "count_Sac Fungi": 0, "count_Mosses": 0, "unique_species_count": 68.0, "countryCode": "DZ" }, "geometry": { "type": "MultiPolygon", "coordinates": [ [ [ [ 8.710956782138785, 25.948618738278451 ], [ 9.228738580683419, 25.221807442698189 ], [ 8.752248671162759, 24.54632468730183 ], [ 7.774127749612086, 24.57768924304915 ], [ 7.250938385580914, 25.299123482244589 ], [ 7.712516162234613, 25.992285907044938 ], [ 8.710956782138785, 25.948618738278451 ] ] ] ] } },
{ "type": "Feature", "properties": { "geogrid_id": "725321344005298459", "seqnum": 4879.0, "lat_c": 25.32134378644232, "lon_c": 5.2984586660439232, "res": 7.0, "count_Birds": 5, "count_Amphibians": 0, "count_Flowering Plants": 40, "count_Basidiomycota": 0, "count_Mammals": 1, "count_Reptiles": 3, "count_Insects": 1, "count_Molluscs": 0, "count_Gymnosperms": 1, "count_Ferns": 0, "count_Arachnids": 0, "count_Sac Fungi": 0, "count_Mosses": 0, "unique_species_count": 51.0, "countryCode": "DZ" }, "geometry": { "type": "MultiPolygon", "coordinates": [ [ [ [ 5.735735477552219, 26.032611351985278 ], [ 6.272463906441295, 25.315178859458321 ], [ 5.836573800020092, 24.603550775423692 ], [ 4.873523122824378, 24.603615800067519 ], [ 4.327756950053618, 25.319274199750414 ], [ 4.754287793122847, 26.036621749600769 ], [ 5.735735477552219, 26.032611351985278 ] ] ] ] } },
{ "type": "Feature", "properties": { "geogrid_id": "725878062009718850", "seqnum": 4988.0, "lat_c": 25.878061672952807, "lon_c": 9.7188498774211194, "res": 7.0, "count_Birds": 0, "count_Amphibians": 0, "count_Flowering Plants": 2, "count_Basidiomycota": 0, "count_Mammals": 1, "count_Reptiles": 0, "count_Insects": 1, "count_Molluscs": 0, "count_Gymnosperms": 0, "count_Ferns": 0, "count_Arachnids": 0, "count_Sac Fungi": 0, "count_Mosses": 0, "unique_species_count": 4.0, "countryCode": "DZ" }, "geometry": { "type": "MultiPolygon", "coordinates": [ [ [ [ 10.220517232563161, 26.512661631160416 ], [ 10.737609944662063, 25.758927284364479 ], [ 10.233380052059825, 25.139897460157034 ], [ 9.228738580683419, 25.221807442698189 ], [ 8.710956782138785, 25.948618738278451 ], [ 9.199013294463366, 26.611342587524412 ], [ 10.220517232563161, 26.512661631160416 ] ] ] ] } },
{ "type": "Feature", "properties": { "geogrid_id": "726018692006721370", "seqnum": 4906.0, "lat_c": 26.01869205234728, "lon_c": 6.7213696422834532, "res": 7.0, "count_Birds": 1, "count_Amphibians": 1, "count_Flowering Plants": 0, "count_Basidiomycota": 0, "count_Mammals": 0, "count_Reptiles": 0, "count_Insects": 2, "count_Molluscs": 0, "count_Gymnosperms": 0, "count_Ferns": 0, "count_Arachnids": 0, "count_Sac Fungi": 0, "count_Mosses": 0, "unique_species_count": 4.0, "countryCode": "DZ" }, "geometry": { "type": "MultiPolygon", "coordinates": [ [ [ [ 7.182793003151664, 26.712860192858962 ], [ 7.712516162234613, 25.992285907044938 ], [ 7.250938385580914, 25.299123482244589 ], [ 6.272463906441295, 25.315178859458321 ], [ 5.735735477552219, 26.032611351985278 ], [ 6.185056156089855, 26.736412947457406 ], [ 7.182793003151664, 26.712860192858962 ] ] ] ] } },
{ "type": "Feature", "properties": { "geogrid_id": "726673476008186900", "seqnum": 4934.0, "lat_c": 26.673475817169393, "lon_c": 8.1868995497202199, "res": 7.0, "count_Birds": 22, "count_Amphibians": 0, "count_Flowering Plants": 6, "count_Basidiomycota": 1, "count_Mammals": 2, "count_Reptiles": 3, "count_Insects": 8, "count_Molluscs": 0, "count_Gymnosperms": 0, "count_Ferns": 0, "count_Arachnids": 1, "count_Sac Fungi": 0, "count_Mosses": 0, "unique_species_count": 43.0, "countryCode": "DZ" }, "geometry": { "type": "MultiPolygon", "coordinates": [ [ [ [ 8.673221125308901, 27.341248393753542 ], [ 9.199013294463366, 26.611342587524412 ], [ 8.710956782138785, 25.948618738278451 ], [ 7.712516162234613, 25.992285907044938 ], [ 7.182793003151664, 26.712860192858962 ], [ 7.656185894440367, 27.396498924232521 ], [ 8.673221125308901, 27.341248393753542 ] ] ] ] } },
{ "type": "Feature", "properties": { "geogrid_id": "726727882002234640", "seqnum": 4770.0, "lat_c": 26.727882321342264, "lon_c": 2.234640443910338, "res": 7.0, "count_Birds": 4, "count_Amphibians": 0, "count_Flowering Plants": 1, "count_Basidiomycota": 1, "count_Mammals": 0, "count_Reptiles": 0, "count_Insects": 0, "count_Molluscs": 0, "count_Gymnosperms": 0, "count_Ferns": 0, "count_Arachnids": 0, "count_Sac Fungi": 0, "count_Mosses": 0, "unique_species_count": 6.0, "countryCode": "DZ" }, "geometry": { "type": "MultiPolygon", "coordinates": [ [ [ [ 2.652480792663657, 27.450302266253502 ], [ 3.217813288175164, 26.742534867163812 ], [ 2.800353030319981, 26.020291584421262 ], [ 1.826645161036175, 26.001439008336476 ], [ 1.253521991518238, 26.706100393359332 ], [ 1.661841307551744, 27.432748858674707 ], [ 2.652480792663657, 27.450302266253502 ] ] ] ] } },
{ "type": "Feature", "properties": { "geogrid_id": "726747895005192314", "seqnum": 4852.0, "lat_c": 26.747895466574985, "lon_c": 5.1923139354372383, "res": 7.0, "count_Birds": 0, "count_Amphibians": 0, "count_Flowering Plants": 1, "count_Basidiomycota": 0, "count_Mammals": 0, "count_Reptiles": 0, "count_Insects": 3, "count_Molluscs": 0, "count_Gymnosperms": 0, "count_Ferns": 0, "count_Arachnids": 0, "count_Sac Fungi": 0, "count_Mosses": 0, "unique_species_count": 4.0, "countryCode": "DZ" }, "geometry": { "type": "MultiPolygon", "coordinates": [ [ [ [ 5.641647321395554, 27.452275480811476 ], [ 6.185056156089855, 26.736412947457406 ], [ 5.735735477552219, 26.032611351985278 ], [ 4.754287793122847, 26.036621749600769 ], [ 4.203501657812826, 26.749490757240078 ], [ 4.641781110908215, 27.461064621034613 ], [ 5.641647321395554, 27.452275480811476 ] ] ] ] } },
{ "type": "Feature", "properties": { "geogrid_id": "727407895000673291", "seqnum": 4716.0, "lat_c": 27.407894508071525, "lon_c": 0.67329077413823402, "res": 7.0, "count_Birds": 2, "count_Amphibians": 0, "count_Flowering Plants": 1, "count_Basidiomycota": 0, "count_Mammals": 1, "count_Reptiles": 0, "count_Insects": 0, "count_Molluscs": 0, "count_Gymnosperms": 0, "count_Ferns": 0, "count_Arachnids": 0, "count_Sac Fungi": 0, "count_Mosses": 0, "unique_species_count": 4.0, "countryCode": "DZ" }, "geometry": { "type": "MultiPolygon", "coordinates": [ [ [ [ 1.081447356664347, 28.134916089163081 ], [ 1.661841307551744, 27.432748858674707 ], [ 1.253521991518238, 26.706100393359332 ], [ 0.274106045939639, 26.677577916000761 ], [ -0.313489892657987, 27.376125679505662 ], [ 0.085422242603148, 28.106838504779443 ], [ 1.081447356664347, 28.134916089163081 ] ] ] ] } },
{ "type": "Feature", "properties": { "geogrid_id": "727460007003645618", "seqnum": 4798.0, "lat_c": 27.460006906160658, "lon_c": 3.6456184716769502, "res": 7.0, "count_Birds": 6, "count_Amphibians": 2, "count_Flowering Plants": 0, "count_Basidiomycota": 0, "count_Mammals": 0, "count_Reptiles": 4, "count_Insects": 0, "count_Molluscs": 5, "count_Gymnosperms": 0, "count_Ferns": 0, "count_Arachnids": 3, "count_Sac Fungi": 1, "count_Mosses": 0, "unique_species_count": 21.0, "countryCode": "DZ" }, "geometry": { "type": "MultiPolygon", "coordinates": [ [ [ [ 4.083743036207728, 28.172121099800666 ], [ 4.641781110908215, 27.461064621034613 ], [ 4.203501657812826, 26.749490757240078 ], [ 3.217813288175164, 26.742534867163812 ], [ 2.652480792663657, 27.450302266253502 ], [ 3.080198201860026, 28.168191185598822 ], [ 4.083743036207728, 28.172121099800666 ] ] ] ] } },
{ "type": "Feature", "properties": { "geogrid_id": "728068479008140953", "seqnum": 4907.0, "lat_c": 28.068478676815928, "lon_c": 8.1409528158627484, "res": 7.0, "count_Birds": 4, "count_Amphibians": 0, "count_Flowering Plants": 3, "count_Basidiomycota": 0, "count_Mammals": 0, "count_Reptiles": 0, "count_Insects": 0, "count_Molluscs": 0, "count_Gymnosperms": 0, "count_Ferns": 0, "count_Arachnids": 0, "count_Sac Fungi": 0, "count_Mosses": 0, "unique_species_count": 7.0, "countryCode": "DZ" }, "geometry": { "type": "MultiPolygon", "coordinates": [ [ [ [ 8.636454086395119, 28.727732817567819 ], [ 9.170556069439673, 27.994255772245065 ], [ 8.673221125308901, 27.341248393753542 ], [ 7.656185894440367, 27.396498924232521 ], [ 7.118454409407101, 28.117730005975709 ], [ 7.601754242001271, 28.793386120680601 ], [ 8.636454086395119, 28.727732817567819 ] ] ] ] } },
{ "type": "Feature", "properties": { "geogrid_id": "728155542002079585", "seqnum": 4743.0, "lat_c": 28.15554187452733, "lon_c": 2.079585265399174, "res": 7.0, "count_Birds": 0, "count_Amphibians": 0, "count_Flowering Plants": 3, "count_Basidiomycota": 0, "count_Mammals": 1, "count_Reptiles": 0, "count_Insects": 0, "count_Molluscs": 0, "count_Gymnosperms": 0, "count_Ferns": 0, "count_Arachnids": 0, "count_Sac Fungi": 0, "count_Mosses": 0, "unique_species_count": 4.0, "countryCode": "DZ" }, "geometry": { "type": "MultiPolygon", "coordinates": [ [ [ [ 2.506822393253774, 28.874038907204504 ], [ 3.080198201860026, 28.168191185598822 ], [ 2.652480792663657, 27.450302266253502 ], [ 1.661841307551744, 27.432748858674707 ], [ 1.081447356664347, 28.134916089163081 ], [ 1.498678063647687, 28.858255279400883 ], [ 2.506822393253774, 28.874038907204504 ] ] ] ] } },
{ "type": "Feature", "properties": { "geogrid_id": "728631258009677930", "seqnum": 4935.0, "lat_c": 28.631258497624, "lon_c": 9.6779303539676889, "res": 7.0, "count_Birds": 8, "count_Amphibians": 0, "count_Flowering Plants": 43, "count_Basidiomycota": 0, "count_Mammals": 2, "count_Reptiles": 1, "count_Insects": 7, "count_Molluscs": 0, "count_Gymnosperms": 0, "count_Ferns": 0, "count_Arachnids": 2, "count_Sac Fungi": 0, "count_Mosses": 0, "unique_species_count": 63.0, "countryCode": "DZ" }, "geometry": { "type": "MultiPolygon", "coordinates": [ [ [ [ 10.194329598530933, 29.251134818472881 ], [ 10.725337559953557, 28.487945547866325 ], [ 10.207638930179108, 27.882498039997461 ], [ 9.170556069439673, 27.994255772245065 ], [ 8.636454086395119, 28.727732817567819 ], [ 9.142009572515846, 29.373264837326303 ], [ 10.194329598530933, 29.251134818472881 ] ] ] ] } },
{ "type": "Feature", "properties": { "geogrid_id": "728834385000492986", "seqnum": 4689.0, "lat_c": 28.834385248298755, "lon_c": 0.49298556966284701, "res": 7.0, "count_Birds": 8, "count_Amphibians": 0, "count_Flowering Plants": 3, "count_Basidiomycota": 0, "count_Mammals": 4, "count_Reptiles": 0, "count_Insects": 0, "count_Molluscs": 0, "count_Gymnosperms": 0, "count_Ferns": 0, "count_Arachnids": 0, "count_Sac Fungi": 0, "count_Mosses": 0, "unique_species_count": 15.0, "countryCode": "DZ" }, "geometry": { "type": "MultiPolygon", "coordinates": [ [ [ [ 0.909326513295415, 29.558423611370344 ], [ 1.498678063647687, 28.858255279400883 ], [ 1.081447356664347, 28.134916089163081 ], [ 0.085422242603148, 28.106838504779443 ], [ -0.510575085244661, 28.802928786953647 ], [ -0.103996732908699, 29.531137914991508 ], [ 0.909326513295415, 29.558423611370344 ] ] ] ] } },
{ "type": "Feature", "properties": { "geogrid_id": "728837171006573348", "seqnum": 4853.0, "lat_c": 28.837170636077488, "lon_c": 6.5733481630661847, "res": 7.0, "count_Birds": 0, "count_Amphibians": 0, "count_Flowering Plants": 2, "count_Basidiomycota": 0, "count_Mammals": 0, "count_Reptiles": 1, "count_Insects": 0, "count_Molluscs": 0, "count_Gymnosperms": 0, "count_Ferns": 0, "count_Arachnids": 0, "count_Sac Fungi": 0, "count_Mosses": 0, "unique_species_count": 3.0, "countryCode": "DZ" }, "geometry": { "type": "MultiPolygon", "coordinates": [ [ [ [ 7.055203908079167, 29.516153465091076 ], [ 7.601754242001271, 28.793386120680601 ], [ 7.118454409407101, 28.117730005975709 ], [ 6.102072828896889, 28.148960271144137 ], [ 5.550418738347539, 28.864380306759664 ], [ 6.02050711827056, 29.554798729151116 ], [ 7.055203908079167, 29.516153465091076 ] ] ] ] } },
{ "type": "Feature", "properties": { "geogrid_id": "729457868008095545", "seqnum": 4881.0, "lat_c": 29.457868499637289, "lon_c": 8.0955446011362913, "res": 7.0, "count_Birds": 0, "count_Amphibians": 0, "count_Flowering Plants": 1, "count_Basidiomycota": 0, "count_Mammals": 0, "count_Reptiles": 0, "count_Insects": 0, "count_Molluscs": 0, "count_Gymnosperms": 0, "count_Ferns": 0, "count_Arachnids": 0, "count_Sac Fungi": 0, "count_Mosses": 0, "unique_species_count": 1.0, "countryCode": "DZ" }, "geometry": { "type": "MultiPolygon", "coordinates": [ [ [ [ 8.599351575804064, 30.110355994539272 ], [ 9.142009572515846, 29.373264837326303 ], [ 8.636454086395119, 28.727732817567819 ], [ 7.601754242001271, 28.793386120680601 ], [ 7.055203908079167, 29.516153465091076 ], [ 7.54734374523944, 30.185185270018057 ], [ 8.599351575804064, 30.110355994539272 ] ] ] ] } },
{ "type": "Feature", "properties": { "geogrid_id": "729577526001925082", "seqnum": 4717.0, "lat_c": 29.577525761693053, "lon_c": 1.925082145618076, "res": 7.0, "count_Birds": 1, "count_Amphibians": 0, "count_Flowering Plants": 0, "count_Basidiomycota": 0, "count_Mammals": 1, "count_Reptiles": 0, "count_Insects": 0, "count_Molluscs": 1, "count_Gymnosperms": 0, "count_Ferns": 0, "count_Arachnids": 0, "count_Sac Fungi": 0, "count_Mosses": 0, "unique_species_count": 3.0, "countryCode": "DZ" }, "geometry": { "type": "MultiPolygon", "coordinates": [ [ [ [ 2.360755372673871, 30.292343024714789 ], [ 2.943615152482768, 29.587802231382518 ], [ 2.506822393253774, 28.874038907204504 ], [ 1.498678063647687, 28.858255279400883 ], [ 0.909326513295415, 29.558423611370344 ], [ 1.334570544750908, 30.278611758576854 ], [ 2.360755372673871, 30.292343024714789 ] ] ] ] } },
{ "type": "Feature", "properties": { "geogrid_id": "730004154009656903", "seqnum": 4908.0, "lat_c": 30.004154474272163, "lon_c": 9.656902871531166, "res": 7.0, "count_Birds": 0, "count_Amphibians": 0, "count_Flowering Plants": 4, "count_Basidiomycota": 0, "count_Mammals": 0, "count_Reptiles": 0, "count_Insects": 0, "count_Molluscs": 0, "count_Gymnosperms": 0, "count_Ferns": 0, "count_Arachnids": 0, "count_Sac Fungi": 0, "count_Mosses": 0, "unique_species_count": 4.0, "countryCode": "DZ" }, "geometry": { "type": "MultiPolygon", "coordinates": [ [ [ [ 10.180385891714634, 30.619562701681904 ], [ 10.71870840882675, 29.85288769932944 ], [ 10.194329598530933, 29.251134818472881 ], [ 9.142009572515846, 29.373264837326303 ], [ 8.599351575804064, 30.110355994539272 ], [ 9.112670210891274, 30.750078947384221 ], [ 10.180385891714634, 30.619562701681904 ] ] ] ] } },
{ "type": "Feature", "properties": { "geogrid_id": "730236871006500894", "seqnum": 4826.0, "lat_c": 30.236871131616972, "lon_c": 6.5008943513564814, "res": 7.0, "count_Birds": 0, "count_Amphibians": 0, "count_Flowering Plants": 3, "count_Basidiomycota": 0, "count_Mammals": 0, "count_Reptiles": 0, "count_Insects": 1, "count_Molluscs": 0, "count_Gymnosperms": 0, "count_Ferns": 0, "count_Arachnids": 0, "count_Sac Fungi": 0, "count_Mosses": 0, "unique_species_count": 4.0, "countryCode": "DZ" }, "geometry": { "type": "MultiPolygon", "coordinates": [ [ [ [ 6.991393575890079, 30.909983360324567 ], [ 7.54734374523944, 30.185185270018057 ], [ 7.055203908079167, 29.516153465091076 ], [ 6.02050711827056, 29.554798729151116 ], [ 5.459563863796456, 30.270576613016981 ], [ 5.938421382569395, 30.955574834676344 ], [ 6.991393575890079, 30.909983360324567 ] ] ] ] } },
{ "type": "Feature", "properties": { "geogrid_id": "730256011000311105", "seqnum": 4662.0, "lat_c": 30.256011196844625, "lon_c": 0.31110479489892201, "res": 7.0, "count_Birds": 1, "count_Amphibians": 0, "count_Flowering Plants": 0, "count_Basidiomycota": 0, "count_Mammals": 0, "count_Reptiles": 0, "count_Insects": 0, "count_Molluscs": 0, "count_Gymnosperms": 0, "count_Ferns": 0, "count_Arachnids": 0, "count_Sac Fungi": 0, "count_Mosses": 0, "unique_species_count": 1.0, "countryCode": "DZ" }, "geometry": { "type": "MultiPolygon", "coordinates": [ [ [ [ 0.734877644079101, 30.977243808078896 ], [ 1.334570544750908, 30.278611758576854 ], [ 0.909326513295415, 29.558423611370344 ], [ -0.103996732908699, 29.531137914991508 ], [ -0.709941771933476, 30.225138980527941 ], [ -0.296412200485362, 30.950968087710219 ], [ 0.734877644079101, 30.977243808078896 ] ] ] ] } },
{ "type": "Feature", "properties": { "geogrid_id": "730296398003390019", "seqnum": 4744.0, "lat_c": 30.296397946715864, "lon_c": 3.390019376357206, "res": 7.0, "count_Birds": 3, "count_Amphibians": 0, "count_Flowering Plants": 4, "count_Basidiomycota": 0, "count_Mammals": 0, "count_Reptiles": 1, "count_Insects": 3, "count_Molluscs": 0, "count_Gymnosperms": 0, "count_Ferns": 0, "count_Arachnids": 0, "count_Sac Fungi": 0, "count_Mosses": 0, "unique_species_count": 11.0, "countryCode": "DZ" }, "geometry": { "type": "MultiPolygon", "coordinates": [ [ [ [ 3.846083688132298, 30.999396982026873 ], [ 4.422789991527783, 30.289664623591001 ], [ 3.965345214572603, 29.588367050001747 ], [ 2.943615152482768, 29.587802231382518 ], [ 2.360755372673871, 30.292343024714789 ], [ 2.805789546181412, 31.002325101648715 ], [ 3.846083688132298, 30.999396982026873 ] ] ] ] } },
{ "type": "Feature", "properties": { "geogrid_id": "730843575008049445", "seqnum": 4854.0, "lat_c": 30.843575440565029, "lon_c": 8.0494448438892015, "res": 7.0, "count_Birds": 0, "count_Amphibians": 0, "count_Flowering Plants": 9, "count_Basidiomycota": 0, "count_Mammals": 0, "count_Reptiles": 0, "count_Insects": 0, "count_Molluscs": 0, "count_Gymnosperms": 0, "count_Ferns": 1, "count_Arachnids": 0, "count_Sac Fungi": 0, "count_Mosses": 0, "unique_species_count": 10.0, "countryCode": "DZ" }, "geometry": { "type": "MultiPolygon", "coordinates": [ [ [ [ 8.561158429924994, 31.490669192964141 ], [ 9.112670210891274, 30.750078947384221 ], [ 8.599351575804064, 30.110355994539272 ], [ 7.54734374523944, 30.185185270018057 ], [ 6.991393575890079, 30.909983360324567 ], [ 7.491796704534717, 31.573544576812303 ], [ 8.561158429924994, 31.490669192964141 ] ] ] ] } },
{ "type": "Feature", "properties": { "geogrid_id": "730984455004890141", "seqnum": 4772.0, "lat_c": 30.984455177563056, "lon_c": 4.8901409284776527, "res": 7.0, "count_Birds": 0, "count_Amphibians": 0, "count_Flowering Plants": 3, "count_Basidiomycota": 0, "count_Mammals": 0, "count_Reptiles": 0, "count_Insects": 0, "count_Molluscs": 0, "count_Gymnosperms": 0, "count_Ferns": 0, "count_Arachnids": 0, "count_Sac Fungi": 0, "count_Mosses": 0, "unique_species_count": 3.0, "countryCode": "DZ" }, "geometry": { "type": "MultiPolygon", "coordinates": [ [ [ [ 5.367377469963426, 31.672265228563514 ], [ 5.938421382569395, 30.955574834676344 ], [ 5.459563863796456, 30.270576613016981 ], [ 4.422789991527783, 30.289664623591001 ], [ 3.846083688132298, 30.999396982026873 ], [ 4.311848900259275, 31.696376082337 ], [ 5.367377469963426, 31.672265228563514 ] ] ] ] } },
{ "type": "Feature", "properties": { "geogrid_id": "730994609001768842", "seqnum": 4690.0, "lat_c": 30.994608858136836, "lon_c": 1.768841805905057, "res": 7.0, "count_Birds": 0, "count_Amphibians": 0, "count_Flowering Plants": 0, "count_Basidiomycota": 0, "count_Mammals": 2, "count_Reptiles": 0, "count_Insects": 0, "count_Molluscs": 0, "count_Gymnosperms": 0, "count_Ferns": 0, "count_Arachnids": 0, "count_Sac Fungi": 0, "count_Mosses": 0, "unique_species_count": 2.0, "countryCode": "DZ" }, "geometry": { "type": "MultiPolygon", "coordinates": [ [ [ [ 2.21226270432362, 31.706075619688576 ], [ 2.805789546181412, 31.002325101648715 ], [ 2.360755372673871, 30.292343024714789 ], [ 1.334570544750908, 30.278611758576854 ], [ 0.734877644079101, 30.977243808078896 ], [ 1.167470467458168, 31.694531284493397 ], [ 2.21226270432362, 31.706075619688576 ] ] ] ] } },
{ "type": "Feature", "properties": { "geogrid_id": "731632435006427249", "seqnum": 4800.0, "lat_c": 31.632434726006355, "lon_c": 6.4272486193050993, "res": 7.0, "count_Birds": 2, "count_Amphibians": 0, "count_Flowering Plants": 11, "count_Basidiomycota": 0, "count_Mammals": 1, "count_Reptiles": 0, "count_Insects": 0, "count_Molluscs": 0, "count_Gymnosperms": 0, "count_Ferns": 1, "count_Arachnids": 0, "count_Sac Fungi": 0, "count_Mosses": 0, "unique_species_count": 15.0, "countryCode": "DZ" }, "geometry": { "type": "MultiPolygon", "coordinates": [ [ [ [ 6.925927356024728, 32.300643459481876 ], [ 7.491796704534717, 31.573544576812303 ], [ 6.991393575890079, 30.909983360324567 ], [ 5.938421382569395, 30.955574834676344 ], [ 5.367377469963426, 31.672265228563514 ], [ 5.85446668262267, 32.352632116208909 ], [ 6.925927356024728, 32.300643459481876 ] ] ] ] } },
{ "type": "Feature", "properties": { "geogrid_id": "731673357000125587", "seqnum": 4636.0, "lat_c": 31.673357410780575, "lon_c": 0.12558696620843099, "res": 7.0, "count_Birds": 1, "count_Amphibians": 0, "count_Flowering Plants": 0, "count_Basidiomycota": 0, "count_Mammals": 0, "count_Reptiles": 0, "count_Insects": 0, "count_Molluscs": 0, "count_Gymnosperms": 0, "count_Ferns": 0, "count_Arachnids": 0, "count_Sac Fungi": 0, "count_Mosses": 0, "unique_species_count": 1.0, "countryCode": "DZ" }, "geometry": { "type": "MultiPolygon", "coordinates": [ [ [ [ 0.556225818960149, 32.392033159005678 ], [ 1.167470467458168, 31.694531284493397 ], [ 0.734877644079101, 30.977243808078896 ], [ -0.296412200485362, 30.950968087710219 ], [ -0.913653184788347, 31.643231801677647 ], [ -0.493727057994726, 32.366877746011689 ], [ 0.556225818960149, 32.392033159005678 ] ] ] ] } },
{ "type": "Feature", "properties": { "geogrid_id": "731707093003260272", "seqnum": 4718.0, "lat_c": 31.707093301800253, "lon_c": 3.2602719831577009, "res": 7.0, "count_Birds": 17, "count_Amphibians": 0, "count_Flowering Plants": 5, "count_Basidiomycota": 0, "count_Mammals": 0, "count_Reptiles": 0, "count_Insects": 4, "count_Molluscs": 1, "count_Gymnosperms": 0, "count_Ferns": 0, "count_Arachnids": 0, "count_Sac Fungi": 0, "count_Mosses": 0, "unique_species_count": 27.0, "countryCode": "DZ" }, "geometry": { "type": "MultiPolygon", "coordinates": [ [ [ [ 3.724284973711072, 32.40627293232204 ], [ 4.311848900259275, 31.696376082337 ], [ 3.846083688132298, 30.999396982026873 ], [ 2.805789546181412, 31.002325101648715 ], [ 2.21226270432362, 31.706075619688576 ], [ 2.664953478464883, 32.412674827820091 ], [ 3.724284973711072, 32.40627293232204 ] ] ] ] } },
{ "type": "Feature", "properties": { "geogrid_id": "732226989008001874", "seqnum": 4827.0, "lat_c": 32.226989387082256, "lon_c": 8.0018743315384011, "res": 7.0, "count_Birds": 0, "count_Amphibians": 0, "count_Flowering Plants": 2, "count_Basidiomycota": 0, "count_Mammals": 1, "count_Reptiles": 0, "count_Insects": 0, "count_Molluscs": 0, "count_Gymnosperms": 0, "count_Ferns": 0, "count_Arachnids": 0, "count_Sac Fungi": 0, "count_Mosses": 0, "unique_species_count": 3.0, "countryCode": "DZ" }, "geometry": { "type": "MultiPolygon", "coordinates": [ [ [ [ 8.521375747659869, 32.869779781303002 ], [ 9.082110534663363, 32.125850186133505 ], [ 8.561158429924994, 31.490669192964141 ], [ 7.491796704534717, 31.573544576812303 ], [ 6.925927356024728, 32.300643459481876 ], [ 7.434322158901818, 32.959706503361978 ], [ 8.521375747659869, 32.869779781303002 ] ] ] ] } },
{ "type": "Feature", "properties": { "geogrid_id": "732386919004787347", "seqnum": 4745.0, "lat_c": 32.38691877418762, "lon_c": 4.7873473968553366, "res": 7.0, "count_Birds": 16, "count_Amphibians": 1, "count_Flowering Plants": 15, "count_Basidiomycota": 0, "count_Mammals": 2, "count_Reptiles": 4, "count_Insects": 0, "count_Molluscs": 0, "count_Gymnosperms": 1, "count_Ferns": 0, "count_Arachnids": 0, "count_Sac Fungi": 0, "count_Mosses": 0, "unique_species_count": 39.0, "countryCode": "DZ" }, "geometry": { "type": "MultiPolygon", "coordinates": [ [ [ [ 5.272602501919788, 33.070616304942185 ], [ 5.85446668262267, 32.352632116208909 ], [ 5.367377469963426, 31.672265228563514 ], [ 4.311848900259275, 31.696376082337 ], [ 3.724284973711072, 32.40627293232204 ], [ 4.197905212161114, 33.099494007417441 ], [ 5.272602501919788, 33.070616304942185 ] ] ] ] } },
{ "type": "Feature", "properties": { "geogrid_id": "732407570001609032", "seqnum": 4663.0, "lat_c": 32.407569911184247, "lon_c": 1.6090321083847221, "res": 7.0, "count_Birds": 1, "count_Amphibians": 0, "count_Flowering Plants": 2, "count_Basidiomycota": 0, "count_Mammals": 2, "count_Reptiles": 1, "count_Insects": 1, "count_Molluscs": 0, "count_Gymnosperms": 0, "count_Ferns": 0, "count_Arachnids": 0, "count_Sac Fungi": 0, "count_Mosses": 0, "unique_species_count": 7.0, "countryCode": "DZ" }, "geometry": { "type": "MultiPolygon", "coordinates": [ [ [ [ 2.059711254627982, 33.116057108734047 ], [ 2.664953478464883, 32.412674827820091 ], [ 2.21226270432362, 31.706075619688576 ], [ 1.167470467458168, 31.694531284493397 ], [ 0.556225818960149, 32.392033159005678 ], [ 0.995676333758038, 33.106721661541222 ], [ 2.059711254627982, 33.116057108734047 ] ] ] ] } },
{ "type": "Feature", "properties": { "geogrid_id": "733025105006351363", "seqnum": 4773.0, "lat_c": 33.025105228114228, "lon_c": 6.3513626439251114, "res": 7.0, "count_Birds": 36, "count_Amphibians": 0, "count_Flowering Plants": 14, "count_Basidiomycota": 0, "count_Mammals": 1, "count_Reptiles": 5, "count_Insects": 6, "count_Molluscs": 0, "count_Gymnosperms": 0, "count_Ferns": 0, "count_Arachnids": 1, "count_Sac Fungi": 0, "count_Mosses": 0, "unique_species_count": 63.0, "countryCode": "DZ" }, "geometry": { "type": "MultiPolygon", "coordinates": [ [ [ [ 6.858005845522551, 33.689247166660905 ], [ 7.434322158901818, 32.959706503361978 ], [ 6.925927356024728, 32.300643459481876 ], [ 5.85446668262267, 32.352632116208909 ], [ 5.272602501919788, 33.070616304942185 ], [ 5.76762783615932, 33.74706855203754 ], [ 6.858005845522551, 33.689247166660905 ] ] ] ] } },
{ "type": "Feature", "properties": { "geogrid_id": "733114072003127032", "seqnum": 4691.0, "lat_c": 33.114071869756359, "lon_c": 3.1270317323618988, "res": 7.0, "count_Birds": 28, "count_Amphibians": 2, "count_Flowering Plants": 20, "count_Basidiomycota": 0, "count_Mammals": 1, "count_Reptiles": 6, "count_Insects": 12, "count_Molluscs": 0, "count_Gymnosperms": 0, "count_Ferns": 0, "count_Arachnids": 0, "count_Sac Fungi": 0, "count_Mosses": 0, "unique_species_count": 69.0, "countryCode": "DZ" }, "geometry": { "type": "MultiPolygon", "coordinates": [ [ [ [ 3.598611939265971, 33.80993525571558 ], [ 4.197905212161114, 33.099494007417441 ], [ 3.724284973711072, 32.40627293232204 ], [ 2.664953478464883, 32.412674827820091 ], [ 2.059711254627982, 33.116057108734047 ], [ 2.519656061194508, 33.819691815633291 ], [ 3.598611939265971, 33.80993525571558 ] ] ] ] } },
{ "type": "Feature", "properties": { "geogrid_id": "733609149007952280", "seqnum": 4801.0, "lat_c": 33.609149077985954, "lon_c": 7.9522799990157607, "res": 7.0, "count_Birds": 1, "count_Amphibians": 0, "count_Flowering Plants": 3, "count_Basidiomycota": 0, "count_Mammals": 3, "count_Reptiles": 1, "count_Insects": 1, "count_Molluscs": 0, "count_Gymnosperms": 0, "count_Ferns": 0, "count_Arachnids": 0, "count_Sac Fungi": 0, "count_Mosses": 0, "unique_species_count": 9.0, "countryCode": "DZ" }, "geometry": { "type": "MultiPolygon", "coordinates": [ [ [ [ 8.479629936171401, 34.248517494109322 ], [ 9.050029069058883, 33.501406871215679 ], [ 8.521375747659869, 32.869779781303002 ], [ 7.434322158901818, 32.959706503361978 ], [ 6.858005845522551, 33.689247166660905 ], [ 7.374322616716009, 34.344634851761228 ], [ 8.479629936171401, 34.248517494109322 ] ] ] ] } },
{ "type": "Feature", "properties": { "geogrid_id": "733786392004681203", "seqnum": 4719.0, "lat_c": 33.78639194254805, "lon_c": 4.6812032027298169, "res": 7.0, "count_Birds": 9, "count_Amphibians": 0, "count_Flowering Plants": 7, "count_Basidiomycota": 0, "count_Mammals": 0, "count_Reptiles": 0, "count_Insects": 0, "count_Molluscs": 0, "count_Gymnosperms": 0, "count_Ferns": 0, "count_Arachnids": 0, "count_Sac Fungi": 0, "count_Mosses": 0, "unique_species_count": 16.0, "countryCode": "DZ" }, "geometry": { "type": "MultiPolygon", "coordinates": [ [ [ [ 5.174242640991194, 34.466608231340437 ], [ 5.76762783615932, 33.74706855203754 ], [ 5.272602501919788, 33.070616304942185 ], [ 4.197905212161114, 33.099494007417441 ], [ 3.598611939265971, 33.80993525571558 ], [ 4.079804913896797, 34.499937130557541 ], [ 5.174242640991194, 34.466608231340437 ] ] ] ] } },
{ "type": "Feature", "properties": { "geogrid_id": "733817150001444112", "seqnum": 4637.0, "lat_c": 33.817149641759173, "lon_c": 1.4441121185500201, "res": 7.0, "count_Birds": 23, "count_Amphibians": 2, "count_Flowering Plants": 229, "count_Basidiomycota": 0, "count_Mammals": 0, "count_Reptiles": 13, "count_Insects": 31, "count_Molluscs": 1, "count_Gymnosperms": 2, "count_Ferns": 2, "count_Arachnids": 2, "count_Sac Fungi": 0, "count_Mosses": 0, "unique_species_count": 305.0, "countryCode": "DZ" }, "geometry": { "type": "MultiPolygon", "coordinates": [ [ [ [ 1.901708130499778, 34.523044488655934 ], [ 2.519656061194508, 33.819691815633291 ], [ 2.059711254627982, 33.116057108734047 ], [ 0.995676333758038, 33.106721661541222 ], [ 0.371758381283795, 33.803437682570056 ], [ 0.817705830168388, 34.515855493851411 ], [ 1.901708130499778, 34.523044488655934 ] ] ] ] } },
{ "type": "Feature", "properties": { "geogrid_id": "734415885006272427", "seqnum": 4746.0, "lat_c": 34.415884898455417, "lon_c": 6.2724266656704266, "res": 7.0, "count_Birds": 66, "count_Amphibians": 2, "count_Flowering Plants": 45, "count_Basidiomycota": 2, "count_Mammals": 3, "count_Reptiles": 11, "count_Insects": 39, "count_Molluscs": 1, "count_Gymnosperms": 1, "count_Ferns": 1, "count_Arachnids": 0, "count_Sac Fungi": 0, "count_Mosses": 0, "unique_species_count": 171.0, "countryCode": "DZ" }, "geometry": { "type": "MultiPolygon", "coordinates": [ [ [ [ 6.786991246117975, 35.076685071009159 ], [ 7.374322616716009, 34.344634851761228 ], [ 6.858005845522551, 33.689247166660905 ], [ 5.76762783615932, 33.74706855203754 ], [ 5.174242640991194, 34.466608231340437 ], [ 5.677079772586098, 35.139791103070628 ], [ 6.786991246117975, 35.076685071009159 ] ] ] ] } },
{ "type": "Feature", "properties": { "geogrid_id": "734518175002989014", "seqnum": 4664.0, "lat_c": 34.518174866122173, "lon_c": 2.9890137407204529, "res": 7.0, "count_Birds": 71, "count_Amphibians": 2, "count_Flowering Plants": 484, "count_Basidiomycota": 1, "count_Mammals": 3, "count_Reptiles": 19, "count_Insects": 28, "count_Molluscs": 1, "count_Gymnosperms": 4, "count_Ferns": 3, "count_Arachnids": 1, "count_Sac Fungi": 1, "count_Mosses": 0, "unique_species_count": 618.0, "countryCode": "DZ" }, "geometry": { "type": "MultiPolygon", "coordinates": [ [ [ [ 3.467930120155591, 35.211209362729711 ], [ 4.079804913896797, 34.499937130557541 ], [ 3.598611939265971, 33.80993525571558 ], [ 2.519656061194508, 33.819691815633291 ], [ 1.901708130499778, 34.523044488655934 ], [ 2.368640361814261, 35.224134524920181 ], [ 3.467930120155591, 35.211209362729711 ] ] ] ] } },
{ "type": "Feature", "properties": { "geogrid_id": "734990861007900225", "seqnum": 4774.0, "lat_c": 34.990860554515926, "lon_c": 7.9002245738408217, "res": 7.0, "count_Birds": 11, "count_Amphibians": 0, "count_Flowering Plants": 26, "count_Basidiomycota": 0, "count_Mammals": 0, "count_Reptiles": 2, "count_Insects": 49, "count_Molluscs": 0, "count_Gymnosperms": 0, "count_Ferns": 0, "count_Arachnids": 2, "count_Sac Fungi": 0, "count_Mosses": 0, "unique_species_count": 90.0, "countryCode": "DZ" }, "geometry": { "type": "MultiPolygon", "coordinates": [ [ [ [ 8.435608101622611, 35.627532857327587 ], [ 9.016182872628411, 34.877380366406598 ], [ 8.479629936171401, 34.248517494109322 ], [ 7.374322616716009, 34.344634851761228 ], [ 6.786991246117975, 35.076685071009159 ], [ 7.311302166441529, 35.72909993838109 ], [ 8.435608101622611, 35.627532857327587 ] ] ] ] } },
{ "type": "Feature", "properties": { "geogrid_id": "735183754004570717", "seqnum": 4692.0, "lat_c": 35.183753775466485, "lon_c": 4.5707172531343554, "res": 7.0, "count_Birds": 56, "count_Amphibians": 2, "count_Flowering Plants": 107, "count_Basidiomycota": 0, "count_Mammals": 4, "count_Reptiles": 14, "count_Insects": 14, "count_Molluscs": 2, "count_Gymnosperms": 0, "count_Ferns": 2, "count_Arachnids": 0, "count_Sac Fungi": 0, "count_Mosses": 0, "unique_species_count": 201.0, "countryCode": "DZ" }, "geometry": { "type": "MultiPolygon", "coordinates": [ [ [ [ 5.071450745204747, 35.861066098537052 ], [ 5.677079772586098, 35.139791103070628 ], [ 5.174242640991194, 34.466608231340437 ], [ 4.079804913896797, 34.499937130557541 ], [ 3.467930120155591, 35.211209362729711 ], [ 3.956549162535643, 35.898501042881499 ], [ 5.071450745204747, 35.861066098537052 ] ] ] ] } },
{ "type": "Feature", "properties": { "geogrid_id": "735224034001272720", "seqnum": 4610.0, "lat_c": 35.224034274245724, "lon_c": 1.272720417192144, "res": 7.0, "count_Birds": 113, "count_Amphibians": 1, "count_Flowering Plants": 185, "count_Basidiomycota": 2, "count_Mammals": 7, "count_Reptiles": 14, "count_Insects": 58, "count_Molluscs": 1, "count_Gymnosperms": 2, "count_Ferns": 0, "count_Arachnids": 3, "count_Sac Fungi": 2, "count_Mosses": 0, "unique_species_count": 388.0, "countryCode": "DZ" }, "geometry": { "type": "MultiPolygon", "coordinates": [ [ [ [ 1.737003746606096, 35.927725999380584 ], [ 2.368640361814261, 35.224134524920181 ], [ 1.901708130499778, 34.523044488655934 ], [ 0.817705830168388, 34.515855493851411 ], [ 0.18002430995645, 35.212070897687376 ], [ 0.632206743915084, 35.922557986101545 ], [ 1.737003746606096, 35.927725999380584 ] ] ] ] } },
{ "type": "Feature", "properties": { "geogrid_id": "735805596006189763", "seqnum": 4720.0, "lat_c": 35.805596158796945, "lon_c": 6.1897627310520198, "res": 7.0, "count_Birds": 185, "count_Amphibians": 6, "count_Flowering Plants": 693, "count_Basidiomycota": 26, "count_Mammals": 20, "count_Reptiles": 15, "count_Insects": 316, "count_Molluscs": 14, "count_Gymnosperms": 12, "count_Ferns": 4, "count_Arachnids": 29, "count_Sac Fungi": 9, "count_Mosses": 3, "unique_species_count": 1332.0, "countryCode": "DZ" }, "geometry": { "type": "MultiPolygon", "coordinates": [ [ [ [ 6.712330856983113, 36.463686984410579 ], [ 7.311302166441529, 35.72909993838109 ], [ 6.786991246117975, 35.076685071009159 ], [ 5.677079772586098, 35.139791103070628 ], [ 5.071450745204747, 35.861066098537052 ], [ 5.582101747658396, 36.531560113262451 ], [ 6.712330856983113, 36.463686984410579 ] ] ] ] } },
{ "type": "Feature", "properties": { "geogrid_id": "735920149002845085", "seqnum": 4638.0, "lat_c": 35.920149271314791, "lon_c": 2.845085492206183, "res": 7.0, "count_Birds": 102, "count_Amphibians": 4, "count_Flowering Plants": 284, "count_Basidiomycota": 12, "count_Mammals": 11, "count_Reptiles": 8, "count_Insects": 85, "count_Molluscs": 8, "count_Gymnosperms": 6, "count_Ferns": 1, "count_Arachnids": 13, "count_Sac Fungi": 5, "count_Mosses": 1, "unique_species_count": 540.0, "countryCode": "DZ" }, "geometry": { "type": "MultiPolygon", "coordinates": [ [ [ [ 3.331220506033212, 36.610819707108064 ], [ 3.956549162535643, 35.898501042881499 ], [ 3.467930120155591, 35.211209362729711 ], [ 2.368640361814261, 35.224134524920181 ], [ 1.737003746606096, 35.927725999380584 ], [ 2.21076002800241, 36.62668299629717 ], [ 3.331220506033212, 36.610819707108064 ] ] ] ] } },
{ "type": "Feature", "properties": { "geogrid_id": "736372772007845328", "seqnum": 4747.0, "lat_c": 36.372772266195675, "lon_c": 7.8453276965098331, "res": 7.0, "count_Birds": 161, "count_Amphibians": 6, "count_Flowering Plants": 301, "count_Basidiomycota": 4, "count_Mammals": 9, "count_Reptiles": 9, "count_Insects": 191, "count_Molluscs": 35, "count_Gymnosperms": 4, "count_Ferns": 4, "count_Arachnids": 12, "count_Sac Fungi": 4, "count_Mosses": 0, "unique_species_count": 740.0, "countryCode": "DZ" }, "geometry": { "type": "MultiPolygon", "coordinates": [ [ [ [ 8.38902314352279, 37.007357426767641 ], [ 8.980353872755327, 36.254277536713573 ], [ 8.435608101622611, 35.627532857327587 ], [ 7.311302166441529, 35.72909993838109 ], [ 6.712330856983113, 36.463686984410579 ], [ 7.244814001121858, 37.113735739073796 ], [ 8.38902314352279, 37.007357426767641 ] ] ] ] } },
{ "type": "Feature", "properties": { "geogrid_id": "736579759004455012", "seqnum": 4665.0, "lat_c": 36.579758639046162, "lon_c": 4.4550124527435742, "res": 7.0, "count_Birds": 203, "count_Amphibians": 6, "count_Flowering Plants": 897, "count_Basidiomycota": 18, "count_Mammals": 29, "count_Reptiles": 24, "count_Insects": 458, "count_Molluscs": 40, "count_Gymnosperms": 10, "count_Ferns": 16, "count_Arachnids": 46, "count_Sac Fungi": 10, "count_Mosses": 4, "unique_species_count": 1761.0, "countryCode": "DZ" }, "geometry": { "type": "MultiPolygon", "coordinates": [ [ [ [ 4.963458646291347, 37.254694231991991 ], [ 5.582101747658396, 36.531560113262451 ], [ 5.071450745204747, 35.861066098537052 ], [ 3.956549162535643, 35.898501042881499 ], [ 3.331220506033212, 36.610819707108064 ], [ 3.827222272149895, 37.295878526373663 ], [ 4.963458646291347, 37.254694231991991 ] ] ] ] } },
{ "type": "Feature", "properties": { "geogrid_id": "736628851001093597", "seqnum": 4583.0, "lat_c": 36.628851496498093, "lon_c": 1.093596761067563, "res": 7.0, "count_Birds": 77, "count_Amphibians": 0, "count_Flowering Plants": 166, "count_Basidiomycota": 3, "count_Mammals": 5, "count_Reptiles": 6, "count_Insects": 15, "count_Molluscs": 5, "count_Gymnosperms": 5, "count_Ferns": 1, "count_Arachnids": 1, "count_Sac Fungi": 2, "count_Mosses": 0, "unique_species_count": 286.0, "countryCode": "DZ" }, "geometry": { "type": "MultiPolygon", "coordinates": [ [ [ [ 1.564423398183112, 37.330723659644178 ], [ 2.21076002800241, 36.62668299629717 ], [ 1.737003746606096, 35.927725999380584 ], [ 0.632206743915084, 35.922557986101545 ], [ -0.020338675155342, 36.618504545711616 ], [ 0.437891982816193, 37.327403757187447 ], [ 1.564423398183112, 37.330723659644178 ] ] ] ] } },
{ "type": "Feature", "properties": { "geogrid_id": "736870738009534326", "seqnum": 4775.0, "lat_c": 36.870738365747265, "lon_c": 9.5343264120880953, "res": 7.0, "count_Birds": 14, "count_Amphibians": 0, "count_Flowering Plants": 13, "count_Basidiomycota": 0, "count_Mammals": 0, "count_Reptiles": 0, "count_Insects": 1, "count_Molluscs": 0, "count_Gymnosperms": 0, "count_Ferns": 0, "count_Arachnids": 0, "count_Sac Fungi": 0, "count_Mosses": 0, "unique_species_count": 28.0, "countryCode": "DZ" }, "geometry": { "type": "MultiPolygon", "coordinates": [ [ [ [ 10.097373711872072, 37.476577833735981 ], [ 10.678893357454198, 36.69697822806824 ], [ 10.116049628982667, 36.101981822291812 ], [ 8.980353872755327, 36.254277536713573 ], [ 8.38902314352279, 37.007357426767641 ], [ 8.942330222322758, 37.632524061517614 ], [ 10.097373711872072, 37.476577833735981 ] ] ] ] } },
{ "type": "Feature", "properties": { "geogrid_id": "737194927006102761", "seqnum": 4693.0, "lat_c": 37.19492740405672, "lon_c": 6.1027605347155607, "res": 7.0, "count_Birds": 141, "count_Amphibians": 3, "count_Flowering Plants": 395, "count_Basidiomycota": 22, "count_Mammals": 9, "count_Reptiles": 12, "count_Insects": 86, "count_Molluscs": 46, "count_Gymnosperms": 0, "count_Ferns": 7, "count_Arachnids": 5, "count_Sac Fungi": 4, "count_Mosses": 0, "unique_species_count": 730.0, "countryCode": "DZ" }, "geometry": { "type": "MultiPolygon", "coordinates": [ [ [ [ 6.633510614862203, 37.850865578075663 ], [ 7.244814001121858, 37.113735739073796 ], [ 6.712330856983113, 36.463686984410579 ], [ 5.582101747658396, 36.531560113262451 ], [ 4.963458646291347, 37.254694231991991 ], [ 5.48202288031385, 37.923023596828905 ], [ 6.633510614862203, 37.850865578075663 ] ] ] ] } },
{ "type": "Feature", "properties": { "geogrid_id": "737320658002694196", "seqnum": 4611.0, "lat_c": 37.320658118966435, "lon_c": 2.6941957986212168, "res": 7.0, "count_Birds": 178, "count_Amphibians": 4, "count_Flowering Plants": 503, "count_Basidiomycota": 45, "count_Mammals": 13, "count_Reptiles": 12, "count_Insects": 464, "count_Molluscs": 164, "count_Gymnosperms": 6, "count_Ferns": 2, "count_Arachnids": 45, "count_Sac Fungi": 29, "count_Mosses": 0, "unique_species_count": 1465.0, "countryCode": "DZ" }, "geometry": { "type": "MultiPolygon", "coordinates": [ [ [ [ 3.187519609627288, 38.009404920540454 ], [ 3.827222272149895, 37.295878526373663 ], [ 3.331220506033212, 36.610819707108064 ], [ 2.21076002800241, 36.62668299629717 ], [ 1.564423398183112, 37.330723659644178 ], [ 2.04491992796113, 38.027946489621179 ], [ 3.187519609627288, 38.009404920540454 ] ] ] ] } },
{ "type": "Feature", "properties": { "geogrid_id": "737755424007787232", "seqnum": 4721.0, "lat_c": 37.755423717716006, "lon_c": 7.7872318143880843, "res": 7.0, "count_Birds": 0, "count_Amphibians": 0, "count_Flowering Plants": 0, "count_Basidiomycota": 0, "count_Mammals": 3, "count_Reptiles": 1, "count_Insects": 0, "count_Molluscs": 0, "count_Gymnosperms": 0, "count_Ferns": 0, "count_Arachnids": 0, "count_Sac Fungi": 0, "count_Mosses": 0, "unique_species_count": 4.0, "countryCode": "DZ" }, "geometry": { "type": "MultiPolygon", "coordinates": [ [ [ [ 8.339593028270611, 38.388441886453784 ], [ 8.942330222322758, 37.632524061517614 ], [ 8.38902314352279, 37.007357426767641 ], [ 7.244814001121858, 37.113735739073796 ], [ 6.633510614862203, 37.850865578075663 ], [ 7.17442801991941, 38.499078702731765 ], [ 8.339593028270611, 38.388441886453784 ] ] ] ] } },
{ "type": "Feature", "properties": { "geogrid_id": "737975060004333267", "seqnum": 4639.0, "lat_c": 37.975060390066751, "lon_c": 4.3332670845219354, "res": 7.0, "count_Birds": 2, "count_Amphibians": 0, "count_Flowering Plants": 0, "count_Basidiomycota": 0, "count_Mammals": 3, "count_Reptiles": 1, "count_Insects": 1, "count_Molluscs": 0, "count_Gymnosperms": 0, "count_Ferns": 0, "count_Arachnids": 0, "count_Sac Fungi": 0, "count_Mosses": 0, "unique_species_count": 7.0, "countryCode": "DZ" }, "geometry": { "type": "MultiPolygon", "coordinates": [ [ [ [ 4.84953016168871, 38.648102173873859 ], [ 5.48202288031385, 37.923023596828905 ], [ 4.963458646291347, 37.254694231991991 ], [ 3.827222272149895, 37.295878526373663 ], [ 3.187519609627288, 38.009404920540454 ], [ 3.690941673694497, 38.692677822420691 ], [ 4.84953016168871, 38.648102173873859 ] ] ] ] } },
{ "type": "Feature", "properties": { "geogrid_id": "738032172000905524", "seqnum": 4557.0, "lat_c": 38.03217223777915, "lon_c": 0.90552442611899897, "res": 7.0, "count_Birds": 1, "count_Amphibians": 0, "count_Flowering Plants": 0, "count_Basidiomycota": 0, "count_Mammals": 1, "count_Reptiles": 0, "count_Insects": 0, "count_Molluscs": 0, "count_Gymnosperms": 0, "count_Ferns": 0, "count_Arachnids": 0, "count_Sac Fungi": 0, "count_Mosses": 0, "unique_species_count": 2.0, "countryCode": "DZ" }, "geometry": { "type": "MultiPolygon", "coordinates": [ [ [ [ 1.382816330772902, 38.732598956668618 ], [ 2.04491992796113, 38.027946489621179 ], [ 1.564423398183112, 37.330723659644178 ], [ 0.437891982816193, 37.327403757187447 ], [ -0.230659467501406, 38.023265959745125 ], [ 0.233489657413384, 38.730918015527195 ], [ 1.382816330772902, 38.732598956668618 ] ] ] ] } },
{ "type": "Feature", "properties": { "geogrid_id": "738584467006010836", "seqnum": 4666.0, "lat_c": 38.584466541613928, "lon_c": 6.0108361461592974, "res": 7.0, "count_Birds": 1, "count_Amphibians": 0, "count_Flowering Plants": 0, "count_Basidiomycota": 0, "count_Mammals": 1, "count_Reptiles": 0, "count_Insects": 0, "count_Molluscs": 0, "count_Gymnosperms": 0, "count_Ferns": 0, "count_Arachnids": 0, "count_Sac Fungi": 0, "count_Mosses": 0, "unique_species_count": 2.0, "countryCode": "DZ" }, "geometry": { "type": "MultiPolygon", "coordinates": [ [ [ [ 6.550024623188127, 39.2387472384003 ], [ 7.17442801991941, 38.499078702731765 ], [ 6.633510614862203, 37.850865578075663 ], [ 5.48202288031385, 37.923023596828905 ], [ 4.84953016168871, 38.648102173873859 ], [ 5.376185103222483, 39.314743211925432 ], [ 6.550024623188127, 39.2387472384003 ] ] ] ] } }
]
}
