{
"type": "FeatureCollection",
"name": "EE",
"crs": { "type": "name", "properties": { "name": "urn:ogc:def:crs:OGC:1.3:CRS84" } },
"features": [
{ "type": "Feature", "properties": { "geogrid_id": "957424485026895487", "seqnum": 61316.0, "lat_c": 57.424484802483839, "lon_c": 26.89548714158942, "res": 9.0, "count_Molluscs": 3, "count_Basidiomycota": 191, "count_Sac Fungi": 25, "count_Arachnids": 38, "count_Mammals": 12, "count_Amphibians": 2, "count_Insects": 1143, "count_Birds": 179, "count_Ferns": 6, "count_Flowering Plants": 348, "count_Reptiles": 2, "count_Mosses": 18, "count_Gymnosperms": 3, "unique_species_count": 1970.0, "countryCode": "EE" }, "geometry": { "type": "MultiPolygon", "coordinates": [ [ [ [ 26.612430864211312, 57.687049678978262 ], [ 27.08592018814754, 57.709685369142278 ], [ 27.365207665126068, 57.446347201777407 ], [ 27.174387306539682, 57.161145301307897 ], [ 26.709576470599163, 57.138247509639662 ], [ 26.426948132939536, 57.400828094740866 ], [ 26.612430864211312, 57.687049678978262 ] ] ] ] } },
{ "type": "Feature", "properties": { "geogrid_id": "957478687023334291", "seqnum": 60749.0, "lat_c": 57.478687019791614, "lon_c": 23.334291476059558, "res": 9.0, "count_Molluscs": 0, "count_Basidiomycota": 0, "count_Sac Fungi": 0, "count_Arachnids": 0, "count_Mammals": 0, "count_Amphibians": 0, "count_Insects": 0, "count_Birds": 3, "count_Ferns": 0, "count_Flowering Plants": 0, "count_Reptiles": 0, "count_Mosses": 0, "count_Gymnosperms": 0, "unique_species_count": 3.0, "countryCode": "EE" }, "geometry": { "type": "MultiPolygon", "coordinates": [ [ [ [ 23.020970090002862, 57.734570502117705 ], [ 23.488702720189135, 57.770477457210632 ], [ 23.798376376900084, 57.513718667513892 ], [ 23.643212317684569, 57.221839824871488 ], [ 23.184268638587209, 57.18594572147223 ], [ 22.871734756274922, 57.441933353219852 ], [ 23.020970090002862, 57.734570502117705 ] ] ] ] } },
{ "type": "Feature", "properties": { "geogrid_id": "957578565024730953", "seqnum": 60992.0, "lat_c": 57.578564972271089, "lon_c": 24.730952617536769, "res": 9.0, "count_Molluscs": 0, "count_Basidiomycota": 0, "count_Sac Fungi": 0, "count_Arachnids": 0, "count_Mammals": 0, "count_Amphibians": 0, "count_Insects": 1, "count_Birds": 0, "count_Ferns": 0, "count_Flowering Plants": 0, "count_Reptiles": 0, "count_Mosses": 0, "count_Gymnosperms": 0, "unique_species_count": 1.0, "countryCode": "EE" }, "geometry": { "type": "MultiPolygon", "coordinates": [ [ [ [ 24.428642939138001, 57.83704213083908 ], [ 24.900757776964515, 57.867674946719127 ], [ 25.199352494114368, 57.60835488957958 ], [ 25.028906373256635, 57.319202672130714 ], [ 24.565575344963687, 57.288480890495393 ], [ 24.263945175954657, 57.547015491041691 ], [ 24.428642939138001, 57.83704213083908 ] ] ] ] } },
{ "type": "Feature", "properties": { "geogrid_id": "957662609026140140", "seqnum": 61235.0, "lat_c": 57.662608682797355, "lon_c": 26.140140099512742, "res": 9.0, "count_Molluscs": 7, "count_Basidiomycota": 142, "count_Sac Fungi": 158, "count_Arachnids": 73, "count_Mammals": 26, "count_Amphibians": 3, "count_Insects": 2410, "count_Birds": 209, "count_Ferns": 9, "count_Flowering Plants": 454, "count_Reptiles": 4, "count_Mosses": 33, "count_Gymnosperms": 5, "unique_species_count": 3533.0, "countryCode": "EE" }, "geometry": { "type": "MultiPolygon", "coordinates": [ [ [ [ 25.849037834980148, 57.923581580115446 ], [ 26.32510464954343, 57.948832373294195 ], [ 26.612430864211312, 57.687049678978262 ], [ 26.426948132939536, 57.400828094740866 ], [ 25.959639674711806, 57.375387970266509 ], [ 25.669097668827749, 57.636373326926424 ], [ 25.849037834980148, 57.923581580115446 ] ] ] ] } },
{ "type": "Feature", "properties": { "geogrid_id": "957696931022554789", "seqnum": 60668.0, "lat_c": 57.696930892710732, "lon_c": 22.554789294989963, "res": 9.0, "count_Molluscs": 0, "count_Basidiomycota": 0, "count_Sac Fungi": 0, "count_Arachnids": 0, "count_Mammals": 0, "count_Amphibians": 0, "count_Insects": 0, "count_Birds": 8, "count_Ferns": 0, "count_Flowering Plants": 0, "count_Reptiles": 0, "count_Mosses": 0, "count_Gymnosperms": 0, "unique_species_count": 8.0, "countryCode": "EE" }, "geometry": { "type": "MultiPolygon", "coordinates": [ [ [ [ 22.23331275857246, 57.950928568106015 ], [ 22.703128994398035, 57.98948063226986 ], [ 23.020970090002862, 57.734570502117705 ], [ 22.871734756274922, 57.441933353219852 ], [ 22.410749508072431, 57.403470751019789 ], [ 22.090204202685477, 57.657571800244312 ], [ 22.23331275857246, 57.950928568106015 ] ] ] ] } },
{ "type": "Feature", "properties": { "geogrid_id": "957730505027560557", "seqnum": 61478.0, "lat_c": 57.730505147235093, "lon_c": 27.560557472142545, "res": 9.0, "count_Molluscs": 8, "count_Basidiomycota": 201, "count_Sac Fungi": 75, "count_Arachnids": 125, "count_Mammals": 14, "count_Amphibians": 5, "count_Insects": 2563, "count_Birds": 180, "count_Ferns": 6, "count_Flowering Plants": 477, "count_Reptiles": 4, "count_Mosses": 55, "count_Gymnosperms": 3, "unique_species_count": 3716.0, "countryCode": "EE" }, "geometry": { "type": "MultiPolygon", "coordinates": [ [ [ [ 27.28083921769209, 57.993873853362075 ], [ 27.760403393288399, 58.013643553001359 ], [ 28.036291322437638, 57.749498755643245 ], [ 27.836059865375976, 57.466404737677209 ], [ 27.365207665126068, 57.446347201777407 ], [ 27.08592018814754, 57.709685369142278 ], [ 27.28083921769209, 57.993873853362075 ] ] ] ] } },
{ "type": "Feature", "properties": { "geogrid_id": "957804639023957942", "seqnum": 60911.0, "lat_c": 57.804638867110448, "lon_c": 23.957942298696153, "res": 9.0, "count_Molluscs": 0, "count_Basidiomycota": 5, "count_Sac Fungi": 4, "count_Arachnids": 40, "count_Mammals": 1, "count_Amphibians": 0, "count_Insects": 199, "count_Birds": 145, "count_Ferns": 0, "count_Flowering Plants": 6, "count_Reptiles": 0, "count_Mosses": 0, "count_Gymnosperms": 0, "unique_species_count": 400.0, "countryCode": "EE" }, "geometry": { "type": "MultiPolygon", "coordinates": [ [ [ [ 23.64744833393511, 58.061341656053791 ], [ 24.121859415095646, 58.094624929587837 ], [ 24.428642939138001, 57.83704213083908 ], [ 24.263945175954657, 57.547015491041691 ], [ 23.798376376900084, 57.513718667513892 ], [ 23.488702720189135, 57.770477457210632 ], [ 23.64744833393511, 58.061341656053791 ] ] ] ] } },
{ "type": "Feature", "properties": { "geogrid_id": "957896525025374239", "seqnum": 61154.0, "lat_c": 57.896525321631529, "lon_c": 25.374238992405992, "res": 9.0, "count_Molluscs": 3, "count_Basidiomycota": 101, "count_Sac Fungi": 50, "count_Arachnids": 16, "count_Mammals": 18, "count_Amphibians": 2, "count_Insects": 745, "count_Birds": 166, "count_Ferns": 9, "count_Flowering Plants": 414, "count_Reptiles": 3, "count_Mosses": 41, "count_Gymnosperms": 5, "unique_species_count": 1573.0, "countryCode": "EE" }, "geometry": { "type": "MultiPolygon", "coordinates": [ [ [ [ 25.074946764907711, 58.155835036084127 ], [ 25.553525045970005, 58.183738023640913 ], [ 25.849037834980148, 57.923581580115446 ], [ 25.669097668827749, 57.636373326926424 ], [ 25.199352494114368, 57.60835488957958 ], [ 24.900757776964515, 57.867674946719127 ], [ 25.074946764907711, 58.155835036084127 ] ] ] ] } },
{ "type": "Feature", "properties": { "geogrid_id": "957910646021765118", "seqnum": 60588.0, "lat_c": 57.910646404351652, "lon_c": 21.765118426801859, "res": 9.0, "count_Molluscs": 5, "count_Basidiomycota": 34, "count_Sac Fungi": 30, "count_Arachnids": 20, "count_Mammals": 14, "count_Amphibians": 1, "count_Insects": 1129, "count_Birds": 284, "count_Ferns": 8, "count_Flowering Plants": 372, "count_Reptiles": 3, "count_Mosses": 18, "count_Gymnosperms": 3, "unique_species_count": 1921.0, "countryCode": "EE" }, "geometry": { "type": "MultiPolygon", "coordinates": [ [ [ [ 21.435371270146092, 58.162683445727559 ], [ 21.907184423058865, 58.203915407723294 ], [ 22.23331275857246, 57.950928568106015 ], [ 22.090204202685477, 57.657571800244312 ], [ 21.627257643111978, 57.616506666712986 ], [ 21.298589381483435, 57.868647686187138 ], [ 21.435371270146092, 58.162683445727559 ] ] ] ] } },
{ "type": "Feature", "properties": { "geogrid_id": "957972267026802389", "seqnum": 61397.0, "lat_c": 57.97226668761148, "lon_c": 26.802388903864383, "res": 9.0, "count_Molluscs": 28, "count_Basidiomycota": 441, "count_Sac Fungi": 260, "count_Arachnids": 218, "count_Mammals": 27, "count_Amphibians": 5, "count_Insects": 3095, "count_Birds": 239, "count_Ferns": 14, "count_Flowering Plants": 670, "count_Reptiles": 3, "count_Mosses": 94, "count_Gymnosperms": 7, "unique_species_count": 5101.0, "countryCode": "EE" }, "geometry": { "type": "MultiPolygon", "coordinates": [ [ [ [ 26.514498827133231, 58.234082714359637 ], [ 26.996790838493894, 58.256502577887829 ], [ 27.28083921769209, 57.993873853362075 ], [ 27.08592018814754, 57.709685369142278 ], [ 26.612430864211312, 57.687049678978262 ], [ 26.32510464954343, 57.948832373294195 ], [ 26.514498827133231, 58.234082714359637 ] ] ] ] } },
{ "type": "Feature", "properties": { "geogrid_id": "958026289023174523", "seqnum": 60831.0, "lat_c": 58.026289324690268, "lon_c": 23.174522685257713, "res": 9.0, "count_Molluscs": 1, "count_Basidiomycota": 99, "count_Sac Fungi": 51, "count_Arachnids": 52, "count_Mammals": 0, "count_Amphibians": 0, "count_Insects": 802, "count_Birds": 224, "count_Ferns": 3, "count_Flowering Plants": 36, "count_Reptiles": 0, "count_Mosses": 13, "count_Gymnosperms": 1, "unique_species_count": 1282.0, "countryCode": "EE" }, "geometry": { "type": "MultiPolygon", "coordinates": [ [ [ [ 22.855716050403888, 58.281143604489536 ], [ 23.332343377758797, 58.317113352400234 ], [ 23.64744833393511, 58.061341656053791 ], [ 23.488702720189135, 57.770477457210632 ], [ 23.020970090002862, 57.734570502117705 ], [ 22.703128994398035, 57.98948063226986 ], [ 22.855716050403888, 58.281143604489536 ] ] ] ] } },
{ "type": "Feature", "properties": { "geogrid_id": "958119724020965252", "seqnum": 60507.0, "lat_c": 58.119724364660797, "lon_c": 20.965252172125325, "res": 9.0, "count_Molluscs": 1, "count_Basidiomycota": 1, "count_Sac Fungi": 0, "count_Arachnids": 0, "count_Mammals": 0, "count_Amphibians": 0, "count_Insects": 0, "count_Birds": 1, "count_Ferns": 0, "count_Flowering Plants": 0, "count_Reptiles": 0, "count_Mosses": 0, "count_Gymnosperms": 0, "unique_species_count": 3.0, "countryCode": "EE" }, "geometry": { "type": "MultiPolygon", "coordinates": [ [ [ [ 20.627123841889986, 58.369724221181009 ], [ 21.100840595621516, 58.413670600991679 ], [ 21.435371270146092, 58.162683445727559 ], [ 21.298589381483435, 57.868647686187138 ], [ 20.833767921611422, 57.824946221913876 ], [ 20.496869950796572, 58.075052090999442 ], [ 20.627123841889986, 58.369724221181009 ] ] ] ] } },
{ "type": "Feature", "properties": { "geogrid_id": "958126127024597708", "seqnum": 61074.0, "lat_c": 58.126126750635031, "lon_c": 24.597708397008937, "res": 9.0, "count_Molluscs": 33, "count_Basidiomycota": 445, "count_Sac Fungi": 224, "count_Arachnids": 217, "count_Mammals": 38, "count_Amphibians": 5, "count_Insects": 2541, "count_Birds": 314, "count_Ferns": 7, "count_Flowering Plants": 540, "count_Reptiles": 5, "count_Mosses": 40, "count_Gymnosperms": 5, "unique_species_count": 4414.0, "countryCode": "EE" }, "geometry": { "type": "MultiPolygon", "coordinates": [ [ [ [ 24.290085223285455, 58.383700128811952 ], [ 24.771102311923968, 58.414292470396894 ], [ 25.074946764907711, 58.155835036084127 ], [ 24.900757776964515, 57.867674946719127 ], [ 24.428642939138001, 57.83704213083908 ], [ 24.121859415095646, 58.094624929587837 ], [ 24.290085223285455, 58.383700128811952 ] ] ] ] } },
{ "type": "Feature", "properties": { "geogrid_id": "958209824026033393", "seqnum": 61317.0, "lat_c": 58.209824280922632, "lon_c": 26.033392835906906, "res": 9.0, "count_Molluscs": 15, "count_Basidiomycota": 398, "count_Sac Fungi": 338, "count_Arachnids": 140, "count_Mammals": 28, "count_Amphibians": 6, "count_Insects": 3504, "count_Birds": 245, "count_Ferns": 11, "count_Flowering Plants": 658, "count_Reptiles": 3, "count_Mosses": 77, "count_Gymnosperms": 10, "unique_species_count": 5433.0, "countryCode": "EE" }, "geometry": { "type": "MultiPolygon", "coordinates": [ [ [ [ 25.737177805026281, 58.470015758646724 ], [ 26.222132940153589, 58.495123989842263 ], [ 26.514498827133231, 58.234082714359637 ], [ 26.32510464954343, 57.948832373294195 ], [ 25.849037834980148, 57.923581580115446 ], [ 25.553525045970005, 58.183738023640913 ], [ 25.737177805026281, 58.470015758646724 ] ] ] ] } },
{ "type": "Feature", "properties": { "geogrid_id": "958243407022380648", "seqnum": 60750.0, "lat_c": 58.243406589330711, "lon_c": 22.380647694487816, "res": 9.0, "count_Molluscs": 63, "count_Basidiomycota": 641, "count_Sac Fungi": 324, "count_Arachnids": 144, "count_Mammals": 19, "count_Amphibians": 2, "count_Insects": 2993, "count_Birds": 263, "count_Ferns": 10, "count_Flowering Plants": 816, "count_Reptiles": 4, "count_Mosses": 129, "count_Gymnosperms": 4, "unique_species_count": 5412.0, "countryCode": "EE" }, "geometry": { "type": "MultiPolygon", "coordinates": [ [ [ [ 22.053404259742354, 58.496336381485499 ], [ 22.532161057846693, 58.535028478474267 ], [ 22.855716050403885, 58.281143604489536 ], [ 22.703128994398035, 57.98948063226986 ], [ 22.23331275857246, 57.950928568106015 ], [ 21.907184423058865, 58.203915407723294 ], [ 22.053404259742354, 58.496336381485499 ] ] ] ] } },
{ "type": "Feature", "properties": { "geogrid_id": "958277073027480216", "seqnum": 61560.0, "lat_c": 58.27707348141594, "lon_c": 27.480215846513943, "res": 9.0, "count_Molluscs": 3, "count_Basidiomycota": 618, "count_Sac Fungi": 306, "count_Arachnids": 96, "count_Mammals": 21, "count_Amphibians": 5, "count_Insects": 2062, "count_Birds": 250, "count_Ferns": 7, "count_Flowering Plants": 313, "count_Reptiles": 4, "count_Mosses": 27, "count_Gymnosperms": 5, "unique_species_count": 3717.0, "countryCode": "EE" }, "geometry": { "type": "MultiPolygon", "coordinates": [ [ [ [ 27.195613011657993, 58.539779458402144 ], [ 27.684029370906959, 58.559306113137602 ], [ 27.96472001813548, 58.295785399051645 ], [ 27.760403393288399, 58.013643553001359 ], [ 27.28083921769209, 57.993873853362075 ], [ 26.996790838493894, 58.256502577887829 ], [ 27.195613011657993, 58.539779458402144 ] ] ] ] } },
{ "type": "Feature", "properties": { "geogrid_id": "958351303023810483", "seqnum": 60993.0, "lat_c": 58.351303027416847, "lon_c": 23.810482504831729, "res": 9.0, "count_Molluscs": 26, "count_Basidiomycota": 401, "count_Sac Fungi": 209, "count_Arachnids": 207, "count_Mammals": 32, "count_Amphibians": 4, "count_Insects": 2595, "count_Birds": 281, "count_Ferns": 6, "count_Flowering Plants": 562, "count_Reptiles": 4, "count_Mosses": 71, "count_Gymnosperms": 3, "unique_species_count": 4401.0, "countryCode": "EE" }, "geometry": { "type": "MultiPolygon", "coordinates": [ [ [ [ 23.49439094003294, 58.607064968504048 ], [ 23.977767305982294, 58.640383813697376 ], [ 24.290085223285455, 58.383700128811952 ], [ 24.121859415095646, 58.094624929587837 ], [ 23.64744833393511, 58.061341656053791 ], [ 23.332343377758797, 58.317113352400234 ], [ 23.49439094003294, 58.607064968504048 ] ] ] ] } },
{ "type": "Feature", "properties": { "geogrid_id": "958443068025253484", "seqnum": 61236.0, "lat_c": 58.443068189980117, "lon_c": 25.253483562138776, "res": 9.0, "count_Molluscs": 23, "count_Basidiomycota": 291, "count_Sac Fungi": 319, "count_Arachnids": 135, "count_Mammals": 25, "count_Amphibians": 5, "count_Insects": 1815, "count_Birds": 234, "count_Ferns": 10, "count_Flowering Plants": 590, "count_Reptiles": 5, "count_Mosses": 73, "count_Gymnosperms": 6, "unique_species_count": 3531.0, "countryCode": "EE" }, "geometry": { "type": "MultiPolygon", "coordinates": [ [ [ [ 24.948793222047772, 58.701561201386482 ], [ 25.436339866606581, 58.729396129852027 ], [ 25.737177805026281, 58.470015758646724 ], [ 25.553525045970005, 58.183738023640913 ], [ 25.074946764907711, 58.155835036084127 ], [ 24.771102311923968, 58.414292470396894 ], [ 24.948793222047772, 58.701561201386482 ] ] ] ] } },
{ "type": "Feature", "properties": { "geogrid_id": "958455879021576282", "seqnum": 60669.0, "lat_c": 58.455879251278894, "lon_c": 21.576282231841372, "res": 9.0, "count_Molluscs": 30, "count_Basidiomycota": 213, "count_Sac Fungi": 135, "count_Arachnids": 84, "count_Mammals": 9, "count_Amphibians": 1, "count_Insects": 1201, "count_Birds": 229, "count_Ferns": 4, "count_Flowering Plants": 386, "count_Reptiles": 2, "count_Mosses": 102, "count_Gymnosperms": 3, "unique_species_count": 2399.0, "countryCode": "EE" }, "geometry": { "type": "MultiPolygon", "coordinates": [ [ [ [ 21.2404826985569, 58.706806758085136 ], [ 21.721275225003463, 58.748256853436303 ], [ 22.053404259742354, 58.496336381485499 ], [ 21.907184423058865, 58.203915407723294 ], [ 21.435371270146092, 58.162683445727559 ], [ 21.100840595621516, 58.413670600991679 ], [ 21.2404826985569, 58.706806758085136 ] ] ] ] } },
{ "type": "Feature", "properties": { "geogrid_id": "958518382026708296", "seqnum": 61479.0, "lat_c": 58.518382048243851, "lon_c": 26.708295965945201, "res": 9.0, "count_Molluscs": 50, "count_Basidiomycota": 652, "count_Sac Fungi": 525, "count_Arachnids": 402, "count_Mammals": 37, "count_Amphibians": 6, "count_Insects": 4063, "count_Birds": 279, "count_Ferns": 11, "count_Flowering Plants": 921, "count_Reptiles": 4, "count_Mosses": 70, "count_Gymnosperms": 35, "unique_species_count": 7055.0, "countryCode": "EE" }, "geometry": { "type": "MultiPolygon", "coordinates": [ [ [ [ 26.415236008446854, 58.779502001482761 ], [ 26.906476925387, 58.801751433109672 ], [ 27.195613011657993, 58.539779458402144 ], [ 26.996790838493894, 58.256502577887829 ], [ 26.514498827133231, 58.234082714359637 ], [ 26.222132940153589, 58.495123989842263 ], [ 26.415236008446854, 58.779502001482761 ] ] ] ] } },
{ "type": "Feature", "properties": { "geogrid_id": "958571942023012506", "seqnum": 60912.0, "lat_c": 58.571942316738884, "lon_c": 23.01250589281457, "res": 9.0, "count_Molluscs": 22, "count_Basidiomycota": 343, "count_Sac Fungi": 411, "count_Arachnids": 290, "count_Mammals": 26, "count_Amphibians": 2, "count_Insects": 1880, "count_Birds": 251, "count_Ferns": 14, "count_Flowering Plants": 777, "count_Reptiles": 4, "count_Mosses": 100, "count_Gymnosperms": 3, "unique_species_count": 4123.0, "countryCode": "EE" }, "geometry": { "type": "MultiPolygon", "coordinates": [ [ [ [ 22.687812605891654, 58.825815781622737 ], [ 23.173461620431826, 58.861898187482687 ], [ 23.49439094003294, 58.607064968504048 ], [ 23.332343377758797, 58.317113352400234 ], [ 22.855716050403885, 58.281143604489536 ], [ 22.532161057846693, 58.535028478474267 ], [ 22.687812605891654, 58.825815781622737 ] ] ] ] } },
{ "type": "Feature", "properties": { "geogrid_id": "958663594020761403", "seqnum": 60589.0, "lat_c": 58.663594349995208, "lon_c": 20.761402943908575, "res": 9.0, "count_Molluscs": 1, "count_Basidiomycota": 0, "count_Sac Fungi": 0, "count_Arachnids": 0, "count_Mammals": 0, "count_Amphibians": 0, "count_Insects": 0, "count_Birds": 1, "count_Ferns": 0, "count_Flowering Plants": 0, "count_Reptiles": 0, "count_Mosses": 0, "count_Gymnosperms": 0, "unique_species_count": 2.0, "countryCode": "EE" }, "geometry": { "type": "MultiPolygon", "coordinates": [ [ [ [ 20.416933445976561, 58.91243998195359 ], [ 20.899660817449071, 58.956683412394291 ], [ 21.2404826985569, 58.706806758085136 ], [ 21.100840595621516, 58.413670600991679 ], [ 20.627123841889986, 58.369724221181009 ], [ 20.284081005460205, 58.618633562232745 ], [ 20.416933445976561, 58.91243998195359 ] ] ] ] } },
{ "type": "Feature", "properties": { "geogrid_id": "958671887024462585", "seqnum": 61155.0, "lat_c": 58.671886549775451, "lon_c": 24.462585052374251, "res": 9.0, "count_Molluscs": 7, "count_Basidiomycota": 286, "count_Sac Fungi": 126, "count_Arachnids": 144, "count_Mammals": 21, "count_Amphibians": 3, "count_Insects": 1980, "count_Birds": 262, "count_Ferns": 6, "count_Flowering Plants": 628, "count_Reptiles": 4, "count_Mosses": 22, "count_Gymnosperms": 7, "unique_species_count": 3496.0, "countryCode": "EE" }, "geometry": { "type": "MultiPolygon", "coordinates": [ [ [ [ 24.149272390691092, 58.928605128304071 ], [ 24.639331763569206, 58.95920512888263 ], [ 24.948793222047772, 58.701561201386482 ], [ 24.771102311923968, 58.414292470396894 ], [ 24.290085223285455, 58.383700128811952 ], [ 23.977767305982294, 58.640383813697376 ], [ 24.149272390691092, 58.928605128304071 ] ] ] ] } },
{ "type": "Feature", "properties": { "geogrid_id": "958755380025925172", "seqnum": 61398.0, "lat_c": 58.755380042450156, "lon_c": 25.925172075775354, "res": 9.0, "count_Molluscs": 11, "count_Basidiomycota": 294, "count_Sac Fungi": 149, "count_Arachnids": 160, "count_Mammals": 25, "count_Amphibians": 4, "count_Insects": 1455, "count_Birds": 219, "count_Ferns": 11, "count_Flowering Plants": 545, "count_Reptiles": 2, "count_Mosses": 57, "count_Gymnosperms": 4, "unique_species_count": 2936.0, "countryCode": "EE" }, "geometry": { "type": "MultiPolygon", "coordinates": [ [ [ [ 25.623494804430432, 59.014839390371023 ], [ 26.117490036656129, 59.039851185543917 ], [ 26.415236008446854, 58.779502001482761 ], [ 26.222132940153589, 58.495123989842263 ], [ 25.737177805026281, 58.470015758646724 ], [ 25.436339866606581, 58.729396129852027 ], [ 25.623494804430432, 59.014839390371023 ] ] ] ] } },
{ "type": "Feature", "properties": { "geogrid_id": "958787931022203734", "seqnum": 60832.0, "lat_c": 58.787930982488732, "lon_c": 22.203734313098469, "res": 9.0, "count_Molluscs": 43, "count_Basidiomycota": 309, "count_Sac Fungi": 94, "count_Arachnids": 61, "count_Mammals": 16, "count_Amphibians": 1, "count_Insects": 869, "count_Birds": 245, "count_Ferns": 12, "count_Flowering Plants": 570, "count_Reptiles": 2, "count_Mosses": 52, "count_Gymnosperms": 3, "unique_species_count": 2277.0, "countryCode": "EE" }, "geometry": { "type": "MultiPolygon", "coordinates": [ [ [ [ 21.870310690916824, 59.039837010180953 ], [ 22.358138411631334, 59.07871985466592 ], [ 22.687812605891654, 58.825815781622737 ], [ 22.532161057846693, 58.535028478474267 ], [ 22.053404259742354, 58.496336381485499 ], [ 21.721275225003463, 58.748256853436303 ], [ 21.870310690916824, 59.039837010180953 ] ] ] ] } },
{ "type": "Feature", "properties": { "geogrid_id": "958822118027398839", "seqnum": 61641.0, "lat_c": 58.822118135932648, "lon_c": 27.398839223559577, "res": 9.0, "count_Molluscs": 12, "count_Basidiomycota": 173, "count_Sac Fungi": 91, "count_Arachnids": 54, "count_Mammals": 13, "count_Amphibians": 2, "count_Insects": 1082, "count_Birds": 228, "count_Ferns": 5, "count_Flowering Plants": 364, "count_Reptiles": 3, "count_Mosses": 9, "count_Gymnosperms": 3, "unique_species_count": 2039.0, "countryCode": "EE" }, "geometry": { "type": "MultiPolygon", "coordinates": [ [ [ [ 27.109029817087968, 59.084210685986385 ], [ 27.606460462473066, 59.103538158884611 ], [ 27.892266472027103, 58.840592289312539 ], [ 27.684029370906959, 58.559306113137602 ], [ 27.195613011657993, 58.539779458402144 ], [ 26.906476925387, 58.801751433109672 ], [ 27.109029817087968, 59.084210685986385 ] ] ] ] } },
{ "type": "Feature", "properties": { "geogrid_id": "958896165023660632", "seqnum": 61075.0, "lat_c": 58.896165447172393, "lon_c": 23.660631770417311, "res": 9.0, "count_Molluscs": 18, "count_Basidiomycota": 402, "count_Sac Fungi": 316, "count_Arachnids": 213, "count_Mammals": 48, "count_Amphibians": 5, "count_Insects": 3073, "count_Birds": 317, "count_Ferns": 12, "count_Flowering Plants": 851, "count_Reptiles": 6, "count_Mosses": 98, "count_Gymnosperms": 4, "unique_species_count": 5363.0, "countryCode": "EE" }, "geometry": { "type": "MultiPolygon", "coordinates": [ [ [ [ 23.338553716238163, 59.151031582258824 ], [ 23.831039613770997, 59.184434989992162 ], [ 24.149272390691092, 58.928605128304071 ], [ 23.977767305982294, 58.640383813697376 ], [ 23.49439094003294, 58.607064968504048 ], [ 23.173461620431826, 58.861898187482687 ], [ 23.338553716238163, 59.151031582258824 ] ] ] ] } },
{ "type": "Feature", "properties": { "geogrid_id": "958987954025130757", "seqnum": 61318.0, "lat_c": 58.987953687007092, "lon_c": 25.130757146985502, "res": 9.0, "count_Molluscs": 24, "count_Basidiomycota": 214, "count_Sac Fungi": 186, "count_Arachnids": 114, "count_Mammals": 26, "count_Amphibians": 4, "count_Insects": 1281, "count_Birds": 216, "count_Ferns": 11, "count_Flowering Plants": 696, "count_Reptiles": 3, "count_Mosses": 83, "count_Gymnosperms": 7, "unique_species_count": 2865.0, "countryCode": "EE" }, "geometry": { "type": "MultiPolygon", "coordinates": [ [ [ [ 24.820305481645413, 59.245675691460477 ], [ 25.316977324474067, 59.273489540798558 ], [ 25.623494804430432, 59.014839390371023 ], [ 25.436339866606581, 58.729396129852027 ], [ 24.948793222047772, 58.701561201386482 ], [ 24.639331763569206, 58.95920512888263 ], [ 24.820305481645413, 59.245675691460477 ] ] ] ] } },
{ "type": "Feature", "properties": { "geogrid_id": "958999154021384136", "seqnum": 60751.0, "lat_c": 58.999153690976605, "lon_c": 21.384135498656917, "res": 9.0, "count_Molluscs": 1, "count_Basidiomycota": 0, "count_Sac Fungi": 0, "count_Arachnids": 0, "count_Mammals": 0, "count_Amphibians": 0, "count_Insects": 0, "count_Birds": 1, "count_Ferns": 0, "count_Flowering Plants": 0, "count_Reptiles": 0, "count_Mosses": 0, "count_Gymnosperms": 0, "unique_species_count": 2.0, "countryCode": "EE" }, "geometry": { "type": "MultiPolygon", "coordinates": [ [ [ [ 21.041858277662751, 59.249011422895308 ], [ 21.53176324767194, 59.290731314167921 ], [ 21.870310690916824, 59.039837010180953 ], [ 21.721275225003463, 58.748256853436303 ], [ 21.2404826985569, 58.706806758085136 ], [ 20.899660817449071, 58.956683412394291 ], [ 21.041858277662751, 59.249011422895308 ] ] ] ] } },
{ "type": "Feature", "properties": { "geogrid_id": "959062978026612687", "seqnum": 61561.0, "lat_c": 59.062978387015647, "lon_c": 26.612687215114278, "res": 9.0, "count_Molluscs": 9, "count_Basidiomycota": 332, "count_Sac Fungi": 166, "count_Arachnids": 72, "count_Mammals": 23, "count_Amphibians": 5, "count_Insects": 1698, "count_Birds": 212, "count_Ferns": 11, "count_Flowering Plants": 478, "count_Reptiles": 4, "count_Mosses": 63, "count_Gymnosperms": 2, "unique_species_count": 3075.0, "countryCode": "EE" }, "geometry": { "type": "MultiPolygon", "coordinates": [ [ [ [ 26.314120985144395, 59.323448332033664 ], [ 26.814478799760625, 59.345572033539028 ], [ 27.109029817087968, 59.084210685986385 ], [ 26.906476925387, 58.801751433109672 ], [ 26.415236008446854, 58.779502001482761 ], [ 26.117490036656129, 59.039851185543917 ], [ 26.314120985144395, 59.323448332033664 ] ] ] ] } },
{ "type": "Feature", "properties": { "geogrid_id": "959115789022847570", "seqnum": 60994.0, "lat_c": 59.115789011832227, "lon_c": 22.84756951526321, "res": 9.0, "count_Molluscs": 15, "count_Basidiomycota": 345, "count_Sac Fungi": 297, "count_Arachnids": 89, "count_Mammals": 16, "count_Amphibians": 3, "count_Insects": 940, "count_Birds": 241, "count_Ferns": 14, "count_Flowering Plants": 583, "count_Reptiles": 4, "count_Mosses": 93, "count_Gymnosperms": 3, "unique_species_count": 2643.0, "countryCode": "EE" }, "geometry": { "type": "MultiPolygon", "coordinates": [ [ [ [ 22.516587570239796, 59.368722661635999 ], [ 23.011406121689788, 59.404967682209715 ], [ 23.338553716238163, 59.151031582258824 ], [ 23.173461620431826, 58.861898187482687 ], [ 22.687812605891654, 58.825815781622737 ], [ 22.358138411631334, 59.07871985466592 ], [ 22.516587570239796, 59.368722661635999 ] ] ] ] } },
{ "type": "Feature", "properties": { "geogrid_id": "959120951028104921", "seqnum": 61804.0, "lat_c": 59.120951275596212, "lon_c": 28.104920952159194, "res": 9.0, "count_Molluscs": 32, "count_Basidiomycota": 398, "count_Sac Fungi": 156, "count_Arachnids": 50, "count_Mammals": 11, "count_Amphibians": 2, "count_Insects": 697, "count_Birds": 190, "count_Ferns": 8, "count_Flowering Plants": 316, "count_Reptiles": 3, "count_Mosses": 13, "count_Gymnosperms": 3, "unique_species_count": 1879.0, "countryCode": "EE" }, "geometry": { "type": "MultiPolygon", "coordinates": [ [ [ [ 27.818474665809763, 59.384057857495414 ], [ 28.321993500289157, 59.400401103118618 ], [ 28.604352307955072, 59.136440907388121 ], [ 28.386701449379181, 58.85716446140313 ], [ 27.892266472027103, 58.840592289312539 ], [ 27.606460462473066, 59.103538158884611 ], [ 27.818474665809763, 59.384057857495414 ] ] ] ] } },
{ "type": "Feature", "properties": { "geogrid_id": "959215987024324975", "seqnum": 61237.0, "lat_c": 59.215986992669954, "lon_c": 24.324974718604569, "res": 9.0, "count_Molluscs": 34, "count_Basidiomycota": 668, "count_Sac Fungi": 310, "count_Arachnids": 105, "count_Mammals": 24, "count_Amphibians": 3, "count_Insects": 3797, "count_Birds": 276, "count_Ferns": 12, "count_Flowering Plants": 758, "count_Reptiles": 5, "count_Mosses": 150, "count_Gymnosperms": 4, "unique_species_count": 6146.0, "countryCode": "EE" }, "geometry": { "type": "MultiPolygon", "coordinates": [ [ [ [ 24.005595311963557, 59.471892759961484 ], [ 24.504858311432805, 59.502548370684174 ], [ 24.820305481645413, 59.245675691460477 ], [ 24.639331763569206, 58.95920512888263 ], [ 24.149272390691092, 58.928605128304071 ], [ 23.831039613770997, 59.184434989992162 ], [ 24.005595311963557, 59.471892759961484 ] ] ] ] } },
{ "type": "Feature", "properties": { "geogrid_id": "959299417025814935", "seqnum": 61480.0, "lat_c": 59.299417357899721, "lon_c": 25.814934671702421, "res": 9.0, "count_Molluscs": 38, "count_Basidiomycota": 346, "count_Sac Fungi": 268, "count_Arachnids": 136, "count_Mammals": 28, "count_Amphibians": 3, "count_Insects": 2444, "count_Birds": 249, "count_Ferns": 10, "count_Flowering Plants": 658, "count_Reptiles": 6, "count_Mosses": 97, "count_Gymnosperms": 6, "unique_species_count": 4289.0, "countryCode": "EE" }, "geometry": { "type": "MultiPolygon", "coordinates": [ [ [ [ 25.507443976209494, 59.558187281701514 ], [ 26.010652705178256, 59.583148306152175 ], [ 26.314120985144395, 59.323448332033664 ], [ 26.117490036656129, 59.039851185543917 ], [ 25.623494804430432, 59.014839390371023 ], [ 25.316977324474067, 59.273489540798558 ], [ 25.507443976209494, 59.558187281701514 ] ] ] ] } },
{ "type": "Feature", "properties": { "geogrid_id": "959330640022023356", "seqnum": 60913.0, "lat_c": 59.330639518993102, "lon_c": 22.023356282205967, "res": 9.0, "count_Molluscs": 0, "count_Basidiomycota": 0, "count_Sac Fungi": 0, "count_Arachnids": 0, "count_Mammals": 0, "count_Amphibians": 0, "count_Insects": 0, "count_Birds": 0, "count_Ferns": 0, "count_Flowering Plants": 0, "count_Reptiles": 0, "count_Mosses": 1, "count_Gymnosperms": 0, "unique_species_count": 1.0, "countryCode": "EE" }, "geometry": { "type": "MultiPolygon", "coordinates": [ [ [ [ 21.683337182877569, 59.581558631184755 ], [ 22.180386619959528, 59.620683246843612 ], [ 22.516587570239796, 59.368722661635999 ], [ 22.358138411631334, 59.07871985466592 ], [ 21.870310690916824, 59.039837010180953 ], [ 21.53176324767194, 59.290731314167921 ], [ 21.683337182877569, 59.581558631184755 ] ] ] ] } },
{ "type": "Feature", "properties": { "geogrid_id": "959365778027315950", "seqnum": 61723.0, "lat_c": 59.365778422561156, "lon_c": 27.315949761331826, "res": 9.0, "count_Molluscs": 42, "count_Basidiomycota": 289, "count_Sac Fungi": 264, "count_Arachnids": 45, "count_Mammals": 24, "count_Amphibians": 2, "count_Insects": 1674, "count_Birds": 227, "count_Ferns": 12, "count_Flowering Plants": 592, "count_Reptiles": 4, "count_Mosses": 112, "count_Gymnosperms": 5, "unique_species_count": 3292.0, "countryCode": "EE" }, "geometry": { "type": "MultiPolygon", "coordinates": [ [ [ [ 27.020609847287488, 59.62730068048841 ], [ 27.527238671535493, 59.646472093945022 ], [ 27.818474665809763, 59.384057857495414 ], [ 27.606460462473066, 59.103538158884611 ], [ 27.109029817087968, 59.084210685986385 ], [ 26.814478799760625, 59.345572033539028 ], [ 27.020609847287488, 59.62730068048841 ] ] ] ] } },
{ "type": "Feature", "properties": { "geogrid_id": "959439362023507760", "seqnum": 61156.0, "lat_c": 59.439361847222933, "lon_c": 23.507759792539574, "res": 9.0, "count_Molluscs": 8, "count_Basidiomycota": 195, "count_Sac Fungi": 47, "count_Arachnids": 18, "count_Mammals": 23, "count_Amphibians": 2, "count_Insects": 371, "count_Birds": 275, "count_Ferns": 0, "count_Flowering Plants": 277, "count_Reptiles": 5, "count_Mosses": 77, "count_Gymnosperms": 2, "unique_species_count": 1300.0, "countryCode": "EE" }, "geometry": { "type": "MultiPolygon", "coordinates": [ [ [ [ 23.179303688043344, 59.693370336731334 ], [ 23.681064364314452, 59.72690734035934 ], [ 24.005595311963557, 59.471892759961484 ], [ 23.831039613770997, 59.184434989992162 ], [ 23.338553716238163, 59.151031582258824 ], [ 23.011406121689788, 59.404967682209715 ], [ 23.179303688043344, 59.693370336731334 ] ] ] ] } },
{ "type": "Feature", "properties": { "geogrid_id": "959531317025005493", "seqnum": 61399.0, "lat_c": 59.531316986613476, "lon_c": 25.005493355781937, "res": 9.0, "count_Molluscs": 92, "count_Basidiomycota": 386, "count_Sac Fungi": 336, "count_Arachnids": 154, "count_Mammals": 29, "count_Amphibians": 3, "count_Insects": 2632, "count_Birds": 282, "count_Ferns": 10, "count_Flowering Plants": 923, "count_Reptiles": 4, "count_Mosses": 157, "count_Gymnosperms": 12, "unique_species_count": 5020.0, "countryCode": "EE" }, "geometry": { "type": "MultiPolygon", "coordinates": [ [ [ [ 24.688914036507473, 59.788307200646678 ], [ 25.194889348023988, 59.816146719529762 ], [ 25.507443976209494, 59.558187281701514 ], [ 25.316977324474067, 59.273489540798558 ], [ 24.820305481645413, 59.245675691460477 ], [ 24.504858311432805, 59.502548370684174 ], [ 24.688914036507473, 59.788307200646678 ] ] ] ] } },
{ "type": "Feature", "properties": { "geogrid_id": "959606189026515061", "seqnum": 61642.0, "lat_c": 59.606189495680184, "lon_c": 26.515061113175523, "res": 9.0, "count_Molluscs": 13, "count_Basidiomycota": 306, "count_Sac Fungi": 163, "count_Arachnids": 58, "count_Mammals": 18, "count_Amphibians": 2, "count_Insects": 2311, "count_Birds": 251, "count_Ferns": 11, "count_Flowering Plants": 644, "count_Reptiles": 3, "count_Mosses": 39, "count_Gymnosperms": 8, "unique_species_count": 3827.0, "countryCode": "EE" }, "geometry": { "type": "MultiPolygon", "coordinates": [ [ [ [ 26.21064888012247, 59.866049429162814 ], [ 26.720313309460423, 59.888091593179979 ], [ 27.020609847287488, 59.62730068048841 ], [ 26.814478799760625, 59.345572033539028 ], [ 26.314120985144395, 59.323448332033664 ], [ 26.010652705178256, 59.583148306152175 ], [ 26.21064888012247, 59.866049429162814 ] ] ] ] } },
{ "type": "Feature", "properties": { "geogrid_id": "959663694028034887", "seqnum": 61885.0, "lat_c": 59.663694380942488, "lon_c": 28.034886508915982, "res": 9.0, "count_Molluscs": 32, "count_Basidiomycota": 11, "count_Sac Fungi": 3, "count_Arachnids": 33, "count_Mammals": 2, "count_Amphibians": 0, "count_Insects": 376, "count_Birds": 159, "count_Ferns": 2, "count_Flowering Plants": 129, "count_Reptiles": 1, "count_Mosses": 5, "count_Gymnosperms": 2, "unique_species_count": 755.0, "countryCode": "EE" }, "geometry": { "type": "MultiPolygon", "coordinates": [ [ [ [ 27.742905065049364, 59.926308020538826 ], [ 28.255707219882584, 59.942463731483322 ], [ 28.543491485080096, 59.678958605920869 ], [ 28.321993500289157, 59.400401103118618 ], [ 27.818474665809763, 59.384057857495414 ], [ 27.527238671535493, 59.646472093945022 ], [ 27.742905065049364, 59.926308020538826 ] ] ] ] } },
{ "type": "Feature", "properties": { "geogrid_id": "959758557024184287", "seqnum": 78806.0, "lat_c": 59.758556912794994, "lon_c": 24.184286587126291, "res": 9.0, "count_Molluscs": 1, "count_Basidiomycota": 102, "count_Sac Fungi": 65, "count_Arachnids": 1, "count_Mammals": 2, "count_Amphibians": 0, "count_Insects": 197, "count_Birds": 62, "count_Ferns": 0, "count_Flowering Plants": 14, "count_Reptiles": 0, "count_Mosses": 53, "count_Gymnosperms": 1, "unique_species_count": 498.0, "countryCode": "EE" }, "geometry": { "type": "MultiPolygon", "coordinates": [ [ [ [ 23.681064369051132, 59.726907340090222 ], [ 23.871196700929339, 60.014821001456554 ], [ 24.378647709317889, 60.045449880948695 ], [ 24.688914041236167, 59.788307200346935 ], [ 24.504858311432805, 59.502548370684174 ], [ 24.005595311963557, 59.471892759961484 ], [ 23.681064369051132, 59.726907340090222 ] ] ] ] } },
{ "type": "Feature", "properties": { "geogrid_id": "959842064025702154", "seqnum": 78805.0, "lat_c": 59.842064366371005, "lon_c": 25.702154105791788, "res": 9.0, "count_Molluscs": 7, "count_Basidiomycota": 150, "count_Sac Fungi": 131, "count_Arachnids": 43, "count_Mammals": 20, "count_Amphibians": 3, "count_Insects": 567, "count_Birds": 239, "count_Ferns": 2, "count_Flowering Plants": 212, "count_Reptiles": 5, "count_Mosses": 37, "count_Gymnosperms": 4, "unique_species_count": 1420.0, "countryCode": "EE" }, "geometry": { "type": "MultiPolygon", "coordinates": [ [ [ [ 25.194889352748, 59.816146719214657 ], [ 25.397717998434747, 60.100959215172637 ], [ 25.909218078642503, 60.125816870008371 ], [ 26.210648884835727, 59.866049428816893 ], [ 26.010652705178256, 59.583148306152175 ], [ 25.507443976209494, 59.558187281701514 ], [ 25.194889352748, 59.816146719214657 ] ] ] ] } },
{ "type": "Feature", "properties": { "geogrid_id": "959908181027231086", "seqnum": 78804.0, "lat_c": 59.908180952839388, "lon_c": 27.231086099229032, "res": 9.0, "count_Molluscs": 0, "count_Basidiomycota": 0, "count_Sac Fungi": 0, "count_Arachnids": 0, "count_Mammals": 0, "count_Amphibians": 0, "count_Insects": 0, "count_Birds": 1, "count_Ferns": 0, "count_Flowering Plants": 0, "count_Reptiles": 0, "count_Mosses": 0, "count_Gymnosperms": 0, "unique_species_count": 1.0, "countryCode": "EE" }, "geometry": { "type": "MultiPolygon", "coordinates": [ [ [ [ 26.720313314167605, 59.888091592818604 ], [ 26.935842416649486, 60.169684154530081 ], [ 27.45084149503678, 60.188673423300727 ], [ 27.742905069742971, 59.926308020146493 ], [ 27.527238671535489, 59.646472093945022 ], [ 27.020609847287488, 59.62730068048841 ], [ 26.720313314167605, 59.888091592818604 ] ] ] ] } },
{ "type": "Feature", "properties": { "geogrid_id": "960074166024887508", "seqnum": 78886.0, "lat_c": 60.074166484190727, "lon_c": 24.887507832292201, "res": 9.0, "count_Molluscs": 1, "count_Basidiomycota": 0, "count_Sac Fungi": 0, "count_Arachnids": 0, "count_Mammals": 0, "count_Amphibians": 0, "count_Insects": 2, "count_Birds": 1, "count_Ferns": 0, "count_Flowering Plants": 0, "count_Reptiles": 0, "count_Mosses": 0, "count_Gymnosperms": 0, "unique_species_count": 4.0, "countryCode": "EE" }, "geometry": { "type": "MultiPolygon", "coordinates": [ [ [ [ 24.378647709317889, 60.045449880948695 ], [ 24.576080753453137, 60.332108805645788 ], [ 25.08923618298682, 60.359773715042365 ], [ 25.397717998434747, 60.100959215172637 ], [ 25.194889352748, 59.816146719214657 ], [ 24.688914041236167, 59.788307200346935 ], [ 24.378647709317889, 60.045449880948695 ] ] ] ] } },
{ "type": "Feature", "properties": { "geogrid_id": "960148729026421947", "seqnum": 78885.0, "lat_c": 60.148728646688646, "lon_c": 26.421946925836338, "res": 9.0, "count_Molluscs": 0, "count_Basidiomycota": 0, "count_Sac Fungi": 0, "count_Arachnids": 0, "count_Mammals": 0, "count_Amphibians": 0, "count_Insects": 0, "count_Birds": 1, "count_Ferns": 0, "count_Flowering Plants": 0, "count_Reptiles": 0, "count_Mosses": 0, "count_Gymnosperms": 0, "unique_species_count": 1.0, "countryCode": "EE" }, "geometry": { "type": "MultiPolygon", "coordinates": [ [ [ [ 25.909218078642503, 60.125816870008371 ], [ 26.119540022454707, 60.409280885086382 ], [ 26.636563595181091, 60.431100952085849 ], [ 26.935842416649486, 60.169684154530081 ], [ 26.720313314167605, 59.888091592818604 ], [ 26.210648884835727, 59.866049428816893 ], [ 25.909218078642503, 60.125816870008371 ] ] ] ] } }
]
}
