{
"type": "FeatureCollection",
"name": "EG",
"crs": { "type": "name", "properties": { "name": "urn:ogc:def:crs:OGC:1.3:CRS84" } },
"features": [
{ "type": "Feature", "properties": { "geogrid_id": "821810923030990308", "seqnum": 17007.0, "lat_c": 21.810922811068483, "lon_c": 30.99030765762673, "res": 8.0, "count_Flowering Plants": 0, "count_Birds": 0, "count_Mammals": 0, "count_Molluscs": 0, "count_Reptiles": 0, "count_Insects": 1, "count_Amphibians": 0, "count_Arachnids": 0, "count_Basidiomycota": 0, "count_Gymnosperms": 0, "count_Sac Fungi": 0, "count_Ferns": 0, "count_Mosses": 0, "unique_species_count": 1.0, "countryCode": "EG" }, "geometry": { "type": "MultiPolygon", "coordinates": [ [ [ [ 31.512792812461726, 22.006265154841781 ], [ 31.404108221010578, 21.533826891588653 ], [ 30.883209949120744, 21.337801174132927 ], [ 30.469461625664742, 21.613662690892195 ], [ 30.574891246058609, 22.087281894224308 ], [ 31.097364521633121, 22.283861891548252 ], [ 31.512792812461726, 22.006265154841781 ] ] ] ] } },
{ "type": "Feature", "properties": { "geogrid_id": "821971920036334258", "seqnum": 19796.0, "lat_c": 21.971920029207443, "lon_c": 36.334257921838578, "res": 8.0, "count_Flowering Plants": 0, "count_Birds": 1, "count_Mammals": 0, "count_Molluscs": 0, "count_Reptiles": 0, "count_Insects": 0, "count_Amphibians": 0, "count_Arachnids": 0, "count_Basidiomycota": 0, "count_Gymnosperms": 0, "count_Sac Fungi": 0, "count_Ferns": 0, "count_Mosses": 0, "unique_species_count": 1.0, "countryCode": "EG" }, "geometry": { "type": "MultiPolygon", "coordinates": [ [ [ [ 36.46136034302225, 22.431933552700222 ], [ 36.871832675287855, 22.136249933810479 ], [ 36.74366255496259, 21.676921653943602 ], [ 36.207589266867899, 21.511959733968247 ], [ 35.797908775490086, 21.805369650738999 ], [ 35.923482674482308, 22.265986270870954 ], [ 36.46136034302225, 22.431933552700222 ] ] ] ] } },
{ "type": "Feature", "properties": { "geogrid_id": "822201087025374313", "seqnum": 16515.0, "lat_c": 22.201087041726527, "lon_c": 25.374313031914529, "res": 8.0, "count_Flowering Plants": 0, "count_Birds": 0, "count_Mammals": 0, "count_Molluscs": 0, "count_Reptiles": 0, "count_Insects": 5, "count_Amphibians": 0, "count_Arachnids": 1, "count_Basidiomycota": 0, "count_Gymnosperms": 0, "count_Sac Fungi": 0, "count_Ferns": 0, "count_Mosses": 0, "unique_species_count": 6.0, "countryCode": "EG" }, "geometry": { "type": "MultiPolygon", "coordinates": [ [ [ [ 25.88625583999038, 22.41500590673019 ], [ 25.797914437175749, 21.93621869413942 ], [ 25.287242671240293, 21.72175053426372 ], [ 24.86394169598082, 21.985387700578666 ], [ 24.948676670642346, 22.465051047045602 ], [ 25.460382127533762, 22.680200796497918 ], [ 25.88625583999038, 22.41500590673019 ] ] ] ] } },
{ "type": "Feature", "properties": { "geogrid_id": "822391107032562853", "seqnum": 17090.0, "lat_c": 22.391106896458975, "lon_c": 32.562853382528296, "res": 8.0, "count_Flowering Plants": 0, "count_Birds": 12, "count_Mammals": 3, "count_Molluscs": 0, "count_Reptiles": 3, "count_Insects": 0, "count_Amphibians": 2, "count_Arachnids": 0, "count_Basidiomycota": 0, "count_Gymnosperms": 0, "count_Sac Fungi": 0, "count_Ferns": 0, "count_Mosses": 0, "unique_species_count": 20.0, "countryCode": "EG" }, "geometry": { "type": "MultiPolygon", "coordinates": [ [ [ [ 33.090506721308451, 22.580561790320576 ], [ 32.9765952076594, 22.110303063316927 ], [ 32.450757323515553, 21.920100607548548 ], [ 32.036961209357621, 22.199667278426375 ], [ 32.14750795068948, 22.671183807969506 ], [ 32.675253794738808, 22.861881805680973 ], [ 33.090506721308451, 22.580561790320576 ] ] ] ] } },
{ "type": "Feature", "properties": { "geogrid_id": "822478503031621557", "seqnum": 17008.0, "lat_c": 22.478503181870774, "lon_c": 31.621556971931792, "res": 8.0, "count_Flowering Plants": 16, "count_Birds": 83, "count_Mammals": 12, "count_Molluscs": 0, "count_Reptiles": 15, "count_Insects": 24, "count_Amphibians": 2, "count_Arachnids": 2, "count_Basidiomycota": 0, "count_Gymnosperms": 0, "count_Sac Fungi": 0, "count_Ferns": 0, "count_Mosses": 0, "unique_species_count": 154.0, "countryCode": "EG" }, "geometry": { "type": "MultiPolygon", "coordinates": [ [ [ [ 32.14750795068948, 22.671183807969506 ], [ 32.036961209357621, 22.199667278426375 ], [ 31.512792812461726, 22.006265154841781 ], [ 31.097364521633121, 22.283861891548252 ], [ 31.204489438779529, 22.756586462024504 ], [ 31.730504308419242, 22.950512104211061 ], [ 32.14750795068948, 22.671183807969506 ] ] ] ] } },
{ "type": "Feature", "properties": { "geogrid_id": "822637700029738983", "seqnum": 16844.0, "lat_c": 22.637699603657481, "lon_c": 29.738983415070564, "res": 8.0, "count_Flowering Plants": 4, "count_Birds": 0, "count_Mammals": 0, "count_Molluscs": 0, "count_Reptiles": 0, "count_Insects": 0, "count_Amphibians": 0, "count_Arachnids": 0, "count_Basidiomycota": 0, "count_Gymnosperms": 0, "count_Sac Fungi": 0, "count_Ferns": 0, "count_Mosses": 0, "unique_species_count": 4.0, "countryCode": "EG" }, "geometry": { "type": "MultiPolygon", "coordinates": [ [ [ [ 30.26144664654953, 22.836763644116758 ], [ 30.157802506550023, 22.362882044685794 ], [ 29.637050895699321, 22.163146593739853 ], [ 29.218272389085392, 22.43672302840891 ], [ 29.31837432268334, 22.911709187881364 ], [ 29.840841048731122, 23.112020020095329 ], [ 30.26144664654953, 22.836763644116758 ] ] ] ] } },
{ "type": "Feature", "properties": { "geogrid_id": "822709489028797698", "seqnum": 16762.0, "lat_c": 22.709488934556717, "lon_c": 28.797698213236348, "res": 8.0, "count_Flowering Plants": 1, "count_Birds": 1, "count_Mammals": 0, "count_Molluscs": 0, "count_Reptiles": 0, "count_Insects": 0, "count_Amphibians": 0, "count_Arachnids": 0, "count_Basidiomycota": 0, "count_Gymnosperms": 0, "count_Sac Fungi": 0, "count_Ferns": 0, "count_Mosses": 0, "unique_species_count": 2.0, "countryCode": "EG" }, "geometry": { "type": "MultiPolygon", "coordinates": [ [ [ [ 29.31837432268334, 22.911709187881364 ], [ 29.218272389085392, 22.43672302840891 ], [ 28.699269986093579, 22.233855225161197 ], [ 28.278770813843384, 22.505380204351201 ], [ 28.375265915925024, 22.981416726474389 ], [ 28.895913871933914, 23.18488350791959 ], [ 29.31837432268334, 22.911709187881364 ] ] ] ] } },
{ "type": "Feature", "properties": { "geogrid_id": "822726664036049487", "seqnum": 19797.0, "lat_c": 22.726664268196391, "lon_c": 36.049487328598531, "res": 8.0, "count_Flowering Plants": 0, "count_Birds": 0, "count_Mammals": 2, "count_Molluscs": 0, "count_Reptiles": 1, "count_Insects": 0, "count_Amphibians": 0, "count_Arachnids": 0, "count_Basidiomycota": 0, "count_Gymnosperms": 0, "count_Sac Fungi": 0, "count_Ferns": 0, "count_Mosses": 0, "unique_species_count": 3.0, "countryCode": "EG" }, "geometry": { "type": "MultiPolygon", "coordinates": [ [ [ [ 36.175963124003474, 23.187415222377293 ], [ 36.588936445949926, 22.892012185239977 ], [ 36.46136034302225, 22.431933552700222 ], [ 35.923482674482308, 22.265986270870954 ], [ 35.511273356771845, 22.55904511966018 ], [ 35.636149021217264, 23.020366785528697 ], [ 36.175963124003474, 23.187415222377293 ] ] ] ] } },
{ "type": "Feature", "properties": { "geogrid_id": "822837422026915102", "seqnum": 16598.0, "lat_c": 22.837422026281562, "lon_c": 26.915102228815886, "res": 8.0, "count_Flowering Plants": 0, "count_Birds": 0, "count_Mammals": 1, "count_Molluscs": 0, "count_Reptiles": 1, "count_Insects": 0, "count_Amphibians": 0, "count_Arachnids": 0, "count_Basidiomycota": 0, "count_Gymnosperms": 0, "count_Sac Fungi": 0, "count_Ferns": 0, "count_Mosses": 0, "unique_species_count": 2.0, "countryCode": "EG" }, "geometry": { "type": "MultiPolygon", "coordinates": [ [ [ [ 27.432112829336798, 23.045879490039116 ], [ 27.339293285411301, 22.568848891832644 ], [ 26.823876535185939, 22.35978877437304 ], [ 26.399833446659265, 22.627124202335857 ], [ 26.488903456050981, 23.105090016095549 ], [ 27.005820314367408, 23.314790814762269 ], [ 27.432112829336798, 23.045879490039116 ] ] ] ] } },
{ "type": "Feature", "properties": { "geogrid_id": "822893554025973773", "seqnum": 16516.0, "lat_c": 22.893553537441168, "lon_c": 25.973773344418316, "res": 8.0, "count_Flowering Plants": 0, "count_Birds": 1, "count_Mammals": 0, "count_Molluscs": 0, "count_Reptiles": 0, "count_Insects": 0, "count_Amphibians": 0, "count_Arachnids": 0, "count_Basidiomycota": 0, "count_Gymnosperms": 0, "count_Sac Fungi": 0, "count_Ferns": 0, "count_Mosses": 0, "unique_species_count": 1.0, "countryCode": "EG" }, "geometry": { "type": "MultiPolygon", "coordinates": [ [ [ [ 26.488903456050981, 23.105090016095549 ], [ 26.399833446659265, 22.627124202335857 ], [ 25.88625583999038, 22.41500590673019 ], [ 25.460382127533762, 22.680200796497918 ], [ 25.545621908186003, 23.159039731046292 ], [ 26.060624769966473, 23.371816458442265 ], [ 26.488903456050981, 23.105090016095549 ] ] ] ] } },
{ "type": "Feature", "properties": { "geogrid_id": "823050575033204828", "seqnum": 17091.0, "lat_c": 23.050575144115079, "lon_c": 33.204828177033527, "res": 8.0, "count_Flowering Plants": 1, "count_Birds": 11, "count_Mammals": 4, "count_Molluscs": 0, "count_Reptiles": 0, "count_Insects": 2, "count_Amphibians": 2, "count_Arachnids": 0, "count_Basidiomycota": 0, "count_Gymnosperms": 0, "count_Sac Fungi": 0, "count_Ferns": 0, "count_Mosses": 0, "unique_species_count": 20.0, "countryCode": "EG" }, "geometry": { "type": "MultiPolygon", "coordinates": [ [ [ [ 33.736262401054695, 23.237241680105097 ], [ 33.619955836737709, 22.768009737307249 ], [ 33.090506721308451, 22.580561790320576 ], [ 32.675253794738808, 22.861881805680973 ], [ 32.788053450473988, 23.332401473014674 ], [ 33.319650882923597, 23.520321289097179 ], [ 33.736262401054695, 23.237241680105097 ] ] ] ] } },
{ "type": "Feature", "properties": { "geogrid_id": "823142458032258348", "seqnum": 17009.0, "lat_c": 23.142457732417494, "lon_c": 32.258348075555823, "res": 8.0, "count_Flowering Plants": 0, "count_Birds": 44, "count_Mammals": 5, "count_Molluscs": 0, "count_Reptiles": 8, "count_Insects": 1, "count_Amphibians": 2, "count_Arachnids": 1, "count_Basidiomycota": 0, "count_Gymnosperms": 0, "count_Sac Fungi": 0, "count_Ferns": 0, "count_Mosses": 0, "unique_species_count": 61.0, "countryCode": "EG" }, "geometry": { "type": "MultiPolygon", "coordinates": [ [ [ [ 32.788053450473988, 23.332401473014674 ], [ 32.675253794738808, 22.861881805680973 ], [ 32.14750795068948, 22.671183807969506 ], [ 31.730504308419242, 22.950512104211061 ], [ 31.839734256188112, 23.422266726300979 ], [ 32.369576878300776, 23.613466133184684 ], [ 32.788053450473988, 23.332401473014674 ] ] ] ] } },
{ "type": "Feature", "properties": { "geogrid_id": "823352168036717028", "seqnum": 19879.0, "lat_c": 23.352167732967981, "lon_c": 36.717027802464862, "res": 8.0, "count_Flowering Plants": 0, "count_Birds": 0, "count_Mammals": 4, "count_Molluscs": 0, "count_Reptiles": 0, "count_Insects": 0, "count_Amphibians": 0, "count_Arachnids": 0, "count_Basidiomycota": 0, "count_Gymnosperms": 0, "count_Sac Fungi": 0, "count_Ferns": 0, "count_Mosses": 0, "unique_species_count": 4.0, "countryCode": "EG" }, "geometry": { "type": "MultiPolygon", "coordinates": [ [ [ [ 36.845677772231817, 23.812411899411085 ], [ 37.259361618162558, 23.51462278802703 ], [ 37.129640302416419, 23.055088408348585 ], [ 36.588936445949926, 22.892012185239977 ], [ 36.175963124003474, 23.187415222377293 ], [ 36.302952137264, 23.648250607308032 ], [ 36.845677772231817, 23.812411899411085 ] ] ] ] } },
{ "type": "Feature", "properties": { "geogrid_id": "823386445029418391", "seqnum": 16763.0, "lat_c": 23.386444715411322, "lon_c": 29.418391058615107, "res": 8.0, "count_Flowering Plants": 1, "count_Birds": 0, "count_Mammals": 0, "count_Molluscs": 0, "count_Reptiles": 0, "count_Insects": 0, "count_Amphibians": 0, "count_Arachnids": 0, "count_Basidiomycota": 0, "count_Gymnosperms": 0, "count_Sac Fungi": 0, "count_Ferns": 0, "count_Mosses": 0, "unique_species_count": 1.0, "countryCode": "EG" }, "geometry": { "type": "MultiPolygon", "coordinates": [ [ [ [ 29.942734483964724, 23.586079496529479 ], [ 29.840841048731122, 23.112020020095329 ], [ 29.31837432268334, 22.911709187881364 ], [ 28.895913871933914, 23.18488350791959 ], [ 28.994034641416423, 23.660008758538137 ], [ 29.518433776032406, 23.860902669444293 ], [ 29.942734483964724, 23.586079496529479 ] ] ] ] } },
{ "type": "Feature", "properties": { "geogrid_id": "823481769035761492", "seqnum": 19798.0, "lat_c": 23.481768632923352, "lon_c": 35.761492483451235, "res": 8.0, "count_Flowering Plants": 6, "count_Birds": 20, "count_Mammals": 10, "count_Molluscs": 14, "count_Reptiles": 1, "count_Insects": 2, "count_Amphibians": 0, "count_Arachnids": 0, "count_Basidiomycota": 0, "count_Gymnosperms": 0, "count_Sac Fungi": 0, "count_Ferns": 0, "count_Mosses": 0, "unique_species_count": 53.0, "countryCode": "EG" }, "geometry": { "type": "MultiPolygon", "coordinates": [ [ [ [ 35.887346286831743, 23.943261794704636 ], [ 36.302952137264, 23.648250607308032 ], [ 36.175963124003474, 23.187415222377293 ], [ 35.636149021217264, 23.020366785528697 ], [ 35.221282238159752, 23.31296966963734 ], [ 35.345460201545528, 23.775001032680454 ], [ 35.887346286831743, 23.943261794704636 ] ] ] ] } },
{ "type": "Feature", "properties": { "geogrid_id": "823582763026577459", "seqnum": 16517.0, "lat_c": 23.582763266299217, "lon_c": 26.577459181242851, "res": 8.0, "count_Flowering Plants": 0, "count_Birds": 1, "count_Mammals": 0, "count_Molluscs": 0, "count_Reptiles": 1, "count_Insects": 0, "count_Amphibians": 0, "count_Arachnids": 0, "count_Basidiomycota": 0, "count_Gymnosperms": 0, "count_Sac Fungi": 0, "count_Ferns": 0, "count_Mosses": 0, "unique_species_count": 2.0, "countryCode": "EG" }, "geometry": { "type": "MultiPolygon", "coordinates": [ [ [ [ 27.096166150122162, 23.791860703988068 ], [ 27.005820314367408, 23.314790814762269 ], [ 26.488903456050981, 23.105090016095549 ], [ 26.060624769966473, 23.371816458442265 ], [ 26.146956692801265, 23.849757826752946 ], [ 26.665636624609029, 24.060111782960238 ], [ 27.096166150122162, 23.791860703988068 ] ] ] ] } },
{ "type": "Feature", "properties": { "geogrid_id": "823604405034804825", "seqnum": 19717.0, "lat_c": 23.604405009284918, "lon_c": 34.804825180462394, "res": 8.0, "count_Flowering Plants": 0, "count_Birds": 2, "count_Mammals": 0, "count_Molluscs": 0, "count_Reptiles": 1, "count_Insects": 0, "count_Amphibians": 0, "count_Arachnids": 0, "count_Basidiomycota": 0, "count_Gymnosperms": 0, "count_Sac Fungi": 0, "count_Ferns": 0, "count_Mosses": 0, "unique_species_count": 3.0, "countryCode": "EG" }, "geometry": { "type": "MultiPolygon", "coordinates": [ [ [ [ 34.927803383843234, 24.067044596101166 ], [ 35.345460201545528, 23.775001032680454 ], [ 35.221282238159752, 23.31296966963734 ], [ 34.684367740727311, 23.136795563383661 ], [ 34.26958564726116, 23.421859123605532 ], [ 34.388633784559538, 23.890000028705092 ], [ 34.927803383843234, 24.067044596101166 ] ] ] ] } },
{ "type": "Feature", "properties": { "geogrid_id": "823637561025630191", "seqnum": 16435.0, "lat_c": 23.637561434635217, "lon_c": 25.63019128326841, "res": 8.0, "count_Flowering Plants": 0, "count_Birds": 3, "count_Mammals": 1, "count_Molluscs": 0, "count_Reptiles": 2, "count_Insects": 5, "count_Amphibians": 0, "count_Arachnids": 0, "count_Basidiomycota": 0, "count_Gymnosperms": 0, "count_Sac Fungi": 0, "count_Ferns": 0, "count_Mosses": 0, "unique_species_count": 11.0, "countryCode": "EG" }, "geometry": { "type": "MultiPolygon", "coordinates": [ [ [ [ 26.146956692801265, 23.849757826752946 ], [ 26.060624769966473, 23.371816458442265 ], [ 25.545621908186003, 23.159039731046292 ], [ 25.115301853348008, 23.423541972591412 ], [ 25.197525270348581, 23.902281050300008 ], [ 25.714237533332842, 24.115731778119113 ], [ 26.146956692801265, 23.849757826752946 ] ] ] ] } },
{ "type": "Feature", "properties": { "geogrid_id": "823687015024682733", "seqnum": 16353.0, "lat_c": 23.687015173017222, "lon_c": 24.682732755502119, "res": 8.0, "count_Flowering Plants": 0, "count_Birds": 0, "count_Mammals": 0, "count_Molluscs": 0, "count_Reptiles": 1, "count_Insects": 0, "count_Amphibians": 0, "count_Arachnids": 0, "count_Basidiomycota": 0, "count_Gymnosperms": 0, "count_Sac Fungi": 0, "count_Ferns": 0, "count_Mosses": 0, "unique_species_count": 1.0, "countryCode": "EG" }, "geometry": { "type": "MultiPolygon", "coordinates": [ [ [ [ 25.197525270348581, 23.902281050300008 ], [ 25.115301853348008, 23.423541972591412 ], [ 24.602246307325558, 23.207718336611318 ], [ 24.169820791345927, 23.469953017806073 ], [ 24.247830871321487, 23.949409366390995 ], [ 24.762546017154268, 24.165926906074205 ], [ 25.197525270348581, 23.902281050300008 ] ] ] ] } },
{ "type": "Feature", "properties": { "geogrid_id": "823706195033853169", "seqnum": 17092.0, "lat_c": 23.706194953451121, "lon_c": 33.853168796441956, "res": 8.0, "count_Flowering Plants": 0, "count_Birds": 6, "count_Mammals": 0, "count_Molluscs": 0, "count_Reptiles": 1, "count_Insects": 1, "count_Amphibians": 0, "count_Arachnids": 0, "count_Basidiomycota": 0, "count_Gymnosperms": 0, "count_Sac Fungi": 0, "count_Ferns": 0, "count_Mosses": 0, "unique_species_count": 8.0, "countryCode": "EG" }, "geometry": { "type": "MultiPolygon", "coordinates": [ [ [ [ 34.388633784559538, 23.890000028705092 ], [ 34.26958564726116, 23.421859123605532 ], [ 33.736262401054695, 23.237241680105097 ], [ 33.319650882923597, 23.520321289097179 ], [ 33.435063315080392, 23.989781004595734 ], [ 33.970760706328527, 24.174851831018191 ], [ 34.388633784559538, 23.890000028705092 ] ] ] ] } },
{ "type": "Feature", "properties": { "geogrid_id": "823802645032901344", "seqnum": 17010.0, "lat_c": 23.802644958189802, "lon_c": 32.901344011903987, "res": 8.0, "count_Flowering Plants": 148, "count_Birds": 207, "count_Mammals": 17, "count_Molluscs": 3, "count_Reptiles": 11, "count_Insects": 66, "count_Amphibians": 2, "count_Arachnids": 4, "count_Basidiomycota": 0, "count_Gymnosperms": 1, "count_Sac Fungi": 0, "count_Ferns": 0, "count_Mosses": 0, "unique_species_count": 459.0, "countryCode": "EG" }, "geometry": { "type": "MultiPolygon", "coordinates": [ [ [ [ 33.435063315080392, 23.989781004595734 ], [ 33.319650882923597, 23.520321289097179 ], [ 32.788053450473988, 23.332401473014674 ], [ 32.369576878300776, 23.613466133184684 ], [ 32.481286338216513, 24.084189024520658 ], [ 33.015214234861133, 24.272593943797919 ], [ 33.435063315080392, 23.989781004595734 ] ] ] ] } },
{ "type": "Feature", "properties": { "geogrid_id": "823893745031949342", "seqnum": 16928.0, "lat_c": 23.893745139299231, "lon_c": 31.949342474895282, "res": 8.0, "count_Flowering Plants": 0, "count_Birds": 0, "count_Mammals": 2, "count_Molluscs": 0, "count_Reptiles": 0, "count_Insects": 0, "count_Amphibians": 0, "count_Arachnids": 0, "count_Basidiomycota": 0, "count_Gymnosperms": 0, "count_Sac Fungi": 0, "count_Ferns": 0, "count_Mosses": 0, "unique_species_count": 2.0, "countryCode": "EG" }, "geometry": { "type": "MultiPolygon", "coordinates": [ [ [ [ 32.481286338216513, 24.084189024520658 ], [ 32.369576878300776, 23.613466133184684 ], [ 31.839734256188112, 23.422266726300979 ], [ 31.419355756305553, 23.701284489140924 ], [ 31.527292999535405, 24.173212989490096 ], [ 32.059421220338805, 24.364928373793777 ], [ 32.481286338216513, 24.084189024520658 ] ] ] ] } },
{ "type": "Feature", "properties": { "geogrid_id": "824109182036430498", "seqnum": 19880.0, "lat_c": 24.109181760602642, "lon_c": 36.430498268659569, "res": 8.0, "count_Flowering Plants": 0, "count_Birds": 1, "count_Mammals": 2, "count_Molluscs": 0, "count_Reptiles": 0, "count_Insects": 0, "count_Amphibians": 0, "count_Arachnids": 0, "count_Basidiomycota": 0, "count_Gymnosperms": 0, "count_Sac Fungi": 0, "count_Ferns": 0, "count_Mosses": 0, "unique_species_count": 3.0, "countryCode": "EG" }, "geometry": { "type": "MultiPolygon", "coordinates": [ [ [ [ 36.558647386652204, 24.5702198484082 ], [ 36.974931645358559, 24.272756253022024 ], [ 36.845677772231817, 23.812411899411085 ], [ 36.302952137264, 23.648250607308032 ], [ 35.887346286831743, 23.943261794704636 ], [ 36.013754831893046, 24.404857234893388 ], [ 36.558647386652204, 24.5702198484082 ] ] ] ] } },
{ "type": "Feature", "properties": { "geogrid_id": "824237130035470145", "seqnum": 19799.0, "lat_c": 24.237130005037393, "lon_c": 35.470144756869935, "res": 8.0, "count_Flowering Plants": 11, "count_Birds": 112, "count_Mammals": 13, "count_Molluscs": 34, "count_Reptiles": 10, "count_Insects": 20, "count_Amphibians": 0, "count_Arachnids": 0, "count_Basidiomycota": 0, "count_Gymnosperms": 1, "count_Sac Fungi": 0, "count_Ferns": 0, "count_Mosses": 0, "unique_species_count": 201.0, "countryCode": "EG" }, "geometry": { "type": "MultiPolygon", "coordinates": [ [ [ [ 35.595380764143833, 24.699367172395018 ], [ 36.013754831893046, 24.404857234893388 ], [ 35.887346286831743, 23.943261794704636 ], [ 35.345460201545528, 23.775001032680454 ], [ 34.927803383843234, 24.067044596101166 ], [ 35.051283527828375, 24.529787539603927 ], [ 35.595380764143833, 24.699367172395018 ] ] ] ] } },
{ "type": "Feature", "properties": { "geogrid_id": "824357835034508461", "seqnum": 19718.0, "lat_c": 24.357834739844183, "lon_c": 34.50846051931223, "res": 8.0, "count_Flowering Plants": 8, "count_Birds": 18, "count_Mammals": 2, "count_Molluscs": 0, "count_Reptiles": 5, "count_Insects": 5, "count_Amphibians": 0, "count_Arachnids": 0, "count_Basidiomycota": 0, "count_Gymnosperms": 0, "count_Sac Fungi": 0, "count_Ferns": 0, "count_Mosses": 0, "unique_species_count": 38.0, "countryCode": "EG" }, "geometry": { "type": "MultiPolygon", "coordinates": [ [ [ [ 34.63070000686713, 24.821169966266215 ], [ 35.051283527828375, 24.529787539603927 ], [ 34.927803383843234, 24.067044596101166 ], [ 34.388633784559538, 23.890000028705092 ], [ 33.970760706328527, 24.174851831018191 ], [ 34.089121600404155, 24.643196695481898 ], [ 34.63070000686713, 24.821169966266215 ] ] ] ] } },
{ "type": "Feature", "properties": { "geogrid_id": "824458937033551151", "seqnum": 17011.0, "lat_c": 24.458937420036673, "lon_c": 33.551151408362635, "res": 8.0, "count_Flowering Plants": 0, "count_Birds": 2, "count_Mammals": 0, "count_Molluscs": 0, "count_Reptiles": 0, "count_Insects": 2, "count_Amphibians": 0, "count_Arachnids": 0, "count_Basidiomycota": 0, "count_Gymnosperms": 0, "count_Sac Fungi": 0, "count_Ferns": 0, "count_Mosses": 0, "unique_species_count": 4.0, "countryCode": "EG" }, "geometry": { "type": "MultiPolygon", "coordinates": [ [ [ [ 34.089121600404155, 24.643196695481898 ], [ 33.970760706328527, 24.174851831018191 ], [ 33.435063315080392, 23.989781004595734 ], [ 33.015214234861133, 24.272593943797919 ], [ 33.129750268988865, 24.742232464790813 ], [ 33.667998828443281, 24.927775774738347 ], [ 34.089121600404155, 24.643196695481898 ] ] ] ] } },
{ "type": "Feature", "properties": { "geogrid_id": "824554609032593565", "seqnum": 16929.0, "lat_c": 24.55460904765285, "lon_c": 32.593565452300012, "res": 8.0, "count_Flowering Plants": 32, "count_Birds": 118, "count_Mammals": 13, "count_Molluscs": 0, "count_Reptiles": 15, "count_Insects": 12, "count_Amphibians": 2, "count_Arachnids": 1, "count_Basidiomycota": 0, "count_Gymnosperms": 0, "count_Sac Fungi": 0, "count_Ferns": 0, "count_Mosses": 0, "unique_species_count": 193.0, "countryCode": "EG" }, "geometry": { "type": "MultiPolygon", "coordinates": [ [ [ [ 33.129750268988865, 24.742232464790813 ], [ 33.015214234861133, 24.272593943797919 ], [ 32.481286338216513, 24.084189024520658 ], [ 32.059421220338805, 24.364928373793777 ], [ 32.170059688570547, 24.835800087247978 ], [ 32.706500545145261, 25.024711194712967 ], [ 33.129750268988865, 24.742232464790813 ] ] ] ] } },
{ "type": "Feature", "properties": { "geogrid_id": "824729605030677513", "seqnum": 16765.0, "lat_c": 24.729604810574266, "lon_c": 30.677513301747748, "res": 8.0, "count_Flowering Plants": 0, "count_Birds": 3, "count_Mammals": 0, "count_Molluscs": 0, "count_Reptiles": 0, "count_Insects": 1, "count_Amphibians": 0, "count_Arachnids": 0, "count_Basidiomycota": 0, "count_Gymnosperms": 0, "count_Sac Fungi": 0, "count_Ferns": 0, "count_Mosses": 0, "unique_species_count": 4.0, "countryCode": "EG" }, "geometry": { "type": "MultiPolygon", "coordinates": [ [ [ [ 31.210035862305215, 24.923884447495794 ], [ 31.103369907634146, 24.451842530787662 ], [ 30.573071709022251, 24.256841054707522 ], [ 30.147046153421115, 24.533322733951675 ], [ 30.249661882716222, 25.006468912393633 ], [ 30.782395983266504, 25.202042501988561 ], [ 31.210035862305215, 24.923884447495794 ] ] ] ] } },
{ "type": "Feature", "properties": { "geogrid_id": "824866566036140765", "seqnum": 19881.0, "lat_c": 24.866565710973504, "lon_c": 36.140764522476346, "res": 8.0, "count_Flowering Plants": 0, "count_Birds": 10, "count_Mammals": 4, "count_Molluscs": 10, "count_Reptiles": 0, "count_Insects": 1, "count_Amphibians": 0, "count_Arachnids": 0, "count_Basidiomycota": 0, "count_Gymnosperms": 0, "count_Sac Fungi": 0, "count_Ferns": 0, "count_Mosses": 0, "unique_species_count": 25.0, "countryCode": "EG" }, "geometry": { "type": "MultiPolygon", "coordinates": [ [ [ [ 36.268423924168474, 25.328397730712371 ], [ 36.687447484642774, 25.031375824890294 ], [ 36.558647386652204, 24.5702198484082 ], [ 36.013754831893046, 24.404857234893388 ], [ 35.595380764143833, 24.699367172395018 ], [ 35.721215119262084, 25.161722880290029 ], [ 36.268423924168474, 25.328397730712371 ] ] ] ] } },
{ "type": "Feature", "properties": { "geogrid_id": "824992644035175311", "seqnum": 19800.0, "lat_c": 24.992644045041651, "lon_c": 35.175310890778235, "res": 8.0, "count_Flowering Plants": 68, "count_Birds": 141, "count_Mammals": 13, "count_Molluscs": 106, "count_Reptiles": 9, "count_Insects": 56, "count_Amphibians": 0, "count_Arachnids": 2, "count_Basidiomycota": 0, "count_Gymnosperms": 0, "count_Sac Fungi": 0, "count_Ferns": 0, "count_Mosses": 0, "unique_species_count": 395.0, "countryCode": "EG" }, "geometry": { "type": "MultiPolygon", "coordinates": [ [ [ [ 35.299932817034104, 25.455624045461786 ], [ 35.721215119262084, 25.161722880290029 ], [ 35.595380764143833, 24.699367172395018 ], [ 35.051283527828375, 24.529787539603927 ], [ 34.63070000686713, 24.821169966266215 ], [ 34.753481508910518, 25.284623613219118 ], [ 35.299932817034104, 25.455624045461786 ] ] ] ] } },
{ "type": "Feature", "properties": { "geogrid_id": "825111216034208333", "seqnum": 19719.0, "lat_c": 25.111215822120947, "lon_c": 34.208332982780298, "res": 8.0, "count_Flowering Plants": 7, "count_Birds": 8, "count_Mammals": 3, "count_Molluscs": 0, "count_Reptiles": 1, "count_Insects": 0, "count_Amphibians": 0, "count_Arachnids": 2, "count_Basidiomycota": 0, "count_Gymnosperms": 0, "count_Sac Fungi": 0, "count_Ferns": 0, "count_Mosses": 0, "unique_species_count": 21.0, "countryCode": "EG" }, "geometry": { "type": "MultiPolygon", "coordinates": [ [ [ [ 34.329830339249241, 25.575244621100129 ], [ 34.753481508910518, 25.284623613219118 ], [ 34.63070000686713, 24.821169966266215 ], [ 34.089121600404155, 24.643196695481898 ], [ 33.667998828443281, 24.927775774738347 ], [ 33.785687226887454, 25.396283199863362 ], [ 34.329830339249241, 25.575244621100129 ] ] ] ] } },
{ "type": "Feature", "properties": { "geogrid_id": "825211547033245036", "seqnum": 16930.0, "lat_c": 25.211546663619259, "lon_c": 33.245035938210208, "res": 8.0, "count_Flowering Plants": 10, "count_Birds": 67, "count_Mammals": 9, "count_Molluscs": 9, "count_Reptiles": 0, "count_Insects": 5, "count_Amphibians": 0, "count_Arachnids": 0, "count_Basidiomycota": 0, "count_Gymnosperms": 0, "count_Sac Fungi": 0, "count_Ferns": 0, "count_Mosses": 0, "unique_species_count": 100.0, "countryCode": "EG" }, "geometry": { "type": "MultiPolygon", "coordinates": [ [ [ [ 33.785687226887454, 25.396283199863362 ], [ 33.667998828443281, 24.927775774738347 ], [ 33.129750268988865, 24.742232464790813 ], [ 32.706500545145261, 25.024711194712967 ], [ 32.820175558100765, 25.494482559343293 ], [ 33.361153003339012, 25.680524568393086 ], [ 33.785687226887454, 25.396283199863362 ] ] ] ] } },
{ "type": "Feature", "properties": { "geogrid_id": "825306346032281344", "seqnum": 16848.0, "lat_c": 25.306346282486544, "lon_c": 32.281344335874451, "res": 8.0, "count_Flowering Plants": 18, "count_Birds": 78, "count_Mammals": 6, "count_Molluscs": 0, "count_Reptiles": 1, "count_Insects": 11, "count_Amphibians": 0, "count_Arachnids": 0, "count_Basidiomycota": 0, "count_Gymnosperms": 0, "count_Sac Fungi": 0, "count_Ferns": 0, "count_Mosses": 0, "unique_species_count": 114.0, "countryCode": "EG" }, "geometry": { "type": "MultiPolygon", "coordinates": [ [ [ [ 32.820175558100765, 25.494482559343293 ], [ 32.706500545145261, 25.024711194712967 ], [ 32.170059688570547, 24.835800087247978 ], [ 31.744638449455561, 25.11613920161172 ], [ 31.854222546356453, 25.587108715741582 ], [ 32.393359176891927, 25.776555053928593 ], [ 32.820175558100765, 25.494482559343293 ] ] ] ] } },
{ "type": "Feature", "properties": { "geogrid_id": "825479278030352709", "seqnum": 16684.0, "lat_c": 25.479278182178412, "lon_c": 30.35270929526207, "res": 8.0, "count_Flowering Plants": 3, "count_Birds": 7, "count_Mammals": 6, "count_Molluscs": 0, "count_Reptiles": 4, "count_Insects": 3, "count_Amphibians": 0, "count_Arachnids": 0, "count_Basidiomycota": 0, "count_Gymnosperms": 0, "count_Sac Fungi": 0, "count_Ferns": 0, "count_Mosses": 0, "unique_species_count": 23.0, "countryCode": "EG" }, "geometry": { "type": "MultiPolygon", "coordinates": [ [ [ [ 30.887809254426404, 25.674141202601309 ], [ 30.782395983266504, 25.202042501988561 ], [ 30.249661882716222, 25.006468912393633 ], [ 29.819752901390206, 25.282401774242892 ], [ 29.920912540834671, 25.755556976870043 ], [ 30.456277881254859, 25.951738885158111 ], [ 30.887809254426404, 25.674141202601309 ] ] ] ] } },
{ "type": "Feature", "properties": { "geogrid_id": "825557368029387722", "seqnum": 16602.0, "lat_c": 25.557367987225579, "lon_c": 29.387722111507646, "res": 8.0, "count_Flowering Plants": 13, "count_Birds": 10, "count_Mammals": 0, "count_Molluscs": 0, "count_Reptiles": 1, "count_Insects": 5, "count_Amphibians": 0, "count_Arachnids": 1, "count_Basidiomycota": 0, "count_Gymnosperms": 0, "count_Sac Fungi": 0, "count_Ferns": 0, "count_Mosses": 0, "unique_species_count": 30.0, "countryCode": "EG" }, "geometry": { "type": "MultiPolygon", "coordinates": [ [ [ [ 29.920912540834671, 25.755556976870043 ], [ 29.819752901390206, 25.282401774242892 ], [ 29.288916868460721, 25.083534786331473 ], [ 28.856684031891241, 25.357194966199646 ], [ 28.953503724415604, 25.831329572159827 ], [ 29.486941013519697, 26.030841957516127 ], [ 29.920912540834671, 25.755556976870043 ] ] ] ] } },
{ "type": "Feature", "properties": { "geogrid_id": "825624207035847697", "seqnum": 19882.0, "lat_c": 25.624207188507732, "lon_c": 35.847696913935927, "res": 8.0, "count_Flowering Plants": 0, "count_Birds": 0, "count_Mammals": 1, "count_Molluscs": 0, "count_Reptiles": 0, "count_Insects": 1, "count_Amphibians": 0, "count_Arachnids": 0, "count_Basidiomycota": 0, "count_Gymnosperms": 0, "count_Sac Fungi": 0, "count_Ferns": 0, "count_Mosses": 0, "unique_species_count": 2.0, "countryCode": "EG" }, "geometry": { "type": "MultiPolygon", "coordinates": [ [ [ [ 35.974877609164359, 26.08682981912138 ], [ 36.396783936286432, 25.790363502747841 ], [ 36.268423924168474, 25.328397730712371 ], [ 35.721215119262084, 25.161722880290029 ], [ 35.299932817034104, 25.455624045461786 ], [ 35.42519887816843, 25.918737153926941 ], [ 35.974877609164359, 26.08682981912138 ] ] ] ] } },
{ "type": "Feature", "properties": { "geogrid_id": "825629840028422250", "seqnum": 16520.0, "lat_c": 25.629840053836126, "lon_c": 28.422250280911967, "res": 8.0, "count_Flowering Plants": 2, "count_Birds": 5, "count_Mammals": 0, "count_Molluscs": 0, "count_Reptiles": 0, "count_Insects": 1, "count_Amphibians": 0, "count_Arachnids": 0, "count_Basidiomycota": 0, "count_Gymnosperms": 0, "count_Sac Fungi": 0, "count_Ferns": 0, "count_Mosses": 0, "unique_species_count": 8.0, "countryCode": "EG" }, "geometry": { "type": "MultiPolygon", "coordinates": [ [ [ [ 28.953503724415604, 25.831329572159827 ], [ 28.856684031891241, 25.357194966199646 ], [ 28.327774636007913, 25.15506057382116 ], [ 27.893157721155919, 25.426396342185669 ], [ 27.985546917046968, 25.901427956246067 ], [ 28.517030366491326, 26.104245731410369 ], [ 28.953503724415604, 25.831329572159827 ] ] ] ] } },
{ "type": "Feature", "properties": { "geogrid_id": "825748205034876853", "seqnum": 19801.0, "lat_c": 25.748205203149631, "lon_c": 34.876852774393541, "res": 8.0, "count_Flowering Plants": 39, "count_Birds": 125, "count_Mammals": 10, "count_Molluscs": 121, "count_Reptiles": 15, "count_Insects": 66, "count_Amphibians": 0, "count_Arachnids": 2, "count_Basidiomycota": 1, "count_Gymnosperms": 0, "count_Sac Fungi": 0, "count_Ferns": 0, "count_Mosses": 0, "unique_species_count": 379.0, "countryCode": "EG" }, "geometry": { "type": "MultiPolygon", "coordinates": [ [ [ [ 35.000863808334778, 26.21192390616223 ], [ 35.42519887816843, 25.918737153926941 ], [ 35.299932817034104, 25.455624045461786 ], [ 34.753481508910518, 25.284623613219118 ], [ 34.329830339249241, 25.575244621100129 ], [ 34.451911617072454, 26.039405345529673 ], [ 35.000863808334778, 26.21192390616223 ] ] ] ] } },
{ "type": "Feature", "properties": { "geogrid_id": "825864449033904296", "seqnum": 19720.0, "lat_c": 25.86444851805026, "lon_c": 33.904296481220534, "res": 8.0, "count_Flowering Plants": 40, "count_Birds": 101, "count_Mammals": 12, "count_Molluscs": 57, "count_Reptiles": 11, "count_Insects": 46, "count_Amphibians": 0, "count_Arachnids": 4, "count_Basidiomycota": 0, "count_Gymnosperms": 0, "count_Sac Fungi": 0, "count_Ferns": 0, "count_Mosses": 0, "unique_species_count": 271.0, "countryCode": "EG" }, "geometry": { "type": "MultiPolygon", "coordinates": [ [ [ [ 34.025047390068487, 26.329166175389673 ], [ 34.451911617072454, 26.039405345529673 ], [ 34.329830339249241, 25.575244621100129 ], [ 33.785687226887454, 25.396283199863362 ], [ 33.361153003339012, 25.680524568393086 ], [ 33.478181408506309, 26.149155891716902 ], [ 34.025047390068487, 26.329166175389673 ] ] ] ] } },
{ "type": "Feature", "properties": { "geogrid_id": "825963912032934672", "seqnum": 16849.0, "lat_c": 25.963912111210412, "lon_c": 32.934672319640406, "res": 8.0, "count_Flowering Plants": 88, "count_Birds": 132, "count_Mammals": 15, "count_Molluscs": 8, "count_Reptiles": 10, "count_Insects": 39, "count_Amphibians": 1, "count_Arachnids": 4, "count_Basidiomycota": 0, "count_Gymnosperms": 1, "count_Sac Fungi": 0, "count_Ferns": 1, "count_Mosses": 0, "unique_species_count": 299.0, "countryCode": "EG" }, "geometry": { "type": "MultiPolygon", "coordinates": [ [ [ [ 33.478181408506309, 26.149155891716902 ], [ 33.361153003339012, 25.680524568393086 ], [ 32.820175558100765, 25.494482559343293 ], [ 32.393359176891927, 25.776555053928593 ], [ 32.506186062976631, 26.246416358633795 ], [ 33.050070798730353, 26.432990491949084 ], [ 33.478181408506309, 26.149155891716902 ] ] ] ] } },
{ "type": "Feature", "properties": { "geogrid_id": "826057734031964527", "seqnum": 16767.0, "lat_c": 26.057734004444079, "lon_c": 31.964527111827145, "res": 8.0, "count_Flowering Plants": 2, "count_Birds": 8, "count_Mammals": 0, "count_Molluscs": 1, "count_Reptiles": 1, "count_Insects": 0, "count_Amphibians": 0, "count_Arachnids": 0, "count_Basidiomycota": 1, "count_Gymnosperms": 0, "count_Sac Fungi": 0, "count_Ferns": 0, "count_Mosses": 0, "unique_species_count": 13.0, "countryCode": "EG" }, "geometry": { "type": "MultiPolygon", "coordinates": [ [ [ [ 32.506186062976631, 26.246416358633795 ], [ 32.393359176891927, 25.776555053928593 ], [ 31.854222546356453, 25.587108715741582 ], [ 31.425074852836367, 25.866967656384571 ], [ 31.533618478034334, 26.337987391008625 ], [ 32.075633971921334, 26.528006059154066 ], [ 32.506186062976631, 26.246416358633795 ] ] ] ] } },
{ "type": "Feature", "properties": { "geogrid_id": "826305094029050729", "seqnum": 16521.0, "lat_c": 26.305093553192652, "lon_c": 29.050728520447677, "res": 8.0, "count_Flowering Plants": 0, "count_Birds": 0, "count_Mammals": 0, "count_Molluscs": 0, "count_Reptiles": 0, "count_Insects": 1, "count_Amphibians": 0, "count_Arachnids": 0, "count_Basidiomycota": 0, "count_Gymnosperms": 0, "count_Sac Fungi": 0, "count_Ferns": 0, "count_Mosses": 0, "unique_species_count": 1.0, "countryCode": "EG" }, "geometry": { "type": "MultiPolygon", "coordinates": [ [ [ [ 29.586662844787874, 26.503947780985065 ], [ 29.486941013519697, 26.030841957516127 ], [ 28.953503724415604, 25.831329572159827 ], [ 28.517030366491326, 26.104245731410369 ], [ 28.61220734851015, 26.578269301182385 ], [ 29.148447469643688, 26.778479469916295 ], [ 29.586662844787874, 26.503947780985065 ] ] ] ] } },
{ "type": "Feature", "properties": { "geogrid_id": "826376073028078233", "seqnum": 16439.0, "lat_c": 26.376072572839007, "lon_c": 28.078233040307634, "res": 8.0, "count_Flowering Plants": 3, "count_Birds": 1, "count_Mammals": 0, "count_Molluscs": 0, "count_Reptiles": 0, "count_Insects": 1, "count_Amphibians": 0, "count_Arachnids": 0, "count_Basidiomycota": 0, "count_Gymnosperms": 0, "count_Sac Fungi": 0, "count_Ferns": 0, "count_Mosses": 0, "unique_species_count": 5.0, "countryCode": "EG" }, "geometry": { "type": "MultiPolygon", "coordinates": [ [ [ [ 28.61220734851015, 26.578269301182385 ], [ 28.517030366491326, 26.104245731410369 ], [ 27.985546917046968, 25.901427956246067 ], [ 27.546503499417639, 26.171913261443521 ], [ 27.637041090817387, 26.646762802338866 ], [ 28.171308235213171, 26.85032357018051 ], [ 28.61220734851015, 26.578269301182385 ] ] ] ] } },
{ "type": "Feature", "properties": { "geogrid_id": "826381993035551161", "seqnum": 19883.0, "lat_c": 26.381992609274501, "lon_c": 35.551161047755365, "res": 8.0, "count_Flowering Plants": 0, "count_Birds": 2, "count_Mammals": 0, "count_Molluscs": 0, "count_Reptiles": 0, "count_Insects": 0, "count_Amphibians": 0, "count_Arachnids": 0, "count_Basidiomycota": 0, "count_Gymnosperms": 0, "count_Sac Fungi": 0, "count_Ferns": 0, "count_Mosses": 0, "unique_species_count": 2.0, "countryCode": "EG" }, "geometry": { "type": "MultiPolygon", "coordinates": [ [ [ [ 35.677873890997354, 26.845399214570715 ], [ 36.102811223600149, 26.549600097316944 ], [ 35.974877609164359, 26.08682981912138 ], [ 35.42519887816843, 25.918737153926941 ], [ 35.000863808334778, 26.21192390616223 ], [ 35.125567047715911, 26.675788483758929 ], [ 35.677873890997354, 26.845399214570715 ] ] ] ] } },
{ "type": "Feature", "properties": { "geogrid_id": "826503707034574627", "seqnum": 19802.0, "lat_c": 26.503706728511574, "lon_c": 34.574627208182626, "res": 8.0, "count_Flowering Plants": 8, "count_Birds": 22, "count_Mammals": 5, "count_Molluscs": 25, "count_Reptiles": 4, "count_Insects": 13, "count_Amphibians": 0, "count_Arachnids": 0, "count_Basidiomycota": 0, "count_Gymnosperms": 0, "count_Sac Fungi": 0, "count_Ferns": 0, "count_Mosses": 0, "unique_species_count": 77.0, "countryCode": "EG" }, "geometry": { "type": "MultiPolygon", "coordinates": [ [ [ [ 34.698029963771042, 26.968157062345917 ], [ 35.125567047715911, 26.675788483758929 ], [ 35.000863808334778, 26.21192390616223 ], [ 34.451911617072454, 26.039405345529673 ], [ 34.025047390068487, 26.329166175389673 ], [ 34.146426042682343, 26.794027617183893 ], [ 34.698029963771042, 26.968157062345917 ] ] ] ] } },
{ "type": "Feature", "properties": { "geogrid_id": "826617432033596200", "seqnum": 19721.0, "lat_c": 26.61743184584579, "lon_c": 33.596199513347202, "res": 8.0, "count_Flowering Plants": 50, "count_Birds": 85, "count_Mammals": 12, "count_Molluscs": 98, "count_Reptiles": 10, "count_Insects": 31, "count_Amphibians": 0, "count_Arachnids": 3, "count_Basidiomycota": 0, "count_Gymnosperms": 0, "count_Sac Fungi": 0, "count_Ferns": 0, "count_Mosses": 0, "unique_species_count": 289.0, "countryCode": "EG" }, "geometry": { "type": "MultiPolygon", "coordinates": [ [ [ [ 33.716198690851265, 27.082831015680043 ], [ 34.146426042682343, 26.794027617183893 ], [ 34.025047390068487, 26.329166175389673 ], [ 33.478181408506309, 26.149155891716902 ], [ 33.050070798730353, 26.432990491949084 ], [ 33.166449342825295, 26.901709830320751 ], [ 33.716198690851265, 27.082831015680043 ] ] ] ] } },
{ "type": "Feature", "properties": { "geogrid_id": "826715922032619905", "seqnum": 16768.0, "lat_c": 26.715921809545659, "lon_c": 32.619904942680414, "res": 8.0, "count_Flowering Plants": 1, "count_Birds": 0, "count_Mammals": 0, "count_Molluscs": 0, "count_Reptiles": 1, "count_Insects": 0, "count_Amphibians": 0, "count_Arachnids": 0, "count_Basidiomycota": 0, "count_Gymnosperms": 0, "count_Sac Fungi": 0, "count_Ferns": 0, "count_Mosses": 0, "unique_species_count": 2.0, "countryCode": "EG" }, "geometry": { "type": "MultiPolygon", "coordinates": [ [ [ [ 33.166449342825295, 26.901709830320751 ], [ 33.050070798730353, 26.432990491949084 ], [ 32.506186062976631, 26.246416358633795 ], [ 32.075633971921334, 26.528006059154066 ], [ 32.187623006259763, 26.99791750726569 ], [ 32.734594106108837, 27.185064488597835 ], [ 33.166449342825295, 26.901709830320751 ] ] ] ] } },
{ "type": "Feature", "properties": { "geogrid_id": "826808648031642955", "seqnum": 16686.0, "lat_c": 26.808648036416212, "lon_c": 31.642954610289731, "res": 8.0, "count_Flowering Plants": 2, "count_Birds": 14, "count_Mammals": 1, "count_Molluscs": 0, "count_Reptiles": 1, "count_Insects": 0, "count_Amphibians": 0, "count_Arachnids": 0, "count_Basidiomycota": 0, "count_Gymnosperms": 0, "count_Sac Fungi": 0, "count_Ferns": 0, "count_Mosses": 0, "unique_species_count": 18.0, "countryCode": "EG" }, "geometry": { "type": "MultiPolygon", "coordinates": [ [ [ [ 32.187623006259763, 26.99791750726569 ], [ 32.075633971921334, 26.528006059154066 ], [ 31.533618478034334, 26.337987391008625 ], [ 31.100571159746, 26.617281161220635 ], [ 31.208085343251703, 27.088307032812256 ], [ 31.753163008311446, 27.27894327833873 ], [ 32.187623006259763, 26.99791750726569 ] ] ] ] } },
{ "type": "Feature", "properties": { "geogrid_id": "826895579030665322", "seqnum": 16604.0, "lat_c": 26.895579059544026, "lon_c": 30.665321783880881, "res": 8.0, "count_Flowering Plants": 0, "count_Birds": 0, "count_Mammals": 0, "count_Molluscs": 0, "count_Reptiles": 2, "count_Insects": 0, "count_Amphibians": 1, "count_Arachnids": 0, "count_Basidiomycota": 0, "count_Gymnosperms": 0, "count_Sac Fungi": 0, "count_Ferns": 0, "count_Mosses": 0, "unique_species_count": 3.0, "countryCode": "EG" }, "geometry": { "type": "MultiPolygon", "coordinates": [ [ [ [ 31.208085343251703, 27.088307032812256 ], [ 31.100571159746, 26.617281161220635 ], [ 30.560454113448181, 26.423841637231181 ], [ 30.124853981486243, 26.70078440513976 ], [ 30.227805696652123, 27.172842440000206 ], [ 30.770962316303898, 27.366945538261501 ], [ 31.208085343251703, 27.088307032812256 ] ] ] ] } },
{ "type": "Feature", "properties": { "geogrid_id": "826976679029686974", "seqnum": 16522.0, "lat_c": 26.976678743775036, "lon_c": 29.686973717641081, "res": 8.0, "count_Flowering Plants": 0, "count_Birds": 7, "count_Mammals": 1, "count_Molluscs": 1, "count_Reptiles": 2, "count_Insects": 1, "count_Amphibians": 2, "count_Arachnids": 2, "count_Basidiomycota": 0, "count_Gymnosperms": 0, "count_Sac Fungi": 1, "count_Ferns": 0, "count_Mosses": 0, "unique_species_count": 17.0, "countryCode": "EG" }, "geometry": { "type": "MultiPolygon", "coordinates": [ [ [ [ 30.227805696652123, 27.172842440000206 ], [ 30.124853981486243, 26.70078440513976 ], [ 29.586662844787874, 26.503947780985065 ], [ 29.148447469643688, 26.778479469916295 ], [ 29.246746394118919, 27.251482038640368 ], [ 29.787956943991013, 27.449030060315899 ], [ 30.227805696652123, 27.172842440000206 ] ] ] ] } },
{ "type": "Feature", "properties": { "geogrid_id": "827121207027727960", "seqnum": 16358.0, "lat_c": 27.121207252733278, "lon_c": 27.727960345576324, "res": 8.0, "count_Flowering Plants": 2, "count_Birds": 0, "count_Mammals": 3, "count_Molluscs": 13, "count_Reptiles": 3, "count_Insects": 1, "count_Amphibians": 0, "count_Arachnids": 0, "count_Basidiomycota": 0, "count_Gymnosperms": 0, "count_Sac Fungi": 0, "count_Ferns": 0, "count_Mosses": 0, "unique_species_count": 22.0, "countryCode": "EG" }, "geometry": { "type": "MultiPolygon", "coordinates": [ [ [ [ 28.264860857299166, 27.324176679847813 ], [ 28.171308235213171, 26.85032357018051 ], [ 27.637041090817387, 26.646762802338866 ], [ 27.19338217810812, 26.916265380923242 ], [ 27.282091256714164, 27.390867423058609 ], [ 27.819349131877697, 27.59524403933132 ], [ 28.264860857299166, 27.324176679847813 ] ] ] ] } },
{ "type": "Feature", "properties": { "geogrid_id": "827259041034268486", "seqnum": 19803.0, "lat_c": 27.259040676585741, "lon_c": 34.268485655251993, "res": 8.0, "count_Flowering Plants": 68, "count_Birds": 195, "count_Mammals": 19, "count_Molluscs": 229, "count_Reptiles": 12, "count_Insects": 75, "count_Amphibians": 0, "count_Arachnids": 2, "count_Basidiomycota": 0, "count_Gymnosperms": 0, "count_Sac Fungi": 0, "count_Ferns": 0, "count_Mosses": 0, "unique_species_count": 600.0, "countryCode": "EG" }, "geometry": { "type": "MultiPolygon", "coordinates": [ [ [ [ 34.391282120294299, 27.724212648975417 ], [ 34.82217538589628, 27.432764133099841 ], [ 34.698029963771042, 26.968157062345917 ], [ 34.146426042682343, 26.794027617183893 ], [ 33.716198690851265, 27.082831015680043 ], [ 33.836871435853965, 27.54838409892519 ], [ 34.391282120294299, 27.724212648975417 ] ] ] ] } },
{ "type": "Feature", "properties": { "geogrid_id": "827370064033283885", "seqnum": 19722.0, "lat_c": 27.37006357235294, "lon_c": 33.283884902412495, "res": 8.0, "count_Flowering Plants": 36, "count_Birds": 135, "count_Mammals": 6, "count_Molluscs": 37, "count_Reptiles": 8, "count_Insects": 30, "count_Amphibians": 0, "count_Arachnids": 2, "count_Basidiomycota": 0, "count_Gymnosperms": 0, "count_Sac Fungi": 0, "count_Ferns": 0, "count_Mosses": 0, "unique_species_count": 254.0, "countryCode": "EG" }, "geometry": { "type": "MultiPolygon", "coordinates": [ [ [ [ 33.403126027548737, 27.836134295851362 ], [ 33.836871435853965, 27.54838409892519 ], [ 33.716198690851265, 27.082831015680043 ], [ 33.166449342825295, 26.901709830320751 ], [ 32.734594106108837, 27.185064488597835 ], [ 32.850330414737051, 27.653838777599603 ], [ 33.403126027548737, 27.836134295851362 ] ] ] ] } },
{ "type": "Feature", "properties": { "geogrid_id": "827467462032300572", "seqnum": 16687.0, "lat_c": 27.467462423417029, "lon_c": 32.300572398877193, "res": 8.0, "count_Flowering Plants": 1, "count_Birds": 1, "count_Mammals": 0, "count_Molluscs": 0, "count_Reptiles": 1, "count_Insects": 1, "count_Amphibians": 0, "count_Arachnids": 0, "count_Basidiomycota": 0, "count_Gymnosperms": 0, "count_Sac Fungi": 0, "count_Ferns": 0, "count_Mosses": 0, "unique_species_count": 4.0, "countryCode": "EG" }, "geometry": { "type": "MultiPolygon", "coordinates": [ [ [ [ 32.850330414737051, 27.653838777599603 ], [ 32.734594106108837, 27.185064488597835 ], [ 32.187623006259763, 26.99791750726569 ], [ 31.753163008311446, 27.27894327833873 ], [ 31.864321698022476, 27.748868224134462 ], [ 32.414558873829485, 27.93663615910123 ], [ 32.850330414737051, 27.653838777599603 ] ] ] ] } },
{ "type": "Feature", "properties": { "geogrid_id": "827558963031316462", "seqnum": 16605.0, "lat_c": 27.558962689533374, "lon_c": 31.316461801542008, "res": 8.0, "count_Flowering Plants": 4, "count_Birds": 42, "count_Mammals": 6, "count_Molluscs": 0, "count_Reptiles": 3, "count_Insects": 2, "count_Amphibians": 0, "count_Arachnids": 0, "count_Basidiomycota": 2, "count_Gymnosperms": 0, "count_Sac Fungi": 0, "count_Ferns": 0, "count_Mosses": 0, "unique_species_count": 59.0, "countryCode": "EG" }, "geometry": { "type": "MultiPolygon", "coordinates": [ [ [ [ 31.864321698022476, 27.748868224134462 ], [ 31.753163008311446, 27.27894327833873 ], [ 31.208085343251703, 27.088307032812256 ], [ 30.770962316303898, 27.366945538261501 ], [ 30.87745505677881, 27.837937009667741 ], [ 31.425778346885405, 28.02924431180643 ], [ 31.864321698022476, 27.748868224134462 ] ] ] ] } },
{ "type": "Feature", "properties": { "geogrid_id": "827644524030331520", "seqnum": 16523.0, "lat_c": 27.644523602587618, "lon_c": 30.331520437807033, "res": 8.0, "count_Flowering Plants": 2, "count_Birds": 0, "count_Mammals": 0, "count_Molluscs": 0, "count_Reptiles": 1, "count_Insects": 0, "count_Amphibians": 0, "count_Arachnids": 0, "count_Basidiomycota": 0, "count_Gymnosperms": 0, "count_Sac Fungi": 0, "count_Ferns": 0, "count_Mosses": 0, "unique_species_count": 3.0, "countryCode": "EG" }, "geometry": { "type": "MultiPolygon", "coordinates": [ [ [ [ 30.87745505677881, 27.837937009667741 ], [ 30.770962316303898, 27.366945538261501 ], [ 30.227805696652123, 27.172842440000206 ], [ 29.787956943991013, 27.449030060315899 ], [ 29.889693365920639, 27.920998629714074 ], [ 30.436077251304795, 28.115825022031881 ], [ 30.87745505677881, 27.837937009667741 ] ] ] ] } },
{ "type": "Feature", "properties": { "geogrid_id": "827724098029345708", "seqnum": 16441.0, "lat_c": 27.724097855451081, "lon_c": 29.345708256720986, "res": 8.0, "count_Flowering Plants": 0, "count_Birds": 0, "count_Mammals": 1, "count_Molluscs": 0, "count_Reptiles": 0, "count_Insects": 0, "count_Amphibians": 0, "count_Arachnids": 0, "count_Basidiomycota": 0, "count_Gymnosperms": 0, "count_Sac Fungi": 0, "count_Ferns": 0, "count_Mosses": 0, "unique_species_count": 1.0, "countryCode": "EG" }, "geometry": { "type": "MultiPolygon", "coordinates": [ [ [ [ 29.889693365920639, 27.920998629714074 ], [ 29.787956943991013, 27.449030060315899 ], [ 29.246746394118919, 27.251482038640368 ], [ 28.804103693660895, 27.525148656914702 ], [ 28.900991041588206, 27.997998688175489 ], [ 29.445413500914789, 28.196325151687304 ], [ 29.889693365920639, 27.920998629714074 ] ] ] ] } },
{ "type": "Feature", "properties": { "geogrid_id": "827797630028358976", "seqnum": 16359.0, "lat_c": 27.797629671255791, "lon_c": 28.358975898916974, "res": 8.0, "count_Flowering Plants": 5, "count_Birds": 2, "count_Mammals": 2, "count_Molluscs": 0, "count_Reptiles": 2, "count_Insects": 6, "count_Amphibians": 0, "count_Arachnids": 0, "count_Basidiomycota": 0, "count_Gymnosperms": 0, "count_Sac Fungi": 0, "count_Ferns": 0, "count_Mosses": 0, "unique_species_count": 17.0, "countryCode": "EG" }, "geometry": { "type": "MultiPolygon", "coordinates": [ [ [ [ 28.900991041588206, 27.997998688175489 ], [ 28.804103693660895, 27.525148656914702 ], [ 28.264860857299166, 27.324176679847813 ], [ 27.819349131877697, 27.59524403933132 ], [ 27.911291889706245, 28.068872554294177 ], [ 28.453735379456319, 28.270682074072429 ], [ 28.900991041588206, 27.997998688175489 ] ] ] ] } },
{ "type": "Feature", "properties": { "geogrid_id": "827897535034947122", "seqnum": 19885.0, "lat_c": 27.897535146836066, "lon_c": 34.947121835274132, "res": 8.0, "count_Flowering Plants": 0, "count_Birds": 7, "count_Mammals": 1, "count_Molluscs": 2, "count_Reptiles": 2, "count_Insects": 0, "count_Amphibians": 0, "count_Arachnids": 0, "count_Basidiomycota": 0, "count_Gymnosperms": 0, "count_Sac Fungi": 0, "count_Ferns": 0, "count_Mosses": 0, "unique_species_count": 12.0, "countryCode": "EG" }, "geometry": { "type": "MultiPolygon", "coordinates": [ [ [ [ 35.072930756831688, 28.362476646436605 ], [ 35.504394967975742, 28.068337554534057 ], [ 35.377273211020061, 27.603987875615708 ], [ 34.82217538589628, 27.432764133099841 ], [ 34.391282120294299, 27.724212648975417 ], [ 34.514874215102459, 28.189550216657508 ], [ 35.072930756831688, 28.362476646436605 ] ] ] ] } },
{ "type": "Feature", "properties": { "geogrid_id": "828014098033958274", "seqnum": 19804.0, "lat_c": 28.014097914417306, "lon_c": 33.958273979458532, "res": 8.0, "count_Flowering Plants": 103, "count_Birds": 163, "count_Mammals": 15, "count_Molluscs": 170, "count_Reptiles": 13, "count_Insects": 71, "count_Amphibians": 1, "count_Arachnids": 3, "count_Basidiomycota": 1, "count_Gymnosperms": 0, "count_Sac Fungi": 0, "count_Ferns": 0, "count_Mosses": 0, "unique_species_count": 540.0, "countryCode": "EG" }, "geometry": { "type": "MultiPolygon", "coordinates": [ [ [ [ 34.080465460858257, 28.47997863757454 ], [ 34.514874215102459, 28.189550216657508 ], [ 34.391282120294299, 27.724212648975417 ], [ 33.836871435853965, 27.54838409892519 ], [ 33.403126027548737, 27.836134295851362 ], [ 33.523088634380628, 28.30236725068908 ], [ 34.080465460858257, 28.47997863757454 ] ] ] ] } },
{ "type": "Feature", "properties": { "geogrid_id": "828122240032967190", "seqnum": 19723.0, "lat_c": 28.122240202789023, "lon_c": 32.967189518575623, "res": 8.0, "count_Flowering Plants": 16, "count_Birds": 59, "count_Mammals": 1, "count_Molluscs": 19, "count_Reptiles": 13, "count_Insects": 11, "count_Amphibians": 0, "count_Arachnids": 2, "count_Basidiomycota": 0, "count_Gymnosperms": 0, "count_Sac Fungi": 0, "count_Ferns": 0, "count_Mosses": 0, "unique_species_count": 121.0, "countryCode": "EG" }, "geometry": { "type": "MultiPolygon", "coordinates": [ [ [ [ 33.085665158361635, 28.588969930083135 ], [ 33.523088634380628, 28.30236725068908 ], [ 33.403126027548737, 27.836134295851362 ], [ 32.850330414737051, 27.653838777599603 ], [ 32.414558873829485, 27.93663615910123 ], [ 32.529657917106526, 28.405435188652024 ], [ 33.085665158361635, 28.588969930083135 ] ] ] ] } },
{ "type": "Feature", "properties": { "geogrid_id": "828218419031976507", "seqnum": 16606.0, "lat_c": 28.218419231388374, "lon_c": 31.976507214045984, "res": 8.0, "count_Flowering Plants": 0, "count_Birds": 0, "count_Mammals": 0, "count_Molluscs": 0, "count_Reptiles": 1, "count_Insects": 1, "count_Amphibians": 0, "count_Arachnids": 0, "count_Basidiomycota": 0, "count_Gymnosperms": 0, "count_Sac Fungi": 0, "count_Ferns": 0, "count_Mosses": 0, "unique_species_count": 2.0, "countryCode": "EG" }, "geometry": { "type": "MultiPolygon", "coordinates": [ [ [ [ 32.529657917106526, 28.405435188652024 ], [ 32.414558873829485, 27.93663615910123 ], [ 31.864321698022476, 27.748868224134462 ], [ 31.425778346885405, 28.02924431180643 ], [ 31.536111269110844, 28.499149299808423 ], [ 32.089794826855865, 28.687593753338021 ], [ 32.529657917106526, 28.405435188652024 ] ] ] ] } },
{ "type": "Feature", "properties": { "geogrid_id": "828308551030984878", "seqnum": 16524.0, "lat_c": 28.308550767735962, "lon_c": 30.984877544688448, "res": 8.0, "count_Flowering Plants": 4, "count_Birds": 13, "count_Mammals": 2, "count_Molluscs": 0, "count_Reptiles": 2, "count_Insects": 2, "count_Amphibians": 0, "count_Arachnids": 0, "count_Basidiomycota": 0, "count_Gymnosperms": 0, "count_Sac Fungi": 0, "count_Ferns": 0, "count_Mosses": 0, "unique_species_count": 23.0, "countryCode": "EG" }, "geometry": { "type": "MultiPolygon", "coordinates": [ [ [ [ 31.536111269110844, 28.499149299808423 ], [ 31.425778346885405, 28.02924431180643 ], [ 30.87745505677881, 27.837937009667741 ], [ 30.436077251304795, 28.115825022031881 ], [ 30.541553340533262, 28.58674514626642 ], [ 31.093305766192326, 28.778785291636847 ], [ 31.536111269110844, 28.499149299808423 ] ] ] ] } },
{ "type": "Feature", "properties": { "geogrid_id": "828470455028998612", "seqnum": 16360.0, "lat_c": 28.470454580297528, "lon_c": 28.998611984010473, "res": 8.0, "count_Flowering Plants": 4, "count_Birds": 13, "count_Mammals": 5, "count_Molluscs": 0, "count_Reptiles": 2, "count_Insects": 11, "count_Amphibians": 1, "count_Arachnids": 0, "count_Basidiomycota": 0, "count_Gymnosperms": 0, "count_Sac Fungi": 0, "count_Ferns": 0, "count_Mosses": 0, "unique_species_count": 36.0, "countryCode": "EG" }, "geometry": { "type": "MultiPolygon", "coordinates": [ [ [ [ 29.545940365300044, 28.66816357703399 ], [ 29.445413500914789, 28.196325151687304 ], [ 28.900991041588206, 27.997998688175489 ], [ 28.453735379456319, 28.270682074072429 ], [ 28.549218704102131, 28.743334933796543 ], [ 29.097044242189821, 28.942517309627146 ], [ 29.545940365300044, 28.66816357703399 ] ] ] ] } },
{ "type": "Feature", "properties": { "geogrid_id": "828655059034639324", "seqnum": 19886.0, "lat_c": 28.655059364181852, "lon_c": 34.639323827841622, "res": 8.0, "count_Flowering Plants": 63, "count_Birds": 80, "count_Mammals": 11, "count_Molluscs": 328, "count_Reptiles": 14, "count_Insects": 50, "count_Amphibians": 0, "count_Arachnids": 2, "count_Basidiomycota": 0, "count_Gymnosperms": 0, "count_Sac Fungi": 0, "count_Ferns": 0, "count_Mosses": 0, "unique_species_count": 548.0, "countryCode": "EG" }, "geometry": { "type": "MultiPolygon", "coordinates": [ [ [ [ 34.764696203007524, 29.120745283107585 ], [ 35.199666924777127, 28.827594417813842 ], [ 35.072930756831688, 28.362476646436605 ], [ 34.514874215102459, 28.189550216657508 ], [ 34.080465460858257, 28.47997863757454 ], [ 34.203508153817268, 28.946031714517314 ], [ 34.764696203007524, 29.120745283107585 ] ] ] ] } },
{ "type": "Feature", "properties": { "geogrid_id": "828768768033643832", "seqnum": 19805.0, "lat_c": 28.768768123574734, "lon_c": 33.64383216948751, "res": 8.0, "count_Flowering Plants": 105, "count_Birds": 42, "count_Mammals": 9, "count_Molluscs": 4, "count_Reptiles": 12, "count_Insects": 16, "count_Amphibians": 0, "count_Arachnids": 2, "count_Basidiomycota": 0, "count_Gymnosperms": 1, "count_Sac Fungi": 0, "count_Ferns": 0, "count_Mosses": 0, "unique_species_count": 191.0, "countryCode": "EG" }, "geometry": { "type": "MultiPolygon", "coordinates": [ [ [ [ 33.765419234861959, 29.235341843346152 ], [ 34.203508153817268, 28.946031714517314 ], [ 34.080465460858257, 28.47997863757454 ], [ 33.523088634380628, 28.30236725068908 ], [ 33.085665158361635, 28.588969930083135 ], [ 33.204912377176989, 29.055868318090464 ], [ 33.765419234861959, 29.235341843346152 ] ] ] ] } },
{ "type": "Feature", "properties": { "geogrid_id": "828873857032645944", "seqnum": 19724.0, "lat_c": 28.873856967614177, "lon_c": 32.645943986709746, "res": 8.0, "count_Flowering Plants": 6, "count_Birds": 46, "count_Mammals": 4, "count_Molluscs": 16, "count_Reptiles": 3, "count_Insects": 5, "count_Amphibians": 0, "count_Arachnids": 1, "count_Basidiomycota": 0, "count_Gymnosperms": 0, "count_Sac Fungi": 0, "count_Ferns": 0, "count_Mosses": 0, "unique_species_count": 81.0, "countryCode": "EG" }, "geometry": { "type": "MultiPolygon", "coordinates": [ [ [ [ 32.763645516632494, 29.341230582943457 ], [ 33.204912377176989, 29.055868318090464 ], [ 33.085665158361635, 28.588969930083135 ], [ 32.529657917106526, 28.405435188652024 ], [ 32.089794826855865, 28.687593753338021 ], [ 32.204258757090727, 29.156390199304802 ], [ 32.763645516632494, 29.341230582943457 ] ] ] ] } },
{ "type": "Feature", "properties": { "geogrid_id": "829057284030648024", "seqnum": 16443.0, "lat_c": 29.057283569535276, "lon_c": 30.648024325426913, "res": 8.0, "count_Flowering Plants": 25, "count_Birds": 102, "count_Mammals": 12, "count_Molluscs": 2, "count_Reptiles": 12, "count_Insects": 23, "count_Amphibians": 1, "count_Arachnids": 1, "count_Basidiomycota": 0, "count_Gymnosperms": 0, "count_Sac Fungi": 1, "count_Ferns": 0, "count_Mosses": 0, "unique_species_count": 179.0, "countryCode": "EG" }, "geometry": { "type": "MultiPolygon", "coordinates": [ [ [ [ 31.202814391973622, 29.248640090945759 ], [ 31.093305766192326, 28.778785291636847 ], [ 30.541553340533262, 28.58674514626642 ], [ 30.095738632868013, 28.863782270186672 ], [ 30.20019946540733, 29.334597728043246 ], [ 30.755564485539072, 29.527440878011799 ], [ 31.202814391973622, 29.248640090945759 ] ] ] ] } },
{ "type": "Feature", "properties": { "geogrid_id": "829139614029647365", "seqnum": 16361.0, "lat_c": 29.139614006926411, "lon_c": 29.647365175478654, "res": 8.0, "count_Flowering Plants": 1, "count_Birds": 2, "count_Mammals": 2, "count_Molluscs": 0, "count_Reptiles": 0, "count_Insects": 0, "count_Amphibians": 0, "count_Arachnids": 0, "count_Basidiomycota": 0, "count_Gymnosperms": 0, "count_Sac Fungi": 0, "count_Ferns": 0, "count_Mosses": 0, "unique_species_count": 5.0, "countryCode": "EG" }, "geometry": { "type": "MultiPolygon", "coordinates": [ [ [ [ 30.20019946540733, 29.334597728043246 ], [ 30.095738632868013, 28.863782270186672 ], [ 29.545940365300044, 28.66816357703399 ], [ 29.097044242189821, 28.942517309627146 ], [ 29.196363591230401, 29.414189023510847 ], [ 29.749762615719273, 29.610678371364973 ], [ 30.20019946540733, 29.334597728043246 ] ] ] ] } },
{ "type": "Feature", "properties": { "geogrid_id": "829292893035327399", "seqnum": 19968.0, "lat_c": 29.292893384136949, "lon_c": 35.327398709123379, "res": 8.0, "count_Flowering Plants": 6, "count_Birds": 17, "count_Mammals": 4, "count_Molluscs": 21, "count_Reptiles": 2, "count_Insects": 0, "count_Amphibians": 0, "count_Arachnids": 1, "count_Basidiomycota": 0, "count_Gymnosperms": 0, "count_Sac Fungi": 0, "count_Ferns": 0, "count_Mosses": 0, "unique_species_count": 51.0, "countryCode": "EG" }, "geometry": { "type": "MultiPolygon", "coordinates": [ [ [ [ 35.456198365812405, 29.758377486513755 ], [ 35.891617370478677, 29.462460557387448 ], [ 35.761497312294658, 28.997568784538029 ], [ 35.199666924777127, 28.827594417813842 ], [ 34.764696203007524, 29.120745283107585 ], [ 34.891060208145497, 29.586612264872066 ], [ 35.456198365812405, 29.758377486513755 ] ] ] ] } },
{ "type": "Feature", "properties": { "geogrid_id": "829404379025631943", "seqnum": 16033.0, "lat_c": 29.404378658216977, "lon_c": 25.631943176009017, "res": 8.0, "count_Flowering Plants": 9, "count_Birds": 21, "count_Mammals": 8, "count_Molluscs": 3, "count_Reptiles": 4, "count_Insects": 23, "count_Amphibians": 1, "count_Arachnids": 2, "count_Basidiomycota": 0, "count_Gymnosperms": 0, "count_Sac Fungi": 0, "count_Ferns": 0, "count_Mosses": 0, "unique_species_count": 71.0, "countryCode": "EG" }, "geometry": { "type": "MultiPolygon", "coordinates": [ [ [ [ 26.176842217845603, 29.613794985774888 ], [ 26.0935229427031, 29.140266213872682 ], [ 25.551663166315954, 28.930440093787794 ], [ 25.089562817371498, 29.192966414038551 ], [ 25.167352378536812, 29.666840419603197 ], [ 25.712815714651423, 29.877883486816678 ], [ 26.176842217845603, 29.613794985774888 ] ] ] ] } },
{ "type": "Feature", "properties": { "geogrid_id": "829412262034327468", "seqnum": 19887.0, "lat_c": 29.412261765715247, "lon_c": 34.327467712357588, "res": 8.0, "count_Flowering Plants": 12, "count_Birds": 8, "count_Mammals": 3, "count_Molluscs": 34, "count_Reptiles": 4, "count_Insects": 4, "count_Amphibians": 0, "count_Arachnids": 0, "count_Basidiomycota": 0, "count_Gymnosperms": 0, "count_Sac Fungi": 0, "count_Ferns": 0, "count_Mosses": 0, "unique_species_count": 65.0, "countryCode": "EG" }, "geometry": { "type": "MultiPolygon", "coordinates": [ [ [ [ 34.452413437509961, 29.878672477858181 ], [ 34.891060208145497, 29.586612264872066 ], [ 34.764696203007524, 29.120745283107585 ], [ 34.203508153817268, 28.946031714517314 ], [ 33.765419234861959, 29.235341843346152 ], [ 33.887915833679344, 29.70209248380829 ], [ 34.452413437509961, 29.878672477858181 ] ] ] ] } },
{ "type": "Feature", "properties": { "geogrid_id": "829522940033324994", "seqnum": 19806.0, "lat_c": 29.522939800479985, "lon_c": 33.324994048105005, "res": 8.0, "count_Flowering Plants": 0, "count_Birds": 0, "count_Mammals": 0, "count_Molluscs": 4, "count_Reptiles": 1, "count_Insects": 0, "count_Amphibians": 0, "count_Arachnids": 0, "count_Basidiomycota": 0, "count_Gymnosperms": 0, "count_Sac Fungi": 0, "count_Ferns": 0, "count_Mosses": 0, "unique_species_count": 5.0, "countryCode": "EG" }, "geometry": { "type": "MultiPolygon", "coordinates": [ [ [ [ 33.445976463442143, 29.990187929688247 ], [ 33.887915833679344, 29.70209248380829 ], [ 33.765419234861959, 29.235341843346152 ], [ 33.204912377176989, 29.055868318090464 ], [ 32.763645516632494, 29.341230582943457 ], [ 32.882171002421821, 29.808777326030974 ], [ 33.445976463442143, 29.990187929688247 ] ] ] ] } },
{ "type": "Feature", "properties": { "geogrid_id": "829624808032319972", "seqnum": 19725.0, "lat_c": 29.624807806262226, "lon_c": 32.319972378857699, "res": 8.0, "count_Flowering Plants": 9, "count_Birds": 50, "count_Mammals": 6, "count_Molluscs": 56, "count_Reptiles": 8, "count_Insects": 12, "count_Amphibians": 0, "count_Arachnids": 0, "count_Basidiomycota": 0, "count_Gymnosperms": 1, "count_Sac Fungi": 0, "count_Ferns": 0, "count_Mosses": 0, "unique_species_count": 142.0, "countryCode": "EG" }, "geometry": { "type": "MultiPolygon", "coordinates": [ [ [ [ 32.436889897987477, 30.092807656325281 ], [ 32.882171002421821, 29.808777326030974 ], [ 32.763645516632494, 29.341230582943457 ], [ 32.204258757090727, 29.156390199304802 ], [ 31.760125172508612, 29.437824158778238 ], [ 31.873953147396715, 29.906593610415158 ], [ 32.436889897987477, 30.092807656325281 ] ] ] ] } },
{ "type": "Feature", "properties": { "geogrid_id": "829718116031313477", "seqnum": 16444.0, "lat_c": 29.718115566564652, "lon_c": 31.313477000958599, "res": 8.0, "count_Flowering Plants": 234, "count_Birds": 128, "count_Mammals": 32, "count_Molluscs": 28, "count_Reptiles": 48, "count_Insects": 239, "count_Amphibians": 5, "count_Arachnids": 21, "count_Basidiomycota": 11, "count_Gymnosperms": 2, "count_Sac Fungi": 6, "count_Ferns": 1, "count_Mosses": 1, "unique_species_count": 756.0, "countryCode": "EG" }, "geometry": { "type": "MultiPolygon", "coordinates": [ [ [ [ 31.873953147396715, 29.906593610415158 ], [ 31.760125172508612, 29.437824158778238 ], [ 31.202814391973622, 29.248640090945759 ], [ 30.755564485539072, 29.527440878011799 ], [ 30.864246988453882, 29.997218511460662 ], [ 31.42536629154112, 30.187212885598875 ], [ 31.873953147396715, 29.906593610415158 ] ] ] ] } },
{ "type": "Feature", "properties": { "geogrid_id": "829805031030305718", "seqnum": 16362.0, "lat_c": 29.805030886676761, "lon_c": 30.305717982548412, "res": 8.0, "count_Flowering Plants": 1, "count_Birds": 44, "count_Mammals": 5, "count_Molluscs": 1, "count_Reptiles": 4, "count_Insects": 2, "count_Amphibians": 0, "count_Arachnids": 0, "count_Basidiomycota": 0, "count_Gymnosperms": 0, "count_Sac Fungi": 0, "count_Ferns": 0, "count_Mosses": 0, "unique_species_count": 57.0, "countryCode": "EG" }, "geometry": { "type": "MultiPolygon", "coordinates": [ [ [ [ 30.864246988453882, 29.997218511460662 ], [ 30.755564485539072, 29.527440878011799 ], [ 30.20019946540733, 29.334597728043246 ], [ 29.749762615719273, 29.610678371364973 ], [ 29.85320598262755, 30.081359502594086 ], [ 30.412366875632422, 30.275084252233036 ], [ 30.864246988453882, 29.997218511460662 ] ] ] ] } },
{ "type": "Feature", "properties": { "geogrid_id": "829885473029296644", "seqnum": 16280.0, "lat_c": 29.885472870517543, "lon_c": 29.296644137783058, "res": 8.0, "count_Flowering Plants": 0, "count_Birds": 1, "count_Mammals": 9, "count_Molluscs": 0, "count_Reptiles": 0, "count_Insects": 0, "count_Amphibians": 0, "count_Arachnids": 0, "count_Basidiomycota": 0, "count_Gymnosperms": 0, "count_Sac Fungi": 0, "count_Ferns": 0, "count_Mosses": 0, "unique_species_count": 10.0, "countryCode": "EG" }, "geometry": { "type": "MultiPolygon", "coordinates": [ [ [ [ 29.85320598262755, 30.081359502594086 ], [ 29.749762615719273, 29.610678371364973 ], [ 29.196363591230401, 29.414189023510847 ], [ 28.742663394985481, 29.687452518009348 ], [ 28.840773355454477, 30.158925097688602 ], [ 29.397958578934986, 30.356372849852455 ], [ 29.85320598262755, 30.081359502594086 ] ] ] ] } },
{ "type": "Feature", "properties": { "geogrid_id": "829959346028286193", "seqnum": 16198.0, "lat_c": 29.959345924948416, "lon_c": 28.2861930273551, "res": 8.0, "count_Flowering Plants": 0, "count_Birds": 0, "count_Mammals": 1, "count_Molluscs": 0, "count_Reptiles": 0, "count_Insects": 0, "count_Amphibians": 0, "count_Arachnids": 0, "count_Basidiomycota": 0, "count_Gymnosperms": 0, "count_Sac Fungi": 0, "count_Ferns": 0, "count_Mosses": 0, "unique_species_count": 1.0, "countryCode": "EG" }, "geometry": { "type": "MultiPolygon", "coordinates": [ [ [ [ 28.840773355454477, 30.158925097688602 ], [ 28.742663394985481, 29.687452518009348 ], [ 28.191245169742007, 29.487326284740199 ], [ 27.734198197662057, 29.757663162537771 ], [ 27.826879901212905, 30.229806591862356 ], [ 28.38207859706819, 30.430975135406889 ], [ 28.840773355454477, 30.158925097688602 ] ] ] ] } },
{ "type": "Feature", "properties": { "geogrid_id": "830052664035018489", "seqnum": 19969.0, "lat_c": 30.052663580246733, "lon_c": 35.018488623927318, "res": 8.0, "count_Flowering Plants": 3, "count_Birds": 2, "count_Mammals": 1, "count_Molluscs": 0, "count_Reptiles": 0, "count_Insects": 0, "count_Amphibians": 0, "count_Arachnids": 0, "count_Basidiomycota": 0, "count_Gymnosperms": 0, "count_Sac Fungi": 0, "count_Ferns": 0, "count_Mosses": 0, "unique_species_count": 6.0, "countryCode": "EG" }, "geometry": { "type": "MultiPolygon", "coordinates": [ [ [ [ 35.147058459905651, 30.518901343656019 ], [ 35.586142352818037, 30.224049549352571 ], [ 35.456198365812405, 29.758377486513755 ], [ 34.891060208145497, 29.586612264872066 ], [ 34.452413437509961, 29.878672477858181 ], [ 34.57841856717836, 30.345266482476838 ], [ 35.147058459905651, 30.518901343656019 ] ] ] ] } },
{ "type": "Feature", "properties": { "geogrid_id": "830086903026260837", "seqnum": 16034.0, "lat_c": 30.086903016576002, "lon_c": 26.260837383046812, "res": 8.0, "count_Flowering Plants": 0, "count_Birds": 3, "count_Mammals": 0, "count_Molluscs": 0, "count_Reptiles": 0, "count_Insects": 0, "count_Amphibians": 0, "count_Arachnids": 0, "count_Basidiomycota": 0, "count_Gymnosperms": 0, "count_Sac Fungi": 0, "count_Ferns": 0, "count_Mosses": 0, "unique_species_count": 3.0, "countryCode": "EG" }, "geometry": { "type": "MultiPolygon", "coordinates": [ [ [ [ 26.81144127130699, 30.293873134541325 ], [ 26.724283143098226, 29.821189439351691 ], [ 26.176842217845603, 29.613794985774888 ], [ 25.712815714651423, 29.877883486816678 ], [ 25.79435472876829, 30.35096513645582 ], [ 26.345581141709399, 30.559600066176888 ], [ 26.81144127130699, 30.293873134541325 ] ] ] ] } },
{ "type": "Feature", "properties": { "geogrid_id": "830169023034011392", "seqnum": 19888.0, "lat_c": 30.169023154940366, "lon_c": 34.011391636932878, "res": 8.0, "count_Flowering Plants": 0, "count_Birds": 0, "count_Mammals": 0, "count_Molluscs": 0, "count_Reptiles": 0, "count_Insects": 1, "count_Amphibians": 0, "count_Arachnids": 0, "count_Basidiomycota": 0, "count_Gymnosperms": 2, "count_Sac Fungi": 0, "count_Ferns": 0, "count_Mosses": 0, "unique_species_count": 3.0, "countryCode": "EG" }, "geometry": { "type": "MultiPolygon", "coordinates": [ [ [ [ 34.135920272938826, 30.63613588104262 ], [ 34.57841856717836, 30.345266482476838 ], [ 34.452413437509961, 29.878672477858181 ], [ 33.887915833679344, 29.70209248380829 ], [ 33.445976463442143, 29.990187929688247 ], [ 33.567929601083996, 30.457615267772027 ], [ 34.135920272938826, 30.63613588104262 ] ] ] ] } },
{ "type": "Feature", "properties": { "geogrid_id": "830276500033001587", "seqnum": 19807.0, "lat_c": 30.276500253854934, "lon_c": 33.001586965750924, "res": 8.0, "count_Flowering Plants": 0, "count_Birds": 4, "count_Mammals": 1, "count_Molluscs": 2, "count_Reptiles": 0, "count_Insects": 8, "count_Amphibians": 0, "count_Arachnids": 0, "count_Basidiomycota": 0, "count_Gymnosperms": 0, "count_Sac Fungi": 0, "count_Ferns": 0, "count_Mosses": 0, "unique_species_count": 15.0, "countryCode": "EG" }, "geometry": { "type": "MultiPolygon", "coordinates": [ [ [ [ 33.121963628754109, 30.744401409822665 ], [ 33.567929601083996, 30.457615267772027 ], [ 33.445976463442143, 29.990187929688247 ], [ 32.882171002421821, 29.808777326030974 ], [ 32.436889897987477, 30.092807656325281 ], [ 32.55468612955508, 30.560983069141358 ], [ 33.121963628754109, 30.744401409822665 ] ] ] ] } },
{ "type": "Feature", "properties": { "geogrid_id": "830374985031989092", "seqnum": 19726.0, "lat_c": 30.374985347445413, "lon_c": 31.989091890511784, "res": 8.0, "count_Flowering Plants": 44, "count_Birds": 50, "count_Mammals": 10, "count_Molluscs": 34, "count_Reptiles": 10, "count_Insects": 45, "count_Amphibians": 1, "count_Arachnids": 9, "count_Basidiomycota": 0, "count_Gymnosperms": 0, "count_Sac Fungi": 0, "count_Ferns": 0, "count_Mosses": 0, "unique_species_count": 203.0, "countryCode": "EG" }, "geometry": { "type": "MultiPolygon", "coordinates": [ [ [ [ 32.105214130872497, 30.843591272936546 ], [ 32.55468612955508, 30.560983069141358 ], [ 32.436889897987477, 30.092807656325281 ], [ 31.873953147396715, 29.906593610415158 ], [ 31.42536629154112, 30.187212885598875 ], [ 31.538554281712621, 30.655933868626867 ], [ 32.105214130872497, 30.843591272936546 ] ] ] ] } },
{ "type": "Feature", "properties": { "geogrid_id": "830466619030974144", "seqnum": 16363.0, "lat_c": 30.466618639113719, "lon_c": 30.974144105157613, "res": 8.0, "count_Flowering Plants": 24, "count_Birds": 56, "count_Mammals": 9, "count_Molluscs": 12, "count_Reptiles": 18, "count_Insects": 41, "count_Amphibians": 3, "count_Arachnids": 5, "count_Basidiomycota": 4, "count_Gymnosperms": 1, "count_Sac Fungi": 2, "count_Ferns": 0, "count_Mosses": 0, "unique_species_count": 175.0, "countryCode": "EG" }, "geometry": { "type": "MultiPolygon", "coordinates": [ [ [ [ 31.538554281712621, 30.655933868626867 ], [ 31.42536629154112, 30.187212885598875 ], [ 30.864246988453882, 29.997218511460662 ], [ 30.412366875632422, 30.275084252233036 ], [ 30.520217924017675, 30.744761020138569 ], [ 31.085327413846244, 30.935644048139558 ], [ 31.538554281712621, 30.655933868626867 ] ] ] ] } },
{ "type": "Feature", "properties": { "geogrid_id": "830551661029957767", "seqnum": 16281.0, "lat_c": 30.551660999406902, "lon_c": 29.957767422818119, "res": 8.0, "count_Flowering Plants": 11, "count_Birds": 8, "count_Mammals": 12, "count_Molluscs": 1, "count_Reptiles": 7, "count_Insects": 3, "count_Amphibians": 4, "count_Arachnids": 0, "count_Basidiomycota": 0, "count_Gymnosperms": 0, "count_Sac Fungi": 2, "count_Ferns": 0, "count_Mosses": 0, "unique_species_count": 48.0, "countryCode": "EG" }, "geometry": { "type": "MultiPolygon", "coordinates": [ [ [ [ 30.520217924017675, 30.744761020138569 ], [ 30.412366875632422, 30.275084252233036 ], [ 29.85320598262755, 30.081359502594086 ], [ 29.397958578934986, 30.356372849852455 ], [ 29.500378444397796, 30.826893677639578 ], [ 30.063518156396636, 31.021587106106374 ], [ 30.520217924017675, 30.744761020138569 ] ] ] ] } },
{ "type": "Feature", "properties": { "geogrid_id": "830630014028939905", "seqnum": 16199.0, "lat_c": 30.630013528540132, "lon_c": 28.939904896182949, "res": 8.0, "count_Flowering Plants": 30, "count_Birds": 31, "count_Mammals": 10, "count_Molluscs": 5, "count_Reptiles": 5, "count_Insects": 17, "count_Amphibians": 1, "count_Arachnids": 1, "count_Basidiomycota": 0, "count_Gymnosperms": 0, "count_Sac Fungi": 0, "count_Ferns": 0, "count_Mosses": 0, "unique_species_count": 100.0, "countryCode": "EG" }, "geometry": { "type": "MultiPolygon", "coordinates": [ [ [ [ 29.500378444397796, 30.826893677639578 ], [ 29.397958578934986, 30.356372849852455 ], [ 28.840773355454477, 30.158925097688602 ], [ 28.38207859706819, 30.430975135406889 ], [ 28.478973140665946, 30.90222032797119 ], [ 29.040128854011492, 31.100723666745473 ], [ 29.500378444397796, 30.826893677639578 ] ] ] ] } },
{ "type": "Feature", "properties": { "geogrid_id": "830701559027920487", "seqnum": 16117.0, "lat_c": 30.70155895785437, "lon_c": 27.920487250871716, "res": 8.0, "count_Flowering Plants": 3, "count_Birds": 8, "count_Mammals": 0, "count_Molluscs": 0, "count_Reptiles": 0, "count_Insects": 2, "count_Amphibians": 0, "count_Arachnids": 0, "count_Basidiomycota": 0, "count_Gymnosperms": 0, "count_Sac Fungi": 0, "count_Ferns": 0, "count_Mosses": 0, "unique_species_count": 13.0, "countryCode": "EG" }, "geometry": { "type": "MultiPolygon", "coordinates": [ [ [ [ 28.478973140665946, 30.90222032797119 ], [ 28.38207859706819, 30.430975135406889 ], [ 27.826879901212905, 30.229806591862356 ], [ 27.364650463209884, 30.498767423820713 ], [ 27.455925836104463, 30.970608081340895 ], [ 28.015090664260214, 31.172927913052266 ], [ 28.478973140665946, 30.90222032797119 ] ] ] ] } },
{ "type": "Feature", "properties": { "geogrid_id": "830812045034705561", "seqnum": 19970.0, "lat_c": 30.812045219642496, "lon_c": 34.705560591382117, "res": 8.0, "count_Flowering Plants": 21, "count_Birds": 0, "count_Mammals": 1, "count_Molluscs": 0, "count_Reptiles": 0, "count_Insects": 1, "count_Amphibians": 0, "count_Arachnids": 0, "count_Basidiomycota": 0, "count_Gymnosperms": 0, "count_Sac Fungi": 0, "count_Ferns": 0, "count_Mosses": 0, "unique_species_count": 23.0, "countryCode": "EG" }, "geometry": { "type": "MultiPolygon", "coordinates": [ [ [ [ 34.833921595375571, 31.279008784851197 ], [ 35.276851298512682, 30.985326360400151 ], [ 35.147058459905651, 30.518901343656019 ], [ 34.57841856717836, 30.345266482476838 ], [ 34.135920272938826, 30.63613588104262 ], [ 34.261579641921585, 31.103431464206171 ], [ 34.833921595375571, 31.279008784851197 ] ] ] ] } },
{ "type": "Feature", "properties": { "geogrid_id": "830925223033690927", "seqnum": 19889.0, "lat_c": 30.925223264413894, "lon_c": 33.690927413539313, "res": 8.0, "count_Flowering Plants": 1, "count_Birds": 24, "count_Mammals": 3, "count_Molluscs": 0, "count_Reptiles": 16, "count_Insects": 5, "count_Amphibians": 2, "count_Arachnids": 0, "count_Basidiomycota": 0, "count_Gymnosperms": 0, "count_Sac Fungi": 0, "count_Ferns": 0, "count_Mosses": 0, "unique_species_count": 51.0, "countryCode": "EG" }, "geometry": { "type": "MultiPolygon", "coordinates": [ [ [ [ 33.815048141730415, 31.393012120519025 ], [ 34.261579641921585, 31.103431464206171 ], [ 34.135920272938826, 30.63613588104262 ], [ 33.567929601083996, 30.457615267772027 ], [ 33.121963628754109, 30.744401409822665 ], [ 33.243375202431189, 31.212481701940593 ], [ 33.815048141730415, 31.393012120519025 ] ] ] ] } },
{ "type": "Feature", "properties": { "geogrid_id": "831029336032673431", "seqnum": 19808.0, "lat_c": 31.029335598991345, "lon_c": 32.673431477596779, "res": 8.0, "count_Flowering Plants": 14, "count_Birds": 43, "count_Mammals": 3, "count_Molluscs": 11, "count_Reptiles": 6, "count_Insects": 4, "count_Amphibians": 1, "count_Arachnids": 0, "count_Basidiomycota": 0, "count_Gymnosperms": 0, "count_Sac Fungi": 0, "count_Ferns": 0, "count_Mosses": 0, "unique_species_count": 82.0, "countryCode": "EG" }, "geometry": { "type": "MultiPolygon", "coordinates": [ [ [ [ 32.793200346335979, 31.497865645236026 ], [ 33.243375202431189, 31.212481701940593 ], [ 33.121963628754109, 30.744401409822665 ], [ 32.55468612955508, 30.560983069141358 ], [ 32.105214130872497, 30.843591272936546 ], [ 32.222272324242475, 31.312373098758375 ], [ 32.793200346335979, 31.497865645236026 ] ] ] ] } },
{ "type": "Feature", "properties": { "geogrid_id": "831124281031653113", "seqnum": 19727.0, "lat_c": 31.124280885730869, "lon_c": 31.653112499857475, "res": 8.0, "count_Flowering Plants": 12, "count_Birds": 44, "count_Mammals": 1, "count_Molluscs": 4, "count_Reptiles": 0, "count_Insects": 9, "count_Amphibians": 1, "count_Arachnids": 2, "count_Basidiomycota": 3, "count_Gymnosperms": 0, "count_Sac Fungi": 2, "count_Ferns": 0, "count_Mosses": 0, "unique_species_count": 78.0, "countryCode": "EG" }, "geometry": { "type": "MultiPolygon", "coordinates": [ [ [ [ 31.768426729589905, 31.593470256034689 ], [ 32.222272324242475, 31.312373098758375 ], [ 32.105214130872497, 30.843591272936546 ], [ 31.538554281712621, 30.655933868626867 ], [ 31.085327413846244, 30.935644048139558 ], [ 31.19786799351921, 31.404298043270519 ], [ 31.768426729589905, 31.593470256034689 ] ] ] ] } },
{ "type": "Feature", "properties": { "geogrid_id": "831214065030629342", "seqnum": 16282.0, "lat_c": 31.21406496509848, "lon_c": 30.629342202495877, "res": 8.0, "count_Flowering Plants": 27, "count_Birds": 15, "count_Mammals": 4, "count_Molluscs": 56, "count_Reptiles": 2, "count_Insects": 3, "count_Amphibians": 1, "count_Arachnids": 0, "count_Basidiomycota": 2, "count_Gymnosperms": 0, "count_Sac Fungi": 0, "count_Ferns": 0, "count_Mosses": 0, "unique_species_count": 110.0, "countryCode": "EG" }, "geometry": { "type": "MultiPolygon", "coordinates": [ [ [ [ 31.19786799351921, 31.404298043270519 ], [ 31.085327413846244, 30.935644048139558 ], [ 30.520217924017675, 30.744761020138569 ], [ 30.063518156396636, 31.021587106106374 ], [ 30.17052868789348, 31.491142604387722 ], [ 30.739810278080164, 31.683000342381963 ], [ 31.19786799351921, 31.404298043270519 ] ] ] ] } },
{ "type": "Feature", "properties": { "geogrid_id": "831297041029603974", "seqnum": 16200.0, "lat_c": 31.297040668034253, "lon_c": 29.603974323903977, "res": 8.0, "count_Flowering Plants": 131, "count_Birds": 70, "count_Mammals": 17, "count_Molluscs": 215, "count_Reptiles": 23, "count_Insects": 53, "count_Amphibians": 5, "count_Arachnids": 4, "count_Basidiomycota": 2, "count_Gymnosperms": 1, "count_Sac Fungi": 2, "count_Ferns": 0, "count_Mosses": 0, "unique_species_count": 523.0, "countryCode": "EG" }, "geometry": { "type": "MultiPolygon", "coordinates": [ [ [ [ 30.17052868789348, 31.491142604387722 ], [ 30.063518156396636, 31.021587106106374 ], [ 29.500378444397796, 30.826893677639578 ], [ 29.040128854011492, 31.100723666745473 ], [ 29.141515113604413, 31.571061915223158 ], [ 29.708816081541865, 31.76681962737517 ], [ 30.17052868789348, 31.491142604387722 ] ] ] ] } },
{ "type": "Feature", "properties": { "geogrid_id": "831373089028576947", "seqnum": 16118.0, "lat_c": 31.373088519228276, "lon_c": 28.576946722275558, "res": 8.0, "count_Flowering Plants": 12, "count_Birds": 18, "count_Mammals": 1, "count_Molluscs": 4, "count_Reptiles": 4, "count_Insects": 21, "count_Amphibians": 2, "count_Arachnids": 2, "count_Basidiomycota": 0, "count_Gymnosperms": 0, "count_Sac Fungi": 0, "count_Ferns": 0, "count_Mosses": 0, "unique_species_count": 64.0, "countryCode": "EG" }, "geometry": { "type": "MultiPolygon", "coordinates": [ [ [ [ 29.141515113604413, 31.571061915223158 ], [ 29.040128854011492, 31.100723666745473 ], [ 28.478973140665946, 30.90222032797119 ], [ 28.015090664260214, 31.172927913052266 ], [ 28.110759349012596, 31.643921651943018 ], [ 28.676068443161217, 31.843587217302787 ], [ 29.141515113604413, 31.571061915223158 ] ] ] ] } },
{ "type": "Feature", "properties": { "geogrid_id": "831442066027548184", "seqnum": 16036.0, "lat_c": 31.442066480985154, "lon_c": 27.548184044657003, "res": 8.0, "count_Flowering Plants": 8, "count_Birds": 18, "count_Mammals": 11, "count_Molluscs": 2, "count_Reptiles": 1, "count_Insects": 5, "count_Amphibians": 0, "count_Arachnids": 0, "count_Basidiomycota": 0, "count_Gymnosperms": 0, "count_Sac Fungi": 0, "count_Ferns": 0, "count_Mosses": 0, "unique_species_count": 45.0, "countryCode": "EG" }, "geometry": { "type": "MultiPolygon", "coordinates": [ [ [ [ 28.110759349012596, 31.643921651943018 ], [ 28.015090664260214, 31.172927913052266 ], [ 27.455925836104463, 30.970608081340895 ], [ 26.988320092330664, 31.238049180616414 ], [ 27.078179184437911, 31.709561385183381 ], [ 27.641493352254741, 31.913152009250332 ], [ 28.110759349012596, 31.643921651943018 ] ] ] ] } },
{ "type": "Feature", "properties": { "geogrid_id": "831503804026517595", "seqnum": 15954.0, "lat_c": 31.503803667307761, "lon_c": 26.517595090045468, "res": 8.0, "count_Flowering Plants": 3, "count_Birds": 0, "count_Mammals": 7, "count_Molluscs": 0, "count_Reptiles": 1, "count_Insects": 1, "count_Amphibians": 0, "count_Arachnids": 1, "count_Basidiomycota": 0, "count_Gymnosperms": 0, "count_Sac Fungi": 0, "count_Ferns": 0, "count_Mosses": 0, "unique_species_count": 13.0, "countryCode": "EG" }, "geometry": { "type": "MultiPolygon", "coordinates": [ [ [ [ 27.078179184437911, 31.709561385183381 ], [ 26.988320092330664, 31.238049180616414 ], [ 26.431144102461321, 31.031896605103697 ], [ 25.959716060651992, 31.295904830894482 ], [ 26.043675366048369, 31.767787226330853 ], [ 26.605001431998417, 31.975332722926108 ], [ 27.078179184437911, 31.709561385183381 ] ] ] ] } },
{ "type": "Feature", "properties": { "geogrid_id": "831558092025485070", "seqnum": 15872.0, "lat_c": 31.558091976687873, "lon_c": 25.485069744884502, "res": 8.0, "count_Flowering Plants": 0, "count_Birds": 15, "count_Mammals": 10, "count_Molluscs": 0, "count_Reptiles": 0, "count_Insects": 0, "count_Amphibians": 0, "count_Arachnids": 0, "count_Basidiomycota": 0, "count_Gymnosperms": 0, "count_Sac Fungi": 0, "count_Ferns": 0, "count_Mosses": 0, "unique_species_count": 25.0, "countryCode": "EG" }, "geometry": { "type": "MultiPolygon", "coordinates": [ [ [ [ 26.043675366048369, 31.767787226330853 ], [ 25.959716060651992, 31.295904830894482 ], [ 25.404515991660325, 31.085890015228973 ], [ 24.929156490108408, 31.346270691644225 ], [ 25.007128426374454, 31.818362009393756 ], [ 25.566485087628312, 32.029909305639457 ], [ 26.043675366048369, 31.767787226330853 ] ] ] ] } },
{ "type": "Feature", "properties": { "geogrid_id": "831570909034388452", "seqnum": 19971.0, "lat_c": 31.57090933127693, "lon_c": 34.388452258115521, "res": 8.0, "count_Flowering Plants": 0, "count_Birds": 1, "count_Mammals": 2, "count_Molluscs": 0, "count_Reptiles": 3, "count_Insects": 0, "count_Amphibians": 0, "count_Arachnids": 0, "count_Basidiomycota": 0, "count_Gymnosperms": 0, "count_Sac Fungi": 0, "count_Ferns": 0, "count_Mosses": 0, "unique_species_count": 6.0, "countryCode": "EG" }, "geometry": { "type": "MultiPolygon", "coordinates": [ [ [ [ 34.516625622070514, 32.038567362241871 ], [ 34.963588633407248, 31.746155756942027 ], [ 34.833921595375571, 31.279008784851197 ], [ 34.261579641921585, 31.103431464206171 ], [ 33.815048141730415, 31.393012120519025 ], [ 33.940374655956312, 31.860980635639727 ], [ 34.516625622070514, 32.038567362241871 ] ] ] ] } },
{ "type": "Feature", "properties": { "geogrid_id": "831604675024450475", "seqnum": 15790.0, "lat_c": 31.604674828111026, "lon_c": 24.450475449435086, "res": 8.0, "count_Flowering Plants": 0, "count_Birds": 0, "count_Mammals": 2, "count_Molluscs": 0, "count_Reptiles": 0, "count_Insects": 0, "count_Amphibians": 0, "count_Arachnids": 0, "count_Basidiomycota": 0, "count_Gymnosperms": 0, "count_Sac Fungi": 0, "count_Ferns": 0, "count_Mosses": 0, "unique_species_count": 2.0, "countryCode": "EG" }, "geometry": { "type": "MultiPolygon", "coordinates": [ [ [ [ 25.007128426374454, 31.818362009393756 ], [ 24.929156490108408, 31.346270691644225 ], [ 24.375906208564952, 31.132345906397092 ], [ 23.896494347740045, 31.388868074110636 ], [ 23.968395087176081, 31.860992024920336 ], [ 24.525815273766046, 32.076611417131112 ], [ 25.007128426374454, 31.818362009393756 ] ] ] ] } },
{ "type": "Feature", "properties": { "geogrid_id": "831781331032340341", "seqnum": 19809.0, "lat_c": 31.781330748536313, "lon_c": 32.340341003149703, "res": 8.0, "count_Flowering Plants": 0, "count_Birds": 1, "count_Mammals": 2, "count_Molluscs": 0, "count_Reptiles": 1, "count_Insects": 0, "count_Amphibians": 0, "count_Arachnids": 0, "count_Basidiomycota": 0, "count_Gymnosperms": 0, "count_Sac Fungi": 0, "count_Ferns": 0, "count_Mosses": 0, "unique_species_count": 4.0, "countryCode": "EG" }, "geometry": { "type": "MultiPolygon", "coordinates": [ [ [ [ 32.459499019605936, 32.250462840616784 ], [ 32.91407145208639, 31.96657231711464 ], [ 32.793200346335979, 31.497865645236026 ], [ 32.222272324242475, 31.312373098758375 ], [ 31.768426729589905, 31.593470256034689 ], [ 31.884736745380227, 32.062833706119243 ], [ 32.459499019605936, 32.250462840616784 ] ] ] ] } },
{ "type": "Feature", "properties": { "geogrid_id": "831872584031311837", "seqnum": 19728.0, "lat_c": 31.872584354069598, "lon_c": 31.311836609085869, "res": 8.0, "count_Flowering Plants": 1, "count_Birds": 9, "count_Mammals": 0, "count_Molluscs": 0, "count_Reptiles": 6, "count_Insects": 1, "count_Amphibians": 2, "count_Arachnids": 0, "count_Basidiomycota": 0, "count_Gymnosperms": 0, "count_Sac Fungi": 0, "count_Ferns": 0, "count_Mosses": 0, "unique_species_count": 19.0, "countryCode": "EG" }, "geometry": { "type": "MultiPolygon", "coordinates": [ [ [ [ 31.426328528904904, 32.342332105078889 ], [ 31.884736745380227, 32.062833706119243 ], [ 31.768426729589905, 31.593470256034689 ], [ 31.19786799351921, 31.404298043270519 ], [ 30.739810278080164, 31.683000342381963 ], [ 30.851692397464159, 32.151571799081736 ], [ 31.426328528904904, 32.342332105078889 ] ] ] ] } },
{ "type": "Feature", "properties": { "geogrid_id": "832041035029244133", "seqnum": 16119.0, "lat_c": 32.041035120464826, "lon_c": 29.244132825041568, "res": 8.0, "count_Flowering Plants": 0, "count_Birds": 21, "count_Mammals": 0, "count_Molluscs": 0, "count_Reptiles": 0, "count_Insects": 0, "count_Amphibians": 0, "count_Arachnids": 0, "count_Basidiomycota": 0, "count_Gymnosperms": 0, "count_Sac Fungi": 0, "count_Ferns": 0, "count_Mosses": 0, "unique_species_count": 21.0, "countryCode": "EG" }, "geometry": { "type": "MultiPolygon", "coordinates": [ [ [ [ 29.814973058600309, 32.23623675980086 ], [ 29.708816081541865, 31.76681962737517 ], [ 29.141515113604413, 31.571061915223158 ], [ 28.676068443161217, 31.843587217302787 ], [ 28.776406662397029, 32.313724321821937 ], [ 29.348050609475049, 32.510650480874055 ], [ 29.814973058600309, 32.23623675980086 ] ] ] ] } },
{ "type": "Feature", "properties": { "geogrid_id": "832239295026128576", "seqnum": 15873.0, "lat_c": 32.23929488287537, "lon_c": 26.128575727784746, "res": 8.0, "count_Flowering Plants": 0, "count_Birds": 0, "count_Mammals": 0, "count_Molluscs": 0, "count_Reptiles": 1, "count_Insects": 0, "count_Amphibians": 0, "count_Arachnids": 0, "count_Basidiomycota": 0, "count_Gymnosperms": 0, "count_Sac Fungi": 0, "count_Ferns": 0, "count_Mosses": 0, "unique_species_count": 1.0, "countryCode": "EG" }, "geometry": { "type": "MultiPolygon", "coordinates": [ [ [ [ 26.693429224066506, 32.446495568233949 ], [ 26.605001431998417, 31.975332722926108 ], [ 26.043675366048369, 31.767787226330853 ], [ 25.566485087628312, 32.029909305639457 ], [ 25.648826779838451, 32.501356048137936 ], [ 26.214482010403998, 32.710440804567824 ], [ 26.693429224066506, 32.446495568233949 ] ] ] ] } },
{ "type": "Feature", "properties": { "geogrid_id": "832705299029922514", "seqnum": 16120.0, "lat_c": 32.70529858294362, "lon_c": 29.922514266354266, "res": 8.0, "count_Flowering Plants": 0, "count_Birds": 11, "count_Mammals": 0, "count_Molluscs": 0, "count_Reptiles": 0, "count_Insects": 0, "count_Amphibians": 0, "count_Arachnids": 0, "count_Basidiomycota": 0, "count_Gymnosperms": 0, "count_Sac Fungi": 0, "count_Ferns": 0, "count_Mosses": 0, "unique_species_count": 11.0, "countryCode": "EG" }, "geometry": { "type": "MultiPolygon", "coordinates": [ [ [ [ 30.499817512458129, 32.897639364393783 ], [ 30.388608774474815, 32.4291630191208 ], [ 29.814973058600309, 32.23623675980086 ], [ 29.348050609475049, 32.510650480874055 ], [ 29.453336754351614, 32.979915465187325 ], [ 30.031508570098957, 33.174011852477868 ], [ 30.499817512458129, 32.897639364393783 ] ] ] ] } },
{ "type": "Feature", "properties": { "geogrid_id": "832783508028878029", "seqnum": 16038.0, "lat_c": 32.783508035381509, "lon_c": 28.878029205153105, "res": 8.0, "count_Flowering Plants": 0, "count_Birds": 3, "count_Mammals": 0, "count_Molluscs": 0, "count_Reptiles": 0, "count_Insects": 0, "count_Amphibians": 0, "count_Arachnids": 0, "count_Basidiomycota": 0, "count_Gymnosperms": 0, "count_Sac Fungi": 0, "count_Ferns": 0, "count_Mosses": 0, "unique_species_count": 3.0, "countryCode": "EG" }, "geometry": { "type": "MultiPolygon", "coordinates": [ [ [ [ 29.453336754351614, 32.979915465187325 ], [ 29.348050609475049, 32.510650480874055 ], [ 28.776406662397029, 32.313724321821937 ], [ 28.305564727785857, 32.58481832416377 ], [ 28.404835859501532, 33.05473943404062 ], [ 28.981003560167913, 33.252946785061958 ], [ 29.453336754351614, 32.979915465187325 ] ] ] ] } },
{ "type": "Feature", "properties": { "geogrid_id": "832854244027831534", "seqnum": 15956.0, "lat_c": 32.854243751290021, "lon_c": 27.831533651052343, "res": 8.0, "count_Flowering Plants": 0, "count_Birds": 1, "count_Mammals": 0, "count_Molluscs": 0, "count_Reptiles": 0, "count_Insects": 0, "count_Amphibians": 0, "count_Arachnids": 0, "count_Basidiomycota": 0, "count_Gymnosperms": 0, "count_Sac Fungi": 0, "count_Ferns": 0, "count_Mosses": 0, "unique_species_count": 1.0, "countryCode": "EG" }, "geometry": { "type": "MultiPolygon", "coordinates": [ [ [ [ 28.404835859501532, 33.05473943404062 ], [ 28.305564727785857, 32.58481832416377 ], [ 27.735921043635766, 32.383874421829752 ], [ 27.26107311312337, 32.651486999932885 ], [ 27.354239683502982, 33.121922405783792 ], [ 27.928397167134062, 33.324270226105618 ], [ 28.404835859501532, 33.05473943404062 ] ] ] ] } },
{ "type": "Feature", "properties": { "geogrid_id": "832917304026782944", "seqnum": 15874.0, "lat_c": 32.917304230407431, "lon_c": 26.782943576982358, "res": 8.0, "count_Flowering Plants": 0, "count_Birds": 1, "count_Mammals": 0, "count_Molluscs": 0, "count_Reptiles": 0, "count_Insects": 0, "count_Amphibians": 0, "count_Arachnids": 0, "count_Basidiomycota": 0, "count_Gymnosperms": 0, "count_Sac Fungi": 0, "count_Ferns": 0, "count_Mosses": 0, "unique_species_count": 1.0, "countryCode": "EG" }, "geometry": { "type": "MultiPolygon", "coordinates": [ [ [ [ 27.354239683502982, 33.121922405783792 ], [ 27.26107311312337, 32.651486999932885 ], [ 26.693429224066506, 32.446495568233949 ], [ 26.214482010403998, 32.710440804567824 ], [ 26.301458094601827, 33.181238151379006 ], [ 26.873608846942229, 33.387770885045057 ], [ 27.354239683502982, 33.121922405783792 ] ] ] ] } },
{ "type": "Feature", "properties": { "geogrid_id": "833448838029560059", "seqnum": 16039.0, "lat_c": 33.448837739728035, "lon_c": 29.560059399569447, "res": 8.0, "count_Flowering Plants": 0, "count_Birds": 4, "count_Mammals": 0, "count_Molluscs": 0, "count_Reptiles": 0, "count_Insects": 0, "count_Amphibians": 0, "count_Arachnids": 0, "count_Basidiomycota": 0, "count_Gymnosperms": 0, "count_Sac Fungi": 0, "count_Ferns": 0, "count_Mosses": 0, "unique_species_count": 4.0, "countryCode": "EG" }, "geometry": { "type": "MultiPolygon", "coordinates": [ [ [ [ 30.142024865631576, 33.642383494442768 ], [ 30.031508570098957, 33.174011852477868 ], [ 29.453336754351614, 32.979915465187325 ], [ 28.981003560167913, 33.252946785061958 ], [ 29.085397067838105, 33.722049152722079 ], [ 29.668286715821406, 33.917425103393448 ], [ 30.142024865631576, 33.642383494442768 ] ] ] ] } }
]
}
