{
"type": "FeatureCollection",
"name": "EH",
"crs": { "type": "name", "properties": { "name": "urn:ogc:def:crs:OGC:1.3:CRS84" } },
"features": [
{ "type": "Feature", "properties": { "geogrid_id": "5219748295019092677", "seqnum": 10931.0, "lat_c": 19.748295113466042, "lon_c": -19.092676985008634, "res": 8.0, "count_Reptiles": 0, "count_Insects": 0, "count_Birds": 0, "count_Mammals": 0, "count_Flowering Plants": 0, "count_Arachnids": 0, "count_Molluscs": 1, "count_Amphibians": 0, "unique_species_count": 1.0, "countryCode": "EH" }, "geometry": { "type": "MultiPolygon", "coordinates": [ [ [ [ -18.552800017327993, 19.598500708815763 ], [ -18.953413936686008, 19.297950696261335 ], [ -19.493594439938708, 19.447225254809108 ], [ -19.634185746744407, 19.896550040212851 ], [ -19.232463503024995, 20.198573914599972 ], [ -18.691241268949188, 20.049766112507836 ], [ -18.552800017327993, 19.598500708815763 ] ] ] ] } },
{ "type": "Feature", "properties": { "geogrid_id": "5220188843020722425", "seqnum": 10848.0, "lat_c": 20.188843353397107, "lon_c": -20.722424852813045, "res": 8.0, "count_Reptiles": 0, "count_Insects": 0, "count_Birds": 0, "count_Mammals": 2, "count_Flowering Plants": 0, "count_Arachnids": 0, "count_Molluscs": 0, "count_Amphibians": 0, "unique_species_count": 2.0, "countryCode": "EH" }, "geometry": { "type": "MultiPolygon", "coordinates": [ [ [ [ -20.177405484951148, 20.04336150248762 ], [ -20.579137448291061, 19.741676198967632 ], [ -21.124686562702557, 19.887104017275227 ], [ -21.269343550587656, 20.333131029880104 ], [ -20.866319215478477, 20.635923344698831 ], [ -20.319918079266056, 20.491549022747307 ], [ -20.177405484951148, 20.04336150248762 ] ] ] ] } },
{ "type": "Feature", "properties": { "geogrid_id": "5220345803019775329", "seqnum": 10849.0, "lat_c": 20.345803373581688, "lon_c": -19.775329267941281, "res": 8.0, "count_Reptiles": 0, "count_Insects": 0, "count_Birds": 0, "count_Mammals": 1, "count_Flowering Plants": 0, "count_Arachnids": 0, "count_Molluscs": 0, "count_Amphibians": 0, "unique_species_count": 1.0, "countryCode": "EH" }, "geometry": { "type": "MultiPolygon", "coordinates": [ [ [ [ -19.232463503024995, 20.198573914599972 ], [ -19.634185746744407, 19.896550040212851 ], [ -20.177405484951148, 20.04336150248762 ], [ -20.319918079266056, 20.491549022747307 ], [ -19.917060597078109, 20.794999741072214 ], [ -19.372808820751448, 20.648801373519191 ], [ -19.232463503024995, 20.198573914599972 ] ] ] ] } },
{ "type": "Feature", "properties": { "geogrid_id": "5220500985018830211", "seqnum": 10850.0, "lat_c": 20.50098465973111, "lon_c": -18.830211424884375, "res": 8.0, "count_Reptiles": 0, "count_Insects": 0, "count_Birds": 0, "count_Mammals": 1, "count_Flowering Plants": 0, "count_Arachnids": 0, "count_Molluscs": 0, "count_Amphibians": 0, "unique_species_count": 1.0, "countryCode": "EH" }, "geometry": { "type": "MultiPolygon", "coordinates": [ [ [ [ -18.289197231906979, 20.351471611515954 ], [ -18.691241268949188, 20.049766112507836 ], [ -19.232463503024995, 20.198573914599972 ], [ -19.372808820751448, 20.648801373519191 ], [ -18.969746820136418, 20.952170672746227 ], [ -18.427337164691043, 20.803613609145959 ], [ -18.289197231906979, 20.351471611515954 ] ] ] ] } },
{ "type": "Feature", "properties": { "geogrid_id": "5220653257017886457", "seqnum": 10851.0, "lat_c": 20.653257053311872, "lon_c": -17.886457082540907, "res": 8.0, "count_Reptiles": 2, "count_Insects": 0, "count_Birds": 13, "count_Mammals": 5, "count_Flowering Plants": 0, "count_Arachnids": 0, "count_Molluscs": 2, "count_Amphibians": 0, "unique_species_count": 22.0, "countryCode": "EH" }, "geometry": { "type": "MultiPolygon", "coordinates": [ [ [ [ -17.347049439564287, 20.501047440548486 ], [ -17.749702427762756, 20.200196613943973 ], [ -18.289197231906979, 20.351471611515954 ], [ -18.427337164691043, 20.803613609145959 ], [ -18.023750765051968, 21.106304554471745 ], [ -17.482935238833555, 20.954978885271284 ], [ -17.347049439564287, 20.501047440548486 ] ] ] ] } },
{ "type": "Feature", "properties": { "geogrid_id": "5220801720016943551", "seqnum": 10852.0, "lat_c": 20.801720356660276, "lon_c": -16.943550891390956, "res": 8.0, "count_Reptiles": 1, "count_Insects": 3, "count_Birds": 10, "count_Mammals": 4, "count_Flowering Plants": 1, "count_Arachnids": 0, "count_Molluscs": 1, "count_Amphibians": 0, "unique_species_count": 20.0, "countryCode": "EH" }, "geometry": { "type": "MultiPolygon", "coordinates": [ [ [ [ -16.405551485423977, 20.646492864074769 ], [ -16.809062639921233, 20.346939803037046 ], [ -17.347049439564287, 20.501047440548486 ], [ -17.482935238833555, 20.954978885271284 ], [ -17.078548265393167, 21.256503578574076 ], [ -16.539127209036788, 21.102091833756241 ], [ -16.405551485423977, 20.646492864074769 ] ] ] ] } },
{ "type": "Feature", "properties": { "geogrid_id": "5220939673020463047", "seqnum": 10767.0, "lat_c": 20.939672644648937, "lon_c": -20.463046525627444, "res": 8.0, "count_Reptiles": 0, "count_Insects": 0, "count_Birds": 0, "count_Mammals": 3, "count_Flowering Plants": 0, "count_Arachnids": 0, "count_Molluscs": 0, "count_Amphibians": 0, "unique_species_count": 3.0, "countryCode": "EH" }, "geometry": { "type": "MultiPolygon", "coordinates": [ [ [ [ -19.917060597078109, 20.794999741072214 ], [ -20.319918079266056, 20.491549022747307 ], [ -20.866319215478477, 20.635923344698831 ], [ -21.010856435944337, 21.082930999597465 ], [ -20.606828043765184, 21.387747442306242 ], [ -20.059416729865372, 21.244153983210314 ], [ -19.917060597078109, 20.794999741072214 ] ] ] ] } },
{ "type": "Feature", "properties": { "geogrid_id": "5221084451015058621", "seqnum": 10854.0, "lat_c": 21.084450775989094, "lon_c": -15.058620976274337, "res": 8.0, "count_Reptiles": 0, "count_Insects": 0, "count_Birds": 1, "count_Mammals": 0, "count_Flowering Plants": 0, "count_Arachnids": 0, "count_Molluscs": 0, "count_Amphibians": 0, "unique_species_count": 1.0, "countryCode": "EH" }, "geometry": { "type": "MultiPolygon", "coordinates": [ [ [ [ -14.522990118272984, 20.922483149909869 ], [ -14.928839326031673, 20.626579560542442 ], [ -15.464308988792393, 20.787151221337965 ], [ -15.595514100325898, 21.244300431195452 ], [ -15.188841157805706, 21.542346696604326 ], [ -14.651761454990268, 21.381070575730302 ], [ -14.522990118272984, 20.922483149909869 ] ] ] ] } },
{ "type": "Feature", "properties": { "geogrid_id": "5221098992019513750", "seqnum": 10768.0, "lat_c": 21.098992076793117, "lon_c": -19.513749635161087, "res": 8.0, "count_Reptiles": 0, "count_Insects": 0, "count_Birds": 0, "count_Mammals": 1, "count_Flowering Plants": 0, "count_Arachnids": 0, "count_Molluscs": 0, "count_Amphibians": 0, "unique_species_count": 1.0, "countryCode": "EH" }, "geometry": { "type": "MultiPolygon", "coordinates": [ [ [ [ -18.969746820136418, 20.952170672746227 ], [ -19.372808820751448, 20.648801373519191 ], [ -19.917060597078109, 20.794999741072214 ], [ -20.059416729865372, 21.244153983210314 ], [ -19.655324131924743, 21.549160934589288 ], [ -19.109885234025455, 21.403338755696403 ], [ -18.969746820136418, 20.952170672746227 ] ] ] ] } },
{ "type": "Feature", "properties": { "geogrid_id": "5221217638014115928", "seqnum": 10855.0, "lat_c": 21.217637802943283, "lon_c": -14.115928476295261, "res": 8.0, "count_Reptiles": 0, "count_Insects": 0, "count_Birds": 1, "count_Mammals": 0, "count_Flowering Plants": 0, "count_Arachnids": 0, "count_Molluscs": 0, "count_Amphibians": 0, "unique_species_count": 1.0, "countryCode": "EH" }, "geometry": { "type": "MultiPolygon", "coordinates": [ [ [ [ -13.581315996684882, 21.052040737669618 ], [ -13.988592531404029, 20.758386186141955 ], [ -14.522990118272984, 20.922483149909869 ], [ -14.651761454990268, 21.381070575730302 ], [ -14.243662554207845, 21.676921655972254 ], [ -13.707589266089286, 21.511959736045629 ], [ -13.581315996684882, 21.052040737669618 ] ] ] ] } },
{ "type": "Feature", "properties": { "geogrid_id": "5221255741018566049", "seqnum": 10769.0, "lat_c": 21.255740600011134, "lon_c": -18.566048533331344, "res": 8.0, "count_Reptiles": 0, "count_Insects": 0, "count_Birds": 6, "count_Mammals": 0, "count_Flowering Plants": 0, "count_Arachnids": 0, "count_Molluscs": 0, "count_Amphibians": 0, "unique_species_count": 6.0, "countryCode": "EH" }, "geometry": { "type": "MultiPolygon", "coordinates": [ [ [ [ -18.023750765051968, 21.106304554471745 ], [ -18.427337164691043, 20.803613609145959 ], [ -18.969746820136418, 20.952170672746227 ], [ -19.109885234025455, 21.403338755696403 ], [ -18.705370173751657, 21.707867130564669 ], [ -18.161621748247867, 21.559353329388575 ], [ -18.023750765051968, 21.106304554471745 ] ] ] ] } },
{ "type": "Feature", "properties": { "geogrid_id": "5221344803013172727", "seqnum": 13153.0, "lat_c": 21.344802748933123, "lon_c": -13.172726813154924, "res": 8.0, "count_Reptiles": 0, "count_Insects": 0, "count_Birds": 1, "count_Mammals": 0, "count_Flowering Plants": 0, "count_Arachnids": 0, "count_Molluscs": 0, "count_Amphibians": 0, "unique_species_count": 1.0, "countryCode": "EH" }, "geometry": { "type": "MultiPolygon", "coordinates": [ [ [ [ -12.765051776180478, 21.630766269541663 ], [ -12.643832625661219, 21.163512279038997 ], [ -13.050265413675099, 20.878139748455457 ], [ -13.581315996684882, 21.052040737669618 ], [ -13.707589266089286, 21.511959736045629 ], [ -13.297908774695845, 21.805369652838912 ], [ -12.765051776180478, 21.630766269541663 ] ] ] ] } },
{ "type": "Feature", "properties": { "geogrid_id": "5221408913017619365", "seqnum": 10770.0, "lat_c": 21.408912613326102, "lon_c": -17.619364592268326, "res": 8.0, "count_Reptiles": 0, "count_Insects": 0, "count_Birds": 1, "count_Mammals": 4, "count_Flowering Plants": 0, "count_Arachnids": 0, "count_Molluscs": 0, "count_Amphibians": 0, "unique_species_count": 5.0, "countryCode": "EH" }, "geometry": { "type": "MultiPolygon", "coordinates": [ [ [ [ -17.078548265393167, 21.256503578574076 ], [ -17.482935238833555, 20.954978885271284 ], [ -18.023750765051968, 21.106304554471745 ], [ -18.161621748247867, 21.559353329388575 ], [ -17.756376698777984, 21.862862691665335 ], [ -17.214093266443708, 21.711303201981689 ], [ -17.078548265393167, 21.256503578574076 ] ] ] ] } },
{ "type": "Feature", "properties": { "geogrid_id": "5221557707016673215", "seqnum": 10771.0, "lat_c": 21.557706736155474, "lon_c": -16.673214808551407, "res": 8.0, "count_Reptiles": 1, "count_Insects": 1, "count_Birds": 16, "count_Mammals": 1, "count_Flowering Plants": 3, "count_Arachnids": 0, "count_Molluscs": 0, "count_Amphibians": 0, "unique_species_count": 22.0, "countryCode": "EH" }, "geometry": { "type": "MultiPolygon", "coordinates": [ [ [ [ -16.133700745912833, 21.402046467752623 ], [ -16.539127209036788, 21.102091833756241 ], [ -17.078548265393167, 21.256503578574076 ], [ -17.214093266443708, 21.711303201981689 ], [ -16.807853589616805, 22.013351102708867 ], [ -16.266855530337232, 21.858472280994956 ], [ -16.133700745912833, 21.402046467752623 ] ] ] ] } },
{ "type": "Feature", "properties": { "geogrid_id": "5221693281020202436", "seqnum": 10686.0, "lat_c": 21.693281310089993, "lon_c": -20.202436191384084, "res": 8.0, "count_Reptiles": 0, "count_Insects": 0, "count_Birds": 1, "count_Mammals": 1, "count_Flowering Plants": 0, "count_Arachnids": 0, "count_Molluscs": 0, "count_Amphibians": 0, "unique_species_count": 2.0, "countryCode": "EH" }, "geometry": { "type": "MultiPolygon", "coordinates": [ [ [ [ -19.655324131924743, 21.549160934589288 ], [ -20.059416729865372, 21.244153983210314 ], [ -20.606828043765184, 21.387747442306242 ], [ -20.751301418455817, 21.835788909518911 ], [ -20.346159176692538, 22.142397315806868 ], [ -19.79757211953439, 21.999323190435842 ], [ -19.655324131924743, 21.549160934589288 ] ] ] ] } },
{ "type": "Feature", "properties": { "geogrid_id": "5221701476015727196", "seqnum": 10772.0, "lat_c": 21.701476269534201, "lon_c": -15.727195722623485, "res": 8.0, "count_Reptiles": 1, "count_Insects": 0, "count_Birds": 1, "count_Mammals": 0, "count_Flowering Plants": 0, "count_Arachnids": 0, "count_Molluscs": 0, "count_Amphibians": 0, "unique_species_count": 2.0, "countryCode": "EH" }, "geometry": { "type": "MultiPolygon", "coordinates": [ [ [ [ -15.188841157805706, 21.542346696604326 ], [ -15.595514100325898, 21.244300431195452 ], [ -16.133700745912833, 21.402046467752623 ], [ -16.266855530337232, 21.858472280994956 ], [ -15.859393042216928, 22.15869171717446 ], [ -15.319538166749265, 22.000280017660049 ], [ -15.188841157805706, 21.542346696604326 ] ] ] ] } },
{ "type": "Feature", "properties": { "geogrid_id": "5221839693014780970", "seqnum": 10773.0, "lat_c": 21.839692934286905, "lon_c": -14.780970410123178, "res": 8.0, "count_Reptiles": 0, "count_Insects": 0, "count_Birds": 1, "count_Mammals": 0, "count_Flowering Plants": 0, "count_Arachnids": 0, "count_Molluscs": 0, "count_Amphibians": 0, "unique_species_count": 1.0, "countryCode": "EH" }, "geometry": { "type": "MultiPolygon", "coordinates": [ [ [ [ -14.243662554207845, 21.676921655972254 ], [ -14.651761454990268, 21.381070575730302 ], [ -15.188841157805706, 21.542346696604326 ], [ -15.319538166749265, 22.000280017660049 ], [ -14.910655853415589, 22.298362667519697 ], [ -14.371832674541945, 22.136249935813108 ], [ -14.243662554207845, 21.676921655972254 ] ] ] ] } },
{ "type": "Feature", "properties": { "geogrid_id": "5221854504019250666", "seqnum": 10687.0, "lat_c": 21.854503800516973, "lon_c": -19.250666017883987, "res": 8.0, "count_Reptiles": 0, "count_Insects": 0, "count_Birds": 0, "count_Mammals": 4, "count_Flowering Plants": 0, "count_Arachnids": 0, "count_Molluscs": 0, "count_Amphibians": 0, "unique_species_count": 4.0, "countryCode": "EH" }, "geometry": { "type": "MultiPolygon", "coordinates": [ [ [ [ -18.705370173751657, 21.707867130564669 ], [ -19.109885234025455, 21.403338755696403 ], [ -19.655324131924743, 21.549160934589288 ], [ -19.79757211953439, 21.999323190435842 ], [ -19.392130235606274, 22.305680991050025 ], [ -18.845342573779739, 22.160007995180724 ], [ -18.705370173751657, 21.707867130564669 ] ] ] ] } },
{ "type": "Feature", "properties": { "geogrid_id": "5221971920013834258", "seqnum": 10774.0, "lat_c": 21.97192003125884, "lon_c": -13.834257921068618, "res": 8.0, "count_Reptiles": 0, "count_Insects": 0, "count_Birds": 1, "count_Mammals": 0, "count_Flowering Plants": 0, "count_Arachnids": 0, "count_Molluscs": 0, "count_Amphibians": 0, "unique_species_count": 1.0, "countryCode": "EH" }, "geometry": { "type": "MultiPolygon", "coordinates": [ [ [ [ -13.297908774695845, 21.805369652838912 ], [ -13.707589266089286, 21.511959736045629 ], [ -14.243662554207845, 21.676921655972254 ], [ -14.371832674541945, 22.136249935813108 ], [ -13.961360342261077, 22.431933554725685 ], [ -13.423482673696668, 22.265986272944971 ], [ -13.297908774695845, 21.805369652838912 ] ] ] ] } },
{ "type": "Feature", "properties": { "geogrid_id": "5222012418018300110", "seqnum": 10688.0, "lat_c": 22.012417799228469, "lon_c": -18.300109894976298, "res": 8.0, "count_Reptiles": 0, "count_Insects": 0, "count_Birds": 4, "count_Mammals": 2, "count_Flowering Plants": 0, "count_Arachnids": 0, "count_Molluscs": 0, "count_Amphibians": 0, "unique_species_count": 6.0, "countryCode": "EH" }, "geometry": { "type": "MultiPolygon", "coordinates": [ [ [ [ -17.756376698777984, 21.862862691665335 ], [ -18.161621748247867, 21.559353329388575 ], [ -18.705370173751657, 21.707867130564669 ], [ -18.845342573779739, 22.160007995180724 ], [ -18.439256796323857, 22.465512590039364 ], [ -17.894012415154258, 22.316843356146556 ], [ -17.756376698777984, 21.862862691665335 ] ] ] ] } },
{ "type": "Feature", "properties": { "geogrid_id": "5222097792012886825", "seqnum": 13154.0, "lat_c": 22.097792366641336, "lon_c": -12.886824669454739, "res": 8.0, "count_Reptiles": 0, "count_Insects": 0, "count_Birds": 1, "count_Mammals": 0, "count_Flowering Plants": 0, "count_Arachnids": 0, "count_Molluscs": 0, "count_Amphibians": 0, "unique_species_count": 1.0, "countryCode": "EH" }, "geometry": { "type": "MultiPolygon", "coordinates": [ [ [ [ -12.476462377475562, 22.383684377080758 ], [ -12.355987091146822, 21.916086295696175 ], [ -12.765051776180478, 21.630766269541663 ], [ -13.297908774695845, 21.805369652838912 ], [ -13.423482673696668, 22.265986272944971 ], [ -13.011273355970044, 22.5590451217567 ], [ -12.476462377475562, 22.383684377080758 ] ] ] ] } },
{ "type": "Feature", "properties": { "geogrid_id": "5222166133017350226", "seqnum": 10689.0, "lat_c": 22.166133097866691, "lon_c": -17.350225986960389, "res": 8.0, "count_Reptiles": 1, "count_Insects": 0, "count_Birds": 14, "count_Mammals": 7, "count_Flowering Plants": 1, "count_Arachnids": 0, "count_Molluscs": 0, "count_Amphibians": 0, "unique_species_count": 23.0, "countryCode": "EH" }, "geometry": { "type": "MultiPolygon", "coordinates": [ [ [ [ -16.807853589616805, 22.013351102708867 ], [ -17.214093266443708, 21.711303201981689 ], [ -17.756376698777984, 21.862862691665335 ], [ -17.894012415154258, 22.316843356146556 ], [ -17.486988241950353, 22.621007264107618 ], [ -16.943084503450478, 22.469038563902245 ], [ -16.807853589616805, 22.013351102708867 ] ] ] ] } },
{ "type": "Feature", "properties": { "geogrid_id": "5222314940016400564", "seqnum": 10690.0, "lat_c": 22.314939616687173, "lon_c": -16.40056447304714, "res": 8.0, "count_Reptiles": 3, "count_Insects": 3, "count_Birds": 23, "count_Mammals": 3, "count_Flowering Plants": 10, "count_Arachnids": 0, "count_Molluscs": 0, "count_Amphibians": 0, "unique_species_count": 42.0, "countryCode": "EH" }, "geometry": { "type": "MultiPolygon", "coordinates": [ [ [ [ -15.859393042216928, 22.15869171717446 ], [ -16.266855530337232, 21.858472280994956 ], [ -16.807853589616805, 22.013351102708867 ], [ -16.943084503450478, 22.469038563902245 ], [ -16.534869347471393, 22.771461826400529 ], [ -15.992146864577355, 22.615959794262096 ], [ -15.859393042216928, 22.15869171717446 ] ] ] ] } },
{ "type": "Feature", "properties": { "geogrid_id": "5222449494019940535", "seqnum": 10605.0, "lat_c": 22.449494429437337, "lon_c": -19.940535177402829, "res": 8.0, "count_Reptiles": 0, "count_Insects": 0, "count_Birds": 0, "count_Mammals": 1, "count_Flowering Plants": 0, "count_Arachnids": 0, "count_Molluscs": 0, "count_Amphibians": 0, "unique_species_count": 1.0, "countryCode": "EH" }, "geometry": { "type": "MultiPolygon", "coordinates": [ [ [ [ -19.392130235606274, 22.305680991050025 ], [ -19.79757211953439, 21.999323190435842 ], [ -20.346159176692538, 22.142397315806868 ], [ -20.490627706616536, 22.591517991710834 ], [ -20.08425681976874, 22.899690584416032 ], [ -19.534320818677969, 22.756885804848594 ], [ -19.392130235606274, 22.305680991050025 ] ] ] ] } },
{ "type": "Feature", "properties": { "geogrid_id": "5222458263015450752", "seqnum": 10691.0, "lat_c": 22.458263456860745, "lon_c": -15.450751839329563, "res": 8.0, "count_Reptiles": 3, "count_Insects": 1, "count_Birds": 1, "count_Mammals": 0, "count_Flowering Plants": 0, "count_Arachnids": 0, "count_Molluscs": 0, "count_Amphibians": 0, "unique_species_count": 5.0, "countryCode": "EH" }, "geometry": { "type": "MultiPolygon", "coordinates": [ [ [ [ -14.910655853415589, 22.298362667519697 ], [ -15.319538166749265, 22.000280017660049 ], [ -15.859393042216928, 22.15869171717446 ], [ -15.992146864577355, 22.615959794262096 ], [ -15.582523676822932, 22.91630973512769 ], [ -15.040858235811385, 22.757092207023845 ], [ -14.910655853415589, 22.298362667519697 ] ] ] ] } },
{ "type": "Feature", "properties": { "geogrid_id": "5222595635014500478", "seqnum": 10692.0, "lat_c": 22.5956348117533, "lon_c": -14.500478247119759, "res": 8.0, "count_Reptiles": 14, "count_Insects": 28, "count_Birds": 59, "count_Mammals": 15, "count_Flowering Plants": 26, "count_Arachnids": 1, "count_Molluscs": 0, "count_Amphibians": 0, "unique_species_count": 143.0, "countryCode": "EH" }, "geometry": { "type": "MultiPolygon", "coordinates": [ [ [ [ -13.961360342261077, 22.431933554725685 ], [ -14.371832674541945, 22.136249935813108 ], [ -14.910655853415589, 22.298362667519697 ], [ -15.040858235811385, 22.757092207023845 ], [ -14.629640301688555, 23.055088410299319 ], [ -14.088936445197666, 22.892012187239562 ], [ -13.961360342261077, 22.431933554725685 ] ] ] ] } },
{ "type": "Feature", "properties": { "geogrid_id": "5222612178018986008", "seqnum": 10606.0, "lat_c": 22.612178234521171, "lon_c": -18.986008019639335, "res": 8.0, "count_Reptiles": 0, "count_Insects": 0, "count_Birds": 0, "count_Mammals": 5, "count_Flowering Plants": 0, "count_Arachnids": 0, "count_Molluscs": 1, "count_Amphibians": 0, "unique_species_count": 6.0, "countryCode": "EH" }, "geometry": { "type": "MultiPolygon", "coordinates": [ [ [ [ -18.439256796323857, 22.465512590039364 ], [ -18.845342573779739, 22.160007995180724 ], [ -19.392130235606274, 22.305680991050025 ], [ -19.534320818677969, 22.756885804848594 ], [ -19.127410757356333, 23.064393130857678 ], [ -18.579105923578716, 22.918652525365118 ], [ -18.439256796323857, 22.465512590039364 ] ] ] ] } },
{ "type": "Feature", "properties": { "geogrid_id": "5222726664013549487", "seqnum": 10693.0, "lat_c": 22.726664270244573, "lon_c": -13.549487327821621, "res": 8.0, "count_Reptiles": 0, "count_Insects": 0, "count_Birds": 1, "count_Mammals": 1, "count_Flowering Plants": 0, "count_Arachnids": 0, "count_Molluscs": 0, "count_Amphibians": 0, "unique_species_count": 2.0, "countryCode": "EH" }, "geometry": { "type": "MultiPolygon", "coordinates": [ [ [ [ -13.011273355970044, 22.5590451217567 ], [ -13.423482673696668, 22.265986272944971 ], [ -13.961360342261077, 22.431933554725685 ], [ -14.088936445197666, 22.892012187239562 ], [ -13.675963123235428, 23.187415224399686 ], [ -13.136149020424137, 23.020366787599475 ], [ -13.011273355970044, 22.5590451217567 ] ] ] ] } },
{ "type": "Feature", "properties": { "geogrid_id": "5222770869018032314", "seqnum": 10607.0, "lat_c": 22.770869002119849, "lon_c": -18.032314399128051, "res": 8.0, "count_Reptiles": 0, "count_Insects": 0, "count_Birds": 1, "count_Mammals": 1, "count_Flowering Plants": 0, "count_Arachnids": 0, "count_Molluscs": 0, "count_Amphibians": 0, "unique_species_count": 2.0, "countryCode": "EH" }, "geometry": { "type": "MultiPolygon", "coordinates": [ [ [ [ -17.486988241950353, 22.621007264107618 ], [ -17.894012415154258, 22.316843356146556 ], [ -18.439256796323857, 22.465512590039364 ], [ -18.579105923578716, 22.918652525365118 ], [ -18.171327266347046, 23.224954171364271 ], [ -17.624423716392883, 23.07593981107161 ], [ -17.486988241950353, 22.621007264107618 ] ] ] ] } },
{ "type": "Feature", "properties": { "geogrid_id": "5222924783017078950", "seqnum": 10608.0, "lat_c": 22.924782833995859, "lon_c": -17.078950285272882, "res": 8.0, "count_Reptiles": 1, "count_Insects": 0, "count_Birds": 3, "count_Mammals": 8, "count_Flowering Plants": 0, "count_Arachnids": 0, "count_Molluscs": 0, "count_Amphibians": 0, "unique_species_count": 12.0, "countryCode": "EH" }, "geometry": { "type": "MultiPolygon", "coordinates": [ [ [ [ -16.534869347471393, 22.771461826400529 ], [ -16.943084503450478, 22.469038563902245 ], [ -17.486988241950353, 22.621007264107618 ], [ -17.624423716392883, 23.07593981107161 ], [ -17.215495605645955, 23.380597691774195 ], [ -16.669813769175487, 23.228052301785077 ], [ -16.534869347471393, 22.771461826400529 ] ] ] ] } },
{ "type": "Feature", "properties": { "geogrid_id": "5223073294016125500", "seqnum": 10609.0, "lat_c": 23.073293540790445, "lon_c": -16.125499747202568, "res": 8.0, "count_Reptiles": 4, "count_Insects": 1, "count_Birds": 20, "count_Mammals": 0, "count_Flowering Plants": 17, "count_Arachnids": 1, "count_Molluscs": 2, "count_Amphibians": 0, "unique_species_count": 45.0, "countryCode": "EH" }, "geometry": { "type": "MultiPolygon", "coordinates": [ [ [ [ -15.582523676822932, 22.91630973512769 ], [ -15.992146864577355, 22.615959794262096 ], [ -16.534869347471393, 22.771461826400529 ], [ -16.669813769175487, 23.228052301785077 ], [ -16.259496144615635, 23.530705993030118 ], [ -15.714896981376951, 23.374431553581573 ], [ -15.582523676822932, 22.91630973512769 ] ] ] ] } },
{ "type": "Feature", "properties": { "geogrid_id": "5223215894015171620", "seqnum": 10610.0, "lat_c": 23.215893951743396, "lon_c": -15.171619716795433, "res": 8.0, "count_Reptiles": 12, "count_Insects": 10, "count_Birds": 39, "count_Mammals": 11, "count_Flowering Plants": 9, "count_Arachnids": 2, "count_Molluscs": 0, "count_Amphibians": 0, "unique_species_count": 83.0, "countryCode": "EH" }, "geometry": { "type": "MultiPolygon", "coordinates": [ [ [ [ -14.629640301688555, 23.055088410299319 ], [ -15.040858235811385, 22.757092207023845 ], [ -15.582523676822932, 22.91630973512769 ], [ -15.714896981376951, 23.374431553581573 ], [ -15.302984302703464, 23.674780241602917 ], [ -14.759361617443913, 23.514622789951893 ], [ -14.629640301688555, 23.055088410299319 ] ] ] ] } },
{ "type": "Feature", "properties": { "geogrid_id": "5223352168014217028", "seqnum": 10611.0, "lat_c": 23.352167734941737, "lon_c": -14.217027801721647, "res": 8.0, "count_Reptiles": 0, "count_Insects": 0, "count_Birds": 3, "count_Mammals": 1, "count_Flowering Plants": 3, "count_Arachnids": 0, "count_Molluscs": 0, "count_Amphibians": 0, "unique_species_count": 7.0, "countryCode": "EH" }, "geometry": { "type": "MultiPolygon", "coordinates": [ [ [ [ -13.675963123235428, 23.187415224399686 ], [ -14.088936445197666, 22.892012187239562 ], [ -14.629640301688555, 23.055088410299319 ], [ -14.759361617443913, 23.514622789951893 ], [ -14.345677771497769, 23.812411901359063 ], [ -13.802952136504947, 23.648250609304696 ], [ -13.675963123235428, 23.187415224399686 ] ] ] ] } },
{ "type": "Feature", "properties": { "geogrid_id": "5223371853018719703", "seqnum": 10525.0, "lat_c": 23.37185261511938, "lon_c": -18.719702795476341, "res": 8.0, "count_Reptiles": 0, "count_Insects": 0, "count_Birds": 0, "count_Mammals": 5, "count_Flowering Plants": 0, "count_Arachnids": 0, "count_Molluscs": 0, "count_Amphibians": 0, "unique_species_count": 5.0, "countryCode": "EH" }, "geometry": { "type": "MultiPolygon", "coordinates": [ [ [ [ -18.171327266347046, 23.224954171364271 ], [ -18.579105923578716, 22.918652525365118 ], [ -19.127410757356333, 23.064393130857678 ], [ -19.2695971709615, 23.516668199623719 ], [ -18.861095162622998, 23.825128039910449 ], [ -18.311097762945373, 23.679113534633931 ], [ -18.171327266347046, 23.224954171364271 ] ] ] ] } },
{ "type": "Feature", "properties": { "geogrid_id": "5223481769013261492", "seqnum": 10612.0, "lat_c": 23.481768634968439, "lon_c": -13.261492482666915, "res": 8.0, "count_Reptiles": 0, "count_Insects": 0, "count_Birds": 1, "count_Mammals": 0, "count_Flowering Plants": 0, "count_Arachnids": 0, "count_Molluscs": 0, "count_Amphibians": 0, "unique_species_count": 1.0, "countryCode": "EH" }, "geometry": { "type": "MultiPolygon", "coordinates": [ [ [ [ -12.721282237349916, 23.312969671730592 ], [ -13.136149020424137, 23.020366787599475 ], [ -13.675963123235428, 23.187415224399686 ], [ -13.802952136504947, 23.648250609304696 ], [ -13.387346286056358, 23.943261796724087 ], [ -12.845460200744435, 23.775001034748112 ], [ -12.721282237349916, 23.312969671730592 ] ] ] ] } },
{ "type": "Feature", "properties": { "geogrid_id": "5223530945017762578", "seqnum": 10526.0, "lat_c": 23.530944943014081, "lon_c": -17.762578126795734, "res": 8.0, "count_Reptiles": 1, "count_Insects": 0, "count_Birds": 2, "count_Mammals": 7, "count_Flowering Plants": 0, "count_Arachnids": 0, "count_Molluscs": 0, "count_Amphibians": 0, "unique_species_count": 10.0, "countryCode": "EH" }, "geometry": { "type": "MultiPolygon", "coordinates": [ [ [ [ -17.215495605645955, 23.380597691774195 ], [ -17.624423716392883, 23.07593981107161 ], [ -18.171327266347046, 23.224954171364271 ], [ -18.311097762945373, 23.679113534633931 ], [ -17.901499398597963, 23.986036934487615 ], [ -17.352767236193809, 23.836496956602524 ], [ -17.215495605645955, 23.380597691774195 ] ] ] ] } },
{ "type": "Feature", "properties": { "geogrid_id": "5223604405012304825", "seqnum": 13156.0, "lat_c": 23.604405009434867, "lon_c": -12.304825180919213, "res": 8.0, "count_Reptiles": 0, "count_Insects": 0, "count_Birds": 1, "count_Mammals": 0, "count_Flowering Plants": 0, "count_Arachnids": 0, "count_Molluscs": 0, "count_Amphibians": 0, "unique_species_count": 1.0, "countryCode": "EH" }, "geometry": { "type": "MultiPolygon", "coordinates": [ [ [ [ -11.888633785384361, 23.890000026617486 ], [ -11.769585648074559, 23.421859121542628 ], [ -12.184367741543195, 23.136795561292747 ], [ -12.721282237349916, 23.312969671730592 ], [ -12.845460200744435, 23.775001034748112 ], [ -12.427803383024871, 24.067044598191266 ], [ -11.888633785384361, 23.890000026617486 ] ] ] ] } },
{ "type": "Feature", "properties": { "geogrid_id": "5223684724016805443", "seqnum": 10527.0, "lat_c": 23.684724450665342, "lon_c": -16.80544335080452, "res": 8.0, "count_Reptiles": 1, "count_Insects": 0, "count_Birds": 4, "count_Mammals": 5, "count_Flowering Plants": 0, "count_Arachnids": 0, "count_Molluscs": 0, "count_Amphibians": 0, "unique_species_count": 10.0, "countryCode": "EH" }, "geometry": { "type": "MultiPolygon", "coordinates": [ [ [ [ -16.259496144615635, 23.530705993030118 ], [ -16.669813769175487, 23.228052301785077 ], [ -17.215495605645955, 23.380597691774195 ], [ -17.352767236193809, 23.836496956602524 ], [ -16.941805871576918, 24.141491667989076 ], [ -16.394182566580625, 23.988210155191421 ], [ -16.259496144615635, 23.530705993030118 ] ] ] ] } },
{ "type": "Feature", "properties": { "geogrid_id": "5223832642015847917", "seqnum": 10528.0, "lat_c": 23.832641566120234, "lon_c": -15.847917003859147, "res": 8.0, "count_Reptiles": 11, "count_Insects": 55, "count_Birds": 121, "count_Mammals": 13, "count_Flowering Plants": 55, "count_Arachnids": 5, "count_Molluscs": 71, "count_Amphibians": 1, "unique_species_count": 332.0, "countryCode": "EH" }, "geometry": { "type": "MultiPolygon", "coordinates": [ [ [ [ -15.302984302703464, 23.674780241602917 ], [ -15.714896981376951, 23.374431553581573 ], [ -16.259496144615635, 23.530705993030118 ], [ -16.394182566580625, 23.988210155191421 ], [ -15.981631105033927, 24.290952346891896 ], [ -15.434997997155287, 24.133763326454964 ], [ -15.302984302703464, 23.674780241602917 ] ] ] ] } },
{ "type": "Feature", "properties": { "geogrid_id": "5223969019019412616", "seqnum": 10443.0, "lat_c": 23.969019176317662, "lon_c": -19.412615979643562, "res": 8.0, "count_Reptiles": 0, "count_Insects": 0, "count_Birds": 0, "count_Mammals": 1, "count_Flowering Plants": 0, "count_Arachnids": 0, "count_Molluscs": 0, "count_Amphibians": 0, "unique_species_count": 1.0, "countryCode": "EH" }, "geometry": { "type": "MultiPolygon", "coordinates": [ [ [ [ -18.861095162622998, 23.825128039910449 ], [ -19.2695971709615, 23.516668199623719 ], [ -19.821063191469708, 23.659441670466908 ], [ -19.965711819288586, 24.11082511618368 ], [ -19.556518456321584, 24.42146199769147 ], [ -19.003333211259235, 24.278494129845374 ], [ -18.861095162622998, 23.825128039910449 ] ] ] ] } },
{ "type": "Feature", "properties": { "geogrid_id": "5223974250014889687", "seqnum": 10529.0, "lat_c": 23.974249911687313, "lon_c": -14.889686863602353, "res": 8.0, "count_Reptiles": 3, "count_Insects": 2, "count_Birds": 12, "count_Mammals": 5, "count_Flowering Plants": 3, "count_Arachnids": 1, "count_Molluscs": 0, "count_Amphibians": 0, "unique_species_count": 26.0, "countryCode": "EH" }, "geometry": { "type": "MultiPolygon", "coordinates": [ [ [ [ -14.345677771497769, 23.812411901359063 ], [ -14.759361617443913, 23.514622789951893 ], [ -15.302984302703464, 23.674780241602917 ], [ -15.434997997155287, 24.133763326454964 ], [ -15.020662752170002, 24.43398160450851 ], [ -14.474931644633815, 24.272756254944277 ], [ -14.345677771497769, 23.812411901359063 ] ] ] ] } },
{ "type": "Feature", "properties": { "geogrid_id": "5224109182013930498", "seqnum": 10530.0, "lat_c": 24.109181762573627, "lon_c": -13.930498267909641, "res": 8.0, "count_Reptiles": 0, "count_Insects": 2, "count_Birds": 3, "count_Mammals": 3, "count_Flowering Plants": 2, "count_Arachnids": 1, "count_Molluscs": 10, "count_Amphibians": 0, "unique_species_count": 21.0, "countryCode": "EH" }, "geometry": { "type": "MultiPolygon", "coordinates": [ [ [ [ -13.387346286056358, 23.943261796724087 ], [ -13.802952136504947, 23.648250609304696 ], [ -14.345677771497769, 23.812411901359063 ], [ -14.474931644633815, 24.272756254944277 ], [ -14.058647385911533, 24.570219850353556 ], [ -13.513754831126732, 24.40485723688726 ], [ -13.387346286056358, 23.943261796724087 ] ] ] ] } },
{ "type": "Feature", "properties": { "geogrid_id": "5224133362018451675", "seqnum": 10444.0, "lat_c": 24.133361868932042, "lon_c": -18.451674955604378, "res": 8.0, "count_Reptiles": 1, "count_Insects": 0, "count_Birds": 0, "count_Mammals": 3, "count_Flowering Plants": 0, "count_Arachnids": 0, "count_Molluscs": 0, "count_Amphibians": 0, "unique_species_count": 4.0, "countryCode": "EH" }, "geometry": { "type": "MultiPolygon", "coordinates": [ [ [ [ -17.901499398597963, 23.986036934487615 ], [ -18.311097762945373, 23.679113534633931 ], [ -18.861095162622998, 23.825128039910449 ], [ -19.003333211259235, 24.278494129845374 ], [ -18.593110441266038, 24.587714028461043 ], [ -18.041237861315523, 24.441230100816121 ], [ -17.901499398597963, 23.986036934487615 ] ] ] ] } },
{ "type": "Feature", "properties": { "geogrid_id": "5224237130012970145", "seqnum": 10531.0, "lat_c": 24.237130007079514, "lon_c": -12.970144756077726, "res": 8.0, "count_Reptiles": 0, "count_Insects": 0, "count_Birds": 1, "count_Mammals": 0, "count_Flowering Plants": 0, "count_Arachnids": 0, "count_Molluscs": 0, "count_Amphibians": 0, "unique_species_count": 1.0, "countryCode": "EH" }, "geometry": { "type": "MultiPolygon", "coordinates": [ [ [ [ -12.427803383024871, 24.067044598191266 ], [ -12.845460200744435, 23.775001034748112 ], [ -13.387346286056358, 23.943261796724087 ], [ -13.513754831126732, 24.40485723688726 ], [ -13.095380763360636, 24.699367174411652 ], [ -12.551283527018825, 24.529787541668586 ], [ -12.427803383024871, 24.067044598191266 ] ] ] ] } },
{ "type": "Feature", "properties": { "geogrid_id": "5224292494017490814", "seqnum": 10445.0, "lat_c": 24.29249445894488, "lon_c": -17.490814231374774, "res": 8.0, "count_Reptiles": 1, "count_Insects": 0, "count_Birds": 0, "count_Mammals": 8, "count_Flowering Plants": 0, "count_Arachnids": 0, "count_Molluscs": 3, "count_Amphibians": 0, "unique_species_count": 12.0, "countryCode": "EH" }, "geometry": { "type": "MultiPolygon", "coordinates": [ [ [ [ -16.941805871576918, 24.141491667989076 ], [ -17.352767236193809, 23.836496956602524 ], [ -17.901499398597963, 23.986036934487615 ], [ -18.041237861315523, 24.441230100816121 ], [ -17.629688128192523, 24.748604004347222 ], [ -17.078951462989888, 24.598367300743352 ], [ -16.941805871576918, 24.141491667989076 ] ] ] ] } },
{ "type": "Feature", "properties": { "geogrid_id": "5224357835012008461", "seqnum": 13157.0, "lat_c": 24.357834739993994, "lon_c": -12.008460519768278, "res": 8.0, "count_Reptiles": 0, "count_Insects": 0, "count_Birds": 1, "count_Mammals": 0, "count_Flowering Plants": 0, "count_Arachnids": 0, "count_Molluscs": 0, "count_Amphibians": 0, "unique_species_count": 1.0, "countryCode": "EH" }, "geometry": { "type": "MultiPolygon", "coordinates": [ [ [ [ -11.589121601238432, 24.643196693397485 ], [ -11.470760707151209, 24.174851828958598 ], [ -11.888633785384361, 23.890000026617486 ], [ -12.427803383024871, 24.067044598191266 ], [ -12.551283527018825, 24.529787541668586 ], [ -12.130700006039728, 24.821169968353285 ], [ -11.589121601238432, 24.643196693397485 ] ] ] ] } },
{ "type": "Feature", "properties": { "geogrid_id": "5224445819016529608", "seqnum": 10446.0, "lat_c": 24.445818965532148, "lon_c": -16.529607751001826, "res": 8.0, "count_Reptiles": 0, "count_Insects": 0, "count_Birds": 2, "count_Mammals": 8, "count_Flowering Plants": 0, "count_Arachnids": 0, "count_Molluscs": 3, "count_Amphibians": 0, "unique_species_count": 13.0, "countryCode": "EH" }, "geometry": { "type": "MultiPolygon", "coordinates": [ [ [ [ -15.981631105033927, 24.290952346891896 ], [ -16.394182566580625, 23.988210155191421 ], [ -16.941805871576918, 24.141491667989076 ], [ -17.078951462989888, 24.598367300743352 ], [ -16.665822853155237, 24.903545255992469 ], [ -16.116088931523485, 24.749376351851826 ], [ -15.981631105033927, 24.290952346891896 ] ] ] ] } },
{ "type": "Feature", "properties": { "geogrid_id": "5224592855015567709", "seqnum": 10447.0, "lat_c": 24.592855329624886, "lon_c": -15.567708964901135, "res": 8.0, "count_Reptiles": 0, "count_Insects": 1, "count_Birds": 13, "count_Mammals": 1, "count_Flowering Plants": 0, "count_Arachnids": 0, "count_Molluscs": 3, "count_Amphibians": 0, "unique_species_count": 18.0, "countryCode": "EH" }, "geometry": { "type": "MultiPolygon", "coordinates": [ [ [ [ -15.020662752170002, 24.43398160450851 ], [ -15.434997997155287, 24.133763326454964 ], [ -15.981631105033927, 24.290952346891896 ], [ -16.116088931523485, 24.749376351851826 ], [ -15.701167710523968, 25.052068205221698 ], [ -15.152338204186073, 24.893829525332894 ], [ -15.020662752170002, 24.43398160450851 ] ] ] ] } },
{ "type": "Feature", "properties": { "geogrid_id": "5224733212014604837", "seqnum": 10448.0, "lat_c": 24.733212191471804, "lon_c": -14.60483679655179, "res": 8.0, "count_Reptiles": 4, "count_Insects": 2, "count_Birds": 16, "count_Mammals": 4, "count_Flowering Plants": 4, "count_Arachnids": 0, "count_Molluscs": 1, "count_Amphibians": 0, "unique_species_count": 31.0, "countryCode": "EH" }, "geometry": { "type": "MultiPolygon", "coordinates": [ [ [ [ -14.058647385911533, 24.570219850353556 ], [ -14.474931644633815, 24.272756254944277 ], [ -15.020662752170002, 24.43398160450851 ], [ -15.152338204186073, 24.893829525332894 ], [ -14.735442856375002, 25.193790890546257 ], [ -14.187447483911487, 25.03137582681007 ], [ -14.058647385911533, 24.570219850353556 ] ] ] ] } },
{ "type": "Feature", "properties": { "geogrid_id": "5224866566013640765", "seqnum": 10449.0, "lat_c": 24.866565712941846, "lon_c": -13.640764521719239, "res": 8.0, "count_Reptiles": 0, "count_Insects": 1, "count_Birds": 1, "count_Mammals": 0, "count_Flowering Plants": 0, "count_Arachnids": 0, "count_Molluscs": 5, "count_Amphibians": 0, "unique_species_count": 7.0, "countryCode": "EH" }, "geometry": { "type": "MultiPolygon", "coordinates": [ [ [ [ -13.095380763360636, 24.699367174411652 ], [ -13.513754831126732, 24.40485723688726 ], [ -14.058647385911533, 24.570219850353556 ], [ -14.187447483911487, 25.03137582681007 ], [ -13.768423923420709, 25.328397732655237 ], [ -13.221215118488033, 25.161722882281236 ], [ -13.095380763360636, 24.699367174411652 ] ] ] ] } },
{ "type": "Feature", "properties": { "geogrid_id": "5224896539018181846", "seqnum": 10363.0, "lat_c": 24.896538761514655, "lon_c": -18.181846463582879, "res": 8.0, "count_Reptiles": 1, "count_Insects": 0, "count_Birds": 0, "count_Mammals": 3, "count_Flowering Plants": 0, "count_Arachnids": 0, "count_Molluscs": 0, "count_Amphibians": 0, "unique_species_count": 4.0, "countryCode": "EH" }, "geometry": { "type": "MultiPolygon", "coordinates": [ [ [ [ -17.629688128192523, 24.748604004347222 ], [ -18.041237861315523, 24.441230100816121 ], [ -18.593110441266038, 24.587714028461043 ], [ -18.73545857896389, 25.042184907992482 ], [ -18.323381010539634, 25.351977195325585 ], [ -17.769443165984633, 25.204839329710438 ], [ -17.629688128192523, 24.748604004347222 ] ] ] ] } },
{ "type": "Feature", "properties": { "geogrid_id": "5224992644012675311", "seqnum": 10450.0, "lat_c": 24.992644047080926, "lon_c": -12.67531088997764, "res": 8.0, "count_Reptiles": 0, "count_Insects": 0, "count_Birds": 2, "count_Mammals": 0, "count_Flowering Plants": 0, "count_Arachnids": 0, "count_Molluscs": 0, "count_Amphibians": 0, "unique_species_count": 2.0, "countryCode": "EH" }, "geometry": { "type": "MultiPolygon", "coordinates": [ [ [ [ -12.130700006039728, 24.821169968353285 ], [ -12.551283527018825, 24.529787541668586 ], [ -13.095380763360636, 24.699367174411652 ], [ -13.221215118488033, 25.161722882281236 ], [ -12.799932816242594, 25.45562404747573 ], [ -12.253481508091999, 25.2846236152809 ], [ -12.130700006039728, 24.821169968353285 ] ] ] ] } },
{ "type": "Feature", "properties": { "geogrid_id": "5225055365017216933", "seqnum": 10364.0, "lat_c": 25.055364605799138, "lon_c": -17.216932812610779, "res": 8.0, "count_Reptiles": 0, "count_Insects": 0, "count_Birds": 4, "count_Mammals": 4, "count_Flowering Plants": 0, "count_Arachnids": 0, "count_Molluscs": 0, "count_Amphibians": 0, "unique_species_count": 8.0, "countryCode": "EH" }, "geometry": { "type": "MultiPolygon", "coordinates": [ [ [ [ -16.665822853155237, 24.903545255992469 ], [ -17.078951462989888, 24.598367300743352 ], [ -17.629688128192523, 24.748604004347222 ], [ -17.769443165984633, 25.204839329710438 ], [ -17.35580538807238, 25.512496699464524 ], [ -16.802881653108962, 25.361401704284415 ], [ -16.665822853155237, 24.903545255992469 ] ] ] ] } },
{ "type": "Feature", "properties": { "geogrid_id": "5225111216011708333", "seqnum": 13158.0, "lat_c": 25.111215822270751, "lon_c": -11.708332983235966, "res": 8.0, "count_Reptiles": 0, "count_Insects": 0, "count_Birds": 1, "count_Mammals": 0, "count_Flowering Plants": 0, "count_Arachnids": 0, "count_Molluscs": 0, "count_Amphibians": 0, "unique_species_count": 1.0, "countryCode": "EH" }, "geometry": { "type": "MultiPolygon", "coordinates": [ [ [ [ -11.285687227731726, 25.396283197782022 ], [ -11.167998829275778, 24.927775772681951 ], [ -11.589121601238432, 24.643196693397485 ], [ -12.130700006039728, 24.821169968353285 ], [ -12.253481508091999, 25.2846236152809 ], [ -11.829830338412275, 25.575244623184286 ], [ -11.285687227731726, 25.396283197782022 ] ] ] ] } },
{ "type": "Feature", "properties": { "geogrid_id": "5225207926016251343", "seqnum": 10365.0, "lat_c": 25.207925873458759, "lon_c": -16.25134260818632, "res": 8.0, "count_Reptiles": 0, "count_Insects": 0, "count_Birds": 1, "count_Mammals": 7, "count_Flowering Plants": 0, "count_Arachnids": 0, "count_Molluscs": 0, "count_Amphibians": 0, "unique_species_count": 8.0, "countryCode": "EH" }, "geometry": { "type": "MultiPolygon", "coordinates": [ [ [ [ -15.701167710523968, 25.052068205221698 ], [ -16.116088931523485, 24.749376351851826 ], [ -16.665822853155237, 24.903545255992469 ], [ -16.802881653108962, 25.361401704284415 ], [ -16.387446948748924, 25.666612987413334 ], [ -15.83542727361357, 25.511413688252777 ], [ -15.701167710523968, 25.052068205221698 ] ] ] ] } },
{ "type": "Feature", "properties": { "geogrid_id": "5225353805015284765", "seqnum": 10366.0, "lat_c": 25.353805112372182, "lon_c": -15.284764530869005, "res": 8.0, "count_Reptiles": 2, "count_Insects": 0, "count_Birds": 3, "count_Mammals": 2, "count_Flowering Plants": 0, "count_Arachnids": 0, "count_Molluscs": 0, "count_Amphibians": 0, "unique_species_count": 7.0, "countryCode": "EH" }, "geometry": { "type": "MultiPolygon", "coordinates": [ [ [ [ -14.735442856375002, 25.193790890546257 ], [ -15.152338204186073, 24.893829525332894 ], [ -15.701167710523968, 25.052068205221698 ], [ -15.83542727361357, 25.511413688252777 ], [ -15.417995631261299, 25.813919531029313 ], [ -14.866801890242328, 25.654503265369986 ], [ -14.735442856375002, 25.193790890546257 ] ] ] ] } },
{ "type": "Feature", "properties": { "geogrid_id": "5225492660014316949", "seqnum": 10367.0, "lat_c": 25.492660387535896, "lon_c": -14.316948850544305, "res": 8.0, "count_Reptiles": 3, "count_Insects": 0, "count_Birds": 7, "count_Mammals": 1, "count_Flowering Plants": 4, "count_Arachnids": 0, "count_Molluscs": 0, "count_Amphibians": 0, "unique_species_count": 15.0, "countryCode": "EH" }, "geometry": { "type": "MultiPolygon", "coordinates": [ [ [ [ -13.768423923420709, 25.328397732655237 ], [ -14.187447483911487, 25.03137582681007 ], [ -14.735442856375002, 25.193790890546257 ], [ -14.866801890242328, 25.654503265369986 ], [ -14.447204254906204, 25.954083916024786 ], [ -13.89678393554814, 25.790363504665276 ], [ -13.768423923420709, 25.328397732655237 ] ] ] ] } },
{ "type": "Feature", "properties": { "geogrid_id": "5225624207013347697", "seqnum": 10368.0, "lat_c": 25.624207190473559, "lon_c": -13.347696913171164, "res": 8.0, "count_Reptiles": 0, "count_Insects": 0, "count_Birds": 1, "count_Mammals": 0, "count_Flowering Plants": 0, "count_Arachnids": 0, "count_Molluscs": 0, "count_Amphibians": 0, "unique_species_count": 1.0, "countryCode": "EH" }, "geometry": { "type": "MultiPolygon", "coordinates": [ [ [ [ -12.799932816242594, 25.45562404747573 ], [ -13.221215118488033, 25.161722882281236 ], [ -13.768423923420709, 25.328397732655237 ], [ -13.89678393554814, 25.790363504665276 ], [ -13.474877608409022, 26.086829821061887 ], [ -12.925198877386151, 25.918737155915611 ], [ -12.799932816242594, 25.45562404747573 ] ] ] ] } },
{ "type": "Feature", "properties": { "geogrid_id": "5225661214017910137", "seqnum": 10282.0, "lat_c": 25.66121405046491, "lon_c": -17.910136528714599, "res": 8.0, "count_Reptiles": 0, "count_Insects": 0, "count_Birds": 0, "count_Mammals": 3, "count_Flowering Plants": 0, "count_Arachnids": 0, "count_Molluscs": 0, "count_Amphibians": 0, "unique_species_count": 3.0, "countryCode": "EH" }, "geometry": { "type": "MultiPolygon", "coordinates": [ [ [ [ -17.35580538807238, 25.512496699464524 ], [ -17.769443165984633, 25.204839329710438 ], [ -18.323381010539634, 25.351977195325585 ], [ -18.465900426352359, 25.807559585290772 ], [ -18.051828612524005, 26.117741597004716 ], [ -17.495627683669372, 25.969776497312417 ], [ -17.35580538807238, 25.512496699464524 ] ] ] ] } },
{ "type": "Feature", "properties": { "geogrid_id": "5225748205012376853", "seqnum": 10369.0, "lat_c": 25.748205205186185, "lon_c": -12.376852773584046, "res": 8.0, "count_Reptiles": 0, "count_Insects": 0, "count_Birds": 2, "count_Mammals": 0, "count_Flowering Plants": 0, "count_Arachnids": 0, "count_Molluscs": 0, "count_Amphibians": 0, "unique_species_count": 2.0, "countryCode": "EH" }, "geometry": { "type": "MultiPolygon", "coordinates": [ [ [ [ -11.829830338412275, 25.575244623184286 ], [ -12.253481508091999, 25.2846236152809 ], [ -12.799932816242594, 25.45562404747573 ], [ -12.925198877386151, 25.918737155915611 ], [ -12.500863807534444, 26.211923908173613 ], [ -11.951911616244439, 26.039405347588701 ], [ -11.829830338412275, 25.575244623184286 ] ] ] ] } },
{ "type": "Feature", "properties": { "geogrid_id": "5225819401016940841", "seqnum": 10283.0, "lat_c": 25.819400777182075, "lon_c": -16.940840783425759, "res": 8.0, "count_Reptiles": 1, "count_Insects": 0, "count_Birds": 0, "count_Mammals": 4, "count_Flowering Plants": 0, "count_Arachnids": 0, "count_Molluscs": 0, "count_Amphibians": 0, "unique_species_count": 5.0, "countryCode": "EH" }, "geometry": { "type": "MultiPolygon", "coordinates": [ [ [ [ -16.387446948748924, 25.666612987413334 ], [ -16.802881653108962, 25.361401704284415 ], [ -17.35580538807238, 25.512496699464524 ], [ -17.495627683669372, 25.969776497312417 ], [ -17.079759979511362, 26.277554663544496 ], [ -16.524459686755712, 26.125449490160108 ], [ -16.387446948748924, 25.666612987413334 ] ] ] ] } },
{ "type": "Feature", "properties": { "geogrid_id": "5225864449011404296", "seqnum": 13159.0, "lat_c": 25.864448518200192, "lon_c": -11.404296481676207, "res": 8.0, "count_Reptiles": 0, "count_Insects": 0, "count_Birds": 1, "count_Mammals": 0, "count_Flowering Plants": 1, "count_Arachnids": 0, "count_Molluscs": 0, "count_Amphibians": 0, "unique_species_count": 2.0, "countryCode": "EH" }, "geometry": { "type": "MultiPolygon", "coordinates": [ [ [ [ -10.978181409361131, 26.149155889638521 ], [ -10.861153004181856, 25.68052456633977 ], [ -11.285687227731726, 25.396283197782022 ], [ -11.829830338412275, 25.575244623184286 ], [ -11.951911616244439, 26.039405347588701 ], [ -11.525047389221404, 26.329166177471034 ], [ -10.978181409361131, 26.149155889638521 ] ] ] ] } },
{ "type": "Feature", "properties": { "geogrid_id": "5225963912010434672", "seqnum": 13241.0, "lat_c": 25.963912109185149, "lon_c": -10.434672320481896, "res": 8.0, "count_Reptiles": 0, "count_Insects": 0, "count_Birds": 1, "count_Mammals": 0, "count_Flowering Plants": 0, "count_Arachnids": 0, "count_Molluscs": 0, "count_Amphibians": 0, "unique_species_count": 1.0, "countryCode": "EH" }, "geometry": { "type": "MultiPolygon", "coordinates": [ [ [ [ -10.006186063816829, 26.246416356636608 ], [ -9.893359177719477, 25.7765550519564 ], [ -10.3201755589299, 25.494482557343009 ], [ -10.861153004181856, 25.68052456633977 ], [ -10.978181409361131, 26.149155889638521 ], [ -10.550070799584114, 26.432990489898739 ], [ -10.006186063816829, 26.246416356636608 ] ] ] ] } },
{ "type": "Feature", "properties": { "geogrid_id": "5225970903015970543", "seqnum": 10284.0, "lat_c": 25.970903236426985, "lon_c": -15.970543442224297, "res": 8.0, "count_Reptiles": 0, "count_Insects": 0, "count_Birds": 3, "count_Mammals": 7, "count_Flowering Plants": 0, "count_Arachnids": 0, "count_Molluscs": 0, "count_Amphibians": 0, "unique_species_count": 10.0, "countryCode": "EH" }, "geometry": { "type": "MultiPolygon", "coordinates": [ [ [ [ -15.417995631261299, 25.813919531029313 ], [ -15.83542727361357, 25.511413688252777 ], [ -16.387446948748924, 25.666612987413334 ], [ -16.524459686755712, 26.125449490160108 ], [ -16.106574986650568, 26.430547962351817 ], [ -15.552088208159178, 26.274183611186292 ], [ -15.417995631261299, 25.813919531029313 ] ] ] ] } },
{ "type": "Feature", "properties": { "geogrid_id": "5226057734009464527", "seqnum": 13323.0, "lat_c": 26.057734002500005, "lon_c": -9.4645271126531672, "res": 8.0, "count_Reptiles": 0, "count_Insects": 0, "count_Birds": 1, "count_Mammals": 0, "count_Flowering Plants": 0, "count_Arachnids": 0, "count_Molluscs": 0, "count_Amphibians": 0, "unique_species_count": 1.0, "countryCode": "EH" }, "geometry": { "type": "MultiPolygon", "coordinates": [ [ [ [ -9.033618478858887, 26.337987389092692 ], [ -8.925074853647615, 25.866967654493561 ], [ -9.354222547169467, 25.58710871382242 ], [ -9.893359177719477, 25.7765550519564 ], [ -10.006186063816829, 26.246416356636608 ], [ -9.575633972760308, 26.528006057184978 ], [ -9.033618478858887, 26.337987389092692 ] ] ] ] } },
{ "type": "Feature", "properties": { "geogrid_id": "5226115360014998969", "seqnum": 10285.0, "lat_c": 26.115359904787766, "lon_c": -14.99896860112438, "res": 8.0, "count_Reptiles": 1, "count_Insects": 1, "count_Birds": 5, "count_Mammals": 1, "count_Flowering Plants": 0, "count_Arachnids": 0, "count_Molluscs": 0, "count_Amphibians": 0, "unique_species_count": 8.0, "countryCode": "EH" }, "geometry": { "type": "MultiPolygon", "coordinates": [ [ [ [ -14.447204254906204, 25.954083916024786 ], [ -14.866801890242328, 25.654503265369986 ], [ -15.417995631261299, 25.813919531029313 ], [ -15.552088208159178, 26.274183611186292 ], [ -15.132000546900271, 26.576371006477885 ], [ -14.578269148266799, 26.415656422226604 ], [ -14.447204254906204, 25.954083916024786 ] ] ] ] } },
{ "type": "Feature", "properties": { "geogrid_id": "5226145890008493840", "seqnum": 13405.0, "lat_c": 26.145890284341505, "lon_c": -8.4938396696858565, "res": 8.0, "count_Reptiles": 0, "count_Insects": 0, "count_Birds": 1, "count_Mammals": 0, "count_Flowering Plants": 0, "count_Arachnids": 0, "count_Molluscs": 0, "count_Amphibians": 0, "unique_species_count": 1.0, "countryCode": "EH" }, "geometry": { "type": "MultiPolygon", "coordinates": [ [ [ [ -8.060454114256036, 26.423841635396535 ], [ -7.95627788204878, 25.951738883348309 ], [ -8.38780925522229, 25.674141200763305 ], [ -8.925074853647615, 25.866967654493561 ], [ -9.033618478858887, 26.337987389092692 ], [ -8.60057116056913, 26.617281159332858 ], [ -8.060454114256036, 26.423841635396535 ] ] ] ] } },
{ "type": "Feature", "properties": { "geogrid_id": "5226252473014025898", "seqnum": 10286.0, "lat_c": 26.252472881975386, "lon_c": -14.025897978053992, "res": 8.0, "count_Reptiles": 3, "count_Insects": 0, "count_Birds": 14, "count_Mammals": 1, "count_Flowering Plants": 8, "count_Arachnids": 1, "count_Molluscs": 0, "count_Amphibians": 0, "unique_species_count": 27.0, "countryCode": "EH" }, "geometry": { "type": "MultiPolygon", "coordinates": [ [ [ [ -13.474877608409022, 26.086829821061887 ], [ -13.89678393554814, 25.790363504665276 ], [ -14.447204254906204, 25.954083916024786 ], [ -14.578269148266799, 26.415656422226604 ], [ -14.155822194881004, 26.71473529737607 ], [ -13.602811222854378, 26.54960009923218 ], [ -13.474877608409022, 26.086829821061887 ] ] ] ] } },
{ "type": "Feature", "properties": { "geogrid_id": "5226381993013051161", "seqnum": 10287.0, "lat_c": 26.381992611237951, "lon_c": -13.051161046982452, "res": 8.0, "count_Reptiles": 2, "count_Insects": 0, "count_Birds": 2, "count_Mammals": 0, "count_Flowering Plants": 3, "count_Arachnids": 0, "count_Molluscs": 0, "count_Amphibians": 0, "unique_species_count": 7.0, "countryCode": "EH" }, "geometry": { "type": "MultiPolygon", "coordinates": [ [ [ [ -12.500863807534444, 26.211923908173613 ], [ -12.925198877386151, 25.918737155915611 ], [ -13.474877608409022, 26.086829821061887 ], [ -13.602811222854378, 26.54960009923218 ], [ -13.177873890233951, 26.845399216508998 ], [ -12.625567046924882, 26.675788485745194 ], [ -12.500863807534444, 26.211923908173613 ] ] ] ] } },
{ "type": "Feature", "properties": { "geogrid_id": "5226503707012074627", "seqnum": 10288.0, "lat_c": 26.503706730545534, "lon_c": -12.074627207363703, "res": 8.0, "count_Reptiles": 12, "count_Insects": 5, "count_Birds": 10, "count_Mammals": 1, "count_Flowering Plants": 13, "count_Arachnids": 2, "count_Molluscs": 0, "count_Amphibians": 1, "unique_species_count": 44.0, "countryCode": "EH" }, "geometry": { "type": "MultiPolygon", "coordinates": [ [ [ [ -11.525047389221404, 26.329166177471034 ], [ -11.951911616244439, 26.039405347588701 ], [ -12.500863807534444, 26.211923908173613 ], [ -12.625567046924882, 26.675788485745194 ], [ -12.198029962961348, 26.968157064354866 ], [ -11.646426041844276, 26.794027619240286 ], [ -11.525047389221404, 26.329166177471034 ] ] ] ] } },
{ "type": "Feature", "properties": { "geogrid_id": "5226617432011096200", "seqnum": 13160.0, "lat_c": 26.617431845995984, "lon_c": -11.096199513803279, "res": 8.0, "count_Reptiles": 0, "count_Insects": 0, "count_Birds": 2, "count_Mammals": 0, "count_Flowering Plants": 0, "count_Arachnids": 0, "count_Molluscs": 0, "count_Amphibians": 0, "unique_species_count": 2.0, "countryCode": "EH" }, "geometry": { "type": "MultiPolygon", "coordinates": [ [ [ [ -10.666449343691244, 26.901709828245217 ], [ -10.550070799584114, 26.432990489898739 ], [ -10.978181409361131, 26.149155889638521 ], [ -11.525047389221404, 26.329166177471034 ], [ -11.646426041844276, 26.794027619240286 ], [ -11.216198689993494, 27.082831017758725 ], [ -10.666449343691244, 26.901709828245217 ] ] ] ] } },
{ "type": "Feature", "properties": { "geogrid_id": "5226715922010119905", "seqnum": 13242.0, "lat_c": 26.715921807523372, "lon_c": -10.119904943533188, "res": 8.0, "count_Reptiles": 0, "count_Insects": 0, "count_Birds": 1, "count_Mammals": 0, "count_Flowering Plants": 0, "count_Arachnids": 0, "count_Molluscs": 0, "count_Amphibians": 0, "unique_species_count": 1.0, "countryCode": "EH" }, "geometry": { "type": "MultiPolygon", "coordinates": [ [ [ [ -9.687623007111609, 26.997917505271488 ], [ -9.575633972760308, 26.528006057184978 ], [ -10.006186063816829, 26.246416356636608 ], [ -10.550070799584114, 26.432990489898739 ], [ -10.666449343691244, 26.901709828245217 ], [ -10.234594106974104, 27.185064486550345 ], [ -9.687623007111609, 26.997917505271488 ] ] ] ] } },
{ "type": "Feature", "properties": { "geogrid_id": "5226734608015687102", "seqnum": 10203.0, "lat_c": 26.734607774580553, "lon_c": -15.687102004327988, "res": 8.0, "count_Reptiles": 0, "count_Insects": 2, "count_Birds": 0, "count_Mammals": 2, "count_Flowering Plants": 0, "count_Arachnids": 0, "count_Molluscs": 0, "count_Amphibians": 0, "unique_species_count": 4.0, "countryCode": "EH" }, "geometry": { "type": "MultiPolygon", "coordinates": [ [ [ [ -15.132000546900271, 26.576371006477885 ], [ -15.552088208159178, 26.274183611186292 ], [ -16.106574986650568, 26.430547962351817 ], [ -16.243583915806287, 26.890358554620924 ], [ -15.823100061247546, 27.195201950761881 ], [ -15.265958378661404, 27.037546299986072 ], [ -15.132000546900271, 26.576371006477885 ] ] ] ] } },
{ "type": "Feature", "properties": { "geogrid_id": "5226808648009142955", "seqnum": 13324.0, "lat_c": 26.808648034475251, "lon_c": -9.1429546111275286, "res": 8.0, "count_Reptiles": 0, "count_Insects": 0, "count_Birds": 1, "count_Mammals": 0, "count_Flowering Plants": 0, "count_Arachnids": 0, "count_Molluscs": 0, "count_Amphibians": 0, "unique_species_count": 1.0, "countryCode": "EH" }, "geometry": { "type": "MultiPolygon", "coordinates": [ [ [ [ -8.70808534408838, 27.08830703089944 ], [ -8.60057116056913, 26.617281159332858 ], [ -9.033618478858887, 26.337987389092692 ], [ -9.575633972760308, 26.528006057184978 ], [ -9.687623007111609, 26.997917505271488 ], [ -9.25316300916243, 27.27894327637264 ], [ -8.70808534408838, 27.08830703089944 ] ] ] ] } },
{ "type": "Feature", "properties": { "geogrid_id": "5226877387014710202", "seqnum": 10204.0, "lat_c": 26.877387472053801, "lon_c": -14.710201883995882, "res": 8.0, "count_Reptiles": 0, "count_Insects": 0, "count_Birds": 1, "count_Mammals": 3, "count_Flowering Plants": 0, "count_Arachnids": 0, "count_Molluscs": 0, "count_Amphibians": 0, "unique_species_count": 4.0, "countryCode": "EH" }, "geometry": { "type": "MultiPolygon", "coordinates": [ [ [ [ -14.155822194881004, 26.71473529737607 ], [ -14.578269148266799, 26.415656422226604 ], [ -15.132000546900271, 26.576371006477885 ], [ -15.265958378661404, 27.037546299986072 ], [ -14.843063957635824, 27.339286106540612 ], [ -14.286615675467571, 27.177159689668763 ], [ -14.155822194881004, 26.71473529737607 ] ] ] ] } },
{ "type": "Feature", "properties": { "geogrid_id": "5227012527013731555", "seqnum": 10205.0, "lat_c": 27.01252688591762, "lon_c": -13.731554537579267, "res": 8.0, "count_Reptiles": 2, "count_Insects": 0, "count_Birds": 9, "count_Mammals": 1, "count_Flowering Plants": 8, "count_Arachnids": 0, "count_Molluscs": 1, "count_Amphibians": 0, "unique_species_count": 21.0, "countryCode": "EH" }, "geometry": { "type": "MultiPolygon", "coordinates": [ [ [ [ -13.177873890233951, 26.845399216508998 ], [ -13.602811222854378, 26.54960009923218 ], [ -14.155822194881004, 26.71473529737607 ], [ -14.286615675467571, 27.177159689668763 ], [ -13.86116731891145, 27.475618501128782 ], [ -13.305394769934734, 27.308965269206265 ], [ -13.177873890233951, 26.845399216508998 ] ] ] ] } },
{ "type": "Feature", "properties": { "geogrid_id": "5227139807012751018", "seqnum": 10206.0, "lat_c": 27.139807227173165, "lon_c": -12.751017551402926, "res": 8.0, "count_Reptiles": 6, "count_Insects": 9, "count_Birds": 73, "count_Mammals": 1, "count_Flowering Plants": 35, "count_Arachnids": 3, "count_Molluscs": 0, "count_Amphibians": 1, "unique_species_count": 128.0, "countryCode": "EH" }, "geometry": { "type": "MultiPolygon", "coordinates": [ [ [ [ -12.198029962961348, 26.968157064354866 ], [ -12.625567046924882, 26.675788485745194 ], [ -13.177873890233951, 26.845399216508998 ], [ -13.305394769934734, 27.308965269206265 ], [ -12.877273210248076, 27.603987877551905 ], [ -12.322175385095973, 27.432764135083833 ], [ -12.198029962961348, 26.968157064354866 ] ] ] ] } },
{ "type": "Feature", "properties": { "geogrid_id": "5227259041011768486", "seqnum": 10207.0, "lat_c": 27.259040678617229, "lon_c": -11.768485654423085, "res": 8.0, "count_Reptiles": 6, "count_Insects": 2, "count_Birds": 3, "count_Mammals": 1, "count_Flowering Plants": 2, "count_Arachnids": 1, "count_Molluscs": 0, "count_Amphibians": 0, "unique_species_count": 15.0, "countryCode": "EH" }, "geometry": { "type": "MultiPolygon", "coordinates": [ [ [ [ -11.216198689993494, 27.082831017758725 ], [ -11.646426041844276, 26.794027619240286 ], [ -12.198029962961348, 26.968157064354866 ], [ -12.322175385095973, 27.432764135083833 ], [ -11.891282119474695, 27.724212650982054 ], [ -11.33687143500527, 27.548384100979071 ], [ -11.216198689993494, 27.082831017758725 ] ] ] ] } },
{ "type": "Feature", "properties": { "geogrid_id": "5227370064010783885", "seqnum": 13161.0, "lat_c": 27.370063572503536, "lon_c": -10.783884902869378, "res": 8.0, "count_Reptiles": 0, "count_Insects": 0, "count_Birds": 1, "count_Mammals": 0, "count_Flowering Plants": 0, "count_Arachnids": 0, "count_Molluscs": 0, "count_Amphibians": 0, "unique_species_count": 1.0, "countryCode": "EH" }, "geometry": { "type": "MultiPolygon", "coordinates": [ [ [ [ -10.350330415614728, 27.653838775526808 ], [ -10.234594106974104, 27.185064486550345 ], [ -10.666449343691244, 26.901709828245217 ], [ -11.216198689993494, 27.082831017758725 ], [ -11.33687143500527, 27.548384100979071 ], [ -10.903126026679681, 27.836134297927487 ], [ -10.350330415614728, 27.653838775526808 ] ] ] ] } },
{ "type": "Feature", "properties": { "geogrid_id": "5227467462009800572", "seqnum": 13243.0, "lat_c": 27.467462421397606, "lon_c": -9.8005723997418457, "res": 8.0, "count_Reptiles": 0, "count_Insects": 0, "count_Birds": 1, "count_Mammals": 0, "count_Flowering Plants": 0, "count_Arachnids": 0, "count_Molluscs": 0, "count_Amphibians": 0, "unique_species_count": 1.0, "countryCode": "EH" }, "geometry": { "type": "MultiPolygon", "coordinates": [ [ [ [ -9.364321698886579, 27.748868222143138 ], [ -9.25316300916243, 27.27894327637264 ], [ -9.687623007111609, 26.997917505271488 ], [ -10.234594106974104, 27.185064486550345 ], [ -10.350330415614728, 27.653838775526808 ], [ -9.914558874706868, 27.936636157056487 ], [ -9.364321698886579, 27.748868222143138 ] ] ] ] } },
{ "type": "Feature", "properties": { "geogrid_id": "5227558963008816462", "seqnum": 13325.0, "lat_c": 27.558962687595415, "lon_c": -8.8164618023921797, "res": 8.0, "count_Reptiles": 0, "count_Insects": 0, "count_Birds": 1, "count_Mammals": 0, "count_Flowering Plants": 0, "count_Arachnids": 0, "count_Molluscs": 0, "count_Amphibians": 0, "unique_species_count": 1.0, "countryCode": "EH" }, "geometry": { "type": "MultiPolygon", "coordinates": [ [ [ [ -8.37745505762822, 27.837937007757944 ], [ -8.270962317139501, 27.366945536376857 ], [ -8.70808534408838, 27.08830703089944 ], [ -9.25316300916243, 27.27894327637264 ], [ -9.364321698886579, 27.748868222143138 ], [ -8.925778347749016, 28.029244309843229 ], [ -8.37745505762822, 27.837937007757944 ] ] ] ] } },
{ "type": "Feature", "properties": { "geogrid_id": "5227639754014418341", "seqnum": 10123.0, "lat_c": 27.639754419403602, "lon_c": -14.418340696298483, "res": 8.0, "count_Reptiles": 0, "count_Insects": 0, "count_Birds": 0, "count_Mammals": 1, "count_Flowering Plants": 0, "count_Arachnids": 0, "count_Molluscs": 0, "count_Amphibians": 0, "unique_species_count": 1.0, "countryCode": "EH" }, "geometry": { "type": "MultiPolygon", "coordinates": [ [ [ [ -13.86116731891145, 27.475618501128782 ], [ -14.286615675467571, 27.177159689668763 ], [ -14.843063957635824, 27.339286106540612 ], [ -14.976920269276143, 27.80136074916075 ], [ -14.551062984613029, 28.102527172652909 ], [ -13.99171256120032, 27.93888263670593 ], [ -13.86116731891145, 27.475618501128782 ] ] ] ] } },
{ "type": "Feature", "properties": { "geogrid_id": "5227772698013433784", "seqnum": 10124.0, "lat_c": 27.772698482028797, "lon_c": -13.43378407041244, "res": 8.0, "count_Reptiles": 3, "count_Insects": 2, "count_Birds": 5, "count_Mammals": 2, "count_Flowering Plants": 8, "count_Arachnids": 0, "count_Molluscs": 0, "count_Amphibians": 0, "unique_species_count": 20.0, "countryCode": "EH" }, "geometry": { "type": "MultiPolygon", "coordinates": [ [ [ [ -12.877273210248076, 27.603987877551905 ], [ -13.305394769934734, 27.308965269206265 ], [ -13.86116731891145, 27.475618501128782 ], [ -13.99171256120032, 27.93888263670593 ], [ -13.563105441271007, 28.23660589308054 ], [ -13.004394967213496, 28.068337556445304 ], [ -12.877273210248076, 27.603987877551905 ] ] ] ] } },
{ "type": "Feature", "properties": { "geogrid_id": "5227897535012447122", "seqnum": 10125.0, "lat_c": 27.897535148795157, "lon_c": -12.447121834483355, "res": 8.0, "count_Reptiles": 0, "count_Insects": 0, "count_Birds": 1, "count_Mammals": 0, "count_Flowering Plants": 0, "count_Arachnids": 0, "count_Molluscs": 0, "count_Amphibians": 0, "unique_species_count": 1.0, "countryCode": "EH" }, "geometry": { "type": "MultiPolygon", "coordinates": [ [ [ [ -11.891282119474695, 27.724212650982054 ], [ -12.322175385095973, 27.432764135083833 ], [ -12.877273210248076, 27.603987877551905 ], [ -13.004394967213496, 28.068337556445304 ], [ -12.572930756050589, 28.362476648370851 ], [ -12.014874214292318, 28.189550218639351 ], [ -11.891282119474695, 27.724212650982054 ] ] ] ] } },
{ "type": "Feature", "properties": { "geogrid_id": "5228014098011458274", "seqnum": 10126.0, "lat_c": 28.014097916446442, "lon_c": -11.458273978619063, "res": 8.0, "count_Reptiles": 0, "count_Insects": 0, "count_Birds": 1, "count_Mammals": 0, "count_Flowering Plants": 0, "count_Arachnids": 0, "count_Molluscs": 0, "count_Amphibians": 0, "unique_species_count": 1.0, "countryCode": "EH" }, "geometry": { "type": "MultiPolygon", "coordinates": [ [ [ [ -10.903126026679681, 27.836134297927487 ], [ -11.33687143500527, 27.548384100979071 ], [ -11.891282119474695, 27.724212650982054 ], [ -12.014874214292318, 28.189550218639351 ], [ -11.580465460028169, 28.479978639578988 ], [ -11.023088633520711, 28.302367252740563 ], [ -10.903126026679681, 27.836134297927487 ] ] ] ] } }
]
}
