{
"type": "FeatureCollection",
"name": "ER",
"crs": { "type": "name", "properties": { "name": "urn:ogc:def:crs:OGC:1.3:CRS84" } },
"features": [
{ "type": "Feature", "properties": { "geogrid_id": "813211244042962854", "seqnum": 20109.0, "lat_c": 13.211243559952278, "lon_c": 42.962853545860952, "res": 8.0, "count_Reptiles": 1, "count_Mammals": 4, "count_Flowering Plants": 1, "count_Amphibians": 0, "count_Birds": 6, "count_Insects": 0, "count_Molluscs": 2, "count_Mosses": 0, "unique_species_count": 14.0, "countryCode": "ER" }, "geometry": { "type": "MultiPolygon", "coordinates": [ [ [ [ 43.10445988546563, 13.65748936081452 ], [ 43.497229946338329, 13.372612698955335 ], [ 43.354825654435693, 12.927077577033113 ], [ 42.821484820465734, 12.76466702813755 ], [ 42.430439670883445, 13.049956364688327 ], [ 42.571014905026381, 13.497242673663258 ], [ 43.10445988546563, 13.65748936081452 ] ] ] ] } },
{ "type": "Feature", "properties": { "geogrid_id": "813336830042039447", "seqnum": 20028.0, "lat_c": 13.336830308129125, "lon_c": 42.039447187980159, "res": 8.0, "count_Reptiles": 1, "count_Mammals": 0, "count_Flowering Plants": 5, "count_Amphibians": 0, "count_Birds": 2, "count_Insects": 0, "count_Molluscs": 0, "count_Mosses": 0, "unique_species_count": 8.0, "countryCode": "ER" }, "geometry": { "type": "MultiPolygon", "coordinates": [ [ [ [ 42.179228346525178, 13.78484137291175 ], [ 42.571014905026381, 13.497242673663258 ], [ 42.430439670883445, 13.049956364688327 ], [ 41.899875145146076, 12.888519624769568 ], [ 41.509651349922862, 13.176048882341247 ], [ 41.648429168953783, 13.625075217793203 ], [ 42.179228346525178, 13.78484137291175 ] ] ] ] } },
{ "type": "Feature", "properties": { "geogrid_id": "813944219042711825", "seqnum": 20110.0, "lat_c": 13.94421896341813, "lon_c": 42.711825147127101, "res": 8.0, "count_Reptiles": 0, "count_Mammals": 1, "count_Flowering Plants": 4, "count_Amphibians": 0, "count_Birds": 0, "count_Insects": 0, "count_Molluscs": 0, "count_Mosses": 0, "unique_species_count": 5.0, "countryCode": "ER" }, "geometry": { "type": "MultiPolygon", "coordinates": [ [ [ [ 42.85289400658317, 14.390895046524578 ], [ 43.246327017895524, 14.103413766665764 ], [ 43.10445988546563, 13.65748936081452 ], [ 42.571014905026381, 13.497242673663258 ], [ 42.179228346525178, 13.78484137291175 ], [ 42.319242314330289, 14.232562918318447 ], [ 42.85289400658317, 14.390895046524578 ] ] ] ] } },
{ "type": "Feature", "properties": { "geogrid_id": "814073822041787414", "seqnum": 20029.0, "lat_c": 14.07382170707503, "lon_c": 41.787413797876141, "res": 8.0, "count_Reptiles": 1, "count_Mammals": 0, "count_Flowering Plants": 7, "count_Amphibians": 0, "count_Birds": 0, "count_Insects": 0, "count_Molluscs": 0, "count_Mosses": 0, "unique_species_count": 8.0, "countryCode": "ER" }, "geometry": { "type": "MultiPolygon", "coordinates": [ [ [ [ 41.926629358627203, 14.522298837331299 ], [ 42.319242314330289, 14.232562918318447 ], [ 42.179228346525178, 13.78484137291175 ], [ 41.648429168953783, 13.625075217793203 ], [ 41.257308699222236, 13.914491347858094 ], [ 41.395492545007613, 14.363980134305729 ], [ 41.926629358627203, 14.522298837331299 ] ] ] ] } },
{ "type": "Feature", "properties": { "geogrid_id": "814204892040866010", "seqnum": 19948.0, "lat_c": 14.204891806951062, "lon_c": 40.866010185034789, "res": 8.0, "count_Reptiles": 0, "count_Mammals": 0, "count_Flowering Plants": 17, "count_Amphibians": 0, "count_Birds": 0, "count_Insects": 0, "count_Molluscs": 1, "count_Mosses": 0, "unique_species_count": 18.0, "countryCode": "ER" }, "geometry": { "type": "MultiPolygon", "coordinates": [ [ [ [ 41.003387264068152, 14.655126425689652 ], [ 41.395492545007613, 14.363980134305729 ], [ 41.257308699222236, 13.914491347858094 ], [ 40.728835923902579, 13.75441560226024 ], [ 40.338097699828843, 14.044897300712423 ], [ 40.474459374986189, 14.496101595575409 ], [ 41.003387264068152, 14.655126425689652 ] ] ] ] } },
{ "type": "Feature", "properties": { "geogrid_id": "814466070039030015", "seqnum": 19786.0, "lat_c": 14.466069881436736, "lon_c": 39.030015261182861, "res": 8.0, "count_Reptiles": 0, "count_Mammals": 0, "count_Flowering Plants": 0, "count_Amphibians": 0, "count_Birds": 2, "count_Insects": 0, "count_Molluscs": 0, "count_Mosses": 0, "unique_species_count": 2.0, "countryCode": "ER" }, "geometry": { "type": "MultiPolygon", "coordinates": [ [ [ [ 39.163708509493624, 14.919625308010188 ], [ 39.555603410471988, 14.627649195507937 ], [ 39.421067740176007, 14.174795050453652 ], [ 38.896465559923591, 14.012319148853685 ], [ 38.505757194495388, 14.303140062140919 ], [ 38.63845392095336, 14.757569901764011 ], [ 39.163708509493624, 14.919625308010188 ] ] ] ] } },
{ "type": "Feature", "properties": { "geogrid_id": "814813219041533906", "seqnum": 20030.0, "lat_c": 14.81321928075104, "lon_c": 41.533905685320562, "res": 8.0, "count_Reptiles": 0, "count_Mammals": 1, "count_Flowering Plants": 0, "count_Amphibians": 0, "count_Birds": 0, "count_Insects": 0, "count_Molluscs": 0, "count_Mosses": 0, "unique_species_count": 1.0, "countryCode": "ER" }, "geometry": { "type": "MultiPolygon", "coordinates": [ [ [ [ 41.672573117904541, 15.262219796655362 ], [ 42.066100374918207, 14.970517260985737 ], [ 41.926629358627203, 14.522298837331299 ], [ 41.395492545007613, 14.363980134305729 ], [ 41.003387264068152, 14.655126425689652 ], [ 41.140992164294488, 15.105130602285731 ], [ 41.672573117904541, 15.262219796655362 ] ] ] ] } },
{ "type": "Feature", "properties": { "geogrid_id": "814947083040611022", "seqnum": 19949.0, "lat_c": 14.947082652804792, "lon_c": 40.611022041621979, "res": 8.0, "count_Reptiles": 1, "count_Mammals": 1, "count_Flowering Plants": 1, "count_Amphibians": 0, "count_Birds": 1, "count_Insects": 0, "count_Molluscs": 0, "count_Mosses": 0, "unique_species_count": 4.0, "countryCode": "ER" }, "geometry": { "type": "MultiPolygon", "coordinates": [ [ [ [ 40.747811148680398, 15.397851883459705 ], [ 41.140992164294488, 15.105130602285731 ], [ 41.003387264068152, 14.655126425689652 ], [ 40.474459374986189, 14.496101595575409 ], [ 40.082583372119053, 14.78795671567714 ], [ 40.218322385032316, 15.239682252471157 ], [ 40.747811148680398, 15.397851883459705 ] ] ] ] } },
{ "type": "Feature", "properties": { "geogrid_id": "815080303039690311", "seqnum": 19868.0, "lat_c": 15.080303347024607, "lon_c": 39.69031063809264, "res": 8.0, "count_Reptiles": 0, "count_Mammals": 5, "count_Flowering Plants": 7, "count_Amphibians": 0, "count_Birds": 7, "count_Insects": 0, "count_Molluscs": 5, "count_Mosses": 0, "unique_species_count": 24.0, "countryCode": "ER" }, "geometry": { "type": "MultiPolygon", "coordinates": [ [ [ [ 39.825215224609174, 15.532769162878285 ], [ 40.218322385032316, 15.239682252471157 ], [ 40.082583372119053, 14.78795671567714 ], [ 39.555603410471988, 14.627649195507937 ], [ 39.163708509493624, 14.919625308010188 ], [ 39.29757099071233, 15.372997085419016 ], [ 39.825215224609174, 15.532769162878285 ] ] ] ] } },
{ "type": "Feature", "properties": { "geogrid_id": "815211820038771291", "seqnum": 19787.0, "lat_c": 15.211820033069159, "lon_c": 38.77129137104474, "res": 8.0, "count_Reptiles": 3, "count_Mammals": 1, "count_Flowering Plants": 17, "count_Amphibians": 1, "count_Birds": 30, "count_Insects": 7, "count_Molluscs": 0, "count_Mosses": 2, "unique_species_count": 61.0, "countryCode": "ER" }, "geometry": { "type": "MultiPolygon", "coordinates": [ [ [ [ 38.904295595951005, 15.665902238087948 ], [ 39.29757099071233, 15.372997085419016 ], [ 39.163708509493624, 14.919625308010188 ], [ 38.63845392095336, 14.757569901764011 ], [ 38.246318780198401, 15.04917040605153 ], [ 38.37828579992086, 15.504107205168886 ], [ 38.904295595951005, 15.665902238087948 ] ] ] ] } },
{ "type": "Feature", "properties": { "geogrid_id": "815340754037853546", "seqnum": 19706.0, "lat_c": 15.340753764371343, "lon_c": 37.853546118803962, "res": 8.0, "count_Reptiles": 0, "count_Mammals": 0, "count_Flowering Plants": 7, "count_Amphibians": 0, "count_Birds": 0, "count_Insects": 2, "count_Molluscs": 0, "count_Mosses": 0, "unique_species_count": 9.0, "countryCode": "ER" }, "geometry": { "type": "MultiPolygon", "coordinates": [ [ [ [ 37.98462686882214, 15.796367921877287 ], [ 38.37828579992086, 15.504107205168886 ], [ 38.246318780198401, 15.04917040605153 ], [ 37.724619271546231, 14.879017839976278 ], [ 37.334112527194534, 15.163485976751108 ], [ 37.46223940111102, 15.62592124490922 ], [ 37.98462686882214, 15.796367921877287 ] ] ] ] } },
{ "type": "Feature", "properties": { "geogrid_id": "815447466036942933", "seqnum": 17983.0, "lat_c": 15.447466047860679, "lon_c": 36.942932930927952, "res": 8.0, "count_Reptiles": 0, "count_Mammals": 0, "count_Flowering Plants": 3, "count_Amphibians": 0, "count_Birds": 0, "count_Insects": 3, "count_Molluscs": 0, "count_Mosses": 0, "unique_species_count": 6.0, "countryCode": "ER" }, "geometry": { "type": "MultiPolygon", "coordinates": [ [ [ [ 37.46223940111102, 15.62592124490922 ], [ 37.334112527194534, 15.163485976751108 ], [ 36.815401735706672, 14.984519452176327 ], [ 36.424372331752295, 15.267305165234406 ], [ 36.551043656503388, 15.730950576771074 ], [ 37.070221011472803, 15.910597677412532 ], [ 37.46223940111102, 15.62592124490922 ] ] ] ] } },
{ "type": "Feature", "properties": { "geogrid_id": "815554916041278850", "seqnum": 20031.0, "lat_c": 15.554915659472307, "lon_c": 41.278850363133174, "res": 8.0, "count_Reptiles": 0, "count_Mammals": 4, "count_Flowering Plants": 2, "count_Amphibians": 0, "count_Birds": 0, "count_Insects": 0, "count_Molluscs": 0, "count_Mosses": 0, "unique_species_count": 6.0, "countryCode": "ER" }, "geometry": { "type": "MultiPolygon", "coordinates": [ [ [ [ 41.416987855450024, 16.004493111811588 ], [ 41.811520318988457, 15.710992878726325 ], [ 41.672573117904541, 15.262219796655362 ], [ 41.140992164294488, 15.105130602285731 ], [ 40.747811148680398, 15.397851883459705 ], [ 40.884852655198522, 15.848420879699635 ], [ 41.416987855450024, 16.004493111811588 ] ] ] ] } },
{ "type": "Feature", "properties": { "geogrid_id": "815691214040354286", "seqnum": 19950.0, "lat_c": 15.691213950685849, "lon_c": 40.354286483288853, "res": 8.0, "count_Reptiles": 1, "count_Mammals": 4, "count_Flowering Plants": 2, "count_Amphibians": 0, "count_Birds": 2, "count_Insects": 1, "count_Molluscs": 45, "count_Mosses": 0, "unique_species_count": 55.0, "countryCode": "ER" }, "geometry": { "type": "MultiPolygon", "coordinates": [ [ [ [ 40.490502106150856, 16.142563628756857 ], [ 40.884852655198522, 15.848420879699635 ], [ 40.747811148680398, 15.397851883459705 ], [ 40.218322385032316, 15.239682252471157 ], [ 39.825215224609174, 15.532769162878285 ], [ 39.960343504491007, 15.985058468657348 ], [ 40.490502106150856, 16.142563628756857 ] ] ] ] } },
{ "type": "Feature", "properties": { "geogrid_id": "815826197039431629", "seqnum": 19869.0, "lat_c": 15.826197025664444, "lon_c": 39.431628908898091, "res": 8.0, "count_Reptiles": 0, "count_Mammals": 5, "count_Flowering Plants": 2, "count_Amphibians": 0, "count_Birds": 29, "count_Insects": 2, "count_Molluscs": 47, "count_Mosses": 0, "unique_species_count": 85.0, "countryCode": "ER" }, "geometry": { "type": "MultiPolygon", "coordinates": [ [ [ [ 39.565909033015018, 16.279237104143057 ], [ 39.960343504491007, 15.985058468657348 ], [ 39.825215224609174, 15.532769162878285 ], [ 39.29757099071233, 15.372997085419016 ], [ 38.904295595951005, 15.665902238087948 ], [ 39.03749319430964, 16.119828448895063 ], [ 39.565909033015018, 16.279237104143057 ] ] ] ] } },
{ "type": "Feature", "properties": { "geogrid_id": "815958891038510417", "seqnum": 19788.0, "lat_c": 15.958891171934932, "lon_c": 38.510416955449848, "res": 8.0, "count_Reptiles": 0, "count_Mammals": 0, "count_Flowering Plants": 3, "count_Amphibians": 0, "count_Birds": 6, "count_Insects": 23, "count_Molluscs": 0, "count_Mosses": 0, "unique_species_count": 32.0, "countryCode": "ER" }, "geometry": { "type": "MultiPolygon", "coordinates": [ [ [ [ 38.642739230133451, 16.413534326245543 ], [ 39.03749319430964, 16.119828448895063 ], [ 38.904295595951005, 15.665902238087948 ], [ 38.37828579992086, 15.504107205168886 ], [ 37.98462686882214, 15.796367921877287 ], [ 38.115868890358676, 16.251843710624097 ], [ 38.642739230133451, 16.413534326245543 ] ] ] ] } },
{ "type": "Feature", "properties": { "geogrid_id": "816298801041022173", "seqnum": 20032.0, "lat_c": 16.298801426832831, "lon_c": 41.022173076335015, "res": 8.0, "count_Reptiles": 0, "count_Mammals": 3, "count_Flowering Plants": 0, "count_Amphibians": 0, "count_Birds": 0, "count_Insects": 0, "count_Molluscs": 0, "count_Mosses": 0, "unique_species_count": 3.0, "countryCode": "ER" }, "geometry": { "type": "MultiPolygon", "coordinates": [ [ [ [ 41.159799532812457, 16.749005515886342 ], [ 41.555431200059068, 16.453874679269937 ], [ 41.416987855450024, 16.004493111811588 ], [ 40.884852655198522, 15.848420879699635 ], [ 40.490502106150856, 16.142563628756857 ], [ 40.626996287185079, 16.593743296579618 ], [ 41.159799532812457, 16.749005515886342 ] ] ] ] } },
{ "type": "Feature", "properties": { "geogrid_id": "816437183040095722", "seqnum": 19951.0, "lat_c": 16.437183267213168, "lon_c": 40.095722392836748, "res": 8.0, "count_Reptiles": 1, "count_Mammals": 2, "count_Flowering Plants": 1, "count_Amphibians": 0, "count_Birds": 0, "count_Insects": 0, "count_Molluscs": 8, "count_Mosses": 0, "unique_species_count": 12.0, "countryCode": "ER" }, "geometry": { "type": "MultiPolygon", "coordinates": [ [ [ [ 40.23137943656549, 16.889155748435019 ], [ 40.626996287185079, 16.593743296579618 ], [ 40.490502106150856, 16.142563628756857 ], [ 39.960343504491007, 15.985058468657348 ], [ 39.565909033015018, 16.279237104143057 ], [ 39.70043874692265, 16.732129467998238 ], [ 40.23137943656549, 16.889155748435019 ] ] ] ] } },
{ "type": "Feature", "properties": { "geogrid_id": "816573611039170911", "seqnum": 19870.0, "lat_c": 16.573610754688765, "lon_c": 39.170911360930646, "res": 8.0, "count_Reptiles": 0, "count_Mammals": 1, "count_Flowering Plants": 2, "count_Amphibians": 0, "count_Birds": 1, "count_Insects": 0, "count_Molluscs": 1, "count_Mosses": 0, "unique_species_count": 5.0, "countryCode": "ER" }, "geometry": { "type": "MultiPolygon", "coordinates": [ [ [ [ 39.304577938954118, 17.027261408841994 ], [ 39.70043874692265, 16.732129467998238 ], [ 39.565909033015018, 16.279237104143057 ], [ 39.03749319430964, 16.119828448895063 ], [ 38.642739230133451, 16.413534326245543 ], [ 38.775280233926573, 16.868048837125343 ], [ 39.304577938954118, 17.027261408841994 ] ] ] ] } },
{ "type": "Feature", "properties": { "geogrid_id": "817044765040763797", "seqnum": 20033.0, "lat_c": 17.044765166864671, "lon_c": 40.763796706550082, "res": 8.0, "count_Reptiles": 0, "count_Mammals": 1, "count_Flowering Plants": 0, "count_Amphibians": 0, "count_Birds": 1, "count_Insects": 0, "count_Molluscs": 0, "count_Mosses": 0, "unique_species_count": 2.0, "countryCode": "ER" }, "geometry": { "type": "MultiPolygon", "coordinates": [ [ [ [ 40.900931747316903, 17.495641666831851 ], [ 41.297759804156527, 17.199045356697585 ], [ 41.159799532812457, 16.749005515886342 ], [ 40.626996287185079, 16.593743296579618 ], [ 40.23137943656549, 16.889155748435019 ], [ 40.367342869443348, 17.34098829921674 ], [ 40.900931747316903, 17.495641666831851 ] ] ] ] } },
{ "type": "Feature", "properties": { "geogrid_id": "818072607038643007", "seqnum": 19872.0, "lat_c": 18.072606846010675, "lon_c": 38.643007003543538, "res": 8.0, "count_Reptiles": 0, "count_Mammals": 0, "count_Flowering Plants": 1, "count_Amphibians": 0, "count_Birds": 0, "count_Insects": 0, "count_Molluscs": 0, "count_Mosses": 0, "unique_species_count": 1.0, "countryCode": "ER" }, "geometry": { "type": "MultiPolygon", "coordinates": [ [ [ [ 38.775479719741121, 18.527574806026603 ], [ 39.174502285508467, 18.230944553654741 ], [ 39.041132331022119, 17.776741384121696 ], [ 38.510839485229589, 17.617562340943334 ], [ 38.112822870274798, 17.91249080488419 ], [ 38.244075356370146, 18.36827161462373 ], [ 38.775479719741121, 18.527574806026603 ] ] ] ] } }
]
}
