{
"type": "FeatureCollection",
"name": "ET",
"crs": { "type": "name", "properties": { "name": "urn:ogc:def:crs:OGC:1.3:CRS84" } },
"features": [
{ "type": "Feature", "properties": { "geogrid_id": "703344971038353293", "seqnum": 6372.0, "lat_c": 3.3449709884188228, "lon_c": 38.353293173519916, "res": 7.0, "count_Birds": 18, "count_Ferns": 0, "count_Mammals": 1, "count_Reptiles": 2, "count_Flowering Plants": 38, "count_Insects": 6, "count_Sac Fungi": 0, "count_Basidiomycota": 0, "count_Gymnosperms": 1, "count_Amphibians": 0, "count_Arachnids": 0, "count_Mosses": 0, "count_Molluscs": 0, "unique_species_count": 66.0, "countryCode": "ET" }, "geometry": { "type": "MultiPolygon", "coordinates": [ [ [ [ 39.052928321058047, 3.937098516684027 ], [ 39.278439116262, 3.224495105312258 ], [ 38.75722335033695, 2.505407184198381 ], [ 38.009263645405206, 2.496396297130996 ], [ 37.608673664616816, 3.33245309655369 ], [ 38.131327788675726, 4.054669141885481 ], [ 39.052928321058047, 3.937098516684027 ] ] ] ] } },
{ "type": "Feature", "properties": { "geogrid_id": "703817930039972050", "seqnum": 6400.0, "lat_c": 3.8179301999002582, "lon_c": 39.972050261040437, "res": 7.0, "count_Birds": 0, "count_Ferns": 0, "count_Mammals": 0, "count_Reptiles": 0, "count_Flowering Plants": 2, "count_Insects": 0, "count_Sac Fungi": 0, "count_Basidiomycota": 0, "count_Gymnosperms": 0, "count_Amphibians": 0, "count_Arachnids": 0, "count_Mosses": 0, "count_Molluscs": 0, "unique_species_count": 2.0, "countryCode": "ET" }, "geometry": { "type": "MultiPolygon", "coordinates": [ [ [ [ 40.656024235170854, 4.416636416325002 ], [ 40.889184928626193, 3.696845359851407 ], [ 40.200810118424187, 3.102765833099549 ], [ 39.278439116262, 3.224495105312258 ], [ 39.052928321058047, 3.937098516684027 ], [ 39.741581935211649, 4.535621584194524 ], [ 40.656024235170854, 4.416636416325002 ] ] ] ] } },
{ "type": "Feature", "properties": { "geogrid_id": "704171031037206679", "seqnum": 6318.0, "lat_c": 4.1710305834071368, "lon_c": 37.206678948999858, "res": 7.0, "count_Birds": 1, "count_Ferns": 0, "count_Mammals": 1, "count_Reptiles": 0, "count_Flowering Plants": 0, "count_Insects": 4, "count_Sac Fungi": 0, "count_Basidiomycota": 0, "count_Gymnosperms": 0, "count_Amphibians": 0, "count_Arachnids": 1, "count_Mosses": 0, "count_Molluscs": 1, "unique_species_count": 8.0, "countryCode": "ET" }, "geometry": { "type": "MultiPolygon", "coordinates": [ [ [ [ 37.907009959631033, 4.76727205232779 ], [ 38.131327788675726, 4.054669141885481 ], [ 37.608673664616816, 3.33245309655369 ], [ 36.860636788629968, 3.320293880301149 ], [ 36.46200548639785, 4.155180791035068 ], [ 36.985906680751846, 4.880559256137824 ], [ 37.907009959631033, 4.76727205232779 ] ] ] ] } },
{ "type": "Feature", "properties": { "geogrid_id": "704295220041569114", "seqnum": 6565.0, "lat_c": 4.2952199683947416, "lon_c": 41.569113772965984, "res": 7.0, "count_Birds": 59, "count_Ferns": 0, "count_Mammals": 4, "count_Reptiles": 1, "count_Flowering Plants": 10, "count_Insects": 0, "count_Sac Fungi": 0, "count_Basidiomycota": 0, "count_Gymnosperms": 0, "count_Amphibians": 0, "count_Arachnids": 0, "count_Mosses": 0, "count_Molluscs": 0, "unique_species_count": 74.0, "countryCode": "ET" }, "geometry": { "type": "MultiPolygon", "coordinates": [ [ [ [ 41.332288939807874, 5.019022925738479 ], [ 42.235225791008304, 4.929911478318889 ], [ 42.472192158569264, 4.211305509933539 ], [ 41.804759921990943, 3.573580542021686 ], [ 40.889184928626193, 3.696845359851407 ], [ 40.656024235170854, 4.416636416325002 ], [ 41.332288939807874, 5.019022925738479 ] ] ] ] } },
{ "type": "Feature", "properties": { "geogrid_id": "704652407038825394", "seqnum": 6346.0, "lat_c": 4.6524067427106406, "lon_c": 38.825394155761721, "res": 7.0, "count_Birds": 264, "count_Ferns": 0, "count_Mammals": 17, "count_Reptiles": 5, "count_Flowering Plants": 67, "count_Insects": 33, "count_Sac Fungi": 0, "count_Basidiomycota": 0, "count_Gymnosperms": 1, "count_Amphibians": 0, "count_Arachnids": 1, "count_Mosses": 0, "count_Molluscs": 0, "unique_species_count": 388.0, "countryCode": "ET" }, "geometry": { "type": "MultiPolygon", "coordinates": [ [ [ [ 39.509343243497305, 5.255766325807395 ], [ 39.741581935211649, 4.535621584194524 ], [ 39.052928321058047, 3.937098516684027 ], [ 38.131327788675726, 4.054669141885481 ], [ 37.907009959631033, 4.76727205232779 ], [ 38.595775127593456, 5.37034018827158 ], [ 39.509343243497305, 5.255766325807395 ] ] ] ] } },
{ "type": "Feature", "properties": { "geogrid_id": "704848227043142508", "seqnum": 6619.0, "lat_c": 4.8482271714324758, "lon_c": 43.142507803060631, "res": 7.0, "count_Birds": 0, "count_Ferns": 0, "count_Mammals": 0, "count_Reptiles": 0, "count_Flowering Plants": 1, "count_Insects": 0, "count_Sac Fungi": 0, "count_Basidiomycota": 0, "count_Gymnosperms": 0, "count_Amphibians": 0, "count_Arachnids": 0, "count_Mosses": 0, "count_Molluscs": 0, "unique_species_count": 1.0, "countryCode": "ET" }, "geometry": { "type": "MultiPolygon", "coordinates": [ [ [ [ 42.904243184162524, 5.563497887832633 ], [ 43.816045648879673, 5.484743386388465 ], [ 44.0547134393261, 4.776256517632659 ], [ 43.379811759493307, 4.13574362460569 ], [ 42.472192158569264, 4.211305509933539 ], [ 42.235225791008304, 4.929911478318889 ], [ 42.904243184162524, 5.563497887832633 ] ] ] ] } },
{ "type": "Feature", "properties": { "geogrid_id": "704992688036061473", "seqnum": 6264.0, "lat_c": 4.9926883634170709, "lon_c": 36.061472700012686, "res": 7.0, "count_Birds": 69, "count_Ferns": 0, "count_Mammals": 7, "count_Reptiles": 7, "count_Flowering Plants": 27, "count_Insects": 27, "count_Sac Fungi": 0, "count_Basidiomycota": 0, "count_Gymnosperms": 0, "count_Amphibians": 2, "count_Arachnids": 3, "count_Mosses": 0, "count_Molluscs": 0, "unique_species_count": 142.0, "countryCode": "ET" }, "geometry": { "type": "MultiPolygon", "coordinates": [ [ [ [ 36.762375581275954, 5.593125198979418 ], [ 36.985906680751846, 4.880559256137824 ], [ 36.46200548639785, 4.155180791035068 ], [ 35.713679189622795, 4.139803402450484 ], [ 35.316553372284325, 4.97342623409346 ], [ 35.841508407979568, 5.702001868102067 ], [ 36.762375581275954, 5.593125198979418 ] ] ] ] } },
{ "type": "Feature", "properties": { "geogrid_id": "705138728040421395", "seqnum": 6373.0, "lat_c": 5.1387277410236294, "lon_c": 40.421394785083507, "res": 7.0, "count_Birds": 148, "count_Ferns": 0, "count_Mammals": 9, "count_Reptiles": 3, "count_Flowering Plants": 49, "count_Insects": 18, "count_Sac Fungi": 0, "count_Basidiomycota": 0, "count_Gymnosperms": 0, "count_Amphibians": 0, "count_Arachnids": 0, "count_Mosses": 0, "count_Molluscs": 0, "unique_species_count": 227.0, "countryCode": "ET" }, "geometry": { "type": "MultiPolygon", "coordinates": [ [ [ [ 41.094220709710129, 5.744924812971681 ], [ 41.332288939667443, 5.019022928156952 ], [ 40.656024235170854, 4.416636416325002 ], [ 39.741581935211649, 4.535621584194524 ], [ 39.509343243497305, 5.255766325807395 ], [ 40.185232427442074, 5.863049482768393 ], [ 41.094220709710129, 5.744924812971681 ] ] ] ] } },
{ "type": "Feature", "properties": { "geogrid_id": "705366892046128122", "seqnum": 6728.0, "lat_c": 5.3668917192458458, "lon_c": 46.128122019796898, "res": 7.0, "count_Birds": 0, "count_Ferns": 0, "count_Mammals": 0, "count_Reptiles": 0, "count_Flowering Plants": 2, "count_Insects": 0, "count_Sac Fungi": 0, "count_Basidiomycota": 0, "count_Gymnosperms": 0, "count_Amphibians": 0, "count_Arachnids": 0, "count_Mosses": 0, "count_Molluscs": 0, "unique_species_count": 2.0, "countryCode": "ET" }, "geometry": { "type": "MultiPolygon", "coordinates": [ [ [ [ 45.959124099686086, 6.273903733258225 ], [ 46.745884637721986, 5.802478475335935 ], [ 46.913046971180457, 4.900881168109696 ], [ 46.29534288680717, 4.461410365726915 ], [ 45.513328456032852, 4.933045170840765 ], [ 45.344569395026305, 5.844537227627379 ], [ 45.959124099686086, 6.273903733258225 ] ] ] ] } },
{ "type": "Feature", "properties": { "geogrid_id": "705417271044733196", "seqnum": 6673.0, "lat_c": 5.4172705358323476, "lon_c": 44.733195676645678, "res": 7.0, "count_Birds": 0, "count_Ferns": 0, "count_Mammals": 0, "count_Reptiles": 0, "count_Flowering Plants": 10, "count_Insects": 0, "count_Sac Fungi": 0, "count_Basidiomycota": 0, "count_Gymnosperms": 0, "count_Amphibians": 0, "count_Arachnids": 0, "count_Mosses": 0, "count_Molluscs": 0, "unique_species_count": 10.0, "countryCode": "ET" }, "geometry": { "type": "MultiPolygon", "coordinates": [ [ [ [ 44.49316611680279, 6.12133235703922 ], [ 45.344569395026305, 5.844537227627379 ], [ 45.513328456032852, 4.933045170840765 ], [ 44.901480100679791, 4.501032734002608 ], [ 44.0547134393261, 4.776256517632659 ], [ 43.816045648879673, 5.484743386388465 ], [ 44.49316611680279, 6.12133235703922 ] ] ] ] } },
{ "type": "Feature", "properties": { "geogrid_id": "705482694037680278", "seqnum": 6291.0, "lat_c": 5.4826936841786988, "lon_c": 37.680278355131321, "res": 7.0, "count_Birds": 243, "count_Ferns": 0, "count_Mammals": 21, "count_Reptiles": 10, "count_Flowering Plants": 128, "count_Insects": 133, "count_Sac Fungi": 0, "count_Basidiomycota": 0, "count_Gymnosperms": 1, "count_Amphibians": 2, "count_Arachnids": 2, "count_Mosses": 0, "count_Molluscs": 0, "unique_species_count": 540.0, "countryCode": "ET" }, "geometry": { "type": "MultiPolygon", "coordinates": [ [ [ [ 38.364007780805103, 6.0908169839335 ], [ 38.595775127593456, 5.37034018827158 ], [ 37.907009959631033, 4.76727205232779 ], [ 36.985906680751846, 4.880559256137824 ], [ 36.762375581275954, 5.593125198979418 ], [ 37.451069559008445, 6.200845328291005 ], [ 38.364007780805103, 6.0908169839335 ] ] ] ] } },
{ "type": "Feature", "properties": { "geogrid_id": "705650946041997160", "seqnum": 6592.0, "lat_c": 5.6509464163789653, "lon_c": 41.997159759330685, "res": 7.0, "count_Birds": 2, "count_Ferns": 0, "count_Mammals": 0, "count_Reptiles": 0, "count_Flowering Plants": 0, "count_Insects": 0, "count_Sac Fungi": 0, "count_Basidiomycota": 0, "count_Gymnosperms": 0, "count_Amphibians": 0, "count_Arachnids": 0, "count_Mosses": 0, "count_Molluscs": 0, "unique_species_count": 2.0, "countryCode": "ET" }, "geometry": { "type": "MultiPolygon", "coordinates": [ [ [ [ 41.75793126093405, 6.374341062058341 ], [ 42.664958961908333, 6.281483363012097 ], [ 42.904243184162524, 5.563497887832633 ], [ 42.235225791008304, 4.929911478318889 ], [ 41.332288939807874, 5.019022925738479 ], [ 41.094220709859904, 5.744924810561364 ], [ 41.75793126093405, 6.374341062058341 ] ] ] ] } },
{ "type": "Feature", "properties": { "geogrid_id": "705809779034917017", "seqnum": 6209.0, "lat_c": 5.809779168404904, "lon_c": 34.917017024720401, "res": 7.0, "count_Birds": 3, "count_Ferns": 0, "count_Mammals": 1, "count_Reptiles": 0, "count_Flowering Plants": 1, "count_Insects": 1, "count_Sac Fungi": 0, "count_Basidiomycota": 0, "count_Gymnosperms": 0, "count_Amphibians": 0, "count_Arachnids": 0, "count_Mosses": 0, "count_Molluscs": 0, "unique_species_count": 6.0, "countryCode": "ET" }, "geometry": { "type": "MultiPolygon", "coordinates": [ [ [ [ 35.618357806262679, 6.41449611468436 ], [ 35.841508407979568, 5.702001868102067 ], [ 35.316553372284325, 4.97342623409346 ], [ 34.567728091393008, 4.954762581118534 ], [ 34.171664737259093, 5.787024462924309 ], [ 34.697477839412812, 6.518832246421789 ], [ 35.618357806262679, 6.41449611468436 ] ] ] ] } },
{ "type": "Feature", "properties": { "geogrid_id": "705978289039275270", "seqnum": 6319.0, "lat_c": 5.978288830048939, "lon_c": 39.275270467169719, "res": 7.0, "count_Birds": 163, "count_Ferns": 1, "count_Mammals": 18, "count_Reptiles": 1, "count_Flowering Plants": 82, "count_Insects": 42, "count_Sac Fungi": 3, "count_Basidiomycota": 1, "count_Gymnosperms": 1, "count_Amphibians": 1, "count_Arachnids": 1, "count_Mosses": 0, "count_Molluscs": 0, "unique_species_count": 314.0, "countryCode": "ET" }, "geometry": { "type": "MultiPolygon", "coordinates": [ [ [ [ 39.947471276927551, 6.589530151727673 ], [ 40.185232427442074, 5.863049482768393 ], [ 39.509343243497305, 5.255766325807395 ], [ 38.595775127593456, 5.37034018827158 ], [ 38.364007780805103, 6.0908169839335 ], [ 39.039297995295037, 6.703111573111646 ], [ 39.947471276927551, 6.589530151727673 ] ] ] ] } },
{ "type": "Feature", "properties": { "geogrid_id": "706196331043576495", "seqnum": 6647.0, "lat_c": 6.1963312426615564, "lon_c": 43.576495381914881, "res": 7.0, "count_Birds": 5, "count_Ferns": 0, "count_Mammals": 1, "count_Reptiles": 1, "count_Flowering Plants": 32, "count_Insects": 2, "count_Sac Fungi": 0, "count_Basidiomycota": 0, "count_Gymnosperms": 0, "count_Amphibians": 0, "count_Arachnids": 0, "count_Mosses": 0, "count_Molluscs": 0, "unique_species_count": 41.0, "countryCode": "ET" }, "geometry": { "type": "MultiPolygon", "coordinates": [ [ [ [ 43.336006560968862, 6.910942733691155 ], [ 44.252332553145997, 6.828835477600807 ], [ 44.49316611680279, 6.12133235703922 ], [ 43.816045648879673, 5.484743386388465 ], [ 42.904243184162524, 5.563497887832633 ], [ 42.664958961908333, 6.281483363012097 ], [ 43.336006560968862, 6.910942733691155 ] ] ] ] } },
{ "type": "Feature", "properties": { "geogrid_id": "706308632036536022", "seqnum": 6237.0, "lat_c": 6.3086322691489691, "lon_c": 36.536021976779551, "res": 7.0, "count_Birds": 42, "count_Ferns": 0, "count_Mammals": 4, "count_Reptiles": 3, "count_Flowering Plants": 45, "count_Insects": 17, "count_Sac Fungi": 0, "count_Basidiomycota": 0, "count_Gymnosperms": 0, "count_Amphibians": 0, "count_Arachnids": 0, "count_Mosses": 0, "count_Molluscs": 0, "unique_species_count": 111.0, "countryCode": "ET" }, "geometry": { "type": "MultiPolygon", "coordinates": [ [ [ [ 37.219317998005302, 6.92163560856317 ], [ 37.451069559008445, 6.200845328291005 ], [ 36.762375581275954, 5.593125198979418 ], [ 35.841508407979568, 5.702001868102067 ], [ 35.618357806262679, 6.41449611468436 ], [ 36.306779938847271, 7.026981183847919 ], [ 37.219317998005302, 6.92163560856317 ] ] ] ] } },
{ "type": "Feature", "properties": { "geogrid_id": "706472860040854843", "seqnum": 6566.0, "lat_c": 6.4728596315739626, "lon_c": 40.854842805996213, "res": 7.0, "count_Birds": 56, "count_Ferns": 0, "count_Mammals": 4, "count_Reptiles": 1, "count_Flowering Plants": 3, "count_Insects": 18, "count_Sac Fungi": 0, "count_Basidiomycota": 0, "count_Gymnosperms": 0, "count_Amphibians": 0, "count_Arachnids": 1, "count_Mosses": 0, "count_Molluscs": 0, "unique_species_count": 83.0, "countryCode": "ET" }, "geometry": { "type": "MultiPolygon", "coordinates": [ [ [ [ 40.614087313606412, 7.202760013673499 ], [ 41.517475927227409, 7.100024592872738 ], [ 41.75793126093405, 6.374341062058341 ], [ 41.094220709859904, 5.744924810561364 ], [ 40.185232427442074, 5.863049482768393 ], [ 39.947471276927551, 6.589530151727673 ], [ 40.614087313606412, 7.202760013673499 ] ] ] ] } },
{ "type": "Feature", "properties": { "geogrid_id": "706622136033772667", "seqnum": 6155.0, "lat_c": 6.622136282235326, "lon_c": 33.772666643053114, "res": 7.0, "count_Birds": 0, "count_Ferns": 0, "count_Mammals": 0, "count_Reptiles": 1, "count_Flowering Plants": 0, "count_Insects": 0, "count_Sac Fungi": 0, "count_Basidiomycota": 0, "count_Gymnosperms": 0, "count_Amphibians": 0, "count_Arachnids": 0, "count_Mosses": 0, "count_Molluscs": 0, "unique_species_count": 1.0, "countryCode": "ET" }, "geometry": { "type": "MultiPolygon", "coordinates": [ [ [ [ 34.474299851736639, 7.231221810372216 ], [ 34.697477839412812, 6.518832246421789 ], [ 34.171664737259093, 5.787024462924309 ], [ 33.422132598523383, 5.765008508046425 ], [ 33.026698577309304, 6.595808993988773 ], [ 33.553170822297801, 7.330883912239349 ], [ 34.474299851736639, 7.231221810372216 ] ] ] ] } },
{ "type": "Feature", "properties": { "geogrid_id": "706705273046576879", "seqnum": 6755.0, "lat_c": 6.7052731935075247, "lon_c": 46.576879398343003, "res": 7.0, "count_Birds": 0, "count_Ferns": 0, "count_Mammals": 0, "count_Reptiles": 0, "count_Flowering Plants": 33, "count_Insects": 0, "count_Sac Fungi": 0, "count_Basidiomycota": 0, "count_Gymnosperms": 0, "count_Amphibians": 0, "count_Arachnids": 0, "count_Mosses": 0, "count_Molluscs": 0, "unique_species_count": 33.0, "countryCode": "ET" }, "geometry": { "type": "MultiPolygon", "coordinates": [ [ [ [ 46.406114626380692, 7.6098096589653 ], [ 47.197855043596121, 7.138546072164084 ], [ 47.36664040721579, 6.239709174488627 ], [ 46.745884637721986, 5.802478475335935 ], [ 45.959124099686086, 6.273903733258225 ], [ 45.788460752228687, 7.18304585811198 ], [ 46.406114626380692, 7.6098096589653 ] ] ] ] } },
{ "type": "Feature", "properties": { "geogrid_id": "706758572045174256", "seqnum": 6701.0, "lat_c": 6.7585724834358354, "lon_c": 45.174255620744312, "res": 7.0, "count_Birds": 0, "count_Ferns": 0, "count_Mammals": 0, "count_Reptiles": 0, "count_Flowering Plants": 29, "count_Insects": 1, "count_Sac Fungi": 0, "count_Basidiomycota": 0, "count_Gymnosperms": 0, "count_Amphibians": 0, "count_Arachnids": 0, "count_Mosses": 0, "count_Molluscs": 0, "unique_species_count": 30.0, "countryCode": "ET" }, "geometry": { "type": "MultiPolygon", "coordinates": [ [ [ [ 44.932129873848531, 7.461524301088141 ], [ 45.788460752228687, 7.18304585811198 ], [ 45.959124099686086, 6.273903733258225 ], [ 45.344569395026305, 5.844537227627379 ], [ 44.49316611680279, 6.12133235703922 ], [ 44.252332553145997, 6.828835477600807 ], [ 44.932129873848531, 7.461524301088141 ] ] ] ] } },
{ "type": "Feature", "properties": { "geogrid_id": "706813753038130027", "seqnum": 6265.0, "lat_c": 6.8137529921439937, "lon_c": 38.130026625132714, "res": 7.0, "count_Birds": 366, "count_Ferns": 2, "count_Mammals": 18, "count_Reptiles": 12, "count_Flowering Plants": 239, "count_Insects": 71, "count_Sac Fungi": 4, "count_Basidiomycota": 0, "count_Gymnosperms": 2, "count_Amphibians": 4, "count_Arachnids": 1, "count_Mosses": 0, "count_Molluscs": 0, "unique_species_count": 719.0, "countryCode": "ET" }, "geometry": { "type": "MultiPolygon", "coordinates": [ [ [ [ 38.801358250749601, 7.430155108818639 ], [ 39.039297995295037, 6.703111573111646 ], [ 38.364007780805103, 6.0908169839335 ], [ 37.451069559008445, 6.200845328291005 ], [ 37.219317998005302, 6.92163560856317 ], [ 37.893764061291478, 7.539061815279973 ], [ 38.801358250749601, 7.430155108818639 ] ] ] ] } },
{ "type": "Feature", "properties": { "geogrid_id": "707002109042424595", "seqnum": 6620.0, "lat_c": 7.0021094014650158, "lon_c": 42.424594695712933, "res": 7.0, "count_Birds": 0, "count_Ferns": 0, "count_Mammals": 0, "count_Reptiles": 0, "count_Flowering Plants": 0, "count_Insects": 25, "count_Sac Fungi": 0, "count_Basidiomycota": 0, "count_Gymnosperms": 0, "count_Amphibians": 0, "count_Arachnids": 0, "count_Mosses": 0, "count_Molluscs": 0, "unique_species_count": 25.0, "countryCode": "ET" }, "geometry": { "type": "MultiPolygon", "coordinates": [ [ [ [ 42.183088381777942, 7.725300032703801 ], [ 43.094521613837806, 7.628498452432513 ], [ 43.336006560968862, 6.910942733691155 ], [ 42.664958961908333, 6.281483363012097 ], [ 41.75793126093405, 6.374341062058341 ], [ 41.517475927227409, 7.100024592872738 ], [ 42.183088381777942, 7.725300032703801 ] ] ] ] } },
{ "type": "Feature", "properties": { "geogrid_id": "707130063035391954", "seqnum": 6183.0, "lat_c": 7.1300632079091848, "lon_c": 35.391954245244186, "res": 7.0, "count_Birds": 21, "count_Ferns": 1, "count_Mammals": 9, "count_Reptiles": 13, "count_Flowering Plants": 78, "count_Insects": 54, "count_Sac Fungi": 0, "count_Basidiomycota": 0, "count_Gymnosperms": 0, "count_Amphibians": 15, "count_Arachnids": 0, "count_Mosses": 0, "count_Molluscs": 0, "unique_species_count": 191.0, "countryCode": "ET" }, "geometry": { "type": "MultiPolygon", "coordinates": [ [ [ [ 36.07458120929703, 7.748069530157872 ], [ 36.306779938847271, 7.026981183847919 ], [ 35.618357806262679, 6.41449611468436 ], [ 34.697477839412812, 6.518832246421789 ], [ 34.474299851736639, 7.231221810372216 ], [ 35.162228679947354, 7.848591556671922 ], [ 36.07458120929703, 7.748069530157872 ] ] ] ] } },
{ "type": "Feature", "properties": { "geogrid_id": "707318097039708044", "seqnum": 6292.0, "lat_c": 7.3180966247911234, "lon_c": 39.708043640354923, "res": 7.0, "count_Birds": 204, "count_Ferns": 2, "count_Mammals": 31, "count_Reptiles": 8, "count_Flowering Plants": 186, "count_Insects": 38, "count_Sac Fungi": 6, "count_Basidiomycota": 2, "count_Gymnosperms": 2, "count_Amphibians": 1, "count_Arachnids": 1, "count_Mosses": 0, "count_Molluscs": 0, "unique_species_count": 481.0, "countryCode": "ET" }, "geometry": { "type": "MultiPolygon", "coordinates": [ [ [ [ 40.37188460417574, 7.934557205002343 ], [ 40.614087313438127, 7.202760016067873 ], [ 39.947471276927551, 6.589530151727673 ], [ 39.039297995295037, 6.703111573111646 ], [ 38.801358250749601, 7.430155108818639 ], [ 39.466879939950161, 8.048674151895538 ], [ 40.37188460417574, 7.934557205002343 ] ] ] ] } },
{ "type": "Feature", "properties": { "geogrid_id": "707539697044010642", "seqnum": 6674.0, "lat_c": 7.5396973948117409, "lon_c": 44.010642334566043, "res": 7.0, "count_Birds": 0, "count_Ferns": 0, "count_Mammals": 1, "count_Reptiles": 0, "count_Flowering Plants": 66, "count_Insects": 0, "count_Sac Fungi": 0, "count_Basidiomycota": 0, "count_Gymnosperms": 0, "count_Amphibians": 0, "count_Arachnids": 0, "count_Mosses": 0, "count_Molluscs": 2, "unique_species_count": 69.0, "countryCode": "ET" }, "geometry": { "type": "MultiPolygon", "coordinates": [ [ [ [ 43.768041328282472, 8.253833218568062 ], [ 44.689229966061902, 8.168200115801271 ], [ 44.932129873848531, 7.461524301088141 ], [ 44.252332553145997, 6.828835477600807 ], [ 43.336006560968862, 6.910942733691155 ], [ 43.094521613837806, 7.628498452432513 ], [ 43.768041328282472, 8.253833218568062 ] ] ] ] } },
{ "type": "Feature", "properties": { "geogrid_id": "707644970036984956", "seqnum": 6210.0, "lat_c": 7.6449704911026046, "lon_c": 36.984955866833573, "res": 7.0, "count_Birds": 138, "count_Ferns": 7, "count_Mammals": 13, "count_Reptiles": 9, "count_Flowering Plants": 178, "count_Insects": 165, "count_Sac Fungi": 1, "count_Basidiomycota": 0, "count_Gymnosperms": 0, "count_Amphibians": 7, "count_Arachnids": 2, "count_Mosses": 0, "count_Molluscs": 0, "unique_species_count": 520.0, "countryCode": "ET" }, "geometry": { "type": "MultiPolygon", "coordinates": [ [ [ [ 37.655150303382058, 8.266654805528454 ], [ 37.893764061291478, 7.539061815279973 ], [ 37.219317998005302, 6.92163560856317 ], [ 36.306779938847271, 7.026981183847919 ], [ 36.07458120929703, 7.748069530157872 ], [ 36.747913050355479, 8.37075329591598 ], [ 37.655150303382058, 8.266654805528454 ] ] ] ] } },
{ "type": "Feature", "properties": { "geogrid_id": "707827925041275728", "seqnum": 6593.0, "lat_c": 7.8279246333587169, "lon_c": 41.275727753559437, "res": 7.0, "count_Birds": 4, "count_Ferns": 0, "count_Mammals": 0, "count_Reptiles": 1, "count_Flowering Plants": 0, "count_Insects": 6, "count_Sac Fungi": 0, "count_Basidiomycota": 0, "count_Gymnosperms": 0, "count_Amphibians": 0, "count_Arachnids": 0, "count_Mosses": 0, "count_Molluscs": 0, "unique_species_count": 11.0, "countryCode": "ET" }, "geometry": { "type": "MultiPolygon", "coordinates": [ [ [ [ 41.032619025913974, 8.557967263576588 ], [ 41.940376386538425, 8.450977522528829 ], [ 42.183088381777942, 7.725300032703801 ], [ 41.517475927227409, 7.100024592872738 ], [ 40.614087313606412, 7.202760013673499 ], [ 40.371884604353205, 7.934557202615741 ], [ 41.032619025913974, 8.557967263576588 ] ] ] ] } },
{ "type": "Feature", "properties": { "geogrid_id": "707946826034247413", "seqnum": 6128.0, "lat_c": 7.946826242208509, "lon_c": 34.247412775816223, "res": 7.0, "count_Birds": 71, "count_Ferns": 1, "count_Mammals": 6, "count_Reptiles": 10, "count_Flowering Plants": 89, "count_Insects": 13, "count_Sac Fungi": 0, "count_Basidiomycota": 0, "count_Gymnosperms": 0, "count_Amphibians": 1, "count_Arachnids": 1, "count_Mosses": 0, "count_Molluscs": 0, "unique_species_count": 192.0, "countryCode": "ET" }, "geometry": { "type": "MultiPolygon", "coordinates": [ [ [ [ 34.929109593039811, 8.569965888665465 ], [ 35.162228679947354, 7.848591556671922 ], [ 34.474299851736639, 7.231221810372216 ], [ 33.553170822297801, 7.330883912239349 ], [ 33.329554074887199, 8.043137657697551 ], [ 34.016743830317786, 8.665519559612154 ], [ 34.929109593039811, 8.569965888665465 ] ] ] ] } },
{ "type": "Feature", "properties": { "geogrid_id": "708010391048449547", "seqnum": 6837.0, "lat_c": 8.010390766453467, "lon_c": 48.449546884461263, "res": 7.0, "count_Birds": 0, "count_Ferns": 0, "count_Mammals": 0, "count_Reptiles": 0, "count_Flowering Plants": 1, "count_Insects": 0, "count_Sac Fungi": 0, "count_Basidiomycota": 0, "count_Gymnosperms": 0, "count_Amphibians": 0, "count_Arachnids": 0, "count_Mosses": 0, "count_Molluscs": 0, "unique_species_count": 1.0, "countryCode": "ET" }, "geometry": { "type": "MultiPolygon", "coordinates": [ [ [ [ 48.279919928881036, 8.902800586864473 ], [ 49.08030295856787, 8.448750452422386 ], [ 49.247110567224524, 7.560267517362275 ], [ 48.617228820922335, 7.118705720413545 ], [ 47.822070896344755, 7.573620190885472 ], [ 47.651829157019378, 8.469794322015533 ], [ 48.279919928881036, 8.902800586864473 ] ] ] ] } },
{ "type": "Feature", "properties": { "geogrid_id": "708038761047027232", "seqnum": 6783.0, "lat_c": 8.038761084894082, "lon_c": 47.027232393891182, "res": 7.0, "count_Birds": 0, "count_Ferns": 1, "count_Mammals": 0, "count_Reptiles": 0, "count_Flowering Plants": 37, "count_Insects": 0, "count_Sac Fungi": 0, "count_Basidiomycota": 0, "count_Gymnosperms": 0, "count_Amphibians": 0, "count_Arachnids": 0, "count_Mosses": 0, "count_Molluscs": 0, "unique_species_count": 38.0, "countryCode": "ET" }, "geometry": { "type": "MultiPolygon", "coordinates": [ [ [ [ 46.854866260385535, 8.940932721154409 ], [ 47.651829157019378, 8.469794322015533 ], [ 47.822070896344755, 7.573620190885472 ], [ 47.197855043596121, 7.138546072164084 ], [ 46.406114626380692, 7.6098096589653 ], [ 46.233716105882628, 8.516728570414198 ], [ 46.854866260385535, 8.940932721154409 ] ] ] ] } },
{ "type": "Feature", "properties": { "geogrid_id": "708095024045616293", "seqnum": 6729.0, "lat_c": 8.0950244369333326, "lon_c": 45.616292651568315, "res": 7.0, "count_Birds": 0, "count_Ferns": 0, "count_Mammals": 0, "count_Reptiles": 0, "count_Flowering Plants": 51, "count_Insects": 0, "count_Sac Fungi": 0, "count_Basidiomycota": 0, "count_Gymnosperms": 0, "count_Amphibians": 0, "count_Arachnids": 0, "count_Mosses": 0, "count_Molluscs": 0, "unique_species_count": 51.0, "countryCode": "ET" }, "geometry": { "type": "MultiPolygon", "coordinates": [ [ [ [ 45.372162044646885, 8.797004395493143 ], [ 46.233716105882628, 8.516728570414198 ], [ 46.406114626380692, 7.6098096589653 ], [ 45.788460752228687, 7.18304585811198 ], [ 44.932129873848531, 7.461524301088141 ], [ 44.689229966061902, 8.168200115801271 ], [ 45.372162044646885, 8.797004395493143 ] ] ] ] } },
{ "type": "Feature", "properties": { "geogrid_id": "708159338038561382", "seqnum": 6238.0, "lat_c": 8.1593380766942882, "lon_c": 38.561381613025354, "res": 7.0, "count_Birds": 450, "count_Ferns": 2, "count_Mammals": 35, "count_Reptiles": 18, "count_Flowering Plants": 146, "count_Insects": 118, "count_Sac Fungi": 11, "count_Basidiomycota": 3, "count_Gymnosperms": 0, "count_Amphibians": 4, "count_Arachnids": 3, "count_Mosses": 0, "count_Molluscs": 9, "unique_species_count": 799.0, "countryCode": "ET" }, "geometry": { "type": "MultiPolygon", "coordinates": [ [ [ [ 39.2239086332075, 8.781186363266118 ], [ 39.466879939950161, 8.048674151895538 ], [ 38.801358250749601, 7.430155108818639 ], [ 37.893764061291478, 7.539061815279973 ], [ 37.655150303382058, 8.266654805528454 ], [ 38.319296337670536, 8.890577211322432 ], [ 39.2239086332075, 8.781186363266118 ] ] ] ] } },
{ "type": "Feature", "properties": { "geogrid_id": "708348917042851981", "seqnum": 6648.0, "lat_c": 8.3489169507991186, "lon_c": 42.851981414072839, "res": 7.0, "count_Birds": 0, "count_Ferns": 0, "count_Mammals": 0, "count_Reptiles": 0, "count_Flowering Plants": 5, "count_Insects": 0, "count_Sac Fungi": 0, "count_Basidiomycota": 0, "count_Gymnosperms": 0, "count_Amphibians": 1, "count_Arachnids": 0, "count_Mosses": 0, "count_Molluscs": 0, "unique_species_count": 6.0, "countryCode": "ET" }, "geometry": { "type": "MultiPolygon", "coordinates": [ [ [ [ 42.608325218530211, 9.072114755035301 ], [ 43.524473864875176, 8.971155688087315 ], [ 43.768041328282472, 8.253833218568062 ], [ 43.094521613837806, 7.628498452432513 ], [ 42.183088381777942, 7.725300032703801 ], [ 41.940376386538425, 8.450977522528829 ], [ 42.608325218530211, 9.072114755035301 ] ] ] ] } },
{ "type": "Feature", "properties": { "geogrid_id": "708471792035839355", "seqnum": 6156.0, "lat_c": 8.471791778404107, "lon_c": 35.839355122474451, "res": 7.0, "count_Birds": 20, "count_Ferns": 5, "count_Mammals": 5, "count_Reptiles": 7, "count_Flowering Plants": 66, "count_Insects": 13, "count_Sac Fungi": 0, "count_Basidiomycota": 0, "count_Gymnosperms": 0, "count_Amphibians": 7, "count_Arachnids": 0, "count_Mosses": 0, "count_Molluscs": 0, "unique_species_count": 123.0, "countryCode": "ET" }, "geometry": { "type": "MultiPolygon", "coordinates": [ [ [ [ 36.508117042777457, 9.098884711106196 ], [ 36.747913050355479, 8.37075329591598 ], [ 36.07458120929703, 7.748069530157872 ], [ 35.162228679947354, 7.848591556671922 ], [ 34.929109593039811, 8.569965888665465 ], [ 35.601028524905928, 9.198039298984499 ], [ 36.508117042777457, 9.098884711106196 ] ] ] ] } },
{ "type": "Feature", "properties": { "geogrid_id": "708668181040128163", "seqnum": 6567.0, "lat_c": 8.6681810703379067, "lon_c": 40.128163256528694, "res": 7.0, "count_Birds": 312, "count_Ferns": 3, "count_Mammals": 38, "count_Reptiles": 12, "count_Flowering Plants": 162, "count_Insects": 44, "count_Sac Fungi": 10, "count_Basidiomycota": 0, "count_Gymnosperms": 1, "count_Amphibians": 0, "count_Arachnids": 5, "count_Mosses": 16, "count_Molluscs": 1, "unique_species_count": 604.0, "countryCode": "ET" }, "geometry": { "type": "MultiPolygon", "coordinates": [ [ [ [ 39.882849971825351, 9.403560120891623 ], [ 40.788080244200273, 9.290077028634627 ], [ 41.032619025913974, 8.557967263576588 ], [ 40.371884604353205, 7.934557202615741 ], [ 39.466879939950161, 8.048674151895538 ], [ 39.2239086332075, 8.781186363266118 ], [ 39.882849971825351, 9.403560120891623 ] ] ] ] } },
{ "type": "Feature", "properties": { "geogrid_id": "708878509044445506", "seqnum": 6702.0, "lat_c": 8.8785093046817689, "lon_c": 44.445505852049166, "res": 7.0, "count_Birds": 0, "count_Ferns": 0, "count_Mammals": 0, "count_Reptiles": 1, "count_Flowering Plants": 0, "count_Insects": 0, "count_Sac Fungi": 0, "count_Basidiomycota": 0, "count_Gymnosperms": 0, "count_Amphibians": 0, "count_Arachnids": 0, "count_Mosses": 0, "count_Molluscs": 0, "unique_species_count": 1.0, "countryCode": "ET" }, "geometry": { "type": "MultiPolygon", "coordinates": [ [ [ [ 44.200905979290155, 9.592358465671355 ], [ 45.127294737672173, 9.503011445643304 ], [ 45.372162044646885, 8.797004395493143 ], [ 44.689229966061902, 8.168200115801271 ], [ 43.768041328282472, 8.253833218568062 ], [ 43.524473864875176, 8.971155688087315 ], [ 44.200905979290155, 9.592358465671355 ] ] ] ] } },
{ "type": "Feature", "properties": { "geogrid_id": "708996441037414113", "seqnum": 6184.0, "lat_c": 8.9964410765696368, "lon_c": 37.414113298072095, "res": 7.0, "count_Birds": 44, "count_Ferns": 2, "count_Mammals": 3, "count_Reptiles": 0, "count_Flowering Plants": 123, "count_Insects": 42, "count_Sac Fungi": 0, "count_Basidiomycota": 0, "count_Gymnosperms": 1, "count_Amphibians": 0, "count_Arachnids": 0, "count_Mosses": 0, "count_Molluscs": 0, "unique_species_count": 215.0, "countryCode": "ET" }, "geometry": { "type": "MultiPolygon", "coordinates": [ [ [ [ 38.075028472204671, 9.623787352950696 ], [ 38.319296337670536, 8.890577211322432 ], [ 37.655150303382058, 8.266654805528454 ], [ 36.747913050355479, 8.37075329591598 ], [ 36.508117042777457, 9.098884711106196 ], [ 37.170578640411058, 9.728327517023976 ], [ 38.075028472204671, 9.623787352950696 ] ] ] ] } },
{ "type": "Feature", "properties": { "geogrid_id": "709179062041696393", "seqnum": 6621.0, "lat_c": 9.1790623858180087, "lon_c": 41.696393376915118, "res": 7.0, "count_Birds": 66, "count_Ferns": 8, "count_Mammals": 5, "count_Reptiles": 7, "count_Flowering Plants": 370, "count_Insects": 65, "count_Sac Fungi": 0, "count_Basidiomycota": 1, "count_Gymnosperms": 0, "count_Amphibians": 2, "count_Arachnids": 0, "count_Mosses": 0, "count_Molluscs": 4, "unique_species_count": 528.0, "countryCode": "ET" }, "geometry": { "type": "MultiPolygon", "coordinates": [ [ [ [ 41.451072247202958, 9.909473400810375 ], [ 42.363490601820246, 9.798006383209357 ], [ 42.608325218530211, 9.072114755035301 ], [ 41.940376386538425, 8.450977522528829 ], [ 41.032619025913974, 8.557967263576588 ], [ 40.788080244200273, 9.290077028634627 ], [ 41.451072247202958, 9.909473400810375 ] ] ] ] } },
{ "type": "Feature", "properties": { "geogrid_id": "709294067034692523", "seqnum": 6102.0, "lat_c": 9.2940672697953897, "lon_c": 34.692522915666132, "res": 7.0, "count_Birds": 10, "count_Ferns": 0, "count_Mammals": 4, "count_Reptiles": 0, "count_Flowering Plants": 13, "count_Insects": 2, "count_Sac Fungi": 1, "count_Basidiomycota": 0, "count_Gymnosperms": 0, "count_Amphibians": 0, "count_Arachnids": 0, "count_Mosses": 0, "count_Molluscs": 0, "unique_species_count": 30.0, "countryCode": "ET" }, "geometry": { "type": "MultiPolygon", "coordinates": [ [ [ [ 35.359525692229866, 9.926700382648347 ], [ 35.601028524905928, 9.198039298984499 ], [ 34.929109593039811, 8.569965888665465 ], [ 34.016743830317786, 8.665519559612154 ], [ 33.782217661608286, 9.38717143762382 ], [ 34.452391946075672, 10.020773128374577 ], [ 35.359525692229866, 9.926700382648347 ] ] ] ] } },
{ "type": "Feature", "properties": { "geogrid_id": "709515555038979056", "seqnum": 6211.0, "lat_c": 9.5155552775311403, "lon_c": 38.979056129152056, "res": 7.0, "count_Birds": 328, "count_Ferns": 5, "count_Mammals": 26, "count_Reptiles": 11, "count_Flowering Plants": 250, "count_Insects": 170, "count_Sac Fungi": 8, "count_Basidiomycota": 8, "count_Gymnosperms": 4, "count_Amphibians": 13, "count_Arachnids": 3, "count_Mosses": 0, "count_Molluscs": 0, "unique_species_count": 826.0, "countryCode": "ET" }, "geometry": { "type": "MultiPolygon", "coordinates": [ [ [ [ 39.635869488122175, 10.14062149930434 ], [ 39.882849971629653, 9.403560123263111 ], [ 39.2239086332075, 8.781186363266118 ], [ 38.319296337670536, 8.890577211322432 ], [ 38.075028472204671, 9.623787352950696 ], [ 38.732246700823779, 10.25170131066236 ], [ 39.635869488122175, 10.14062149930434 ] ] ] ] } },
{ "type": "Feature", "properties": { "geogrid_id": "709691575043279883", "seqnum": 6675.0, "lat_c": 9.6915751915243007, "lon_c": 43.279882680524103, "res": 7.0, "count_Birds": 3, "count_Ferns": 0, "count_Mammals": 1, "count_Reptiles": 1, "count_Flowering Plants": 25, "count_Insects": 0, "count_Sac Fungi": 0, "count_Basidiomycota": 0, "count_Gymnosperms": 0, "count_Amphibians": 0, "count_Arachnids": 0, "count_Mosses": 0, "count_Molluscs": 0, "unique_species_count": 30.0, "countryCode": "ET" }, "geometry": { "type": "MultiPolygon", "coordinates": [ [ [ [ 43.034208856307593, 10.414999788487105 ], [ 43.955377235581153, 10.309651441289363 ], [ 44.200905979290155, 9.592358465671355 ], [ 43.524473864875176, 8.971155688087315 ], [ 42.608325218530211, 9.072114755035301 ], [ 42.363490601820246, 9.798006383209357 ], [ 43.034208856307593, 10.414999788487105 ] ] ] ] } },
{ "type": "Feature", "properties": { "geogrid_id": "709829263036265493", "seqnum": 6129.0, "lat_c": 9.8292628095454226, "lon_c": 36.265492863740249, "res": 7.0, "count_Birds": 1, "count_Ferns": 0, "count_Mammals": 2, "count_Reptiles": 7, "count_Flowering Plants": 0, "count_Insects": 1, "count_Sac Fungi": 0, "count_Basidiomycota": 0, "count_Gymnosperms": 0, "count_Amphibians": 1, "count_Arachnids": 1, "count_Mosses": 0, "count_Molluscs": 0, "unique_species_count": 13.0, "countryCode": "ET" }, "geometry": { "type": "MultiPolygon", "coordinates": [ [ [ [ 36.924469486131166, 10.462218805616491 ], [ 37.170578640411058, 9.728327517023976 ], [ 36.508117042777457, 9.098884711106196 ], [ 35.601028524905928, 9.198039298984499 ], [ 35.359525692229866, 9.926700382648347 ], [ 36.019962971186715, 10.561783067983002 ], [ 36.924469486131166, 10.462218805616491 ] ] ] ] } },
{ "type": "Feature", "properties": { "geogrid_id": "710024177040542040", "seqnum": 6594.0, "lat_c": 10.024176949197368, "lon_c": 40.54204004195558, "res": 7.0, "count_Birds": 201, "count_Ferns": 0, "count_Mammals": 23, "count_Reptiles": 4, "count_Flowering Plants": 38, "count_Insects": 18, "count_Sac Fungi": 0, "count_Basidiomycota": 0, "count_Gymnosperms": 0, "count_Amphibians": 1, "count_Arachnids": 0, "count_Mosses": 0, "count_Molluscs": 2, "unique_species_count": 287.0, "countryCode": "ET" }, "geometry": { "type": "MultiPolygon", "coordinates": [ [ [ [ 40.294425102266636, 10.760188532935182 ], [ 41.204344042416345, 10.642127624851486 ], [ 41.451072247202958, 9.909473400810375 ], [ 40.788080244200273, 9.290077028634627 ], [ 39.882849971825351, 9.403560120891623 ], [ 39.635869488326932, 10.140621496940179 ], [ 40.294425102266636, 10.760188532935182 ] ] ] ] } },
{ "type": "Feature", "properties": { "geogrid_id": "710358881037828502", "seqnum": 6157.0, "lat_c": 10.358881459292579, "lon_c": 37.828501768339059, "res": 7.0, "count_Birds": 44, "count_Ferns": 0, "count_Mammals": 4, "count_Reptiles": 1, "count_Flowering Plants": 20, "count_Insects": 7, "count_Sac Fungi": 0, "count_Basidiomycota": 0, "count_Gymnosperms": 0, "count_Amphibians": 0, "count_Arachnids": 0, "count_Mosses": 0, "count_Molluscs": 0, "unique_species_count": 76.0, "countryCode": "ET" }, "geometry": { "type": "MultiPolygon", "coordinates": [ [ [ [ 38.483402393788772, 10.989543285687464 ], [ 38.732246700823779, 10.25170131066236 ], [ 38.075028472204671, 9.623787352950696 ], [ 37.170578640411058, 9.728327517023976 ], [ 36.924469486131166, 10.462218805616491 ], [ 37.579637590325959, 11.095770618471718 ], [ 38.483402393788772, 10.989543285687464 ] ] ] ] } },
{ "type": "Feature", "properties": { "geogrid_id": "710526504042117413", "seqnum": 6649.0, "lat_c": 10.526504364809904, "lon_c": 42.117413387490409, "res": 7.0, "count_Birds": 9, "count_Ferns": 0, "count_Mammals": 2, "count_Reptiles": 1, "count_Flowering Plants": 4, "count_Insects": 1, "count_Sac Fungi": 0, "count_Basidiomycota": 0, "count_Gymnosperms": 0, "count_Amphibians": 0, "count_Arachnids": 0, "count_Mosses": 0, "count_Molluscs": 0, "unique_species_count": 17.0, "countryCode": "ET" }, "geometry": { "type": "MultiPolygon", "coordinates": [ [ [ [ 41.870027575767502, 11.25751926242042 ], [ 42.787391754400922, 11.141335235448635 ], [ 43.034208856307593, 10.414999788487105 ], [ 42.363490601820246, 9.798006383209357 ], [ 41.451072247202958, 9.909473400810375 ], [ 41.204344042416345, 10.642127624851486 ], [ 41.870027575767502, 11.25751926242042 ] ] ] ] } },
{ "type": "Feature", "properties": { "geogrid_id": "710657660035114768", "seqnum": 6075.0, "lat_c": 10.657660264195973, "lon_c": 35.114768243325848, "res": 7.0, "count_Birds": 0, "count_Ferns": 0, "count_Mammals": 0, "count_Reptiles": 4, "count_Flowering Plants": 0, "count_Insects": 0, "count_Sac Fungi": 0, "count_Basidiomycota": 0, "count_Gymnosperms": 0, "count_Amphibians": 5, "count_Arachnids": 0, "count_Mosses": 0, "count_Molluscs": 0, "unique_species_count": 9.0, "countryCode": "ET" }, "geometry": { "type": "MultiPolygon", "coordinates": [ [ [ [ 35.77144717088597, 11.296338388536004 ], [ 36.019962971186715, 10.561783067983002 ], [ 35.359525692229866, 9.926700382648347 ], [ 34.452391946075672, 10.020773128374577 ], [ 34.208637266014982, 10.749957284091007 ], [ 34.866675051561536, 11.390801149555871 ], [ 35.77144717088597, 11.296338388536004 ] ] ] ] } },
{ "type": "Feature", "properties": { "geogrid_id": "710879291039387144", "seqnum": 6568.0, "lat_c": 10.879290986769242, "lon_c": 39.38714448951346, "res": 7.0, "count_Birds": 35, "count_Ferns": 0, "count_Mammals": 5, "count_Reptiles": 0, "count_Flowering Plants": 58, "count_Insects": 27, "count_Sac Fungi": 0, "count_Basidiomycota": 0, "count_Gymnosperms": 0, "count_Amphibians": 1, "count_Arachnids": 0, "count_Mosses": 0, "count_Molluscs": 0, "unique_species_count": 126.0, "countryCode": "ET" }, "geometry": { "type": "MultiPolygon", "coordinates": [ [ [ [ 39.136595509062602, 11.619493031755017 ], [ 40.045160069705588, 11.498031786866637 ], [ 40.294425102266636, 10.760188532935182 ], [ 39.635869488326932, 10.140621496940179 ], [ 38.732246700823779, 10.25170131066236 ], [ 38.483402393788772, 10.989543285687464 ], [ 39.136595509062602, 11.619493031755017 ] ] ] ] } },
{ "type": "Feature", "properties": { "geogrid_id": "711030289043708865", "seqnum": 6703.0, "lat_c": 11.030289346295739, "lon_c": 43.70886489383394, "res": 7.0, "count_Birds": 0, "count_Ferns": 0, "count_Mammals": 0, "count_Reptiles": 1, "count_Flowering Plants": 3, "count_Insects": 0, "count_Sac Fungi": 0, "count_Basidiomycota": 0, "count_Gymnosperms": 0, "count_Amphibians": 0, "count_Arachnids": 0, "count_Mosses": 0, "count_Molluscs": 0, "unique_species_count": 4.0, "countryCode": "ET" }, "geometry": { "type": "MultiPolygon", "coordinates": [ [ [ [ 43.461312554022982, 11.754170599288924 ], [ 44.387798228588458, 11.644180423009255 ], [ 44.635161796337592, 10.926704177238641 ], [ 43.955377235581153, 10.309651441289363 ], [ 43.034208856307593, 10.414999788487105 ], [ 42.787391754400922, 11.141335235448635 ], [ 43.461312554022982, 11.754170599288924 ] ] ] ] } },
{ "type": "Feature", "properties": { "geogrid_id": "711198017036675706", "seqnum": 6103.0, "lat_c": 11.198017428002798, "lon_c": 36.675706460280992, "res": 7.0, "count_Birds": 161, "count_Ferns": 0, "count_Mammals": 4, "count_Reptiles": 5, "count_Flowering Plants": 68, "count_Insects": 46, "count_Sac Fungi": 0, "count_Basidiomycota": 0, "count_Gymnosperms": 0, "count_Amphibians": 2, "count_Arachnids": 2, "count_Mosses": 0, "count_Molluscs": 1, "unique_species_count": 289.0, "countryCode": "ET" }, "geometry": { "type": "MultiPolygon", "coordinates": [ [ [ [ 37.328354819251253, 11.834364063045491 ], [ 37.579637590325959, 11.095770618471718 ], [ 36.924469486131166, 10.462218805616491 ], [ 36.019962971186715, 10.561783067983002 ], [ 35.77144717088597, 11.296338388536004 ], [ 36.424207562032862, 11.93562369519235 ], [ 37.328354819251253, 11.834364063045491 ] ] ] ] } },
{ "type": "Feature", "properties": { "geogrid_id": "711376940040956138", "seqnum": 6622.0, "lat_c": 11.376940411561952, "lon_c": 40.956137877900893, "res": 7.0, "count_Birds": 15, "count_Ferns": 0, "count_Mammals": 4, "count_Reptiles": 2, "count_Flowering Plants": 8, "count_Insects": 1, "count_Sac Fungi": 0, "count_Basidiomycota": 1, "count_Gymnosperms": 0, "count_Amphibians": 0, "count_Arachnids": 0, "count_Mosses": 0, "count_Molluscs": 1, "unique_species_count": 32.0, "countryCode": "ET" }, "geometry": { "type": "MultiPolygon", "coordinates": [ [ [ [ 40.706380855009947, 12.113825429383512 ], [ 41.621265267673735, 11.990959695438894 ], [ 41.870027575767502, 11.25751926242042 ], [ 41.204344042416345, 10.642127624851486 ], [ 40.294425102266636, 10.760188532935182 ], [ 40.045160069705588, 11.498031786866637 ], [ 40.706380855009947, 12.113825429383512 ] ] ] ] } },
{ "type": "Feature", "properties": { "geogrid_id": "711728998038232443", "seqnum": 6130.0, "lat_c": 11.728998443114754, "lon_c": 38.232442930473596, "res": 7.0, "count_Birds": 125, "count_Ferns": 1, "count_Mammals": 5, "count_Reptiles": 1, "count_Flowering Plants": 54, "count_Insects": 31, "count_Sac Fungi": 0, "count_Basidiomycota": 0, "count_Gymnosperms": 0, "count_Amphibians": 3, "count_Arachnids": 0, "count_Mosses": 0, "count_Molluscs": 1, "unique_species_count": 221.0, "countryCode": "ET" }, "geometry": { "type": "MultiPolygon", "coordinates": [ [ [ [ 38.884140830985345, 12.361150736571593 ], [ 39.13659550883979, 11.619493034105012 ], [ 38.483402393788772, 10.989543285687464 ], [ 37.579637590325959, 11.095770618471718 ], [ 37.328354819251253, 11.834364063045491 ], [ 37.97928561010761, 12.469982452003901 ], [ 38.884140830985345, 12.361150736571593 ] ] ] ] } },
{ "type": "Feature", "properties": { "geogrid_id": "711870485042539369", "seqnum": 6676.0, "lat_c": 11.870485014039156, "lon_c": 42.539368951007027, "res": 7.0, "count_Birds": 2, "count_Ferns": 0, "count_Mammals": 1, "count_Reptiles": 0, "count_Flowering Plants": 0, "count_Insects": 0, "count_Sac Fungi": 0, "count_Basidiomycota": 0, "count_Gymnosperms": 0, "count_Amphibians": 0, "count_Arachnids": 0, "count_Mosses": 0, "count_Molluscs": 0, "unique_species_count": 3.0, "countryCode": "ET" }, "geometry": { "type": "MultiPolygon", "coordinates": [ [ [ [ 42.290076165841135, 12.602350362195118 ], [ 43.212662082121888, 12.481190958240131 ], [ 43.461312554022982, 11.754170599288924 ], [ 42.787391754400922, 11.141335235448635 ], [ 41.870027575767502, 11.25751926242042 ], [ 41.621265267673735, 11.990959695438894 ], [ 42.290076165841135, 12.602350362195118 ] ] ] ] } },
{ "type": "Feature", "properties": { "geogrid_id": "712237625039794167", "seqnum": 6595.0, "lat_c": 12.237625230539173, "lon_c": 39.794167458063363, "res": 7.0, "count_Birds": 74, "count_Ferns": 0, "count_Mammals": 5, "count_Reptiles": 3, "count_Flowering Plants": 82, "count_Insects": 8, "count_Sac Fungi": 0, "count_Basidiomycota": 0, "count_Gymnosperms": 1, "count_Amphibians": 0, "count_Arachnids": 0, "count_Mosses": 0, "count_Molluscs": 0, "unique_species_count": 173.0, "countryCode": "ET" }, "geometry": { "type": "MultiPolygon", "coordinates": [ [ [ [ 39.541367553650979, 12.978885909987424 ], [ 40.454997972631936, 12.852694681450224 ], [ 40.706380855009947, 12.113825429383512 ], [ 40.045160069705588, 11.498031786866637 ], [ 39.136595509062602, 11.619493031755017 ], [ 38.884140831217159, 12.361150734228421 ], [ 39.541367553650979, 12.978885909987424 ] ] ] ] } },
{ "type": "Feature", "properties": { "geogrid_id": "712574569037074570", "seqnum": 6076.0, "lat_c": 12.574569185037429, "lon_c": 37.074569753076936, "res": 7.0, "count_Birds": 101, "count_Ferns": 3, "count_Mammals": 2, "count_Reptiles": 5, "count_Flowering Plants": 61, "count_Insects": 5, "count_Sac Fungi": 0, "count_Basidiomycota": 1, "count_Gymnosperms": 1, "count_Amphibians": 0, "count_Arachnids": 0, "count_Mosses": 0, "count_Molluscs": 0, "unique_species_count": 179.0, "countryCode": "ET" }, "geometry": { "type": "MultiPolygon", "coordinates": [ [ [ [ 37.723845204046654, 13.212409421609969 ], [ 37.97928561010761, 12.469982452003901 ], [ 37.328354819251253, 11.834364063045491 ], [ 36.424207562032862, 11.93562369519235 ], [ 36.16988806549891, 12.674935763495142 ], [ 36.81819600223038, 13.31629155190018 ], [ 37.723845204046654, 13.212409421609969 ] ] ] ] } },
{ "type": "Feature", "properties": { "geogrid_id": "712726732041371057", "seqnum": 6650.0, "lat_c": 12.726732365801304, "lon_c": 41.371056585319906, "res": 7.0, "count_Birds": 5, "count_Ferns": 0, "count_Mammals": 1, "count_Reptiles": 0, "count_Flowering Plants": 5, "count_Insects": 0, "count_Sac Fungi": 0, "count_Basidiomycota": 0, "count_Gymnosperms": 0, "count_Amphibians": 0, "count_Arachnids": 0, "count_Mosses": 0, "count_Molluscs": 0, "unique_species_count": 11.0, "countryCode": "ET" }, "geometry": { "type": "MultiPolygon", "coordinates": [ [ [ [ 41.119329588167012, 13.464742085658957 ], [ 42.039447187980159, 13.336830308129125 ], [ 42.290076165841135, 12.602350362195118 ], [ 41.621265267673735, 11.990959695438894 ], [ 40.706380855009947, 12.113825429383512 ], [ 40.454997972631936, 12.852694681450224 ], [ 41.119329588167012, 13.464742085658957 ] ] ] ] } },
{ "type": "Feature", "properties": { "geogrid_id": "713104186038629696", "seqnum": 6569.0, "lat_c": 13.104185865668137, "lon_c": 38.629696386475288, "res": 7.0, "count_Birds": 70, "count_Ferns": 1, "count_Mammals": 12, "count_Reptiles": 1, "count_Flowering Plants": 226, "count_Insects": 11, "count_Sac Fungi": 2, "count_Basidiomycota": 0, "count_Gymnosperms": 0, "count_Amphibians": 1, "count_Arachnids": 0, "count_Mosses": 0, "count_Molluscs": 0, "unique_species_count": 324.0, "countryCode": "ET" }, "geometry": { "type": "MultiPolygon", "coordinates": [ [ [ [ 38.373175642345743, 13.84851887514964 ], [ 39.286678313925485, 13.721729412402233 ], [ 39.541367553650979, 12.978885909987424 ], [ 38.884140831217159, 12.361150734228421 ], [ 37.97928561010761, 12.469982452003901 ], [ 37.723845204046654, 13.212409421609969 ], [ 38.373175642345743, 13.84851887514964 ] ] ] ] } },
{ "type": "Feature", "properties": { "geogrid_id": "713415850035912660", "seqnum": 6022.0, "lat_c": 13.415849655908687, "lon_c": 35.912660416385023, "res": 7.0, "count_Birds": 1, "count_Ferns": 0, "count_Mammals": 0, "count_Reptiles": 0, "count_Flowering Plants": 3, "count_Insects": 0, "count_Sac Fungi": 0, "count_Basidiomycota": 0, "count_Gymnosperms": 0, "count_Amphibians": 0, "count_Arachnids": 0, "count_Mosses": 0, "count_Molluscs": 0, "unique_species_count": 4.0, "countryCode": "ET" }, "geometry": { "type": "MultiPolygon", "coordinates": [ [ [ [ 36.559144380528537, 14.059434923322687 ], [ 36.81819600223038, 13.31629155190018 ], [ 36.16988806549891, 12.674935763495142 ], [ 35.265123241991176, 12.771113096398283 ], [ 35.007140600465327, 13.511105640203105 ], [ 35.652434124305671, 14.158259284852374 ], [ 36.559144380528537, 14.059434923322687 ] ] ] ] } },
{ "type": "Feature", "properties": { "geogrid_id": "713593459040201912", "seqnum": 6623.0, "lat_c": 13.593458526724929, "lon_c": 40.201912034341717, "res": 7.0, "count_Birds": 75, "count_Ferns": 1, "count_Mammals": 9, "count_Reptiles": 7, "count_Flowering Plants": 73, "count_Insects": 6, "count_Sac Fungi": 0, "count_Basidiomycota": 0, "count_Gymnosperms": 0, "count_Amphibians": 4, "count_Arachnids": 0, "count_Mosses": 0, "count_Molluscs": 0, "unique_species_count": 175.0, "countryCode": "ET" }, "geometry": { "type": "MultiPolygon", "coordinates": [ [ [ [ 39.947043550935284, 14.336025702333874 ], [ 40.866010185034789, 14.204891806951062 ], [ 41.119329588167012, 13.464742085658957 ], [ 40.454997972631936, 12.852694681450224 ], [ 39.541367553650979, 12.978885909987424 ], [ 39.286678313925485, 13.721729412402233 ], [ 39.947043550935284, 14.336025702333874 ] ] ] ] } },
{ "type": "Feature", "properties": { "geogrid_id": "713956192037466034", "seqnum": 6049.0, "lat_c": 13.956191913521186, "lon_c": 37.466033846239689, "res": 7.0, "count_Birds": 25, "count_Ferns": 0, "count_Mammals": 0, "count_Reptiles": 2, "count_Flowering Plants": 34, "count_Insects": 4, "count_Sac Fungi": 0, "count_Basidiomycota": 0, "count_Gymnosperms": 0, "count_Amphibians": 0, "count_Arachnids": 0, "count_Mosses": 0, "count_Molluscs": 0, "unique_species_count": 65.0, "countryCode": "ET" }, "geometry": { "type": "MultiPolygon", "coordinates": [ [ [ [ 38.114489488637041, 14.594068900294983 ], [ 38.373175642095944, 13.848518877479716 ], [ 37.723845204046654, 13.212409421609969 ], [ 36.81819600223038, 13.31629155190018 ], [ 36.559144380528537, 14.059434923322687 ], [ 37.205760918587288, 14.701240954203859 ], [ 38.114489488637041, 14.594068900294983 ] ] ] ] } },
{ "type": "Feature", "properties": { "geogrid_id": "714466070039030015", "seqnum": 6596.0, "lat_c": 14.466069881436736, "lon_c": 39.030015261182861, "res": 7.0, "count_Birds": 88, "count_Ferns": 0, "count_Mammals": 6, "count_Reptiles": 4, "count_Flowering Plants": 57, "count_Insects": 6, "count_Sac Fungi": 0, "count_Basidiomycota": 1, "count_Gymnosperms": 0, "count_Amphibians": 0, "count_Arachnids": 0, "count_Mosses": 0, "count_Molluscs": 0, "unique_species_count": 162.0, "countryCode": "ET" }, "geometry": { "type": "MultiPolygon", "coordinates": [ [ [ [ 38.77129137104474, 15.211820033069159 ], [ 39.69031063809264, 15.080303347024607 ], [ 39.947043550935284, 14.336025702333874 ], [ 39.286678313925485, 13.721729412402233 ], [ 38.373175642345743, 13.84851887514964 ], [ 38.114489488895835, 14.594068897971171 ], [ 38.77129137104474, 15.211820033069159 ] ] ] ] } }
]
}
