{
"type": "FeatureCollection",
"name": "FI",
"crs": { "type": "name", "properties": { "name": "urn:ogc:def:crs:OGC:1.3:CRS84" } },
"features": [
{ "type": "Feature", "properties": { "geogrid_id": "859406832019712392", "seqnum": 26321.0, "lat_c": 59.40683211643605, "lon_c": 19.712391920588392, "res": 8.0, "count_Mosses": 0, "count_Sac Fungi": 0, "count_Arachnids": 0, "count_Basidiomycota": 0, "count_Ferns": 0, "count_Birds": 1, "count_Insects": 0, "count_Mammals": 0, "count_Flowering Plants": 0, "count_Molluscs": 1, "count_Amphibians": 0, "count_Gymnosperms": 0, "count_Reptiles": 0, "unique_species_count": 2.0, "countryCode": "FI" }, "geometry": { "type": "MultiPolygon", "coordinates": [ [ [ [ 18.886358292415807, 59.606167695600071 ], [ 19.531665642239524, 59.951680524247394 ], [ 20.363218298017692, 59.747926769918806 ], [ 20.553689981026032, 59.205493526063798 ], [ 19.935998979962068, 58.866437488678798 ], [ 19.100072757944083, 59.064292960421348 ], [ 18.886358292415807, 59.606167695600071 ] ] ] ] } },
{ "type": "Feature", "properties": { "geogrid_id": "859540598021187963", "seqnum": 26320.0, "lat_c": 59.540597504496311, "lon_c": 21.187963144785883, "res": 8.0, "count_Mosses": 137, "count_Sac Fungi": 145, "count_Arachnids": 56, "count_Basidiomycota": 71, "count_Ferns": 16, "count_Birds": 220, "count_Insects": 1960, "count_Mammals": 12, "count_Flowering Plants": 554, "count_Molluscs": 35, "count_Amphibians": 4, "count_Gymnosperms": 5, "count_Reptiles": 1, "unique_species_count": 3216.0, "countryCode": "FI" }, "geometry": { "type": "MultiPolygon", "coordinates": [ [ [ [ 20.363218298017692, 59.747926769918806 ], [ 21.02680194534851, 60.085246968659916 ], [ 21.856626170970003, 59.87342779632791 ], [ 22.023356282205967, 59.330639518993102 ], [ 21.384135498656917, 58.999153690976605 ], [ 20.553689981026032, 59.205493526063798 ], [ 20.363218298017692, 59.747926769918806 ] ] ] ] } },
{ "type": "Feature", "properties": { "geogrid_id": "859657958022679060", "seqnum": 26319.0, "lat_c": 59.657958116877083, "lon_c": 22.679059757605248, "res": 8.0, "count_Mosses": 307, "count_Sac Fungi": 531, "count_Arachnids": 523, "count_Basidiomycota": 1176, "count_Ferns": 20, "count_Birds": 266, "count_Insects": 6248, "count_Mammals": 38, "count_Flowering Plants": 1057, "count_Molluscs": 89, "count_Amphibians": 5, "count_Gymnosperms": 14, "count_Reptiles": 3, "unique_species_count": 10277.0, "countryCode": "FI" }, "geometry": { "type": "MultiPolygon", "coordinates": [ [ [ [ 21.856626170970003, 59.87342779632791 ], [ 22.538174757757773, 60.202318023151967 ], [ 23.365212783179732, 59.982291823812297 ], [ 23.507759792539574, 59.439361847222933 ], [ 22.84756951526321, 59.115789011832227 ], [ 22.023356282205967, 59.330639518993102 ], [ 21.856626170970003, 59.87342779632791 ] ] ] ] } },
{ "type": "Feature", "properties": { "geogrid_id": "859758557024184287", "seqnum": 26318.0, "lat_c": 59.758556912794994, "lon_c": 24.184286587126291, "res": 8.0, "count_Mosses": 336, "count_Sac Fungi": 742, "count_Arachnids": 286, "count_Basidiomycota": 1398, "count_Ferns": 19, "count_Birds": 266, "count_Insects": 6555, "count_Mammals": 44, "count_Flowering Plants": 1195, "count_Molluscs": 121, "count_Amphibians": 4, "count_Gymnosperms": 22, "count_Reptiles": 5, "unique_species_count": 10993.0, "countryCode": "FI" }, "geometry": { "type": "MultiPolygon", "coordinates": [ [ [ [ 23.365212783179732, 59.982291823812297 ], [ 24.064337773238194, 60.302518489319695 ], [ 24.887507832292201, 60.074166484190727 ], [ 25.005493355781937, 59.531316986613476 ], [ 24.324974718604569, 59.215986992669954 ], [ 23.507759792539574, 59.439361847222933 ], [ 23.365212783179732, 59.982291823812297 ] ] ] ] } },
{ "type": "Feature", "properties": { "geogrid_id": "859842064025702154", "seqnum": 26317.0, "lat_c": 59.842064366371005, "lon_c": 25.702154105791788, "res": 8.0, "count_Mosses": 122, "count_Sac Fungi": 331, "count_Arachnids": 124, "count_Basidiomycota": 870, "count_Ferns": 16, "count_Birds": 225, "count_Insects": 3527, "count_Mammals": 37, "count_Flowering Plants": 870, "count_Molluscs": 67, "count_Amphibians": 4, "count_Gymnosperms": 5, "count_Reptiles": 3, "unique_species_count": 6201.0, "countryCode": "FI" }, "geometry": { "type": "MultiPolygon", "coordinates": [ [ [ [ 24.887507832292201, 60.074166484190727 ], [ 25.603743239490193, 60.385501509484619 ], [ 26.421946925836338, 60.148728646688646 ], [ 26.515061113175523, 59.606189495680184 ], [ 25.814934671702421, 59.299417357899721 ], [ 25.005493355781937, 59.531316986613476 ], [ 24.887507832292201, 60.074166484190727 ] ] ] ] } },
{ "type": "Feature", "properties": { "geogrid_id": "859908181027231086", "seqnum": 26316.0, "lat_c": 59.908180952839388, "lon_c": 27.231086099229032, "res": 8.0, "count_Mosses": 13, "count_Sac Fungi": 30, "count_Arachnids": 12, "count_Basidiomycota": 58, "count_Ferns": 12, "count_Birds": 147, "count_Insects": 1252, "count_Mammals": 10, "count_Flowering Plants": 484, "count_Molluscs": 37, "count_Amphibians": 3, "count_Gymnosperms": 4, "count_Reptiles": 0, "unique_species_count": 2062.0, "countryCode": "FI" }, "geometry": { "type": "MultiPolygon", "coordinates": [ [ [ [ 26.421946925836338, 60.148728646688646 ], [ 27.154750028802422, 60.45095124450949 ], [ 27.966880217739476, 60.20568691200247 ], [ 28.034886508915982, 59.663694380942488 ], [ 27.315949761331826, 59.365778422561156 ], [ 26.515061113175523, 59.606189495680184 ], [ 26.421946925836338, 60.148728646688646 ] ] ] ] } },
{ "type": "Feature", "properties": { "geogrid_id": "860151947018693604", "seqnum": 26403.0, "lat_c": 60.151947445167373, "lon_c": 18.693604058795465, "res": 8.0, "count_Mosses": 0, "count_Sac Fungi": 0, "count_Arachnids": 1, "count_Basidiomycota": 0, "count_Ferns": 0, "count_Birds": 53, "count_Insects": 2, "count_Mammals": 1, "count_Flowering Plants": 17, "count_Molluscs": 1, "count_Amphibians": 1, "count_Gymnosperms": 0, "count_Reptiles": 0, "unique_species_count": 76.0, "countryCode": "FI" }, "geometry": { "type": "MultiPolygon", "coordinates": [ [ [ [ 17.849352272815803, 60.348830101263907 ], [ 18.495908539857968, 60.699616238350409 ], [ 19.346129706889581, 60.498246076554594 ], [ 19.531665642239524, 59.951680524247394 ], [ 18.88635829241581, 59.606167695600071 ], [ 18.054104292563576, 59.802019412488946 ], [ 17.849352272815803, 60.348830101263907 ] ] ] ] } },
{ "type": "Feature", "properties": { "geogrid_id": "860293490020189869", "seqnum": 26402.0, "lat_c": 60.293490394002355, "lon_c": 20.189868855950692, "res": 8.0, "count_Mosses": 1, "count_Sac Fungi": 0, "count_Arachnids": 0, "count_Basidiomycota": 0, "count_Ferns": 5, "count_Birds": 24, "count_Insects": 0, "count_Mammals": 0, "count_Flowering Plants": 89, "count_Molluscs": 0, "count_Amphibians": 0, "count_Gymnosperms": 1, "count_Reptiles": 0, "unique_species_count": 120.0, "countryCode": "FI" }, "geometry": { "type": "MultiPolygon", "coordinates": [ [ [ [ 19.346129706889581, 60.498246076554594 ], [ 20.012006329169242, 60.840820194417972 ], [ 20.861276232596808, 60.631501681190137 ], [ 21.02680194534851, 60.085246968659916 ], [ 20.363218298017692, 59.747926769918806 ], [ 19.531665642239524, 59.951680524247394 ], [ 19.346129706889581, 60.498246076554594 ] ] ] ] } },
{ "type": "Feature", "properties": { "geogrid_id": "860418697021703435", "seqnum": 26401.0, "lat_c": 60.418696721120185, "lon_c": 21.703434544360089, "res": 8.0, "count_Mosses": 396, "count_Sac Fungi": 1061, "count_Arachnids": 559, "count_Basidiomycota": 1809, "count_Ferns": 25, "count_Birds": 267, "count_Insects": 9055, "count_Mammals": 41, "count_Flowering Plants": 1775, "count_Molluscs": 121, "count_Amphibians": 8, "count_Gymnosperms": 25, "count_Reptiles": 4, "unique_species_count": 15146.0, "countryCode": "FI" }, "geometry": { "type": "MultiPolygon", "coordinates": [ [ [ [ 20.861276232596808, 60.631501681190137 ], [ 21.546197630774518, 60.965615036126721 ], [ 22.39340829206559, 60.7481764341046 ], [ 22.538174757757773, 60.202318023151967 ], [ 21.856626170970003, 59.87342779632791 ], [ 21.02680194534851, 60.085246968659916 ], [ 20.861276232596808, 60.631501681190137 ] ] ] ] } },
{ "type": "Feature", "properties": { "geogrid_id": "860527168023232884", "seqnum": 26400.0, "lat_c": 60.527168494313464, "lon_c": 23.232883702767385, "res": 8.0, "count_Mosses": 417, "count_Sac Fungi": 1463, "count_Arachnids": 346, "count_Basidiomycota": 1982, "count_Ferns": 25, "count_Birds": 243, "count_Insects": 8171, "count_Mammals": 46, "count_Flowering Plants": 1324, "count_Molluscs": 112, "count_Amphibians": 7, "count_Gymnosperms": 15, "count_Reptiles": 4, "unique_species_count": 14155.0, "countryCode": "FI" }, "geometry": { "type": "MultiPolygon", "coordinates": [ [ [ [ 22.39340829206559, 60.7481764341046 ], [ 23.097015115263812, 61.073582850017779 ], [ 23.941026532184349, 60.847875996199477 ], [ 24.064337773238194, 60.302518489319695 ], [ 23.365212783179732, 59.982291823812297 ], [ 22.538174757757773, 60.202318023151967 ], [ 22.39340829206559, 60.7481764341046 ] ] ] ] } },
{ "type": "Feature", "properties": { "geogrid_id": "860618535024776690", "seqnum": 26399.0, "lat_c": 60.61853509057655, "lon_c": 24.776690209715294, "res": 8.0, "count_Mosses": 410, "count_Sac Fungi": 1432, "count_Arachnids": 717, "count_Basidiomycota": 2492, "count_Ferns": 26, "count_Birds": 344, "count_Insects": 10926, "count_Mammals": 54, "count_Flowering Plants": 1887, "count_Molluscs": 135, "count_Amphibians": 7, "count_Gymnosperms": 28, "count_Reptiles": 6, "unique_species_count": 18464.0, "countryCode": "FI" }, "geometry": { "type": "MultiPolygon", "coordinates": [ [ [ [ 23.941026532184349, 60.847875996199477 ], [ 24.662874607186613, 61.164333749397798 ], [ 25.50252246914074, 60.930235196747446 ], [ 25.603743239490193, 60.385501509484619 ], [ 24.887507832292201, 60.074166484190727 ], [ 24.064337773238194, 60.302518489319695 ], [ 23.941026532184349, 60.847875996199477 ] ] ] ] } },
{ "type": "Feature", "properties": { "geogrid_id": "860692456026333227", "seqnum": 26398.0, "lat_c": 60.692456051978951, "lon_c": 26.333226656858464, "res": 8.0, "count_Mosses": 325, "count_Sac Fungi": 723, "count_Arachnids": 386, "count_Basidiomycota": 1462, "count_Ferns": 20, "count_Birds": 289, "count_Insects": 7421, "count_Mammals": 53, "count_Flowering Plants": 1347, "count_Molluscs": 93, "count_Amphibians": 4, "count_Gymnosperms": 20, "count_Reptiles": 4, "unique_species_count": 12147.0, "countryCode": "FI" }, "geometry": { "type": "MultiPolygon", "coordinates": [ [ [ [ 25.50252246914074, 60.930235196747446 ], [ 26.242082833507919, 61.237508947942011 ], [ 27.076186976187458, 60.994920918893641 ], [ 27.154750028802422, 60.45095124450949 ], [ 26.421946925836338, 60.148728646688646 ], [ 25.603743239490193, 60.385501509484619 ], [ 25.50252246914074, 60.930235196747446 ] ] ] ] } },
{ "type": "Feature", "properties": { "geogrid_id": "860748624027900773", "seqnum": 26397.0, "lat_c": 60.748623776243754, "lon_c": 27.900773475439063, "res": 8.0, "count_Mosses": 296, "count_Sac Fungi": 349, "count_Arachnids": 220, "count_Basidiomycota": 839, "count_Ferns": 18, "count_Birds": 243, "count_Insects": 7827, "count_Mammals": 48, "count_Flowering Plants": 1101, "count_Molluscs": 81, "count_Amphibians": 5, "count_Gymnosperms": 15, "count_Reptiles": 3, "unique_species_count": 11045.0, "countryCode": "FI" }, "geometry": { "type": "MultiPolygon", "coordinates": [ [ [ [ 27.076186976187458, 60.994920918893641 ], [ 27.832847063895091, 61.292783663682123 ], [ 28.66022053505159, 61.041634791118575 ], [ 28.715633303488069, 60.498585364604033 ], [ 27.966880217739476, 60.20568691200247 ], [ 27.154750028802422, 60.45095124450949 ], [ 27.076186976187458, 60.994920918893641 ] ] ] ] } },
{ "type": "Feature", "properties": { "geogrid_id": "860786766029477530", "seqnum": 26396.0, "lat_c": 60.786765991850913, "lon_c": 29.477529690692336, "res": 8.0, "count_Mosses": 1, "count_Sac Fungi": 3, "count_Arachnids": 0, "count_Basidiomycota": 5, "count_Ferns": 10, "count_Birds": 82, "count_Insects": 1282, "count_Mammals": 1, "count_Flowering Plants": 301, "count_Molluscs": 7, "count_Amphibians": 0, "count_Gymnosperms": 3, "count_Reptiles": 0, "unique_species_count": 1695.0, "countryCode": "FI" }, "geometry": { "type": "MultiPolygon", "coordinates": [ [ [ [ 28.66022053505159, 61.041634791118575 ], [ 29.433286555015357, 61.329869798002257 ], [ 30.252745137170109, 61.070115632808132 ], [ 30.284595668321785, 60.528157306227236 ], [ 29.520582515022294, 60.24478390036559 ], [ 28.715633303488069, 60.498585364604033 ], [ 28.66022053505159, 61.041634791118575 ] ] ] ] } },
{ "type": "Feature", "properties": { "geogrid_id": "861046754019155954", "seqnum": 26484.0, "lat_c": 61.046754101247885, "lon_c": 19.155954056760901, "res": 8.0, "count_Mosses": 0, "count_Sac Fungi": 0, "count_Arachnids": 0, "count_Basidiomycota": 0, "count_Ferns": 0, "count_Birds": 0, "count_Insects": 0, "count_Mammals": 0, "count_Flowering Plants": 0, "count_Molluscs": 1, "count_Amphibians": 0, "count_Gymnosperms": 0, "count_Reptiles": 0, "unique_species_count": 1.0, "countryCode": "FI" }, "geometry": { "type": "MultiPolygon", "coordinates": [ [ [ [ 18.293471588188236, 61.249420861368137 ], [ 18.961375611801991, 61.597455772342947 ], [ 19.829834725807171, 61.390145274537815 ], [ 20.012006329169242, 60.840820194417972 ], [ 19.346129706889581, 60.498246076554594 ], [ 18.495908539857968, 60.699616238350409 ], [ 18.293471588188236, 61.249420861368137 ] ] ] ] } },
{ "type": "Feature", "properties": { "geogrid_id": "861179571020691562", "seqnum": 26483.0, "lat_c": 61.179570840977298, "lon_c": 20.691561690395403, "res": 8.0, "count_Mosses": 156, "count_Sac Fungi": 193, "count_Arachnids": 111, "count_Basidiomycota": 309, "count_Ferns": 16, "count_Birds": 249, "count_Insects": 2605, "count_Mammals": 31, "count_Flowering Plants": 716, "count_Molluscs": 48, "count_Amphibians": 4, "count_Gymnosperms": 4, "count_Reptiles": 2, "unique_species_count": 4444.0, "countryCode": "FI" }, "geometry": { "type": "MultiPolygon", "coordinates": [ [ [ [ 19.829834725807171, 61.390145274537815 ], [ 20.517899640389512, 61.729687279715712 ], [ 21.385125514480777, 61.514395123515769 ], [ 21.546197630774518, 60.965615036126721 ], [ 20.861276232596808, 60.631501681190137 ], [ 20.012006329169242, 60.840820194417972 ], [ 19.829834725807171, 61.390145274537815 ] ] ] ] } },
{ "type": "Feature", "properties": { "geogrid_id": "861295727022244944", "seqnum": 26482.0, "lat_c": 61.295727307239453, "lon_c": 22.244943715133999, "res": 8.0, "count_Mosses": 324, "count_Sac Fungi": 401, "count_Arachnids": 155, "count_Basidiomycota": 936, "count_Ferns": 16, "count_Birds": 284, "count_Insects": 5715, "count_Mammals": 40, "count_Flowering Plants": 1039, "count_Molluscs": 89, "count_Amphibians": 5, "count_Gymnosperms": 8, "count_Reptiles": 2, "unique_species_count": 9014.0, "countryCode": "FI" }, "geometry": { "type": "MultiPolygon", "coordinates": [ [ [ [ 21.385125514480777, 61.514395123515769 ], [ 22.093028676171908, 61.845186129774156 ], [ 22.957825111049178, 61.621731470867033 ], [ 23.097015115263812, 61.073582850017779 ], [ 22.39340829206559, 60.7481764341046 ], [ 21.546197630774518, 60.965615036126721 ], [ 21.385125514480777, 61.514395123515769 ] ] ] ] } },
{ "type": "Feature", "properties": { "geogrid_id": "861394809023814546", "seqnum": 26481.0, "lat_c": 61.394808990594271, "lon_c": 23.814545797020763, "res": 8.0, "count_Mosses": 387, "count_Sac Fungi": 1095, "count_Arachnids": 223, "count_Basidiomycota": 1580, "count_Ferns": 23, "count_Birds": 265, "count_Insects": 6777, "count_Mammals": 48, "count_Flowering Plants": 1262, "count_Molluscs": 86, "count_Amphibians": 4, "count_Gymnosperms": 17, "count_Reptiles": 2, "unique_species_count": 11769.0, "countryCode": "FI" }, "geometry": { "type": "MultiPolygon", "coordinates": [ [ [ [ 22.957825111049178, 61.621731470867033 ], [ 23.685151461038053, 61.943516567916127 ], [ 24.54628900959753, 61.711744108272349 ], [ 24.662874607186613, 61.164333749397798 ], [ 23.941026532184349, 60.847875996199477 ], [ 23.097015115263812, 61.073582850017779 ], [ 22.957825111049178, 61.621731470867033 ] ] ] ] } },
{ "type": "Feature", "properties": { "geogrid_id": "861476431025398696", "seqnum": 26480.0, "lat_c": 61.476431374178276, "lon_c": 25.398696141942725, "res": 8.0, "count_Mosses": 388, "count_Sac Fungi": 862, "count_Arachnids": 300, "count_Basidiomycota": 1516, "count_Ferns": 20, "count_Birds": 229, "count_Insects": 6064, "count_Mammals": 43, "count_Flowering Plants": 1022, "count_Molluscs": 94, "count_Amphibians": 4, "count_Gymnosperms": 15, "count_Reptiles": 2, "unique_species_count": 10559.0, "countryCode": "FI" }, "geometry": { "type": "MultiPolygon", "coordinates": [ [ [ [ 24.54628900959753, 61.711744108272349 ], [ 25.292530248466893, 62.024273646485668 ], [ 26.148755128819332, 61.784054865540433 ], [ 26.242082833507919, 61.237508947942011 ], [ 25.50252246914074, 60.930235196747446 ], [ 24.662874607186613, 61.164333749397798 ], [ 24.54628900959753, 61.711744108272349 ] ] ] ] } },
{ "type": "Feature", "properties": { "geogrid_id": "861540243026995614", "seqnum": 26479.0, "lat_c": 61.540243044275243, "lon_c": 26.995614414743656, "res": 8.0, "count_Mosses": 225, "count_Sac Fungi": 265, "count_Arachnids": 311, "count_Basidiomycota": 807, "count_Ferns": 16, "count_Birds": 187, "count_Insects": 5240, "count_Mammals": 37, "count_Flowering Plants": 835, "count_Molluscs": 58, "count_Amphibians": 4, "count_Gymnosperms": 14, "count_Reptiles": 3, "unique_species_count": 8002.0, "countryCode": "FI" }, "geometry": { "type": "MultiPolygon", "coordinates": [ [ [ [ 26.148755128819332, 61.784054865540433 ], [ 26.913310166758173, 62.08708657916506 ], [ 27.763353989755267, 61.83832074631492 ], [ 27.832847063895091, 61.292783663682123 ], [ 27.076186976187458, 60.994920918893641 ], [ 26.242082833507919, 61.237508947942011 ], [ 26.148755128819332, 61.784054865540433 ] ] ] ] } },
{ "type": "Feature", "properties": { "geogrid_id": "861585929028603423", "seqnum": 26478.0, "lat_c": 61.585928600104275, "lon_c": 28.603422610079566, "res": 8.0, "count_Mosses": 266, "count_Sac Fungi": 334, "count_Arachnids": 178, "count_Basidiomycota": 837, "count_Ferns": 20, "count_Birds": 217, "count_Insects": 6498, "count_Mammals": 46, "count_Flowering Plants": 900, "count_Molluscs": 73, "count_Amphibians": 5, "count_Gymnosperms": 14, "count_Reptiles": 3, "unique_species_count": 9391.0, "countryCode": "FI" }, "geometry": { "type": "MultiPolygon", "coordinates": [ [ [ [ 27.763353989755267, 61.83832074631492 ], [ 28.54553074354839, 62.131621888278922 ], [ 29.388120894137735, 61.874236829344213 ], [ 29.433286555015357, 61.329869798002257 ], [ 28.66022053505159, 61.041634791118575 ], [ 27.832847063895091, 61.292783663682123 ], [ 27.763353989755267, 61.83832074631492 ] ] ] ] } },
{ "type": "Feature", "properties": { "geogrid_id": "861613211030220158", "seqnum": 26477.0, "lat_c": 61.613211305457995, "lon_c": 30.220157755251076, "res": 8.0, "count_Mosses": 211, "count_Sac Fungi": 167, "count_Arachnids": 55, "count_Basidiomycota": 707, "count_Ferns": 16, "count_Birds": 200, "count_Insects": 4659, "count_Mammals": 30, "count_Flowering Plants": 630, "count_Molluscs": 49, "count_Amphibians": 4, "count_Gymnosperms": 8, "count_Reptiles": 4, "unique_species_count": 6740.0, "countryCode": "FI" }, "geometry": { "type": "MultiPolygon", "coordinates": [ [ [ [ 29.388120894137735, 61.874236829344213 ], [ 30.187139466132543, 62.157586281518775 ], [ 31.021009947772811, 61.89153887627814 ], [ 31.041445653115357, 61.348518336412226 ], [ 30.252745137170109, 61.070115632808132 ], [ 29.433286555015357, 61.329869798002257 ], [ 29.388120894137735, 61.874236829344213 ] ] ] ] } },
{ "type": "Feature", "properties": { "geogrid_id": "862065273021220500", "seqnum": 26564.0, "lat_c": 62.065273475729725, "lon_c": 21.22050032326181, "res": 8.0, "count_Mosses": 209, "count_Sac Fungi": 167, "count_Arachnids": 81, "count_Basidiomycota": 623, "count_Ferns": 14, "count_Birds": 241, "count_Insects": 3136, "count_Mammals": 38, "count_Flowering Plants": 809, "count_Molluscs": 57, "count_Amphibians": 4, "count_Gymnosperms": 7, "count_Reptiles": 2, "unique_species_count": 5388.0, "countryCode": "FI" }, "geometry": { "type": "MultiPolygon", "coordinates": [ [ [ [ 20.340612174003628, 62.282110827625296 ], [ 21.052692833838449, 62.618514145789028 ], [ 21.937989858909386, 62.396792964459458 ], [ 22.093028676171908, 61.845186129774156 ], [ 21.385125514480777, 61.514395123515769 ], [ 20.517899640389512, 61.729687279715712 ], [ 20.340612174003628, 62.282110827625296 ] ] ] ] } },
{ "type": "Feature", "properties": { "geogrid_id": "862171833022815602", "seqnum": 26563.0, "lat_c": 62.171832849302049, "lon_c": 22.815602290330308, "res": 8.0, "count_Mosses": 307, "count_Sac Fungi": 243, "count_Arachnids": 144, "count_Basidiomycota": 684, "count_Ferns": 12, "count_Birds": 207, "count_Insects": 4086, "count_Mammals": 35, "count_Flowering Plants": 728, "count_Molluscs": 41, "count_Amphibians": 4, "count_Gymnosperms": 6, "count_Reptiles": 3, "unique_species_count": 6500.0, "countryCode": "FI" }, "geometry": { "type": "MultiPolygon", "coordinates": [ [ [ [ 21.937989858909386, 62.396792964459458 ], [ 22.670721911461442, 62.724130502430803 ], [ 23.5531766913364, 62.494220102068361 ], [ 23.685151461038053, 61.943516567916127 ], [ 22.957825111049178, 61.621731470867033 ], [ 22.093028676171908, 61.845186129774156 ], [ 21.937989858909386, 62.396792964459458 ] ] ] ] } },
{ "type": "Feature", "properties": { "geogrid_id": "862260968024427230", "seqnum": 26562.0, "lat_c": 62.260967648668796, "lon_c": 24.427230376534542, "res": 8.0, "count_Mosses": 335, "count_Sac Fungi": 308, "count_Arachnids": 255, "count_Basidiomycota": 961, "count_Ferns": 17, "count_Birds": 210, "count_Insects": 2808, "count_Mammals": 35, "count_Flowering Plants": 729, "count_Molluscs": 33, "count_Amphibians": 4, "count_Gymnosperms": 10, "count_Reptiles": 3, "unique_species_count": 5708.0, "countryCode": "FI" }, "geometry": { "type": "MultiPolygon", "coordinates": [ [ [ [ 23.5531766913364, 62.494220102068361 ], [ 24.306080295126257, 62.812228475767895 ], [ 25.184366278729872, 62.57396572715674 ], [ 25.292530248466893, 62.024273646485668 ], [ 24.54628900959753, 61.711744108272349 ], [ 23.685151461038053, 61.943516567916127 ], [ 23.5531766913364, 62.494220102068361 ] ] ] ] } },
{ "type": "Feature", "properties": { "geogrid_id": "862332279026053551", "seqnum": 26561.0, "lat_c": 62.332279210254782, "lon_c": 26.053550662290064, "res": 8.0, "count_Mosses": 342, "count_Sac Fungi": 574, "count_Arachnids": 325, "count_Basidiomycota": 1385, "count_Ferns": 18, "count_Birds": 233, "count_Insects": 5697, "count_Mammals": 37, "count_Flowering Plants": 1014, "count_Molluscs": 95, "count_Amphibians": 4, "count_Gymnosperms": 13, "count_Reptiles": 4, "unique_species_count": 9741.0, "countryCode": "FI" }, "geometry": { "type": "MultiPolygon", "coordinates": [ [ [ [ 25.184366278729872, 62.57396572715674 ], [ 25.956859122437816, 62.882387746642543 ], [ 26.829625774075183, 62.63563854856956 ], [ 26.913310166758173, 62.08708657916506 ], [ 26.148755128819332, 61.784054865540433 ], [ 25.292530248466893, 62.024273646485668 ], [ 25.184366278729872, 62.57396572715674 ] ] ] ] } },
{ "type": "Feature", "properties": { "geogrid_id": "862385405027692613", "seqnum": 26560.0, "lat_c": 62.385405229701036, "lon_c": 27.692613189225778, "res": 8.0, "count_Mosses": 326, "count_Sac Fungi": 501, "count_Arachnids": 230, "count_Basidiomycota": 1252, "count_Ferns": 18, "count_Birds": 212, "count_Insects": 4932, "count_Mammals": 44, "count_Flowering Plants": 870, "count_Molluscs": 69, "count_Amphibians": 5, "count_Gymnosperms": 8, "count_Reptiles": 2, "unique_species_count": 8469.0, "countryCode": "FI" }, "geometry": { "type": "MultiPolygon", "coordinates": [ [ [ [ 26.829625774075183, 62.63563854856956 ], [ 27.621024089228719, 62.934225550161699 ], [ 28.486908088718721, 62.678885902909023 ], [ 28.54553074354839, 62.131621888278922 ], [ 27.763353989755267, 61.83832074631492 ], [ 26.913310166758173, 62.08708657916506 ], [ 26.829625774075183, 62.63563854856956 ] ] ] ] } },
{ "type": "Feature", "properties": { "geogrid_id": "862420023029342365", "seqnum": 26559.0, "lat_c": 62.420022905419152, "lon_c": 29.342364918556449, "res": 8.0, "count_Mosses": 244, "count_Sac Fungi": 372, "count_Arachnids": 221, "count_Basidiomycota": 860, "count_Ferns": 17, "count_Birds": 236, "count_Insects": 7118, "count_Mammals": 39, "count_Flowering Plants": 901, "count_Molluscs": 74, "count_Amphibians": 4, "count_Gymnosperms": 11, "count_Reptiles": 3, "unique_species_count": 10100.0, "countryCode": "FI" }, "geometry": { "type": "MultiPolygon", "coordinates": [ [ [ [ 28.486908088718721, 62.678885902909023 ], [ 29.296429235539108, 62.967400083269837 ], [ 30.154066369113401, 62.703396877096111 ], [ 30.187139466132543, 62.157586281518775 ], [ 29.388120894137735, 61.874236829344213 ], [ 28.54553074354839, 62.131621888278922 ], [ 28.486908088718721, 62.678885902909023 ] ] ] ] } },
{ "type": "Feature", "properties": { "geogrid_id": "862435852031000665", "seqnum": 26558.0, "lat_c": 62.435851772972697, "lon_c": 31.000664743921579, "res": 8.0, "count_Mosses": 280, "count_Sac Fungi": 127, "count_Arachnids": 225, "count_Basidiomycota": 499, "count_Ferns": 17, "count_Birds": 197, "count_Insects": 3444, "count_Mammals": 38, "count_Flowering Plants": 630, "count_Molluscs": 43, "count_Amphibians": 4, "count_Gymnosperms": 6, "count_Reptiles": 2, "unique_species_count": 5512.0, "countryCode": "FI" }, "geometry": { "type": "MultiPolygon", "coordinates": [ [ [ [ 30.154066369113401, 62.703396877096111 ], [ 30.980833020949486, 62.981613587106771 ], [ 31.828870527030144, 62.708905080796619 ], [ 31.836007182266922, 62.164729197784382 ], [ 31.021009947772811, 61.89153887627814 ], [ 30.187139466132543, 62.157586281518775 ], [ 30.154066369113401, 62.703396877096111 ] ] ] ] } },
{ "type": "Feature", "properties": { "geogrid_id": "862837132020160121", "seqnum": 26646.0, "lat_c": 62.83713221892387, "lon_c": 20.160120863155942, "res": 8.0, "count_Mosses": 2, "count_Sac Fungi": 0, "count_Arachnids": 1, "count_Basidiomycota": 0, "count_Ferns": 8, "count_Birds": 126, "count_Insects": 82, "count_Mammals": 3, "count_Flowering Plants": 258, "count_Molluscs": 22, "count_Amphibians": 0, "count_Gymnosperms": 3, "count_Reptiles": 0, "unique_species_count": 505.0, "countryCode": "FI" }, "geometry": { "type": "MultiPolygon", "coordinates": [ [ [ [ 19.26071518642863, 63.052803044798694 ], [ 19.97696998779282, 63.395077629943927 ], [ 20.882183043762442, 63.1744127527651 ], [ 21.052692833838449, 62.618514145789028 ], [ 20.340612174003628, 62.282110827625296 ], [ 19.453765162161108, 62.495833619184097 ], [ 19.26071518642863, 63.052803044798694 ] ] ] ] } },
{ "type": "Feature", "properties": { "geogrid_id": "862950816021780251", "seqnum": 26645.0, "lat_c": 62.950815981683526, "lon_c": 21.780251205600102, "res": 8.0, "count_Mosses": 147, "count_Sac Fungi": 249, "count_Arachnids": 333, "count_Basidiomycota": 823, "count_Ferns": 13, "count_Birds": 224, "count_Insects": 4024, "count_Mammals": 35, "count_Flowering Plants": 814, "count_Molluscs": 62, "count_Amphibians": 4, "count_Gymnosperms": 6, "count_Reptiles": 3, "unique_species_count": 6737.0, "countryCode": "FI" }, "geometry": { "type": "MultiPolygon", "coordinates": [ [ [ [ 20.882183043762442, 63.1744127527651 ], [ 21.620356538036514, 63.507555561221821 ], [ 22.523665892144205, 63.27889658216116 ], [ 22.670721911461442, 62.724130502430803 ], [ 21.937989858909386, 62.396792964459458 ], [ 21.052692833838449, 62.618514145789028 ], [ 20.882183043762442, 63.1744127527651 ] ] ] ] } },
{ "type": "Feature", "properties": { "geogrid_id": "863047166023419050", "seqnum": 26644.0, "lat_c": 63.047166420210466, "lon_c": 23.419049619405307, "res": 8.0, "count_Mosses": 218, "count_Sac Fungi": 158, "count_Arachnids": 127, "count_Basidiomycota": 450, "count_Ferns": 13, "count_Birds": 191, "count_Insects": 2483, "count_Mammals": 24, "count_Flowering Plants": 726, "count_Molluscs": 39, "count_Amphibians": 4, "count_Gymnosperms": 9, "count_Reptiles": 2, "unique_species_count": 4444.0, "countryCode": "FI" }, "geometry": { "type": "MultiPolygon", "coordinates": [ [ [ [ 22.523665892144205, 63.27889658216116 ], [ 23.283315292600623, 63.602631486006779 ], [ 24.183324358305214, 63.3657765510792 ], [ 24.306080295126257, 62.812228475767895 ], [ 23.5531766913364, 62.494220102068361 ], [ 22.670721911461442, 62.724130502430803 ], [ 22.523665892144205, 63.27889658216116 ] ] ] ] } },
{ "type": "Feature", "properties": { "geogrid_id": "863125734025074638", "seqnum": 26643.0, "lat_c": 63.125734273401434, "lon_c": 25.074638336471676, "res": 8.0, "count_Mosses": 221, "count_Sac Fungi": 259, "count_Arachnids": 199, "count_Basidiomycota": 559, "count_Ferns": 15, "count_Birds": 183, "count_Insects": 3208, "count_Mammals": 29, "count_Flowering Plants": 712, "count_Molluscs": 40, "count_Amphibians": 4, "count_Gymnosperms": 7, "count_Reptiles": 2, "unique_species_count": 5438.0, "countryCode": "FI" }, "geometry": { "type": "MultiPolygon", "coordinates": [ [ [ [ 24.183324358305214, 63.3657765510792 ], [ 24.963894362803249, 63.679832170745982 ], [ 25.859171474353158, 63.434609472851044 ], [ 25.956859122437816, 62.882387746642543 ], [ 25.184366278729872, 62.57396572715674 ], [ 24.306080295126257, 62.812228475767895 ], [ 24.183324358305214, 63.3657765510792 ] ] ] ] } },
{ "type": "Feature", "properties": { "geogrid_id": "863186107026745003", "seqnum": 26642.0, "lat_c": 63.186106557874822, "lon_c": 26.74500299731482, "res": 8.0, "count_Mosses": 298, "count_Sac Fungi": 214, "count_Arachnids": 48, "count_Basidiomycota": 579, "count_Ferns": 18, "count_Birds": 201, "count_Insects": 2843, "count_Mammals": 38, "count_Flowering Plants": 847, "count_Molluscs": 62, "count_Amphibians": 4, "count_Gymnosperms": 11, "count_Reptiles": 2, "unique_species_count": 5165.0, "countryCode": "FI" }, "geometry": { "type": "MultiPolygon", "coordinates": [ [ [ [ 25.859171474353158, 63.434609472851044 ], [ 26.659994258678612, 63.738721700319772 ], [ 27.549084601306664, 63.484990911909847 ], [ 27.621024089228719, 62.934225550161699 ], [ 26.829625774075183, 62.63563854856956 ], [ 25.956859122437816, 62.882387746642543 ], [ 25.859171474353158, 63.434609472851044 ] ] ] ] } },
{ "type": "Feature", "properties": { "geogrid_id": "863227910028428006", "seqnum": 26641.0, "lat_c": 63.227910254371949, "lon_c": 28.428005586860618, "res": 8.0, "count_Mosses": 377, "count_Sac Fungi": 457, "count_Arachnids": 63, "count_Basidiomycota": 987, "count_Ferns": 22, "count_Birds": 201, "count_Insects": 4174, "count_Mammals": 34, "count_Flowering Plants": 809, "count_Molluscs": 64, "count_Amphibians": 4, "count_Gymnosperms": 8, "count_Reptiles": 2, "unique_species_count": 7202.0, "countryCode": "FI" }, "geometry": { "type": "MultiPolygon", "coordinates": [ [ [ [ 27.549084601306664, 63.484990911909847 ], [ 28.36938158192191, 63.77890546941569 ], [ 29.250820091533409, 63.516558878917209 ], [ 29.296429235539108, 62.967400083269837 ], [ 28.486908088718721, 62.678885902909023 ], [ 27.621024089228719, 62.934225550161699 ], [ 27.549084601306664, 63.484990911909847 ] ] ] ] } },
{ "type": "Feature", "properties": { "geogrid_id": "863250816030121400", "seqnum": 26640.0, "lat_c": 63.25081569874375, "lon_c": 30.121399889456818, "res": 8.0, "count_Mosses": 266, "count_Sac Fungi": 419, "count_Arachnids": 227, "count_Basidiomycota": 865, "count_Ferns": 22, "count_Birds": 192, "count_Insects": 4526, "count_Mammals": 32, "count_Flowering Plants": 754, "count_Molluscs": 56, "count_Amphibians": 4, "count_Gymnosperms": 5, "count_Reptiles": 3, "unique_species_count": 7371.0, "countryCode": "FI" }, "geometry": { "type": "MultiPolygon", "coordinates": [ [ [ [ 29.250820091533409, 63.516558878917209 ], [ 30.089705523675963, 63.800033866454605 ], [ 30.962030503962268, 63.528997184435745 ], [ 30.980833020949486, 62.981613587106771 ], [ 30.154066369113401, 62.703396877096111 ], [ 29.296429235539108, 62.967400083269837 ], [ 29.250820091533409, 63.516558878917209 ] ] ] ] } },
{ "type": "Feature", "properties": { "geogrid_id": "863254540031822849", "seqnum": 26639.0, "lat_c": 63.254539602875248, "lon_c": 31.822849236706297, "res": 8.0, "count_Mosses": 73, "count_Sac Fungi": 145, "count_Arachnids": 56, "count_Basidiomycota": 263, "count_Ferns": 7, "count_Birds": 119, "count_Insects": 2920, "count_Mammals": 12, "count_Flowering Plants": 296, "count_Molluscs": 15, "count_Amphibians": 1, "count_Gymnosperms": 3, "count_Reptiles": 3, "unique_species_count": 3913.0, "countryCode": "FI" }, "geometry": { "type": "MultiPolygon", "coordinates": [ [ [ [ 30.962030503962268, 63.528997184435745 ], [ 31.818516924101655, 63.80180556697713 ], [ 32.680284089764179, 63.522038375148419 ], [ 32.671916429374861, 62.97661503603134 ], [ 31.828870527030144, 62.708905080796619 ], [ 30.980833020949486, 62.981613587106771 ], [ 30.962030503962268, 63.528997184435745 ] ] ] ] } },
{ "type": "Feature", "properties": { "geogrid_id": "863733301020709586", "seqnum": 26727.0, "lat_c": 63.733301137627535, "lon_c": 20.709585762828581, "res": 8.0, "count_Mosses": 7, "count_Sac Fungi": 11, "count_Arachnids": 106, "count_Basidiomycota": 72, "count_Ferns": 7, "count_Birds": 191, "count_Insects": 812, "count_Mammals": 11, "count_Flowering Plants": 323, "count_Molluscs": 20, "count_Amphibians": 2, "count_Gymnosperms": 3, "count_Reptiles": 0, "unique_species_count": 1565.0, "countryCode": "FI" }, "geometry": { "type": "MultiPolygon", "coordinates": [ [ [ [ 19.440251277136539, 63.791710358428425 ], [ 20.175803957973411, 64.132926879628741 ], [ 21.458997757865944, 64.067349060722592 ], [ 21.620356538036514, 63.507555561221821 ], [ 20.882183043762442, 63.1744127527651 ], [ 19.97696998779282, 63.395077629943927 ], [ 19.440251277136539, 63.791710358428425 ] ] ] ] } },
{ "type": "Feature", "properties": { "geogrid_id": "863836436022375048", "seqnum": 26726.0, "lat_c": 63.836436068196335, "lon_c": 22.375047685518311, "res": 8.0, "count_Mosses": 94, "count_Sac Fungi": 153, "count_Arachnids": 160, "count_Basidiomycota": 306, "count_Ferns": 12, "count_Birds": 241, "count_Insects": 2995, "count_Mammals": 30, "count_Flowering Plants": 1000, "count_Molluscs": 33, "count_Amphibians": 4, "count_Gymnosperms": 14, "count_Reptiles": 1, "unique_species_count": 5043.0, "countryCode": "FI" }, "geometry": { "type": "MultiPolygon", "coordinates": [ [ [ [ 21.458997757865944, 64.067349060722592 ], [ 22.225643358693635, 64.39709164231742 ], [ 23.146663030693279, 64.160924677323536 ], [ 23.283315292600623, 63.602631486006779 ], [ 22.523665892144205, 63.27889658216116 ], [ 21.620356538036514, 63.507555561221821 ], [ 21.458997757865944, 64.067349060722592 ] ] ] ] } },
{ "type": "Feature", "properties": { "geogrid_id": "863921891024059576", "seqnum": 26725.0, "lat_c": 63.921891442585277, "lon_c": 24.059576255124366, "res": 8.0, "count_Mosses": 221, "count_Sac Fungi": 142, "count_Arachnids": 152, "count_Basidiomycota": 430, "count_Ferns": 14, "count_Birds": 238, "count_Insects": 2678, "count_Mammals": 27, "count_Flowering Plants": 893, "count_Molluscs": 36, "count_Amphibians": 4, "count_Gymnosperms": 7, "count_Reptiles": 2, "unique_species_count": 4844.0, "countryCode": "FI" }, "geometry": { "type": "MultiPolygon", "coordinates": [ [ [ [ 23.146663030693279, 64.160924677323536 ], [ 23.935607854038192, 64.480886678853636 ], [ 24.8528225704374, 64.236542342358689 ], [ 24.963894362803249, 63.679832170745982 ], [ 24.183324358305214, 63.3657765510792 ], [ 23.283315292600623, 63.602631486006779 ], [ 23.146663030693279, 64.160924677323536 ] ] ] ] } },
{ "type": "Feature", "properties": { "geogrid_id": "863989200025761103", "seqnum": 26724.0, "lat_c": 63.989199950033601, "lon_c": 25.76110319941564, "res": 8.0, "count_Mosses": 203, "count_Sac Fungi": 178, "count_Arachnids": 31, "count_Basidiomycota": 534, "count_Ferns": 12, "count_Birds": 188, "count_Insects": 1614, "count_Mammals": 19, "count_Flowering Plants": 724, "count_Molluscs": 20, "count_Amphibians": 3, "count_Gymnosperms": 9, "count_Reptiles": 3, "unique_species_count": 3538.0, "countryCode": "FI" }, "geometry": { "type": "MultiPolygon", "coordinates": [ [ [ [ 24.8528225704374, 64.236542342358689 ], [ 25.663423296050148, 64.546445161443785 ], [ 26.575288082065388, 64.293741922638233 ], [ 26.659994258678612, 63.738721700319772 ], [ 25.859171474353158, 63.434609472851044 ], [ 24.963894362803249, 63.679832170745982 ], [ 24.8528225704374, 64.236542342358689 ] ] ] ] } },
{ "type": "Feature", "properties": { "geogrid_id": "864037934027477413", "seqnum": 26723.0, "lat_c": 64.037934219652001, "lon_c": 27.477413452196224, "res": 8.0, "count_Mosses": 345, "count_Sac Fungi": 370, "count_Arachnids": 117, "count_Basidiomycota": 1374, "count_Ferns": 18, "count_Birds": 216, "count_Insects": 4348, "count_Mammals": 29, "count_Flowering Plants": 909, "count_Molluscs": 46, "count_Amphibians": 3, "count_Gymnosperms": 9, "count_Reptiles": 2, "unique_species_count": 7786.0, "countryCode": "FI" }, "geometry": { "type": "MultiPolygon", "coordinates": [ [ [ [ 26.575288082065388, 64.293741922638233 ], [ 27.406778022946998, 64.593315470238792 ], [ 28.311726202267813, 64.332105939695438 ], [ 28.36938158192191, 63.77890546941569 ], [ 27.549084601306664, 63.484990911909847 ], [ 26.659994258678612, 63.738721700319772 ], [ 26.575288082065388, 64.293741922638233 ] ] ] ] } },
{ "type": "Feature", "properties": { "geogrid_id": "864067711029206161", "seqnum": 26722.0, "lat_c": 64.067710828492608, "lon_c": 29.206160741874168, "res": 8.0, "count_Mosses": 257, "count_Sac Fungi": 379, "count_Arachnids": 46, "count_Basidiomycota": 699, "count_Ferns": 16, "count_Birds": 177, "count_Insects": 2650, "count_Mammals": 31, "count_Flowering Plants": 660, "count_Molluscs": 38, "count_Amphibians": 3, "count_Gymnosperms": 8, "count_Reptiles": 2, "unique_species_count": 4966.0, "countryCode": "FI" }, "geometry": { "type": "MultiPolygon", "coordinates": [ [ [ [ 28.311726202267813, 64.332105939695438 ], [ 29.163218058240538, 64.621091442004925 ], [ 30.059676106815857, 64.351263573152181 ], [ 30.089705523675963, 63.800033866454605 ], [ 29.250820091533409, 63.516558878917209 ], [ 28.36938158192191, 63.77890546941569 ], [ 28.311726202267813, 64.332105939695438 ] ] ] ] } },
{ "type": "Feature", "properties": { "geogrid_id": "864078194030944886", "seqnum": 26721.0, "lat_c": 64.078193951920838, "lon_c": 30.94488602813372, "res": 8.0, "count_Mosses": 98, "count_Sac Fungi": 150, "count_Arachnids": 9, "count_Basidiomycota": 379, "count_Ferns": 7, "count_Birds": 127, "count_Insects": 2026, "count_Mammals": 15, "count_Flowering Plants": 353, "count_Molluscs": 22, "count_Amphibians": 2, "count_Gymnosperms": 4, "count_Reptiles": 1, "unique_species_count": 3193.0, "countryCode": "FI" }, "geometry": { "type": "MultiPolygon", "coordinates": [ [ [ [ 30.059676106815857, 64.351263573152181 ], [ 30.930166854330466, 64.629416344693468 ], [ 31.816569981818009, 64.350894252690651 ], [ 31.818516924101655, 63.80180556697713 ], [ 30.962030503962268, 63.528997184435745 ], [ 30.089705523675963, 63.800033866454605 ], [ 30.059676106815857, 64.351263573152181 ] ] ] ] } },
{ "type": "Feature", "properties": { "geogrid_id": "864722394023009961", "seqnum": 26807.0, "lat_c": 64.722393757433963, "lon_c": 23.009960678240546, "res": 8.0, "count_Mosses": 2, "count_Sac Fungi": 0, "count_Arachnids": 10, "count_Basidiomycota": 0, "count_Ferns": 3, "count_Birds": 61, "count_Insects": 2, "count_Mammals": 0, "count_Flowering Plants": 132, "count_Molluscs": 1, "count_Amphibians": 0, "count_Gymnosperms": 3, "count_Reptiles": 0, "unique_species_count": 214.0, "countryCode": "FI" }, "geometry": { "type": "MultiPolygon", "coordinates": [ [ [ [ 21.699321361454892, 64.802770638273117 ], [ 22.488230448871164, 65.131126924858293 ], [ 23.812386953154054, 65.04311480593698 ], [ 23.935607854038192, 64.480886678853636 ], [ 23.146663030693279, 64.160924677323536 ], [ 22.225643358693635, 64.39709164231742 ], [ 21.699321361454892, 64.802770638273117 ] ] ] ] } },
{ "type": "Feature", "properties": { "geogrid_id": "864796182024742285", "seqnum": 26806.0, "lat_c": 64.79618216929029, "lon_c": 24.742284522360315, "res": 8.0, "count_Mosses": 229, "count_Sac Fungi": 257, "count_Arachnids": 281, "count_Basidiomycota": 1022, "count_Ferns": 12, "count_Birds": 310, "count_Insects": 4444, "count_Mammals": 35, "count_Flowering Plants": 1341, "count_Molluscs": 44, "count_Amphibians": 3, "count_Gymnosperms": 14, "count_Reptiles": 3, "unique_species_count": 7995.0, "countryCode": "FI" }, "geometry": { "type": "MultiPolygon", "coordinates": [ [ [ [ 23.812386953154054, 65.04311480593698 ], [ 24.633356734593509, 65.359108619129302 ], [ 25.567090646334574, 65.106665986232443 ], [ 25.663423296050148, 64.546445161443785 ], [ 24.8528225704374, 64.236542342358689 ], [ 23.935607854038192, 64.480886678853636 ], [ 23.812386953154054, 65.04311480593698 ] ] ] ] } },
{ "type": "Feature", "properties": { "geogrid_id": "864851456026491741", "seqnum": 26805.0, "lat_c": 64.85145592258327, "lon_c": 26.491740901500187, "res": 8.0, "count_Mosses": 331, "count_Sac Fungi": 231, "count_Arachnids": 259, "count_Basidiomycota": 968, "count_Ferns": 14, "count_Birds": 209, "count_Insects": 2927, "count_Mammals": 26, "count_Flowering Plants": 805, "count_Molluscs": 36, "count_Amphibians": 3, "count_Gymnosperms": 7, "count_Reptiles": 2, "unique_species_count": 5818.0, "countryCode": "FI" }, "geometry": { "type": "MultiPolygon", "coordinates": [ [ [ [ 25.567090646334574, 65.106665986232443 ], [ 26.41041703360651, 65.412187661107026 ], [ 27.33812922566317, 65.151425675108086 ], [ 27.406778022946998, 64.593315470238792 ], [ 26.575288082065388, 64.293741922638233 ], [ 25.663423296050148, 64.546445161443785 ], [ 25.567090646334574, 65.106665986232443 ] ] ] ] } },
{ "type": "Feature", "properties": { "geogrid_id": "864887773028255892", "seqnum": 26804.0, "lat_c": 64.887773327402329, "lon_c": 28.255891812237909, "res": 8.0, "count_Mosses": 323, "count_Sac Fungi": 392, "count_Arachnids": 30, "count_Basidiomycota": 1242, "count_Ferns": 22, "count_Birds": 177, "count_Insects": 2725, "count_Mammals": 19, "count_Flowering Plants": 715, "count_Molluscs": 40, "count_Amphibians": 3, "count_Gymnosperms": 4, "count_Reptiles": 1, "unique_species_count": 5693.0, "countryCode": "FI" }, "geometry": { "type": "MultiPolygon", "coordinates": [ [ [ [ 27.33812922566317, 65.151425675108086 ], [ 28.202931238223123, 65.446200496670627 ], [ 29.122935821392375, 65.176963608896955 ], [ 29.163218058240538, 64.621091442004925 ], [ 28.311726202267813, 64.332105939695438 ], [ 27.406778022946998, 64.593315470238792 ], [ 27.33812922566317, 65.151425675108086 ] ] ] ] } },
{ "type": "Feature", "properties": { "geogrid_id": "864904741030032161", "seqnum": 26803.0, "lat_c": 64.904741031316661, "lon_c": 30.032160831511305, "res": 8.0, "count_Mosses": 126, "count_Sac Fungi": 68, "count_Arachnids": 21, "count_Basidiomycota": 305, "count_Ferns": 10, "count_Birds": 132, "count_Insects": 1851, "count_Mammals": 16, "count_Flowering Plants": 462, "count_Molluscs": 22, "count_Amphibians": 3, "count_Gymnosperms": 5, "count_Reptiles": 1, "unique_species_count": 3022.0, "countryCode": "FI" }, "geometry": { "type": "MultiPolygon", "coordinates": [ [ [ [ 29.122935821392375, 65.176963608896955 ], [ 30.008201626317518, 65.460729862176635 ], [ 30.918810297051433, 65.182900811336225 ], [ 30.930166854330466, 64.629416344693468 ], [ 30.059676106815857, 64.351263573152181 ], [ 29.163218058240538, 64.621091442004925 ], [ 29.122935821392375, 65.176963608896955 ] ] ] ] } },
{ "type": "Feature", "properties": { "geogrid_id": "865454916023295871", "seqnum": 26888.0, "lat_c": 65.454915895504087, "lon_c": 23.295871322598899, "res": 8.0, "count_Mosses": 16, "count_Sac Fungi": 1, "count_Arachnids": 16, "count_Basidiomycota": 22, "count_Ferns": 2, "count_Birds": 69, "count_Insects": 9, "count_Mammals": 1, "count_Flowering Plants": 238, "count_Molluscs": 15, "count_Amphibians": 0, "count_Gymnosperms": 3, "count_Reptiles": 0, "unique_species_count": 392.0, "countryCode": "FI" }, "geometry": { "type": "MultiPolygon", "coordinates": [ [ [ [ 21.957655759750867, 65.541273172779484 ], [ 22.770697089196428, 65.868212175326633 ], [ 24.12271639974276, 65.773987462891114 ], [ 24.633356734593509, 65.359108619129302 ], [ 23.812386953154054, 65.04311480593698 ], [ 22.488230448871164, 65.131126924858293 ], [ 21.957655759750867, 65.541273172779484 ] ] ] ] } },
{ "type": "Feature", "properties": { "geogrid_id": "865670223025473300", "seqnum": 26887.0, "lat_c": 65.670223382802462, "lon_c": 25.473299858708643, "res": 8.0, "count_Mosses": 315, "count_Sac Fungi": 396, "count_Arachnids": 176, "count_Basidiomycota": 1044, "count_Ferns": 14, "count_Birds": 225, "count_Insects": 3383, "count_Mammals": 27, "count_Flowering Plants": 896, "count_Molluscs": 43, "count_Amphibians": 4, "count_Gymnosperms": 7, "count_Reptiles": 2, "unique_species_count": 6532.0, "countryCode": "FI" }, "geometry": { "type": "MultiPolygon", "coordinates": [ [ [ [ 24.12271639974276, 65.773987462891114 ], [ 24.969234623160752, 66.088185498583528 ], [ 26.332639182739047, 65.976301579793741 ], [ 26.41041703360651, 65.412187661107026 ], [ 25.567090646334574, 65.106665986232443 ], [ 24.633356734593509, 65.359108619129302 ], [ 24.12271639974276, 65.773987462891114 ] ] ] ] } },
{ "type": "Feature", "properties": { "geogrid_id": "865712591027272645", "seqnum": 26886.0, "lat_c": 65.712591392721791, "lon_c": 27.272645426611589, "res": 8.0, "count_Mosses": 312, "count_Sac Fungi": 216, "count_Arachnids": 53, "count_Basidiomycota": 585, "count_Ferns": 16, "count_Birds": 177, "count_Insects": 1858, "count_Mammals": 18, "count_Flowering Plants": 545, "count_Molluscs": 29, "count_Amphibians": 3, "count_Gymnosperms": 4, "count_Reptiles": 1, "unique_species_count": 3817.0, "countryCode": "FI" }, "geometry": { "type": "MultiPolygon", "coordinates": [ [ [ [ 26.332639182739047, 65.976301579793741 ], [ 27.211788073519692, 66.277179955390039 ], [ 28.154146015421205, 66.00771604480893 ], [ 28.202931238223123, 65.446200496670627 ], [ 27.33812922566317, 65.151425675108086 ], [ 26.41041703360651, 65.412187661107026 ], [ 26.332639182739047, 65.976301579793741 ] ] ] ] } },
{ "type": "Feature", "properties": { "geogrid_id": "865735622029086477", "seqnum": 26885.0, "lat_c": 65.735621519725242, "lon_c": 29.086476598784749, "res": 8.0, "count_Mosses": 320, "count_Sac Fungi": 367, "count_Arachnids": 110, "count_Basidiomycota": 864, "count_Ferns": 21, "count_Birds": 222, "count_Insects": 2625, "count_Mammals": 23, "count_Flowering Plants": 604, "count_Molluscs": 34, "count_Amphibians": 3, "count_Gymnosperms": 5, "count_Reptiles": 1, "unique_species_count": 5199.0, "countryCode": "FI" }, "geometry": { "type": "MultiPolygon", "coordinates": [ [ [ [ 28.154146015421205, 66.00771604480893 ], [ 29.055274717523968, 66.297395170965061 ], [ 29.989079008919017, 66.01952498591605 ], [ 30.008201626317518, 65.460729862176635 ], [ 29.122935821392375, 65.176963608896955 ], [ 28.202931238223123, 65.446200496670627 ], [ 28.154146015421205, 66.00771604480893 ] ] ] ] } },
{ "type": "Feature", "properties": { "geogrid_id": "865738911030911963", "seqnum": 26884.0, "lat_c": 65.738911147939888, "lon_c": 30.911963448676463, "res": 8.0, "count_Mosses": 37, "count_Sac Fungi": 8, "count_Arachnids": 1, "count_Basidiomycota": 49, "count_Ferns": 4, "count_Birds": 100, "count_Insects": 22, "count_Mammals": 8, "count_Flowering Plants": 183, "count_Molluscs": 0, "count_Amphibians": 0, "count_Gymnosperms": 3, "count_Reptiles": 0, "unique_species_count": 415.0, "countryCode": "FI" }, "geometry": { "type": "MultiPolygon", "coordinates": [ [ [ [ 29.989079008919017, 66.01952498591605 ], [ 30.911033354704628, 66.297742331697791 ], [ 31.834475415927809, 66.011342151777882 ], [ 31.823403737178008, 65.455412788477432 ], [ 30.918810297051433, 65.182900811336225 ], [ 30.008201626317518, 65.460729862176635 ], [ 29.989079008919017, 66.01952498591605 ] ] ] ] } },
{ "type": "Feature", "properties": { "geogrid_id": "866190445023603645", "seqnum": 26969.0, "lat_c": 66.190445075990354, "lon_c": 23.603645445105798, "res": 8.0, "count_Mosses": 218, "count_Sac Fungi": 147, "count_Arachnids": 39, "count_Basidiomycota": 554, "count_Ferns": 15, "count_Birds": 186, "count_Insects": 2048, "count_Mammals": 21, "count_Flowering Plants": 639, "count_Molluscs": 26, "count_Amphibians": 3, "count_Gymnosperms": 8, "count_Reptiles": 1, "unique_species_count": 3905.0, "countryCode": "FI" }, "geometry": { "type": "MultiPolygon", "coordinates": [ [ [ [ 22.235746248569889, 66.282705883734579 ], [ 23.074991775418514, 66.608180977851788 ], [ 24.457013061817172, 66.507811212532829 ], [ 24.969234623160752, 66.088185498583528 ], [ 24.12271639974276, 65.773987462891114 ], [ 22.770697089196428, 65.868212175326633 ], [ 22.235746248569889, 66.282705883734579 ] ] ] ] } },
{ "type": "Feature", "properties": { "geogrid_id": "866397348025835889", "seqnum": 26968.0, "lat_c": 66.397347752169495, "lon_c": 25.835889083749795, "res": 8.0, "count_Mosses": 355, "count_Sac Fungi": 499, "count_Arachnids": 121, "count_Basidiomycota": 1595, "count_Ferns": 18, "count_Birds": 201, "count_Insects": 3966, "count_Mammals": 27, "count_Flowering Plants": 742, "count_Molluscs": 39, "count_Amphibians": 3, "count_Gymnosperms": 6, "count_Reptiles": 2, "unique_species_count": 7574.0, "countryCode": "FI" }, "geometry": { "type": "MultiPolygon", "coordinates": [ [ [ [ 24.457013061817172, 66.507811212532829 ], [ 25.331307724208457, 66.820143340490276 ], [ 26.723134364405499, 66.701305793598678 ], [ 27.211788073519692, 66.277179955390039 ], [ 26.332639182739047, 65.976301579793741 ], [ 24.969234623160752, 66.088185498583528 ], [ 24.457013061817172, 66.507811212532829 ] ] ] ] } },
{ "type": "Feature", "properties": { "geogrid_id": "866572690028111148", "seqnum": 26967.0, "lat_c": 66.572689509207535, "lon_c": 28.11114763648073, "res": 8.0, "count_Mosses": 289, "count_Sac Fungi": 260, "count_Arachnids": 80, "count_Basidiomycota": 638, "count_Ferns": 20, "count_Birds": 177, "count_Insects": 2118, "count_Mammals": 19, "count_Flowering Plants": 544, "count_Molluscs": 33, "count_Amphibians": 4, "count_Gymnosperms": 4, "count_Reptiles": 1, "unique_species_count": 4187.0, "countryCode": "FI" }, "geometry": { "type": "MultiPolygon", "coordinates": [ [ [ [ 26.723134364405499, 66.701305793598678 ], [ 27.631413590169991, 66.999884982717546 ], [ 29.031103675065399, 66.862655517458961 ], [ 29.055274717523968, 66.297395170965061 ], [ 28.154146015421205, 66.00771604480893 ], [ 27.211788073519692, 66.277179955390039 ], [ 26.723134364405499, 66.701305793598678 ] ] ] ] } },
{ "type": "Feature", "properties": { "geogrid_id": "866581457029976370", "seqnum": 26966.0, "lat_c": 66.581457070615215, "lon_c": 29.976370218550759, "res": 8.0, "count_Mosses": 333, "count_Sac Fungi": 544, "count_Arachnids": 60, "count_Basidiomycota": 1076, "count_Ferns": 24, "count_Birds": 157, "count_Insects": 3465, "count_Mammals": 16, "count_Flowering Plants": 556, "count_Molluscs": 48, "count_Amphibians": 2, "count_Gymnosperms": 3, "count_Reptiles": 1, "unique_species_count": 6285.0, "countryCode": "FI" }, "geometry": { "type": "MultiPolygon", "coordinates": [ [ [ [ 29.031103675065399, 66.862655517458961 ], [ 29.972023372938619, 67.146897589788807 ], [ 30.91775077061666, 66.859724879828278 ], [ 30.911033354704628, 66.297742331697791 ], [ 29.989079008919017, 66.01952498591605 ], [ 29.055274717523968, 66.297395170965061 ], [ 29.031103675065399, 66.862655517458961 ] ] ] ] } },
{ "type": "Feature", "properties": { "geogrid_id": "866928797023935450", "seqnum": 27050.0, "lat_c": 66.928797386469611, "lon_c": 23.93544974694823, "res": 8.0, "count_Mosses": 183, "count_Sac Fungi": 122, "count_Arachnids": 9, "count_Basidiomycota": 447, "count_Ferns": 9, "count_Birds": 159, "count_Insects": 1117, "count_Mammals": 17, "count_Flowering Plants": 477, "count_Molluscs": 27, "count_Amphibians": 3, "count_Gymnosperms": 4, "count_Reptiles": 1, "unique_species_count": 2575.0, "countryCode": "FI" }, "geometry": { "type": "MultiPolygon", "coordinates": [ [ [ [ 22.53557149964605, 67.026906416646852 ], [ 23.403325967083308, 67.350853384380187 ], [ 24.817677416467411, 67.244382603248823 ], [ 25.331307724208457, 66.820143340490276 ], [ 24.457013061817172, 66.507811212532829 ], [ 23.074991775418514, 66.608180977851788 ], [ 22.53557149964605, 67.026906416646852 ] ] ] ] } },
{ "type": "Feature", "properties": { "geogrid_id": "867127268026227030", "seqnum": 27049.0, "lat_c": 67.127267548098018, "lon_c": 26.227029965656623, "res": 8.0, "count_Mosses": 258, "count_Sac Fungi": 213, "count_Arachnids": 50, "count_Basidiomycota": 777, "count_Ferns": 15, "count_Birds": 148, "count_Insects": 1972, "count_Mammals": 14, "count_Flowering Plants": 522, "count_Molluscs": 25, "count_Amphibians": 3, "count_Gymnosperms": 3, "count_Reptiles": 2, "unique_species_count": 4002.0, "countryCode": "FI" }, "geometry": { "type": "MultiPolygon", "coordinates": [ [ [ [ 24.817677416467411, 67.244382603248823 ], [ 25.722226351807524, 67.554756917891808 ], [ 27.144669933388052, 67.429003198932563 ], [ 27.631413590169991, 66.999884982717546 ], [ 26.723134364405499, 66.701305793598678 ], [ 25.331307724208457, 66.820143340490276 ], [ 24.817677416467411, 67.244382603248823 ] ] ] ] } },
{ "type": "Feature", "properties": { "geogrid_id": "867292904028561155", "seqnum": 27048.0, "lat_c": 67.292904470348844, "lon_c": 28.561155170870709, "res": 8.0, "count_Mosses": 216, "count_Sac Fungi": 132, "count_Arachnids": 174, "count_Basidiomycota": 445, "count_Ferns": 15, "count_Birds": 144, "count_Insects": 1940, "count_Mammals": 12, "count_Flowering Plants": 451, "count_Molluscs": 25, "count_Amphibians": 2, "count_Gymnosperms": 3, "count_Reptiles": 1, "unique_species_count": 3560.0, "countryCode": "FI" }, "geometry": { "type": "MultiPolygon", "coordinates": [ [ [ [ 27.144669933388052, 67.429003198932563 ], [ 28.084703903037717, 67.725162907091615 ], [ 29.512769225046657, 67.580177235596992 ], [ 29.972023372938619, 67.146897589788807 ], [ 29.031103675065399, 66.862655517458961 ], [ 27.631413590169991, 66.999884982717546 ], [ 27.144669933388052, 67.429003198932563 ] ] ] ] } },
{ "type": "Feature", "properties": { "geogrid_id": "867425230030934252", "seqnum": 27047.0, "lat_c": 67.425229765100894, "lon_c": 30.934251694502439, "res": 8.0, "count_Mosses": 92, "count_Sac Fungi": 34, "count_Arachnids": 36, "count_Basidiomycota": 30, "count_Ferns": 10, "count_Birds": 63, "count_Insects": 195, "count_Mammals": 1, "count_Flowering Plants": 178, "count_Molluscs": 1, "count_Amphibians": 0, "count_Gymnosperms": 3, "count_Reptiles": 0, "unique_species_count": 643.0, "countryCode": "FI" }, "geometry": { "type": "MultiPolygon", "coordinates": [ [ [ [ 29.512769225046657, 67.580177235596992 ], [ 30.486643677262535, 67.861510164374351 ], [ 31.918107503152065, 67.697460651010715 ], [ 31.879710748244079, 67.132016700981509 ], [ 30.91775077061666, 66.859724879828278 ], [ 29.972023372938619, 67.146897589788807 ], [ 29.512769225046657, 67.580177235596992 ] ] ] ] } },
{ "type": "Feature", "properties": { "geogrid_id": "867669773024293746", "seqnum": 27131.0, "lat_c": 67.669773140339387, "lon_c": 24.293745872918336, "res": 8.0, "count_Mosses": 340, "count_Sac Fungi": 486, "count_Arachnids": 246, "count_Basidiomycota": 863, "count_Ferns": 18, "count_Birds": 167, "count_Insects": 2900, "count_Mammals": 16, "count_Flowering Plants": 604, "count_Molluscs": 43, "count_Amphibians": 3, "count_Gymnosperms": 4, "count_Reptiles": 2, "unique_species_count": 5692.0, "countryCode": "FI" }, "geometry": { "type": "MultiPolygon", "coordinates": [ [ [ [ 22.859383340422561, 67.773699350700767 ], [ 23.758219245612199, 68.096034094518842 ], [ 25.207439311689708, 67.983479852738668 ], [ 25.722226351807524, 67.554756917891808 ], [ 24.817677416467411, 67.244382603248823 ], [ 23.403325967083308, 67.350853384380187 ], [ 22.859383340422561, 67.773699350700767 ] ] ] ] } },
{ "type": "Feature", "properties": { "geogrid_id": "867859733026649639", "seqnum": 27130.0, "lat_c": 67.859733326763774, "lon_c": 26.649639110340502, "res": 8.0, "count_Mosses": 290, "count_Sac Fungi": 356, "count_Arachnids": 77, "count_Basidiomycota": 249, "count_Ferns": 15, "count_Birds": 152, "count_Insects": 1705, "count_Mammals": 15, "count_Flowering Plants": 469, "count_Molluscs": 34, "count_Amphibians": 2, "count_Gymnosperms": 5, "count_Reptiles": 1, "unique_species_count": 3370.0, "countryCode": "FI" }, "geometry": { "type": "MultiPolygon", "coordinates": [ [ [ [ 25.207439311689708, 67.983479852738668 ], [ 26.145007092428788, 68.291779769610471 ], [ 27.600445513705179, 68.159117476837494 ], [ 28.084703903037717, 67.725162907091615 ], [ 27.144669933388052, 67.429003198932563 ], [ 25.722226351807524, 67.554756917891808 ], [ 25.207439311689708, 67.983479852738668 ] ] ] ] } },
{ "type": "Feature", "properties": { "geogrid_id": "868015553029047590", "seqnum": 27129.0, "lat_c": 68.015552550148172, "lon_c": 29.047590426709775, "res": 8.0, "count_Mosses": 192, "count_Sac Fungi": 231, "count_Arachnids": 57, "count_Basidiomycota": 311, "count_Ferns": 15, "count_Birds": 116, "count_Insects": 2818, "count_Mammals": 8, "count_Flowering Plants": 347, "count_Molluscs": 17, "count_Amphibians": 1, "count_Gymnosperms": 3, "count_Reptiles": 1, "unique_species_count": 4117.0, "countryCode": "FI" }, "geometry": { "type": "MultiPolygon", "coordinates": [ [ [ [ 27.600445513705179, 68.159117476837494 ], [ 28.575158500868579, 68.45270764881198 ], [ 30.033766102249508, 68.299971325512644 ], [ 30.486643677262535, 67.861510164374351 ], [ 29.512769225046657, 67.580177235596992 ], [ 28.084703903037717, 67.725162907091615 ], [ 27.600445513705179, 68.159117476837494 ] ] ] ] } },
{ "type": "Feature", "properties": { "geogrid_id": "868197065022302317", "seqnum": 27213.0, "lat_c": 68.197064517959475, "lon_c": 22.302317160242758, "res": 8.0, "count_Mosses": 199, "count_Sac Fungi": 57, "count_Arachnids": 8, "count_Basidiomycota": 148, "count_Ferns": 9, "count_Birds": 119, "count_Insects": 939, "count_Mammals": 8, "count_Flowering Plants": 408, "count_Molluscs": 12, "count_Amphibians": 2, "count_Gymnosperms": 3, "count_Reptiles": 1, "unique_species_count": 1913.0, "countryCode": "FI" }, "geometry": { "type": "MultiPolygon", "coordinates": [ [ [ [ 20.8402709837092, 68.2862739491204 ], [ 21.730769425237323, 68.620685534872578 ], [ 23.209754843290408, 68.52289438621213 ], [ 23.758219245612199, 68.096034094518842 ], [ 22.859383340422561, 67.773699350700767 ], [ 21.419501328165545, 67.866219683791201 ], [ 20.8402709837092, 68.2862739491204 ] ] ] ] } },
{ "type": "Feature", "properties": { "geogrid_id": "868413155024681341", "seqnum": 27212.0, "lat_c": 68.413154675297292, "lon_c": 24.681341390576787, "res": 8.0, "count_Mosses": 253, "count_Sac Fungi": 128, "count_Arachnids": 82, "count_Basidiomycota": 249, "count_Ferns": 19, "count_Birds": 150, "count_Insects": 2131, "count_Mammals": 16, "count_Flowering Plants": 462, "count_Molluscs": 13, "count_Amphibians": 1, "count_Gymnosperms": 4, "count_Reptiles": 1, "unique_species_count": 3509.0, "countryCode": "FI" }, "geometry": { "type": "MultiPolygon", "coordinates": [ [ [ [ 23.209754843290408, 68.52289438621213 ], [ 24.142553951136584, 68.84351024151232 ], [ 25.629415204241905, 68.724860205549902 ], [ 26.145007092428788, 68.291779769610471 ], [ 25.207439311689708, 67.983479852738668 ], [ 23.758219245612199, 68.096034094518842 ], [ 23.209754843290408, 68.52289438621213 ] ] ] ] } },
{ "type": "Feature", "properties": { "geogrid_id": "868594471027107039", "seqnum": 27211.0, "lat_c": 68.594471125480865, "lon_c": 27.107038762107415, "res": 8.0, "count_Mosses": 223, "count_Sac Fungi": 171, "count_Arachnids": 33, "count_Basidiomycota": 500, "count_Ferns": 16, "count_Birds": 183, "count_Insects": 2295, "count_Mammals": 18, "count_Flowering Plants": 606, "count_Molluscs": 24, "count_Amphibians": 2, "count_Gymnosperms": 4, "count_Reptiles": 3, "unique_species_count": 4078.0, "countryCode": "FI" }, "geometry": { "type": "MultiPolygon", "coordinates": [ [ [ [ 25.629415204241905, 68.724860205549902 ], [ 26.603096722283947, 69.030941051030482 ], [ 28.094108143675307, 68.891344088420411 ], [ 28.575158500868579, 68.45270764881198 ], [ 27.600445513705179, 68.159117476837494 ], [ 26.145007092428788, 68.291779769610471 ], [ 25.629415204241905, 68.724860205549902 ] ] ] ] } },
{ "type": "Feature", "properties": { "geogrid_id": "868706247020245100", "seqnum": 27295.0, "lat_c": 68.706247428320239, "lon_c": 20.245100222897797, "res": 8.0, "count_Mosses": 361, "count_Sac Fungi": 355, "count_Arachnids": 172, "count_Basidiomycota": 251, "count_Ferns": 16, "count_Birds": 120, "count_Insects": 2098, "count_Mammals": 15, "count_Flowering Plants": 480, "count_Molluscs": 28, "count_Amphibians": 1, "count_Gymnosperms": 3, "count_Reptiles": 1, "unique_species_count": 3901.0, "countryCode": "FI" }, "geometry": { "type": "MultiPolygon", "coordinates": [ [ [ [ 18.75363452326425, 68.779330834592514 ], [ 19.632553688497033, 69.125885700679618 ], [ 21.143321512086455, 69.044304805116212 ], [ 21.730769425237323, 68.620685534872578 ], [ 20.8402709837092, 68.2862739491204 ], [ 19.372796584120049, 68.363397763042144 ], [ 18.75363452326425, 68.779330834592514 ] ] ] ] } },
{ "type": "Feature", "properties": { "geogrid_id": "868740295029574270", "seqnum": 27210.0, "lat_c": 68.740294785755665, "lon_c": 29.574269541601307, "res": 8.0, "count_Mosses": 61, "count_Sac Fungi": 9, "count_Arachnids": 0, "count_Basidiomycota": 176, "count_Ferns": 10, "count_Birds": 96, "count_Insects": 468, "count_Mammals": 3, "count_Flowering Plants": 340, "count_Molluscs": 4, "count_Amphibians": 1, "count_Gymnosperms": 3, "count_Reptiles": 0, "unique_species_count": 1171.0, "countryCode": "FI" }, "geometry": { "type": "MultiPolygon", "coordinates": [ [ [ [ 28.094108143675307, 68.891344088420411 ], [ 29.106768363575423, 69.182180754627097 ], [ 30.598243597174609, 69.021662574097448 ], [ 31.043640955936045, 68.578211856201747 ], [ 30.033766102249508, 68.299971325512644 ], [ 28.575158500868579, 68.45270764881198 ], [ 28.094108143675307, 68.891344088420411 ] ] ] ] } },
{ "type": "Feature", "properties": { "geogrid_id": "868950091022646953", "seqnum": 27294.0, "lat_c": 68.950090971928688, "lon_c": 22.646953467233867, "res": 8.0, "count_Mosses": 229, "count_Sac Fungi": 48, "count_Arachnids": 27, "count_Basidiomycota": 13, "count_Ferns": 15, "count_Birds": 92, "count_Insects": 669, "count_Mammals": 6, "count_Flowering Plants": 365, "count_Molluscs": 6, "count_Amphibians": 1, "count_Gymnosperms": 3, "count_Reptiles": 0, "unique_species_count": 1474.0, "countryCode": "FI" }, "geometry": { "type": "MultiPolygon", "coordinates": [ [ [ [ 21.143321512086455, 69.044304805116212 ], [ 22.068351310211188, 69.377367115510964 ], [ 23.58963878138124, 69.274284128654187 ], [ 24.142553951136584, 68.84351024151232 ], [ 23.209754843290408, 68.52289438621213 ], [ 21.730769425237323, 68.620685534872578 ], [ 21.143321512086455, 69.044304805116212 ] ] ] ] } },
{ "type": "Feature", "properties": { "geogrid_id": "869158704025101452", "seqnum": 27293.0, "lat_c": 69.158703671728773, "lon_c": 25.101451506492833, "res": 8.0, "count_Mosses": 73, "count_Sac Fungi": 38, "count_Arachnids": 23, "count_Basidiomycota": 48, "count_Ferns": 13, "count_Birds": 108, "count_Insects": 1052, "count_Mammals": 6, "count_Flowering Plants": 390, "count_Molluscs": 20, "count_Amphibians": 1, "count_Gymnosperms": 3, "count_Reptiles": 1, "unique_species_count": 1776.0, "countryCode": "FI" }, "geometry": { "type": "MultiPolygon", "coordinates": [ [ [ [ 23.58963878138124, 69.274284128654187 ], [ 24.559641649146734, 69.593048681502708 ], [ 26.087177473745722, 69.468256710375073 ], [ 26.603096722283947, 69.030941051030482 ], [ 25.629415204241905, 68.724860205549902 ], [ 24.142553951136584, 68.84351024151232 ], [ 23.58963878138124, 69.274284128654187 ] ] ] ] } },
{ "type": "Feature", "properties": { "geogrid_id": "869331179027603028", "seqnum": 27292.0, "lat_c": 69.33117873462389, "lon_c": 27.60302779006777, "res": 8.0, "count_Mosses": 267, "count_Sac Fungi": 145, "count_Arachnids": 24, "count_Basidiomycota": 257, "count_Ferns": 22, "count_Birds": 141, "count_Insects": 1381, "count_Mammals": 18, "count_Flowering Plants": 515, "count_Molluscs": 29, "count_Amphibians": 2, "count_Gymnosperms": 5, "count_Reptiles": 1, "unique_species_count": 2807.0, "countryCode": "FI" }, "geometry": { "type": "MultiPolygon", "coordinates": [ [ [ [ 26.087177473745722, 69.468256710375073 ], [ 27.100449607762119, 69.771941689249132 ], [ 28.629830672289454, 69.625345889612618 ], [ 29.106768363575423, 69.182180754627097 ], [ 28.094108143675307, 68.891344088420411 ], [ 26.603096722283947, 69.030941051030482 ], [ 26.087177473745722, 69.468256710375073 ] ] ] ] } },
{ "type": "Feature", "properties": { "geogrid_id": "869466755030145546", "seqnum": 27291.0, "lat_c": 69.466755198302664, "lon_c": 30.145546348494161, "res": 8.0, "count_Mosses": 14, "count_Sac Fungi": 11, "count_Arachnids": 4, "count_Basidiomycota": 20, "count_Ferns": 8, "count_Birds": 69, "count_Insects": 133, "count_Mammals": 3, "count_Flowering Plants": 275, "count_Molluscs": 9, "count_Amphibians": 1, "count_Gymnosperms": 3, "count_Reptiles": 1, "unique_species_count": 551.0, "countryCode": "FI" }, "geometry": { "type": "MultiPolygon", "coordinates": [ [ [ [ 28.629830672289454, 69.625345889612618 ], [ 29.684102039940615, 69.913206271150941 ], [ 31.210936777715844, 69.744833585145969 ], [ 31.647513621274729, 69.296587584212403 ], [ 30.598243597174609, 69.021662574097448 ], [ 29.106768363575423, 69.182180754627097 ], [ 28.629830672289454, 69.625345889612618 ] ] ] ] } },
{ "type": "Feature", "properties": { "geogrid_id": "869467669020538486", "seqnum": 27376.0, "lat_c": 69.467668826043493, "lon_c": 20.538486448327003, "res": 8.0, "count_Mosses": 320, "count_Sac Fungi": 311, "count_Arachnids": 71, "count_Basidiomycota": 129, "count_Ferns": 15, "count_Birds": 69, "count_Insects": 1732, "count_Mammals": 9, "count_Flowering Plants": 346, "count_Molluscs": 20, "count_Amphibians": 1, "count_Gymnosperms": 3, "count_Reptiles": 0, "unique_species_count": 3026.0, "countryCode": "FI" }, "geometry": { "type": "MultiPolygon", "coordinates": [ [ [ [ 19.001125241990071, 69.544936409299467 ], [ 19.914700745324723, 69.890526515684854 ], [ 21.472411361911888, 69.804470660331077 ], [ 22.068351310211188, 69.377367115510964 ], [ 21.143321512086455, 69.044304805116212 ], [ 19.632553688497033, 69.125885700679618 ], [ 19.001125241990071, 69.544936409299467 ] ] ] ] } },
{ "type": "Feature", "properties": { "geogrid_id": "869906158025557774", "seqnum": 27374.0, "lat_c": 69.906157865121671, "lon_c": 25.557774181687812, "res": 8.0, "count_Mosses": 184, "count_Sac Fungi": 141, "count_Arachnids": 28, "count_Basidiomycota": 243, "count_Ferns": 18, "count_Birds": 126, "count_Insects": 1206, "count_Mammals": 12, "count_Flowering Plants": 419, "count_Molluscs": 14, "count_Amphibians": 1, "count_Gymnosperms": 2, "count_Reptiles": 1, "unique_species_count": 2395.0, "countryCode": "FI" }, "geometry": { "type": "MultiPolygon", "coordinates": [ [ [ [ 24.002439106724669, 70.027641361462685 ], [ 25.013304459350426, 70.344392652591793 ], [ 26.584838797981188, 70.213374264480123 ], [ 27.100449607762119, 69.771941689249132 ], [ 26.087177473745722, 69.468256710375073 ], [ 24.559641649146734, 69.593048681502708 ], [ 24.002439106724669, 70.027641361462685 ] ] ] ] } },
{ "type": "Feature", "properties": { "geogrid_id": "870069521028141968", "seqnum": 27373.0, "lat_c": 70.06952114205238, "lon_c": 28.141967612891161, "res": 8.0, "count_Mosses": 115, "count_Sac Fungi": 73, "count_Arachnids": 27, "count_Basidiomycota": 72, "count_Ferns": 16, "count_Birds": 112, "count_Insects": 1980, "count_Mammals": 8, "count_Flowering Plants": 451, "count_Molluscs": 24, "count_Amphibians": 1, "count_Gymnosperms": 2, "count_Reptiles": 1, "unique_species_count": 2882.0, "countryCode": "FI" }, "geometry": { "type": "MultiPolygon", "coordinates": [ [ [ [ 26.584838797981188, 70.213374264480123 ], [ 27.641621900788525, 70.514449659236305 ], [ 29.212406571002546, 70.360747769040699 ], [ 29.684102039940615, 69.913206271150941 ], [ 28.629830672289454, 69.625345889612618 ], [ 27.100449607762119, 69.771941689249132 ], [ 26.584838797981188, 70.213374264480123 ] ] ] ] } }
]
}
