{
"type": "FeatureCollection",
"name": "GA",
"crs": { "type": "name", "properties": { "name": "urn:ogc:def:crs:OGC:1.3:CRS84" } },
"features": [
{ "type": "Feature", "properties": { "geogrid_id": "3000782484011250000", "seqnum": 16485.0, "lat_c": -0.78248376662325003, "lon_c": 11.24999999914548, "res": 8.0, "count_Birds": 21, "count_Reptiles": 1, "count_Arachnids": 1, "count_Insects": 21, "count_Basidiomycota": 0, "count_Molluscs": 0, "count_Sac Fungi": 0, "count_Gymnosperms": 0, "count_Mammals": 11, "count_Flowering Plants": 6, "count_Amphibians": 0, "count_Ferns": 0, "count_Mosses": 0, "unique_species_count": 61.0, "countryCode": "GA" }, "geometry": { "type": "MultiPolygon", "coordinates": [ [ [ [ 11.65187037057634, -0.521769447848399 ], [ 11.652244758121746, -1.043112621607831 ], [ 11.249999999322181, -1.303611090908422 ], [ 10.847755240345895, -1.043112621839498 ], [ 10.848129627537812, -0.521769448079779 ], [ 11.249999998968679, -0.260935600377315 ], [ 11.65187037057634, -0.521769447848399 ] ] ] ] } },
{ "type": "Feature", "properties": { "geogrid_id": "3000782523010445902", "seqnum": 16403.0, "lat_c": -0.78252300640185102, "lon_c": 10.445901672290127, "res": 8.0, "count_Birds": 93, "count_Reptiles": 16, "count_Arachnids": 10, "count_Insects": 185, "count_Basidiomycota": 0, "count_Molluscs": 2, "count_Sac Fungi": 0, "count_Gymnosperms": 0, "count_Mammals": 8, "count_Flowering Plants": 87, "count_Amphibians": 3, "count_Ferns": 3, "count_Mosses": 0, "unique_species_count": 407.0, "countryCode": "GA" }, "geometry": { "type": "MultiPolygon", "coordinates": [ [ [ [ 10.848129627537812, -0.521769448079779 ], [ 10.847755240345895, -1.043112621839498 ], [ 10.44512894151819, -1.303678976703062 ], [ 10.043309758997324, -1.043219223109956 ], [ 10.044429838302239, -0.521820811794582 ], [ 10.446624966800069, -0.260948208670033 ], [ 10.848129627537812, -0.521769448079779 ] ] ] ] } },
{ "type": "Feature", "properties": { "geogrid_id": "3000782523012054098", "seqnum": 16567.0, "lat_c": -0.78252300593882496, "lon_c": 12.054098326000698, "res": 8.0, "count_Birds": 19, "count_Reptiles": 4, "count_Arachnids": 0, "count_Insects": 3, "count_Basidiomycota": 0, "count_Molluscs": 7, "count_Sac Fungi": 0, "count_Gymnosperms": 0, "count_Mammals": 7, "count_Flowering Plants": 2, "count_Amphibians": 2, "count_Ferns": 0, "count_Mosses": 0, "unique_species_count": 44.0, "countryCode": "GA" }, "geometry": { "type": "MultiPolygon", "coordinates": [ [ [ [ 12.455570159811668, -0.52182081110051 ], [ 12.456690239470044, -1.043219222415026 ], [ 12.054871057126023, -1.303678976239447 ], [ 11.652244758121746, -1.043112621607831 ], [ 11.65187037057634, -0.521769447848399 ], [ 12.053375031137168, -0.260948208207565 ], [ 12.455570159811668, -0.52182081110051 ] ] ] ] } },
{ "type": "Feature", "properties": { "geogrid_id": "3000782641009641888", "seqnum": 16321.0, "lat_c": -0.78264072452551303, "lon_c": 9.6418882706443867, "res": 8.0, "count_Birds": 26, "count_Reptiles": 1, "count_Arachnids": 1, "count_Insects": 4, "count_Basidiomycota": 0, "count_Molluscs": 0, "count_Sac Fungi": 0, "count_Gymnosperms": 0, "count_Mammals": 2, "count_Flowering Plants": 1, "count_Amphibians": 0, "count_Ferns": 0, "count_Mosses": 1, "unique_species_count": 36.0, "countryCode": "GA" }, "geometry": { "type": "MultiPolygon", "coordinates": [ [ [ [ 10.044429838302239, -0.521820811794582 ], [ 10.043309758997324, -1.043219223109956 ], [ 9.640349213286367, -1.303882631683074 ], [ 9.238996358692045, -1.043432422892313 ], [ 9.240852885623438, -0.521923538236522 ], [ 9.643328922955892, -0.260986032952103 ], [ 10.044429838302239, -0.521820811794582 ] ] ] ] } },
{ "type": "Feature", "properties": { "geogrid_id": "3000782641012858112", "seqnum": 16649.0, "lat_c": -0.78264072359960202, "lon_c": 12.858111727646047, "res": 8.0, "count_Birds": 56, "count_Reptiles": 3, "count_Arachnids": 1, "count_Insects": 124, "count_Basidiomycota": 0, "count_Molluscs": 0, "count_Sac Fungi": 1, "count_Gymnosperms": 0, "count_Mammals": 8, "count_Flowering Plants": 181, "count_Amphibians": 1, "count_Ferns": 3, "count_Mosses": 0, "unique_species_count": 378.0, "countryCode": "GA" }, "geometry": { "type": "MultiPolygon", "coordinates": [ [ [ [ 13.259147112489979, -0.521923537079967 ], [ 13.261003639774774, -1.043432421734332 ], [ 12.859650785357417, -1.303882630755988 ], [ 12.456690239470044, -1.043219222415026 ], [ 12.455570159811668, -0.52182081110051 ], [ 12.856671074981001, -0.260986032027303 ], [ 13.259147112489979, -0.521923537079967 ] ] ] ] } },
{ "type": "Feature", "properties": { "geogrid_id": "3000782837008838045", "seqnum": 16239.0, "lat_c": -0.78283691874708095, "lon_c": 8.8380446664640147, "res": 8.0, "count_Birds": 42, "count_Reptiles": 7, "count_Arachnids": 0, "count_Insects": 9, "count_Basidiomycota": 0, "count_Molluscs": 16, "count_Sac Fungi": 0, "count_Gymnosperms": 0, "count_Mammals": 5, "count_Flowering Plants": 20, "count_Amphibians": 0, "count_Ferns": 0, "count_Mosses": 0, "unique_species_count": 99.0, "countryCode": "GA" }, "geometry": { "type": "MultiPolygon", "coordinates": [ [ [ [ 9.240852885623438, -0.521923538236522 ], [ 9.238996358692045, -1.043432422892313 ], [ 8.835752083944646, -1.304222050027938 ], [ 8.434902999374534, -1.04375221613307 ], [ 8.43748057773578, -0.522077625893132 ], [ 8.840190809090148, -0.261049072822809 ], [ 9.240852885623438, -0.521923538236522 ] ] ] ] } },
{ "type": "Feature", "properties": { "geogrid_id": "3000782837013661955", "seqnum": 16731.0, "lat_c": -0.78283691735856398, "lon_c": 13.661955331825771, "res": 8.0, "count_Birds": 29, "count_Reptiles": 4, "count_Arachnids": 1, "count_Insects": 60, "count_Basidiomycota": 0, "count_Molluscs": 0, "count_Sac Fungi": 0, "count_Gymnosperms": 0, "count_Mammals": 12, "count_Flowering Plants": 13, "count_Amphibians": 1, "count_Ferns": 0, "count_Mosses": 0, "unique_species_count": 120.0, "countryCode": "GA" }, "geometry": { "type": "MultiPolygon", "coordinates": [ [ [ [ 14.062519420376901, -0.522077624274438 ], [ 14.065096999091466, -1.043752214512393 ], [ 13.664247914698418, -1.304222048637668 ], [ 13.261003639774774, -1.043432421734332 ], [ 13.259147112489979, -0.521923537079967 ], [ 13.65980918884617, -0.261049071435951 ], [ 14.062519420376901, -0.522077624274438 ] ] ] ] } },
{ "type": "Feature", "properties": { "geogrid_id": "3000783112008034456", "seqnum": 16157.0, "lat_c": -0.78311158532149905, "lon_c": 8.0344556261789819, "res": 8.0, "count_Birds": 0, "count_Reptiles": 0, "count_Arachnids": 0, "count_Insects": 0, "count_Basidiomycota": 0, "count_Molluscs": 0, "count_Sac Fungi": 0, "count_Gymnosperms": 0, "count_Mammals": 2, "count_Flowering Plants": 0, "count_Amphibians": 0, "count_Ferns": 0, "count_Mosses": 0, "unique_species_count": 2.0, "countryCode": "GA" }, "geometry": { "type": "MultiPolygon", "coordinates": [ [ [ [ 8.43748057773578, -0.522077625893132 ], [ 8.434902999374534, -1.04375221613307 ], [ 8.031428702400778, -1.30469722203753 ], [ 7.631117500019887, -1.044178595252554 ], [ 7.634394598799798, -0.522283072495826 ], [ 8.037289473584593, -0.261137327614349 ], [ 8.43748057773578, -0.522077625893132 ] ] ] ] } },
{ "type": "Feature", "properties": { "geogrid_id": "3000783112014465544", "seqnum": 16813.0, "lat_c": -0.78311158347079501, "lon_c": 14.465544372109896, "res": 8.0, "count_Birds": 0, "count_Reptiles": 0, "count_Arachnids": 0, "count_Insects": 0, "count_Basidiomycota": 0, "count_Molluscs": 0, "count_Sac Fungi": 0, "count_Gymnosperms": 0, "count_Mammals": 0, "count_Flowering Plants": 1, "count_Amphibians": 0, "count_Ferns": 0, "count_Mosses": 0, "unique_species_count": 1.0, "countryCode": "GA" }, "geometry": { "type": "MultiPolygon", "coordinates": [ [ [ [ 14.865605399311907, -0.522283070415475 ], [ 14.868882498445021, -1.044178593169676 ], [ 14.468571296241283, -1.304697220184507 ], [ 14.065096999091466, -1.043752214512393 ], [ 14.062519420376901, -0.522077624274438 ], [ 14.462710524350921, -0.26113732576584 ], [ 14.865605399311907, -0.522283070415475 ] ] ] ] } },
{ "type": "Feature", "properties": { "geogrid_id": "3001564041010847356", "seqnum": 16484.0, "lat_c": -1.564041372418487, "lon_c": 10.847356085212505, "res": 8.0, "count_Birds": 44, "count_Reptiles": 5, "count_Arachnids": 1, "count_Insects": 10, "count_Basidiomycota": 0, "count_Molluscs": 1, "count_Sac Fungi": 0, "count_Gymnosperms": 0, "count_Mammals": 4, "count_Flowering Plants": 44, "count_Amphibians": 12, "count_Ferns": 0, "count_Mosses": 0, "unique_species_count": 121.0, "countryCode": "GA" }, "geometry": { "type": "MultiPolygon", "coordinates": [ [ [ [ 11.249999999322181, -1.303611090908422 ], [ 11.249999999498817, -1.824329342410296 ], [ 10.846932112308481, -2.0845674729467 ], [ 10.444306693038731, -1.824428056404167 ], [ 10.44512894151819, -1.303678976703062 ], [ 10.847755240345895, -1.043112621839498 ], [ 11.249999999322181, -1.303611090908422 ] ] ] ] } },
{ "type": "Feature", "properties": { "geogrid_id": "3001564041011652644", "seqnum": 16566.0, "lat_c": -1.5640413721865181, "lon_c": 11.652643913608463, "res": 8.0, "count_Birds": 2, "count_Reptiles": 37, "count_Arachnids": 0, "count_Insects": 18, "count_Basidiomycota": 0, "count_Molluscs": 0, "count_Sac Fungi": 0, "count_Gymnosperms": 0, "count_Mammals": 1, "count_Flowering Plants": 1, "count_Amphibians": 28, "count_Ferns": 0, "count_Mosses": 1, "unique_species_count": 88.0, "countryCode": "GA" }, "geometry": { "type": "MultiPolygon", "coordinates": [ [ [ [ 12.054871057126023, -1.303678976239447 ], [ 12.055693305958741, -1.824428055939931 ], [ 11.653067886865713, -2.084567472714411 ], [ 11.249999999498817, -1.824329342410296 ], [ 11.249999999322181, -1.303611090908422 ], [ 11.652244758121746, -1.043112621607831 ], [ 12.054871057126023, -1.303678976239447 ] ] ] ] } },
{ "type": "Feature", "properties": { "geogrid_id": "3001564207010042116", "seqnum": 16402.0, "lat_c": -1.564207403345486, "lon_c": 10.042115622544115, "res": 8.0, "count_Birds": 14, "count_Reptiles": 7, "count_Arachnids": 2, "count_Insects": 10, "count_Basidiomycota": 1, "count_Molluscs": 0, "count_Sac Fungi": 1, "count_Gymnosperms": 0, "count_Mammals": 1, "count_Flowering Plants": 119, "count_Amphibians": 5, "count_Ferns": 3, "count_Mosses": 1, "unique_species_count": 164.0, "countryCode": "GA" }, "geometry": { "type": "MultiPolygon", "coordinates": [ [ [ [ 10.44512894151819, -1.303678976703062 ], [ 10.444306693038731, -1.824428056404167 ], [ 10.04084730792885, -2.084797479292349 ], [ 9.638711641231131, -1.82472419405366 ], [ 9.640349213286367, -1.303882631683074 ], [ 10.043309758997324, -1.043219223109956 ], [ 10.44512894151819, -1.303678976703062 ] ] ] ] } },
{ "type": "Feature", "properties": { "geogrid_id": "3001564207012457884", "seqnum": 16648.0, "lat_c": -1.56420740264965, "lon_c": 12.457884376276551, "res": 8.0, "count_Birds": 0, "count_Reptiles": 7, "count_Arachnids": 0, "count_Insects": 18, "count_Basidiomycota": 0, "count_Molluscs": 0, "count_Sac Fungi": 0, "count_Gymnosperms": 0, "count_Mammals": 0, "count_Flowering Plants": 2, "count_Amphibians": 0, "count_Ferns": 0, "count_Mosses": 0, "unique_species_count": 27.0, "countryCode": "GA" }, "geometry": { "type": "MultiPolygon", "coordinates": [ [ [ [ 12.859650785357417, -1.303882630755988 ], [ 12.86128835776587, -1.824724193125336 ], [ 12.45915269124502, -2.084797478595559 ], [ 12.055693305958741, -1.824428055939931 ], [ 12.054871057126023, -1.303678976239447 ], [ 12.456690239470044, -1.043219222415026 ], [ 12.859650785357417, -1.303882630755988 ] ] ] ] } },
{ "type": "Feature", "properties": { "geogrid_id": "3001564539009237017", "seqnum": 16320.0, "lat_c": -1.5645394593664801, "lon_c": 9.2370172248811269, "res": 8.0, "count_Birds": 109, "count_Reptiles": 16, "count_Arachnids": 5, "count_Insects": 28, "count_Basidiomycota": 0, "count_Molluscs": 6, "count_Sac Fungi": 0, "count_Gymnosperms": 0, "count_Mammals": 15, "count_Flowering Plants": 8, "count_Amphibians": 2, "count_Ferns": 0, "count_Mosses": 0, "unique_species_count": 189.0, "countryCode": "GA" }, "geometry": { "type": "MultiPolygon", "coordinates": [ [ [ [ 9.640349213286367, -1.303882631683074 ], [ 9.638711641231131, -1.82472419405366 ], [ 9.234915377312991, -2.085257481415128 ], [ 8.833313029973921, -1.825217743755875 ], [ 8.835752083944646, -1.304222050027938 ], [ 9.238996358692045, -1.043432422892313 ], [ 9.640349213286367, -1.303882631683074 ] ] ] ] } },
{ "type": "Feature", "properties": { "geogrid_id": "3001564539013262983", "seqnum": 16730.0, "lat_c": -1.5645394582069949, "lon_c": 13.262982773938939, "res": 8.0, "count_Birds": 262, "count_Reptiles": 33, "count_Arachnids": 14, "count_Insects": 282, "count_Basidiomycota": 1, "count_Molluscs": 1, "count_Sac Fungi": 0, "count_Gymnosperms": 0, "count_Mammals": 41, "count_Flowering Plants": 193, "count_Amphibians": 28, "count_Ferns": 7, "count_Mosses": 0, "unique_species_count": 862.0, "countryCode": "GA" }, "geometry": { "type": "MultiPolygon", "coordinates": [ [ [ [ 13.664247914698418, -1.304222048637668 ], [ 13.666686969022299, -1.825217742363759 ], [ 13.265084621860231, -2.08525748025406 ], [ 12.86128835776587, -1.824724193125336 ], [ 12.859650785357417, -1.303882630755988 ], [ 13.261003639774774, -1.043432421734332 ], [ 13.664247914698418, -1.304222048637668 ] ] ] ] } },
{ "type": "Feature", "properties": { "geogrid_id": "3001565038008432155", "seqnum": 16238.0, "lat_c": -1.5650375292802161, "lon_c": 8.4321554950225988, "res": 8.0, "count_Birds": 1, "count_Reptiles": 0, "count_Arachnids": 0, "count_Insects": 0, "count_Basidiomycota": 0, "count_Molluscs": 1, "count_Sac Fungi": 0, "count_Gymnosperms": 0, "count_Mammals": 5, "count_Flowering Plants": 0, "count_Amphibians": 0, "count_Ferns": 0, "count_Mosses": 0, "unique_species_count": 7.0, "countryCode": "GA" }, "geometry": { "type": "MultiPolygon", "coordinates": [ [ [ [ 8.835752083944646, -1.304222050027938 ], [ 8.833313029973921, -1.825217743755875 ], [ 8.429238113804288, -2.085947458644558 ], [ 8.028208907774287, -1.825908686174735 ], [ 8.031428702400778, -1.30469722203753 ], [ 8.434902999374534, -1.04375221613307 ], [ 8.835752083944646, -1.304222050027938 ] ] ] ] } },
{ "type": "Feature", "properties": { "geogrid_id": "3001565038014067845", "seqnum": 16812.0, "lat_c": -1.565037527657448, "lon_c": 14.067844503796568, "res": 8.0, "count_Birds": 38, "count_Reptiles": 9, "count_Arachnids": 0, "count_Insects": 108, "count_Basidiomycota": 0, "count_Molluscs": 0, "count_Sac Fungi": 0, "count_Gymnosperms": 0, "count_Mammals": 3, "count_Flowering Plants": 11, "count_Amphibians": 21, "count_Ferns": 0, "count_Mosses": 0, "unique_species_count": 190.0, "countryCode": "GA" }, "geometry": { "type": "MultiPolygon", "coordinates": [ [ [ [ 14.468571296241283, -1.304697220184507 ], [ 14.47179109122084, -1.82590868431927 ], [ 14.070761885367959, -2.085947457019589 ], [ 13.666686969022299, -1.825217742363759 ], [ 13.664247914698418, -1.304222048637668 ], [ 14.065096999091466, -1.043752214512393 ], [ 14.468571296241283, -1.304697220184507 ] ] ] ] } },
{ "type": "Feature", "properties": { "geogrid_id": "3001565702007627625", "seqnum": 16156.0, "lat_c": -1.5657015962867089, "lon_c": 7.627624875149734, "res": 8.0, "count_Birds": 0, "count_Reptiles": 0, "count_Arachnids": 0, "count_Insects": 0, "count_Basidiomycota": 0, "count_Molluscs": 0, "count_Sac Fungi": 0, "count_Gymnosperms": 0, "count_Mammals": 3, "count_Flowering Plants": 0, "count_Amphibians": 0, "count_Ferns": 0, "count_Mosses": 0, "unique_species_count": 3.0, "countryCode": "GA" }, "geometry": { "type": "MultiPolygon", "coordinates": [ [ [ [ 8.031428702400778, -1.30469722203753 ], [ 8.028208907774287, -1.825908686174735 ], [ 7.623917127225668, -2.086867379979743 ], [ 7.223497117349815, -1.826796994244042 ], [ 7.227470037193314, -1.305308134133179 ], [ 7.631117500019887, -1.044178595252554 ], [ 8.031428702400778, -1.30469722203753 ] ] ] ] } },
{ "type": "Feature", "properties": { "geogrid_id": "3002344650011250000", "seqnum": 16565.0, "lat_c": -2.344650210434394, "lon_c": 11.249999999675419, "res": 8.0, "count_Birds": 0, "count_Reptiles": 4, "count_Arachnids": 1, "count_Insects": 2, "count_Basidiomycota": 0, "count_Molluscs": 0, "count_Sac Fungi": 0, "count_Gymnosperms": 0, "count_Mammals": 0, "count_Flowering Plants": 6, "count_Amphibians": 1, "count_Ferns": 0, "count_Mosses": 0, "unique_species_count": 14.0, "countryCode": "GA" }, "geometry": { "type": "MultiPolygon", "coordinates": [ [ [ [ 11.653067886865713, -2.084567472714411 ], [ 11.653516739258594, -2.604702622837865 ], [ 11.249999999852022, -2.864585307012776 ], [ 10.846483260268798, -2.604702623070488 ], [ 10.846932112308481, -2.0845674729467 ], [ 11.249999999498817, -1.824329342410296 ], [ 11.653067886865713, -2.084567472714411 ] ] ] ] } },
{ "type": "Feature", "properties": { "geogrid_id": "3002344782010443435", "seqnum": 16483.0, "lat_c": -2.3447821214902098, "lon_c": 10.443434823271737, "res": 8.0, "count_Birds": 22, "count_Reptiles": 8, "count_Arachnids": 7, "count_Insects": 9, "count_Basidiomycota": 0, "count_Molluscs": 0, "count_Sac Fungi": 0, "count_Gymnosperms": 0, "count_Mammals": 2, "count_Flowering Plants": 28, "count_Amphibians": 0, "count_Ferns": 0, "count_Mosses": 0, "unique_species_count": 76.0, "countryCode": "GA" }, "geometry": { "type": "MultiPolygon", "coordinates": [ [ [ [ 10.846932112308481, -2.0845674729467 ], [ 10.846483260268798, -2.604702623070488 ], [ 10.442513206713659, -2.864752992418741 ], [ 10.039504663692673, -2.605001544910862 ], [ 10.04084730792885, -2.084797479292349 ], [ 10.444306693038731, -1.824428056404167 ], [ 10.846932112308481, -2.0845674729467 ] ] ] ] } },
{ "type": "Feature", "properties": { "geogrid_id": "3002344782012056565", "seqnum": 16647.0, "lat_c": -2.3447821210253208, "lon_c": 12.05656517607893, "res": 8.0, "count_Birds": 0, "count_Reptiles": 34, "count_Arachnids": 0, "count_Insects": 9, "count_Basidiomycota": 0, "count_Molluscs": 0, "count_Sac Fungi": 0, "count_Gymnosperms": 0, "count_Mammals": 0, "count_Flowering Plants": 3, "count_Amphibians": 60, "count_Ferns": 0, "count_Mosses": 0, "unique_species_count": 106.0, "countryCode": "GA" }, "geometry": { "type": "MultiPolygon", "coordinates": [ [ [ [ 12.45915269124502, -2.084797478595559 ], [ 12.46049533583437, -2.60500154421307 ], [ 12.057486792990204, -2.864752991953168 ], [ 11.653516739258594, -2.604702622837865 ], [ 11.653067886865713, -2.084567472714411 ], [ 12.055693305958741, -1.824428055939931 ], [ 12.45915269124502, -2.084797478595559 ] ] ] ] } },
{ "type": "Feature", "properties": { "geogrid_id": "3002345178009636975", "seqnum": 16401.0, "lat_c": -2.3451778474619132, "lon_c": 9.6369754082314234, "res": 8.0, "count_Birds": 80, "count_Reptiles": 16, "count_Arachnids": 5, "count_Insects": 33, "count_Basidiomycota": 2, "count_Molluscs": 1, "count_Sac Fungi": 5, "count_Gymnosperms": 0, "count_Mammals": 11, "count_Flowering Plants": 50, "count_Amphibians": 16, "count_Ferns": 0, "count_Mosses": 0, "unique_species_count": 219.0, "countryCode": "GA" }, "geometry": { "type": "MultiPolygon", "coordinates": [ [ [ [ 10.04084730792885, -2.084797479292349 ], [ 10.039504663692673, -2.605001544910862 ], [ 9.635140333224065, -2.865256037395022 ], [ 9.232690672221645, -2.605599371183475 ], [ 9.234915377312991, -2.085257481415128 ], [ 9.638711641231131, -1.82472419405366 ], [ 10.04084730792885, -2.084797479292349 ] ] ] ] } },
{ "type": "Feature", "properties": { "geogrid_id": "3002345178012863025", "seqnum": 16729.0, "lat_c": -2.3451778465322879, "lon_c": 12.863024591118739, "res": 8.0, "count_Birds": 11, "count_Reptiles": 1, "count_Arachnids": 1, "count_Insects": 4, "count_Basidiomycota": 0, "count_Molluscs": 0, "count_Sac Fungi": 0, "count_Gymnosperms": 0, "count_Mammals": 0, "count_Flowering Plants": 17, "count_Amphibians": 0, "count_Ferns": 0, "count_Mosses": 0, "unique_species_count": 34.0, "countryCode": "GA" }, "geometry": { "type": "MultiPolygon", "coordinates": [ [ [ [ 13.265084621860231, -2.08525748025406 ], [ 13.267309327304705, -2.605599370020746 ], [ 12.864859666479264, -2.865256036464033 ], [ 12.46049533583437, -2.60500154421307 ], [ 12.45915269124502, -2.084797478595559 ], [ 12.86128835776587, -1.824724193125336 ], [ 13.265084621860231, -2.08525748025406 ] ] ] ] } },
{ "type": "Feature", "properties": { "geogrid_id": "3002345837008830727", "seqnum": 16319.0, "lat_c": -2.3458373681585281, "lon_c": 8.8307274372413698, "res": 8.0, "count_Birds": 1, "count_Reptiles": 0, "count_Arachnids": 0, "count_Insects": 0, "count_Basidiomycota": 0, "count_Molluscs": 0, "count_Sac Fungi": 0, "count_Gymnosperms": 0, "count_Mammals": 6, "count_Flowering Plants": 0, "count_Amphibians": 0, "count_Ferns": 0, "count_Mosses": 0, "unique_species_count": 7.0, "countryCode": "GA" }, "geometry": { "type": "MultiPolygon", "coordinates": [ [ [ [ 9.234915377312991, -2.085257481415128 ], [ 9.232690672221645, -2.605599371183475 ], [ 8.827995208742518, -2.866094409616605 ], [ 8.426150882217566, -2.60649606754155 ], [ 8.429238113804288, -2.085947458644558 ], [ 8.833313029973921, -1.825217743755875 ], [ 9.234915377312991, -2.085257481415128 ] ] ] ] } },
{ "type": "Feature", "properties": { "geogrid_id": "3002345837013669273", "seqnum": 16811.0, "lat_c": -2.3458373667644712, "lon_c": 13.669272562107952, "res": 8.0, "count_Birds": 11, "count_Reptiles": 30, "count_Arachnids": 3, "count_Insects": 55, "count_Basidiomycota": 0, "count_Molluscs": 0, "count_Sac Fungi": 0, "count_Gymnosperms": 0, "count_Mammals": 2, "count_Flowering Plants": 0, "count_Amphibians": 25, "count_Ferns": 0, "count_Mosses": 0, "unique_species_count": 126.0, "countryCode": "GA" }, "geometry": { "type": "MultiPolygon", "coordinates": [ [ [ [ 14.070761885367959, -2.085947457019589 ], [ 14.073849117307745, -2.606496065914271 ], [ 13.672004790959919, -2.866094408220514 ], [ 13.267309327304705, -2.605599370020746 ], [ 13.265084621860231, -2.08525748025406 ], [ 13.666686969022299, -1.825217742363759 ], [ 14.070761885367959, -2.085947457019589 ] ] ] ] } },
{ "type": "Feature", "properties": { "geogrid_id": "3002346761008024796", "seqnum": 16237.0, "lat_c": -2.3467606499332638, "lon_c": 8.0247964357789421, "res": 8.0, "count_Birds": 1, "count_Reptiles": 0, "count_Arachnids": 0, "count_Insects": 0, "count_Basidiomycota": 0, "count_Molluscs": 4, "count_Sac Fungi": 0, "count_Gymnosperms": 0, "count_Mammals": 3, "count_Flowering Plants": 0, "count_Amphibians": 0, "count_Ferns": 0, "count_Mosses": 0, "unique_species_count": 8.0, "countryCode": "GA" }, "geometry": { "type": "MultiPolygon", "coordinates": [ [ [ [ 8.429238113804288, -2.085947458644558 ], [ 8.426150882217566, -2.60649606754155 ], [ 8.021191482223882, -2.867268055218365 ], [ 7.619994679756997, -2.607691582475392 ], [ 7.623917127225668, -2.086867379979743 ], [ 8.028208907774287, -1.825908686174735 ], [ 8.429238113804288, -2.085947458644558 ] ] ] ] } },
{ "type": "Feature", "properties": { "geogrid_id": "3002346761014475204", "seqnum": 16893.0, "lat_c": -2.3467606480752319, "lon_c": 14.475203563569206, "res": 8.0, "count_Birds": 0, "count_Reptiles": 1, "count_Arachnids": 0, "count_Insects": 0, "count_Basidiomycota": 0, "count_Molluscs": 0, "count_Sac Fungi": 0, "count_Gymnosperms": 0, "count_Mammals": 0, "count_Flowering Plants": 0, "count_Amphibians": 0, "count_Ferns": 0, "count_Mosses": 0, "unique_species_count": 1.0, "countryCode": "GA" }, "geometry": { "type": "MultiPolygon", "coordinates": [ [ [ [ 14.876082871945286, -2.086867377891396 ], [ 14.880005319766932, -2.607691580384104 ], [ 14.478808517477308, -2.867268053357643 ], [ 14.073849117307745, -2.606496065914271 ], [ 14.070761885367959, -2.085947457019589 ], [ 14.47179109122084, -1.82590868431927 ], [ 14.876082871945286, -2.086867377891396 ] ] ] ] } },
{ "type": "Feature", "properties": { "geogrid_id": "3003124458010846009", "seqnum": 16564.0, "lat_c": -3.124458452266508, "lon_c": 10.846009456208641, "res": 8.0, "count_Birds": 14, "count_Reptiles": 11, "count_Arachnids": 0, "count_Insects": 1, "count_Basidiomycota": 0, "count_Molluscs": 1, "count_Sac Fungi": 1, "count_Gymnosperms": 0, "count_Mammals": 0, "count_Flowering Plants": 29, "count_Amphibians": 25, "count_Ferns": 2, "count_Mosses": 0, "unique_species_count": 84.0, "countryCode": "GA" }, "geometry": { "type": "MultiPolygon", "coordinates": [ [ [ [ 11.249999999852022, -2.864585307012776 ], [ 11.25000000002866, -3.384146169459285 ], [ 10.845510615731843, -3.643846523245427 ], [ 10.441541696167622, -3.384352439874969 ], [ 10.442513206713659, -2.864752992418741 ], [ 10.846483260268798, -2.604702623070488 ], [ 11.249999999852022, -2.864585307012776 ] ] ] ] } },
{ "type": "Feature", "properties": { "geogrid_id": "3003124832010038088", "seqnum": 16482.0, "lat_c": -3.124831670538279, "lon_c": 10.038087508727891, "res": 8.0, "count_Birds": 37, "count_Reptiles": 48, "count_Arachnids": 0, "count_Insects": 2, "count_Basidiomycota": 0, "count_Molluscs": 0, "count_Sac Fungi": 0, "count_Gymnosperms": 0, "count_Mammals": 3, "count_Flowering Plants": 8, "count_Amphibians": 15, "count_Ferns": 0, "count_Mosses": 0, "unique_species_count": 113.0, "countryCode": "GA" }, "geometry": { "type": "MultiPolygon", "coordinates": [ [ [ [ 10.442513206713659, -2.864752992418741 ], [ 10.441541696167622, -3.384352439874969 ], [ 10.036595633211975, -3.644299913242707 ], [ 9.633206202436678, -3.384971234345189 ], [ 9.635140333224065, -2.865256037395022 ], [ 10.039504663692673, -2.605001544910862 ], [ 10.442513206713659, -2.864752992418741 ] ] ] ] } },
{ "type": "Feature", "properties": { "geogrid_id": "3003125578009230343", "seqnum": 16400.0, "lat_c": -3.1255780801795998, "lon_c": 9.2303429327678863, "res": 8.0, "count_Birds": 1, "count_Reptiles": 0, "count_Arachnids": 0, "count_Insects": 0, "count_Basidiomycota": 0, "count_Molluscs": 0, "count_Sac Fungi": 0, "count_Gymnosperms": 0, "count_Mammals": 2, "count_Flowering Plants": 0, "count_Amphibians": 0, "count_Ferns": 0, "count_Mosses": 0, "unique_species_count": 3.0, "countryCode": "GA" }, "geometry": { "type": "MultiPolygon", "coordinates": [ [ [ [ 9.635140333224065, -2.865256037395022 ], [ 9.633206202436678, -3.384971234345189 ], [ 9.227871953618195, -3.645206653500764 ], [ 8.825116225042651, -3.38600250394404 ], [ 8.827995208742518, -2.866094409616605 ], [ 9.232690672221645, -2.605599371183475 ], [ 9.635140333224065, -2.865256037395022 ] ] ] ] } },
{ "type": "Feature", "properties": { "geogrid_id": "3003126698008422894", "seqnum": 16318.0, "lat_c": -3.126697627860239, "lon_c": 8.4228938146812791, "res": 8.0, "count_Birds": 0, "count_Reptiles": 0, "count_Arachnids": 0, "count_Insects": 0, "count_Basidiomycota": 0, "count_Molluscs": 0, "count_Sac Fungi": 0, "count_Gymnosperms": 0, "count_Mammals": 4, "count_Flowering Plants": 0, "count_Amphibians": 0, "count_Ferns": 0, "count_Mosses": 0, "unique_species_count": 4.0, "countryCode": "GA" }, "geometry": { "type": "MultiPolygon", "coordinates": [ [ [ [ 8.827995208742518, -2.866094409616605 ], [ 8.825116225042651, -3.38600250394404 ], [ 8.419466926268298, -3.646566665028259 ], [ 8.017394262559392, -3.387446167146952 ], [ 8.021191482223882, -2.867268055218365 ], [ 8.426150882217566, -2.60649606754155 ], [ 8.827995208742518, -2.866094409616605 ] ] ] ] } },
{ "type": "Feature", "properties": { "geogrid_id": "3003128190007615858", "seqnum": 16236.0, "lat_c": -3.12819023360534, "lon_c": 7.6158579991669049, "res": 8.0, "count_Birds": 0, "count_Reptiles": 0, "count_Arachnids": 0, "count_Insects": 0, "count_Basidiomycota": 0, "count_Molluscs": 0, "count_Sac Fungi": 0, "count_Gymnosperms": 0, "count_Mammals": 2, "count_Flowering Plants": 0, "count_Amphibians": 0, "count_Ferns": 0, "count_Mosses": 0, "unique_species_count": 2.0, "countryCode": "GA" }, "geometry": { "type": "MultiPolygon", "coordinates": [ [ [ [ 8.021191482223882, -2.867268055218365 ], [ 8.017394262559392, -3.387446167146952 ], [ 7.611507621945138, -3.648379829375481 ], [ 7.21016250264536, -3.389302109858489 ], [ 7.214842532453096, -2.868776898809822 ], [ 7.619994679756997, -2.607691582475392 ], [ 8.021191482223882, -2.867268055218365 ] ] ] ] } },
{ "type": "Feature", "properties": { "geogrid_id": "3003903344011250000", "seqnum": 16645.0, "lat_c": -3.9033442628832522, "lon_c": 11.250000000205361, "res": 8.0, "count_Birds": 0, "count_Reptiles": 1, "count_Arachnids": 0, "count_Insects": 0, "count_Basidiomycota": 0, "count_Molluscs": 0, "count_Sac Fungi": 0, "count_Gymnosperms": 0, "count_Mammals": 0, "count_Flowering Plants": 1, "count_Amphibians": 0, "count_Ferns": 0, "count_Mosses": 0, "unique_species_count": 2.0, "countryCode": "GA" }, "geometry": { "type": "MultiPolygon", "coordinates": [ [ [ [ 11.654489384502106, -3.643846523012087 ], [ 11.655013357654111, -4.162878335241817 ], [ 11.250000000382164, -4.422190982663269 ], [ 10.84498664293333, -4.16287833547554 ], [ 10.845510615731843, -3.643846523245427 ], [ 11.25000000002866, -3.384146169459285 ], [ 11.654489384502106, -3.643846523012087 ] ] ] ] } },
{ "type": "Feature", "properties": { "geogrid_id": "3003903592010440520", "seqnum": 16563.0, "lat_c": -3.9035921910676321, "lon_c": 10.440520123004864, "res": 8.0, "count_Birds": 2, "count_Reptiles": 0, "count_Arachnids": 0, "count_Insects": 0, "count_Basidiomycota": 0, "count_Molluscs": 1, "count_Sac Fungi": 0, "count_Gymnosperms": 0, "count_Mammals": 2, "count_Flowering Plants": 0, "count_Amphibians": 0, "count_Ferns": 0, "count_Mosses": 0, "unique_species_count": 5.0, "countryCode": "GA" }, "geometry": { "type": "MultiPolygon", "coordinates": [ [ [ [ 10.845510615731843, -3.643846523245427 ], [ 10.84498664293333, -4.16287833547554 ], [ 10.439448297472758, -4.422483936694569 ], [ 10.035028799724953, -4.163418328580634 ], [ 10.036595633211975, -3.644299913242707 ], [ 10.441541696167622, -3.384352439874969 ], [ 10.845510615731843, -3.643846523245427 ] ] ] ] } },
{ "type": "Feature", "properties": { "geogrid_id": "3003904336009631173", "seqnum": 16481.0, "lat_c": -3.9043359514361198, "lon_c": 9.631172771915903, "res": 8.0, "count_Birds": 0, "count_Reptiles": 1, "count_Arachnids": 0, "count_Insects": 0, "count_Basidiomycota": 0, "count_Molluscs": 0, "count_Sac Fungi": 0, "count_Gymnosperms": 0, "count_Mammals": 4, "count_Flowering Plants": 0, "count_Amphibians": 0, "count_Ferns": 0, "count_Mosses": 0, "unique_species_count": 5.0, "countryCode": "GA" }, "geometry": { "type": "MultiPolygon", "coordinates": [ [ [ [ 10.036595633211975, -3.644299913242707 ], [ 10.035028799724953, -4.163418328580634 ], [ 9.629039770599791, -4.423362764843434 ], [ 9.225277506498239, -4.164498258022627 ], [ 9.227871953618195, -3.645206653500764 ], [ 9.633206202436678, -3.384971234345189 ], [ 10.036595633211975, -3.644299913242707 ] ] ] ] } },
{ "type": "Feature", "properties": { "geogrid_id": "3003905575008822090", "seqnum": 16399.0, "lat_c": -3.905575472845904, "lon_c": 8.8220903530668551, "res": 8.0, "count_Birds": 0, "count_Reptiles": 0, "count_Arachnids": 0, "count_Insects": 0, "count_Basidiomycota": 0, "count_Molluscs": 2, "count_Sac Fungi": 0, "count_Gymnosperms": 0, "count_Mammals": 2, "count_Flowering Plants": 0, "count_Amphibians": 0, "count_Ferns": 0, "count_Mosses": 0, "unique_species_count": 4.0, "countryCode": "GA" }, "geometry": { "type": "MultiPolygon", "coordinates": [ [ [ [ 9.227871953618195, -3.645206653500764 ], [ 9.225277506498239, -4.164498258022627 ], [ 8.81891745682921, -4.424827366695043 ], [ 8.415870248200831, -4.166118010758399 ], [ 8.419466926268298, -3.646566665028259 ], [ 8.825116225042651, -3.38600250394404 ], [ 9.227871953618195, -3.645206653500764 ] ] ] ] } },
{ "type": "Feature", "properties": { "geogrid_id": "3003907311008013405", "seqnum": 16317.0, "lat_c": -3.9073106367585129, "lon_c": 8.0134050328824724, "res": 8.0, "count_Birds": 1, "count_Reptiles": 0, "count_Arachnids": 0, "count_Insects": 0, "count_Basidiomycota": 0, "count_Molluscs": 2, "count_Sac Fungi": 0, "count_Gymnosperms": 0, "count_Mammals": 2, "count_Flowering Plants": 0, "count_Amphibians": 0, "count_Ferns": 0, "count_Mosses": 0, "unique_species_count": 5.0, "countryCode": "GA" }, "geometry": { "type": "MultiPolygon", "coordinates": [ [ [ [ 8.419466926268298, -3.646566665028259 ], [ 8.415870248200831, -4.166118010758399 ], [ 8.009224115610872, -4.426877574946908 ], [ 7.606944187731209, -4.168277417287639 ], [ 7.611507621945138, -3.648379829375481 ], [ 8.017394262559392, -3.387446167146952 ], [ 8.419466926268298, -3.646566665028259 ] ] ] ] } },
{ "type": "Feature", "properties": { "geogrid_id": "3003909541007205249", "seqnum": 16235.0, "lat_c": -3.9095412772890219, "lon_c": 7.2052486188886906, "res": 8.0, "count_Birds": 0, "count_Reptiles": 0, "count_Arachnids": 0, "count_Insects": 0, "count_Basidiomycota": 0, "count_Molluscs": 0, "count_Sac Fungi": 0, "count_Gymnosperms": 0, "count_Mammals": 2, "count_Flowering Plants": 0, "count_Amphibians": 0, "count_Ferns": 0, "count_Mosses": 0, "unique_species_count": 2.0, "countryCode": "GA" }, "geometry": { "type": "MultiPolygon", "coordinates": [ [ [ [ 7.611507621945138, -3.648379829375481 ], [ 7.606944187731209, -4.168277417287639 ], [ 7.20010209078234, -4.429513155492031 ], [ 6.798636038139301, -4.170976251729946 ], [ 6.804120722310232, -3.650645988679003 ], [ 7.21016250264536, -3.389302109858489 ], [ 7.611507621945138, -3.648379829375481 ] ] ] ] } },
{ "type": "Feature", "properties": { "geogrid_id": "3004681565010844437", "seqnum": 16644.0, "lat_c": -4.6815653288636074, "lon_c": 10.844437430397791, "res": 8.0, "count_Birds": 0, "count_Reptiles": 0, "count_Arachnids": 0, "count_Insects": 0, "count_Basidiomycota": 0, "count_Molluscs": 0, "count_Sac Fungi": 0, "count_Gymnosperms": 0, "count_Mammals": 2, "count_Flowering Plants": 0, "count_Amphibians": 0, "count_Ferns": 0, "count_Mosses": 0, "unique_species_count": 2.0, "countryCode": "GA" }, "geometry": { "type": "MultiPolygon", "coordinates": [ [ [ [ 11.250000000382164, -4.422190982663269 ], [ 11.250000000559096, -4.940697656882596 ], [ 10.843862859197303, -5.199918887639521 ], [ 10.43832600906928, -4.941039338739766 ], [ 10.439448297472758, -4.422483936694569 ], [ 10.84498664293333, -4.16287833547554 ], [ 11.250000000382164, -4.422190982663269 ] ] ] ] } },
{ "type": "Feature", "properties": { "geogrid_id": "3004682199010033387", "seqnum": 16562.0, "lat_c": -4.6821989840804736, "lon_c": 10.033386744609125, "res": 8.0, "count_Birds": 1, "count_Reptiles": 0, "count_Arachnids": 0, "count_Insects": 0, "count_Basidiomycota": 0, "count_Molluscs": 0, "count_Sac Fungi": 0, "count_Gymnosperms": 0, "count_Mammals": 3, "count_Flowering Plants": 0, "count_Amphibians": 0, "count_Ferns": 0, "count_Mosses": 0, "unique_species_count": 4.0, "countryCode": "GA" }, "geometry": { "type": "MultiPolygon", "coordinates": [ [ [ [ 10.439448297472758, -4.422483936694569 ], [ 10.43832600906928, -4.941039338739766 ], [ 10.031669179647691, -5.200653974858567 ], [ 9.626806904093439, -4.94206433764981 ], [ 9.629039770599791, -4.423362764843434 ], [ 10.035028799724953, -4.163418328580634 ], [ 10.439448297472758, -4.422483936694569 ] ] ] ] } },
{ "type": "Feature", "properties": { "geogrid_id": "3004683466009222559", "seqnum": 16480.0, "lat_c": -4.683466215441336, "lon_c": 9.2225593469932399, "res": 8.0, "count_Birds": 1, "count_Reptiles": 0, "count_Arachnids": 0, "count_Insects": 0, "count_Basidiomycota": 0, "count_Molluscs": 0, "count_Sac Fungi": 0, "count_Gymnosperms": 0, "count_Mammals": 2, "count_Flowering Plants": 0, "count_Amphibians": 0, "count_Ferns": 0, "count_Mosses": 0, "unique_species_count": 3.0, "countryCode": "GA" }, "geometry": { "type": "MultiPolygon", "coordinates": [ [ [ [ 9.629039770599791, -4.423362764843434 ], [ 9.626806904093439, -4.94206433764981 ], [ 9.21971722294942, -5.202124041290954 ], [ 8.815597410636347, -4.943772515061591 ], [ 8.81891745682921, -4.424827366695043 ], [ 9.225277506498239, -4.164498258022627 ], [ 9.629039770599791, -4.423362764843434 ] ] ] ] } },
{ "type": "Feature", "properties": { "geogrid_id": "3004685367008412104", "seqnum": 16398.0, "lat_c": -4.6853668653114839, "lon_c": 8.412103846852137, "res": 8.0, "count_Birds": 0, "count_Reptiles": 0, "count_Arachnids": 0, "count_Insects": 0, "count_Basidiomycota": 0, "count_Molluscs": 0, "count_Sac Fungi": 0, "count_Gymnosperms": 0, "count_Mammals": 2, "count_Flowering Plants": 0, "count_Amphibians": 0, "count_Ferns": 0, "count_Mosses": 0, "unique_species_count": 2.0, "countryCode": "GA" }, "geometry": { "type": "MultiPolygon", "coordinates": [ [ [ [ 8.81891745682921, -4.424827366695043 ], [ 8.815597410636347, -4.943772515061591 ], [ 8.40816784722308, -5.20432887146315 ], [ 8.00485193108856, -4.94616364014717 ], [ 8.009224115610872, -4.426877574946908 ], [ 8.415870248200831, -4.166118010758399 ], [ 8.81891745682921, -4.424827366695043 ] ] ] ] } },
{ "type": "Feature", "properties": { "geogrid_id": "3004687901007602168", "seqnum": 16316.0, "lat_c": -4.6879006973456043, "lon_c": 7.6021684799017786, "res": 8.0, "count_Birds": 0, "count_Reptiles": 0, "count_Arachnids": 0, "count_Insects": 0, "count_Basidiomycota": 0, "count_Molluscs": 0, "count_Sac Fungi": 0, "count_Gymnosperms": 0, "count_Mammals": 2, "count_Flowering Plants": 0, "count_Amphibians": 0, "count_Ferns": 0, "count_Mosses": 0, "unique_species_count": 2.0, "countryCode": "GA" }, "geometry": { "type": "MultiPolygon", "coordinates": [ [ [ [ 8.009224115610872, -4.426877574946908 ], [ 8.00485193108856, -4.94616364014717 ], [ 7.59718147570937, -5.207268142336583 ], [ 7.19472438492887, -4.949237389937526 ], [ 7.20010209078234, -4.429513155492031 ], [ 7.606944187731209, -4.168277417287639 ], [ 8.009224115610872, -4.426877574946908 ] ] ] ] } },
{ "type": "Feature", "properties": { "geogrid_id": "3004691067006792901", "seqnum": 16234.0, "lat_c": -4.6910673966156828, "lon_c": 6.7929009601026236, "res": 8.0, "count_Birds": 0, "count_Reptiles": 0, "count_Arachnids": 0, "count_Insects": 0, "count_Basidiomycota": 0, "count_Molluscs": 0, "count_Sac Fungi": 0, "count_Gymnosperms": 0, "count_Mammals": 1, "count_Flowering Plants": 0, "count_Amphibians": 0, "count_Ferns": 0, "count_Mosses": 0, "unique_species_count": 1.0, "countryCode": "GA" }, "geometry": { "type": "MultiPolygon", "coordinates": [ [ [ [ 7.20010209078234, -4.429513155492031 ], [ 7.19472438492887, -4.949237389937526 ], [ 6.786917924394798, -5.210941423513387 ], [ 6.385368049633048, -4.952993349512307 ], [ 6.391693173542965, -4.432733807535205 ], [ 6.798636038139301, -4.170976251729946 ], [ 7.20010209078234, -4.429513155492031 ] ] ] ] } },
{ "type": "Feature", "properties": { "geogrid_id": "3005460453009624474", "seqnum": 16561.0, "lat_c": -5.4604534479459597, "lon_c": 9.6244738593555663, "res": 8.0, "count_Birds": 0, "count_Reptiles": 0, "count_Arachnids": 0, "count_Insects": 0, "count_Basidiomycota": 0, "count_Molluscs": 0, "count_Sac Fungi": 0, "count_Gymnosperms": 0, "count_Mammals": 2, "count_Flowering Plants": 0, "count_Amphibians": 0, "count_Ferns": 0, "count_Mosses": 0, "unique_species_count": 2.0, "countryCode": "GA" }, "geometry": { "type": "MultiPolygon", "coordinates": [ [ [ [ 10.031669179647691, -5.200653974858567 ], [ 10.029875794162812, -5.718795441883761 ], [ 9.622040310569814, -5.978543022211463 ], [ 9.2167508849413, -5.720485491362084 ], [ 9.21971722294942, -5.202124041290954 ], [ 9.626806904093439, -4.94206433764981 ], [ 10.031669179647691, -5.200653974858567 ] ] ] ] } },
{ "type": "Feature", "properties": { "geogrid_id": "3005462426008812130", "seqnum": 16479.0, "lat_c": -5.4624255868104514, "lon_c": 8.8121301154646048, "res": 8.0, "count_Birds": 0, "count_Reptiles": 0, "count_Arachnids": 0, "count_Insects": 0, "count_Basidiomycota": 0, "count_Molluscs": 0, "count_Sac Fungi": 0, "count_Gymnosperms": 0, "count_Mammals": 2, "count_Flowering Plants": 0, "count_Amphibians": 0, "count_Ferns": 0, "count_Mosses": 0, "unique_species_count": 2.0, "countryCode": "GA" }, "geometry": { "type": "MultiPolygon", "coordinates": [ [ [ [ 9.21971722294942, -5.202124041290954 ], [ 9.2167508849413, -5.720485491362084 ], [ 8.808515519431873, -5.980801662080577 ], [ 8.404062462163713, -5.723020202952609 ], [ 8.40816784722308, -5.20432887146315 ], [ 8.815597410636347, -4.943772515061591 ], [ 9.21971722294942, -5.202124041290954 ] ] ] ] } },
{ "type": "Feature", "properties": { "geogrid_id": "3005465186008000289", "seqnum": 16397.0, "lat_c": -5.4651861429833284, "lon_c": 8.0002890367722053, "res": 8.0, "count_Birds": 1, "count_Reptiles": 0, "count_Arachnids": 0, "count_Insects": 0, "count_Basidiomycota": 0, "count_Molluscs": 0, "count_Sac Fungi": 0, "count_Gymnosperms": 0, "count_Mammals": 1, "count_Flowering Plants": 0, "count_Amphibians": 0, "count_Ferns": 0, "count_Mosses": 0, "unique_species_count": 2.0, "countryCode": "GA" }, "geometry": { "type": "MultiPolygon", "coordinates": [ [ [ [ 8.40816784722308, -5.20432887146315 ], [ 8.404062462163713, -5.723020202952609 ], [ 7.995536176171023, -5.983963171962504 ], [ 7.591984408656696, -5.726399141946173 ], [ 7.59718147570937, -5.207268142336583 ], [ 8.00485193108856, -4.94616364014717 ], [ 8.40816784722308, -5.20432887146315 ] ] ] ] } },
{ "type": "Feature", "properties": { "geogrid_id": "3006238565009213660", "seqnum": 16560.0, "lat_c": -6.2385646173464213, "lon_c": 9.2136600994197302, "res": 8.0, "count_Birds": 1, "count_Reptiles": 0, "count_Arachnids": 0, "count_Insects": 0, "count_Basidiomycota": 0, "count_Molluscs": 0, "count_Sac Fungi": 0, "count_Gymnosperms": 0, "count_Mammals": 1, "count_Flowering Plants": 0, "count_Amphibians": 0, "count_Ferns": 0, "count_Mosses": 0, "unique_species_count": 2.0, "countryCode": "GA" }, "geometry": { "type": "MultiPolygon", "coordinates": [ [ [ [ 9.622040310569814, -5.978543022211463 ], [ 9.619505926564505, -6.496346175304069 ], [ 9.210444665361585, -6.756375834061093 ], [ 8.804753643588031, -6.498916319118351 ], [ 8.808515519431873, -5.980801662080577 ], [ 9.2167508849413, -5.720485491362084 ], [ 9.622040310569814, -5.978543022211463 ] ] ] ] } },
{ "type": "Feature", "properties": { "geogrid_id": "800000000007637456", "seqnum": 16076.0, "lat_c": -2.204514e-09, "lon_c": 7.6374557702464116, "res": 8.0, "count_Birds": 0, "count_Reptiles": 0, "count_Arachnids": 0, "count_Insects": 0, "count_Basidiomycota": 0, "count_Molluscs": 0, "count_Sac Fungi": 0, "count_Gymnosperms": 0, "count_Mammals": 2, "count_Flowering Plants": 0, "count_Amphibians": 0, "count_Ferns": 0, "count_Mosses": 0, "unique_species_count": 2.0, "countryCode": "GA" }, "geometry": { "type": "MultiPolygon", "coordinates": [ [ [ [ 8.037289475723393, 0.261137329517247 ], [ 8.037289473584593, -0.261137327614349 ], [ 7.634394598799798, -0.522283072495826 ], [ 7.234703625084526, -0.261250796391849 ], [ 7.234703627224142, 0.261250798061657 ], [ 7.634394600836481, 0.522283074281441 ], [ 8.037289475723393, 0.261137329517247 ] ] ] ] } },
{ "type": "Feature", "properties": { "geogrid_id": "800000000008439888", "seqnum": 16158.0, "lat_c": -1.972366e-09, "lon_c": 8.4398881495448457, "res": 8.0, "count_Birds": 1, "count_Reptiles": 0, "count_Arachnids": 0, "count_Insects": 0, "count_Basidiomycota": 0, "count_Molluscs": 0, "count_Sac Fungi": 0, "count_Gymnosperms": 0, "count_Mammals": 2, "count_Flowering Plants": 0, "count_Amphibians": 0, "count_Ferns": 0, "count_Mosses": 0, "unique_species_count": 3.0, "countryCode": "GA" }, "geometry": { "type": "MultiPolygon", "coordinates": [ [ [ [ 8.84019081122835, 0.261049074958513 ], [ 8.840190809090148, -0.261049072822809 ], [ 8.43748057773578, -0.522077625893132 ], [ 8.037289473584593, -0.261137327614349 ], [ 8.037289475723393, 0.261137329517247 ], [ 8.437480579771908, 0.522077627911871 ], [ 8.84019081122835, 0.261049074958513 ] ] ] ] } },
{ "type": "Feature", "properties": { "geogrid_id": "800000000009242587", "seqnum": 16240.0, "lat_c": -1.740377e-09, "lon_c": 9.2425868724489391, "res": 8.0, "count_Birds": 91, "count_Reptiles": 8, "count_Arachnids": 3, "count_Insects": 27, "count_Basidiomycota": 1, "count_Molluscs": 16, "count_Sac Fungi": 1, "count_Gymnosperms": 1, "count_Mammals": 5, "count_Flowering Plants": 38, "count_Amphibians": 1, "count_Ferns": 1, "count_Mosses": 0, "unique_species_count": 193.0, "countryCode": "GA" }, "geometry": { "type": "MultiPolygon", "coordinates": [ [ [ [ 9.643328925093718, 0.260986035320262 ], [ 9.643328922955892, -0.260986032952103 ], [ 9.240852885623438, -0.521923538236522 ], [ 8.840190809090148, -0.261049072822809 ], [ 8.84019081122835, 0.261049074958513 ], [ 9.240852887659235, 0.521923540488071 ], [ 9.643328925093718, 0.260986035320262 ] ] ] ] } },
{ "type": "Feature", "properties": { "geogrid_id": "800000000010045476", "seqnum": 16322.0, "lat_c": -1.508614e-09, "lon_c": 10.045475950333314, "res": 8.0, "count_Birds": 11, "count_Reptiles": 3, "count_Arachnids": 1, "count_Insects": 361, "count_Basidiomycota": 1, "count_Molluscs": 0, "count_Sac Fungi": 0, "count_Gymnosperms": 1, "count_Mammals": 1, "count_Flowering Plants": 17, "count_Amphibians": 10, "count_Ferns": 0, "count_Mosses": 0, "unique_species_count": 406.0, "countryCode": "GA" }, "geometry": { "type": "MultiPolygon", "coordinates": [ [ [ [ 10.446624968937742, 0.260948211270228 ], [ 10.446624966800069, -0.260948208670033 ], [ 10.044429838302239, -0.521820811794582 ], [ 9.643328922955892, -0.260986032952103 ], [ 9.643328925093718, 0.260986035320262 ], [ 10.044429840337937, 0.521820814278556 ], [ 10.446624968937742, 0.260948211270228 ] ] ] ] } },
{ "type": "Feature", "properties": { "geogrid_id": "800000000010848479", "seqnum": 16404.0, "lat_c": -1.277144e-09, "lon_c": 10.848479285056438, "res": 8.0, "count_Birds": 22, "count_Reptiles": 3, "count_Arachnids": 0, "count_Insects": 5, "count_Basidiomycota": 0, "count_Molluscs": 0, "count_Sac Fungi": 0, "count_Gymnosperms": 0, "count_Mammals": 2, "count_Flowering Plants": 17, "count_Amphibians": 5, "count_Ferns": 0, "count_Mosses": 0, "unique_species_count": 54.0, "countryCode": "GA" }, "geometry": { "type": "MultiPolygon", "coordinates": [ [ [ [ 11.250000001106427, 0.260935603209056 ], [ 11.249999998968679, -0.260935600377315 ], [ 10.848129627537812, -0.521769448079779 ], [ 10.446624966800069, -0.260948208670033 ], [ 10.446624968937742, 0.260948211270228 ], [ 10.848129629573641, 0.521769450795726 ], [ 11.250000001106427, 0.260935603209056 ] ] ] ] } },
{ "type": "Feature", "properties": { "geogrid_id": "800000000011651521", "seqnum": 16486.0, "lat_c": -1.046035e-09, "lon_c": 11.651520712703995, "res": 8.0, "count_Birds": 95, "count_Reptiles": 11, "count_Arachnids": 7, "count_Insects": 32, "count_Basidiomycota": 1, "count_Molluscs": 0, "count_Sac Fungi": 2, "count_Gymnosperms": 0, "count_Mammals": 19, "count_Flowering Plants": 20, "count_Amphibians": 10, "count_Ferns": 0, "count_Mosses": 0, "unique_species_count": 197.0, "countryCode": "GA" }, "geometry": { "type": "MultiPolygon", "coordinates": [ [ [ [ 12.053375033275209, 0.260948211270297 ], [ 12.053375031137168, -0.260948208207565 ], [ 11.65187037057634, -0.521769447848399 ], [ 11.249999998968679, -0.260935600377315 ], [ 11.250000001106427, 0.260935603209056 ], [ 11.651870372612537, 0.521769450795796 ], [ 12.053375033275209, 0.260948211270297 ] ] ] ] } },
{ "type": "Feature", "properties": { "geogrid_id": "800000000012454524", "seqnum": 16568.0, "lat_c": -8.15354e-10, "lon_c": 12.454524047426903, "res": 8.0, "count_Birds": 30, "count_Reptiles": 3, "count_Arachnids": 0, "count_Insects": 13, "count_Basidiomycota": 0, "count_Molluscs": 0, "count_Sac Fungi": 0, "count_Gymnosperms": 0, "count_Mammals": 3, "count_Flowering Plants": 5, "count_Amphibians": 1, "count_Ferns": 0, "count_Mosses": 0, "unique_species_count": 55.0, "countryCode": "GA" }, "geometry": { "type": "MultiPolygon", "coordinates": [ [ [ [ 12.856671077119556, 0.260986035320401 ], [ 12.856671074981001, -0.260986032027303 ], [ 12.455570159811668, -0.52182081110051 ], [ 12.053375031137168, -0.260948208207565 ], [ 12.053375033275209, 0.260948211270297 ], [ 12.455570161848456, 0.521820814278766 ], [ 12.856671077119556, 0.260986035320401 ] ] ] ] } },
{ "type": "Feature", "properties": { "geogrid_id": "800000000013257413", "seqnum": 16650.0, "lat_c": -5.85169e-10, "lon_c": 13.257413125310849, "res": 8.0, "count_Birds": 1, "count_Reptiles": 0, "count_Arachnids": 0, "count_Insects": 10, "count_Basidiomycota": 0, "count_Molluscs": 0, "count_Sac Fungi": 0, "count_Gymnosperms": 0, "count_Mammals": 0, "count_Flowering Plants": 8, "count_Amphibians": 2, "count_Ferns": 1, "count_Mosses": 0, "unique_species_count": 22.0, "countryCode": "GA" }, "geometry": { "type": "MultiPolygon", "coordinates": [ [ [ [ 13.659809190985463, 0.261049074958722 ], [ 13.65980918884617, -0.261049071435951 ], [ 13.259147112489979, -0.521923537079967 ], [ 12.856671074981001, -0.260986032027303 ], [ 12.856671077119556, 0.260986035320401 ], [ 13.25914711452759, 0.52192354048842 ], [ 13.659809190985463, 0.261049074958722 ] ] ] ] } },
{ "type": "Feature", "properties": { "geogrid_id": "800000000014060112", "seqnum": 16732.0, "lat_c": -3.55546e-10, "lon_c": 14.060111848214298, "res": 8.0, "count_Birds": 2, "count_Reptiles": 0, "count_Arachnids": 0, "count_Insects": 11, "count_Basidiomycota": 0, "count_Molluscs": 0, "count_Sac Fungi": 0, "count_Gymnosperms": 0, "count_Mammals": 0, "count_Flowering Plants": 1, "count_Amphibians": 0, "count_Ferns": 0, "count_Mosses": 0, "unique_species_count": 14.0, "countryCode": "GA" }, "geometry": { "type": "MultiPolygon", "coordinates": [ [ [ [ 14.462710526491172, 0.261137329517525 ], [ 14.462710524350921, -0.26113732576584 ], [ 14.062519420376901, -0.522077624274438 ], [ 13.65980918884617, -0.261049071435951 ], [ 13.659809190985463, 0.261049074958722 ], [ 14.062519422415564, 0.522077627912361 ], [ 14.462710526491172, 0.261137329517525 ] ] ] ] } },
{ "type": "Feature", "properties": { "geogrid_id": "800782484011250000", "seqnum": 16405.0, "lat_c": 0.78248376945499198, "lon_c": 11.250000001079739, "res": 8.0, "count_Birds": 6, "count_Reptiles": 0, "count_Arachnids": 0, "count_Insects": 4, "count_Basidiomycota": 0, "count_Molluscs": 0, "count_Sac Fungi": 0, "count_Gymnosperms": 0, "count_Mammals": 0, "count_Flowering Plants": 25, "count_Amphibians": 0, "count_Ferns": 0, "count_Mosses": 1, "unique_species_count": 36.0, "countryCode": "GA" }, "geometry": { "type": "MultiPolygon", "coordinates": [ [ [ [ 11.6522447599547, 1.043112624555407 ], [ 11.651870372612537, 0.521769450795796 ], [ 11.250000001106427, 0.260935603209056 ], [ 10.848129629573641, 0.521769450795726 ], [ 10.847755242178119, 1.043112624555266 ], [ 11.250000001053065, 1.303611093740164 ], [ 11.6522447599547, 1.043112624555407 ] ] ] ] } },
{ "type": "Feature", "properties": { "geogrid_id": "800782523010445902", "seqnum": 16323.0, "lat_c": 0.78252300900169602, "lon_c": 10.445901674223958, "res": 8.0, "count_Birds": 26, "count_Reptiles": 47, "count_Arachnids": 2, "count_Insects": 55, "count_Basidiomycota": 0, "count_Molluscs": 1, "count_Sac Fungi": 5, "count_Gymnosperms": 0, "count_Mammals": 4, "count_Flowering Plants": 44, "count_Amphibians": 11, "count_Ferns": 0, "count_Mosses": 6, "unique_species_count": 201.0, "countryCode": "GA" }, "geometry": { "type": "MultiPolygon", "coordinates": [ [ [ [ 10.847755242178119, 1.043112624555266 ], [ 10.848129629573641, 0.521769450795726 ], [ 10.446624968937742, 0.260948211270228 ], [ 10.044429840337937, 0.521820814278556 ], [ 10.04330976082907, 1.043219225593393 ], [ 10.445128943248291, 1.303678979302539 ], [ 10.847755242178119, 1.043112624555266 ] ] ] ] } },
{ "type": "Feature", "properties": { "geogrid_id": "800782523012054098", "seqnum": 16487.0, "lat_c": 0.78252300900190697, "lon_c": 12.054098327935618, "res": 8.0, "count_Birds": 3, "count_Reptiles": 0, "count_Arachnids": 0, "count_Insects": 1, "count_Basidiomycota": 0, "count_Molluscs": 0, "count_Sac Fungi": 0, "count_Gymnosperms": 0, "count_Mammals": 6, "count_Flowering Plants": 12, "count_Amphibians": 0, "count_Ferns": 0, "count_Mosses": 0, "unique_species_count": 22.0, "countryCode": "GA" }, "geometry": { "type": "MultiPolygon", "coordinates": [ [ [ [ 12.456690241303965, 1.043219225593817 ], [ 12.455570161848456, 0.521820814278766 ], [ 12.053375033275209, 0.260948211270297 ], [ 11.651870372612537, 0.521769450795796 ], [ 11.6522447599547, 1.043112624555407 ], [ 12.054871058857939, 1.303678979302894 ], [ 12.456690241303965, 1.043219225593817 ] ] ] ] } },
{ "type": "Feature", "properties": { "geogrid_id": "800782641009641888", "seqnum": 16241.0, "lat_c": 0.78264072689297304, "lon_c": 9.641888272578031, "res": 8.0, "count_Birds": 123, "count_Reptiles": 13, "count_Arachnids": 5, "count_Insects": 54, "count_Basidiomycota": 1, "count_Molluscs": 16, "count_Sac Fungi": 3, "count_Gymnosperms": 1, "count_Mammals": 3, "count_Flowering Plants": 174, "count_Amphibians": 12, "count_Ferns": 3, "count_Mosses": 1, "unique_species_count": 409.0, "countryCode": "GA" }, "geometry": { "type": "MultiPolygon", "coordinates": [ [ [ [ 10.04330976082907, 1.043219225593393 ], [ 10.044429840337937, 0.521820814278556 ], [ 9.643328925093718, 0.260986035320262 ], [ 9.240852887659235, 0.521923540488071 ], [ 9.238996360523558, 1.043432425142967 ], [ 9.64034921501594, 1.3038826340498 ], [ 10.04330976082907, 1.043219225593393 ] ] ] ] } },
{ "type": "Feature", "properties": { "geogrid_id": "800782641012858112", "seqnum": 16569.0, "lat_c": 0.78264072689339503, "lon_c": 12.85811172958187, "res": 8.0, "count_Birds": 71, "count_Reptiles": 10, "count_Arachnids": 10, "count_Insects": 118, "count_Basidiomycota": 7, "count_Molluscs": 1, "count_Sac Fungi": 0, "count_Gymnosperms": 0, "count_Mammals": 11, "count_Flowering Plants": 31, "count_Amphibians": 4, "count_Ferns": 1, "count_Mosses": 1, "unique_species_count": 265.0, "countryCode": "GA" }, "geometry": { "type": "MultiPolygon", "coordinates": [ [ [ [ 13.261003641609911, 1.043432425143674 ], [ 13.25914711452759, 0.52192354048842 ], [ 12.856671077119556, 0.260986035320401 ], [ 12.455570161848456, 0.521820814278766 ], [ 12.456690241303965, 1.043219225593817 ], [ 12.859650787090617, 1.303882634050511 ], [ 13.261003641609911, 1.043432425143674 ] ] ] ] } },
{ "type": "Feature", "properties": { "geogrid_id": "800782837008838045", "seqnum": 16159.0, "lat_c": 0.78283692088173895, "lon_c": 8.8380446683977123, "res": 8.0, "count_Birds": 0, "count_Reptiles": 0, "count_Arachnids": 0, "count_Insects": 0, "count_Basidiomycota": 0, "count_Molluscs": 2, "count_Sac Fungi": 0, "count_Gymnosperms": 0, "count_Mammals": 1, "count_Flowering Plants": 0, "count_Amphibians": 0, "count_Ferns": 0, "count_Mosses": 0, "unique_species_count": 3.0, "countryCode": "GA" }, "geometry": { "type": "MultiPolygon", "coordinates": [ [ [ [ 9.238996360523558, 1.043432425142967 ], [ 9.240852887659235, 0.521923540488071 ], [ 8.84019081122835, 0.261049074958513 ], [ 8.437480579771908, 0.522077627911871 ], [ 8.434903001206058, 1.043752218150561 ], [ 8.835752085673946, 1.304222052161498 ], [ 9.238996360523558, 1.043432425142967 ] ] ] ] } },
{ "type": "Feature", "properties": { "geogrid_id": "800782837013661955", "seqnum": 16651.0, "lat_c": 0.782836920882372, "lon_c": 13.661955333762728, "res": 8.0, "count_Birds": 4, "count_Reptiles": 2, "count_Arachnids": 1, "count_Insects": 21, "count_Basidiomycota": 0, "count_Molluscs": 0, "count_Sac Fungi": 0, "count_Gymnosperms": 0, "count_Mammals": 0, "count_Flowering Plants": 9, "count_Amphibians": 5, "count_Ferns": 0, "count_Mosses": 0, "unique_species_count": 42.0, "countryCode": "GA" }, "geometry": { "type": "MultiPolygon", "coordinates": [ [ [ [ 14.065097000928061, 1.043752218151552 ], [ 14.062519422415564, 0.522077627912361 ], [ 13.659809190985463, 0.261049074958722 ], [ 13.25914711452759, 0.52192354048842 ], [ 13.261003641609911, 1.043432425143674 ], [ 13.664247916433155, 1.304222052162565 ], [ 14.065097000928061, 1.043752218151552 ] ] ] ] } },
{ "type": "Feature", "properties": { "geogrid_id": "801564041011652644", "seqnum": 16406.0, "lat_c": 1.5640413751342821, "lon_c": 11.652643915238267, "res": 8.0, "count_Birds": 5, "count_Reptiles": 0, "count_Arachnids": 0, "count_Insects": 2, "count_Basidiomycota": 0, "count_Molluscs": 0, "count_Sac Fungi": 0, "count_Gymnosperms": 0, "count_Mammals": 0, "count_Flowering Plants": 4, "count_Amphibians": 0, "count_Ferns": 0, "count_Mosses": 0, "unique_species_count": 11.0, "countryCode": "GA" }, "geometry": { "type": "MultiPolygon", "coordinates": [ [ [ [ 12.055693307487727, 1.824428059003763 ], [ 12.054871058857939, 1.303678979302894 ], [ 11.6522447599547, 1.043112624555407 ], [ 11.250000001053065, 1.303611093740164 ], [ 11.250000001026402, 1.824329345242037 ], [ 11.653067888292425, 2.084567475662372 ], [ 12.055693307487727, 1.824428059003763 ] ] ] ] } },
{ "type": "Feature", "properties": { "geogrid_id": "801564539013262983", "seqnum": 16570.0, "lat_c": 1.5645394616172681, "lon_c": 13.262982775571695, "res": 8.0, "count_Birds": 0, "count_Reptiles": 3, "count_Arachnids": 2, "count_Insects": 7, "count_Basidiomycota": 0, "count_Molluscs": 0, "count_Sac Fungi": 0, "count_Gymnosperms": 0, "count_Mammals": 2, "count_Flowering Plants": 2, "count_Amphibians": 3, "count_Ferns": 1, "count_Mosses": 0, "unique_species_count": 20.0, "countryCode": "GA" }, "geometry": { "type": "MultiPolygon", "coordinates": [ [ [ [ 13.666686970554887, 1.825217745889796 ], [ 13.664247916433155, 1.304222052162565 ], [ 13.261003641609911, 1.043432425143674 ], [ 12.859650787090617, 1.303882634050511 ], [ 12.861288359296525, 1.824724196420624 ], [ 13.26508462329066, 2.085257483665308 ], [ 13.666686970554887, 1.825217745889796 ] ] ] ] } },
{ "type": "Feature", "properties": { "geogrid_id": "801565038014067845", "seqnum": 16652.0, "lat_c": 1.565037531297901, "lon_c": 14.067844505431186, "res": 8.0, "count_Birds": 0, "count_Reptiles": 0, "count_Arachnids": 0, "count_Insects": 0, "count_Basidiomycota": 0, "count_Molluscs": 0, "count_Sac Fungi": 0, "count_Gymnosperms": 0, "count_Mammals": 0, "count_Flowering Plants": 1, "count_Amphibians": 0, "count_Ferns": 0, "count_Mosses": 0, "unique_species_count": 1.0, "countryCode": "GA" }, "geometry": { "type": "MultiPolygon", "coordinates": [ [ [ [ 14.471791092755625, 1.825908688075277 ], [ 14.468571297977805, 1.304697223939006 ], [ 14.065097000928061, 1.043752218151552 ], [ 13.664247916433155, 1.304222052162565 ], [ 13.666686970554887, 1.825217745889796 ], [ 14.070761886800653, 2.085947460661397 ], [ 14.471791092755625, 1.825908688075277 ] ] ] ] } },
{ "type": "Feature", "properties": { "geogrid_id": "802344650011250000", "seqnum": 16325.0, "lat_c": 2.344650213266136, "lon_c": 11.250000000999744, "res": 8.0, "count_Birds": 0, "count_Reptiles": 0, "count_Arachnids": 0, "count_Insects": 1, "count_Basidiomycota": 1, "count_Molluscs": 0, "count_Sac Fungi": 0, "count_Gymnosperms": 0, "count_Mammals": 0, "count_Flowering Plants": 1, "count_Amphibians": 0, "count_Ferns": 0, "count_Mosses": 0, "unique_species_count": 3.0, "countryCode": "GA" }, "geometry": { "type": "MultiPolygon", "coordinates": [ [ [ [ 11.653516740482232, 2.604702625786031 ], [ 11.653067888292425, 2.084567475662372 ], [ 11.250000001026402, 1.824329345242037 ], [ 10.846932113733738, 2.084567475662083 ], [ 10.846483261490617, 2.604702625785665 ], [ 11.250000000973085, 2.864585309844518 ], [ 11.653516740482232, 2.604702625786031 ] ] ] ] } },
{ "type": "Feature", "properties": { "geogrid_id": "802344782012056565", "seqnum": 16407.0, "lat_c": 2.3447821240895541, "lon_c": 12.056565177405025, "res": 8.0, "count_Birds": 1, "count_Reptiles": 0, "count_Arachnids": 0, "count_Insects": 0, "count_Basidiomycota": 0, "count_Molluscs": 0, "count_Sac Fungi": 0, "count_Gymnosperms": 0, "count_Mammals": 0, "count_Flowering Plants": 1, "count_Amphibians": 0, "count_Ferns": 0, "count_Mosses": 0, "unique_species_count": 2.0, "countryCode": "GA" }, "geometry": { "type": "MultiPolygon", "coordinates": [ [ [ [ 12.460495337060108, 2.605001547393624 ], [ 12.459152692673454, 2.084797481775499 ], [ 12.055693307487727, 1.824428059003763 ], [ 11.653067888292425, 2.084567475662372 ], [ 11.653516740482232, 2.604702625786031 ], [ 12.057486794113409, 2.864752995017819 ], [ 12.460495337060108, 2.605001547393624 ] ] ] ] } }
]
}
