{
"type": "FeatureCollection",
"name": "GE",
"crs": { "type": "name", "properties": { "name": "urn:ogc:def:crs:OGC:1.3:CRS84" } },
"features": [
{ "type": "Feature", "properties": { "geogrid_id": "840759614046383591", "seqnum": 21201.0, "lat_c": 40.759613975129838, "lon_c": 46.383590730694856, "res": 8.0, "count_Mammals": 12, "count_Flowering Plants": 121, "count_Amphibians": 1, "count_Mosses": 1, "count_Arachnids": 10, "count_Ferns": 0, "count_Birds": 68, "count_Basidiomycota": 0, "count_Sac Fungi": 2, "count_Gymnosperms": 3, "count_Insects": 61, "count_Molluscs": 1, "count_Reptiles": 8, "unique_species_count": 288.0, "countryCode": "GE" }, "geometry": { "type": "MultiPolygon", "coordinates": [ [ [ [ 46.660749869958025, 41.19943825566191 ], [ 47.081225374083765, 40.867649421740637 ], [ 46.80440229799175, 40.427770229205144 ], [ 46.118380550742927, 40.315124358115447 ], [ 45.693326874979597, 40.645256195811925 ], [ 45.958788909933446, 41.089725865423205 ], [ 46.660749869958025, 41.19943825566191 ] ] ] ] } },
{ "type": "Feature", "properties": { "geogrid_id": "840973601045264330", "seqnum": 21120.0, "lat_c": 40.973601370031517, "lon_c": 45.264330134580902, "res": 8.0, "count_Mammals": 1, "count_Flowering Plants": 0, "count_Amphibians": 0, "count_Mosses": 0, "count_Arachnids": 0, "count_Ferns": 0, "count_Birds": 6, "count_Basidiomycota": 0, "count_Sac Fungi": 0, "count_Gymnosperms": 0, "count_Insects": 1, "count_Molluscs": 2, "count_Reptiles": 0, "unique_species_count": 10.0, "countryCode": "GE" }, "geometry": { "type": "MultiPolygon", "coordinates": [ [ [ [ 45.529876863159409, 41.418097329961562 ], [ 45.958788909933446, 41.089725865423205 ], [ 45.693326874979597, 40.645256195811925 ], [ 45.00947813108094, 40.525344657548629 ], [ 44.57643978512391, 40.851829003374512 ], [ 44.831268583334243, 41.300149856164097 ], [ 45.529876863159409, 41.418097329961562 ] ] ] ] } },
{ "type": "Feature", "properties": { "geogrid_id": "841176470044139374", "seqnum": 21039.0, "lat_c": 41.176469614953795, "lon_c": 44.139373893767839, "res": 8.0, "count_Mammals": 30, "count_Flowering Plants": 201, "count_Amphibians": 4, "count_Mosses": 1, "count_Arachnids": 8, "count_Ferns": 1, "count_Birds": 121, "count_Basidiomycota": 2, "count_Sac Fungi": 0, "count_Gymnosperms": 1, "count_Insects": 103, "count_Molluscs": 0, "count_Reptiles": 9, "unique_species_count": 481.0, "countryCode": "GE" }, "geometry": { "type": "MultiPolygon", "coordinates": [ [ [ [ 44.394024884056073, 41.624888955073189 ], [ 44.831268583334243, 41.300149856164097 ], [ 44.57643978512391, 40.851829003374512 ], [ 43.894400274970927, 40.724964246258203 ], [ 43.453485754550513, 41.047613588062269 ], [ 43.69816286591918, 41.499252061038845 ], [ 44.394024884056073, 41.624888955073189 ] ] ] ] } },
{ "type": "Feature", "properties": { "geogrid_id": "841368363043008457", "seqnum": 20958.0, "lat_c": 41.368362699131914, "lon_c": 43.008457162616693, "res": 8.0, "count_Mammals": 43, "count_Flowering Plants": 526, "count_Amphibians": 7, "count_Mosses": 6, "count_Arachnids": 13, "count_Ferns": 4, "count_Birds": 192, "count_Basidiomycota": 9, "count_Sac Fungi": 5, "count_Gymnosperms": 5, "count_Insects": 368, "count_Molluscs": 4, "count_Reptiles": 11, "unique_species_count": 1193.0, "countryCode": "GE" }, "geometry": { "type": "MultiPolygon", "coordinates": [ [ [ [ 43.252692743158384, 41.820159719088622 ], [ 43.69816286591918, 41.499252061038845 ], [ 43.453485754550513, 41.047613588062269 ], [ 42.773048768312066, 40.913999945283408 ], [ 42.324356849089533, 41.232642768270559 ], [ 42.559201250610123, 41.68719320907293 ], [ 43.252692743158384, 41.820159719088622 ] ] ] ] } },
{ "type": "Feature", "properties": { "geogrid_id": "841529554046236110", "seqnum": 21202.0, "lat_c": 41.529554460172349, "lon_c": 46.236110052843003, "res": 8.0, "count_Mammals": 49, "count_Flowering Plants": 622, "count_Amphibians": 10, "count_Mosses": 7, "count_Arachnids": 84, "count_Ferns": 14, "count_Birds": 213, "count_Basidiomycota": 32, "count_Sac Fungi": 16, "count_Gymnosperms": 8, "count_Insects": 825, "count_Molluscs": 12, "count_Reptiles": 32, "unique_species_count": 1924.0, "countryCode": "GE" }, "geometry": { "type": "MultiPolygon", "coordinates": [ [ [ [ 46.526538825712606, 41.963668111031261 ], [ 46.95115888451857, 41.633467406249679 ], [ 46.660749869958025, 41.19943825566191 ], [ 45.958788909933446, 41.089725865423205 ], [ 45.529876863159409, 41.418097329961562 ], [ 45.807193631234192, 41.857986228906093 ], [ 46.526538825712606, 41.963668111031261 ] ] ] ] } },
{ "type": "Feature", "properties": { "geogrid_id": "841549328041871465", "seqnum": 20877.0, "lat_c": 41.549328173860737, "lon_c": 41.871465177750103, "res": 8.0, "count_Mammals": 44, "count_Flowering Plants": 904, "count_Amphibians": 11, "count_Mosses": 23, "count_Arachnids": 38, "count_Ferns": 34, "count_Birds": 326, "count_Basidiomycota": 44, "count_Sac Fungi": 24, "count_Gymnosperms": 19, "count_Insects": 598, "count_Molluscs": 23, "count_Reptiles": 17, "unique_species_count": 2105.0, "countryCode": "GE" }, "geometry": { "type": "MultiPolygon", "coordinates": [ [ [ [ 42.105607782251461, 42.004084898605001 ], [ 42.559201250610123, 41.68719320907293 ], [ 42.324356849089533, 41.232642768270559 ], [ 41.64542095201675, 41.092418019050506 ], [ 41.189044665194182, 41.406894781486557 ], [ 41.414264858483065, 41.86403429293528 ], [ 42.105607782251461, 42.004084898605001 ] ] ] ] } },
{ "type": "Feature", "properties": { "geogrid_id": "841719356040728386", "seqnum": 20796.0, "lat_c": 41.719355606543544, "lon_c": 40.728385764753263, "res": 8.0, "count_Mammals": 1, "count_Flowering Plants": 1, "count_Amphibians": 0, "count_Mosses": 0, "count_Arachnids": 0, "count_Ferns": 0, "count_Birds": 0, "count_Basidiomycota": 0, "count_Sac Fungi": 0, "count_Gymnosperms": 0, "count_Insects": 0, "count_Molluscs": 0, "count_Reptiles": 0, "unique_species_count": 2.0, "countryCode": "GE" }, "geometry": { "type": "MultiPolygon", "coordinates": [ [ [ [ 40.952649528883931, 42.176737649856499 ], [ 41.414264858483065, 41.86403429293528 ], [ 41.189044665194182, 41.406894781486557 ], [ 40.511581786069634, 41.260154305741175 ], [ 40.047611782632586, 41.57031455969674 ], [ 40.263339656419724, 42.029775510989822 ], [ 40.952649528883931, 42.176737649856499 ] ] ] ] } },
{ "type": "Feature", "properties": { "geogrid_id": "841744717045096739", "seqnum": 21121.0, "lat_c": 41.744716706361707, "lon_c": 45.096738899859155, "res": 8.0, "count_Mammals": 50, "count_Flowering Plants": 1232, "count_Amphibians": 17, "count_Mosses": 4, "count_Arachnids": 136, "count_Ferns": 11, "count_Birds": 281, "count_Basidiomycota": 47, "count_Sac Fungi": 28, "count_Gymnosperms": 19, "count_Insects": 1132, "count_Molluscs": 24, "count_Reptiles": 36, "unique_species_count": 3017.0, "countryCode": "GE" }, "geometry": { "type": "MultiPolygon", "coordinates": [ [ [ [ 45.373891325711746, 42.184718681891525 ], [ 45.807193631234192, 41.857986228906093 ], [ 45.529876863159409, 41.418097329961562 ], [ 44.831268583334243, 41.300149856164097 ], [ 44.394024884056073, 41.624888955073189 ], [ 44.65926277357724, 42.069569468144664 ], [ 45.373891325711746, 42.184718681891525 ] ] ] ] } },
{ "type": "Feature", "properties": { "geogrid_id": "841878399039579281", "seqnum": 20715.0, "lat_c": 41.8783987287351, "lon_c": 39.579280507446448, "res": 8.0, "count_Mammals": 0, "count_Flowering Plants": 0, "count_Amphibians": 0, "count_Mosses": 0, "count_Arachnids": 0, "count_Ferns": 0, "count_Birds": 2, "count_Basidiomycota": 0, "count_Sac Fungi": 0, "count_Gymnosperms": 0, "count_Insects": 0, "count_Molluscs": 0, "count_Reptiles": 0, "unique_species_count": 2.0, "countryCode": "GE" }, "geometry": { "type": "MultiPolygon", "coordinates": [ [ [ [ 39.793803920441448, 42.338128077751456 ], [ 40.263339656419724, 42.029775510989822 ], [ 40.047611782632586, 41.57031455969674 ], [ 39.371646657745536, 41.417126073275163 ], [ 38.900173933659204, 41.722826428937303 ], [ 39.10648761024671, 42.184379042467803 ], [ 39.793803920441448, 42.338128077751456 ] ] ] ] } },
{ "type": "Feature", "properties": { "geogrid_id": "841947803043952485", "seqnum": 21040.0, "lat_c": 41.947803424637144, "lon_c": 43.952485321886186, "res": 8.0, "count_Mammals": 36, "count_Flowering Plants": 773, "count_Amphibians": 14, "count_Mosses": 7, "count_Arachnids": 43, "count_Ferns": 12, "count_Birds": 180, "count_Basidiomycota": 14, "count_Sac Fungi": 23, "count_Gymnosperms": 7, "count_Insects": 568, "count_Molluscs": 11, "count_Reptiles": 21, "unique_species_count": 1709.0, "countryCode": "GE" }, "geometry": { "type": "MultiPolygon", "coordinates": [ [ [ [ 44.217339007554685, 42.392638426448912 ], [ 44.65926277357724, 42.069569468144664 ], [ 44.394024884056073, 41.624888955073189 ], [ 43.69816286591918, 41.499252061038845 ], [ 43.252692743158384, 41.820159719088622 ], [ 43.506539162747337, 42.268875605825293 ], [ 44.217339007554685, 42.392638426448912 ] ] ] ] } },
{ "type": "Feature", "properties": { "geogrid_id": "842139174042802853", "seqnum": 20959.0, "lat_c": 42.139173834110451, "lon_c": 42.802852611214995, "res": 8.0, "count_Mammals": 40, "count_Flowering Plants": 482, "count_Amphibians": 6, "count_Mosses": 8, "count_Arachnids": 15, "count_Ferns": 14, "count_Birds": 99, "count_Basidiomycota": 18, "count_Sac Fungi": 8, "count_Gymnosperms": 5, "count_Insects": 343, "count_Molluscs": 7, "count_Reptiles": 14, "unique_species_count": 1059.0, "countryCode": "GE" }, "geometry": { "type": "MultiPolygon", "coordinates": [ [ [ [ 43.056078129082309, 42.588085540058358 ], [ 43.506539162747337, 42.268875605825293 ], [ 43.252692743158384, 41.820159719088622 ], [ 42.559201250610123, 41.68719320907293 ], [ 42.105607782251461, 42.004084898605001 ], [ 42.34853411415348, 42.456273581298426 ], [ 43.056078129082309, 42.588085540058358 ] ] ] ] } },
{ "type": "Feature", "properties": { "geogrid_id": "842292247046097481", "seqnum": 21203.0, "lat_c": 42.29224677105713, "lon_c": 46.097481292442502, "res": 8.0, "count_Mammals": 21, "count_Flowering Plants": 211, "count_Amphibians": 2, "count_Mosses": 2, "count_Arachnids": 7, "count_Ferns": 6, "count_Birds": 83, "count_Basidiomycota": 3, "count_Sac Fungi": 4, "count_Gymnosperms": 2, "count_Insects": 202, "count_Molluscs": 2, "count_Reptiles": 5, "unique_species_count": 550.0, "countryCode": "GE" }, "geometry": { "type": "MultiPolygon", "coordinates": [ [ [ [ 46.402079238495304, 42.719645390560373 ], [ 46.831474067559178, 42.390759967938997 ], [ 46.526538825712606, 41.963668111031261 ], [ 45.807193631234192, 41.857986228906093 ], [ 45.373891325711746, 42.184718681891525 ], [ 45.663883276477023, 42.619183882574987 ], [ 46.402079238495304, 42.719645390560373 ] ] ] ] } },
{ "type": "Feature", "properties": { "geogrid_id": "842319016041647569", "seqnum": 20878.0, "lat_c": 42.319015716210217, "lon_c": 41.647569094596911, "res": 8.0, "count_Mammals": 28, "count_Flowering Plants": 308, "count_Amphibians": 12, "count_Mosses": 9, "count_Arachnids": 14, "count_Ferns": 11, "count_Birds": 195, "count_Basidiomycota": 9, "count_Sac Fungi": 4, "count_Gymnosperms": 4, "count_Insects": 121, "count_Molluscs": 17, "count_Reptiles": 9, "unique_species_count": 741.0, "countryCode": "GE" }, "geometry": { "type": "MultiPolygon", "coordinates": [ [ [ [ 41.88963105347959, 42.771436128687071 ], [ 42.34853411415348, 42.456273581298426 ], [ 42.105607782251461, 42.004084898605001 ], [ 41.414264858483065, 41.86403429293528 ], [ 40.952649528883931, 42.176737649856499 ], [ 41.184979733190076, 42.631961802234045 ], [ 41.88963105347959, 42.771436128687071 ] ] ] ] } },
{ "type": "Feature", "properties": { "geogrid_id": "842487413040486515", "seqnum": 20797.0, "lat_c": 42.487413155204521, "lon_c": 40.486515034215813, "res": 8.0, "count_Mammals": 0, "count_Flowering Plants": 2, "count_Amphibians": 0, "count_Mosses": 0, "count_Arachnids": 0, "count_Ferns": 0, "count_Birds": 1, "count_Basidiomycota": 0, "count_Sac Fungi": 0, "count_Gymnosperms": 0, "count_Insects": 0, "count_Molluscs": 0, "count_Reptiles": 0, "unique_species_count": 3.0, "countryCode": "GE" }, "geometry": { "type": "MultiPolygon", "coordinates": [ [ [ [ 40.717736149750444, 42.942897516986363 ], [ 41.184979733190076, 42.631961802234045 ], [ 40.952649528883931, 42.176737649856499 ], [ 40.263339656419724, 42.029775510989822 ], [ 39.793803920441448, 42.338128077751456 ], [ 40.015759156321344, 42.796034106964768 ], [ 40.717736149750444, 42.942897516986363 ] ] ] ] } },
{ "type": "Feature", "properties": { "geogrid_id": "842509734044936096", "seqnum": 21122.0, "lat_c": 42.509734139043154, "lon_c": 44.936096200930379, "res": 8.0, "count_Mammals": 46, "count_Flowering Plants": 770, "count_Amphibians": 8, "count_Mosses": 18, "count_Arachnids": 19, "count_Ferns": 15, "count_Birds": 183, "count_Basidiomycota": 14, "count_Sac Fungi": 48, "count_Gymnosperms": 4, "count_Insects": 488, "count_Molluscs": 9, "count_Reptiles": 12, "unique_species_count": 1634.0, "countryCode": "GE" }, "geometry": { "type": "MultiPolygon", "coordinates": [ [ [ [ 45.225642937074049, 42.944457470615653 ], [ 45.663883276477023, 42.619183882574987 ], [ 45.373891325711746, 42.184718681891525 ], [ 44.65926277357724, 42.069569468144664 ], [ 44.217339007554685, 42.392638426448912 ], [ 44.493703134123969, 42.833012349354775 ], [ 45.225642937074049, 42.944457470615653 ] ] ] ] } },
{ "type": "Feature", "properties": { "geogrid_id": "842713904043770860", "seqnum": 21041.0, "lat_c": 42.713903906501294, "lon_c": 43.770860350297838, "res": 8.0, "count_Mammals": 23, "count_Flowering Plants": 296, "count_Amphibians": 5, "count_Mosses": 2, "count_Arachnids": 1, "count_Ferns": 5, "count_Birds": 17, "count_Basidiomycota": 6, "count_Sac Fungi": 4, "count_Gymnosperms": 2, "count_Insects": 75, "count_Molluscs": 4, "count_Reptiles": 2, "unique_species_count": 442.0, "countryCode": "GE" }, "geometry": { "type": "MultiPolygon", "coordinates": [ [ [ [ 44.046608391149384, 43.154530682557841 ], [ 44.493703134123969, 42.833012349354775 ], [ 44.217339007554685, 42.392638426448912 ], [ 43.506539162747337, 42.268875605825293 ], [ 43.056078129082309, 42.588085540058358 ], [ 43.319721335319826, 43.033343900806742 ], [ 44.046608391149384, 43.154530682557841 ] ] ] ] } },
{ "type": "Feature", "properties": { "geogrid_id": "842905411042600996", "seqnum": 20960.0, "lat_c": 42.905411076294449, "lon_c": 42.600995971143163, "res": 8.0, "count_Mammals": 35, "count_Flowering Plants": 585, "count_Amphibians": 4, "count_Mosses": 8, "count_Arachnids": 10, "count_Ferns": 19, "count_Birds": 106, "count_Basidiomycota": 5, "count_Sac Fungi": 6, "count_Gymnosperms": 5, "count_Insects": 473, "count_Molluscs": 4, "count_Reptiles": 10, "unique_species_count": 1270.0, "countryCode": "GE" }, "geometry": { "type": "MultiPolygon", "coordinates": [ [ [ [ 42.863817925211016, 43.350934201314807 ], [ 43.319721335319826, 43.033343900806742 ], [ 43.056078129082309, 42.588085540058358 ], [ 42.34853411415348, 42.456273581298426 ], [ 41.88963105347959, 42.771436128687071 ], [ 42.141188116802823, 43.220827967331132 ], [ 42.863817925211016, 43.350934201314807 ] ] ] ] } },
{ "type": "Feature", "properties": { "geogrid_id": "843084637041426039", "seqnum": 20879.0, "lat_c": 43.084636697457455, "lon_c": 41.426039058006609, "res": 8.0, "count_Mammals": 25, "count_Flowering Plants": 406, "count_Amphibians": 8, "count_Mosses": 5, "count_Arachnids": 17, "count_Ferns": 19, "count_Birds": 132, "count_Basidiomycota": 0, "count_Sac Fungi": 13, "count_Gymnosperms": 3, "count_Insects": 127, "count_Molluscs": 13, "count_Reptiles": 7, "unique_species_count": 775.0, "countryCode": "GE" }, "geometry": { "type": "MultiPolygon", "coordinates": [ [ [ [ 41.676551386464155, 43.534309955450034 ], [ 42.141188116802823, 43.220827967331132 ], [ 41.88963105347959, 42.771436128687071 ], [ 41.184979733190076, 42.631961802234045 ], [ 40.717736149750444, 42.942897516986363 ], [ 40.957655313156984, 43.395848618491421 ], [ 41.676551386464155, 43.534309955450034 ] ] ] ] } },
{ "type": "Feature", "properties": { "geogrid_id": "843251795040245736", "seqnum": 20798.0, "lat_c": 43.251795470478179, "lon_c": 40.245736453034638, "res": 8.0, "count_Mammals": 26, "count_Flowering Plants": 513, "count_Amphibians": 4, "count_Mosses": 5, "count_Arachnids": 19, "count_Ferns": 20, "count_Birds": 210, "count_Basidiomycota": 11, "count_Sac Fungi": 30, "count_Gymnosperms": 10, "count_Insects": 303, "count_Molluscs": 12, "count_Reptiles": 10, "unique_species_count": 1173.0, "countryCode": "GE" }, "geometry": { "type": "MultiPolygon", "coordinates": [ [ [ [ 40.48437834060401, 43.705043384415205 ], [ 40.957655313156984, 43.395848618491421 ], [ 40.717736149750444, 42.942897516986363 ], [ 40.015759156321344, 42.796034106964768 ], [ 39.540281389534641, 43.102572197279713 ], [ 39.76888020525935, 43.558626552203975 ], [ 40.48437834060401, 43.705043384415205 ] ] ] ] } },
{ "type": "Feature", "properties": { "geogrid_id": "843845829041206984", "seqnum": 20880.0, "lat_c": 43.845828847901124, "lon_c": 41.206983762429296, "res": 8.0, "count_Mammals": 3, "count_Flowering Plants": 0, "count_Amphibians": 0, "count_Mosses": 0, "count_Arachnids": 0, "count_Ferns": 0, "count_Birds": 1, "count_Basidiomycota": 0, "count_Sac Fungi": 0, "count_Gymnosperms": 0, "count_Insects": 0, "count_Molluscs": 0, "count_Reptiles": 0, "unique_species_count": 4.0, "countryCode": "GE" }, "geometry": { "type": "MultiPolygon", "coordinates": [ [ [ [ 41.466496748406364, 44.292334119848128 ], [ 41.937307250325802, 43.980458550083405 ], [ 41.676551386464155, 43.534309955450034 ], [ 40.957655313156984, 43.395848618491421 ], [ 40.48437834060401, 43.705043384415205 ], [ 40.732384204263141, 44.155354582925611 ], [ 41.466496748406364, 44.292334119848128 ] ] ] ] } }
]
}
