{
"type": "FeatureCollection",
"name": "GH",
"crs": { "type": "name", "properties": { "name": "urn:ogc:def:crs:OGC:1.3:CRS84" } },
"features": [
{ "type": "Feature", "properties": { "geogrid_id": "5201583952001173698", "seqnum": 15094.0, "lat_c": 1.583951741946785, "lon_c": -1.173698247305764, "res": 8.0, "count_Flowering Plants": 1, "count_Amphibians": 0, "count_Arachnids": 0, "count_Mammals": 0, "count_Basidiomycota": 0, "count_Ferns": 0, "count_Reptiles": 0, "count_Birds": 0, "count_Insects": 0, "count_Molluscs": 0, "count_Sac Fungi": 0, "count_Mosses": 0, "unique_species_count": 1.0, "countryCode": "GH" }, "geometry": { "type": "MultiPolygon", "coordinates": [ [ [ [ -0.780798700683887, 1.846523715655925 ], [ -0.772291050632323, 1.318877202875234 ], [ -1.165395382521853, 1.055898739296091 ], [ -1.566344158011129, 1.320979252533792 ], [ -1.574862909205597, 1.849579055181025 ], [ -1.182438738852392, 2.112143644587112 ], [ -0.780798700683887, 1.846523715655925 ] ] ] ] } },
{ "type": "Feature", "properties": { "geogrid_id": "5201586604001967033", "seqnum": 15012.0, "lat_c": 1.5866044307532809, "lon_c": -1.96703305810658, "res": 8.0, "count_Flowering Plants": 0, "count_Amphibians": 0, "count_Arachnids": 0, "count_Mammals": 0, "count_Basidiomycota": 0, "count_Ferns": 0, "count_Reptiles": 0, "count_Birds": 1, "count_Insects": 0, "count_Molluscs": 0, "count_Sac Fungi": 0, "count_Mosses": 0, "unique_species_count": 1.0, "countryCode": "GH" }, "geometry": { "type": "MultiPolygon", "coordinates": [ [ [ [ -1.574862909205597, 1.849579055181025 ], [ -1.566344158011129, 1.320979252533792 ], [ -1.958763164903097, 1.057602639508316 ], [ -2.358976135675212, 1.323216577760304 ], [ -2.367400798010828, 1.852830835386139 ], [ -1.975723231500605, 2.115816730150756 ], [ -1.574862909205597, 1.849579055181025 ] ] ] ] } },
{ "type": "Feature", "properties": { "geogrid_id": "5201589422002758852", "seqnum": 14930.0, "lat_c": 1.5894223907885989, "lon_c": -2.7588518666948221, "res": 8.0, "count_Flowering Plants": 0, "count_Amphibians": 0, "count_Arachnids": 0, "count_Mammals": 0, "count_Basidiomycota": 0, "count_Ferns": 0, "count_Reptiles": 0, "count_Birds": 1, "count_Insects": 0, "count_Molluscs": 0, "count_Sac Fungi": 0, "count_Mosses": 0, "unique_species_count": 1.0, "countryCode": "GH" }, "geometry": { "type": "MultiPolygon", "coordinates": [ [ [ [ -2.367400798010828, 1.852830835386139 ], [ -2.358976135675212, 1.323216577760304 ], [ -2.750719098672867, 1.059412797767288 ], [ -3.150103555036925, 1.325589114840362 ], [ -3.158323109849312, 1.856278929543913 ], [ -2.76737942324046, 2.119718421939984 ], [ -2.367400798010828, 1.852830835386139 ] ] ] ] } },
{ "type": "Feature", "properties": { "geogrid_id": "5202374302000789734", "seqnum": 15095.0, "lat_c": 2.374301923521605, "lon_c": -0.78973360207579102, "res": 8.0, "count_Flowering Plants": 1, "count_Amphibians": 0, "count_Arachnids": 0, "count_Mammals": 0, "count_Basidiomycota": 0, "count_Ferns": 0, "count_Reptiles": 0, "count_Birds": 0, "count_Insects": 0, "count_Molluscs": 0, "count_Sac Fungi": 0, "count_Mosses": 0, "unique_species_count": 1.0, "countryCode": "GH" }, "geometry": { "type": "MultiPolygon", "coordinates": [ [ [ [ -0.396720558976563, 2.636058186786971 ], [ -0.387618818368555, 2.108699329334067 ], [ -0.780798700683887, 1.846523715655925 ], [ -1.182438738852392, 2.112143644587112 ], [ -1.191580047090987, 2.640532418397993 ], [ -0.799060095808859, 2.902269305866201 ], [ -0.396720558976563, 2.636058186786971 ] ] ] ] } },
{ "type": "Feature", "properties": { "geogrid_id": "5202392197003955747", "seqnum": 14767.0, "lat_c": 2.3921973105130192, "lon_c": -3.9557472617814722, "res": 8.0, "count_Flowering Plants": 0, "count_Amphibians": 0, "count_Arachnids": 0, "count_Mammals": 1, "count_Basidiomycota": 0, "count_Ferns": 0, "count_Reptiles": 0, "count_Birds": 0, "count_Insects": 0, "count_Molluscs": 0, "count_Sac Fungi": 0, "count_Mosses": 0, "unique_species_count": 1.0, "countryCode": "GH" }, "geometry": { "type": "MultiPolygon", "coordinates": [ [ [ [ -3.565860681934606, 2.655735231315766 ], [ -3.557315560895335, 2.123848545791221 ], [ -3.947541663697857, 1.859923203366568 ], [ -4.345441067272604, 2.128206917494186 ], [ -4.35352794846489, 2.661395246370842 ], [ -3.964188645847082, 2.925003332754392 ], [ -3.565860681934606, 2.655735231315766 ] ] ] ] } },
{ "type": "Feature", "properties": { "geogrid_id": "5203175135001994180", "seqnum": 14932.0, "lat_c": 3.1751347218172721, "lon_c": -1.994180361114047, "res": 8.0, "count_Flowering Plants": 0, "count_Amphibians": 0, "count_Arachnids": 0, "count_Mammals": 3, "count_Basidiomycota": 0, "count_Ferns": 0, "count_Reptiles": 0, "count_Birds": 0, "count_Insects": 0, "count_Molluscs": 0, "count_Sac Fungi": 0, "count_Mosses": 0, "unique_species_count": 3.0, "countryCode": "GH" }, "geometry": { "type": "MultiPolygon", "coordinates": [ [ [ [ -1.602701743383477, 3.43686286346997 ], [ -1.593088220030209, 2.907454227465874 ], [ -1.984789281963075, 2.645303520451912 ], [ -2.385353559174459, 2.912971776749066 ], [ -2.394770171563815, 3.443645490878913 ], [ -2.003837947165419, 3.705387057165536 ], [ -1.602701743383477, 3.43686286346997 ] ] ] ] } },
{ "type": "Feature", "properties": { "geogrid_id": "5203951863000022938", "seqnum": 15097.0, "lat_c": 3.9518628038707861, "lon_c": -0.022937921358444999, "res": 8.0, "count_Flowering Plants": 0, "count_Amphibians": 0, "count_Arachnids": 0, "count_Mammals": 0, "count_Basidiomycota": 0, "count_Ferns": 0, "count_Reptiles": 0, "count_Birds": 1, "count_Insects": 0, "count_Molluscs": 0, "count_Sac Fungi": 0, "count_Mosses": 0, "unique_species_count": 1.0, "countryCode": "GH" }, "geometry": { "type": "MultiPolygon", "coordinates": [ [ [ [ 0.370573751964675, 4.211940725470502 ], [ 0.380619701623038, 3.685051191773655 ], [ -0.012987459958759, 3.424523292333828 ], [ -0.416032380054143, 3.691380739419321 ], [ -0.426156817114327, 4.219475014432635 ], [ -0.033179508401076, 4.479503643219704 ], [ 0.370573751964675, 4.211940725470502 ] ] ] ] } },
{ "type": "Feature", "properties": { "geogrid_id": "5203966685001612575", "seqnum": 14933.0, "lat_c": 3.9666852459981081, "lon_c": -1.6125752164849241, "res": 8.0, "count_Flowering Plants": 0, "count_Amphibians": 0, "count_Arachnids": 0, "count_Mammals": 1, "count_Basidiomycota": 0, "count_Ferns": 0, "count_Reptiles": 0, "count_Birds": 1, "count_Insects": 0, "count_Molluscs": 0, "count_Sac Fungi": 0, "count_Mosses": 0, "unique_species_count": 2.0, "countryCode": "GH" }, "geometry": { "type": "MultiPolygon", "coordinates": [ [ [ [ -1.220954123708178, 4.227543406675101 ], [ -1.210890094914212, 3.698159555975791 ], [ -1.602701743383477, 3.43686286346997 ], [ -2.003837947165419, 3.705387057165536 ], [ -2.013694354128086, 4.236145068433906 ], [ -1.62264208325717, 4.49700579912175 ], [ -1.220954123708178, 4.227543406675101 ] ] ] ] } },
{ "type": "Feature", "properties": { "geogrid_id": "5203974832002404392", "seqnum": 14851.0, "lat_c": 3.9748315847184039, "lon_c": -2.404391685704157, "res": 8.0, "count_Flowering Plants": 0, "count_Amphibians": 0, "count_Arachnids": 0, "count_Mammals": 2, "count_Basidiomycota": 0, "count_Ferns": 0, "count_Reptiles": 0, "count_Birds": 1, "count_Insects": 0, "count_Molluscs": 0, "count_Sac Fungi": 0, "count_Mosses": 0, "unique_species_count": 3.0, "countryCode": "GH" }, "geometry": { "type": "MultiPolygon", "coordinates": [ [ [ [ -2.013694354128086, 4.236145068433906 ], [ -2.003837947165419, 3.705387057165536 ], [ -2.394770171563815, 3.443645490878913 ], [ -2.794762031192958, 3.713062620966571 ], [ -2.804255523286953, 4.245279112437311 ], [ -2.414138443215665, 4.506623526561542 ], [ -2.013694354128086, 4.236145068433906 ] ] ] ] } },
{ "type": "Feature", "properties": { "geogrid_id": "5203983467003194050", "seqnum": 14769.0, "lat_c": 3.983466992695456, "lon_c": -3.194050139085487, "res": 8.0, "count_Flowering Plants": 0, "count_Amphibians": 0, "count_Arachnids": 0, "count_Mammals": 8, "count_Basidiomycota": 0, "count_Ferns": 0, "count_Reptiles": 1, "count_Birds": 7, "count_Insects": 0, "count_Molluscs": 0, "count_Sac Fungi": 0, "count_Mosses": 0, "unique_species_count": 16.0, "countryCode": "GH" }, "geometry": { "type": "MultiPolygon", "coordinates": [ [ [ [ -2.804255523286953, 4.245279112437311 ], [ -2.794762031192958, 3.713062620966571 ], [ -3.18483320313029, 3.450835983246743 ], [ -3.583550115257765, 3.721185587842426 ], [ -3.592517569524398, 4.254944598300087 ], [ -3.203310534244949, 4.516817600981782 ], [ -2.804255523286953, 4.245279112437311 ] ] ] ] } },
{ "type": "Feature", "properties": { "geogrid_id": "5204747956000436525", "seqnum": 15016.0, "lat_c": 4.7479561445702414, "lon_c": -0.43652480063482801, "res": 8.0, "count_Flowering Plants": 0, "count_Amphibians": 0, "count_Arachnids": 0, "count_Mammals": 1, "count_Basidiomycota": 0, "count_Ferns": 0, "count_Reptiles": 0, "count_Birds": 0, "count_Insects": 0, "count_Molluscs": 1, "count_Sac Fungi": 0, "count_Mosses": 0, "unique_species_count": 2.0, "countryCode": "GH" }, "geometry": { "type": "MultiPolygon", "coordinates": [ [ [ [ -0.043660210657064, 5.007520685443766 ], [ -0.033179508401076, 4.479503643219704 ], [ -0.426156817114327, 4.219475014432635 ], [ -0.828946688857044, 4.487965498869277 ], [ -0.839360138655042, 5.017382851946 ], [ -0.447073754554017, 5.276907726413481 ], [ -0.043660210657064, 5.007520685443766 ] ] ] ] } },
{ "type": "Feature", "properties": { "geogrid_id": "5204757417001231207", "seqnum": 14934.0, "lat_c": 4.7574170822574944, "lon_c": -1.231206767635562, "res": 8.0, "count_Flowering Plants": 51, "count_Amphibians": 4, "count_Arachnids": 4, "count_Mammals": 9, "count_Basidiomycota": 0, "count_Ferns": 0, "count_Reptiles": 11, "count_Birds": 168, "count_Insects": 82, "count_Molluscs": 9, "count_Sac Fungi": 0, "count_Mosses": 0, "unique_species_count": 338.0, "countryCode": "GH" }, "geometry": { "type": "MultiPolygon", "coordinates": [ [ [ [ -0.839360138655042, 5.017382851946 ], [ -0.828946688857044, 4.487965498869277 ], [ -1.220954123708178, 4.227543406675101 ], [ -1.62264208325717, 4.49700579912175 ], [ -1.632824768840999, 5.027918101381856 ], [ -1.241571658562964, 5.28787410146286 ], [ -0.839360138655042, 5.017382851946 ] ] ] ] } },
{ "type": "Feature", "properties": { "geogrid_id": "5204767502002023671", "seqnum": 14852.0, "lat_c": 4.7675023149656219, "lon_c": -2.0236709125995449, "res": 8.0, "count_Flowering Plants": 34, "count_Amphibians": 2, "count_Arachnids": 2, "count_Mammals": 4, "count_Basidiomycota": 0, "count_Ferns": 1, "count_Reptiles": 8, "count_Birds": 151, "count_Insects": 44, "count_Molluscs": 38, "count_Sac Fungi": 0, "count_Mosses": 0, "unique_species_count": 284.0, "countryCode": "GH" }, "geometry": { "type": "MultiPolygon", "coordinates": [ [ [ [ -1.632824768840999, 5.027918101381856 ], [ -1.62264208325717, 4.49700579912175 ], [ -2.013694354128086, 4.236145068433906 ], [ -2.414138443215665, 4.506623526561542 ], [ -2.423917666575229, 5.039125034957165 ], [ -2.033675737430102, 5.29956279270129 ], [ -1.632824768840999, 5.027918101381856 ] ] ] ] } },
{ "type": "Feature", "properties": { "geogrid_id": "5204778211002813787", "seqnum": 14770.0, "lat_c": 4.7782106098749066, "lon_c": -2.8137865500990791, "res": 8.0, "count_Flowering Plants": 11, "count_Amphibians": 9, "count_Arachnids": 5, "count_Mammals": 8, "count_Basidiomycota": 0, "count_Ferns": 0, "count_Reptiles": 10, "count_Birds": 197, "count_Insects": 21, "count_Molluscs": 0, "count_Sac Fungi": 0, "count_Mosses": 0, "unique_species_count": 261.0, "countryCode": "GH" }, "geometry": { "type": "MultiPolygon", "coordinates": [ [ [ [ -2.423917666575229, 5.039125034957165 ], [ -2.414138443215665, 4.506623526561542 ], [ -2.804255523286953, 4.245279112437311 ], [ -3.203310534244949, 4.516817600981782 ], [ -3.212504721580395, 5.051002168259145 ], [ -2.823245925147744, 5.311972121688853 ], [ -2.423917666575229, 5.039125034957165 ] ] ] ] } },
{ "type": "Feature", "properties": { "geogrid_id": "5204789541003601425", "seqnum": 14688.0, "lat_c": 4.7895406609787079, "lon_c": -3.6014252106876228, "res": 8.0, "count_Flowering Plants": 0, "count_Amphibians": 0, "count_Arachnids": 0, "count_Mammals": 0, "count_Basidiomycota": 0, "count_Ferns": 0, "count_Reptiles": 0, "count_Birds": 1, "count_Insects": 0, "count_Molluscs": 0, "count_Sac Fungi": 0, "count_Mosses": 0, "unique_species_count": 1.0, "countryCode": "GH" }, "geometry": { "type": "MultiPolygon", "coordinates": [ [ [ [ -3.212504721580395, 5.051002168259145 ], [ -3.203310534244949, 4.516817600981782 ], [ -3.592517569524398, 4.254944598300087 ], [ -3.990035234535316, 4.52758687990664 ], [ -3.99845425978496, 5.063547932101391 ], [ -3.61014471571516, 5.325100311266352 ], [ -3.212504721580395, 5.051002168259145 ] ] ] ] } },
{ "type": "Feature", "properties": { "geogrid_id": "5205535997000054319", "seqnum": 15017.0, "lat_c": 5.5359970694616623, "lon_c": -0.054318991604381001, "res": 8.0, "count_Flowering Plants": 244, "count_Amphibians": 16, "count_Arachnids": 22, "count_Mammals": 48, "count_Basidiomycota": 1, "count_Ferns": 2, "count_Reptiles": 37, "count_Birds": 273, "count_Insects": 274, "count_Molluscs": 26, "count_Sac Fungi": 4, "count_Mosses": 0, "unique_species_count": 947.0, "countryCode": "GH" }, "geometry": { "type": "MultiPolygon", "coordinates": [ [ [ [ 0.338932963163008, 5.794657058603344 ], [ 0.349675470584745, 5.266665246238908 ], [ -0.043660210657064, 5.007520685443766 ], [ -0.447073754554017, 5.276907726413481 ], [ -0.457730087465177, 5.806422890428377 ], [ -0.065083843129426, 6.065025579764202 ], [ 0.338932963163008, 5.794657058603344 ] ] ] ] } },
{ "type": "Feature", "properties": { "geogrid_id": "5205547374000849883", "seqnum": 14935.0, "lat_c": 5.5473741760748538, "lon_c": -0.84988302357323398, "res": 8.0, "count_Flowering Plants": 55, "count_Amphibians": 1, "count_Arachnids": 2, "count_Mammals": 51, "count_Basidiomycota": 2, "count_Ferns": 0, "count_Reptiles": 9, "count_Birds": 182, "count_Insects": 30, "count_Molluscs": 42, "count_Sac Fungi": 1, "count_Mosses": 0, "unique_species_count": 375.0, "countryCode": "GH" }, "geometry": { "type": "MultiPolygon", "coordinates": [ [ [ [ -0.457730087465177, 5.806422890428377 ], [ -0.447073754554017, 5.276907726413481 ], [ -0.839360138655042, 5.017382851946 ], [ -1.241571658562964, 5.28787410146286 ], [ -1.251959072251868, 5.819018783781895 ], [ -0.860426905426263, 6.07804381969019 ], [ -0.457730087465177, 5.806422890428377 ] ] ] ] } },
{ "type": "Feature", "properties": { "geogrid_id": "5205559526001643032", "seqnum": 14853.0, "lat_c": 5.5595263517738003, "lon_c": -1.643032402966498, "res": 8.0, "count_Flowering Plants": 342, "count_Amphibians": 12, "count_Arachnids": 21, "count_Mammals": 24, "count_Basidiomycota": 1, "count_Ferns": 5, "count_Reptiles": 25, "count_Birds": 304, "count_Insects": 339, "count_Molluscs": 4, "count_Sac Fungi": 0, "count_Mosses": 0, "unique_species_count": 1077.0, "countryCode": "GH" }, "geometry": { "type": "MultiPolygon", "coordinates": [ [ [ [ -1.251959072251868, 5.819018783781895 ], [ -1.241571658562964, 5.28787410146286 ], [ -1.632824768840999, 5.027918101381856 ], [ -2.033675737430102, 5.29956279270129 ], [ -2.043600972446217, 5.832442622331886 ], [ -1.653158000074779, 6.091947118826897 ], [ -1.251959072251868, 5.819018783781895 ] ] ] ] } },
{ "type": "Feature", "properties": { "geogrid_id": "5205572452002433621", "seqnum": 14771.0, "lat_c": 5.5724517077244968, "lon_c": -2.4336207695282619, "res": 8.0, "count_Flowering Plants": 116, "count_Amphibians": 26, "count_Arachnids": 17, "count_Mammals": 46, "count_Basidiomycota": 1, "count_Ferns": 0, "count_Reptiles": 23, "count_Birds": 200, "count_Insects": 329, "count_Molluscs": 3, "count_Sac Fungi": 1, "count_Mosses": 0, "unique_species_count": 762.0, "countryCode": "GH" }, "geometry": { "type": "MultiPolygon", "coordinates": [ [ [ [ -2.043600972446217, 5.832442622331886 ], [ -2.033675737430102, 5.29956279270129 ], [ -2.423917666575229, 5.039125034957165 ], [ -2.823245925147744, 5.311972121688853 ], [ -2.83250559670453, 5.846692157239519 ], [ -2.443120029099393, 6.106732962662158 ], [ -2.043600972446217, 5.832442622331886 ] ] ] ] } },
{ "type": "Feature", "properties": { "geogrid_id": "5205586148003221504", "seqnum": 14689.0, "lat_c": 5.5861482405426326, "lon_c": -3.221504453314207, "res": 8.0, "count_Flowering Plants": 1, "count_Amphibians": 0, "count_Arachnids": 0, "count_Mammals": 0, "count_Basidiomycota": 0, "count_Ferns": 0, "count_Reptiles": 0, "count_Birds": 0, "count_Insects": 0, "count_Molluscs": 0, "count_Sac Fungi": 0, "count_Mosses": 0, "unique_species_count": 1.0, "countryCode": "GH" }, "geometry": { "type": "MultiPolygon", "coordinates": [ [ [ [ -2.83250559670453, 5.846692157239519 ], [ -2.823245925147744, 5.311972121688853 ], [ -3.212504721580395, 5.051002168259145 ], [ -3.61014471571516, 5.325100311266352 ], [ -3.618525719585374, 5.861765008769413 ], [ -3.230159017704205, 6.122398685761834 ], [ -2.83250559670453, 5.846692157239519 ] ] ] ] } },
{ "type": "Feature", "properties": { "geogrid_id": "5206336606000468407", "seqnum": 14936.0, "lat_c": 6.3366059126179186, "lon_c": -0.46840679629438903, "res": 8.0, "count_Flowering Plants": 78, "count_Amphibians": 11, "count_Arachnids": 23, "count_Mammals": 20, "count_Basidiomycota": 1, "count_Ferns": 4, "count_Reptiles": 20, "count_Birds": 277, "count_Insects": 259, "count_Molluscs": 2, "count_Sac Fungi": 0, "count_Mosses": 0, "unique_species_count": 695.0, "countryCode": "GH" }, "geometry": { "type": "MultiPolygon", "coordinates": [ [ [ [ -0.075869355454028, 6.594710307830464 ], [ -0.065083843129426, 6.065025579764202 ], [ -0.457730087465177, 5.806422890428377 ], [ -0.860426905426263, 6.07804381969019 ], [ -0.870887006613004, 6.609508983426713 ], [ -0.47900046444323, 6.867574156148299 ], [ -0.075869355454028, 6.594710307830464 ] ] ] ] } },
{ "type": "Feature", "properties": { "geogrid_id": "5206350968001262263", "seqnum": 14854.0, "lat_c": 6.3509680611721917, "lon_c": -1.2622630454592509, "res": 8.0, "count_Flowering Plants": 114, "count_Amphibians": 23, "count_Arachnids": 10, "count_Mammals": 19, "count_Basidiomycota": 0, "count_Ferns": 1, "count_Reptiles": 32, "count_Birds": 192, "count_Insects": 495, "count_Molluscs": 2, "count_Sac Fungi": 0, "count_Mosses": 0, "unique_species_count": 888.0, "countryCode": "GH" }, "geometry": { "type": "MultiPolygon", "coordinates": [ [ [ [ -0.870887006613004, 6.609508983426713 ], [ -0.860426905426263, 6.07804381969019 ], [ -1.251959072251868, 5.819018783781895 ], [ -1.653158000074779, 6.091947118826897 ], [ -1.663074944322098, 6.625311437494378 ], [ -1.272357768451973, 6.883853657256627 ], [ -0.870887006613004, 6.609508983426713 ] ] ] ] } },
{ "type": "Feature", "properties": { "geogrid_id": "5206366272002053319", "seqnum": 14772.0, "lat_c": 6.3662720666811756, "lon_c": -2.0533193688109921, "res": 8.0, "count_Flowering Plants": 20, "count_Amphibians": 1, "count_Arachnids": 0, "count_Mammals": 12, "count_Basidiomycota": 0, "count_Ferns": 0, "count_Reptiles": 1, "count_Birds": 2, "count_Insects": 20, "count_Molluscs": 0, "count_Sac Fungi": 0, "count_Mosses": 0, "unique_species_count": 56.0, "countryCode": "GH" }, "geometry": { "type": "MultiPolygon", "coordinates": [ [ [ [ -1.663074944322098, 6.625311437494378 ], [ -1.653158000074779, 6.091947118826897 ], [ -2.043600972446217, 5.832442622331886 ], [ -2.443120029099393, 6.106732962662158 ], [ -2.452264441885666, 6.642114360279592 ], [ -2.062680008298512, 6.901197953130446 ], [ -1.663074944322098, 6.625311437494378 ] ] ] ] } },
{ "type": "Feature", "properties": { "geogrid_id": "5206382515002841415", "seqnum": 14690.0, "lat_c": 6.3825149541473607, "lon_c": -2.8414146353996439, "res": 8.0, "count_Flowering Plants": 333, "count_Amphibians": 6, "count_Arachnids": 4, "count_Mammals": 21, "count_Basidiomycota": 0, "count_Ferns": 1, "count_Reptiles": 4, "count_Birds": 40, "count_Insects": 99, "count_Molluscs": 1, "count_Sac Fungi": 0, "count_Mosses": 1, "unique_species_count": 510.0, "countryCode": "GH" }, "geometry": { "type": "MultiPolygon", "coordinates": [ [ [ [ -2.452264441885666, 6.642114360279592 ], [ -2.443120029099393, 6.106732962662158 ], [ -2.83250559670453, 5.846692157239519 ], [ -3.230159017704205, 6.122398685761834 ], [ -3.238290409741479, 6.659914245684194 ], [ -2.849794225180305, 6.91960314785347 ], [ -2.452264441885666, 6.642114360279592 ] ] ] ] } },
{ "type": "Feature", "properties": { "geogrid_id": "5207125169000086574", "seqnum": 14937.0, "lat_c": 7.1251686606705471, "lon_c": -0.086573660720204004, "res": 8.0, "count_Flowering Plants": 4, "count_Amphibians": 0, "count_Arachnids": 0, "count_Mammals": 0, "count_Basidiomycota": 0, "count_Ferns": 0, "count_Reptiles": 2, "count_Birds": 44, "count_Insects": 27, "count_Molluscs": 0, "count_Sac Fungi": 0, "count_Mosses": 0, "unique_species_count": 77.0, "countryCode": "GH" }, "geometry": { "type": "MultiPolygon", "coordinates": [ [ [ [ 0.306423523624146, 7.382298472316451 ], [ 0.317215105714894, 6.852363120859298 ], [ -0.075869355454028, 6.594710307830464 ], [ -0.47900046444323, 6.867574156148299 ], [ -0.48938747471236, 7.399460423237085 ], [ -0.097074560493643, 7.65653380280356 ], [ 0.306423523624146, 7.382298472316451 ] ] ] ] } },
{ "type": "Feature", "properties": { "geogrid_id": "5207141902000881139", "seqnum": 14855.0, "lat_c": 7.1419019843563456, "lon_c": -0.88113851167771795, "res": 8.0, "count_Flowering Plants": 15, "count_Amphibians": 1, "count_Arachnids": 2, "count_Mammals": 1, "count_Basidiomycota": 0, "count_Ferns": 0, "count_Reptiles": 1, "count_Birds": 16, "count_Insects": 6, "count_Molluscs": 3, "count_Sac Fungi": 1, "count_Mosses": 0, "unique_species_count": 46.0, "countryCode": "GH" }, "geometry": { "type": "MultiPolygon", "coordinates": [ [ [ [ -0.48938747471236, 7.399460423237085 ], [ -0.47900046444323, 6.867574156148299 ], [ -0.870887006613004, 6.609508983426713 ], [ -1.272357768451973, 6.883853657256627 ], [ -1.282093039325412, 7.417824722250567 ], [ -0.891031887087876, 7.675373003792877 ], [ -0.48938747471236, 7.399460423237085 ] ] ] ] } },
{ "type": "Feature", "properties": { "geogrid_id": "5207159767001672633", "seqnum": 14773.0, "lat_c": 7.1597673356255722, "lon_c": -1.6726325786513641, "res": 8.0, "count_Flowering Plants": 69, "count_Amphibians": 0, "count_Arachnids": 4, "count_Mammals": 4, "count_Basidiomycota": 31, "count_Ferns": 0, "count_Reptiles": 3, "count_Birds": 117, "count_Insects": 102, "count_Molluscs": 2, "count_Sac Fungi": 0, "count_Mosses": 0, "unique_species_count": 332.0, "countryCode": "GH" }, "geometry": { "type": "MultiPolygon", "coordinates": [ [ [ [ -1.282093039325412, 7.417824722250567 ], [ -1.272357768451973, 6.883853657256627 ], [ -1.663074944322098, 6.625311437494378 ], [ -2.062680008298512, 6.901197953130446 ], [ -2.0715029211536, 7.437386596953272 ], [ -1.681650630180578, 7.69548289391386 ], [ -1.282093039325412, 7.417824722250567 ] ] ] ] } },
{ "type": "Feature", "properties": { "geogrid_id": "5207178760002460875", "seqnum": 14691.0, "lat_c": 7.1787603970794827, "lon_c": -2.4608745306073581, "res": 8.0, "count_Flowering Plants": 342, "count_Amphibians": 0, "count_Arachnids": 0, "count_Mammals": 9, "count_Basidiomycota": 0, "count_Ferns": 0, "count_Reptiles": 2, "count_Birds": 36, "count_Insects": 6, "count_Molluscs": 0, "count_Sac Fungi": 0, "count_Mosses": 0, "unique_species_count": 395.0, "countryCode": "GH" }, "geometry": { "type": "MultiPolygon", "coordinates": [ [ [ [ -2.0715029211536, 7.437386596953272 ], [ -2.062680008298512, 6.901197953130446 ], [ -2.452264441885666, 6.642114360279592 ], [ -2.849794225180305, 6.91960314785347 ], [ -2.857431368009703, 7.458140986450488 ], [ -2.468735789535456, 7.716857881383881 ], [ -2.0715029211536, 7.437386596953272 ] ] ] ] } },
{ "type": "Feature", "properties": { "geogrid_id": "5207198877003245687", "seqnum": 14609.0, "lat_c": 7.1988765985655814, "lon_c": -3.2456872863287098, "res": 8.0, "count_Flowering Plants": 72, "count_Amphibians": 0, "count_Arachnids": 0, "count_Mammals": 0, "count_Basidiomycota": 0, "count_Ferns": 0, "count_Reptiles": 0, "count_Birds": 1, "count_Insects": 1, "count_Molluscs": 0, "count_Sac Fungi": 0, "count_Mosses": 0, "unique_species_count": 74.0, "countryCode": "GH" }, "geometry": { "type": "MultiPolygon", "coordinates": [ [ [ [ -2.857431368009703, 7.458140986450488 ], [ -2.849794225180305, 6.91960314785347 ], [ -3.238290409741479, 6.659914245684194 ], [ -3.633531477992185, 6.939065124337966 ], [ -3.639697327033416, 7.480082546832995 ], [ -3.252097348237434, 7.739492051952658 ], [ -2.857431368009703, 7.458140986450488 ] ] ] ] } },
{ "type": "Feature", "properties": { "geogrid_id": "5207932416000499419", "seqnum": 14856.0, "lat_c": 7.9324158202229658, "lon_c": -0.49941919565985099, "res": 8.0, "count_Flowering Plants": 6, "count_Amphibians": 0, "count_Arachnids": 1, "count_Mammals": 9, "count_Basidiomycota": 0, "count_Ferns": 0, "count_Reptiles": 0, "count_Birds": 3, "count_Insects": 0, "count_Molluscs": 0, "count_Sac Fungi": 0, "count_Mosses": 0, "unique_species_count": 19.0, "countryCode": "GH" }, "geometry": { "type": "MultiPolygon", "coordinates": [ [ [ [ -0.107224580901269, 8.188957642882333 ], [ -0.097074560493643, 7.65653380280356 ], [ -0.48938747471236, 7.399460423237085 ], [ -0.891031887087876, 7.675373003792877 ], [ -0.900386913077282, 8.210093440941778 ], [ -0.508915814179702, 8.46661326860248 ], [ -0.107224580901269, 8.188957642882333 ] ] ] ] } },
{ "type": "Feature", "properties": { "geogrid_id": "5207953051001291288", "seqnum": 14774.0, "lat_c": 7.9530510362906046, "lon_c": -1.2912884937836431, "res": 8.0, "count_Flowering Plants": 84, "count_Amphibians": 0, "count_Arachnids": 1, "count_Mammals": 8, "count_Basidiomycota": 0, "count_Ferns": 4, "count_Reptiles": 0, "count_Birds": 5, "count_Insects": 11, "count_Molluscs": 0, "count_Sac Fungi": 1, "count_Mosses": 15, "unique_species_count": 129.0, "countryCode": "GH" }, "geometry": { "type": "MultiPolygon", "coordinates": [ [ [ [ -0.900386913077282, 8.210093440941778 ], [ -0.891031887087876, 7.675373003792877 ], [ -1.282093039325412, 7.417824722250567 ], [ -1.681650630180578, 7.69548289391386 ], [ -1.689912111769552, 8.232649972054737 ], [ -1.299726223021741, 8.489726925871826 ], [ -0.900386913077282, 8.210093440941778 ] ] ] ] } },
{ "type": "Feature", "properties": { "geogrid_id": "5207975027002079572", "seqnum": 14692.0, "lat_c": 7.975027347425705, "lon_c": -2.0795722636857481, "res": 8.0, "count_Flowering Plants": 379, "count_Amphibians": 0, "count_Arachnids": 7, "count_Mammals": 14, "count_Basidiomycota": 4, "count_Ferns": 4, "count_Reptiles": 8, "count_Birds": 82, "count_Insects": 45, "count_Molluscs": 1, "count_Sac Fungi": 2, "count_Mosses": 0, "unique_species_count": 546.0, "countryCode": "GH" }, "geometry": { "type": "MultiPolygon", "coordinates": [ [ [ [ -1.689912111769552, 8.232649972054737 ], [ -1.681650630180578, 7.69548289391386 ], [ -2.0715029211536, 7.437386596953272 ], [ -2.468735789535456, 7.716857881383881 ], [ -2.475590350939992, 8.256620034074704 ], [ -2.086627603688123, 8.51433691243208 ], [ -1.689912111769552, 8.232649972054737 ] ] ] ] } },
{ "type": "Feature", "properties": { "geogrid_id": "5207998338002864071", "seqnum": 14610.0, "lat_c": 7.9983382211016556, "lon_c": -2.8640709157821491, "res": 8.0, "count_Flowering Plants": 20, "count_Amphibians": 0, "count_Arachnids": 0, "count_Mammals": 0, "count_Basidiomycota": 0, "count_Ferns": 0, "count_Reptiles": 0, "count_Birds": 11, "count_Insects": 0, "count_Molluscs": 0, "count_Sac Fungi": 0, "count_Mosses": 0, "unique_species_count": 31.0, "countryCode": "GH" }, "geometry": { "type": "MultiPolygon", "coordinates": [ [ [ [ -2.475590350939992, 8.256620034074704 ], [ -2.468735789535456, 7.716857881383881 ], [ -2.857431368009703, 7.458140986450488 ], [ -3.252097348237434, 7.739492051952658 ], [ -3.257217670006246, 8.28199601661608 ], [ -2.869405409120311, 8.540434837628 ], [ -2.475590350939992, 8.256620034074704 ] ] ] ] } },
{ "type": "Feature", "properties": { "geogrid_id": "5208722615000116845", "seqnum": 14857.0, "lat_c": 8.7226145092447318, "lon_c": -0.116844605844294, "res": 8.0, "count_Flowering Plants": 5, "count_Amphibians": 0, "count_Arachnids": 0, "count_Mammals": 2, "count_Basidiomycota": 0, "count_Ferns": 0, "count_Reptiles": 0, "count_Birds": 2, "count_Insects": 0, "count_Molluscs": 0, "count_Sac Fungi": 0, "count_Mosses": 0, "unique_species_count": 9.0, "countryCode": "GH" }, "geometry": { "type": "MultiPolygon", "coordinates": [ [ [ [ 0.275857865269183, 8.978102078979163 ], [ 0.285582835259277, 8.445003867340404 ], [ -0.107224580901269, 8.188957642882333 ], [ -0.508915814179702, 8.46661326860248 ], [ -0.517658366245735, 9.002251834482596 ], [ -0.125715606547704, 9.257705702882403 ], [ 0.275857865269183, 8.978102078979163 ] ] ] ] } },
{ "type": "Feature", "properties": { "geogrid_id": "5208746260000908985", "seqnum": 14775.0, "lat_c": 8.7462600302969964, "lon_c": -0.90898501092621498, "res": 8.0, "count_Flowering Plants": 2, "count_Amphibians": 0, "count_Arachnids": 0, "count_Mammals": 0, "count_Basidiomycota": 0, "count_Ferns": 0, "count_Reptiles": 0, "count_Birds": 2, "count_Insects": 0, "count_Molluscs": 0, "count_Sac Fungi": 0, "count_Mosses": 0, "unique_species_count": 4.0, "countryCode": "GH" }, "geometry": { "type": "MultiPolygon", "coordinates": [ [ [ [ -0.517658366245735, 9.002251834482596 ], [ -0.508915814179702, 8.46661326860248 ], [ -0.900386913077282, 8.210093440941778 ], [ -1.299726223021741, 8.489726925871826 ], [ -1.307141250614028, 9.028076080336037 ], [ -0.916559292965453, 9.284099927965611 ], [ -0.517658366245735, 9.002251834482596 ] ] ] ] } },
{ "type": "Feature", "properties": { "geogrid_id": "5208771489001697154", "seqnum": 14693.0, "lat_c": 8.7714887716339511, "lon_c": -1.6971542108547431, "res": 8.0, "count_Flowering Plants": 16, "count_Amphibians": 4, "count_Arachnids": 2, "count_Mammals": 0, "count_Basidiomycota": 0, "count_Ferns": 0, "count_Reptiles": 10, "count_Birds": 87, "count_Insects": 16, "count_Molluscs": 0, "count_Sac Fungi": 0, "count_Mosses": 0, "unique_species_count": 135.0, "countryCode": "GH" }, "geometry": { "type": "MultiPolygon", "coordinates": [ [ [ [ -1.307141250614028, 9.028076080336037 ], [ -1.299726223021741, 8.489726925871826 ], [ -1.689912111769552, 8.232649972054737 ], [ -2.086627603688123, 8.51433691243208 ], [ -2.092352698049992, 9.055564661551287 ], [ -1.703056495301622, 9.312253455990355 ], [ -1.307141250614028, 9.028076080336037 ] ] ] ] } },
{ "type": "Feature", "properties": { "geogrid_id": "5208798291002481126", "seqnum": 14611.0, "lat_c": 8.7982914960928085, "lon_c": -2.4811263067578349, "res": 8.0, "count_Flowering Plants": 7, "count_Amphibians": 0, "count_Arachnids": 0, "count_Mammals": 0, "count_Basidiomycota": 0, "count_Ferns": 0, "count_Reptiles": 3, "count_Birds": 8, "count_Insects": 2, "count_Molluscs": 0, "count_Sac Fungi": 0, "count_Mosses": 0, "unique_species_count": 20.0, "countryCode": "GH" }, "geometry": { "type": "MultiPolygon", "coordinates": [ [ [ [ -2.092352698049992, 9.055564661551287 ], [ -2.086627603688123, 8.51433691243208 ], [ -2.475590350939992, 8.256620034074704 ], [ -2.869405409120311, 8.540434837628 ], [ -2.873062016202244, 9.084706840505174 ], [ -2.484963912061124, 9.342154475978296 ], [ -2.092352698049992, 9.055564661551287 ] ] ] ] } },
{ "type": "Feature", "properties": { "geogrid_id": "5209539562000525378", "seqnum": 14776.0, "lat_c": 9.5395621019007528, "lon_c": -0.52537834580811704, "res": 8.0, "count_Flowering Plants": 89, "count_Amphibians": 0, "count_Arachnids": 20, "count_Mammals": 4, "count_Basidiomycota": 0, "count_Ferns": 0, "count_Reptiles": 2, "count_Birds": 27, "count_Insects": 39, "count_Molluscs": 1, "count_Sac Fungi": 0, "count_Mosses": 0, "unique_species_count": 182.0, "countryCode": "GH" }, "geometry": { "type": "MultiPolygon", "coordinates": [ [ [ [ -0.133567796198787, 9.794465175822394 ], [ -0.125715606547704, 9.257705702882403 ], [ -0.517658366245735, 9.002251834482596 ], [ -0.916559292965453, 9.284099927965611 ], [ -0.922781539574023, 9.823877035184417 ], [ -0.53174402422946, 10.078812886707048 ], [ -0.133567796198787, 9.794465175822394 ] ] ] ] } },
{ "type": "Feature", "properties": { "geogrid_id": "5209568358001313209", "seqnum": 14694.0, "lat_c": 9.5683575113106372, "lon_c": -1.3132091382897919, "res": 8.0, "count_Flowering Plants": 26, "count_Amphibians": 7, "count_Arachnids": 25, "count_Mammals": 10, "count_Basidiomycota": 0, "count_Ferns": 0, "count_Reptiles": 12, "count_Birds": 127, "count_Insects": 36, "count_Molluscs": 1, "count_Sac Fungi": 0, "count_Mosses": 0, "unique_species_count": 244.0, "countryCode": "GH" }, "geometry": { "type": "MultiPolygon", "coordinates": [ [ [ [ -0.922781539574023, 9.823877035184417 ], [ -0.916559292965453, 9.284099927965611 ], [ -1.307141250614028, 9.028076080336037 ], [ -1.703056495301622, 9.312253455990355 ], [ -1.707225507870296, 9.855239112975623 ], [ -1.317529702116379, 10.110872972442879 ], [ -0.922781539574023, 9.823877035184417 ] ] ] ] } },
{ "type": "Feature", "properties": { "geogrid_id": "5209598999002096361", "seqnum": 14612.0, "lat_c": 9.598999165672117, "lon_c": -2.0963609155551599, "res": 8.0, "count_Flowering Plants": 46, "count_Amphibians": 1, "count_Arachnids": 4, "count_Mammals": 30, "count_Basidiomycota": 0, "count_Ferns": 0, "count_Reptiles": 12, "count_Birds": 292, "count_Insects": 77, "count_Molluscs": 0, "count_Sac Fungi": 0, "count_Mosses": 0, "unique_species_count": 462.0, "countryCode": "GH" }, "geometry": { "type": "MultiPolygon", "coordinates": [ [ [ [ -1.707225507870296, 9.855239112975623 ], [ -1.703056495301622, 9.312253455990355 ], [ -2.092352698049992, 9.055564661551287 ], [ -2.484963912061124, 9.342154475978296 ], [ -2.486637602504722, 9.888536337871184 ], [ -2.098176127294228, 10.144976307503551 ], [ -1.707225507870296, 9.855239112975623 ] ] ] ] } },
{ "type": "Feature", "properties": { "geogrid_id": "5209631473002874586", "seqnum": 14530.0, "lat_c": 9.6314733597104372, "lon_c": -2.8745856021797742, "res": 8.0, "count_Flowering Plants": 5, "count_Amphibians": 0, "count_Arachnids": 0, "count_Mammals": 0, "count_Basidiomycota": 0, "count_Ferns": 0, "count_Reptiles": 0, "count_Birds": 14, "count_Insects": 1, "count_Molluscs": 0, "count_Sac Fungi": 0, "count_Mosses": 0, "unique_species_count": 20.0, "countryCode": "GH" }, "geometry": { "type": "MultiPolygon", "coordinates": [ [ [ [ -2.486637602504722, 9.888536337871184 ], [ -2.484963912061124, 9.342154475978296 ], [ -2.873062016202244, 9.084706840505174 ], [ -3.26204646773925, 9.373790535554258 ], [ -3.260765531354393, 9.923752841825152 ], [ -2.873416586211698, 10.18110542755163 ], [ -2.486637602504722, 9.888536337871184 ] ] ] ] } },
{ "type": "Feature", "properties": { "geogrid_id": "5210333167000140066", "seqnum": 14777.0, "lat_c": 10.333166663519075, "lon_c": -0.14006626335118599, "res": 8.0, "count_Flowering Plants": 23, "count_Amphibians": 0, "count_Arachnids": 0, "count_Mammals": 4, "count_Basidiomycota": 0, "count_Ferns": 0, "count_Reptiles": 0, "count_Birds": 2, "count_Insects": 13, "count_Molluscs": 0, "count_Sac Fungi": 0, "count_Mosses": 0, "unique_species_count": 42.0, "countryCode": "GH" }, "geometry": { "type": "MultiPolygon", "coordinates": [ [ [ [ 0.252282799387476, 10.586940802411851 ], [ 0.258903653633104, 10.048812611107794 ], [ -0.133567796198787, 9.794465175822394 ], [ -0.53174402422946, 10.078812886707048 ], [ -0.536342251652272, 10.620319683963087 ], [ -0.144791733222306, 10.874132709666464 ], [ 0.252282799387476, 10.586940802411851 ] ] ] ] } },
{ "type": "Feature", "properties": { "geogrid_id": "5210365900000927245", "seqnum": 14695.0, "lat_c": 10.365899911854372, "lon_c": -0.92724498497476404, "res": 8.0, "count_Flowering Plants": 15, "count_Amphibians": 0, "count_Arachnids": 0, "count_Mammals": 4, "count_Basidiomycota": 0, "count_Ferns": 0, "count_Reptiles": 0, "count_Birds": 84, "count_Insects": 4, "count_Molluscs": 0, "count_Sac Fungi": 0, "count_Mosses": 0, "unique_species_count": 107.0, "countryCode": "GH" }, "geometry": { "type": "MultiPolygon", "coordinates": [ [ [ [ -0.536342251652272, 10.620319683963087 ], [ -0.53174402422946, 10.078812886707048 ], [ -0.922781539574023, 9.823877035184417 ], [ -1.317529702116379, 10.110872972442879 ], [ -1.319605401979298, 10.655976256108577 ], [ -0.929441321470779, 10.910531746670513 ], [ -0.536342251652272, 10.620319683963087 ] ] ] ] } },
{ "type": "Feature", "properties": { "geogrid_id": "5210400790001709174", "seqnum": 14613.0, "lat_c": 10.400790433494794, "lon_c": -1.7091744491674521, "res": 8.0, "count_Flowering Plants": 3, "count_Amphibians": 0, "count_Arachnids": 0, "count_Mammals": 5, "count_Basidiomycota": 0, "count_Ferns": 0, "count_Reptiles": 0, "count_Birds": 16, "count_Insects": 0, "count_Molluscs": 0, "count_Sac Fungi": 0, "count_Mosses": 0, "unique_species_count": 24.0, "countryCode": "GH" }, "geometry": { "type": "MultiPolygon", "coordinates": [ [ [ [ -1.319605401979298, 10.655976256108577 ], [ -1.317529702116379, 10.110872972442879 ], [ -1.707225507870296, 9.855239112975623 ], [ -2.098176127294228, 10.144976307503551 ], [ -2.097207409417205, 10.693889397660344 ], [ -1.708296107244155, 10.94931259391616 ], [ -1.319605401979298, 10.655976256108577 ] ] ] ] } },
{ "type": "Feature", "properties": { "geogrid_id": "5210437819002485572", "seqnum": 14531.0, "lat_c": 10.437819017984234, "lon_c": -2.4855723358952941, "res": 8.0, "count_Flowering Plants": 34, "count_Amphibians": 3, "count_Arachnids": 1, "count_Mammals": 8, "count_Basidiomycota": 0, "count_Ferns": 0, "count_Reptiles": 7, "count_Birds": 53, "count_Insects": 33, "count_Molluscs": 0, "count_Sac Fungi": 0, "count_Mosses": 0, "unique_species_count": 139.0, "countryCode": "GH" }, "geometry": { "type": "MultiPolygon", "coordinates": [ [ [ [ -2.097207409417205, 10.693889397660344 ], [ -2.098176127294228, 10.144976307503551 ], [ -2.486637602504722, 9.888536337871184 ], [ -2.873416586211698, 10.18110542755163 ], [ -2.868861705978336, 10.734036871583243 ], [ -2.48105215610382, 10.990450771446758 ], [ -2.097207409417205, 10.693889397660344 ] ] ] ] } },
{ "type": "Feature", "properties": { "geogrid_id": "5210476965003256168", "seqnum": 14449.0, "lat_c": 10.476965471081401, "lon_c": -3.256168071572874, "res": 8.0, "count_Flowering Plants": 3, "count_Amphibians": 0, "count_Arachnids": 0, "count_Mammals": 0, "count_Basidiomycota": 0, "count_Ferns": 0, "count_Reptiles": 0, "count_Birds": 0, "count_Insects": 9, "count_Molluscs": 0, "count_Sac Fungi": 0, "count_Mosses": 0, "unique_species_count": 12.0, "countryCode": "GH" }, "geometry": { "type": "MultiPolygon", "coordinates": [ [ [ [ -2.868861705978336, 10.734036871583243 ], [ -2.873416586211698, 10.18110542755163 ], [ -3.260765531354393, 9.923752841825152 ], [ -3.642995266350193, 10.219242000097944 ], [ -3.634294793694087, 10.77639537585117 ], [ -3.247419674585461, 11.033920592278143 ], [ -2.868861705978336, 10.734036871583243 ] ] ] ] } },
{ "type": "Feature", "properties": { "geogrid_id": "5211164455000538654", "seqnum": 14696.0, "lat_c": 11.164455372406094, "lon_c": -0.53865397836320095, "res": 8.0, "count_Flowering Plants": 20, "count_Amphibians": 0, "count_Arachnids": 0, "count_Mammals": 1, "count_Basidiomycota": 0, "count_Ferns": 0, "count_Reptiles": 1, "count_Birds": 61, "count_Insects": 4, "count_Molluscs": 0, "count_Sac Fungi": 0, "count_Mosses": 0, "unique_species_count": 87.0, "countryCode": "GH" }, "geometry": { "type": "MultiPolygon", "coordinates": [ [ [ [ -0.147214502715277, 11.417746172161348 ], [ -0.144791733222306, 10.874132709666464 ], [ -0.536342251652272, 10.620319683963087 ], [ -0.929441321470779, 10.910531746670513 ], [ -0.928729631179939, 11.458203003690169 ], [ -0.538020935197368, 11.711663877100998 ], [ -0.147214502715277, 11.417746172161348 ] ] ] ] } },
{ "type": "Feature", "properties": { "geogrid_id": "5211204085001318812", "seqnum": 14614.0, "lat_c": 11.204084916458308, "lon_c": -1.318812351787062, "res": 8.0, "count_Flowering Plants": 12, "count_Amphibians": 0, "count_Arachnids": 0, "count_Mammals": 2, "count_Basidiomycota": 0, "count_Ferns": 0, "count_Reptiles": 6, "count_Birds": 98, "count_Insects": 23, "count_Molluscs": 0, "count_Sac Fungi": 0, "count_Mosses": 0, "unique_species_count": 141.0, "countryCode": "GH" }, "geometry": { "type": "MultiPolygon", "coordinates": [ [ [ [ -0.928729631179939, 11.458203003690169 ], [ -0.929441321470779, 10.910531746670513 ], [ -1.319605401979298, 10.655976256108577 ], [ -1.708296107244155, 10.94931259391616 ], [ -1.70382639256288, 11.501284982666373 ], [ -1.314360980915604, 11.755695145030838 ], [ -0.928729631179939, 11.458203003690169 ] ] ] ] } },
{ "type": "Feature", "properties": { "geogrid_id": "5211246202002092715", "seqnum": 14532.0, "lat_c": 11.246201862461563, "lon_c": -2.0927152043221442, "res": 8.0, "count_Flowering Plants": 1, "count_Amphibians": 0, "count_Arachnids": 0, "count_Mammals": 1, "count_Basidiomycota": 0, "count_Ferns": 0, "count_Reptiles": 0, "count_Birds": 4, "count_Insects": 3, "count_Molluscs": 0, "count_Sac Fungi": 0, "count_Mosses": 0, "unique_species_count": 9.0, "countryCode": "GH" }, "geometry": { "type": "MultiPolygon", "coordinates": [ [ [ [ -1.70382639256288, 11.501284982666373 ], [ -1.708296107244155, 10.94931259391616 ], [ -2.097207409417205, 10.693889397660344 ], [ -2.48105215610382, 10.990450771446758 ], [ -2.472177979745572, 11.546960898245734 ], [ -2.083765551827329, 11.802463240456715 ], [ -1.70382639256288, 11.501284982666373 ] ] ] ] } },
{ "type": "Feature", "properties": { "geogrid_id": "5211290778002860055", "seqnum": 14450.0, "lat_c": 11.290777896329638, "lon_c": -2.8600550283654131, "res": 8.0, "count_Flowering Plants": 6, "count_Amphibians": 0, "count_Arachnids": 0, "count_Mammals": 0, "count_Basidiomycota": 0, "count_Ferns": 0, "count_Reptiles": 0, "count_Birds": 2, "count_Insects": 0, "count_Molluscs": 0, "count_Sac Fungi": 0, "count_Mosses": 0, "unique_species_count": 8.0, "countryCode": "GH" }, "geometry": { "type": "MultiPolygon", "coordinates": [ [ [ [ -2.472177979745572, 11.546960898245734 ], [ -2.48105215610382, 10.990450771446758 ], [ -2.868861705978336, 10.734036871583243 ], [ -3.247419674585461, 11.033920592278143 ], [ -3.233474698658366, 11.595198069561404 ], [ -2.845905395695672, 11.851932085765087 ], [ -2.472177979745572, 11.546960898245734 ] ] ] ] } },
{ "type": "Feature", "properties": { "geogrid_id": "802363634001601309", "seqnum": 15341.0, "lat_c": 2.3636338332545521, "lon_c": 1.601309043045567, "res": 8.0, "count_Flowering Plants": 0, "count_Amphibians": 0, "count_Arachnids": 0, "count_Mammals": 0, "count_Basidiomycota": 0, "count_Ferns": 0, "count_Reptiles": 1, "count_Birds": 0, "count_Insects": 0, "count_Molluscs": 0, "count_Sac Fungi": 0, "count_Mosses": 0, "unique_species_count": 1.0, "countryCode": "GH" }, "geometry": { "type": "MultiPolygon", "coordinates": [ [ [ [ 1.996747685454942, 2.624419183938153 ], [ 2.005109210040404, 2.099740494492089 ], [ 1.609644266961275, 1.83853749461923 ], [ 1.206250563761137, 2.102497615528594 ], [ 1.197545597734148, 2.628001339388833 ], [ 1.592559861484727, 2.888713506803001 ], [ 1.996747685454942, 2.624419183938153 ] ] ] ] } },
{ "type": "Feature", "properties": { "geogrid_id": "802366927000802915", "seqnum": 15259.0, "lat_c": 2.3669272359982561, "lon_c": 0.80291521098378804, "res": 8.0, "count_Flowering Plants": 0, "count_Amphibians": 0, "count_Arachnids": 0, "count_Mammals": 0, "count_Basidiomycota": 0, "count_Ferns": 0, "count_Reptiles": 1, "count_Birds": 0, "count_Insects": 0, "count_Molluscs": 0, "count_Sac Fungi": 0, "count_Mosses": 0, "unique_species_count": 1.0, "countryCode": "GH" }, "geometry": { "type": "MultiPolygon", "coordinates": [ [ [ [ 1.197545597734148, 2.628001339388833 ], [ 1.206250563761137, 2.102497615528594 ], [ 0.811546589363969, 1.841002827635131 ], [ 0.408642594924307, 2.105483938368035 ], [ 0.399688573652874, 2.63188108092803 ], [ 0.793869288489628, 2.892898646499873 ], [ 1.197545597734148, 2.628001339388833 ] ] ] ] } },
{ "type": "Feature", "properties": { "geogrid_id": "802370483000005868", "seqnum": 15177.0, "lat_c": 2.3704833262740901, "lon_c": 0.0058680645503260001, "res": 8.0, "count_Flowering Plants": 1, "count_Amphibians": 0, "count_Arachnids": 0, "count_Mammals": 0, "count_Basidiomycota": 0, "count_Ferns": 0, "count_Reptiles": 0, "count_Birds": 0, "count_Insects": 0, "count_Molluscs": 0, "count_Sac Fungi": 0, "count_Mosses": 0, "unique_species_count": 1.0, "countryCode": "GH" }, "geometry": { "type": "MultiPolygon", "coordinates": [ [ [ [ 0.399688573652874, 2.63188108092803 ], [ 0.408642594924307, 2.105483938368035 ], [ 0.014701547799473, 1.843664935957918 ], [ -0.387618818368555, 2.108699329334067 ], [ -0.396720558976563, 2.636058186786971 ], [ -0.003372676312444, 2.897417342369428 ], [ 0.399688573652874, 2.63188108092803 ] ] ] ] } },
{ "type": "Feature", "properties": { "geogrid_id": "803149072001987984", "seqnum": 15342.0, "lat_c": 3.1490718015836152, "lon_c": 1.9879839970522799, "res": 8.0, "count_Flowering Plants": 0, "count_Amphibians": 0, "count_Arachnids": 0, "count_Mammals": 0, "count_Basidiomycota": 0, "count_Ferns": 0, "count_Reptiles": 1, "count_Birds": 0, "count_Insects": 0, "count_Molluscs": 0, "count_Sac Fungi": 0, "count_Mosses": 0, "unique_species_count": 1.0, "countryCode": "GH" }, "geometry": { "type": "MultiPolygon", "coordinates": [ [ [ [ 2.383843867835932, 3.409085154901342 ], [ 2.392591993619037, 2.884862190767171 ], [ 1.996747685454942, 2.624419183938153 ], [ 1.592559861484727, 2.888713506803001 ], [ 1.583417364574531, 3.413821134260559 ], [ 1.978837555400579, 3.673742050316888 ], [ 2.383843867835932, 3.409085154901342 ] ] ] ] } },
{ "type": "Feature", "properties": { "geogrid_id": "803153543001188437", "seqnum": 15260.0, "lat_c": 3.153542807005326, "lon_c": 1.1884367332790771, "res": 8.0, "count_Flowering Plants": 0, "count_Amphibians": 0, "count_Arachnids": 0, "count_Mammals": 1, "count_Basidiomycota": 0, "count_Ferns": 0, "count_Reptiles": 1, "count_Birds": 0, "count_Insects": 0, "count_Molluscs": 0, "count_Sac Fungi": 0, "count_Mosses": 0, "unique_species_count": 2.0, "countryCode": "GH" }, "geometry": { "type": "MultiPolygon", "coordinates": [ [ [ [ 1.583417364574531, 3.413821134260559 ], [ 1.592559861484727, 2.888713506803001 ], [ 1.197545597734148, 2.628001339388833 ], [ 0.793869288489628, 2.892898646499873 ], [ 0.784435283896161, 3.418967314793269 ], [ 1.178949150986656, 3.67917145935532 ], [ 1.583417364574531, 3.413821134260559 ] ] ] ] } },
{ "type": "Feature", "properties": { "geogrid_id": "803158385000390337", "seqnum": 15178.0, "lat_c": 3.1583849584323911, "lon_c": 0.39033696896681602, "res": 8.0, "count_Flowering Plants": 1, "count_Amphibians": 0, "count_Arachnids": 0, "count_Mammals": 0, "count_Basidiomycota": 0, "count_Ferns": 0, "count_Reptiles": 0, "count_Birds": 0, "count_Insects": 0, "count_Molluscs": 0, "count_Sac Fungi": 0, "count_Mosses": 0, "unique_species_count": 1.0, "countryCode": "GH" }, "geometry": { "type": "MultiPolygon", "coordinates": [ [ [ [ 0.784435283896161, 3.418967314793269 ], [ 0.793869288489628, 2.892898646499873 ], [ 0.399688573652874, 2.63188108092803 ], [ -0.003372676312444, 2.897417342369428 ], [ -0.012987459958759, 3.424523292333828 ], [ 0.380619701623038, 3.685051191773655 ], [ 0.784435283896161, 3.418967314793269 ] ] ] ] } },
{ "type": "Feature", "properties": { "geogrid_id": "803939005001573905", "seqnum": 15261.0, "lat_c": 3.939005270023491, "lon_c": 1.573905416565333, "res": 8.0, "count_Flowering Plants": 1, "count_Amphibians": 0, "count_Arachnids": 0, "count_Mammals": 0, "count_Basidiomycota": 0, "count_Ferns": 0, "count_Reptiles": 1, "count_Birds": 0, "count_Insects": 0, "count_Molluscs": 0, "count_Sac Fungi": 0, "count_Mosses": 0, "unique_species_count": 2.0, "countryCode": "GH" }, "geometry": { "type": "MultiPolygon", "coordinates": [ [ [ [ 1.969330875415411, 4.198477522698126 ], [ 1.978837555400579, 3.673742050316888 ], [ 1.583417364574531, 3.413821134260559 ], [ 1.178949150986656, 3.67917145935532 ], [ 1.169112039895014, 4.204941319673385 ], [ 1.56405177043637, 4.464319018502719 ], [ 1.969330875415411, 4.198477522698126 ] ] ] ] } },
{ "type": "Feature", "properties": { "geogrid_id": "803945188000774644", "seqnum": 15179.0, "lat_c": 3.9451881015338999, "lon_c": 0.77464377585437205, "res": 8.0, "count_Flowering Plants": 1, "count_Amphibians": 0, "count_Arachnids": 0, "count_Mammals": 0, "count_Basidiomycota": 0, "count_Ferns": 0, "count_Reptiles": 0, "count_Birds": 0, "count_Insects": 0, "count_Molluscs": 0, "count_Sac Fungi": 0, "count_Mosses": 0, "unique_species_count": 1.0, "countryCode": "GH" }, "geometry": { "type": "MultiPolygon", "coordinates": [ [ [ [ 1.169112039895014, 4.204941319673385 ], [ 1.178949150986656, 3.67917145935532 ], [ 0.784435283896161, 3.418967314793269 ], [ 0.380619701623038, 3.685051191773655 ], [ 0.370573751964675, 4.211940725470502 ], [ 0.76453029893386, 4.471621186303708 ], [ 1.169112039895014, 4.204941319673385 ] ] ] ] } },
{ "type": "Feature", "properties": { "geogrid_id": "804723330001959490", "seqnum": 15262.0, "lat_c": 4.7233303186583884, "lon_c": 1.959490229252594, "res": 8.0, "count_Flowering Plants": 1, "count_Amphibians": 0, "count_Arachnids": 0, "count_Mammals": 0, "count_Basidiomycota": 0, "count_Ferns": 0, "count_Reptiles": 1, "count_Birds": 0, "count_Insects": 0, "count_Molluscs": 0, "count_Sac Fungi": 0, "count_Mosses": 0, "unique_species_count": 2.0, "countryCode": "GH" }, "geometry": { "type": "MultiPolygon", "coordinates": [ [ [ [ 2.355454644193308, 4.98198537074216 ], [ 2.365252251072309, 4.457597966014325 ], [ 1.969330875415411, 4.198477522698126 ], [ 1.56405177043637, 4.464319018502719 ], [ 1.553888886457115, 4.989820763574254 ], [ 1.949346450477179, 5.248357780681114 ], [ 2.355454644193308, 4.98198537074216 ] ] ] ] } },
{ "type": "Feature", "properties": { "geogrid_id": "804730912001158959", "seqnum": 15180.0, "lat_c": 4.7309117157460596, "lon_c": 1.1589594276938751, "res": 8.0, "count_Flowering Plants": 1, "count_Amphibians": 0, "count_Arachnids": 0, "count_Mammals": 0, "count_Basidiomycota": 0, "count_Ferns": 0, "count_Reptiles": 1, "count_Birds": 0, "count_Insects": 0, "count_Molluscs": 0, "count_Sac Fungi": 0, "count_Mosses": 0, "unique_species_count": 2.0, "countryCode": "GH" }, "geometry": { "type": "MultiPolygon", "coordinates": [ [ [ [ 1.553888886457115, 4.989820763574254 ], [ 1.56405177043637, 4.464319018502719 ], [ 1.169112039895014, 4.204941319673385 ], [ 0.76453029893386, 4.471621186303708 ], [ 0.754136373309003, 4.99833291425135 ], [ 1.148531202628314, 5.257148138893375 ], [ 1.553888886457115, 4.989820763574254 ] ] ] ] } },
{ "type": "Feature", "properties": { "geogrid_id": "804739121000360242", "seqnum": 15098.0, "lat_c": 4.7391206608877763, "lon_c": 0.360242194516318, "res": 8.0, "count_Flowering Plants": 0, "count_Amphibians": 0, "count_Arachnids": 0, "count_Mammals": 0, "count_Basidiomycota": 0, "count_Ferns": 0, "count_Reptiles": 1, "count_Birds": 0, "count_Insects": 0, "count_Molluscs": 0, "count_Sac Fungi": 0, "count_Mosses": 0, "unique_species_count": 1.0, "countryCode": "GH" }, "geometry": { "type": "MultiPolygon", "coordinates": [ [ [ [ 0.754136373309003, 4.99833291425135 ], [ 0.76453029893386, 4.471621186303708 ], [ 0.370573751964675, 4.211940725470502 ], [ -0.033179508401076, 4.479503643219704 ], [ -0.043660210657064, 5.007520685443766 ], [ 0.349675470584745, 5.266665246238908 ], [ 0.754136373309003, 4.99833291425135 ] ] ] ] } },
{ "type": "Feature", "properties": { "geogrid_id": "805515575001543455", "seqnum": 15181.0, "lat_c": 5.515575038594938, "lon_c": 1.5434549431789819, "res": 8.0, "count_Flowering Plants": 0, "count_Amphibians": 0, "count_Arachnids": 3, "count_Mammals": 0, "count_Basidiomycota": 0, "count_Ferns": 0, "count_Reptiles": 1, "count_Birds": 0, "count_Insects": 0, "count_Molluscs": 0, "count_Sac Fungi": 0, "count_Mosses": 0, "unique_species_count": 4.0, "countryCode": "GH" }, "geometry": { "type": "MultiPolygon", "coordinates": [ [ [ [ 1.938935930753446, 5.773623373287516 ], [ 1.949346450477179, 5.248357780681114 ], [ 1.553888886457115, 4.989820763574254 ], [ 1.148531202628314, 5.257148138893375 ], [ 1.137874379136204, 5.783723270609443 ], [ 1.532795094060587, 6.041653569451372 ], [ 1.938935930753446, 5.773623373287516 ] ] ] ] } },
{ "type": "Feature", "properties": { "geogrid_id": "805525397000743511", "seqnum": 15099.0, "lat_c": 5.5253968049588824, "lon_c": 0.74351077560452095, "res": 8.0, "count_Flowering Plants": 25, "count_Amphibians": 1, "count_Arachnids": 2, "count_Mammals": 1, "count_Basidiomycota": 0, "count_Ferns": 0, "count_Reptiles": 2, "count_Birds": 83, "count_Insects": 8, "count_Molluscs": 6, "count_Sac Fungi": 0, "count_Mosses": 0, "unique_species_count": 128.0, "countryCode": "GH" }, "geometry": { "type": "MultiPolygon", "coordinates": [ [ [ [ 1.137874379136204, 5.783723270609443 ], [ 1.148531202628314, 5.257148138893375 ], [ 0.754136373309003, 4.99833291425135 ], [ 0.349675470584745, 5.266665246238908 ], [ 0.338932963163008, 5.794657058603344 ], [ 0.732711117262977, 6.052894760698991 ], [ 1.137874379136204, 5.783723270609443 ] ] ] ] } },
{ "type": "Feature", "properties": { "geogrid_id": "806310718001127045", "seqnum": 15100.0, "lat_c": 6.3107182160299802, "lon_c": 1.12704467556121, "res": 8.0, "count_Flowering Plants": 18, "count_Amphibians": 0, "count_Arachnids": 0, "count_Mammals": 4, "count_Basidiomycota": 0, "count_Ferns": 0, "count_Reptiles": 2, "count_Birds": 24, "count_Insects": 6, "count_Molluscs": 3, "count_Sac Fungi": 0, "count_Mosses": 0, "unique_species_count": 57.0, "countryCode": "GH" }, "geometry": { "type": "MultiPolygon", "coordinates": [ [ [ [ 1.521963039930005, 6.568136531878747 ], [ 1.532795094060587, 6.041653569451372 ], [ 1.137874379136204, 5.783723270609443 ], [ 0.732711117262977, 6.052894760698991 ], [ 0.721805817889073, 6.580918521177075 ], [ 1.116108494437767, 6.838223994081273 ], [ 1.521963039930005, 6.568136531878747 ] ] ] ] } },
{ "type": "Feature", "properties": { "geogrid_id": "806323188000328085", "seqnum": 15018.0, "lat_c": 6.3231884224143986, "lon_c": 0.32808495847916402, "res": 8.0, "count_Flowering Plants": 68, "count_Amphibians": 9, "count_Arachnids": 9, "count_Mammals": 13, "count_Basidiomycota": 0, "count_Ferns": 1, "count_Reptiles": 20, "count_Birds": 149, "count_Insects": 131, "count_Molluscs": 6, "count_Sac Fungi": 0, "count_Mosses": 0, "unique_species_count": 406.0, "countryCode": "GH" }, "geometry": { "type": "MultiPolygon", "coordinates": [ [ [ [ 0.721805817889073, 6.580918521177075 ], [ 0.732711117262977, 6.052894760698991 ], [ 0.338932963163008, 5.794657058603344 ], [ -0.065083843129426, 6.065025579764202 ], [ -0.075869355454028, 6.594710307830464 ], [ 0.317215105714894, 6.852363120859298 ], [ 0.721805817889073, 6.580918521177075 ] ] ] ] } },
{ "type": "Feature", "properties": { "geogrid_id": "807109571000710877", "seqnum": 15019.0, "lat_c": 7.1095714248247051, "lon_c": 0.71087658978631796, "res": 8.0, "count_Flowering Plants": 79, "count_Amphibians": 8, "count_Arachnids": 21, "count_Mammals": 3, "count_Basidiomycota": 3, "count_Ferns": 4, "count_Reptiles": 14, "count_Birds": 77, "count_Insects": 400, "count_Molluscs": 1, "count_Sac Fungi": 0, "count_Mosses": 0, "unique_species_count": 610.0, "countryCode": "GH" }, "geometry": { "type": "MultiPolygon", "coordinates": [ [ [ [ 1.10514542622222, 7.366343348199805 ], [ 1.116108494437767, 6.838223994081273 ], [ 0.721805817889073, 6.580918521177075 ], [ 0.317215105714894, 6.852363120859298 ], [ 0.306423523624146, 7.382298472316451 ], [ 0.700021589490943, 7.638970553777318 ], [ 1.10514542622222, 7.366343348199805 ] ] ] ] } },
{ "type": "Feature", "properties": { "geogrid_id": "807913128000295831", "seqnum": 14938.0, "lat_c": 7.9131278646176622, "lon_c": 0.29583075419378502, "res": 8.0, "count_Flowering Plants": 26, "count_Amphibians": 10, "count_Arachnids": 0, "count_Mammals": 0, "count_Basidiomycota": 0, "count_Ferns": 1, "count_Reptiles": 10, "count_Birds": 3, "count_Insects": 27, "count_Molluscs": 0, "count_Sac Fungi": 0, "count_Mosses": 0, "unique_species_count": 77.0, "countryCode": "GH" }, "geometry": { "type": "MultiPolygon", "coordinates": [ [ [ [ 0.689359447150633, 8.169249362286104 ], [ 0.700021589490943, 7.638970553777318 ], [ 0.306423523624146, 7.382298472316451 ], [ -0.097074560493643, 7.65653380280356 ], [ -0.107224580901269, 8.188957642882333 ], [ 0.285582835259277, 8.445003867340404 ], [ 0.689359447150633, 8.169249362286104 ] ] ] ] } },
{ "type": "Feature", "properties": { "geogrid_id": "808700561000679034", "seqnum": 14939.0, "lat_c": 8.7005609185137214, "lon_c": 0.67903446194062, "res": 8.0, "count_Flowering Plants": 13, "count_Amphibians": 14, "count_Arachnids": 9, "count_Mammals": 1, "count_Basidiomycota": 0, "count_Ferns": 3, "count_Reptiles": 16, "count_Birds": 12, "count_Insects": 7, "count_Molluscs": 0, "count_Sac Fungi": 0, "count_Mosses": 0, "unique_species_count": 75.0, "countryCode": "GH" }, "geometry": { "type": "MultiPolygon", "coordinates": [ [ [ [ 1.073162277152769, 8.955636369916823 ], [ 1.083542978821401, 8.424906173673907 ], [ 0.689359447150633, 8.169249362286104 ], [ 0.285582835259277, 8.445003867340404 ], [ 0.275857865269183, 8.978102078979163 ], [ 0.669223361625742, 9.233081930299202 ], [ 1.073162277152769, 8.955636369916823 ] ] ] ] } },
{ "type": "Feature", "properties": { "geogrid_id": "809512626000266875", "seqnum": 14858.0, "lat_c": 9.5126259151783863, "lon_c": 0.26687457796414998, "res": 8.0, "count_Flowering Plants": 8, "count_Amphibians": 0, "count_Arachnids": 0, "count_Mammals": 0, "count_Basidiomycota": 0, "count_Ferns": 0, "count_Reptiles": 0, "count_Birds": 2, "count_Insects": 4, "count_Molluscs": 0, "count_Sac Fungi": 0, "count_Mosses": 0, "unique_species_count": 14.0, "countryCode": "GH" }, "geometry": { "type": "MultiPolygon", "coordinates": [ [ [ [ 0.66014418246479, 9.767017780583302 ], [ 0.669223361625742, 9.233081930299202 ], [ 0.275857865269183, 8.978102078979163 ], [ -0.125715606547704, 9.257705702882403 ], [ -0.133567796198787, 9.794465175822394 ], [ 0.258903653633104, 10.048812611107794 ], [ 0.66014418246479, 9.767017780583302 ] ] ] ] } },
{ "type": "Feature", "properties": { "geogrid_id": "811127340000247437", "seqnum": 14778.0, "lat_c": 11.127340174711669, "lon_c": 0.24743708469505399, "res": 8.0, "count_Flowering Plants": 2, "count_Amphibians": 0, "count_Arachnids": 0, "count_Mammals": 0, "count_Basidiomycota": 0, "count_Ferns": 0, "count_Reptiles": 0, "count_Birds": 0, "count_Insects": 0, "count_Molluscs": 0, "count_Sac Fungi": 0, "count_Mosses": 0, "unique_species_count": 2.0, "countryCode": "GH" }, "geometry": { "type": "MultiPolygon", "coordinates": [ [ [ [ 0.640375553106607, 11.3799441424968 ], [ 0.645335028905203, 10.840138695842105 ], [ 0.252282799387476, 10.586940802411851 ], [ -0.144791733222306, 10.874132709666464 ], [ -0.147214502715277, 11.417746172161348 ], [ 0.244906701839524, 11.670403845120266 ], [ 0.640375553106607, 11.3799441424968 ] ] ] ] } }
]
}
