{
"type": "FeatureCollection",
"name": "GN",
"crs": { "type": "name", "properties": { "name": "urn:ogc:def:crs:OGC:1.3:CRS84" } },
"features": [
{ "type": "Feature", "properties": { "geogrid_id": "5207342873007873213", "seqnum": 14117.0, "lat_c": 7.3428731791149806, "lon_c": -7.873213163011938, "res": 8.0, "count_Insects": 0, "count_Basidiomycota": 0, "count_Reptiles": 0, "count_Flowering Plants": 0, "count_Amphibians": 0, "count_Mosses": 0, "count_Birds": 0, "count_Mammals": 6, "count_Ferns": 0, "count_Sac Fungi": 0, "count_Arachnids": 0, "count_Molluscs": 0, "unique_species_count": 6.0, "countryCode": "GN" }, "geometry": { "type": "MultiPolygon", "coordinates": [ [ [ [ -7.490104354423754, 7.607391807744118 ], [ -7.495951624484822, 7.052067655796747 ], [ -7.879264072275858, 6.787429502553967 ], [ -8.256123859694801, 7.077771988080528 ], [ -8.246878257287843, 7.636329075894837 ], [ -7.864106856461048, 7.901369867618675 ], [ -7.490104354423754, 7.607391807744118 ] ] ] ] } },
{ "type": "Feature", "properties": { "geogrid_id": "5207370703008629456", "seqnum": 14035.0, "lat_c": 7.370703186017689, "lon_c": -8.6294555071822625, "res": 8.0, "count_Insects": 85, "count_Basidiomycota": 3, "count_Reptiles": 8, "count_Flowering Plants": 243, "count_Amphibians": 4, "count_Mosses": 0, "count_Birds": 134, "count_Mammals": 19, "count_Ferns": 12, "count_Sac Fungi": 0, "count_Arachnids": 16, "count_Molluscs": 2, "unique_species_count": 526.0, "countryCode": "GN" }, "geometry": { "type": "MultiPolygon", "coordinates": [ [ [ [ -8.246878257287843, 7.636329075894837 ], [ -8.256123859694801, 7.077771988080528 ], [ -8.638859781134805, 6.812094148720867 ], [ -9.011861557051374, 7.104498436294846 ], [ -8.998867797936144, 7.666408694896484 ], [ -8.616540734640594, 7.932627135108081 ], [ -8.246878257287843, 7.636329075894837 ] ] ] ] } },
{ "type": "Feature", "properties": { "geogrid_id": "5207399611009381024", "seqnum": 13953.0, "lat_c": 7.3996112686737883, "lon_c": -9.3810242564952731, "res": 8.0, "count_Insects": 0, "count_Basidiomycota": 0, "count_Reptiles": 0, "count_Flowering Plants": 10, "count_Amphibians": 0, "count_Mosses": 0, "count_Birds": 4, "count_Mammals": 0, "count_Ferns": 1, "count_Sac Fungi": 0, "count_Arachnids": 0, "count_Molluscs": 0, "unique_species_count": 15.0, "countryCode": "GN" }, "geometry": { "type": "MultiPolygon", "coordinates": [ [ [ [ -8.998867797936144, 7.666408694896484 ], [ -9.011861557051374, 7.104498436294846 ], [ -9.394119431293625, 6.837721041423643 ], [ -9.763032917129406, 7.132241267184848 ], [ -9.745935030975627, 7.697623282108706 ], [ -9.363931687363433, 7.96508553815447 ], [ -8.998867797936144, 7.666408694896484 ] ] ] ] } },
{ "type": "Feature", "properties": { "geogrid_id": "5208137988009907953", "seqnum": 13872.0, "lat_c": 8.1379880756907514, "lon_c": -9.9079529709111753, "res": 8.0, "count_Insects": 4, "count_Basidiomycota": 0, "count_Reptiles": 0, "count_Flowering Plants": 1, "count_Amphibians": 1, "count_Mosses": 0, "count_Birds": 29, "count_Mammals": 6, "count_Ferns": 0, "count_Sac Fungi": 0, "count_Arachnids": 0, "count_Molluscs": 0, "unique_species_count": 41.0, "countryCode": "GN" }, "geometry": { "type": "MultiPolygon", "coordinates": [ [ [ [ -9.525902893461321, 8.405893780566297 ], [ -9.363931687363433, 7.96508553815447 ], [ -9.745935030975627, 7.697623282108706 ], [ -10.289832251767212, 7.869513606542941 ], [ -10.447708495853693, 8.312678671669651 ], [ -10.06569179517153, 8.581660526359778 ], [ -9.525902893461321, 8.405893780566297 ] ] ] ] } },
{ "type": "Feature", "properties": { "geogrid_id": "5208159338016061382", "seqnum": 13299.0, "lat_c": 8.159338074645559, "lon_c": -16.061381613701556, "res": 8.0, "count_Insects": 0, "count_Basidiomycota": 0, "count_Reptiles": 0, "count_Flowering Plants": 0, "count_Amphibians": 0, "count_Mosses": 0, "count_Birds": 1, "count_Mammals": 1, "count_Ferns": 0, "count_Sac Fungi": 0, "count_Arachnids": 0, "count_Molluscs": 0, "unique_species_count": 2.0, "countryCode": "GN" }, "geometry": { "type": "MultiPolygon", "coordinates": [ [ [ [ -15.679062954582104, 8.438839287531545 ], [ -15.537275237181026, 7.988288859183087 ], [ -15.919335540318396, 7.709453842945686 ], [ -16.443632926838262, 7.879377033005243 ], [ -16.584431222038194, 8.329761172173953 ], [ -16.201912705797497, 8.610397273895908 ], [ -15.679062954582104, 8.438839287531545 ] ] ] ] } },
{ "type": "Feature", "properties": { "geogrid_id": "5208198260008234020", "seqnum": 14036.0, "lat_c": 8.1982601389021657, "lon_c": -8.2340203550896245, "res": 8.0, "count_Insects": 23, "count_Basidiomycota": 0, "count_Reptiles": 1, "count_Flowering Plants": 0, "count_Amphibians": 0, "count_Mosses": 0, "count_Birds": 33, "count_Mammals": 7, "count_Ferns": 0, "count_Sac Fungi": 0, "count_Arachnids": 1, "count_Molluscs": 0, "unique_species_count": 65.0, "countryCode": "GN" }, "geometry": { "type": "MultiPolygon", "coordinates": [ [ [ [ -7.85128403851502, 8.463301214495305 ], [ -7.864106856461048, 7.901369867618675 ], [ -8.246878257287843, 7.636329075894837 ], [ -8.616540734640594, 7.932627135108081 ], [ -8.599380544970085, 8.498273446156112 ], [ -8.216787465904181, 8.763985998402468 ], [ -7.85128403851502, 8.463301214495305 ] ] ] ] } },
{ "type": "Feature", "properties": { "geogrid_id": "5208231971008981754", "seqnum": 13954.0, "lat_c": 8.2319711013974857, "lon_c": -8.9817544218884784, "res": 8.0, "count_Insects": 81, "count_Basidiomycota": 1, "count_Reptiles": 4, "count_Flowering Plants": 93, "count_Amphibians": 2, "count_Mosses": 0, "count_Birds": 125, "count_Mammals": 33, "count_Ferns": 6, "count_Sac Fungi": 0, "count_Arachnids": 0, "count_Molluscs": 0, "unique_species_count": 345.0, "countryCode": "GN" }, "geometry": { "type": "MultiPolygon", "coordinates": [ [ [ [ -8.599380544970085, 8.498273446156112 ], [ -8.616540734640594, 7.932627135108081 ], [ -8.998867797936144, 7.666408694896484 ], [ -9.363931687363433, 7.96508553815447 ], [ -9.525902893461321, 8.405893780566297 ], [ -9.143659036155046, 8.673224286478323 ], [ -8.599380544970085, 8.498273446156112 ] ] ] ] } },
{ "type": "Feature", "properties": { "geogrid_id": "5208266655015155150", "seqnum": 13381.0, "lat_c": 8.2666548035587084, "lon_c": -15.155150304030293, "res": 8.0, "count_Insects": 0, "count_Basidiomycota": 0, "count_Reptiles": 0, "count_Flowering Plants": 0, "count_Amphibians": 0, "count_Mosses": 0, "count_Birds": 0, "count_Mammals": 2, "count_Ferns": 0, "count_Sac Fungi": 0, "count_Arachnids": 0, "count_Molluscs": 3, "unique_species_count": 5.0, "countryCode": "GN" }, "geometry": { "type": "MultiPolygon", "coordinates": [ [ [ [ -14.772933688507079, 8.544546326059145 ], [ -14.62994283302146, 8.094005054402416 ], [ -15.01188432951137, 7.816772749765733 ], [ -15.537275237181026, 7.988288859183087 ], [ -15.679062954582104, 8.438839287531545 ], [ -15.296649385505958, 8.717875383595254 ], [ -14.772933688507079, 8.544546326059145 ] ] ] ] } },
{ "type": "Feature", "properties": { "geogrid_id": "5208370753014247913", "seqnum": 13463.0, "lat_c": 8.3707532940253113, "lon_c": -14.247913050975509, "res": 8.0, "count_Insects": 0, "count_Basidiomycota": 0, "count_Reptiles": 0, "count_Flowering Plants": 0, "count_Amphibians": 0, "count_Mosses": 0, "count_Birds": 0, "count_Mammals": 2, "count_Ferns": 0, "count_Sac Fungi": 0, "count_Arachnids": 0, "count_Molluscs": 0, "unique_species_count": 2.0, "countryCode": "GN" }, "geometry": { "type": "MultiPolygon", "coordinates": [ [ [ [ -13.865768450725099, 8.647012036091576 ], [ -13.721324226895833, 8.196682379895497 ], [ -14.10318248570484, 7.92107343753421 ], [ -14.62994283302146, 8.094005054402416 ], [ -14.772933688507079, 8.544546326059145 ], [ -14.390598309717518, 8.821958077610265 ], [ -13.865768450725099, 8.647012036091576 ] ] ] ] } },
{ "type": "Feature", "properties": { "geogrid_id": "5208758760010601742", "seqnum": 13791.0, "lat_c": 8.7587597908682469, "lon_c": -10.601741788561224, "res": 8.0, "count_Insects": 6, "count_Basidiomycota": 0, "count_Reptiles": 2, "count_Flowering Plants": 1, "count_Amphibians": 0, "count_Mosses": 0, "count_Birds": 88, "count_Mammals": 2, "count_Ferns": 0, "count_Sac Fungi": 1, "count_Arachnids": 0, "count_Molluscs": 0, "unique_species_count": 100.0, "countryCode": "GN" }, "geometry": { "type": "MultiPolygon", "coordinates": [ [ [ [ -10.219487824642677, 9.028302938034727 ], [ -10.06569179517153, 8.581660526359778 ], [ -10.447708495853693, 8.312678671669651 ], [ -10.983797885060465, 8.488661920283363 ], [ -11.134592476210717, 8.936761123140684 ], [ -10.752238376425726, 9.207459034651407 ], [ -10.219487824642677, 9.028302938034727 ] ] ] ] } },
{ "type": "Feature", "properties": { "geogrid_id": "5208850077009683481", "seqnum": 13873.0, "lat_c": 8.8500769575140144, "lon_c": -9.6834805051425885, "res": 8.0, "count_Insects": 10, "count_Basidiomycota": 0, "count_Reptiles": 1, "count_Flowering Plants": 16, "count_Amphibians": 0, "count_Mosses": 0, "count_Birds": 29, "count_Mammals": 13, "count_Ferns": 0, "count_Sac Fungi": 1, "count_Arachnids": 0, "count_Molluscs": 0, "unique_species_count": 70.0, "countryCode": "GN" }, "geometry": { "type": "MultiPolygon", "coordinates": [ [ [ [ -9.301051220518476, 9.117921670052432 ], [ -9.143659036155046, 8.673224286478323 ], [ -9.525902893461321, 8.405893780566297 ], [ -10.06569179517153, 8.581660526359778 ], [ -10.219487824642677, 9.028302938034727 ], [ -9.837011960385224, 9.297285277323093 ], [ -9.301051220518476, 9.117921670052432 ] ] ] ] } },
{ "type": "Feature", "properties": { "geogrid_id": "5208939973008761199", "seqnum": 13955.0, "lat_c": 8.9399731157569651, "lon_c": -8.7611985034334321, "res": 8.0, "count_Insects": 1, "count_Basidiomycota": 0, "count_Reptiles": 0, "count_Flowering Plants": 13, "count_Amphibians": 3, "count_Mosses": 0, "count_Birds": 45, "count_Mammals": 5, "count_Ferns": 0, "count_Sac Fungi": 1, "count_Arachnids": 1, "count_Molluscs": 0, "unique_species_count": 69.0, "countryCode": "GN" }, "geometry": { "type": "MultiPolygon", "coordinates": [ [ [ [ -8.378498482856077, 9.206133745942346 ], [ -8.216787465904181, 8.763985998402468 ], [ -8.599380544970085, 8.498273446156112 ], [ -9.143659036155046, 8.673224286478323 ], [ -9.301051220518476, 9.117921670052432 ], [ -8.918380592094609, 9.385188335564894 ], [ -8.378498482856077, 9.206133745942346 ] ] ] ] } },
{ "type": "Feature", "properties": { "geogrid_id": "5208996441014914113", "seqnum": 13382.0, "lat_c": 8.9964410746050909, "lon_c": -14.914113298723329, "res": 8.0, "count_Insects": 0, "count_Basidiomycota": 0, "count_Reptiles": 0, "count_Flowering Plants": 0, "count_Amphibians": 0, "count_Mosses": 0, "count_Birds": 0, "count_Mammals": 2, "count_Ferns": 0, "count_Sac Fungi": 0, "count_Arachnids": 0, "count_Molluscs": 0, "unique_species_count": 2.0, "countryCode": "GN" }, "geometry": { "type": "MultiPolygon", "coordinates": [ [ [ [ -14.531427027086947, 9.274531070958931 ], [ -14.390598309717518, 8.821958077610265 ], [ -14.772933688507079, 8.544546326059145 ], [ -15.296649385505958, 8.717875383595254 ], [ -15.43655400919679, 9.170295730262374 ], [ -15.053657534702849, 9.449547584760481 ], [ -14.531427027086947, 9.274531070958931 ] ] ] ] } },
{ "type": "Feature", "properties": { "geogrid_id": "5209029102007833953", "seqnum": 14037.0, "lat_c": 9.0291021334824606, "lon_c": -7.8339526893762752, "res": 8.0, "count_Insects": 0, "count_Basidiomycota": 0, "count_Reptiles": 0, "count_Flowering Plants": 0, "count_Amphibians": 0, "count_Mosses": 0, "count_Birds": 1, "count_Mammals": 0, "count_Ferns": 0, "count_Sac Fungi": 0, "count_Arachnids": 0, "count_Molluscs": 0, "unique_species_count": 1.0, "countryCode": "GN" }, "geometry": { "type": "MultiPolygon", "coordinates": [ [ [ [ -7.450853812082777, 9.293615173852931 ], [ -7.468309250349233, 8.727743827100046 ], [ -7.85128403851502, 8.463301214495305 ], [ -8.216787465904181, 8.763985998402468 ], [ -8.378498482856077, 9.206133745942346 ], [ -7.995536240499688, 9.47169960804942 ], [ -7.450853812082777, 9.293615173852931 ] ] ] ] } },
{ "type": "Feature", "properties": { "geogrid_id": "5209098885014008117", "seqnum": 13464.0, "lat_c": 9.0988847092207497, "lon_c": -14.008117043401045, "res": 8.0, "count_Insects": 0, "count_Basidiomycota": 0, "count_Reptiles": 0, "count_Flowering Plants": 0, "count_Amphibians": 0, "count_Mosses": 0, "count_Birds": 0, "count_Mammals": 0, "count_Ferns": 0, "count_Sac Fungi": 0, "count_Arachnids": 0, "count_Molluscs": 1, "unique_species_count": 1.0, "countryCode": "GN" }, "geometry": { "type": "MultiPolygon", "coordinates": [ [ [ [ -13.625462706342844, 9.375320871235964 ], [ -13.483482474627415, 8.922775848107506 ], [ -13.865768450725099, 8.647012036091576 ], [ -14.390598309717518, 8.821958077610265 ], [ -14.531427027086947, 9.274531070958931 ], [ -14.148562827646185, 9.5521400805449 ], [ -13.625462706342844, 9.375320871235964 ] ] ] ] } },
{ "type": "Feature", "properties": { "geogrid_id": "5209198039013101029", "seqnum": 13546.0, "lat_c": 9.1980392971782265, "lon_c": -13.101028525501587, "res": 8.0, "count_Insects": 3, "count_Basidiomycota": 0, "count_Reptiles": 5, "count_Flowering Plants": 6, "count_Amphibians": 1, "count_Mosses": 0, "count_Birds": 78, "count_Mammals": 6, "count_Ferns": 0, "count_Sac Fungi": 0, "count_Arachnids": 0, "count_Molluscs": 0, "unique_species_count": 99.0, "countryCode": "GN" }, "geometry": { "type": "MultiPolygon", "coordinates": [ [ [ [ -12.718379951291594, 9.472796949711137 ], [ -12.574980473461766, 9.02048976521116 ], [ -12.957249201898971, 8.746396086186847 ], [ -13.483482474627415, 8.922775848107506 ], [ -13.625462706342844, 9.375320871235964 ], [ -13.242608039941175, 9.651261212703018 ], [ -12.718379951291594, 9.472796949711137 ] ] ] ] } },
{ "type": "Feature", "properties": { "geogrid_id": "5209477607010369657", "seqnum": 13792.0, "lat_c": 9.4776074130086378, "lon_c": -10.369656811519151, "res": 8.0, "count_Insects": 0, "count_Basidiomycota": 0, "count_Reptiles": 3, "count_Flowering Plants": 3, "count_Amphibians": 0, "count_Mosses": 0, "count_Birds": 34, "count_Mammals": 0, "count_Ferns": 0, "count_Sac Fungi": 4, "count_Arachnids": 0, "count_Molluscs": 0, "unique_species_count": 44.0, "countryCode": "GN" }, "geometry": { "type": "MultiPolygon", "coordinates": [ [ [ [ -9.9868230484087, 9.747200367168944 ], [ -9.837011960385224, 9.297285277323093 ], [ -10.219487824642677, 9.028302938034727 ], [ -10.752238376425726, 9.207459034651407 ], [ -10.899486229896709, 9.658504330512224 ], [ -10.516495315797215, 9.929293246451968 ], [ -9.9868230484087, 9.747200367168944 ] ] ] ] } },
{ "type": "Feature", "properties": { "geogrid_id": "5209565701009454290", "seqnum": 13874.0, "lat_c": 9.5657007028574199, "lon_c": -9.4542901851874763, "res": 8.0, "count_Insects": 0, "count_Basidiomycota": 0, "count_Reptiles": 1, "count_Flowering Plants": 3, "count_Amphibians": 0, "count_Mosses": 0, "count_Birds": 18, "count_Mammals": 0, "count_Ferns": 0, "count_Sac Fungi": 0, "count_Arachnids": 0, "count_Molluscs": 0, "unique_species_count": 22.0, "countryCode": "GN" }, "geometry": { "type": "MultiPolygon", "coordinates": [ [ [ [ -9.07129850058622, 9.833543087477821 ], [ -8.918380592094609, 9.385188335564894 ], [ -9.301051220518476, 9.117921670052432 ], [ -9.837011960385224, 9.297285277323093 ], [ -9.9868230484087, 9.747200367168944 ], [ -9.60371232780256, 10.016231995225167 ], [ -9.07129850058622, 9.833543087477821 ] ] ] ] } },
{ "type": "Feature", "properties": { "geogrid_id": "5209623787015575028", "seqnum": 13301.0, "lat_c": 9.6237873509122771, "lon_c": -15.575028472885981, "res": 8.0, "count_Insects": 0, "count_Basidiomycota": 0, "count_Reptiles": 0, "count_Flowering Plants": 0, "count_Amphibians": 0, "count_Mosses": 0, "count_Birds": 0, "count_Mammals": 1, "count_Ferns": 0, "count_Sac Fungi": 0, "count_Arachnids": 0, "count_Molluscs": 2, "unique_species_count": 3.0, "countryCode": "GN" }, "geometry": { "type": "MultiPolygon", "coordinates": [ [ [ [ -15.191733840360822, 9.903734787567766 ], [ -15.053657534702849, 9.449547584760481 ], [ -15.43655400919679, 9.170295730262374 ], [ -15.958136649760268, 9.34337664025894 ], [ -16.095737777360146, 9.797120774203099 ], [ -15.712229449480347, 10.078231255982844 ], [ -15.191733840360822, 9.903734787567766 ] ] ] ] } },
{ "type": "Feature", "properties": { "geogrid_id": "5209651871008535445", "seqnum": 13956.0, "lat_c": 9.6518705915602663, "lon_c": -8.5354453195316786, "res": 8.0, "count_Insects": 0, "count_Basidiomycota": 0, "count_Reptiles": 0, "count_Flowering Plants": 0, "count_Amphibians": 0, "count_Mosses": 0, "count_Birds": 1, "count_Mammals": 0, "count_Ferns": 0, "count_Sac Fungi": 0, "count_Arachnids": 0, "count_Molluscs": 0, "unique_species_count": 1.0, "countryCode": "GN" }, "geometry": { "type": "MultiPolygon", "coordinates": [ [ [ [ -8.152222143849709, 9.917962040910369 ], [ -7.995536240499688, 9.47169960804942 ], [ -8.378498482856077, 9.206133745942346 ], [ -8.918380592094609, 9.385188335564894 ], [ -9.07129850058622, 9.833543087477821 ], [ -8.68801290943237, 10.100806283150622 ], [ -8.152222143849709, 9.917962040910369 ] ] ] ] } },
{ "type": "Feature", "properties": { "geogrid_id": "5209829263013765493", "seqnum": 13465.0, "lat_c": 9.8292628076651933, "lon_c": -13.765492864367612, "res": 8.0, "count_Insects": 87, "count_Basidiomycota": 0, "count_Reptiles": 11, "count_Flowering Plants": 69, "count_Amphibians": 4, "count_Mosses": 0, "count_Birds": 107, "count_Mammals": 16, "count_Ferns": 0, "count_Sac Fungi": 3, "count_Arachnids": 2, "count_Molluscs": 25, "unique_species_count": 324.0, "countryCode": "GN" }, "geometry": { "type": "MultiPolygon", "coordinates": [ [ [ [ -13.38218918988286, 10.105893952016942 ], [ -13.242608039941175, 9.651261212703018 ], [ -13.625462706342844, 9.375320871235964 ], [ -14.148562827646185, 9.5521400805449 ], [ -14.287288946412652, 10.00663025625918 ], [ -13.903759941915842, 10.284450534638106 ], [ -13.38218918988286, 10.105893952016942 ] ] ] ] } },
{ "type": "Feature", "properties": { "geogrid_id": "5209926700012859526", "seqnum": 13547.0, "lat_c": 9.9267003808473149, "lon_c": -12.859525692829815, "res": 8.0, "count_Insects": 77, "count_Basidiomycota": 7, "count_Reptiles": 36, "count_Flowering Plants": 36, "count_Amphibians": 13, "count_Mosses": 1, "count_Birds": 127, "count_Mammals": 29, "count_Ferns": 0, "count_Sac Fungi": 35, "count_Arachnids": 5, "count_Molluscs": 1, "unique_species_count": 367.0, "countryCode": "GN" }, "geometry": { "type": "MultiPolygon", "coordinates": [ [ [ [ -12.476188202444227, 10.201633020660116 ], [ -12.335510028837868, 9.747043371279501 ], [ -12.718379951291594, 9.472796949711137 ], [ -13.242608039941175, 9.651261212703018 ], [ -13.38218918988286, 10.105893952016942 ], [ -12.998623726153523, 10.382028207722586 ], [ -12.476188202444227, 10.201633020660116 ] ] ] ] } },
{ "type": "Feature", "properties": { "geogrid_id": "5210020773011952392", "seqnum": 13629.0, "lat_c": 10.020773126652797, "lon_c": -11.952391946647877, "res": 8.0, "count_Insects": 14, "count_Basidiomycota": 0, "count_Reptiles": 1, "count_Flowering Plants": 2, "count_Amphibians": 2, "count_Mosses": 0, "count_Birds": 60, "count_Mammals": 2, "count_Ferns": 1, "count_Sac Fungi": 0, "count_Arachnids": 0, "count_Molluscs": 0, "unique_species_count": 82.0, "countryCode": "GN" }, "geometry": { "type": "MultiPolygon", "coordinates": [ [ [ [ -11.568998786542465, 10.293980780000414 ], [ -11.426936981796979, 9.839651553031064 ], [ -11.809850462326814, 9.567123047127478 ], [ -12.335510028837868, 9.747043371279501 ], [ -12.476188202444227, 10.201633020660116 ], [ -12.09256797540689, 10.47605377459559 ], [ -11.568998786542465, 10.293980780000414 ] ] ] ] } },
{ "type": "Feature", "properties": { "geogrid_id": "5210111647011043756", "seqnum": 13711.0, "lat_c": 10.111647235227343, "lon_c": -11.043756265923058, "res": 8.0, "count_Insects": 10, "count_Basidiomycota": 1, "count_Reptiles": 5, "count_Flowering Plants": 14, "count_Amphibians": 4, "count_Mosses": 0, "count_Birds": 96, "count_Mammals": 21, "count_Ferns": 0, "count_Sac Fungi": 1, "count_Arachnids": 0, "count_Molluscs": 0, "unique_species_count": 152.0, "countryCode": "GN" }, "geometry": { "type": "MultiPolygon", "coordinates": [ [ [ [ -10.660282009325645, 10.383104542742471 ], [ -10.516495315797215, 9.929293246451968 ], [ -10.899486229896709, 9.658504330512224 ], [ -11.426936981796979, 9.839651553031064 ], [ -11.568998786542465, 10.293980780000414 ], [ -11.185303504039265, 10.566660895275097 ], [ -10.660282009325645, 10.383104542742471 ] ] ] ] } },
{ "type": "Feature", "properties": { "geogrid_id": "5210199532010133219", "seqnum": 13793.0, "lat_c": 10.19953247687266, "lon_c": -10.133219382037224, "res": 8.0, "count_Insects": 6, "count_Basidiomycota": 0, "count_Reptiles": 4, "count_Flowering Plants": 7, "count_Amphibians": 1, "count_Mosses": 0, "count_Birds": 59, "count_Mammals": 4, "count_Ferns": 0, "count_Sac Fungi": 0, "count_Arachnids": 3, "count_Molluscs": 0, "unique_species_count": 84.0, "countryCode": "GN" }, "geometry": { "type": "MultiPolygon", "coordinates": [ [ [ [ -9.749632810913745, 10.469216312188257 ], [ -9.60371232780256, 10.016231995225167 ], [ -9.9868230484087, 9.747200367168944 ], [ -10.516495315797215, 9.929293246451968 ], [ -10.660282009325645, 10.383104542742471 ], [ -10.276487790771776, 10.654017925208931 ], [ -9.749632810913745, 10.469216312188257 ] ] ] ] } },
{ "type": "Feature", "properties": { "geogrid_id": "5210284696009220300", "seqnum": 13875.0, "lat_c": 10.284696385416604, "lon_c": -9.220299850168745, "res": 8.0, "count_Insects": 1, "count_Basidiomycota": 1, "count_Reptiles": 0, "count_Flowering Plants": 6, "count_Amphibians": 0, "count_Mosses": 0, "count_Birds": 47, "count_Mammals": 9, "count_Ferns": 0, "count_Sac Fungi": 14, "count_Arachnids": 0, "count_Molluscs": 1, "unique_species_count": 79.0, "countryCode": "GN" }, "geometry": { "type": "MultiPolygon", "coordinates": [ [ [ [ -8.836560760642975, 10.552587617484877 ], [ -8.68801290943237, 10.100806283150622 ], [ -9.07129850058622, 9.833543087477821 ], [ -9.60371232780256, 10.016231995225167 ], [ -9.749632810913745, 10.469216312188257 ], [ -9.365709886668013, 10.738339041679925 ], [ -8.836560760642975, 10.552587617484877 ] ] ] ] } },
{ "type": "Feature", "properties": { "geogrid_id": "5210358881015328502", "seqnum": 13302.0, "lat_c": 10.358881457259267, "lon_c": -15.328501769023314, "res": 8.0, "count_Insects": 0, "count_Basidiomycota": 0, "count_Reptiles": 0, "count_Flowering Plants": 0, "count_Amphibians": 0, "count_Mosses": 0, "count_Birds": 1, "count_Mammals": 0, "count_Ferns": 0, "count_Sac Fungi": 0, "count_Arachnids": 0, "count_Molluscs": 1, "unique_species_count": 2.0, "countryCode": "GN" }, "geometry": { "type": "MultiPolygon", "coordinates": [ [ [ [ -14.944525208497037, 10.63906609458105 ], [ -14.808223856756165, 10.183213694923261 ], [ -15.191733840360822, 9.903734787567766 ], [ -15.712229449480347, 10.078231255982844 ], [ -15.848306472351519, 10.533517251454661 ], [ -15.464113490923154, 10.814875468266782 ], [ -14.944525208497037, 10.63906609458105 ] ] ] ] } },
{ "type": "Feature", "properties": { "geogrid_id": "5210367484008304409", "seqnum": 13957.0, "lat_c": 10.367484121688268, "lon_c": -8.3044094043199195, "res": 8.0, "count_Insects": 0, "count_Basidiomycota": 0, "count_Reptiles": 0, "count_Flowering Plants": 0, "count_Amphibians": 0, "count_Mosses": 0, "count_Birds": 0, "count_Mammals": 0, "count_Ferns": 0, "count_Sac Fungi": 0, "count_Arachnids": 0, "count_Molluscs": 1, "unique_species_count": 1.0, "countryCode": "GN" }, "geometry": { "type": "MultiPolygon", "coordinates": [ [ [ [ -7.920463955148736, 10.633570415815418 ], [ -7.768687839532281, 10.183456251511972 ], [ -8.152222143849709, 9.917962040910369 ], [ -8.68801290943237, 10.100806283150622 ], [ -8.836560760642975, 10.552587617484877 ], [ -8.452470132719133, 10.819899764412227 ], [ -7.920463955148736, 10.633570415815418 ] ] ] ] } },
{ "type": "Feature", "properties": { "geogrid_id": "5210462219014424469", "seqnum": 13384.0, "lat_c": 10.462218803662285, "lon_c": -14.42446948678913, "res": 8.0, "count_Insects": 2, "count_Basidiomycota": 0, "count_Reptiles": 6, "count_Flowering Plants": 16, "count_Amphibians": 0, "count_Mosses": 0, "count_Birds": 136, "count_Mammals": 4, "count_Ferns": 1, "count_Sac Fungi": 0, "count_Arachnids": 0, "count_Molluscs": 0, "unique_species_count": 165.0, "countryCode": "GN" }, "geometry": { "type": "MultiPolygon", "coordinates": [ [ [ [ -14.040441534935823, 10.740744828195947 ], [ -13.903759941915842, 10.284450534638106 ], [ -14.287288946412652, 10.00663025625918 ], [ -14.808223856756165, 10.183213694923261 ], [ -14.944525208497037, 10.63906609458105 ], [ -14.560270069498094, 10.918779861613812 ], [ -14.040441534935823, 10.740744828195947 ] ] ] ] } },
{ "type": "Feature", "properties": { "geogrid_id": "5210561783013519963", "seqnum": 13466.0, "lat_c": 10.561783066107973, "lon_c": -13.519962971818089, "res": 8.0, "count_Insects": 0, "count_Basidiomycota": 0, "count_Reptiles": 0, "count_Flowering Plants": 1, "count_Amphibians": 0, "count_Mosses": 0, "count_Birds": 3, "count_Mammals": 0, "count_Ferns": 1, "count_Sac Fungi": 1, "count_Arachnids": 0, "count_Molluscs": 0, "unique_species_count": 6.0, "countryCode": "GN" }, "geometry": { "type": "MultiPolygon", "coordinates": [ [ [ [ -13.135869212255685, 10.838622554560752 ], [ -12.998623726153523, 10.382028207722586 ], [ -13.38218918988286, 10.105893952016942 ], [ -13.903759941915842, 10.284450534638106 ], [ -14.040441534935823, 10.740744828195947 ], [ -13.656110623858554, 11.018786464306716 ], [ -13.135869212255685, 10.838622554560752 ] ] ] ] } },
{ "type": "Feature", "properties": { "geogrid_id": "5210657660012614768", "seqnum": 13548.0, "lat_c": 10.657660262400178, "lon_c": -12.6147682439303, "res": 8.0, "count_Insects": 11, "count_Basidiomycota": 0, "count_Reptiles": 1, "count_Flowering Plants": 18, "count_Amphibians": 1, "count_Mosses": 0, "count_Birds": 95, "count_Mammals": 2, "count_Ferns": 0, "count_Sac Fungi": 0, "count_Arachnids": 1, "count_Molluscs": 0, "unique_species_count": 129.0, "countryCode": "GN" }, "geometry": { "type": "MultiPolygon", "coordinates": [ [ [ [ -12.230594340869347, 10.93278479626159 ], [ -12.09256797540689, 10.47605377459559 ], [ -12.476188202444227, 10.201633020660116 ], [ -12.998623726153523, 10.382028207722586 ], [ -13.135869212255685, 10.838622554560752 ], [ -12.751449648742662, 11.114963690195619 ], [ -12.230594340869347, 10.93278479626159 ] ] ] ] } },
{ "type": "Feature", "properties": { "geogrid_id": "5210749957011708637", "seqnum": 13630.0, "lat_c": 10.74995728237449, "lon_c": -11.708637266592168, "res": 8.0, "count_Insects": 0, "count_Basidiomycota": 0, "count_Reptiles": 0, "count_Flowering Plants": 8, "count_Amphibians": 0, "count_Mosses": 0, "count_Birds": 1, "count_Mammals": 0, "count_Ferns": 0, "count_Sac Fungi": 0, "count_Arachnids": 0, "count_Molluscs": 0, "unique_species_count": 9.0, "countryCode": "GN" }, "geometry": { "type": "MultiPolygon", "coordinates": [ [ [ [ -11.324368156714014, 11.023338180889736 ], [ -11.185303504039265, 10.566660895275097 ], [ -11.568998786542465, 10.293980780000414 ], [ -12.09256797540689, 10.47605377459559 ], [ -12.230594340869347, 10.93278479626159 ], [ -11.84607341815267, 11.207396481223537 ], [ -11.324368156714014, 11.023338180889736 ] ] ] ] } },
{ "type": "Feature", "properties": { "geogrid_id": "5210838808010801279", "seqnum": 13712.0, "lat_c": 10.838808036782215, "lon_c": -10.801278907316709, "res": 8.0, "count_Insects": 2, "count_Basidiomycota": 1, "count_Reptiles": 0, "count_Flowering Plants": 7, "count_Amphibians": 0, "count_Mosses": 0, "count_Birds": 5, "count_Mammals": 1, "count_Ferns": 0, "count_Sac Fungi": 1, "count_Arachnids": 0, "count_Molluscs": 0, "unique_species_count": 17.0, "countryCode": "GN" }, "geometry": { "type": "MultiPolygon", "coordinates": [ [ [ [ -10.41689763458192, 11.11041676994018 ], [ -10.276487790771776, 10.654017925208931 ], [ -10.660282009325645, 10.383104542742471 ], [ -11.185303504039265, 10.566660895275097 ], [ -11.324368156714014, 11.023338180889736 ], [ -10.939732528260212, 11.296191104206956 ], [ -10.41689763458192, 11.11041676994018 ] ] ] ] } },
{ "type": "Feature", "properties": { "geogrid_id": "5210924382009892347", "seqnum": 13794.0, "lat_c": 10.924381834167276, "lon_c": -9.8923470524951629, "res": 8.0, "count_Insects": 7, "count_Basidiomycota": 2, "count_Reptiles": 2, "count_Flowering Plants": 11, "count_Amphibians": 3, "count_Mosses": 0, "count_Birds": 35, "count_Mammals": 1, "count_Ferns": 0, "count_Sac Fungi": 11, "count_Arachnids": 0, "count_Molluscs": 1, "unique_species_count": 73.0, "countryCode": "GN" }, "geometry": { "type": "MultiPolygon", "coordinates": [ [ [ [ -9.507833077836862, 11.194190724659299 ], [ -9.365709886668013, 10.738339041679925 ], [ -9.749632810913745, 10.469216312188257 ], [ -10.276487790771776, 10.654017925208931 ], [ -10.41689763458192, 11.11041676994018 ], [ -10.032132129642234, 11.381481662236315 ], [ -9.507833077836862, 11.194190724659299 ] ] ] ] } },
{ "type": "Feature", "properties": { "geogrid_id": "5211006895008981425", "seqnum": 13876.0, "lat_c": 11.006894955385803, "lon_c": -8.9814247758318047, "res": 8.0, "count_Insects": 9, "count_Basidiomycota": 0, "count_Reptiles": 0, "count_Flowering Plants": 36, "count_Amphibians": 0, "count_Mosses": 0, "count_Birds": 47, "count_Mammals": 0, "count_Ferns": 0, "count_Sac Fungi": 0, "count_Arachnids": 0, "count_Molluscs": 0, "unique_species_count": 92.0, "countryCode": "GN" }, "geometry": { "type": "MultiPolygon", "coordinates": [ [ [ [ -8.596751505876814, 11.274878346382673 ], [ -8.452470132719133, 10.819899764412227 ], [ -8.836560760642975, 10.552587617484877 ], [ -9.365709886668013, 10.738339041679925 ], [ -9.507833077836862, 11.194190724659299 ], [ -9.122918966983876, 11.463439057131534 ], [ -8.596751505876814, 11.274878346382673 ] ] ] ] } },
{ "type": "Feature", "properties": { "geogrid_id": "5211095771015079638", "seqnum": 13303.0, "lat_c": 11.095770616443472, "lon_c": -15.079637591013419, "res": 8.0, "count_Insects": 0, "count_Basidiomycota": 0, "count_Reptiles": 1, "count_Flowering Plants": 0, "count_Amphibians": 0, "count_Mosses": 0, "count_Birds": 6, "count_Mammals": 1, "count_Ferns": 0, "count_Sac Fungi": 0, "count_Arachnids": 0, "count_Molluscs": 0, "unique_species_count": 8.0, "countryCode": "GN" }, "geometry": { "type": "MultiPolygon", "coordinates": [ [ [ [ -14.694848405329502, 11.37619731971739 ], [ -14.560270069498094, 10.918779861613812 ], [ -14.944525208497037, 10.63906609458105 ], [ -15.464113490923154, 10.814875468266782 ], [ -15.598714272849572, 11.271613107963956 ], [ -15.213708760909082, 11.553221860057148 ], [ -14.694848405329502, 11.37619731971739 ] ] ] ] } },
{ "type": "Feature", "properties": { "geogrid_id": "5211198017014175706", "seqnum": 13385.0, "lat_c": 11.198017426053715, "lon_c": -14.175706460942708, "res": 8.0, "count_Insects": 1, "count_Basidiomycota": 0, "count_Reptiles": 10, "count_Flowering Plants": 12, "count_Amphibians": 1, "count_Mosses": 0, "count_Birds": 58, "count_Mammals": 4, "count_Ferns": 0, "count_Sac Fungi": 0, "count_Arachnids": 1, "count_Molluscs": 0, "unique_species_count": 87.0, "countryCode": "GN" }, "geometry": { "type": "MultiPolygon", "coordinates": [ [ [ [ -13.7908042760277, 11.476773426345956 ], [ -13.656110623858554, 11.018786464306716 ], [ -14.040441534935823, 10.740744828195947 ], [ -14.560270069498094, 10.918779861613812 ], [ -14.694848405329502, 11.37619731971739 ], [ -14.309715342497315, 11.656150164044263 ], [ -13.7908042760277, 11.476773426345956 ] ] ] ] } },
{ "type": "Feature", "properties": { "geogrid_id": "5211296338013271447", "seqnum": 13467.0, "lat_c": 11.29633838666615, "lon_c": -13.271447171521602, "res": 8.0, "count_Insects": 0, "count_Basidiomycota": 0, "count_Reptiles": 0, "count_Flowering Plants": 1, "count_Amphibians": 0, "count_Mosses": 0, "count_Birds": 1, "count_Mammals": 0, "count_Ferns": 0, "count_Sac Fungi": 0, "count_Arachnids": 0, "count_Molluscs": 0, "unique_species_count": 2.0, "countryCode": "GN" }, "geometry": { "type": "MultiPolygon", "coordinates": [ [ [ [ -12.886421366856553, 11.573395246193762 ], [ -12.751449648742662, 11.114963690195619 ], [ -13.135869212255685, 10.838622554560752 ], [ -13.656110623858554, 11.018786464306716 ], [ -13.7908042760277, 11.476773426345956 ], [ -13.405533167791219, 11.755042468168428 ], [ -12.886421366856553, 11.573395246193762 ] ] ] ] } },
{ "type": "Feature", "properties": { "geogrid_id": "5211390801012366675", "seqnum": 13549.0, "lat_c": 11.390801147765297, "lon_c": -12.366675052170727, "res": 8.0, "count_Insects": 10, "count_Basidiomycota": 0, "count_Reptiles": 3, "count_Flowering Plants": 27, "count_Amphibians": 6, "count_Mosses": 0, "count_Birds": 70, "count_Mammals": 8, "count_Ferns": 0, "count_Sac Fungi": 0, "count_Arachnids": 0, "count_Molluscs": 0, "unique_species_count": 124.0, "countryCode": "GN" }, "geometry": { "type": "MultiPolygon", "coordinates": [ [ [ [ -11.981515953160896, 11.666129584717455 ], [ -11.84607341815267, 11.207396481223537 ], [ -12.230594340869347, 10.93278479626159 ], [ -12.751449648742662, 11.114963690195619 ], [ -12.886421366856553, 11.573395246193762 ], [ -12.501003143822906, 11.849951667218368 ], [ -11.981515953160896, 11.666129584717455 ] ] ] ] } },
{ "type": "Feature", "properties": { "geogrid_id": "5211481490011461177", "seqnum": 13631.0, "lat_c": 11.481489980012622, "lon_c": -11.461176655441067, "res": 8.0, "count_Insects": 0, "count_Basidiomycota": 0, "count_Reptiles": 2, "count_Flowering Plants": 5, "count_Amphibians": 0, "count_Mosses": 0, "count_Birds": 8, "count_Mammals": 4, "count_Ferns": 0, "count_Sac Fungi": 0, "count_Arachnids": 0, "count_Molluscs": 0, "unique_species_count": 19.0, "countryCode": "GN" }, "geometry": { "type": "MultiPolygon", "coordinates": [ [ [ [ -11.075874983967271, 11.755059945240971 ], [ -10.939732528260212, 11.296191104206956 ], [ -11.324368156714014, 11.023338180889736 ], [ -11.84607341815267, 11.207396481223537 ], [ -11.981515953160896, 11.666129584717455 ], [ -11.595942614583976, 11.940943639195755 ], [ -11.075874983967271, 11.755059945240971 ] ] ] ] } },
{ "type": "Feature", "properties": { "geogrid_id": "5211568511010554702", "seqnum": 13713.0, "lat_c": 11.568510683650009, "lon_c": -10.554702039574506, "res": 8.0, "count_Insects": 0, "count_Basidiomycota": 0, "count_Reptiles": 0, "count_Flowering Plants": 2, "count_Amphibians": 0, "count_Mosses": 0, "count_Birds": 1, "count_Mammals": 0, "count_Ferns": 0, "count_Sac Fungi": 0, "count_Arachnids": 0, "count_Molluscs": 0, "unique_species_count": 3.0, "countryCode": "GN" }, "geometry": { "type": "MultiPolygon", "coordinates": [ [ [ [ -10.169248096862331, 11.840291547957797 ], [ -10.032132129642234, 11.381481662236315 ], [ -10.41689763458192, 11.11041676994018 ], [ -10.939732528260212, 11.296191104206956 ], [ -11.075874983967271, 11.755059945240971 ], [ -10.690139057553157, 12.02810101842342 ], [ -10.169248096862331, 11.840291547957797 ] ] ] ] } },
{ "type": "Feature", "properties": { "geogrid_id": "5211651997009646955", "seqnum": 13795.0, "lat_c": 11.651997284380895, "lon_c": -9.6469546154532182, "res": 8.0, "count_Insects": 6, "count_Basidiomycota": 0, "count_Reptiles": 5, "count_Flowering Plants": 7, "count_Amphibians": 1, "count_Mosses": 0, "count_Birds": 36, "count_Mammals": 1, "count_Ferns": 0, "count_Sac Fungi": 0, "count_Arachnids": 0, "count_Molluscs": 0, "unique_species_count": 56.0, "countryCode": "GN" }, "geometry": { "type": "MultiPolygon", "coordinates": [ [ [ [ -9.261337065384836, 11.92195821165981 ], [ -9.122918966983876, 11.463439057131534 ], [ -9.507833077836862, 11.194190724659299 ], [ -10.032132129642234, 11.381481662236315 ], [ -10.169248096862331, 11.840291547957797 ], [ -9.78334182386641, 12.111528323493845 ], [ -9.261337065384836, 11.92195821165981 ] ] ] ] } },
{ "type": "Feature", "properties": { "geogrid_id": "5211732121008737578", "seqnum": 13877.0, "lat_c": 11.73212129966856, "lon_c": -8.7375776105513374, "res": 8.0, "count_Insects": 1, "count_Basidiomycota": 0, "count_Reptiles": 1, "count_Flowering Plants": 1, "count_Amphibians": 0, "count_Mosses": 0, "count_Birds": 1, "count_Mammals": 3, "count_Ferns": 0, "count_Sac Fungi": 1, "count_Arachnids": 0, "count_Molluscs": 0, "unique_species_count": 8.0, "countryCode": "GN" }, "geometry": { "type": "MultiPolygon", "coordinates": [ [ [ [ -8.351781660716686, 12.00023193057576 ], [ -8.211663941928357, 11.542283513495633 ], [ -8.596751505876814, 11.274878346382673 ], [ -9.122918966983876, 11.463439057131534 ], [ -9.261337065384836, 11.92195821165981 ], [ -8.875251171911325, 12.191359025483276 ], [ -8.351781660716686, 12.00023193057576 ] ] ] ] } },
{ "type": "Feature", "properties": { "geogrid_id": "5211935624013924208", "seqnum": 13386.0, "lat_c": 11.935623693248347, "lon_c": -13.924207562698594, "res": 8.0, "count_Insects": 5, "count_Basidiomycota": 0, "count_Reptiles": 0, "count_Flowering Plants": 0, "count_Amphibians": 0, "count_Mosses": 0, "count_Birds": 2, "count_Mammals": 2, "count_Ferns": 0, "count_Sac Fungi": 0, "count_Arachnids": 0, "count_Molluscs": 0, "unique_species_count": 9.0, "countryCode": "GN" }, "geometry": { "type": "MultiPolygon", "coordinates": [ [ [ [ -13.538293951836085, 12.214612404313677 ], [ -13.405533167791219, 11.755042468168428 ], [ -13.7908042760277, 11.476773426345956 ], [ -14.309715342497315, 11.656150164044263 ], [ -14.442621156906636, 12.115034180461768 ], [ -14.056476198915279, 12.395226630862132 ], [ -13.538293951836085, 12.214612404313677 ] ] ] ] } },
{ "type": "Feature", "properties": { "geogrid_id": "5212032819013019863", "seqnum": 13468.0, "lat_c": 12.032819120634322, "lon_c": -13.019862523129484, "res": 8.0, "count_Insects": 1, "count_Basidiomycota": 0, "count_Reptiles": 0, "count_Flowering Plants": 4, "count_Amphibians": 0, "count_Mosses": 0, "count_Birds": 41, "count_Mammals": 1, "count_Ferns": 0, "count_Sac Fungi": 0, "count_Arachnids": 0, "count_Molluscs": 0, "unique_species_count": 47.0, "countryCode": "GN" }, "geometry": { "type": "MultiPolygon", "coordinates": [ [ [ [ -12.633761435110326, 12.31009791215979 ], [ -12.501003143822906, 11.849951667218368 ], [ -12.886421366856553, 11.573395246193762 ], [ -13.405533167791219, 11.755042468168428 ], [ -13.538293951836085, 12.214612404313677 ], [ -13.151943094080307, 12.493110742260717 ], [ -12.633761435110326, 12.31009791215979 ] ] ] ] } },
{ "type": "Feature", "properties": { "geogrid_id": "5212126002012115162", "seqnum": 13550.0, "lat_c": 12.126002244396332, "lon_c": -12.115162153692424, "res": 8.0, "count_Insects": 1, "count_Basidiomycota": 0, "count_Reptiles": 0, "count_Flowering Plants": 2, "count_Amphibians": 0, "count_Mosses": 0, "count_Birds": 0, "count_Mammals": 0, "count_Ferns": 0, "count_Sac Fungi": 5, "count_Arachnids": 0, "count_Molluscs": 0, "unique_species_count": 8.0, "countryCode": "GN" }, "geometry": { "type": "MultiPolygon", "coordinates": [ [ [ [ -11.728867735366222, 12.401541539332834 ], [ -11.595942614583976, 11.940943639195755 ], [ -11.981515953160896, 11.666129584717455 ], [ -12.501003143822906, 11.849951667218368 ], [ -12.633761435110326, 12.31009791215979 ], [ -12.247198673407047, 12.586873325933777 ], [ -11.728867735366222, 12.401541539332834 ] ] ] ] } },
{ "type": "Feature", "properties": { "geogrid_id": "5212215238011209925", "seqnum": 13632.0, "lat_c": 12.215237927858011, "lon_c": -11.20992500204529, "res": 8.0, "count_Insects": 0, "count_Basidiomycota": 0, "count_Reptiles": 0, "count_Flowering Plants": 1, "count_Amphibians": 0, "count_Mosses": 0, "count_Birds": 0, "count_Mammals": 0, "count_Ferns": 0, "count_Sac Fungi": 0, "count_Arachnids": 0, "count_Molluscs": 0, "unique_species_count": 1.0, "countryCode": "GN" }, "geometry": { "type": "MultiPolygon", "coordinates": [ [ [ [ -10.823432752104596, 12.489007043460298 ], [ -10.690139057553157, 12.02810101842342 ], [ -11.075874983967271, 11.755059945240971 ], [ -11.595942614583976, 11.940943639195755 ], [ -11.728867735366222, 12.401541539332834 ], [ -11.342088883511721, 12.676564076842521 ], [ -10.823432752104596, 12.489007043460298 ] ] ] ] } },
{ "type": "Feature", "properties": { "geogrid_id": "5212300608010303939", "seqnum": 13714.0, "lat_c": 12.300607828900283, "lon_c": -10.303939221307783, "res": 8.0, "count_Insects": 0, "count_Basidiomycota": 0, "count_Reptiles": 0, "count_Flowering Plants": 1, "count_Amphibians": 0, "count_Mosses": 0, "count_Birds": 0, "count_Mammals": 0, "count_Ferns": 0, "count_Sac Fungi": 0, "count_Arachnids": 0, "count_Molluscs": 0, "unique_species_count": 1.0, "countryCode": "GN" }, "geometry": { "type": "MultiPolygon", "coordinates": [ [ [ [ -9.917245477731937, 12.572574992621208 ], [ -9.78334182386641, 12.111528323493845 ], [ -10.169248096862331, 11.840291547957797 ], [ -10.690139057553157, 12.02810101842342 ], [ -10.823432752104596, 12.489007043460298 ], [ -10.436435137974092, 12.762245552145481 ], [ -9.917245477731937, 12.572574992621208 ] ] ] ] } },
{ "type": "Feature", "properties": { "geogrid_id": "5212382216009396954", "seqnum": 13796.0, "lat_c": 12.382215634484135, "lon_c": -9.3969540289246449, "res": 8.0, "count_Insects": 0, "count_Basidiomycota": 0, "count_Reptiles": 0, "count_Flowering Plants": 0, "count_Amphibians": 0, "count_Mosses": 0, "count_Birds": 0, "count_Mammals": 0, "count_Ferns": 0, "count_Sac Fungi": 1, "count_Arachnids": 0, "count_Molluscs": 0, "unique_species_count": 1.0, "countryCode": "GN" }, "geometry": { "type": "MultiPolygon", "coordinates": [ [ [ [ -9.010055169083703, 12.652348103250972 ], [ -8.875251171911325, 12.191359025483276 ], [ -9.261337065384836, 11.92195821165981 ], [ -9.78334182386641, 12.111528323493845 ], [ -9.917245477731937, 12.572574992621208 ], [ -9.530027449919396, 12.843997110735229 ], [ -9.010055169083703, 12.652348103250972 ] ] ] ] } },
{ "type": "Feature", "properties": { "geogrid_id": "5212674936013669888", "seqnum": 13387.0, "lat_c": 12.674935761556176, "lon_c": -13.669888066168939, "res": 8.0, "count_Insects": 4, "count_Basidiomycota": 0, "count_Reptiles": 1, "count_Flowering Plants": 7, "count_Amphibians": 0, "count_Mosses": 0, "count_Birds": 71, "count_Mammals": 5, "count_Ferns": 0, "count_Sac Fungi": 0, "count_Arachnids": 1, "count_Molluscs": 0, "unique_species_count": 89.0, "countryCode": "GN" }, "geometry": { "type": "MultiPolygon", "coordinates": [ [ [ [ -13.282824543214579, 12.95415585212891 ], [ -13.151943094080307, 12.493110742260717 ], [ -13.538293951836085, 12.214612404313677 ], [ -14.056476198915279, 12.395226630862132 ], [ -14.187758522382987, 12.855480460292434 ], [ -13.800466413149746, 13.135909259182446 ], [ -13.282824543214579, 12.95415585212891 ] ] ] ] } },
{ "type": "Feature", "properties": { "geogrid_id": "5212771113012765123", "seqnum": 13469.0, "lat_c": 12.771113094538672, "lon_c": -12.765123242636099, "res": 8.0, "count_Insects": 0, "count_Basidiomycota": 0, "count_Reptiles": 0, "count_Flowering Plants": 8, "count_Amphibians": 0, "count_Mosses": 0, "count_Birds": 1, "count_Mammals": 0, "count_Ferns": 0, "count_Sac Fungi": 0, "count_Arachnids": 0, "count_Molluscs": 0, "unique_species_count": 9.0, "countryCode": "GN" }, "geometry": { "type": "MultiPolygon", "coordinates": [ [ [ [ -12.377802288550118, 13.048613784852423 ], [ -12.247198673407047, 12.586873325933777 ], [ -12.633761435110326, 12.31009791215979 ], [ -13.151943094080307, 12.493110742260717 ], [ -13.282824543214579, 12.95415585212891 ], [ -12.895253048367023, 13.232881105180709 ], [ -12.377802288550118, 13.048613784852423 ] ] ] ] } }
]
}
