{
"type": "FeatureCollection",
"name": "GR",
"crs": { "type": "name", "properties": { "name": "urn:ogc:def:crs:OGC:1.3:CRS84" } },
"features": [
{ "type": "Feature", "properties": { "geogrid_id": "833651700026389567", "seqnum": 15793.0, "lat_c": 33.651700162519965, "lon_c": 26.389567109298234, "res": 8.0, "count_Gymnosperms": 0, "count_Flowering Plants": 0, "count_Molluscs": 0, "count_Birds": 0, "count_Insects": 0, "count_Sac Fungi": 0, "count_Arachnids": 0, "count_Mammals": 1, "count_Reptiles": 0, "count_Basidiomycota": 0, "count_Amphibians": 0, "count_Ferns": 0, "count_Mosses": 0, "unique_species_count": 1.0, "countryCode": "GR" }, "geometry": { "type": "MultiPolygon", "coordinates": [ [ [ [ 26.965488851878771, 33.857907784677977 ], [ 26.873608846942229, 33.387770885045057 ], [ 26.301458094601827, 33.181238151379006 ], [ 25.816542353637271, 33.443194674108398 ], [ 25.902040590656757, 33.913615130658748 ], [ 26.478871649066477, 34.121840090455784 ], [ 26.965488851878771, 33.857907784677977 ] ] ] ] } },
{ "type": "Feature", "properties": { "geogrid_id": "833703073025328122", "seqnum": 15711.0, "lat_c": 33.703073068319114, "lon_c": 25.328122300961432, "res": 8.0, "count_Gymnosperms": 0, "count_Flowering Plants": 0, "count_Molluscs": 0, "count_Birds": 0, "count_Insects": 0, "count_Sac Fungi": 0, "count_Arachnids": 0, "count_Mammals": 1, "count_Reptiles": 1, "count_Basidiomycota": 0, "count_Amphibians": 0, "count_Ferns": 0, "count_Mosses": 0, "unique_species_count": 2.0, "countryCode": "GR" }, "geometry": { "type": "MultiPolygon", "coordinates": [ [ [ [ 25.902040590656757, 33.913615130658748 ], [ 25.816542353637271, 33.443194674108398 ], [ 25.246383584230163, 33.232412691588301 ], [ 24.757083425585328, 33.490232675594605 ], [ 24.836124413230305, 33.960765398535877 ], [ 25.41095580405592, 34.173414101768472 ], [ 25.902040590656757, 33.913615130658748 ] ] ] ] } },
{ "type": "Feature", "properties": { "geogrid_id": "833745791024264184", "seqnum": 15629.0, "lat_c": 33.745791467522309, "lon_c": 24.264184278940355, "res": 8.0, "count_Gymnosperms": 0, "count_Flowering Plants": 0, "count_Molluscs": 0, "count_Birds": 0, "count_Insects": 0, "count_Sac Fungi": 0, "count_Arachnids": 0, "count_Mammals": 0, "count_Reptiles": 1, "count_Basidiomycota": 0, "count_Amphibians": 0, "count_Ferns": 0, "count_Mosses": 0, "unique_species_count": 1.0, "countryCode": "GR" }, "geometry": { "type": "MultiPolygon", "coordinates": [ [ [ [ 24.836124413230305, 33.960765398535877 ], [ 24.757083425585328, 33.490232675594605 ], [ 24.188888747223086, 33.275110464608801 ], [ 23.695097455110272, 33.528505063478519 ], [ 23.76761359128222, 33.998965549532869 ], [ 24.340476012874387, 34.216155906341086 ], [ 24.836124413230305, 33.960765398535877 ] ] ] ] } },
{ "type": "Feature", "properties": { "geogrid_id": "834190824029191277", "seqnum": 15958.0, "lat_c": 34.190823812953212, "lon_c": 29.191277100232579, "res": 8.0, "count_Gymnosperms": 0, "count_Flowering Plants": 0, "count_Molluscs": 0, "count_Birds": 0, "count_Insects": 0, "count_Sac Fungi": 0, "count_Arachnids": 0, "count_Mammals": 1, "count_Reptiles": 0, "count_Basidiomycota": 0, "count_Amphibians": 0, "count_Ferns": 0, "count_Mosses": 0, "unique_species_count": 1.0, "countryCode": "GR" }, "geometry": { "type": "MultiPolygon", "coordinates": [ [ [ [ 29.778087076275252, 34.385685429404575 ], [ 29.668286715821406, 33.917425103393448 ], [ 29.085397067838105, 33.722049152722079 ], [ 28.607448257627745, 33.993574083581116 ], [ 28.710922484916317, 34.462506672843752 ], [ 29.298711234229053, 34.659279477711458 ], [ 29.778087076275252, 34.385685429404575 ] ] ] ] } },
{ "type": "Feature", "properties": { "geogrid_id": "834383722025988714", "seqnum": 15712.0, "lat_c": 34.383722016663384, "lon_c": 25.98871433937288, "res": 8.0, "count_Gymnosperms": 0, "count_Flowering Plants": 0, "count_Molluscs": 0, "count_Birds": 0, "count_Insects": 0, "count_Sac Fungi": 0, "count_Arachnids": 0, "count_Mammals": 2, "count_Reptiles": 1, "count_Basidiomycota": 0, "count_Amphibians": 0, "count_Ferns": 0, "count_Mosses": 0, "unique_species_count": 3.0, "countryCode": "GR" }, "geometry": { "type": "MultiPolygon", "coordinates": [ [ [ [ 26.569433978880177, 34.591671144091293 ], [ 26.478871649066477, 34.121840090455784 ], [ 25.902040590656757, 33.913615130658748 ], [ 25.41095580405592, 34.173414101768472 ], [ 25.494943955329436, 34.643450992001497 ], [ 26.076624553700885, 34.85352946508867 ], [ 26.569433978880177, 34.591671144091293 ] ] ] ] } },
{ "type": "Feature", "properties": { "geogrid_id": "834430988024916240", "seqnum": 15630.0, "lat_c": 34.430988262521382, "lon_c": 24.916239936003155, "res": 8.0, "count_Gymnosperms": 0, "count_Flowering Plants": 1, "count_Molluscs": 2, "count_Birds": 1, "count_Insects": 0, "count_Sac Fungi": 0, "count_Arachnids": 0, "count_Mammals": 1, "count_Reptiles": 1, "count_Basidiomycota": 0, "count_Amphibians": 0, "count_Ferns": 0, "count_Mosses": 0, "unique_species_count": 6.0, "countryCode": "GR" }, "geometry": { "type": "MultiPolygon", "coordinates": [ [ [ [ 25.494943955329436, 34.643450992001497 ], [ 25.41095580405592, 34.173414101768472 ], [ 24.836124413230305, 33.960765398535877 ], [ 24.340476012874387, 34.216155906341086 ], [ 24.417821172369216, 34.686221077430424 ], [ 24.997488341470863, 34.900917402033301 ], [ 25.494943955329436, 34.643450992001497 ] ] ] ] } },
{ "type": "Feature", "properties": { "geogrid_id": "834469120023841106", "seqnum": 15548.0, "lat_c": 34.469120332899628, "lon_c": 23.84110563616154, "res": 8.0, "count_Gymnosperms": 0, "count_Flowering Plants": 6, "count_Molluscs": 0, "count_Birds": 93, "count_Insects": 8, "count_Sac Fungi": 0, "count_Arachnids": 5, "count_Mammals": 0, "count_Reptiles": 5, "count_Basidiomycota": 0, "count_Amphibians": 0, "count_Ferns": 0, "count_Mosses": 0, "unique_species_count": 117.0, "countryCode": "GR" }, "geometry": { "type": "MultiPolygon", "coordinates": [ [ [ [ 24.417821172369216, 34.686221077430424 ], [ 24.340476012874387, 34.216155906341086 ], [ 23.76761359128222, 33.998965549532869 ], [ 23.267300271098581, 34.249622007252583 ], [ 23.337943460933598, 34.719525175485259 ], [ 23.915629076103727, 34.938987636107335 ], [ 24.417821172369216, 34.686221077430424 ] ] ] ] } },
{ "type": "Feature", "properties": { "geogrid_id": "834497618022763175", "seqnum": 15466.0, "lat_c": 34.497617678731764, "lon_c": 22.763175175349115, "res": 8.0, "count_Gymnosperms": 0, "count_Flowering Plants": 0, "count_Molluscs": 0, "count_Birds": 0, "count_Insects": 0, "count_Sac Fungi": 0, "count_Arachnids": 0, "count_Mammals": 1, "count_Reptiles": 0, "count_Basidiomycota": 0, "count_Amphibians": 0, "count_Ferns": 0, "count_Mosses": 0, "unique_species_count": 1.0, "countryCode": "GR" }, "geometry": { "type": "MultiPolygon", "coordinates": [ [ [ [ 23.337943460933598, 34.719525175485259 ], [ 23.267300271098581, 34.249622007252583 ], [ 22.696361139030362, 34.02772863268472 ], [ 22.191277062529636, 34.273260873466171 ], [ 22.255171675977358, 34.742798217025445 ], [ 22.830921802710659, 34.967226871057818 ], [ 23.337943460933598, 34.719525175485259 ] ] ] ] } },
{ "type": "Feature", "properties": { "geogrid_id": "834515855021682294", "seqnum": 15384.0, "lat_c": 34.515855495269491, "lon_c": 21.682294168932362, "res": 8.0, "count_Gymnosperms": 0, "count_Flowering Plants": 0, "count_Molluscs": 0, "count_Birds": 0, "count_Insects": 0, "count_Sac Fungi": 0, "count_Arachnids": 0, "count_Mammals": 0, "count_Reptiles": 1, "count_Basidiomycota": 0, "count_Amphibians": 0, "count_Ferns": 0, "count_Mosses": 0, "unique_species_count": 1.0, "countryCode": "GR" }, "geometry": { "type": "MultiPolygon", "coordinates": [ [ [ [ 22.255171675977358, 34.742798217025445 ], [ 22.191277062529636, 34.273260873466171 ], [ 21.622199049596169, 34.04644420532945 ], [ 21.112235675059331, 34.286378442439783 ], [ 21.169350761139235, 34.755332240470359 ], [ 21.74322631786541, 34.984997056967927 ], [ 22.255171675977358, 34.742798217025445 ] ] ] ] } },
{ "type": "Feature", "properties": { "geogrid_id": "834853627029889529", "seqnum": 19732.0, "lat_c": 34.853626610719914, "lon_c": 29.889529223193396, "res": 8.0, "count_Gymnosperms": 0, "count_Flowering Plants": 0, "count_Molluscs": 0, "count_Birds": 0, "count_Insects": 0, "count_Sac Fungi": 0, "count_Arachnids": 0, "count_Mammals": 2, "count_Reptiles": 0, "count_Basidiomycota": 0, "count_Amphibians": 0, "count_Ferns": 0, "count_Mosses": 0, "unique_species_count": 2.0, "countryCode": "GR" }, "geometry": { "type": "MultiPolygon", "coordinates": [ [ [ [ 30.000553515765954, 35.325310068320732 ], [ 30.479239241184761, 35.053062334476252 ], [ 30.366054060561922, 34.58166934731166 ], [ 29.778087076275252, 34.385685429404575 ], [ 29.298711234229053, 34.659279477711458 ], [ 29.407767418876485, 35.127424846762409 ], [ 30.000553515765954, 35.325310068320732 ] ] ] ] } },
{ "type": "Feature", "properties": { "geogrid_id": "834931129028815931", "seqnum": 15877.0, "lat_c": 34.931128837437235, "lon_c": 28.815930934717901, "res": 8.0, "count_Gymnosperms": 0, "count_Flowering Plants": 0, "count_Molluscs": 0, "count_Birds": 0, "count_Insects": 0, "count_Sac Fungi": 0, "count_Arachnids": 0, "count_Mammals": 1, "count_Reptiles": 0, "count_Basidiomycota": 0, "count_Amphibians": 0, "count_Ferns": 0, "count_Mosses": 0, "unique_species_count": 1.0, "countryCode": "GR" }, "geometry": { "type": "MultiPolygon", "coordinates": [ [ [ [ 29.407767418876485, 35.127424846762409 ], [ 29.298711234229053, 34.659279477711458 ], [ 28.710922484916317, 34.462506672843752 ], [ 28.227149157657017, 34.732396311476847 ], [ 28.329672286762754, 35.201155253519985 ], [ 28.922540687758346, 35.399450078456262 ], [ 29.407767418876485, 35.127424846762409 ] ] ] ] } },
{ "type": "Feature", "properties": { "geogrid_id": "835000411027739883", "seqnum": 15795.0, "lat_c": 35.000410615980357, "lon_c": 27.739883384693162, "res": 8.0, "count_Gymnosperms": 0, "count_Flowering Plants": 0, "count_Molluscs": 0, "count_Birds": 0, "count_Insects": 0, "count_Sac Fungi": 0, "count_Arachnids": 0, "count_Mammals": 1, "count_Reptiles": 0, "count_Basidiomycota": 0, "count_Amphibians": 0, "count_Ferns": 0, "count_Mosses": 0, "unique_species_count": 1.0, "countryCode": "GR" }, "geometry": { "type": "MultiPolygon", "coordinates": [ [ [ [ 28.329672286762754, 35.201155253519985 ], [ 28.227149157657017, 34.732396311476847 ], [ 27.641396800772075, 34.531253952927841 ], [ 27.153146860159794, 34.797241349676199 ], [ 27.249051591983395, 35.266462386039386 ], [ 27.839861460639657, 35.469275755700771 ], [ 28.329672286762754, 35.201155253519985 ] ] ] ] } },
{ "type": "Feature", "properties": { "geogrid_id": "835061206026661316", "seqnum": 15713.0, "lat_c": 35.061206439808288, "lon_c": 26.661316227941246, "res": 8.0, "count_Gymnosperms": 4, "count_Flowering Plants": 348, "count_Molluscs": 54, "count_Birds": 95, "count_Insects": 177, "count_Sac Fungi": 2, "count_Arachnids": 18, "count_Mammals": 7, "count_Reptiles": 11, "count_Basidiomycota": 1, "count_Amphibians": 1, "count_Ferns": 2, "count_Mosses": 1, "unique_species_count": 721.0, "countryCode": "GR" }, "geometry": { "type": "MultiPolygon", "coordinates": [ [ [ [ 27.249051591983395, 35.266462386039386 ], [ 27.153146860159794, 34.797241349676199 ], [ 26.569433978880177, 34.591671144091293 ], [ 26.076624553700885, 34.85352946508867 ], [ 26.165832058680341, 35.323051461172646 ], [ 26.754580574179787, 35.530458959214094 ], [ 27.249051591983395, 35.266462386039386 ] ] ] ] } },
{ "type": "Feature", "properties": { "geogrid_id": "835113199025580146", "seqnum": 15631.0, "lat_c": 35.113198772640288, "lon_c": 25.580146302852032, "res": 8.0, "count_Gymnosperms": 11, "count_Flowering Plants": 1099, "count_Molluscs": 270, "count_Birds": 206, "count_Insects": 900, "count_Sac Fungi": 44, "count_Arachnids": 62, "count_Mammals": 19, "count_Reptiles": 18, "count_Basidiomycota": 18, "count_Amphibians": 3, "count_Ferns": 7, "count_Mosses": 8, "unique_species_count": 2665.0, "countryCode": "GR" }, "geometry": { "type": "MultiPolygon", "coordinates": [ [ [ [ 26.165832058680341, 35.323051461172646 ], [ 26.076624553700885, 34.85352946508867 ], [ 25.494943955329436, 34.643450992001497 ], [ 24.997488341470863, 34.900917402033301 ], [ 25.079927675002089, 35.37056872131015 ], [ 25.66662227454891, 35.582672272975707 ], [ 26.165832058680341, 35.323051461172646 ] ] ] ] } },
{ "type": "Feature", "properties": { "geogrid_id": "835156004024496276", "seqnum": 15549.0, "lat_c": 35.156004013384475, "lon_c": 24.496276489518667, "res": 8.0, "count_Gymnosperms": 12, "count_Flowering Plants": 1284, "count_Molluscs": 241, "count_Birds": 226, "count_Insects": 1107, "count_Sac Fungi": 73, "count_Arachnids": 64, "count_Mammals": 29, "count_Reptiles": 21, "count_Basidiomycota": 31, "count_Amphibians": 4, "count_Ferns": 16, "count_Mosses": 20, "unique_species_count": 3128.0, "countryCode": "GR" }, "geometry": { "type": "MultiPolygon", "coordinates": [ [ [ [ 25.079927675002089, 35.37056872131015 ], [ 24.997488341470863, 34.900917402033301 ], [ 24.417821172369216, 34.686221077430424 ], [ 23.915629076103727, 34.938987636107335 ], [ 23.991238925095008, 35.40858534505599 ], [ 24.575898408442107, 35.625521451719116 ], [ 25.079927675002089, 35.37056872131015 ] ] ] ] } },
{ "type": "Feature", "properties": { "geogrid_id": "835189154023409595", "seqnum": 15467.0, "lat_c": 35.189153938570406, "lon_c": 23.409595024115365, "res": 8.0, "count_Gymnosperms": 7, "count_Flowering Plants": 791, "count_Molluscs": 158, "count_Birds": 123, "count_Insects": 747, "count_Sac Fungi": 34, "count_Arachnids": 44, "count_Mammals": 15, "count_Reptiles": 12, "count_Basidiomycota": 55, "count_Amphibians": 2, "count_Ferns": 11, "count_Mosses": 6, "unique_species_count": 2005.0, "countryCode": "GR" }, "geometry": { "type": "MultiPolygon", "coordinates": [ [ [ [ 23.991238925095008, 35.40858534505599 ], [ 23.915629076103727, 34.938987636107335 ], [ 23.337943460933598, 34.719525175485259 ], [ 22.830921802710659, 34.967226871057818 ], [ 22.8996527116816, 35.436576112264213 ], [ 23.482308153058067, 35.658526981608333 ], [ 23.991238925095008, 35.40858534505599 ] ] ] ] } },
{ "type": "Feature", "properties": { "geogrid_id": "835211209019032070", "seqnum": 15139.0, "lat_c": 35.211209363979656, "lon_c": 19.032069878968368, "res": 8.0, "count_Gymnosperms": 0, "count_Flowering Plants": 0, "count_Molluscs": 0, "count_Birds": 0, "count_Insects": 0, "count_Sac Fungi": 0, "count_Arachnids": 0, "count_Mammals": 0, "count_Reptiles": 1, "count_Basidiomycota": 0, "count_Amphibians": 0, "count_Ferns": 0, "count_Mosses": 0, "unique_species_count": 1.0, "countryCode": "GR" }, "geometry": { "type": "MultiPolygon", "coordinates": [ [ [ [ 19.606215791962239, 35.453018451509521 ], [ 19.558252618185136, 34.985701819404845 ], [ 18.987888207534638, 34.744336724219423 ], [ 18.460661128791184, 34.966297763993232 ], [ 18.501735141342206, 35.432477207112676 ], [ 19.076921745822823, 35.677897846049845 ], [ 19.606215791962239, 35.453018451509521 ] ] ] ] } },
{ "type": "Feature", "properties": { "geogrid_id": "835212071022319976", "seqnum": 15385.0, "lat_c": 35.212070899184653, "lon_c": 22.31997568910284, "res": 8.0, "count_Gymnosperms": 0, "count_Flowering Plants": 0, "count_Molluscs": 0, "count_Birds": 1, "count_Insects": 0, "count_Sac Fungi": 0, "count_Arachnids": 0, "count_Mammals": 0, "count_Reptiles": 1, "count_Basidiomycota": 0, "count_Amphibians": 0, "count_Ferns": 0, "count_Mosses": 0, "unique_species_count": 2.0, "countryCode": "GR" }, "geometry": { "type": "MultiPolygon", "coordinates": [ [ [ [ 22.8996527116816, 35.436576112264213 ], [ 22.830921802710659, 34.967226871057818 ], [ 22.255171675977358, 34.742798217025445 ], [ 21.74322631786541, 34.984997056967927 ], [ 21.805043523890316, 35.453890795764451 ], [ 22.385738733913872, 35.681099553787782 ], [ 22.8996527116816, 35.436576112264213 ] ] ] ] } },
{ "type": "Feature", "properties": { "geogrid_id": "835224034021227280", "seqnum": 15303.0, "lat_c": 35.224034275660337, "lon_c": 21.227279581886894, "res": 8.0, "count_Gymnosperms": 0, "count_Flowering Plants": 0, "count_Molluscs": 0, "count_Birds": 1, "count_Insects": 0, "count_Sac Fungi": 0, "count_Arachnids": 0, "count_Mammals": 0, "count_Reptiles": 1, "count_Basidiomycota": 0, "count_Amphibians": 0, "count_Ferns": 0, "count_Mosses": 0, "unique_species_count": 2.0, "countryCode": "GR" }, "geometry": { "type": "MultiPolygon", "coordinates": [ [ [ [ 21.805043523890316, 35.453890795764451 ], [ 21.74322631786541, 34.984997056967927 ], [ 21.169350761139235, 34.755332240470359 ], [ 20.652389741453465, 34.99149583577168 ], [ 20.707276768717801, 35.459715335027688 ], [ 21.286067853750325, 35.692507068091992 ], [ 21.805043523890316, 35.453890795764451 ] ] ] ] } },
{ "type": "Feature", "properties": { "geogrid_id": "835224135020131360", "seqnum": 15221.0, "lat_c": 35.224134526252342, "lon_c": 20.131359637286327, "res": 8.0, "count_Gymnosperms": 0, "count_Flowering Plants": 0, "count_Molluscs": 0, "count_Birds": 0, "count_Insects": 0, "count_Sac Fungi": 0, "count_Arachnids": 0, "count_Mammals": 1, "count_Reptiles": 1, "count_Basidiomycota": 0, "count_Amphibians": 0, "count_Ferns": 0, "count_Mosses": 0, "unique_species_count": 2.0, "countryCode": "GR" }, "geometry": { "type": "MultiPolygon", "coordinates": [ [ [ [ 20.707276768717801, 35.459715335027688 ], [ 20.652389741453465, 34.99149583577168 ], [ 20.080313396975633, 34.75622947145505 ], [ 19.558252618185136, 34.985701819404845 ], [ 19.606215791962239, 35.453018451509521 ], [ 20.183169021351809, 35.691829693521896 ], [ 20.707276768717801, 35.459715335027688 ] ] ] ] } },
{ "type": "Feature", "properties": { "geogrid_id": "835595269029518514", "seqnum": 19733.0, "lat_c": 35.595268560932482, "lon_c": 29.518514138559482, "res": 8.0, "count_Gymnosperms": 0, "count_Flowering Plants": 0, "count_Molluscs": 0, "count_Birds": 0, "count_Insects": 0, "count_Sac Fungi": 0, "count_Arachnids": 0, "count_Mammals": 4, "count_Reptiles": 0, "count_Basidiomycota": 0, "count_Amphibians": 0, "count_Ferns": 0, "count_Mosses": 0, "unique_species_count": 4.0, "countryCode": "GR" }, "geometry": { "type": "MultiPolygon", "coordinates": [ [ [ [ 29.628616948637035, 36.067350112563929 ], [ 30.112915760597261, 35.797124370207861 ], [ 30.000553515765954, 35.325310068320732 ], [ 29.407767418876485, 35.127424846762409 ], [ 28.922540687758346, 35.399450078456262 ], [ 29.030819364358919, 35.867479807583045 ], [ 29.628616948637035, 36.067350112563929 ] ] ] ] } },
{ "type": "Feature", "properties": { "geogrid_id": "835669623028433775", "seqnum": 15796.0, "lat_c": 35.669623209376795, "lon_c": 28.433774916792306, "res": 8.0, "count_Gymnosperms": 0, "count_Flowering Plants": 0, "count_Molluscs": 0, "count_Birds": 0, "count_Insects": 0, "count_Sac Fungi": 0, "count_Arachnids": 0, "count_Mammals": 2, "count_Reptiles": 1, "count_Basidiomycota": 0, "count_Amphibians": 0, "count_Ferns": 0, "count_Mosses": 0, "unique_species_count": 3.0, "countryCode": "GR" }, "geometry": { "type": "MultiPolygon", "coordinates": [ [ [ [ 29.030819364358919, 35.867479807583045 ], [ 28.922540687758346, 35.399450078456262 ], [ 28.329672286762754, 35.201155253519985 ], [ 27.839861460639657, 35.469275755700771 ], [ 27.941396135097428, 35.937860453483246 ], [ 28.539523726313703, 36.137810351879594 ], [ 29.030819364358919, 35.867479807583045 ] ] ] ] } },
{ "type": "Feature", "properties": { "geogrid_id": "835735402027346425", "seqnum": 15714.0, "lat_c": 35.735402321587337, "lon_c": 27.346424876493014, "res": 8.0, "count_Gymnosperms": 5, "count_Flowering Plants": 454, "count_Molluscs": 140, "count_Birds": 82, "count_Insects": 222, "count_Sac Fungi": 1, "count_Arachnids": 13, "count_Mammals": 5, "count_Reptiles": 15, "count_Basidiomycota": 1, "count_Amphibians": 5, "count_Ferns": 3, "count_Mosses": 0, "unique_species_count": 946.0, "countryCode": "GR" }, "geometry": { "type": "MultiPolygon", "coordinates": [ [ [ [ 27.941396135097428, 35.937860453483246 ], [ 27.839861460639657, 35.469275755700771 ], [ 27.249051591983395, 35.266462386039386 ], [ 26.754580574179787, 35.530458959214094 ], [ 26.849289420868928, 35.999441512616052 ], [ 27.445330709156284, 36.204073009508335 ], [ 27.941396135097428, 35.937860453483246 ] ] ] ] } },
{ "type": "Feature", "properties": { "geogrid_id": "835792302026256398", "seqnum": 15632.0, "lat_c": 35.79230180517682, "lon_c": 26.256397734865477, "res": 8.0, "count_Gymnosperms": 1, "count_Flowering Plants": 0, "count_Molluscs": 0, "count_Birds": 2, "count_Insects": 0, "count_Sac Fungi": 0, "count_Arachnids": 0, "count_Mammals": 1, "count_Reptiles": 1, "count_Basidiomycota": 0, "count_Amphibians": 0, "count_Ferns": 0, "count_Mosses": 0, "unique_species_count": 5.0, "countryCode": "GR" }, "geometry": { "type": "MultiPolygon", "coordinates": [ [ [ [ 26.849289420868928, 35.999441512616052 ], [ 26.754580574179787, 35.530458959214094 ], [ 26.165832058680341, 35.323051461172646 ], [ 25.66662227454891, 35.582672272975707 ], [ 25.754431362057726, 36.051886086072344 ], [ 26.348382694660309, 36.261294080547707 ], [ 26.849289420868928, 35.999441512616052 ] ] ] ] } },
{ "type": "Feature", "properties": { "geogrid_id": "835839958025163616", "seqnum": 15550.0, "lat_c": 35.839957862597039, "lon_c": 25.16361587254281, "res": 8.0, "count_Gymnosperms": 0, "count_Flowering Plants": 64, "count_Molluscs": 32, "count_Birds": 41, "count_Insects": 101, "count_Sac Fungi": 0, "count_Arachnids": 10, "count_Mammals": 4, "count_Reptiles": 9, "count_Basidiomycota": 0, "count_Amphibians": 2, "count_Ferns": 0, "count_Mosses": 0, "unique_species_count": 263.0, "countryCode": "GR" }, "geometry": { "type": "MultiPolygon", "coordinates": [ [ [ [ 25.754431362057726, 36.051886086072344 ], [ 25.66662227454891, 35.582672272975707 ], [ 25.079927675002089, 35.37056872131015 ], [ 24.575898408442107, 35.625521451719116 ], [ 24.656743276696453, 36.094789809645427 ], [ 25.24861094347553, 36.309100179944345 ], [ 25.754431362057726, 36.051886086072344 ] ] ] ] } },
{ "type": "Feature", "properties": { "geogrid_id": "835877931024067990", "seqnum": 15468.0, "lat_c": 35.877930985211727, "lon_c": 24.067989926227849, "res": 8.0, "count_Gymnosperms": 5, "count_Flowering Plants": 678, "count_Molluscs": 136, "count_Birds": 214, "count_Insects": 940, "count_Sac Fungi": 15, "count_Arachnids": 88, "count_Mammals": 15, "count_Reptiles": 14, "count_Basidiomycota": 21, "count_Amphibians": 4, "count_Ferns": 6, "count_Mosses": 6, "unique_species_count": 2142.0, "countryCode": "GR" }, "geometry": { "type": "MultiPolygon", "coordinates": [ [ [ [ 24.656743276696453, 36.094789809645427 ], [ 24.575898408442107, 35.625521451719116 ], [ 23.991238925095008, 35.40858534505599 ], [ 23.482308153058067, 35.658526981608333 ], [ 23.556135789376921, 36.127662564000936 ], [ 24.145936741161115, 36.347041703265575 ], [ 24.656743276696453, 36.094789809645427 ] ] ] ] } },
{ "type": "Feature", "properties": { "geogrid_id": "835898501018543451", "seqnum": 15058.0, "lat_c": 35.898501044127485, "lon_c": 18.543450836565778, "res": 8.0, "count_Gymnosperms": 0, "count_Flowering Plants": 0, "count_Molluscs": 0, "count_Birds": 0, "count_Insects": 0, "count_Sac Fungi": 0, "count_Arachnids": 0, "count_Mammals": 1, "count_Reptiles": 1, "count_Basidiomycota": 0, "count_Amphibians": 0, "count_Ferns": 0, "count_Mosses": 0, "unique_species_count": 2.0, "countryCode": "GR" }, "geometry": { "type": "MultiPolygon", "coordinates": [ [ [ [ 19.122479780989455, 36.144426762419776 ], [ 19.076921745822823, 35.677897846049845 ], [ 18.501735141342206, 35.432477207112676 ], [ 17.96722987459118, 35.649205357644483 ], [ 18.005788051999332, 36.114532267103897 ], [ 18.58584136221862, 36.364393748321191 ], [ 19.122479780989455, 36.144426762419776 ] ] ] ] } },
{ "type": "Feature", "properties": { "geogrid_id": "835905685022969419", "seqnum": 15386.0, "lat_c": 35.905684822441977, "lon_c": 22.96941916950615, "res": 8.0, "count_Gymnosperms": 1, "count_Flowering Plants": 225, "count_Molluscs": 15, "count_Birds": 118, "count_Insects": 142, "count_Sac Fungi": 1, "count_Arachnids": 10, "count_Mammals": 7, "count_Reptiles": 7, "count_Basidiomycota": 1, "count_Amphibians": 0, "count_Ferns": 2, "count_Mosses": 0, "unique_species_count": 529.0, "countryCode": "GR" }, "geometry": { "type": "MultiPolygon", "coordinates": [ [ [ [ 23.556135789376921, 36.127662564000936 ], [ 23.482308153058067, 35.658526981608333 ], [ 22.8996527116816, 35.436576112264213 ], [ 22.385738733913872, 35.681099553787782 ], [ 22.452510049579413, 36.149904260812818 ], [ 23.040272215862323, 36.374571931531136 ], [ 23.556135789376921, 36.127662564000936 ] ] ] ] } },
{ "type": "Feature", "properties": { "geogrid_id": "835920149019654915", "seqnum": 15140.0, "lat_c": 35.920149272643208, "lon_c": 19.654914506871801, "res": 8.0, "count_Gymnosperms": 0, "count_Flowering Plants": 0, "count_Molluscs": 0, "count_Birds": 0, "count_Insects": 0, "count_Sac Fungi": 0, "count_Arachnids": 0, "count_Mammals": 1, "count_Reptiles": 0, "count_Basidiomycota": 0, "count_Amphibians": 0, "count_Ferns": 0, "count_Mosses": 0, "unique_species_count": 1.0, "countryCode": "GR" }, "geometry": { "type": "MultiPolygon", "coordinates": [ [ [ [ 20.235782339415422, 36.159338341040844 ], [ 20.183169021351809, 35.691829693521896 ], [ 19.606215791962239, 35.453018451509521 ], [ 19.076921745822823, 35.677897846049845 ], [ 19.122479780989455, 36.144426762419776 ], [ 19.704386951944141, 36.387117850297074 ], [ 20.235782339415422, 36.159338341040844 ] ] ] ] } },
{ "type": "Feature", "properties": { "geogrid_id": "835922558021867793", "seqnum": 15304.0, "lat_c": 35.922557987595496, "lon_c": 21.867793255121715, "res": 8.0, "count_Gymnosperms": 0, "count_Flowering Plants": 2, "count_Molluscs": 0, "count_Birds": 0, "count_Insects": 0, "count_Sac Fungi": 0, "count_Arachnids": 0, "count_Mammals": 0, "count_Reptiles": 1, "count_Basidiomycota": 0, "count_Amphibians": 0, "count_Ferns": 0, "count_Mosses": 0, "unique_species_count": 3.0, "countryCode": "GR" }, "geometry": { "type": "MultiPolygon", "coordinates": [ [ [ [ 22.452510049579413, 36.149904260812818 ], [ 22.385738733913872, 35.681099553787782 ], [ 21.805043523890316, 35.453890795764451 ], [ 21.286067853750325, 35.692507068091992 ], [ 21.345760778412554, 36.160772433132621 ], [ 21.931522621409542, 36.391019285580583 ], [ 22.452510049579413, 36.149904260812818 ] ] ] ] } },
{ "type": "Feature", "properties": { "geogrid_id": "835927726020762996", "seqnum": 15222.0, "lat_c": 35.927726000791665, "lon_c": 20.76299625245035, "res": 8.0, "count_Gymnosperms": 0, "count_Flowering Plants": 0, "count_Molluscs": 0, "count_Birds": 2, "count_Insects": 0, "count_Sac Fungi": 0, "count_Arachnids": 0, "count_Mammals": 0, "count_Reptiles": 1, "count_Basidiomycota": 0, "count_Amphibians": 0, "count_Ferns": 0, "count_Mosses": 0, "unique_species_count": 3.0, "countryCode": "GR" }, "geometry": { "type": "MultiPolygon", "coordinates": [ [ [ [ 21.345760778412554, 36.160772433132621 ], [ 21.286067853750325, 35.692507068091992 ], [ 20.707276768717801, 35.459715335027688 ], [ 20.183169021351809, 35.691829693521896 ], [ 20.235782339415422, 36.159338341040844 ], [ 20.819591029553649, 36.395550070989742 ], [ 21.345760778412554, 36.160772433132621 ] ] ] ] } },
{ "type": "Feature", "properties": { "geogrid_id": "836269057030226721", "seqnum": 19815.0, "lat_c": 36.269056915468937, "lon_c": 30.226721216810056, "res": 8.0, "count_Gymnosperms": 0, "count_Flowering Plants": 0, "count_Molluscs": 0, "count_Birds": 0, "count_Insects": 0, "count_Sac Fungi": 0, "count_Arachnids": 0, "count_Mammals": 1, "count_Reptiles": 0, "count_Basidiomycota": 0, "count_Amphibians": 0, "count_Ferns": 0, "count_Mosses": 0, "unique_species_count": 1.0, "countryCode": "GR" }, "geometry": { "type": "MultiPolygon", "coordinates": [ [ [ [ 30.342081860027591, 36.741092711218549 ], [ 30.827400269910932, 36.467993344840224 ], [ 30.709803370771191, 35.996237918794989 ], [ 30.112915760597261, 35.797124370207861 ], [ 29.628616948637035, 36.067350112563929 ], [ 29.740135635050709, 36.539546763101271 ], [ 30.342081860027591, 36.741092711218549 ] ] ] ] } },
{ "type": "Feature", "properties": { "geogrid_id": "836335227029140835", "seqnum": 19734.0, "lat_c": 36.335227307508845, "lon_c": 29.140835284648244, "res": 8.0, "count_Gymnosperms": 0, "count_Flowering Plants": 51, "count_Molluscs": 1, "count_Birds": 1, "count_Insects": 0, "count_Sac Fungi": 0, "count_Arachnids": 0, "count_Mammals": 3, "count_Reptiles": 0, "count_Basidiomycota": 0, "count_Amphibians": 0, "count_Ferns": 0, "count_Mosses": 0, "unique_species_count": 56.0, "countryCode": "GR" }, "geometry": { "type": "MultiPolygon", "coordinates": [ [ [ [ 29.249990285212242, 36.807668250834929 ], [ 29.740135635050709, 36.539546763101271 ], [ 29.628616948637035, 36.067350112563929 ], [ 29.030819364358919, 35.867479807583045 ], [ 28.539523726313703, 36.137810351879594 ], [ 28.646986098637189, 36.605726696257555 ], [ 29.249990285212242, 36.807668250834929 ] ] ] ] } },
{ "type": "Feature", "properties": { "geogrid_id": "836406176028044553", "seqnum": 15715.0, "lat_c": 36.406175632548326, "lon_c": 28.044553064069433, "res": 8.0, "count_Gymnosperms": 11, "count_Flowering Plants": 1021, "count_Molluscs": 132, "count_Birds": 210, "count_Insects": 925, "count_Sac Fungi": 17, "count_Arachnids": 75, "count_Mammals": 20, "count_Reptiles": 31, "count_Basidiomycota": 16, "count_Amphibians": 8, "count_Ferns": 9, "count_Mosses": 19, "unique_species_count": 2494.0, "countryCode": "GR" }, "geometry": { "type": "MultiPolygon", "coordinates": [ [ [ [ 28.646986098637189, 36.605726696257555 ], [ 28.539523726313703, 36.137810351879594 ], [ 27.941396135097428, 35.937860453483246 ], [ 27.445330709156284, 36.204073009508335 ], [ 27.545833640137506, 36.672486109026352 ], [ 28.149398613671394, 36.874232026836331 ], [ 28.646986098637189, 36.605726696257555 ] ] ] ] } },
{ "type": "Feature", "properties": { "geogrid_id": "836468167026945506", "seqnum": 15633.0, "lat_c": 36.468166707368283, "lon_c": 26.94550556666961, "res": 8.0, "count_Gymnosperms": 6, "count_Flowering Plants": 297, "count_Molluscs": 68, "count_Birds": 112, "count_Insects": 290, "count_Sac Fungi": 2, "count_Arachnids": 22, "count_Mammals": 7, "count_Reptiles": 21, "count_Basidiomycota": 1, "count_Amphibians": 3, "count_Ferns": 2, "count_Mosses": 0, "unique_species_count": 831.0, "countryCode": "GR" }, "geometry": { "type": "MultiPolygon", "coordinates": [ [ [ [ 27.545833640137506, 36.672486109026352 ], [ 27.445330709156284, 36.204073009508335 ], [ 26.849289420868928, 35.999441512616052 ], [ 26.348382694660309, 36.261294080547707 ], [ 26.441848451953842, 36.730041626651193 ], [ 27.043292370310532, 36.936646920350107 ], [ 27.545833640137506, 36.672486109026352 ] ] ] ] } },
{ "type": "Feature", "properties": { "geogrid_id": "836520855025843633", "seqnum": 15551.0, "lat_c": 36.520854541918709, "lon_c": 25.843633296378822, "res": 8.0, "count_Gymnosperms": 7, "count_Flowering Plants": 308, "count_Molluscs": 89, "count_Birds": 98, "count_Insects": 186, "count_Sac Fungi": 4, "count_Arachnids": 20, "count_Mammals": 7, "count_Reptiles": 10, "count_Basidiomycota": 2, "count_Amphibians": 2, "count_Ferns": 0, "count_Mosses": 0, "unique_species_count": 733.0, "countryCode": "GR" }, "geometry": { "type": "MultiPolygon", "coordinates": [ [ [ [ 26.441848451953842, 36.730041626651193 ], [ 26.348382694660309, 36.261294080547707 ], [ 25.754431362057726, 36.051886086072344 ], [ 25.24861094347553, 36.309100179944345 ], [ 25.334971145142035, 36.778010717637038 ], [ 25.934288216712179, 36.989591684808879 ], [ 26.441848451953842, 36.730041626651193 ] ] ] ] } },
{ "type": "Feature", "properties": { "geogrid_id": "836563825024738868", "seqnum": 15469.0, "lat_c": 36.563825163886719, "lon_c": 24.738867526629178, "res": 8.0, "count_Gymnosperms": 4, "count_Flowering Plants": 206, "count_Molluscs": 81, "count_Birds": 77, "count_Insects": 233, "count_Sac Fungi": 1, "count_Arachnids": 24, "count_Mammals": 6, "count_Reptiles": 16, "count_Basidiomycota": 0, "count_Amphibians": 1, "count_Ferns": 1, "count_Mosses": 0, "unique_species_count": 650.0, "countryCode": "GR" }, "geometry": { "type": "MultiPolygon", "coordinates": [ [ [ [ 25.334971145142035, 36.778010717637038 ], [ 25.24861094347553, 36.309100179944345 ], [ 24.656743276696453, 36.094789809645427 ], [ 24.145936741161115, 36.347041703265575 ], [ 24.225134129414943, 36.815934253268971 ], [ 24.822327848292701, 37.032643234659631 ], [ 25.334971145142035, 36.778010717637038 ] ] ] ] } },
{ "type": "Feature", "properties": { "geogrid_id": "836596579023631131", "seqnum": 15387.0, "lat_c": 36.596578508324249, "lon_c": 23.631130810757806, "res": 8.0, "count_Gymnosperms": 1, "count_Flowering Plants": 187, "count_Molluscs": 11, "count_Birds": 57, "count_Insects": 104, "count_Sac Fungi": 0, "count_Arachnids": 9, "count_Mammals": 3, "count_Reptiles": 8, "count_Basidiomycota": 21, "count_Amphibians": 1, "count_Ferns": 3, "count_Mosses": 0, "unique_species_count": 405.0, "countryCode": "GR" }, "geometry": { "type": "MultiPolygon", "coordinates": [ [ [ [ 24.225134129414943, 36.815934253268971 ], [ 24.145936741161115, 36.347041703265575 ], [ 23.556135789376921, 36.127662564000936 ], [ 23.040272215862323, 36.374571931531136 ], [ 23.112262846452147, 36.843255875689543 ], [ 23.707346207598, 37.065292193048563 ], [ 24.225134129414943, 36.815934253268971 ] ] ] ] } },
{ "type": "Feature", "properties": { "geogrid_id": "836610820019168779", "seqnum": 15059.0, "lat_c": 36.610819708432629, "lon_c": 19.168779493021297, "res": 8.0, "count_Gymnosperms": 0, "count_Flowering Plants": 0, "count_Molluscs": 0, "count_Birds": 0, "count_Insects": 0, "count_Sac Fungi": 0, "count_Arachnids": 0, "count_Mammals": 1, "count_Reptiles": 0, "count_Basidiomycota": 0, "count_Amphibians": 0, "count_Ferns": 0, "count_Mosses": 0, "unique_species_count": 1.0, "countryCode": "GR" }, "geometry": { "type": "MultiPolygon", "coordinates": [ [ [ [ 19.754670964386126, 36.853946857802981 ], [ 19.704386951944141, 36.387117850297074 ], [ 19.122479780989455, 36.144426762419776 ], [ 18.58584136221862, 36.364393748321191 ], [ 18.628939479685911, 36.830178754766685 ], [ 19.215856101338648, 37.077099340551136 ], [ 19.754670964386126, 36.853946857802981 ] ] ] ] } },
{ "type": "Feature", "properties": { "geogrid_id": "836618505022520339", "seqnum": 15305.0, "lat_c": 36.618504547285447, "lon_c": 22.520338674151095, "res": 8.0, "count_Gymnosperms": 10, "count_Flowering Plants": 847, "count_Molluscs": 109, "count_Birds": 160, "count_Insects": 940, "count_Sac Fungi": 11, "count_Arachnids": 39, "count_Mammals": 17, "count_Reptiles": 28, "count_Basidiomycota": 12, "count_Amphibians": 6, "count_Ferns": 14, "count_Mosses": 3, "unique_species_count": 2196.0, "countryCode": "GR" }, "geometry": { "type": "MultiPolygon", "coordinates": [ [ [ [ 23.112262846452147, 36.843255875689543 ], [ 23.040272215862323, 36.374571931531136 ], [ 22.452510049579413, 36.149904260812818 ], [ 21.931522621409542, 36.391019285580583 ], [ 21.996278561169145, 36.85929472970286 ], [ 22.589273624136652, 37.086919391365853 ], [ 23.112262846452147, 36.843255875689543 ] ] ] ] } },
{ "type": "Feature", "properties": { "geogrid_id": "836626683020289240", "seqnum": 15141.0, "lat_c": 36.62668299770462, "lon_c": 20.289239971030547, "res": 8.0, "count_Gymnosperms": 0, "count_Flowering Plants": 0, "count_Molluscs": 0, "count_Birds": 0, "count_Insects": 0, "count_Sac Fungi": 0, "count_Arachnids": 0, "count_Mammals": 2, "count_Reptiles": 1, "count_Basidiomycota": 0, "count_Amphibians": 0, "count_Ferns": 0, "count_Mosses": 0, "unique_species_count": 3.0, "countryCode": "GR" }, "geometry": { "type": "MultiPolygon", "coordinates": [ [ [ [ 20.877103659936967, 36.863209035012957 ], [ 20.819591029553649, 36.395550070989742 ], [ 20.235782339415422, 36.159338341040844 ], [ 19.704386951944141, 36.387117850297074 ], [ 19.754670964386126, 36.853946857802981 ], [ 20.34358206509101, 37.093885389993225 ], [ 20.877103659936967, 36.863209035012957 ] ] ] ] } },
{ "type": "Feature", "properties": { "geogrid_id": "836628851021406403", "seqnum": 15223.0, "lat_c": 36.628851497988649, "lon_c": 21.406403237945813, "res": 8.0, "count_Gymnosperms": 4, "count_Flowering Plants": 351, "count_Molluscs": 53, "count_Birds": 117, "count_Insects": 313, "count_Sac Fungi": 0, "count_Arachnids": 32, "count_Mammals": 7, "count_Reptiles": 29, "count_Basidiomycota": 4, "count_Amphibians": 6, "count_Ferns": 3, "count_Mosses": 0, "unique_species_count": 919.0, "countryCode": "GR" }, "geometry": { "type": "MultiPolygon", "coordinates": [ [ [ [ 21.996278561169145, 36.85929472970286 ], [ 21.931522621409542, 36.391019285580583 ], [ 21.345760778412554, 36.160772433132621 ], [ 20.819591029553649, 36.395550070989742 ], [ 20.877103659936967, 36.863209035012957 ], [ 21.468039975844608, 37.096764720262193 ], [ 21.996278561169145, 36.85929472970286 ] ] ] ] } },
{ "type": "Feature", "properties": { "geogrid_id": "837140653027647999", "seqnum": 15634.0, "lat_c": 37.140653057726659, "lon_c": 27.647998934961674, "res": 8.0, "count_Gymnosperms": 5, "count_Flowering Plants": 280, "count_Molluscs": 49, "count_Birds": 168, "count_Insects": 284, "count_Sac Fungi": 1, "count_Arachnids": 17, "count_Mammals": 9, "count_Reptiles": 20, "count_Basidiomycota": 4, "count_Amphibians": 4, "count_Ferns": 2, "count_Mosses": 0, "unique_species_count": 843.0, "countryCode": "GR" }, "geometry": { "type": "MultiPolygon", "coordinates": [ [ [ [ 28.25600001761153, 37.342040153239594 ], [ 28.149398613671394, 36.874232026836331 ], [ 27.545833640137506, 36.672486109026352 ], [ 27.043292370310532, 36.936646920350107 ], [ 27.14271391101407, 37.404894273932037 ], [ 27.751892732005278, 37.608585047027077 ], [ 28.25600001761153, 37.342040153239594 ] ] ] ] } },
{ "type": "Feature", "properties": { "geogrid_id": "837198558026536857", "seqnum": 15552.0, "lat_c": 37.198557515356711, "lon_c": 26.536857086294781, "res": 8.0, "count_Gymnosperms": 2, "count_Flowering Plants": 221, "count_Molluscs": 160, "count_Birds": 82, "count_Insects": 259, "count_Sac Fungi": 4, "count_Arachnids": 19, "count_Mammals": 5, "count_Reptiles": 15, "count_Basidiomycota": 0, "count_Amphibians": 0, "count_Ferns": 2, "count_Mosses": 0, "unique_species_count": 769.0, "countryCode": "GR" }, "geometry": { "type": "MultiPolygon", "coordinates": [ [ [ [ 27.14271391101407, 37.404894273932037 ], [ 27.043292370310532, 36.936646920350107 ], [ 26.441848451953842, 36.730041626651193 ], [ 25.934288216712179, 36.989591684808879 ], [ 26.026456833752992, 37.458111254255513 ], [ 26.633471402746025, 37.666854530845129 ], [ 27.14271391101407, 37.404894273932037 ] ] ] ] } },
{ "type": "Feature", "properties": { "geogrid_id": "837246704025422755", "seqnum": 15470.0, "lat_c": 37.246704192470425, "lon_c": 25.422755150459693, "res": 8.0, "count_Gymnosperms": 9, "count_Flowering Plants": 599, "count_Molluscs": 233, "count_Birds": 135, "count_Insects": 398, "count_Sac Fungi": 12, "count_Arachnids": 46, "count_Mammals": 19, "count_Reptiles": 22, "count_Basidiomycota": 3, "count_Amphibians": 2, "count_Ferns": 5, "count_Mosses": 0, "unique_species_count": 1483.0, "countryCode": "GR" }, "geometry": { "type": "MultiPolygon", "coordinates": [ [ [ [ 26.026456833752992, 37.458111254255513 ], [ 25.934288216712179, 36.989591684808879 ], [ 25.334971145142035, 36.778010717637038 ], [ 24.822327848292701, 37.032643234659631 ], [ 24.907181355383173, 37.501259373072067 ], [ 25.512022209933182, 37.715194979201193 ], [ 26.026456833752992, 37.458111254255513 ] ] ] ] } },
{ "type": "Feature", "properties": { "geogrid_id": "837284625024305637", "seqnum": 15388.0, "lat_c": 37.284624986414052, "lon_c": 24.305637119157037, "res": 8.0, "count_Gymnosperms": 2, "count_Flowering Plants": 222, "count_Molluscs": 58, "count_Birds": 87, "count_Insects": 601, "count_Sac Fungi": 2, "count_Arachnids": 31, "count_Mammals": 5, "count_Reptiles": 16, "count_Basidiomycota": 2, "count_Amphibians": 1, "count_Ferns": 1, "count_Mosses": 0, "unique_species_count": 1028.0, "countryCode": "GR" }, "geometry": { "type": "MultiPolygon", "coordinates": [ [ [ [ 24.907181355383173, 37.501259373072067 ], [ 24.822327848292701, 37.032643234659631 ], [ 24.225134129414943, 36.815934253268971 ], [ 23.707346207598, 37.065292193048563 ], [ 23.784835251106056, 37.533820548331228 ], [ 24.387501170972474, 37.753129843756319 ], [ 24.907181355383173, 37.501259373072067 ] ] ] ] } },
{ "type": "Feature", "properties": { "geogrid_id": "837295879018672778", "seqnum": 14978.0, "lat_c": 37.295878527694235, "lon_c": 18.672777726880252, "res": 8.0, "count_Gymnosperms": 0, "count_Flowering Plants": 0, "count_Molluscs": 0, "count_Birds": 0, "count_Insects": 0, "count_Sac Fungi": 0, "count_Arachnids": 0, "count_Mammals": 1, "count_Reptiles": 1, "count_Basidiomycota": 0, "count_Amphibians": 0, "count_Ferns": 0, "count_Mosses": 0, "unique_species_count": 2.0, "countryCode": "GR" }, "geometry": { "type": "MultiPolygon", "coordinates": [ [ [ [ 19.263744696695905, 37.543287431398937 ], [ 19.215856101338648, 37.077099340551136 ], [ 18.628939479685911, 36.830178754766685 ], [ 18.084858320290969, 37.044907548972155 ], [ 18.125430180570088, 37.510001077178877 ], [ 18.717388567284718, 37.761514623693387 ], [ 19.263744696695905, 37.543287431398937 ] ] ] ] } },
{ "type": "Feature", "properties": { "geogrid_id": "837311755023185442", "seqnum": 15306.0, "lat_c": 37.31175459681824, "lon_c": 23.185442186349068, "res": 8.0, "count_Gymnosperms": 8, "count_Flowering Plants": 659, "count_Molluscs": 152, "count_Birds": 143, "count_Insects": 529, "count_Sac Fungi": 14, "count_Arachnids": 44, "count_Mammals": 13, "count_Reptiles": 30, "count_Basidiomycota": 11, "count_Amphibians": 4, "count_Ferns": 5, "count_Mosses": 16, "unique_species_count": 1628.0, "countryCode": "GR" }, "geometry": { "type": "MultiPolygon", "coordinates": [ [ [ [ 23.784835251106056, 37.533820548331228 ], [ 23.707346207598, 37.065292193048563 ], [ 23.112262846452147, 36.843255875689543 ], [ 22.589273624136652, 37.086919391365853 ], [ 22.659364063873436, 37.555167228841491 ], [ 23.259861654815484, 37.780085544535851 ], [ 23.784835251106056, 37.533820548331228 ] ] ] ] } },
{ "type": "Feature", "properties": { "geogrid_id": "837320658019805804", "seqnum": 15060.0, "lat_c": 37.320658120370155, "lon_c": 19.805804200387321, "res": 8.0, "count_Gymnosperms": 0, "count_Flowering Plants": 2, "count_Molluscs": 0, "count_Birds": 0, "count_Insects": 0, "count_Sac Fungi": 0, "count_Arachnids": 0, "count_Mammals": 2, "count_Reptiles": 1, "count_Basidiomycota": 0, "count_Amphibians": 0, "count_Ferns": 0, "count_Mosses": 0, "unique_species_count": 5.0, "countryCode": "GR" }, "geometry": { "type": "MultiPolygon", "coordinates": [ [ [ [ 20.398848706401605, 37.560966478069297 ], [ 20.34358206509101, 37.093885389993225 ], [ 19.754670964386126, 36.853946857802981 ], [ 19.215856101338648, 37.077099340551136 ], [ 19.263744696695905, 37.543287431398937 ], [ 19.857824292982791, 37.787272659510066 ], [ 20.398848706401605, 37.560966478069297 ] ] ] ] } },
{ "type": "Feature", "properties": { "geogrid_id": "837327404022062108", "seqnum": 15224.0, "lat_c": 37.327403758758045, "lon_c": 22.06210801615531, "res": 8.0, "count_Gymnosperms": 10, "count_Flowering Plants": 886, "count_Molluscs": 63, "count_Birds": 142, "count_Insects": 1032, "count_Sac Fungi": 20, "count_Arachnids": 123, "count_Mammals": 22, "count_Reptiles": 37, "count_Basidiomycota": 20, "count_Amphibians": 12, "count_Ferns": 14, "count_Mosses": 6, "unique_species_count": 2387.0, "countryCode": "GR" }, "geometry": { "type": "MultiPolygon", "coordinates": [ [ [ [ 22.659364063873436, 37.555167228841491 ], [ 22.589273624136652, 37.086919391365853 ], [ 21.996278561169145, 36.85929472970286 ], [ 21.468039975844608, 37.096764720262193 ], [ 21.530715766177913, 37.564531907809773 ], [ 22.129058096143524, 37.795365223903467 ], [ 22.659364063873436, 37.555167228841491 ] ] ] ] } },
{ "type": "Feature", "properties": { "geogrid_id": "837330724020935577", "seqnum": 15142.0, "lat_c": 37.330723661131245, "lon_c": 20.935576600805884, "res": 8.0, "count_Gymnosperms": 3, "count_Flowering Plants": 412, "count_Molluscs": 105, "count_Birds": 84, "count_Insects": 326, "count_Sac Fungi": 1, "count_Arachnids": 11, "count_Mammals": 6, "count_Reptiles": 17, "count_Basidiomycota": 3, "count_Amphibians": 1, "count_Ferns": 5, "count_Mosses": 0, "unique_species_count": 974.0, "countryCode": "GR" }, "geometry": { "type": "MultiPolygon", "coordinates": [ [ [ [ 21.530715766177913, 37.564531907809773 ], [ 21.468039975844608, 37.096764720262193 ], [ 20.877103659936967, 36.863209035012957 ], [ 20.34358206509101, 37.093885389993225 ], [ 20.398848706401605, 37.560966478069297 ], [ 20.995052369338211, 37.798114024191612 ], [ 21.530715766177913, 37.564531907809773 ] ] ] ] } },
{ "type": "Feature", "properties": { "geogrid_id": "837872921027243835", "seqnum": 15553.0, "lat_c": 37.872920614868164, "lon_c": 27.243835145699062, "res": 8.0, "count_Gymnosperms": 9, "count_Flowering Plants": 676, "count_Molluscs": 101, "count_Birds": 159, "count_Insects": 770, "count_Sac Fungi": 9, "count_Arachnids": 32, "count_Mammals": 9, "count_Reptiles": 27, "count_Basidiomycota": 6, "count_Amphibians": 6, "count_Ferns": 8, "count_Mosses": 0, "unique_species_count": 1812.0, "countryCode": "GR" }, "geometry": { "type": "MultiPolygon", "coordinates": [ [ [ [ 27.857582197753366, 38.076293000290086 ], [ 27.751892732005278, 37.608585047027077 ], [ 27.14271391101407, 37.404894273932037 ], [ 26.633471402746025, 37.666854530845129 ], [ 26.731755088475069, 38.134945152096869 ], [ 27.346722063923458, 38.34073749562436 ], [ 27.857582197753366, 38.076293000290086 ] ] ] ] } },
{ "type": "Feature", "properties": { "geogrid_id": "837926427026120201", "seqnum": 15471.0, "lat_c": 37.926426668830878, "lon_c": 26.120200588613624, "res": 8.0, "count_Gymnosperms": 8, "count_Flowering Plants": 601, "count_Molluscs": 89, "count_Birds": 92, "count_Insects": 447, "count_Sac Fungi": 7, "count_Arachnids": 39, "count_Mammals": 10, "count_Reptiles": 26, "count_Basidiomycota": 4, "count_Amphibians": 4, "count_Ferns": 9, "count_Mosses": 2, "unique_species_count": 1338.0, "countryCode": "GR" }, "geometry": { "type": "MultiPolygon", "coordinates": [ [ [ [ 26.731755088475069, 38.134945152096869 ], [ 26.633471402746025, 37.666854530845129 ], [ 26.026456833752992, 37.458111254255513 ], [ 25.512022209933182, 37.715194979201193 ], [ 25.602832309254559, 38.183497098598309 ], [ 26.215581808451507, 38.39455101241446 ], [ 26.731755088475069, 38.134945152096869 ] ] ] ] } },
{ "type": "Feature", "properties": { "geogrid_id": "837969689024993486", "seqnum": 15389.0, "lat_c": 37.969688551302248, "lon_c": 24.99348574553251, "res": 8.0, "count_Gymnosperms": 2, "count_Flowering Plants": 334, "count_Molluscs": 24, "count_Birds": 78, "count_Insects": 251, "count_Sac Fungi": 2, "count_Arachnids": 20, "count_Mammals": 9, "count_Reptiles": 19, "count_Basidiomycota": 2, "count_Amphibians": 5, "count_Ferns": 4, "count_Mosses": 0, "unique_species_count": 750.0, "countryCode": "GR" }, "geometry": { "type": "MultiPolygon", "coordinates": [ [ [ [ 25.602832309254559, 38.183497098598309 ], [ 25.512022209933182, 37.715194979201193 ], [ 24.907181355383173, 37.501259373072067 ], [ 24.387501170972474, 37.753129843756319 ], [ 24.47078233596919, 38.221464351285988 ], [ 25.081299456168828, 38.437945355016652 ], [ 25.602832309254559, 38.183497098598309 ] ] ] ] } },
{ "type": "Feature", "properties": { "geogrid_id": "837975060018166733", "seqnum": 14897.0, "lat_c": 37.975060391383174, "lon_c": 18.166732914482939, "res": 8.0, "count_Gymnosperms": 0, "count_Flowering Plants": 0, "count_Molluscs": 0, "count_Birds": 0, "count_Insects": 0, "count_Sac Fungi": 0, "count_Arachnids": 0, "count_Mammals": 1, "count_Reptiles": 0, "count_Basidiomycota": 0, "count_Amphibians": 0, "count_Ferns": 0, "count_Mosses": 0, "unique_species_count": 1.0, "countryCode": "GR" }, "geometry": { "type": "MultiPolygon", "coordinates": [ [ [ [ 18.762804527492378, 38.227107750831117 ], [ 18.717388567284718, 37.761514623693387 ], [ 18.125430180570088, 37.510001077178877 ], [ 17.573821785577742, 37.719160226517864 ], [ 17.61178887172769, 38.183622956547644 ], [ 18.208796415976241, 38.440105805479376 ], [ 18.762804527492378, 38.227107750831117 ] ] ] ] } },
{ "type": "Feature", "properties": { "geogrid_id": "838002180023863652", "seqnum": 15307.0, "lat_c": 38.002180054232973, "lon_c": 23.863651654377083, "res": 8.0, "count_Gymnosperms": 16, "count_Flowering Plants": 1306, "count_Molluscs": 265, "count_Birds": 244, "count_Insects": 1610, "count_Sac Fungi": 128, "count_Arachnids": 210, "count_Mammals": 23, "count_Reptiles": 32, "count_Basidiomycota": 295, "count_Amphibians": 8, "count_Ferns": 9, "count_Mosses": 10, "unique_species_count": 4156.0, "countryCode": "GR" }, "geometry": { "type": "MultiPolygon", "coordinates": [ [ [ [ 24.47078233596919, 38.221464351285988 ], [ 24.387501170972474, 37.753129843756319 ], [ 23.784835251106056, 37.533820548331228 ], [ 23.259861654815484, 37.780085544535851 ], [ 23.335573123125219, 38.24826568001474 ], [ 23.943849727814438, 38.470386740813119 ], [ 24.47078233596919, 38.221464351285988 ] ] ] ] } },
{ "type": "Feature", "properties": { "geogrid_id": "838009405019312480", "seqnum": 14979.0, "lat_c": 38.009404921940302, "lon_c": 19.312480389355876, "res": 8.0, "count_Gymnosperms": 0, "count_Flowering Plants": 0, "count_Molluscs": 0, "count_Birds": 0, "count_Insects": 0, "count_Sac Fungi": 0, "count_Arachnids": 0, "count_Mammals": 2, "count_Reptiles": 1, "count_Basidiomycota": 0, "count_Amphibians": 0, "count_Ferns": 0, "count_Mosses": 0, "unique_species_count": 3.0, "countryCode": "GR" }, "geometry": { "type": "MultiPolygon", "coordinates": [ [ [ [ 19.910768999144537, 38.253810735614643 ], [ 19.857824292982791, 37.787272659510066 ], [ 19.263744696695905, 37.543287431398937 ], [ 18.717388567284718, 37.761514623693387 ], [ 18.762804527492378, 38.227107750831117 ], [ 19.362098447079575, 38.475471970742909 ], [ 19.910768999144537, 38.253810735614643 ] ] ] ] } },
{ "type": "Feature", "properties": { "geogrid_id": "838023266022730659", "seqnum": 15225.0, "lat_c": 38.023265961396341, "lon_c": 22.730659466432371, "res": 8.0, "count_Gymnosperms": 11, "count_Flowering Plants": 960, "count_Molluscs": 103, "count_Birds": 118, "count_Insects": 1022, "count_Sac Fungi": 16, "count_Arachnids": 80, "count_Mammals": 17, "count_Reptiles": 38, "count_Basidiomycota": 31, "count_Amphibians": 9, "count_Ferns": 10, "count_Mosses": 6, "unique_species_count": 2421.0, "countryCode": "GR" }, "geometry": { "type": "MultiPolygon", "coordinates": [ [ [ [ 23.335573123125219, 38.24826568001474 ], [ 23.259861654815484, 37.780085544535851 ], [ 22.659364063873436, 37.555167228841491 ], [ 22.129058096143524, 37.795365223903467 ], [ 22.197176235257292, 38.263197403266446 ], [ 22.803209767598752, 38.491232966140053 ], [ 23.335573123125219, 38.24826568001474 ] ] ] ] } },
{ "type": "Feature", "properties": { "geogrid_id": "838027946020455080", "seqnum": 15061.0, "lat_c": 38.02794649110465, "lon_c": 20.455080071002495, "res": 8.0, "count_Gymnosperms": 8, "count_Flowering Plants": 1152, "count_Molluscs": 232, "count_Birds": 141, "count_Insects": 594, "count_Sac Fungi": 5, "count_Arachnids": 33, "count_Mammals": 11, "count_Reptiles": 28, "count_Basidiomycota": 21, "count_Amphibians": 3, "count_Ferns": 13, "count_Mosses": 2, "unique_species_count": 2243.0, "countryCode": "GR" }, "geometry": { "type": "MultiPolygon", "coordinates": [ [ [ [ 21.055573695703163, 38.265399533168157 ], [ 20.995052369338211, 37.798114024191612 ], [ 20.398848706401605, 37.560966478069297 ], [ 19.857824292982791, 37.787272659510066 ], [ 19.910768999144537, 38.253810735614643 ], [ 20.512316572179103, 38.494844961538917 ], [ 21.055573695703163, 38.265399533168157 ] ] ] ] } },
{ "type": "Feature", "properties": { "geogrid_id": "838032172021594476", "seqnum": 15143.0, "lat_c": 38.032172239346423, "lon_c": 21.594475572827236, "res": 8.0, "count_Gymnosperms": 5, "count_Flowering Plants": 661, "count_Molluscs": 113, "count_Birds": 187, "count_Insects": 926, "count_Sac Fungi": 9, "count_Arachnids": 69, "count_Mammals": 18, "count_Reptiles": 32, "count_Basidiomycota": 69, "count_Amphibians": 12, "count_Ferns": 9, "count_Mosses": 6, "unique_species_count": 2116.0, "countryCode": "GR" }, "geometry": { "type": "MultiPolygon", "coordinates": [ [ [ [ 22.197176235257292, 38.263197403266446 ], [ 22.129058096143524, 37.795365223903467 ], [ 21.530715766177913, 37.564531907809773 ], [ 20.995052369338211, 37.798114024191612 ], [ 21.055573695703163, 38.265399533168157 ], [ 21.659364700547673, 38.49970428535422 ], [ 22.197176235257292, 38.263197403266446 ] ] ] ] } },
{ "type": "Feature", "properties": { "geogrid_id": "838602842026831773", "seqnum": 15472.0, "lat_c": 38.602841537587508, "lon_c": 26.831772867065524, "res": 8.0, "count_Gymnosperms": 0, "count_Flowering Plants": 1, "count_Molluscs": 1, "count_Birds": 1, "count_Insects": 1, "count_Sac Fungi": 0, "count_Arachnids": 0, "count_Mammals": 0, "count_Reptiles": 0, "count_Basidiomycota": 0, "count_Amphibians": 0, "count_Ferns": 0, "count_Mosses": 0, "unique_species_count": 4.0, "countryCode": "GR" }, "geometry": { "type": "MultiPolygon", "coordinates": [ [ [ [ 27.451441841473468, 38.808356157712588 ], [ 27.346722063923458, 38.34073749562436 ], [ 26.731755088475069, 38.134945152096869 ], [ 26.215581808451507, 38.39455101241446 ], [ 26.312663859808474, 38.862497022395729 ], [ 26.933590651475829, 39.070555511777918 ], [ 27.451441841473468, 38.808356157712588 ] ] ] ] } },
{ "type": "Feature", "properties": { "geogrid_id": "838651624025695246", "seqnum": 15390.0, "lat_c": 38.651624207598964, "lon_c": 25.695246323592361, "res": 8.0, "count_Gymnosperms": 5, "count_Flowering Plants": 486, "count_Molluscs": 43, "count_Birds": 66, "count_Insects": 292, "count_Sac Fungi": 3, "count_Arachnids": 21, "count_Mammals": 6, "count_Reptiles": 19, "count_Basidiomycota": 4, "count_Amphibians": 3, "count_Ferns": 6, "count_Mosses": 0, "unique_species_count": 954.0, "countryCode": "GR" }, "geometry": { "type": "MultiPolygon", "coordinates": [ [ [ [ 26.312663859808474, 38.862497022395729 ], [ 26.215581808451507, 38.39455101241446 ], [ 25.602832309254559, 38.183497098598309 ], [ 25.081299456168828, 38.437945355016652 ], [ 25.170681817064242, 38.906043977563748 ], [ 25.78932616959321, 39.119589591143395 ], [ 26.312663859808474, 38.862497022395729 ] ] ] ] } },
{ "type": "Feature", "properties": { "geogrid_id": "838689644024555537", "seqnum": 15308.0, "lat_c": 38.68964361684511, "lon_c": 24.555537409452846, "res": 8.0, "count_Gymnosperms": 2, "count_Flowering Plants": 145, "count_Molluscs": 30, "count_Birds": 66, "count_Insects": 103, "count_Sac Fungi": 0, "count_Arachnids": 4, "count_Mammals": 2, "count_Reptiles": 13, "count_Basidiomycota": 2, "count_Amphibians": 0, "count_Ferns": 1, "count_Mosses": 0, "unique_species_count": 368.0, "countryCode": "GR" }, "geometry": { "type": "MultiPolygon", "coordinates": [ [ [ [ 25.170681817064242, 38.906043977563748 ], [ 25.081299456168828, 38.437945355016652 ], [ 24.47078233596919, 38.221464351285988 ], [ 23.943849727814438, 38.470386740813119 ], [ 24.025484530145807, 38.938456189646296 ], [ 24.641824081305067, 39.157682328463792 ], [ 25.170681817064242, 38.906043977563748 ] ] ] ] } },
{ "type": "Feature", "properties": { "geogrid_id": "838692678018809058", "seqnum": 14898.0, "lat_c": 38.692677823816524, "lon_c": 18.80905832526232, "res": 8.0, "count_Gymnosperms": 0, "count_Flowering Plants": 0, "count_Molluscs": 0, "count_Birds": 0, "count_Insects": 0, "count_Sac Fungi": 0, "count_Arachnids": 0, "count_Mammals": 3, "count_Reptiles": 0, "count_Basidiomycota": 0, "count_Amphibians": 0, "count_Ferns": 0, "count_Mosses": 0, "unique_species_count": 3.0, "countryCode": "GR" }, "geometry": { "type": "MultiPolygon", "coordinates": [ [ [ [ 19.412634424759307, 38.941508000326998 ], [ 19.362098447079575, 38.475471970742909 ], [ 18.762804527492378, 38.227107750831117 ], [ 18.208796415976241, 38.440105805479376 ], [ 18.251650802988088, 38.905156840827921 ], [ 18.85618298983853, 39.158244015373171 ], [ 19.412634424759307, 38.941508000326998 ] ] ] ] } },
{ "type": "Feature", "properties": { "geogrid_id": "838716311023412629", "seqnum": 15226.0, "lat_c": 38.716311481190843, "lon_c": 23.412629066775168, "res": 8.0, "count_Gymnosperms": 4, "count_Flowering Plants": 511, "count_Molluscs": 117, "count_Birds": 100, "count_Insects": 373, "count_Sac Fungi": 3, "count_Arachnids": 26, "count_Mammals": 12, "count_Reptiles": 25, "count_Basidiomycota": 26, "count_Amphibians": 7, "count_Ferns": 8, "count_Mosses": 1, "unique_species_count": 1213.0, "countryCode": "GR" }, "geometry": { "type": "MultiPolygon", "coordinates": [ [ [ [ 24.025484530145807, 38.938456189646296 ], [ 23.943849727814438, 38.470386740813119 ], [ 23.335573123125219, 38.24826568001474 ], [ 22.803209767598752, 38.491232966140053 ], [ 22.877065514321163, 38.95908510597318 ], [ 23.491082713343687, 39.184238948941427 ], [ 24.025484530145807, 38.938456189646296 ] ] ] ] } },
{ "type": "Feature", "properties": { "geogrid_id": "838720292019964676", "seqnum": 14980.0, "lat_c": 38.72029188853783, "lon_c": 19.964676337990678, "res": 8.0, "count_Gymnosperms": 0, "count_Flowering Plants": 0, "count_Molluscs": 0, "count_Birds": 1, "count_Insects": 0, "count_Sac Fungi": 0, "count_Arachnids": 0, "count_Mammals": 3, "count_Reptiles": 1, "count_Basidiomycota": 0, "count_Amphibians": 0, "count_Ferns": 0, "count_Mosses": 0, "unique_species_count": 5.0, "countryCode": "GR" }, "geometry": { "type": "MultiPolygon", "coordinates": [ [ [ [ 20.570598998853587, 38.961680758057724 ], [ 20.512316572179103, 38.494844961538917 ], [ 19.910768999144537, 38.253810735614643 ], [ 19.362098447079575, 38.475471970742909 ], [ 19.412634424759307, 38.941508000326998 ], [ 20.019584721766471, 39.186734976094144 ], [ 20.570598998853587, 38.961680758057724 ] ] ] ] } },
{ "type": "Feature", "properties": { "geogrid_id": "838730918022266510", "seqnum": 15144.0, "lat_c": 38.730918017175263, "lon_c": 22.266510341491436, "res": 8.0, "count_Gymnosperms": 12, "count_Flowering Plants": 743, "count_Molluscs": 191, "count_Birds": 165, "count_Insects": 1002, "count_Sac Fungi": 27, "count_Arachnids": 50, "count_Mammals": 18, "count_Reptiles": 29, "count_Basidiomycota": 96, "count_Amphibians": 9, "count_Ferns": 7, "count_Mosses": 3, "unique_species_count": 2352.0, "countryCode": "GR" }, "geometry": { "type": "MultiPolygon", "coordinates": [ [ [ [ 22.877065514321163, 38.95908510597318 ], [ 22.803209767598752, 38.491232966140053 ], [ 22.197176235257292, 38.263197403266446 ], [ 21.659364700547673, 38.49970428535422 ], [ 21.725428939395979, 38.967146028946757 ], [ 22.337108940822478, 39.198544243660301 ], [ 22.877065514321163, 38.95908510597318 ] ] ] ] } },
{ "type": "Feature", "properties": { "geogrid_id": "838732599021117184", "seqnum": 15062.0, "lat_c": 38.732598958232458, "lon_c": 21.117183668147014, "res": 8.0, "count_Gymnosperms": 8, "count_Flowering Plants": 1059, "count_Molluscs": 208, "count_Birds": 191, "count_Insects": 786, "count_Sac Fungi": 5, "count_Arachnids": 68, "count_Mammals": 18, "count_Reptiles": 27, "count_Basidiomycota": 27, "count_Amphibians": 8, "count_Ferns": 8, "count_Mosses": 4, "unique_species_count": 2417.0, "countryCode": "GR" }, "geometry": { "type": "MultiPolygon", "coordinates": [ [ [ [ 21.725428939395979, 38.967146028946757 ], [ 21.659364700547673, 38.49970428535422 ], [ 21.055573695703163, 38.265399533168157 ], [ 20.512316572179103, 38.494844961538917 ], [ 20.570598998853587, 38.961680758057724 ], [ 21.179925871673159, 39.199730457092649 ], [ 21.725428939395979, 38.967146028946757 ] ] ] ] } },
{ "type": "Feature", "properties": { "geogrid_id": "839330277026411511", "seqnum": 15391.0, "lat_c": 39.330277079439576, "lon_c": 26.411511300605298, "res": 8.0, "count_Gymnosperms": 10, "count_Flowering Plants": 1010, "count_Molluscs": 287, "count_Birds": 304, "count_Insects": 2439, "count_Sac Fungi": 70, "count_Arachnids": 160, "count_Mammals": 38, "count_Reptiles": 30, "count_Basidiomycota": 148, "count_Amphibians": 10, "count_Ferns": 11, "count_Mosses": 14, "unique_species_count": 4531.0, "countryCode": "GR" }, "geometry": { "type": "MultiPolygon", "coordinates": [ [ [ [ 27.03727569652278, 39.538098553037656 ], [ 26.933590651475829, 39.070555511777918 ], [ 26.312663859808474, 38.862497022395729 ], [ 25.78932616959321, 39.119589591143395 ], [ 25.88513495605519, 39.587406155319869 ], [ 26.512190031684725, 39.79790319847227 ], [ 27.03727569652278, 39.538098553037656 ] ] ] ] } },
{ "type": "Feature", "properties": { "geogrid_id": "839373998025261693", "seqnum": 15309.0, "lat_c": 39.3739982155465, "lon_c": 25.261693200608796, "res": 8.0, "count_Gymnosperms": 0, "count_Flowering Plants": 84, "count_Molluscs": 5, "count_Birds": 19, "count_Insects": 86, "count_Sac Fungi": 1, "count_Arachnids": 7, "count_Mammals": 2, "count_Reptiles": 2, "count_Basidiomycota": 1, "count_Amphibians": 0, "count_Ferns": 0, "count_Mosses": 0, "unique_species_count": 207.0, "countryCode": "GR" }, "geometry": { "type": "MultiPolygon", "coordinates": [ [ [ [ 25.88513495605519, 39.587406155319869 ], [ 25.78932616959321, 39.119589591143395 ], [ 25.170681817064242, 38.906043977563748 ], [ 24.641824081305067, 39.157682328463792 ], [ 24.72970108411586, 39.625594753752374 ], [ 25.354395170782709, 39.84182146543273 ], [ 25.88513495605519, 39.587406155319869 ] ] ] ] } },
{ "type": "Feature", "properties": { "geogrid_id": "839406404024108612", "seqnum": 15227.0, "lat_c": 39.406403536375556, "lon_c": 24.108612016178775, "res": 8.0, "count_Gymnosperms": 3, "count_Flowering Plants": 214, "count_Molluscs": 108, "count_Birds": 95, "count_Insects": 228, "count_Sac Fungi": 1, "count_Arachnids": 23, "count_Mammals": 9, "count_Reptiles": 11, "count_Basidiomycota": 4, "count_Amphibians": 2, "count_Ferns": 3, "count_Mosses": 2, "unique_species_count": 703.0, "countryCode": "GR" }, "geometry": { "type": "MultiPolygon", "coordinates": [ [ [ [ 24.72970108411586, 39.625594753752374 ], [ 24.641824081305067, 39.157682328463792 ], [ 24.025484530145807, 38.938456189646296 ], [ 23.491082713343687, 39.184238948941427 ], [ 23.570988187146988, 39.652063613892572 ], [ 24.193289182354892, 39.874243473977053 ], [ 24.72970108411586, 39.625594753752374 ] ] ] ] } },
{ "type": "Feature", "properties": { "geogrid_id": "839407532019464124", "seqnum": 14899.0, "lat_c": 39.407531740646576, "lon_c": 19.464124287290968, "res": 8.0, "count_Gymnosperms": 9, "count_Flowering Plants": 959, "count_Molluscs": 170, "count_Birds": 141, "count_Insects": 894, "count_Sac Fungi": 19, "count_Arachnids": 70, "count_Mammals": 18, "count_Reptiles": 32, "count_Basidiomycota": 17, "count_Amphibians": 9, "count_Ferns": 12, "count_Mosses": 2, "unique_species_count": 2352.0, "countryCode": "GR" }, "geometry": { "type": "MultiPolygon", "coordinates": [ [ [ [ 20.075533081056015, 39.65315821043604 ], [ 20.019584721766471, 39.186734976094144 ], [ 19.412634424759307, 38.941508000326998 ], [ 18.85618298983853, 39.158244015373171 ], [ 18.904211976052025, 39.623824803998708 ], [ 19.516604527089431, 39.873561269777412 ], [ 20.075533081056015, 39.65315821043604 ] ] ] ] } },
{ "type": "Feature", "properties": { "geogrid_id": "839426839022952278", "seqnum": 15145.0, "lat_c": 39.426838740440331, "lon_c": 22.952278008889696, "res": 8.0, "count_Gymnosperms": 10, "count_Flowering Plants": 608, "count_Molluscs": 131, "count_Birds": 176, "count_Insects": 784, "count_Sac Fungi": 10, "count_Arachnids": 60, "count_Mammals": 17, "count_Reptiles": 28, "count_Basidiomycota": 71, "count_Amphibians": 9, "count_Ferns": 6, "count_Mosses": 51, "unique_species_count": 1961.0, "countryCode": "GR" }, "geometry": { "type": "MultiPolygon", "coordinates": [ [ [ [ 23.570988187146988, 39.652063613892572 ], [ 23.491082713343687, 39.184238948941427 ], [ 22.877065514321163, 38.95908510597318 ], [ 22.337108940822478, 39.198544243660301 ], [ 22.40902131716425, 39.666092733941319 ], [ 23.028899449995858, 39.894509736785565 ], [ 23.570988187146988, 39.652063613892572 ] ] ] ] } },
{ "type": "Feature", "properties": { "geogrid_id": "839428472020629969", "seqnum": 14981.0, "lat_c": 39.428472117142547, "lon_c": 20.629968647857758, "res": 8.0, "count_Gymnosperms": 12, "count_Flowering Plants": 951, "count_Molluscs": 171, "count_Birds": 244, "count_Insects": 958, "count_Sac Fungi": 30, "count_Arachnids": 51, "count_Mammals": 26, "count_Reptiles": 35, "count_Basidiomycota": 102, "count_Amphibians": 13, "count_Ferns": 14, "count_Mosses": 5, "unique_species_count": 2612.0, "countryCode": "GR" }, "geometry": { "type": "MultiPolygon", "coordinates": [ [ [ [ 21.243844521681186, 39.666811600412416 ], [ 21.179925871673159, 39.199730457092649 ], [ 20.570598998853587, 38.961680758057724 ], [ 20.019584721766471, 39.186734976094144 ], [ 20.075533081056015, 39.65315821043604 ], [ 20.690467451423849, 39.895236673094075 ], [ 21.243844521681186, 39.666811600412416 ] ] ] ] } },
{ "type": "Feature", "properties": { "geogrid_id": "839434515021792715", "seqnum": 15063.0, "lat_c": 39.434514886415798, "lon_c": 21.792714703908302, "res": 8.0, "count_Gymnosperms": 10, "count_Flowering Plants": 588, "count_Molluscs": 13, "count_Birds": 101, "count_Insects": 571, "count_Sac Fungi": 52, "count_Arachnids": 41, "count_Mammals": 14, "count_Reptiles": 20, "count_Basidiomycota": 462, "count_Amphibians": 7, "count_Ferns": 9, "count_Mosses": 9, "unique_species_count": 1897.0, "countryCode": "GR" }, "geometry": { "type": "MultiPolygon", "coordinates": [ [ [ [ 22.40902131716425, 39.666092733941319 ], [ 22.337108940822478, 39.198544243660301 ], [ 21.725428939395979, 38.967146028946757 ], [ 21.179925871673159, 39.199730457092649 ], [ 21.243844521681186, 39.666811600412416 ], [ 21.861269168275246, 39.901827727245852 ], [ 22.40902131716425, 39.666092733941319 ] ] ] ] } },
{ "type": "Feature", "properties": { "geogrid_id": "840055086025982737", "seqnum": 15310.0, "lat_c": 40.055086421500349, "lon_c": 25.982737134179906, "res": 8.0, "count_Gymnosperms": 0, "count_Flowering Plants": 19, "count_Molluscs": 0, "count_Birds": 5, "count_Insects": 1, "count_Sac Fungi": 0, "count_Arachnids": 1, "count_Mammals": 3, "count_Reptiles": 2, "count_Basidiomycota": 0, "count_Amphibians": 0, "count_Ferns": 0, "count_Mosses": 0, "unique_species_count": 31.0, "countryCode": "GR" }, "geometry": { "type": "MultiPolygon", "coordinates": [ [ [ [ 26.614767448756076, 40.265387020588499 ], [ 26.512190031684725, 39.79790319847227 ], [ 25.88513495605519, 39.587406155319869 ], [ 25.354395170782709, 39.84182146543273 ], [ 25.448850631744882, 40.309526720909076 ], [ 26.082198648268417, 40.52264252118804 ], [ 26.614767448756076, 40.265387020588499 ] ] ] ] } },
{ "type": "Feature", "properties": { "geogrid_id": "840089438018953179", "seqnum": 14818.0, "lat_c": 40.08943801830042, "lon_c": 18.953179273540552, "res": 8.0, "count_Gymnosperms": 0, "count_Flowering Plants": 11, "count_Molluscs": 1, "count_Birds": 1, "count_Insects": 3, "count_Sac Fungi": 0, "count_Arachnids": 0, "count_Mammals": 3, "count_Reptiles": 1, "count_Basidiomycota": 0, "count_Amphibians": 1, "count_Ferns": 0, "count_Mosses": 0, "unique_species_count": 21.0, "countryCode": "GR" }, "geometry": { "type": "MultiPolygon", "coordinates": [ [ [ [ 19.570112277492466, 40.339614051905897 ], [ 19.516604527089431, 39.873561269777412 ], [ 18.904211976052025, 39.623824803998708 ], [ 18.339854481652765, 39.835350226431686 ], [ 18.385266095354726, 40.300528134588006 ], [ 19.003119512267148, 40.555100878097996 ], [ 19.570112277492466, 40.339614051905897 ] ] ] ] } },
{ "type": "Feature", "properties": { "geogrid_id": "840093395024819228", "seqnum": 15228.0, "lat_c": 40.093394740039791, "lon_c": 24.819228340052199, "res": 8.0, "count_Gymnosperms": 2, "count_Flowering Plants": 246, "count_Molluscs": 41, "count_Birds": 53, "count_Insects": 145, "count_Sac Fungi": 2, "count_Arachnids": 10, "count_Mammals": 9, "count_Reptiles": 9, "count_Basidiomycota": 11, "count_Amphibians": 6, "count_Ferns": 2, "count_Mosses": 0, "unique_species_count": 536.0, "countryCode": "GR" }, "geometry": { "type": "MultiPolygon", "coordinates": [ [ [ [ 25.448850631744882, 40.309526720909076 ], [ 25.354395170782709, 39.84182146543273 ], [ 24.72970108411586, 39.625594753752374 ], [ 24.193289182354892, 39.874243473977053 ], [ 24.279574211090726, 40.341990256461472 ], [ 24.910467107389056, 40.561095714992732 ], [ 25.448850631744882, 40.309526720909076 ] ] ] ] } },
{ "type": "Feature", "properties": { "geogrid_id": "840119579020132561", "seqnum": 14900.0, "lat_c": 40.11957919230673, "lon_c": 20.132560985521614, "res": 8.0, "count_Gymnosperms": 9, "count_Flowering Plants": 713, "count_Molluscs": 51, "count_Birds": 104, "count_Insects": 671, "count_Sac Fungi": 40, "count_Arachnids": 35, "count_Mammals": 13, "count_Reptiles": 31, "count_Basidiomycota": 147, "count_Amphibians": 12, "count_Ferns": 8, "count_Mosses": 5, "unique_species_count": 1839.0, "countryCode": "GR" }, "geometry": { "type": "MultiPolygon", "coordinates": [ [ [ [ 20.75213810109415, 40.361991486469478 ], [ 20.690467451423849, 39.895236673094075 ], [ 20.075533081056015, 39.65315821043604 ], [ 19.516604527089431, 39.873561269777412 ], [ 19.570112277492466, 40.339614051905897 ], [ 20.190708761333937, 40.58601494319123 ], [ 20.75213810109415, 40.361991486469478 ] ] ] ] } },
{ "type": "Feature", "properties": { "geogrid_id": "840119801023652401", "seqnum": 15146.0, "lat_c": 40.119800543574357, "lon_c": 23.652400651756782, "res": 8.0, "count_Gymnosperms": 10, "count_Flowering Plants": 563, "count_Molluscs": 273, "count_Birds": 164, "count_Insects": 778, "count_Sac Fungi": 3, "count_Arachnids": 49, "count_Mammals": 22, "count_Reptiles": 26, "count_Basidiomycota": 22, "count_Amphibians": 10, "count_Ferns": 2, "count_Mosses": 1, "unique_species_count": 1923.0, "countryCode": "GR" }, "geometry": { "type": "MultiPolygon", "coordinates": [ [ [ [ 24.279574211090726, 40.341990256461472 ], [ 24.193289182354892, 39.874243473977053 ], [ 23.570988187146988, 39.652063613892572 ], [ 23.028899449995858, 39.894509736785565 ], [ 23.106983071736465, 40.362113480974912 ], [ 23.735376451369834, 40.5874643496877 ], [ 24.279574211090726, 40.341990256461472 ] ] ] ] } },
{ "type": "Feature", "properties": { "geogrid_id": "840133580022482298", "seqnum": 15064.0, "lat_c": 40.133579627672368, "lon_c": 22.482297649316159, "res": 8.0, "count_Gymnosperms": 17, "count_Flowering Plants": 884, "count_Molluscs": 147, "count_Birds": 232, "count_Insects": 999, "count_Sac Fungi": 17, "count_Arachnids": 43, "count_Mammals": 21, "count_Reptiles": 30, "count_Basidiomycota": 26, "count_Amphibians": 11, "count_Ferns": 15, "count_Mosses": 4, "unique_species_count": 2446.0, "countryCode": "GR" }, "geometry": { "type": "MultiPolygon", "coordinates": [ [ [ [ 23.106983071736465, 40.362113480974912 ], [ 23.028899449995858, 39.894509736785565 ], [ 22.40902131716425, 39.666092733941319 ], [ 21.861269168275246, 39.901827727245852 ], [ 21.931140398650008, 40.369100893430307 ], [ 22.556989145960138, 40.601020567760585 ], [ 23.106983071736465, 40.362113480974912 ] ] ] ] } },
{ "type": "Feature", "properties": { "geogrid_id": "840133859021308985", "seqnum": 14982.0, "lat_c": 40.133859396170827, "lon_c": 21.308984593793941, "res": 8.0, "count_Gymnosperms": 13, "count_Flowering Plants": 1137, "count_Molluscs": 16, "count_Birds": 185, "count_Insects": 1382, "count_Sac Fungi": 43, "count_Arachnids": 47, "count_Mammals": 20, "count_Reptiles": 25, "count_Basidiomycota": 259, "count_Amphibians": 12, "count_Ferns": 16, "count_Mosses": 9, "unique_species_count": 3164.0, "countryCode": "GR" }, "geometry": { "type": "MultiPolygon", "coordinates": [ [ [ [ 21.931140398650008, 40.369100893430307 ], [ 21.861269168275246, 39.901827727245852 ], [ 21.243844521681186, 39.666811600412416 ], [ 20.690467451423849, 39.895236673094075 ], [ 20.75213810109415, 40.361991486469478 ], [ 21.375391950989169, 40.60089031286256 ], [ 21.931140398650008, 40.369100893430307 ] ] ] ] } },
{ "type": "Feature", "properties": { "geogrid_id": "840732740026719313", "seqnum": 19740.0, "lat_c": 40.732739803364943, "lon_c": 26.719312596231184, "res": 8.0, "count_Gymnosperms": 0, "count_Flowering Plants": 21, "count_Molluscs": 1, "count_Birds": 55, "count_Insects": 12, "count_Sac Fungi": 0, "count_Arachnids": 0, "count_Mammals": 6, "count_Reptiles": 6, "count_Basidiomycota": 0, "count_Amphibians": 2, "count_Ferns": 0, "count_Mosses": 0, "unique_species_count": 103.0, "countryCode": "GR" }, "geometry": { "type": "MultiPolygon", "coordinates": [ [ [ [ 26.822072742482849, 41.206411911439098 ], [ 27.35271048475817, 40.952624320887971 ], [ 27.246822620298335, 40.479068311558621 ], [ 26.614767448756076, 40.265387020588499 ], [ 26.082198648268417, 40.52264252118804 ], [ 26.183587087694065, 40.990086191332942 ], [ 26.822072742482849, 41.206411911439098 ] ] ] ] } },
{ "type": "Feature", "properties": { "geogrid_id": "840777127025545124", "seqnum": 15229.0, "lat_c": 40.777126570723809, "lon_c": 25.545123976912691, "res": 8.0, "count_Gymnosperms": 6, "count_Flowering Plants": 593, "count_Molluscs": 116, "count_Birds": 320, "count_Insects": 677, "count_Sac Fungi": 4, "count_Arachnids": 34, "count_Mammals": 26, "count_Reptiles": 28, "count_Basidiomycota": 14, "count_Amphibians": 16, "count_Ferns": 4, "count_Mosses": 0, "unique_species_count": 1838.0, "countryCode": "GR" }, "geometry": { "type": "MultiPolygon", "coordinates": [ [ [ [ 26.183587087694065, 40.990086191332942 ], [ 26.082198648268417, 40.52264252118804 ], [ 25.448850631744882, 40.309526720909076 ], [ 24.910467107389056, 40.561095714992732 ], [ 25.003480127584751, 41.028710687487283 ], [ 25.643281239374904, 41.244633196796485 ], [ 26.183587087694065, 40.990086191332942 ] ] ] ] } },
{ "type": "Feature", "properties": { "geogrid_id": "840809658024367527", "seqnum": 15147.0, "lat_c": 40.809657702778978, "lon_c": 24.367526614836905, "res": 8.0, "count_Gymnosperms": 18, "count_Flowering Plants": 1189, "count_Molluscs": 207, "count_Birds": 283, "count_Insects": 1398, "count_Sac Fungi": 56, "count_Arachnids": 82, "count_Mammals": 29, "count_Reptiles": 33, "count_Basidiomycota": 41, "count_Amphibians": 14, "count_Ferns": 12, "count_Mosses": 1, "unique_species_count": 3363.0, "countryCode": "GR" }, "geometry": { "type": "MultiPolygon", "coordinates": [ [ [ [ 25.003480127584751, 41.028710687487283 ], [ 24.910467107389056, 40.561095714992732 ], [ 24.279574211090726, 40.341990256461472 ], [ 23.735376451369834, 40.5874643496877 ], [ 23.819973251961709, 41.055069195284879 ], [ 24.457207380741039, 41.277259200728608 ], [ 25.003480127584751, 41.028710687487283 ] ] ] ] } },
{ "type": "Feature", "properties": { "geogrid_id": "840828753020815024", "seqnum": 14901.0, "lat_c": 40.82875307090238, "lon_c": 20.815024169138869, "res": 8.0, "count_Gymnosperms": 4, "count_Flowering Plants": 234, "count_Molluscs": 28, "count_Birds": 155, "count_Insects": 698, "count_Sac Fungi": 6, "count_Arachnids": 21, "count_Mammals": 19, "count_Reptiles": 20, "count_Basidiomycota": 17, "count_Amphibians": 10, "count_Ferns": 1, "count_Mosses": 0, "unique_species_count": 1213.0, "countryCode": "GR" }, "geometry": { "type": "MultiPolygon", "coordinates": [ [ [ [ 21.443113469060126, 41.067920301468334 ], [ 21.375391950989169, 40.60089031286256 ], [ 20.75213810109415, 40.361991486469478 ], [ 20.190708761333937, 40.58601494319123 ], [ 20.250017606346407, 41.052481935406021 ], [ 20.879170228480167, 41.295537418296369 ], [ 21.443113469060126, 41.067920301468334 ] ] ] ] } },
{ "type": "Feature", "properties": { "geogrid_id": "840829665023186583", "seqnum": 15065.0, "lat_c": 40.829664888492601, "lon_c": 23.186583281550131, "res": 8.0, "count_Gymnosperms": 10, "count_Flowering Plants": 885, "count_Molluscs": 218, "count_Birds": 312, "count_Insects": 1653, "count_Sac Fungi": 24, "count_Arachnids": 124, "count_Mammals": 40, "count_Reptiles": 34, "count_Basidiomycota": 81, "count_Amphibians": 15, "count_Ferns": 8, "count_Mosses": 4, "unique_species_count": 3408.0, "countryCode": "GR" }, "geometry": { "type": "MultiPolygon", "coordinates": [ [ [ [ 23.819973251961709, 41.055069195284879 ], [ 23.735376451369834, 40.5874643496877 ], [ 23.106983071736465, 40.362113480974912 ], [ 22.556989145960138, 40.601020567760585 ], [ 22.633148179687563, 41.068430714611416 ], [ 23.26775579801544, 41.297178414751151 ], [ 23.819973251961709, 41.055069195284879 ] ] ] ] } },
{ "type": "Feature", "properties": { "geogrid_id": "840836350022002377", "seqnum": 14983.0, "lat_c": 40.836350217960316, "lon_c": 22.002377483633158, "res": 8.0, "count_Gymnosperms": 8, "count_Flowering Plants": 551, "count_Molluscs": 24, "count_Birds": 172, "count_Insects": 564, "count_Sac Fungi": 7, "count_Arachnids": 30, "count_Mammals": 27, "count_Reptiles": 27, "count_Basidiomycota": 15, "count_Amphibians": 8, "count_Ferns": 9, "count_Mosses": 4, "unique_species_count": 1446.0, "countryCode": "GR" }, "geometry": { "type": "MultiPolygon", "coordinates": [ [ [ [ 22.633148179687563, 41.068430714611416 ], [ 22.556989145960138, 40.601020567760585 ], [ 21.931140398650008, 40.369100893430307 ], [ 21.375391950989169, 40.60089031286256 ], [ 21.443113469060126, 41.067920301468334 ], [ 22.075030663902556, 41.303591042388142 ], [ 22.633148179687563, 41.068430714611416 ] ] ] ] } },
{ "type": "Feature", "properties": { "geogrid_id": "841457429026286972", "seqnum": 19741.0, "lat_c": 41.457428767647734, "lon_c": 26.286971841648725, "res": 8.0, "count_Gymnosperms": 3, "count_Flowering Plants": 439, "count_Molluscs": 5, "count_Birds": 146, "count_Insects": 533, "count_Sac Fungi": 6, "count_Arachnids": 29, "count_Mammals": 14, "count_Reptiles": 26, "count_Basidiomycota": 5, "count_Amphibians": 14, "count_Ferns": 1, "count_Mosses": 2, "unique_species_count": 1223.0, "countryCode": "GR" }, "geometry": { "type": "MultiPolygon", "coordinates": [ [ [ [ 26.388517930852057, 41.931134502095212 ], [ 26.926900523884619, 41.680020766549475 ], [ 26.822072742482849, 41.206411911439098 ], [ 26.183587087694065, 40.990086191332942 ], [ 25.643281239374904, 41.244633196796485 ], [ 25.743390244455849, 41.712058372399802 ], [ 26.388517930852057, 41.931134502095212 ] ] ] ] } },
{ "type": "Feature", "properties": { "geogrid_id": "841496252025098332", "seqnum": 15148.0, "lat_c": 41.496252248535569, "lon_c": 25.0983317737488, "res": 8.0, "count_Gymnosperms": 5, "count_Flowering Plants": 455, "count_Molluscs": 9, "count_Birds": 123, "count_Insects": 565, "count_Sac Fungi": 8, "count_Arachnids": 13, "count_Mammals": 8, "count_Reptiles": 21, "count_Basidiomycota": 30, "count_Amphibians": 10, "count_Ferns": 8, "count_Mosses": 1, "unique_species_count": 1256.0, "countryCode": "GR" }, "geometry": { "type": "MultiPolygon", "coordinates": [ [ [ [ 25.743390244455849, 41.712058372399802 ], [ 25.643281239374904, 41.244633196796485 ], [ 25.003480127584751, 41.028710687487283 ], [ 24.457207380741039, 41.277259200728608 ], [ 24.548679116765811, 41.744807710701345 ], [ 25.195088201326111, 41.963732572095175 ], [ 25.743390244455849, 41.712058372399802 ] ] ] ] } },
{ "type": "Feature", "properties": { "geogrid_id": "841522629023906250", "seqnum": 15066.0, "lat_c": 41.522628801696612, "lon_c": 23.906250183110821, "res": 8.0, "count_Gymnosperms": 10, "count_Flowering Plants": 546, "count_Molluscs": 15, "count_Birds": 168, "count_Insects": 699, "count_Sac Fungi": 10, "count_Arachnids": 22, "count_Mammals": 15, "count_Reptiles": 24, "count_Basidiomycota": 37, "count_Amphibians": 12, "count_Ferns": 7, "count_Mosses": 4, "unique_species_count": 1569.0, "countryCode": "GR" }, "geometry": { "type": "MultiPolygon", "coordinates": [ [ [ [ 24.548679116765811, 41.744807710701345 ], [ 24.457207380741039, 41.277259200728608 ], [ 23.819973251961709, 41.055069195284879 ], [ 23.26775579801544, 41.297178414751151 ], [ 23.350557789393424, 41.764668064983063 ], [ 23.994267981344041, 41.990156455064174 ], [ 24.548679116765811, 41.744807710701345 ] ] ] ] } },
{ "type": "Feature", "properties": { "geogrid_id": "841535825022710828", "seqnum": 14984.0, "lat_c": 41.535824759681539, "lon_c": 22.710828420977613, "res": 8.0, "count_Gymnosperms": 2, "count_Flowering Plants": 276, "count_Molluscs": 19, "count_Birds": 167, "count_Insects": 498, "count_Sac Fungi": 1, "count_Arachnids": 30, "count_Mammals": 17, "count_Reptiles": 18, "count_Basidiomycota": 17, "count_Amphibians": 7, "count_Ferns": 5, "count_Mosses": 1, "unique_species_count": 1058.0, "countryCode": "GR" }, "geometry": { "type": "MultiPolygon", "coordinates": [ [ [ [ 23.350557789393424, 41.764668064983063 ], [ 23.26775579801544, 41.297178414751151 ], [ 22.633148179687563, 41.068430714611416 ], [ 22.075030663902556, 41.303591042388142 ], [ 22.14915146189702, 41.770838233389746 ], [ 22.790084973001576, 42.003216938244073 ], [ 23.350557789393424, 41.764668064983063 ] ] ] ] } }
]
}
