{
"type": "FeatureCollection",
"name": "GT",
"crs": { "type": "name", "properties": { "name": "urn:ogc:def:crs:OGC:1.3:CRS84" } },
"features": [
{ "type": "Feature", "properties": { "geogrid_id": "5210725022091747428", "seqnum": 34411.0, "lat_c": 10.725021707401041, "lon_c": -91.747428349170207, "res": 8.0, "count_Gymnosperms": 0, "count_Basidiomycota": 0, "count_Ferns": 0, "count_Molluscs": 0, "count_Mosses": 0, "count_Amphibians": 0, "count_Birds": 0, "count_Sac Fungi": 0, "count_Insects": 0, "count_Flowering Plants": 0, "count_Mammals": 7, "count_Reptiles": 0, "count_Arachnids": 0, "unique_species_count": 7.0, "countryCode": "GT" }, "geometry": { "type": "MultiPolygon", "coordinates": [ [ [ [ -91.188393279484856, 10.752407739095865 ], [ -91.42807389813126, 10.358796713736705 ], [ -91.985911919733283, 10.331859606707607 ], [ -92.310619652033353, 10.691506493316322 ], [ -92.072515827813774, 11.084213679196299 ], [ -91.508210474516659, 11.118078274079572 ], [ -91.188393279484856, 10.752407739095865 ] ] ] ] } },
{ "type": "Feature", "properties": { "geogrid_id": "5211042795092641630", "seqnum": 34329.0, "lat_c": 11.04279513983718, "lon_c": -92.641630215725385, "res": 8.0, "count_Gymnosperms": 0, "count_Basidiomycota": 0, "count_Ferns": 0, "count_Molluscs": 0, "count_Mosses": 0, "count_Amphibians": 0, "count_Birds": 0, "count_Sac Fungi": 0, "count_Insects": 0, "count_Flowering Plants": 0, "count_Mammals": 7, "count_Reptiles": 1, "count_Arachnids": 0, "unique_species_count": 8.0, "countryCode": "GT" }, "geometry": { "type": "MultiPolygon", "coordinates": [ [ [ [ -92.072515827813774, 11.084213679196299 ], [ -92.310619652033353, 10.691506493316322 ], [ -92.878742651272731, 10.650305055128943 ], [ -93.216452273803966, 10.991843411525634 ], [ -92.979417920640699, 11.384355797425032 ], [ -92.403763116195165, 11.435256119314596 ], [ -92.072515827813774, 11.084213679196299 ] ] ] ] } },
{ "type": "Feature", "properties": { "geogrid_id": "5211233826094157920", "seqnum": 34246.0, "lat_c": 11.233826465531276, "lon_c": -94.157919696286882, "res": 8.0, "count_Gymnosperms": 0, "count_Basidiomycota": 0, "count_Ferns": 0, "count_Molluscs": 0, "count_Mosses": 0, "count_Amphibians": 0, "count_Birds": 0, "count_Sac Fungi": 0, "count_Insects": 0, "count_Flowering Plants": 0, "count_Mammals": 1, "count_Reptiles": 0, "count_Arachnids": 0, "unique_species_count": 1.0, "countryCode": "GT" }, "geometry": { "type": "MultiPolygon", "coordinates": [ [ [ [ -93.684162992352924, 11.118200366115756 ], [ -93.92021029476382, 10.725271889115149 ], [ -94.393863219513761, 10.8401455241839 ], [ -94.636644572808947, 11.339792744687152 ], [ -94.400071129186358, 11.734413656171014 ], [ -93.921291351266433, 11.627466128411605 ], [ -93.684162992352924, 11.118200366115756 ] ] ] ] } },
{ "type": "Feature", "properties": { "geogrid_id": "5211476858091833648", "seqnum": 34330.0, "lat_c": 11.476857955144675, "lon_c": -91.833647747231169, "res": 8.0, "count_Gymnosperms": 0, "count_Basidiomycota": 0, "count_Ferns": 0, "count_Molluscs": 0, "count_Mosses": 0, "count_Amphibians": 0, "count_Birds": 1, "count_Sac Fungi": 0, "count_Insects": 0, "count_Flowering Plants": 0, "count_Mammals": 7, "count_Reptiles": 1, "count_Arachnids": 0, "unique_species_count": 9.0, "countryCode": "GT" }, "geometry": { "type": "MultiPolygon", "coordinates": [ [ [ [ -91.268224149828299, 11.511033935074371 ], [ -91.508210474516659, 11.118078274079572 ], [ -92.072515827813774, 11.084213679196299 ], [ -92.403763116195165, 11.435256119314596 ], [ -92.165111140252364, 11.827687962773938 ], [ -91.593983470254656, 11.869441261173742 ], [ -91.268224149828299, 11.511033935074371 ] ] ] ] } },
{ "type": "Feature", "properties": { "geogrid_id": "5211511115093447401", "seqnum": 34247.0, "lat_c": 11.51111450647252, "lon_c": -93.447401249804088, "res": 8.0, "count_Gymnosperms": 0, "count_Basidiomycota": 0, "count_Ferns": 0, "count_Molluscs": 0, "count_Mosses": 0, "count_Amphibians": 0, "count_Birds": 0, "count_Sac Fungi": 0, "count_Insects": 0, "count_Flowering Plants": 0, "count_Mammals": 5, "count_Reptiles": 1, "count_Arachnids": 0, "unique_species_count": 6.0, "countryCode": "GT" }, "geometry": { "type": "MultiPolygon", "coordinates": [ [ [ [ -92.979417920640699, 11.384355797425032 ], [ -93.216452273803966, 10.991843411525634 ], [ -93.684162992352924, 11.118200366115756 ], [ -93.921291351266433, 11.627466128411605 ], [ -93.683946885858646, 12.02106814094156 ], [ -93.209895099765006, 11.904014661069237 ], [ -92.979417920640699, 11.384355797425032 ] ] ] ] } },
{ "type": "Feature", "properties": { "geogrid_id": "5211776858092741619", "seqnum": 34248.0, "lat_c": 11.776858320054819, "lon_c": -92.741619405121483, "res": 8.0, "count_Gymnosperms": 0, "count_Basidiomycota": 0, "count_Ferns": 0, "count_Molluscs": 0, "count_Mosses": 0, "count_Amphibians": 0, "count_Birds": 0, "count_Sac Fungi": 0, "count_Insects": 0, "count_Flowering Plants": 0, "count_Mammals": 9, "count_Reptiles": 1, "count_Arachnids": 0, "unique_species_count": 10.0, "countryCode": "GT" }, "geometry": { "type": "MultiPolygon", "coordinates": [ [ [ [ -92.165111140252364, 11.827687962773938 ], [ -92.403763116195165, 11.435256119314596 ], [ -92.979417920640699, 11.384355797425032 ], [ -93.209895099765006, 11.904014661069237 ], [ -92.971614316696517, 12.29690094159176 ], [ -92.5030270585534, 12.169349885499186 ], [ -92.165111140252364, 11.827687962773938 ] ] ] ] } },
{ "type": "Feature", "properties": { "geogrid_id": "5211903893091027435", "seqnum": 34331.0, "lat_c": 11.903892616930863, "lon_c": -91.027435405226285, "res": 8.0, "count_Gymnosperms": 0, "count_Basidiomycota": 0, "count_Ferns": 0, "count_Molluscs": 0, "count_Mosses": 0, "count_Amphibians": 0, "count_Birds": 0, "count_Sac Fungi": 0, "count_Insects": 0, "count_Flowering Plants": 0, "count_Mammals": 8, "count_Reptiles": 0, "count_Arachnids": 0, "unique_species_count": 8.0, "countryCode": "GT" }, "geometry": { "type": "MultiPolygon", "coordinates": [ [ [ [ -90.464802769589681, 11.932396820159781 ], [ -90.706793904671983, 11.539201816299373 ], [ -91.268224149828299, 11.511033935074371 ], [ -91.593983470254656, 11.869441261173742 ], [ -91.353490962140256, 12.261965101853191 ], [ -90.785810360256733, 12.296657618656505 ], [ -90.464802769589681, 11.932396820159781 ] ] ] ] } },
{ "type": "Feature", "properties": { "geogrid_id": "5212220090091925644", "seqnum": 34249.0, "lat_c": 12.220090427381075, "lon_c": -91.925643813143111, "res": 8.0, "count_Gymnosperms": 0, "count_Basidiomycota": 0, "count_Ferns": 0, "count_Molluscs": 0, "count_Mosses": 0, "count_Amphibians": 0, "count_Birds": 0, "count_Sac Fungi": 0, "count_Insects": 0, "count_Flowering Plants": 0, "count_Mammals": 4, "count_Reptiles": 1, "count_Arachnids": 0, "unique_species_count": 5.0, "countryCode": "GT" }, "geometry": { "type": "MultiPolygon", "coordinates": [ [ [ [ -91.353490962140256, 12.261965101853191 ], [ -91.593983470254656, 11.869441261173742 ], [ -92.165111140252364, 11.827687962773938 ], [ -92.5030270585534, 12.169349885499186 ], [ -92.263610857744737, 12.561829317515761 ], [ -91.685330370634333, 12.612463073254474 ], [ -91.353490962140256, 12.261965101853191 ] ] ] ] } },
{ "type": "Feature", "properties": { "geogrid_id": "5212414636093445855", "seqnum": 34166.0, "lat_c": 12.414635512452856, "lon_c": -93.445854891582186, "res": 8.0, "count_Gymnosperms": 0, "count_Basidiomycota": 0, "count_Ferns": 0, "count_Molluscs": 0, "count_Mosses": 0, "count_Amphibians": 0, "count_Birds": 0, "count_Sac Fungi": 0, "count_Insects": 0, "count_Flowering Plants": 0, "count_Mammals": 6, "count_Reptiles": 1, "count_Arachnids": 0, "unique_species_count": 7.0, "countryCode": "GT" }, "geometry": { "type": "MultiPolygon", "coordinates": [ [ [ [ -92.971614316696517, 12.29690094159176 ], [ -93.209895099765006, 11.904014661069237 ], [ -93.683946885858646, 12.02106814094156 ], [ -93.924837938342478, 12.523438123213372 ], [ -93.686112880902513, 12.917854499902719 ], [ -93.206983804532484, 12.808170709543539 ], [ -92.971614316696517, 12.29690094159176 ] ] ] ] } },
{ "type": "Feature", "properties": { "geogrid_id": "5212654431091112138", "seqnum": 34250.0, "lat_c": 12.654430589237196, "lon_c": -91.11213804214313, "res": 8.0, "count_Gymnosperms": 0, "count_Basidiomycota": 0, "count_Ferns": 0, "count_Molluscs": 0, "count_Mosses": 0, "count_Amphibians": 0, "count_Birds": 0, "count_Sac Fungi": 0, "count_Insects": 0, "count_Flowering Plants": 0, "count_Mammals": 5, "count_Reptiles": 0, "count_Arachnids": 0, "unique_species_count": 5.0, "countryCode": "GT" }, "geometry": { "type": "MultiPolygon", "coordinates": [ [ [ [ -90.543315148599859, 12.689331674340586 ], [ -90.785810360256733, 12.296657618656505 ], [ -91.353490962140256, 12.261965101853191 ], [ -91.685330370634333, 12.612463073254474 ], [ -91.444139733746468, 13.004805275200653 ], [ -90.869892337972658, 13.046838478377612 ], [ -90.543315148599859, 12.689331674340586 ] ] ] ] } },
{ "type": "Feature", "properties": { "geogrid_id": "5212689773092732528", "seqnum": 34167.0, "lat_c": 12.689773241561115, "lon_c": -92.732528390435832, "res": 8.0, "count_Gymnosperms": 0, "count_Basidiomycota": 0, "count_Ferns": 0, "count_Molluscs": 0, "count_Mosses": 0, "count_Amphibians": 0, "count_Birds": 0, "count_Sac Fungi": 0, "count_Insects": 0, "count_Flowering Plants": 0, "count_Mammals": 5, "count_Reptiles": 2, "count_Arachnids": 0, "unique_species_count": 7.0, "countryCode": "GT" }, "geometry": { "type": "MultiPolygon", "coordinates": [ [ [ [ -92.263610857744737, 12.561829317515761 ], [ -92.5030270585534, 12.169349885499186 ], [ -92.971614316696517, 12.29690094159176 ], [ -93.206983804532484, 12.808170709543539 ], [ -92.9673018643917, 13.201675718477784 ], [ -92.49260650149661, 13.082631252929085 ], [ -92.263610857744737, 12.561829317515761 ] ] ] ] } },
{ "type": "Feature", "properties": { "geogrid_id": "5212954295092023340", "seqnum": 34168.0, "lat_c": 12.954295353803559, "lon_c": -92.023340410259081, "res": 8.0, "count_Gymnosperms": 0, "count_Basidiomycota": 0, "count_Ferns": 0, "count_Molluscs": 0, "count_Mosses": 0, "count_Amphibians": 0, "count_Birds": 0, "count_Sac Fungi": 0, "count_Insects": 0, "count_Flowering Plants": 0, "count_Mammals": 4, "count_Reptiles": 1, "count_Arachnids": 0, "unique_species_count": 5.0, "countryCode": "GT" }, "geometry": { "type": "MultiPolygon", "coordinates": [ [ [ [ -91.444139733746468, 13.004805275200653 ], [ -91.685330370634333, 12.612463073254474 ], [ -92.263610857744737, 12.561829317515761 ], [ -92.49260650149661, 13.082631252929085 ], [ -92.251817497698525, 13.475474479096434 ], [ -91.782184939360945, 13.34674664216354 ], [ -91.444139733746468, 13.004805275200653 ] ] ] ] } },
{ "type": "Feature", "properties": { "geogrid_id": "5213081917090299916", "seqnum": 34251.0, "lat_c": 13.081917006064126, "lon_c": -90.299915851989454, "res": 8.0, "count_Gymnosperms": 0, "count_Basidiomycota": 0, "count_Ferns": 0, "count_Molluscs": 0, "count_Mosses": 0, "count_Amphibians": 0, "count_Birds": 0, "count_Sac Fungi": 0, "count_Insects": 0, "count_Flowering Plants": 0, "count_Mammals": 3, "count_Reptiles": 1, "count_Arachnids": 0, "unique_species_count": 4.0, "countryCode": "GT" }, "geometry": { "type": "MultiPolygon", "coordinates": [ [ [ [ -89.733634777791195, 13.111229441140409 ], [ -89.978258756155441, 12.718406829016915 ], [ -90.543315148599859, 12.689331674340586 ], [ -90.869892337972658, 13.046838478377612 ], [ -90.626721244848852, 13.439189196713478 ], [ -90.055578441635674, 13.47441536866225 ], [ -89.733634777791195, 13.111229441140409 ] ] ] ] } },
{ "type": "Feature", "properties": { "geogrid_id": "5213312214093446605", "seqnum": 34085.0, "lat_c": 13.312214043529346, "lon_c": -93.446605181154496, "res": 8.0, "count_Gymnosperms": 0, "count_Basidiomycota": 0, "count_Ferns": 0, "count_Molluscs": 0, "count_Mosses": 0, "count_Amphibians": 0, "count_Birds": 0, "count_Sac Fungi": 0, "count_Insects": 0, "count_Flowering Plants": 0, "count_Mammals": 1, "count_Reptiles": 1, "count_Arachnids": 0, "unique_species_count": 2.0, "countryCode": "GT" }, "geometry": { "type": "MultiPolygon", "coordinates": [ [ [ [ -92.9673018643917, 13.201675718477784 ], [ -93.206983804532484, 12.808170709543539 ], [ -93.686112880902513, 12.917854499902719 ], [ -93.929806987698655, 13.414955510080873 ], [ -93.689653706642531, 13.810253401895597 ], [ -93.206281920394474, 13.70652110718725 ], [ -92.9673018643917, 13.201675718477784 ] ] ] ] } },
{ "type": "Feature", "properties": { "geogrid_id": "5213397116091202040", "seqnum": 34169.0, "lat_c": 13.397116231785072, "lon_c": -91.202040484932439, "res": 8.0, "count_Gymnosperms": 0, "count_Basidiomycota": 0, "count_Ferns": 0, "count_Molluscs": 0, "count_Mosses": 0, "count_Amphibians": 0, "count_Birds": 0, "count_Sac Fungi": 0, "count_Insects": 0, "count_Flowering Plants": 0, "count_Mammals": 10, "count_Reptiles": 2, "count_Arachnids": 0, "unique_species_count": 12.0, "countryCode": "GT" }, "geometry": { "type": "MultiPolygon", "coordinates": [ [ [ [ -90.626721244848852, 13.439189196713478 ], [ -90.869892337972658, 13.046838478377612 ], [ -91.444139733746468, 13.004805275200653 ], [ -91.782184939360945, 13.34674664216354 ], [ -91.540113268639331, 13.73918173654657 ], [ -90.959000845354481, 13.789394972209028 ], [ -90.626721244848852, 13.439189196713478 ] ] ] ] } },
{ "type": "Feature", "properties": { "geogrid_id": "5213595152092726777", "seqnum": 34086.0, "lat_c": 13.595152096544314, "lon_c": -92.726777077116296, "res": 8.0, "count_Gymnosperms": 0, "count_Basidiomycota": 0, "count_Ferns": 0, "count_Molluscs": 0, "count_Mosses": 0, "count_Amphibians": 0, "count_Birds": 0, "count_Sac Fungi": 0, "count_Insects": 0, "count_Flowering Plants": 0, "count_Mammals": 5, "count_Reptiles": 2, "count_Arachnids": 0, "unique_species_count": 7.0, "countryCode": "GT" }, "geometry": { "type": "MultiPolygon", "coordinates": [ [ [ [ -92.251817497698525, 13.475474479096434 ], [ -92.49260650149661, 13.082631252929085 ], [ -92.9673018643917, 13.201675718477784 ], [ -93.206281920394474, 13.70652110718725 ], [ -92.965109993290525, 14.100779384975858 ], [ -92.485377180600068, 13.988601014422475 ], [ -92.251817497698525, 13.475474479096434 ] ] ] ] } },
{ "type": "Feature", "properties": { "geogrid_id": "5213831483090382592", "seqnum": 34170.0, "lat_c": 13.831482868371422, "lon_c": -90.382591888252392, "res": 8.0, "count_Gymnosperms": 0, "count_Basidiomycota": 5, "count_Ferns": 2, "count_Molluscs": 99, "count_Mosses": 0, "count_Amphibians": 9, "count_Birds": 162, "count_Sac Fungi": 3, "count_Insects": 109, "count_Flowering Plants": 99, "count_Mammals": 36, "count_Reptiles": 25, "count_Arachnids": 10, "unique_species_count": 559.0, "countryCode": "GT" }, "geometry": { "type": "MultiPolygon", "coordinates": [ [ [ [ -89.810268725779864, 13.866828087617208 ], [ -90.055578441635674, 13.47441536866225 ], [ -90.626721244848852, 13.439189196713478 ], [ -90.959000845354481, 13.789394972209028 ], [ -90.714988652981333, 14.181640361364241 ], [ -90.137471089642034, 14.223719334211024 ], [ -89.810268725779864, 13.866828087617208 ] ] ] ] } },
{ "type": "Feature", "properties": { "geogrid_id": "5213868302092010130", "seqnum": 34087.0, "lat_c": 13.868302245021964, "lon_c": -92.0101298718035, "res": 8.0, "count_Gymnosperms": 0, "count_Basidiomycota": 1, "count_Ferns": 0, "count_Molluscs": 12, "count_Mosses": 0, "count_Amphibians": 2, "count_Birds": 13, "count_Sac Fungi": 0, "count_Insects": 1, "count_Flowering Plants": 2, "count_Mammals": 6, "count_Reptiles": 2, "count_Arachnids": 0, "unique_species_count": 39.0, "countryCode": "GT" }, "geometry": { "type": "MultiPolygon", "coordinates": [ [ [ [ -91.540113268639331, 13.73918173654657 ], [ -91.782184939360945, 13.34674664216354 ], [ -92.251817497698525, 13.475474479096434 ], [ -92.485377180600068, 13.988601014422475 ], [ -92.243069612740484, 14.382023291175603 ], [ -91.767511739900272, 14.261113704945199 ], [ -91.540113268639331, 13.73918173654657 ] ] ] ] } },
{ "type": "Feature", "properties": { "geogrid_id": "5214131599091297094", "seqnum": 34088.0, "lat_c": 14.131599092983384, "lon_c": -91.297093806295976, "res": 8.0, "count_Gymnosperms": 1, "count_Basidiomycota": 79, "count_Ferns": 27, "count_Molluscs": 41, "count_Mosses": 0, "count_Amphibians": 23, "count_Birds": 319, "count_Sac Fungi": 6, "count_Insects": 575, "count_Flowering Plants": 350, "count_Mammals": 51, "count_Reptiles": 48, "count_Arachnids": 28, "unique_species_count": 1548.0, "countryCode": "GT" }, "geometry": { "type": "MultiPolygon", "coordinates": [ [ [ [ -90.714988652981333, 14.181640361364241 ], [ -90.959000845354481, 13.789394972209028 ], [ -91.540113268639331, 13.73918173654657 ], [ -91.767511739900272, 14.261113704945199 ], [ -91.523930820328175, 14.653907848134308 ], [ -91.053094529084035, 14.523997065390931 ], [ -90.714988652981333, 14.181640361364241 ] ] ] ] } },
{ "type": "Feature", "properties": { "geogrid_id": "5214259156089563952", "seqnum": 34171.0, "lat_c": 14.259156091132251, "lon_c": -89.563952302272924, "res": 8.0, "count_Gymnosperms": 1, "count_Basidiomycota": 21, "count_Ferns": 11, "count_Molluscs": 1, "count_Mosses": 0, "count_Amphibians": 13, "count_Birds": 124, "count_Sac Fungi": 2, "count_Insects": 147, "count_Flowering Plants": 199, "count_Mammals": 31, "count_Reptiles": 25, "count_Arachnids": 4, "unique_species_count": 579.0, "countryCode": "GT" }, "geometry": { "type": "MultiPolygon", "coordinates": [ [ [ [ -88.99392851277058, 14.289001323828446 ], [ -89.241505282466136, 13.896524534616137 ], [ -89.810268725779864, 13.866828087617208 ], [ -90.137471089642034, 14.223719334211024 ], [ -89.891325334553358, 14.615898168291025 ], [ -89.316594515275369, 14.651399937252686 ], [ -88.99392851277058, 14.289001323828446 ] ] ] ] } },
{ "type": "Feature", "properties": { "geogrid_id": "5214494992092723056", "seqnum": 34005.0, "lat_c": 14.494991980725482, "lon_c": -92.72305606819819, "res": 8.0, "count_Gymnosperms": 0, "count_Basidiomycota": 0, "count_Ferns": 0, "count_Molluscs": 3, "count_Mosses": 0, "count_Amphibians": 0, "count_Birds": 0, "count_Sac Fungi": 0, "count_Insects": 0, "count_Flowering Plants": 0, "count_Mammals": 1, "count_Reptiles": 1, "count_Arachnids": 0, "unique_species_count": 5.0, "countryCode": "GT" }, "geometry": { "type": "MultiPolygon", "coordinates": [ [ [ [ -92.243069612740484, 14.382023291175603 ], [ -92.485377180600068, 13.988601014422475 ], [ -92.965109993290525, 14.100779384975858 ], [ -93.206848773149503, 14.600624871494992 ], [ -92.964128900927946, 14.99570917583595 ], [ -92.480086550161815, 14.889161465826996 ], [ -92.243069612740484, 14.382023291175603 ] ] ] ] } },
{ "type": "Feature", "properties": { "geogrid_id": "5214573851090469971", "seqnum": 34089.0, "lat_c": 14.573851103360367, "lon_c": -90.469971341282374, "res": 8.0, "count_Gymnosperms": 9, "count_Basidiomycota": 282, "count_Ferns": 45, "count_Molluscs": 27, "count_Mosses": 14, "count_Amphibians": 33, "count_Birds": 341, "count_Sac Fungi": 76, "count_Insects": 912, "count_Flowering Plants": 1120, "count_Mammals": 61, "count_Reptiles": 74, "count_Arachnids": 69, "unique_species_count": 3063.0, "countryCode": "GT" }, "geometry": { "type": "MultiPolygon", "coordinates": [ [ [ [ -89.891325334553358, 14.615898168291025 ], [ -90.137471089642034, 14.223719334211024 ], [ -90.714988652981333, 14.181640361364241 ], [ -91.053094529084035, 14.523997065390931 ], [ -90.808082965882889, 14.916373901249299 ], [ -90.223915918337553, 14.966025743761103 ], [ -89.891325334553358, 14.615898168291025 ] ] ] ] } },
{ "type": "Feature", "properties": { "geogrid_id": "5214681366088745296", "seqnum": 34172.0, "lat_c": 14.681366370564474, "lon_c": -88.745295973907247, "res": 8.0, "count_Gymnosperms": 0, "count_Basidiomycota": 0, "count_Ferns": 0, "count_Molluscs": 0, "count_Mosses": 0, "count_Amphibians": 0, "count_Birds": 0, "count_Sac Fungi": 0, "count_Insects": 6, "count_Flowering Plants": 0, "count_Mammals": 0, "count_Reptiles": 1, "count_Arachnids": 0, "unique_species_count": 7.0, "countryCode": "GT" }, "geometry": { "type": "MultiPolygon", "coordinates": [ [ [ [ -88.177013119252123, 14.706612866454952 ], [ -88.426966894882497, 14.314098859783284 ], [ -88.99392851277058, 14.289001323828446 ], [ -89.316594515275369, 14.651399937252686 ], [ -89.068160415341126, 15.043559836751511 ], [ -88.495571584969724, 15.073620710347289 ], [ -88.177013119252123, 14.706612866454952 ] ] ] ] } },
{ "type": "Feature", "properties": { "geogrid_id": "5214775419091999821", "seqnum": 34006.0, "lat_c": 14.775419423160304, "lon_c": -91.999821481440151, "res": 8.0, "count_Gymnosperms": 3, "count_Basidiomycota": 44, "count_Ferns": 26, "count_Molluscs": 45, "count_Mosses": 15, "count_Amphibians": 46, "count_Birds": 197, "count_Sac Fungi": 9, "count_Insects": 220, "count_Flowering Plants": 320, "count_Mammals": 40, "count_Reptiles": 43, "count_Arachnids": 22, "unique_species_count": 1030.0, "countryCode": "GT" }, "geometry": { "type": "MultiPolygon", "coordinates": [ [ [ [ -91.523930820328175, 14.653907848134308 ], [ -91.767511739900272, 14.261113704945199 ], [ -92.243069612740484, 14.382023291175603 ], [ -92.480086550161815, 14.889161465826996 ], [ -92.236167546152899, 15.283289927976778 ], [ -91.75559953615776, 15.168789607882861 ], [ -91.523930820328175, 14.653907848134308 ] ] ] ] } },
{ "type": "Feature", "properties": { "geogrid_id": "5215008019089644121", "seqnum": 34090.0, "lat_c": 15.008018691306583, "lon_c": -89.644120742603263, "res": 8.0, "count_Gymnosperms": 2, "count_Basidiomycota": 32, "count_Ferns": 33, "count_Molluscs": 1, "count_Mosses": 9, "count_Amphibians": 28, "count_Birds": 102, "count_Sac Fungi": 3, "count_Insects": 251, "count_Flowering Plants": 321, "count_Mammals": 62, "count_Reptiles": 55, "count_Arachnids": 20, "unique_species_count": 919.0, "countryCode": "GT" }, "geometry": { "type": "MultiPolygon", "coordinates": [ [ [ [ -89.068160415341126, 15.043559836751511 ], [ -89.316594515275369, 14.651399937252686 ], [ -89.891325334553358, 14.615898168291025 ], [ -90.223915918337553, 14.966025743761103 ], [ -89.976788946213816, 15.358162670717856 ], [ -89.39582303901102, 15.400079981447524 ], [ -89.068160415341126, 15.043559836751511 ] ] ] ] } },
{ "type": "Feature", "properties": { "geogrid_id": "5215046684091279354", "seqnum": 34007.0, "lat_c": 15.04668350298528, "lon_c": -91.279354412969553, "res": 8.0, "count_Gymnosperms": 9, "count_Basidiomycota": 162, "count_Ferns": 72, "count_Molluscs": 6, "count_Mosses": 90, "count_Amphibians": 19, "count_Birds": 307, "count_Sac Fungi": 48, "count_Insects": 341, "count_Flowering Plants": 710, "count_Mammals": 36, "count_Reptiles": 28, "count_Arachnids": 15, "unique_species_count": 1843.0, "countryCode": "GT" }, "geometry": { "type": "MultiPolygon", "coordinates": [ [ [ [ -90.808082965882889, 14.916373901249299 ], [ -91.053094529084035, 14.523997065390931 ], [ -91.523930820328175, 14.653907848134308 ], [ -91.75559953615776, 15.168789607882861 ], [ -91.510370140688451, 15.562133763632875 ], [ -91.033749378770381, 15.439439339731933 ], [ -90.808082965882889, 14.916373901249299 ] ] ] ] } },
{ "type": "Feature", "properties": { "geogrid_id": "5215308728090562026", "seqnum": 34008.0, "lat_c": 15.308727737143197, "lon_c": -90.562026180894449, "res": 8.0, "count_Gymnosperms": 6, "count_Basidiomycota": 34, "count_Ferns": 125, "count_Molluscs": 18, "count_Mosses": 90, "count_Amphibians": 42, "count_Birds": 203, "count_Sac Fungi": 39, "count_Insects": 448, "count_Flowering Plants": 1239, "count_Mammals": 48, "count_Reptiles": 57, "count_Arachnids": 23, "unique_species_count": 2372.0, "countryCode": "GT" }, "geometry": { "type": "MultiPolygon", "coordinates": [ [ [ [ -89.976788946213816, 15.358162670717856 ], [ -90.223915918337553, 14.966025743761103 ], [ -90.808082965882889, 14.916373901249299 ], [ -91.033749378770381, 15.439439339731933 ], [ -90.787082119371561, 15.832173871974376 ], [ -90.314890756445891, 15.701056594161694 ], [ -89.976788946213816, 15.358162670717856 ] ] ] ] } },
{ "type": "Feature", "properties": { "geogrid_id": "5215435636088818615", "seqnum": 34091.0, "lat_c": 15.435635672375831, "lon_c": -88.818614722277644, "res": 8.0, "count_Gymnosperms": 1, "count_Basidiomycota": 34, "count_Ferns": 49, "count_Molluscs": 40, "count_Mosses": 4, "count_Amphibians": 36, "count_Birds": 145, "count_Sac Fungi": 18, "count_Insects": 277, "count_Flowering Plants": 275, "count_Mammals": 55, "count_Reptiles": 46, "count_Arachnids": 23, "unique_species_count": 1003.0, "countryCode": "GT" }, "geometry": { "type": "MultiPolygon", "coordinates": [ [ [ [ -88.244718998203936, 15.465764980078509 ], [ -88.495571584969724, 15.073620710347289 ], [ -89.068160415341126, 15.043559836751511 ], [ -89.39582303901102, 15.400079981447524 ], [ -89.14639752731533, 15.792080883046948 ], [ -88.567921790279101, 15.82762701495121 ], [ -88.244718998203936, 15.465764980078509 ] ] ] ] } },
{ "type": "Feature", "properties": { "geogrid_id": "5215677379091991265", "seqnum": 33925.0, "lat_c": 15.677379012306327, "lon_c": -91.991264832162145, "res": 8.0, "count_Gymnosperms": 1, "count_Basidiomycota": 21, "count_Ferns": 43, "count_Molluscs": 1, "count_Mosses": 15, "count_Amphibians": 11, "count_Birds": 47, "count_Sac Fungi": 0, "count_Insects": 50, "count_Flowering Plants": 137, "count_Mammals": 13, "count_Reptiles": 22, "count_Arachnids": 4, "unique_species_count": 365.0, "countryCode": "GT" }, "geometry": { "type": "MultiPolygon", "coordinates": [ [ [ [ -91.510370140688451, 15.562133763632875 ], [ -91.75559953615776, 15.168789607882861 ], [ -92.236167546152899, 15.283289927976778 ], [ -92.475881939452108, 15.785696449916383 ], [ -92.230284996183002, 16.180606183348367 ], [ -91.745343821817301, 16.071429956094796 ], [ -91.510370140688451, 15.562133763632875 ] ] ] ] } },
{ "type": "Feature", "properties": { "geogrid_id": "5215750260089728557", "seqnum": 34009.0, "lat_c": 15.750260115152964, "lon_c": -89.728556520485029, "res": 8.0, "count_Gymnosperms": 0, "count_Basidiomycota": 12, "count_Ferns": 35, "count_Molluscs": 5, "count_Mosses": 1, "count_Amphibians": 15, "count_Birds": 102, "count_Sac Fungi": 3, "count_Insects": 98, "count_Flowering Plants": 320, "count_Mammals": 26, "count_Reptiles": 29, "count_Arachnids": 10, "unique_species_count": 656.0, "countryCode": "GT" }, "geometry": { "type": "MultiPolygon", "coordinates": [ [ [ [ -89.14639752731533, 15.792080883046948 ], [ -89.39582303901102, 15.400079981447524 ], [ -89.976788946213816, 15.358162670717856 ], [ -90.314890756445891, 15.701056594161694 ], [ -90.066642775383116, 16.093358373149741 ], [ -89.479184249791416, 16.142316150115196 ], [ -89.14639752731533, 15.792080883046948 ] ] ] ] } },
{ "type": "Feature", "properties": { "geogrid_id": "5215857799087992702", "seqnum": 34092.0, "lat_c": 15.857799439152339, "lon_c": -87.992701557136826, "res": 8.0, "count_Gymnosperms": 0, "count_Basidiomycota": 0, "count_Ferns": 0, "count_Molluscs": 26, "count_Mosses": 0, "count_Amphibians": 2, "count_Birds": 18, "count_Sac Fungi": 0, "count_Insects": 3, "count_Flowering Plants": 1, "count_Mammals": 1, "count_Reptiles": 1, "count_Arachnids": 0, "unique_species_count": 52.0, "countryCode": "GT" }, "geometry": { "type": "MultiPolygon", "coordinates": [ [ [ [ -87.420363684220803, 15.883336061867571 ], [ -87.673749053504238, 15.491230415663503 ], [ -88.244718998203936, 15.465764980078509 ], [ -88.567921790279101, 15.82762701495121 ], [ -88.3160455749139, 16.2195331367598 ], [ -87.739482257340967, 16.249723987415152 ], [ -87.420363684220803, 15.883336061867571 ] ] ] ] } },
{ "type": "Feature", "properties": { "geogrid_id": "5215955452091264099", "seqnum": 33926.0, "lat_c": 15.955451545565699, "lon_c": -91.264099246906937, "res": 8.0, "count_Gymnosperms": 0, "count_Basidiomycota": 1, "count_Ferns": 71, "count_Molluscs": 0, "count_Mosses": 27, "count_Amphibians": 32, "count_Birds": 35, "count_Sac Fungi": 2, "count_Insects": 67, "count_Flowering Plants": 127, "count_Mammals": 20, "count_Reptiles": 28, "count_Arachnids": 1, "unique_species_count": 411.0, "countryCode": "GT" }, "geometry": { "type": "MultiPolygon", "coordinates": [ [ [ [ -90.787082119371561, 15.832173871974376 ], [ -91.033749378770381, 15.439439339731933 ], [ -91.510370140688451, 15.562133763632875 ], [ -91.745343821817301, 16.071429956094796 ], [ -91.498369536244979, 16.465443618046091 ], [ -91.016752369249573, 16.348742358779599 ], [ -90.787082119371561, 15.832173871974376 ] ] ] ] } },
{ "type": "Feature", "properties": { "geogrid_id": "5216184020088895809", "seqnum": 34010.0, "lat_c": 16.184020013324549, "lon_c": -88.895809063021801, "res": 8.0, "count_Gymnosperms": 1, "count_Basidiomycota": 0, "count_Ferns": 2, "count_Molluscs": 48, "count_Mosses": 1, "count_Amphibians": 6, "count_Birds": 40, "count_Sac Fungi": 1, "count_Insects": 36, "count_Flowering Plants": 57, "count_Mammals": 4, "count_Reptiles": 12, "count_Arachnids": 5, "unique_species_count": 213.0, "countryCode": "GT" }, "geometry": { "type": "MultiPolygon", "coordinates": [ [ [ [ -88.3160455749139, 16.2195331367598 ], [ -88.567921790279101, 15.82762701495121 ], [ -89.14639752731533, 15.792080883046948 ], [ -89.479184249791416, 16.142316150115196 ], [ -89.228637235351158, 16.534328689406742 ], [ -88.644022027958442, 16.575895767476229 ], [ -88.3160455749139, 16.2195331367598 ] ] ] ] } },
{ "type": "Feature", "properties": { "geogrid_id": "5216224885090539319", "seqnum": 33927.0, "lat_c": 16.224885457192631, "lon_c": -90.539318556752406, "res": 8.0, "count_Gymnosperms": 0, "count_Basidiomycota": 2, "count_Ferns": 1, "count_Molluscs": 0, "count_Mosses": 1, "count_Amphibians": 11, "count_Birds": 46, "count_Sac Fungi": 3, "count_Insects": 59, "count_Flowering Plants": 75, "count_Mammals": 22, "count_Reptiles": 21, "count_Arachnids": 7, "unique_species_count": 248.0, "countryCode": "GT" }, "geometry": { "type": "MultiPolygon", "coordinates": [ [ [ [ -90.066642775383116, 16.093358373149741 ], [ -90.314890756445891, 15.701056594161694 ], [ -90.787082119371561, 15.832173871974376 ], [ -91.016752369249573, 16.348742358779599 ], [ -90.768294559745513, 16.74200536883356 ], [ -90.290424112801958, 16.617572296379713 ], [ -90.066642775383116, 16.093358373149741 ] ] ] ] } },
{ "type": "Feature", "properties": { "geogrid_id": "5216485631089817248", "seqnum": 33928.0, "lat_c": 16.485630849804693, "lon_c": -89.817247803039422, "res": 8.0, "count_Gymnosperms": 0, "count_Basidiomycota": 20, "count_Ferns": 8, "count_Molluscs": 19, "count_Mosses": 0, "count_Amphibians": 20, "count_Birds": 236, "count_Sac Fungi": 3, "count_Insects": 246, "count_Flowering Plants": 289, "count_Mammals": 40, "count_Reptiles": 44, "count_Arachnids": 25, "unique_species_count": 950.0, "countryCode": "GT" }, "geometry": { "type": "MultiPolygon", "coordinates": [ [ [ [ -89.228637235351158, 16.534328689406742 ], [ -89.479184249791416, 16.142316150115196 ], [ -90.066642775383116, 16.093358373149741 ], [ -90.290424112801958, 16.617572296379713 ], [ -90.040363688745714, 17.010232432902583 ], [ -89.566670868762785, 16.877871669610801 ], [ -89.228637235351158, 16.534328689406742 ] ] ] ] } },
{ "type": "Feature", "properties": { "geogrid_id": "5216859421091250307", "seqnum": 33845.0, "lat_c": 16.859420502938349, "lon_c": -91.250306574934044, "res": 8.0, "count_Gymnosperms": 0, "count_Basidiomycota": 0, "count_Ferns": 0, "count_Molluscs": 1, "count_Mosses": 3, "count_Amphibians": 1, "count_Birds": 85, "count_Sac Fungi": 1, "count_Insects": 26, "count_Flowering Plants": 43, "count_Mammals": 22, "count_Reptiles": 8, "count_Arachnids": 0, "unique_species_count": 190.0, "countryCode": "GT" }, "geometry": { "type": "MultiPolygon", "coordinates": [ [ [ [ -90.768294559745513, 16.74200536883356 ], [ -91.016752369249573, 16.348742358779599 ], [ -91.498369536244979, 16.465443618046091 ], [ -91.735966921219344, 16.970270743774304 ], [ -91.487173700241769, 17.365029296049745 ], [ -91.001119087390478, 17.253360782313255 ], [ -90.768294559745513, 16.74200536883356 ] ] ] ] } },
{ "type": "Feature", "properties": { "geogrid_id": "5216926295088976880", "seqnum": 33929.0, "lat_c": 16.926295485561933, "lon_c": -88.976880050348683, "res": 8.0, "count_Gymnosperms": 1, "count_Basidiomycota": 9, "count_Ferns": 4, "count_Molluscs": 0, "count_Mosses": 0, "count_Amphibians": 13, "count_Birds": 129, "count_Sac Fungi": 1, "count_Insects": 77, "count_Flowering Plants": 74, "count_Mammals": 23, "count_Reptiles": 24, "count_Arachnids": 8, "unique_species_count": 363.0, "countryCode": "GT" }, "geometry": { "type": "MultiPolygon", "coordinates": [ [ [ [ -88.391000305152843, 16.967706322318524 ], [ -88.644022027958442, 16.575895767476229 ], [ -89.228637235351158, 16.534328689406742 ], [ -89.566670868762785, 16.877871669610801 ], [ -89.314876446985267, 17.270078342604354 ], [ -88.723876719134509, 17.318214127242754 ], [ -88.391000305152843, 16.967706322318524 ] ] ] ] } },
{ "type": "Feature", "properties": { "geogrid_id": "5217135240090518690", "seqnum": 33846.0, "lat_c": 17.135239510071212, "lon_c": -90.518690383436322, "res": 8.0, "count_Gymnosperms": 0, "count_Basidiomycota": 28, "count_Ferns": 5, "count_Molluscs": 5, "count_Mosses": 0, "count_Amphibians": 17, "count_Birds": 265, "count_Sac Fungi": 9, "count_Insects": 137, "count_Flowering Plants": 114, "count_Mammals": 31, "count_Reptiles": 48, "count_Arachnids": 8, "unique_species_count": 667.0, "countryCode": "GT" }, "geometry": { "type": "MultiPolygon", "coordinates": [ [ [ [ -90.040363688745714, 17.010232432902583 ], [ -90.290424112801958, 16.617572296379713 ], [ -90.768294559745513, 16.74200536883356 ], [ -91.001119087390478, 17.253360782313255 ], [ -90.750770745401567, 17.647264311758821 ], [ -90.267903894045304, 17.528443492051771 ], [ -90.040363688745714, 17.010232432902583 ] ] ] ] } },
{ "type": "Feature", "properties": { "geogrid_id": "5217402864089789102", "seqnum": 33847.0, "lat_c": 17.402863750678645, "lon_c": -89.789101644364379, "res": 8.0, "count_Gymnosperms": 1, "count_Basidiomycota": 37, "count_Ferns": 16, "count_Molluscs": 16, "count_Mosses": 0, "count_Amphibians": 19, "count_Birds": 274, "count_Sac Fungi": 36, "count_Insects": 438, "count_Flowering Plants": 400, "count_Mammals": 61, "count_Reptiles": 47, "count_Arachnids": 47, "unique_species_count": 1392.0, "countryCode": "GT" }, "geometry": { "type": "MultiPolygon", "coordinates": [ [ [ [ -89.314876446985267, 17.270078342604354 ], [ -89.566670868762785, 16.877871669610801 ], [ -90.040363688745714, 17.010232432902583 ], [ -90.267903894045304, 17.528443492051771 ], [ -90.015898609777167, 17.921615804336291 ], [ -89.536601776948771, 17.795463971738595 ], [ -89.314876446985267, 17.270078342604354 ] ] ] ] } },
{ "type": "Feature", "properties": { "geogrid_id": "5217662248089061828", "seqnum": 33848.0, "lat_c": 17.662248237961876, "lon_c": -89.061828437817198, "res": 8.0, "count_Gymnosperms": 1, "count_Basidiomycota": 6, "count_Ferns": 3, "count_Molluscs": 0, "count_Mosses": 0, "count_Amphibians": 11, "count_Birds": 123, "count_Sac Fungi": 3, "count_Insects": 46, "count_Flowering Plants": 52, "count_Mammals": 11, "count_Reptiles": 9, "count_Arachnids": 4, "unique_species_count": 269.0, "countryCode": "GT" }, "geometry": { "type": "MultiPolygon", "coordinates": [ [ [ [ -88.469590696179338, 17.710082036103575 ], [ -88.723876719134509, 17.318214127242754 ], [ -89.314876446985267, 17.270078342604354 ], [ -89.536601776948771, 17.795463971738595 ], [ -89.282827299940834, 18.188030653232939 ], [ -88.807490147148812, 18.054378578403441 ], [ -88.469590696179338, 17.710082036103575 ] ] ] ] } },
{ "type": "Feature", "properties": { "geogrid_id": "5217759740091237242", "seqnum": 33764.0, "lat_c": 17.759740458513875, "lon_c": -91.237242235353818, "res": 8.0, "count_Gymnosperms": 0, "count_Basidiomycota": 0, "count_Ferns": 0, "count_Molluscs": 0, "count_Mosses": 0, "count_Amphibians": 0, "count_Birds": 0, "count_Sac Fungi": 0, "count_Insects": 0, "count_Flowering Plants": 2, "count_Mammals": 0, "count_Reptiles": 0, "count_Arachnids": 0, "unique_species_count": 2.0, "countryCode": "GT" }, "geometry": { "type": "MultiPolygon", "coordinates": [ [ [ [ -90.750770745401567, 17.647264311758821 ], [ -91.001119087390478, 17.253360782313255 ], [ -91.487173700241769, 17.365029296049745 ], [ -91.726905627355791, 17.866256099923181 ], [ -91.476230373767081, 18.261807430511308 ], [ -90.986135344497669, 18.154405051139111 ], [ -90.750770745401567, 17.647264311758821 ] ] ] ] } },
{ "type": "Feature", "properties": { "geogrid_id": "5218041131090499225", "seqnum": 33765.0, "lat_c": 18.041130645246358, "lon_c": -90.499224715750046, "res": 8.0, "count_Gymnosperms": 0, "count_Basidiomycota": 0, "count_Ferns": 0, "count_Molluscs": 0, "count_Mosses": 0, "count_Amphibians": 0, "count_Birds": 2, "count_Sac Fungi": 0, "count_Insects": 2, "count_Flowering Plants": 0, "count_Mammals": 1, "count_Reptiles": 0, "count_Arachnids": 1, "unique_species_count": 6.0, "countryCode": "GT" }, "geometry": { "type": "MultiPolygon", "coordinates": [ [ [ [ -90.015898609777167, 17.921615804336291 ], [ -90.267903894045304, 17.528443492051771 ], [ -90.750770745401567, 17.647264311758821 ], [ -90.986135344497669, 18.154405051139111 ], [ -90.733815338101223, 18.549023518646027 ], [ -90.2464436332384, 18.434959046906467 ], [ -90.015898609777167, 17.921615804336291 ] ] ] ] } }
]
}
