{
"type": "FeatureCollection",
"name": "GY",
"crs": { "type": "name", "properties": { "name": "urn:ogc:def:crs:OGC:1.3:CRS84" } },
"features": [
{ "type": "Feature", "properties": { "geogrid_id": "5201177734058524919", "seqnum": 10801.0, "lat_c": 1.1777337482904251, "lon_c": -58.524919202168043, "res": 8.0, "count_Mammals": 0, "count_Flowering Plants": 2, "count_Insects": 0, "count_Sac Fungi": 0, "count_Birds": 0, "count_Ferns": 0, "count_Amphibians": 1, "count_Gymnosperms": 0, "count_Arachnids": 0, "count_Molluscs": 0, "count_Mosses": 0, "count_Basidiomycota": 0, "count_Reptiles": 0, "unique_species_count": 3.0, "countryCode": "GY" }, "geometry": { "type": "MultiPolygon", "coordinates": [ [ [ [ -58.047160148905853, 1.266462587414696 ], [ -58.298185593888569, 0.785155834456244 ], [ -58.84055735646659, 0.8083755611567 ], [ -59.072825998132409, 1.207253409166613 ], [ -58.751727345456928, 1.570311651158281 ], [ -58.276655707558412, 1.66696459900926 ], [ -58.047160148905853, 1.266462587414696 ] ] ] ] } },
{ "type": "Feature", "properties": { "geogrid_id": "5202064912058505602", "seqnum": 10720.0, "lat_c": 2.064912280404041, "lon_c": -58.50560186679256, "res": 8.0, "count_Mammals": 5, "count_Flowering Plants": 6, "count_Insects": 1, "count_Sac Fungi": 0, "count_Birds": 25, "count_Ferns": 0, "count_Amphibians": 4, "count_Gymnosperms": 0, "count_Arachnids": 0, "count_Molluscs": 0, "count_Mosses": 0, "count_Basidiomycota": 0, "count_Reptiles": 1, "unique_species_count": 42.0, "countryCode": "GY" }, "geometry": { "type": "MultiPolygon", "coordinates": [ [ [ [ -58.019556653904218, 2.129315921073315 ], [ -58.276655707558412, 1.66696459900926 ], [ -58.751727345456928, 1.570311651158281 ], [ -58.978634917766499, 1.962889528620031 ], [ -58.734189877336675, 2.461372048992971 ], [ -58.249700996487668, 2.533068046278186 ], [ -58.019556653904218, 2.129315921073315 ] ] ] ] } },
{ "type": "Feature", "properties": { "geogrid_id": "5202355467059205667", "seqnum": 10638.0, "lat_c": 2.3554673569758879, "lon_c": -59.205666855165468, "res": 8.0, "count_Mammals": 4, "count_Flowering Plants": 9, "count_Insects": 2, "count_Sac Fungi": 0, "count_Birds": 9, "count_Ferns": 0, "count_Amphibians": 3, "count_Gymnosperms": 0, "count_Arachnids": 0, "count_Molluscs": 0, "count_Mosses": 0, "count_Basidiomycota": 0, "count_Reptiles": 2, "unique_species_count": 29.0, "countryCode": "GY" }, "geometry": { "type": "MultiPolygon", "coordinates": [ [ [ [ -58.734189877336675, 2.461372048992971 ], [ -58.978634917766499, 1.962889528620031 ], [ -59.53282459552176, 2.0001696540266 ], [ -59.761854689744609, 2.395273294960956 ], [ -59.432848146357571, 2.748045100930668 ], [ -58.962575960234695, 2.856892716936289 ], [ -58.734189877336675, 2.461372048992971 ] ] ] ] } },
{ "type": "Feature", "properties": { "geogrid_id": "5202583347057761434", "seqnum": 10721.0, "lat_c": 2.5833468678991109, "lon_c": -57.761433869980408, "res": 8.0, "count_Mammals": 1, "count_Flowering Plants": 0, "count_Insects": 0, "count_Sac Fungi": 0, "count_Birds": 0, "count_Ferns": 0, "count_Amphibians": 0, "count_Gymnosperms": 0, "count_Arachnids": 0, "count_Molluscs": 0, "count_Mosses": 0, "count_Basidiomycota": 0, "count_Reptiles": 0, "unique_species_count": 1.0, "countryCode": "GY" }, "geometry": { "type": "MultiPolygon", "coordinates": [ [ [ [ -57.273400716090137, 2.619718378867336 ], [ -57.531253820608228, 2.172028753792057 ], [ -58.019556653904218, 2.129315921073315 ], [ -58.249700996487668, 2.533068046278186 ], [ -57.991857705640577, 2.991251125796047 ], [ -57.503233376365102, 3.033799192536275 ], [ -57.273400716090137, 2.619718378867336 ] ] ] ] } },
{ "type": "Feature", "properties": { "geogrid_id": "5202789837059990632", "seqnum": 10556.0, "lat_c": 2.789837395283667, "lon_c": -59.990631655332898, "res": 8.0, "count_Mammals": 5, "count_Flowering Plants": 63, "count_Insects": 22, "count_Sac Fungi": 0, "count_Birds": 85, "count_Ferns": 2, "count_Amphibians": 11, "count_Gymnosperms": 0, "count_Arachnids": 1, "count_Molluscs": 4, "count_Mosses": 0, "count_Basidiomycota": 0, "count_Reptiles": 15, "unique_species_count": 208.0, "countryCode": "GY" }, "geometry": { "type": "MultiPolygon", "coordinates": [ [ [ [ -59.432848146357571, 2.748045100930668 ], [ -59.761854689744609, 2.395273294960956 ], [ -60.30217814071046, 2.414224454803867 ], [ -60.533595903156346, 2.811533909133974 ], [ -60.219312267873335, 3.184010396143458 ], [ -59.660203843301339, 3.140622711244777 ], [ -59.432848146357571, 2.748045100930668 ] ] ] ] } },
{ "type": "Feature", "properties": { "geogrid_id": "5202934476058479605", "seqnum": 10639.0, "lat_c": 2.9344757132256269, "lon_c": -58.479604879931976, "res": 8.0, "count_Mammals": 0, "count_Flowering Plants": 12, "count_Insects": 0, "count_Sac Fungi": 0, "count_Birds": 0, "count_Ferns": 0, "count_Amphibians": 0, "count_Gymnosperms": 0, "count_Arachnids": 0, "count_Molluscs": 0, "count_Mosses": 0, "count_Basidiomycota": 0, "count_Reptiles": 0, "unique_species_count": 12.0, "countryCode": "GY" }, "geometry": { "type": "MultiPolygon", "coordinates": [ [ [ [ -57.991857705640577, 2.991251125796047 ], [ -58.249700996487668, 2.533068046278186 ], [ -58.734189877336675, 2.461372048992971 ], [ -58.962575960234695, 2.856892716936289 ], [ -58.709298744229336, 3.334210938706128 ], [ -58.222300887585554, 3.396589621217933 ], [ -57.991857705640577, 2.991251125796047 ] ] ] ] } },
{ "type": "Feature", "properties": { "geogrid_id": "5203251784059190876", "seqnum": 10557.0, "lat_c": 3.2517844975708718, "lon_c": -59.190876418235717, "res": 8.0, "count_Mammals": 6, "count_Flowering Plants": 70, "count_Insects": 40, "count_Sac Fungi": 0, "count_Birds": 99, "count_Ferns": 1, "count_Amphibians": 10, "count_Gymnosperms": 0, "count_Arachnids": 6, "count_Molluscs": 0, "count_Mosses": 0, "count_Basidiomycota": 0, "count_Reptiles": 15, "unique_species_count": 247.0, "countryCode": "GY" }, "geometry": { "type": "MultiPolygon", "coordinates": [ [ [ [ -58.709298744229336, 3.334210938706128 ], [ -58.962575960234695, 2.856892716936289 ], [ -59.432848146357571, 2.748045100930668 ], [ -59.660203843301339, 3.140622711244777 ], [ -59.419179148375697, 3.6462356230625 ], [ -58.938846804977409, 3.73271504245537 ], [ -58.709298744229336, 3.334210938706128 ] ] ] ] } },
{ "type": "Feature", "properties": { "geogrid_id": "5203444689057733565", "seqnum": 10640.0, "lat_c": 3.4446887934561499, "lon_c": -57.733564909586228, "res": 8.0, "count_Mammals": 1, "count_Flowering Plants": 0, "count_Insects": 5, "count_Sac Fungi": 0, "count_Birds": 1, "count_Ferns": 0, "count_Amphibians": 2, "count_Gymnosperms": 0, "count_Arachnids": 0, "count_Molluscs": 0, "count_Mosses": 0, "count_Basidiomycota": 0, "count_Reptiles": 0, "unique_species_count": 9.0, "countryCode": "GY" }, "geometry": { "type": "MultiPolygon", "coordinates": [ [ [ [ -57.245049527493414, 3.482405639327312 ], [ -57.503233376365102, 3.033799192536275 ], [ -57.991857705640577, 2.991251125796047 ], [ -58.222300887585554, 3.396589621217933 ], [ -57.964133997210673, 3.853041633467341 ], [ -57.475146612341803, 3.895523807543142 ], [ -57.245049527493414, 3.482405639327312 ] ] ] ] } },
{ "type": "Feature", "properties": { "geogrid_id": "5203533200059887759", "seqnum": 10475.0, "lat_c": 3.5332001223687848, "lon_c": -59.887759071880609, "res": 8.0, "count_Mammals": 8, "count_Flowering Plants": 61, "count_Insects": 40, "count_Sac Fungi": 0, "count_Birds": 127, "count_Ferns": 1, "count_Amphibians": 4, "count_Gymnosperms": 0, "count_Arachnids": 0, "count_Molluscs": 0, "count_Mosses": 0, "count_Basidiomycota": 0, "count_Reptiles": 13, "unique_species_count": 254.0, "countryCode": "GY" }, "geometry": { "type": "MultiPolygon", "coordinates": [ [ [ [ -59.419179148375697, 3.6462356230625 ], [ -59.660203843301339, 3.140622711244777 ], [ -60.219312267873335, 3.184010396143458 ], [ -60.44800438245656, 3.577890560131168 ], [ -60.115539042634467, 3.925777250058784 ], [ -59.647553188610161, 4.040366798714119 ], [ -59.419179148375697, 3.6462356230625 ] ] ] ] } },
{ "type": "Feature", "properties": { "geogrid_id": "5203799959058452689", "seqnum": 10558.0, "lat_c": 3.799959343146889, "lon_c": -58.452689389837644, "res": 8.0, "count_Mammals": 6, "count_Flowering Plants": 16, "count_Insects": 69, "count_Sac Fungi": 0, "count_Birds": 14, "count_Ferns": 0, "count_Amphibians": 6, "count_Gymnosperms": 0, "count_Arachnids": 4, "count_Molluscs": 0, "count_Mosses": 0, "count_Basidiomycota": 1, "count_Reptiles": 13, "unique_species_count": 129.0, "countryCode": "GY" }, "geometry": { "type": "MultiPolygon", "coordinates": [ [ [ [ -57.964133997210673, 3.853041633467341 ], [ -58.222300887585554, 3.396589621217933 ], [ -58.709298744229336, 3.334210938706128 ], [ -58.938846804977409, 3.73271504245537 ], [ -58.683017522103007, 4.201790139476372 ], [ -58.1948155489196, 4.259352609091287 ], [ -57.964133997210673, 3.853041633467341 ] ] ] ] } },
{ "type": "Feature", "properties": { "geogrid_id": "5204130289059168319", "seqnum": 10476.0, "lat_c": 4.1302888724024376, "lon_c": -59.168318996958462, "res": 8.0, "count_Mammals": 50, "count_Flowering Plants": 175, "count_Insects": 246, "count_Sac Fungi": 1, "count_Birds": 287, "count_Ferns": 3, "count_Amphibians": 26, "count_Gymnosperms": 0, "count_Arachnids": 23, "count_Molluscs": 0, "count_Mosses": 0, "count_Basidiomycota": 6, "count_Reptiles": 49, "unique_species_count": 866.0, "countryCode": "GY" }, "geometry": { "type": "MultiPolygon", "coordinates": [ [ [ [ -58.683017522103007, 4.201790139476372 ], [ -58.938846804977409, 3.73271504245537 ], [ -59.419179148375697, 3.6462356230625 ], [ -59.647553188610161, 4.040366798714119 ], [ -59.397781976721497, 4.527144151171067 ], [ -58.913310745013781, 4.602398194370352 ], [ -58.683017522103007, 4.201790139476372 ] ] ] ] } },
{ "type": "Feature", "properties": { "geogrid_id": "5204306225057705639", "seqnum": 10559.0, "lat_c": 4.30622483850384, "lon_c": -57.705639136828779, "res": 8.0, "count_Mammals": 0, "count_Flowering Plants": 1, "count_Insects": 4, "count_Sac Fungi": 0, "count_Birds": 11, "count_Ferns": 0, "count_Amphibians": 0, "count_Gymnosperms": 0, "count_Arachnids": 1, "count_Molluscs": 0, "count_Mosses": 0, "count_Basidiomycota": 0, "count_Reptiles": 1, "unique_species_count": 18.0, "countryCode": "GY" }, "geometry": { "type": "MultiPolygon", "coordinates": [ [ [ [ -57.216645933777983, 4.344789399486044 ], [ -57.475146612341803, 3.895523807543142 ], [ -57.964133997210673, 3.853041633467341 ], [ -58.1948155489196, 4.259352609091287 ], [ -57.936383892557856, 4.714914011455158 ], [ -57.446963606235606, 4.757364673400122 ], [ -57.216645933777983, 4.344789399486044 ] ] ] ] } },
{ "type": "Feature", "properties": { "geogrid_id": "5204434259059876055", "seqnum": 10394.0, "lat_c": 4.4342589220852631, "lon_c": -59.876055096100174, "res": 8.0, "count_Mammals": 0, "count_Flowering Plants": 14, "count_Insects": 27, "count_Sac Fungi": 1, "count_Birds": 15, "count_Ferns": 0, "count_Amphibians": 0, "count_Gymnosperms": 0, "count_Arachnids": 0, "count_Molluscs": 0, "count_Mosses": 0, "count_Basidiomycota": 0, "count_Reptiles": 5, "unique_species_count": 62.0, "countryCode": "GY" }, "geometry": { "type": "MultiPolygon", "coordinates": [ [ [ [ -59.397781976721497, 4.527144151171067 ], [ -59.647553188610161, 4.040366798714119 ], [ -60.115539042634467, 3.925777250058784 ], [ -60.343569061555236, 4.318353988969712 ], [ -60.104733051879862, 4.827968198014902 ], [ -59.627296775439007, 4.923433992162726 ], [ -59.397781976721497, 4.527144151171067 ] ] ] ] } },
{ "type": "Feature", "properties": { "geogrid_id": "5204664001058425558", "seqnum": 10477.0, "lat_c": 4.6640006486266898, "lon_c": -58.425558291587826, "res": 8.0, "count_Mammals": 40, "count_Flowering Plants": 58, "count_Insects": 193, "count_Sac Fungi": 8, "count_Birds": 152, "count_Ferns": 0, "count_Amphibians": 24, "count_Gymnosperms": 0, "count_Arachnids": 12, "count_Molluscs": 1, "count_Mosses": 0, "count_Basidiomycota": 12, "count_Reptiles": 45, "unique_species_count": 545.0, "countryCode": "GY" }, "geometry": { "type": "MultiPolygon", "coordinates": [ [ [ [ -57.936383892557856, 4.714914011455158 ], [ -58.1948155489196, 4.259352609091287 ], [ -58.683017522103007, 4.201790139476372 ], [ -58.913310745013781, 4.602398194370352 ], [ -58.656351718068763, 5.067279640397878 ], [ -58.167305673576976, 5.121915453419475 ], [ -57.936383892557856, 4.714914011455158 ] ] ] ] } },
{ "type": "Feature", "properties": { "geogrid_id": "5204793043056958030", "seqnum": 10560.0, "lat_c": 4.7930429372597692, "lon_c": -56.958029991099046, "res": 8.0, "count_Mammals": 1, "count_Flowering Plants": 1, "count_Insects": 1, "count_Sac Fungi": 0, "count_Birds": 5, "count_Ferns": 0, "count_Amphibians": 0, "count_Gymnosperms": 0, "count_Arachnids": 0, "count_Molluscs": 0, "count_Mosses": 0, "count_Basidiomycota": 0, "count_Reptiles": 0, "unique_species_count": 8.0, "countryCode": "GY" }, "geometry": { "type": "MultiPolygon", "coordinates": [ [ [ [ -56.470026510224145, 4.82324543387826 ], [ -56.728514995335857, 4.376815613042162 ], [ -57.216645933777983, 4.344789399486044 ], [ -57.446963606235606, 4.757364673400122 ], [ -57.188125613402171, 5.207150817664751 ], [ -56.699245837916841, 5.240610832832589 ], [ -56.470026510224145, 4.82324543387826 ] ] ] ] } },
{ "type": "Feature", "properties": { "geogrid_id": "5205002021059143608", "seqnum": 10395.0, "lat_c": 5.0020206696375942, "lon_c": -59.143608213185267, "res": 8.0, "count_Mammals": 33, "count_Flowering Plants": 89, "count_Insects": 109, "count_Sac Fungi": 60, "count_Birds": 46, "count_Ferns": 3, "count_Amphibians": 25, "count_Gymnosperms": 0, "count_Arachnids": 21, "count_Molluscs": 1, "count_Mosses": 7, "count_Basidiomycota": 17, "count_Reptiles": 33, "unique_species_count": 444.0, "countryCode": "GY" }, "geometry": { "type": "MultiPolygon", "coordinates": [ [ [ [ -58.656351718068763, 5.067279640397878 ], [ -58.913310745013781, 4.602398194370352 ], [ -59.397781976721497, 4.527144151171067 ], [ -59.627296775439007, 4.923433992162726 ], [ -59.373954416595488, 5.400838616007237 ], [ -58.887208044096361, 5.46942038396771 ], [ -58.656351718068763, 5.067279640397878 ] ] ] ] } },
{ "type": "Feature", "properties": { "geogrid_id": "5205168004057677642", "seqnum": 10478.0, "lat_c": 5.1680037154989966, "lon_c": -57.677642117177037, "res": 8.0, "count_Mammals": 0, "count_Flowering Plants": 2, "count_Insects": 1, "count_Sac Fungi": 0, "count_Birds": 4, "count_Ferns": 0, "count_Amphibians": 0, "count_Gymnosperms": 2, "count_Arachnids": 0, "count_Molluscs": 0, "count_Mosses": 0, "count_Basidiomycota": 0, "count_Reptiles": 1, "unique_species_count": 10.0, "countryCode": "GY" }, "geometry": { "type": "MultiPolygon", "coordinates": [ [ [ [ -57.188125613402171, 5.207150817664751 ], [ -57.446963606235606, 4.757364673400122 ], [ -57.936383892557856, 4.714914011455158 ], [ -58.167305673576976, 5.121915453419475 ], [ -57.90859621364509, 5.576981961388557 ], [ -57.418664441299015, 5.619416380282572 ], [ -57.188125613402171, 5.207150817664751 ] ] ] ] } },
{ "type": "Feature", "properties": { "geogrid_id": "5205319272059856919", "seqnum": 10313.0, "lat_c": 5.3192717487311034, "lon_c": -59.856918760261337, "res": 8.0, "count_Mammals": 0, "count_Flowering Plants": 19, "count_Insects": 25, "count_Sac Fungi": 1, "count_Birds": 45, "count_Ferns": 0, "count_Amphibians": 14, "count_Gymnosperms": 1, "count_Arachnids": 4, "count_Molluscs": 0, "count_Mosses": 0, "count_Basidiomycota": 0, "count_Reptiles": 7, "unique_species_count": 116.0, "countryCode": "GY" }, "geometry": { "type": "MultiPolygon", "coordinates": [ [ [ [ -59.373954416595488, 5.400838616007237 ], [ -59.627296775439007, 4.923433992162726 ], [ -60.104733051879862, 4.827968198014902 ], [ -60.333629513570692, 5.221534855893984 ], [ -60.086698322285983, 5.714743058851212 ], [ -59.604395175975206, 5.798992452643343 ], [ -59.373954416595488, 5.400838616007237 ] ] ] ] } },
{ "type": "Feature", "properties": { "geogrid_id": "5205527490058398371", "seqnum": 10396.0, "lat_c": 5.5274904626023336, "lon_c": -58.398370944200316, "res": 8.0, "count_Mammals": 1, "count_Flowering Plants": 6, "count_Insects": 7, "count_Sac Fungi": 1, "count_Birds": 3, "count_Ferns": 0, "count_Amphibians": 4, "count_Gymnosperms": 1, "count_Arachnids": 1, "count_Molluscs": 0, "count_Mosses": 1, "count_Basidiomycota": 0, "count_Reptiles": 6, "unique_species_count": 31.0, "countryCode": "GY" }, "geometry": { "type": "MultiPolygon", "coordinates": [ [ [ [ -57.90859621364509, 5.576981961388557 ], [ -58.167305673576976, 5.121915453419475 ], [ -58.656351718068763, 5.067279640397878 ], [ -58.887208044096361, 5.46942038396771 ], [ -58.629572046936865, 5.931851427844629 ], [ -58.139779467208385, 5.98452805787496 ], [ -57.90859621364509, 5.576981961388557 ] ] ] ] } },
{ "type": "Feature", "properties": { "geogrid_id": "5205614988060562783", "seqnum": 10231.0, "lat_c": 5.6149884164879813, "lon_c": -60.562782959343672, "res": 8.0, "count_Mammals": 4, "count_Flowering Plants": 17, "count_Insects": 6, "count_Sac Fungi": 5, "count_Birds": 19, "count_Ferns": 0, "count_Amphibians": 34, "count_Gymnosperms": 2, "count_Arachnids": 0, "count_Molluscs": 0, "count_Mosses": 4, "count_Basidiomycota": 1, "count_Reptiles": 9, "unique_species_count": 101.0, "countryCode": "GY" }, "geometry": { "type": "MultiPolygon", "coordinates": [ [ [ [ -60.086698322285983, 5.714743058851212 ], [ -60.333629513570692, 5.221534855893984 ], [ -60.800481010466846, 5.103505758951057 ], [ -61.029414128018125, 5.496080451799351 ], [ -60.792229058896851, 6.008351001208423 ], [ -60.316681711363252, 6.109913774903109 ], [ -60.086698322285983, 5.714743058851212 ] ] ] ] } },
{ "type": "Feature", "properties": { "geogrid_id": "5205656000056929097", "seqnum": 10479.0, "lat_c": 5.6560000708600571, "lon_c": -56.929097497594867, "res": 8.0, "count_Mammals": 0, "count_Flowering Plants": 2, "count_Insects": 0, "count_Sac Fungi": 0, "count_Birds": 11, "count_Ferns": 0, "count_Amphibians": 0, "count_Gymnosperms": 0, "count_Arachnids": 0, "count_Molluscs": 0, "count_Mosses": 0, "count_Basidiomycota": 0, "count_Reptiles": 2, "unique_species_count": 15.0, "countryCode": "GY" }, "geometry": { "type": "MultiPolygon", "coordinates": [ [ [ [ -56.440237036244035, 5.687696618567259 ], [ -56.699245837916841, 5.240610832832589 ], [ -57.188125613402171, 5.207150817664751 ], [ -57.418664441299015, 5.619416380282572 ], [ -57.159454438455683, 6.069646060386951 ], [ -56.669835291813136, 6.104178702836423 ], [ -56.440237036244035, 5.687696618567259 ] ] ] ] } },
{ "type": "Feature", "properties": { "geogrid_id": "5205870606059118152", "seqnum": 10314.0, "lat_c": 5.8706062869196511, "lon_c": -59.118152120817541, "res": 8.0, "count_Mammals": 0, "count_Flowering Plants": 7, "count_Insects": 2, "count_Sac Fungi": 0, "count_Birds": 0, "count_Ferns": 0, "count_Amphibians": 0, "count_Gymnosperms": 0, "count_Arachnids": 1, "count_Molluscs": 0, "count_Mosses": 0, "count_Basidiomycota": 0, "count_Reptiles": 0, "unique_species_count": 10.0, "countryCode": "GY" }, "geometry": { "type": "MultiPolygon", "coordinates": [ [ [ [ -58.629572046936865, 5.931851427844629 ], [ -58.887208044096361, 5.46942038396771 ], [ -59.373954416595488, 5.400838616007237 ], [ -59.604395175975206, 5.798992452643343 ], [ -59.349215696019932, 6.27098470888475 ], [ -58.860917539286504, 6.335172391655279 ], [ -58.629572046936865, 5.931851427844629 ] ] ] ] } },
{ "type": "Feature", "properties": { "geogrid_id": "5205888654061258700", "seqnum": 10149.0, "lat_c": 5.8886540744102671, "lon_c": -61.258699691070539, "res": 8.0, "count_Mammals": 1, "count_Flowering Plants": 1, "count_Insects": 0, "count_Sac Fungi": 0, "count_Birds": 0, "count_Ferns": 1, "count_Amphibians": 0, "count_Gymnosperms": 0, "count_Arachnids": 0, "count_Molluscs": 0, "count_Mosses": 0, "count_Basidiomycota": 0, "count_Reptiles": 0, "unique_species_count": 3.0, "countryCode": "GY" }, "geometry": { "type": "MultiPolygon", "coordinates": [ [ [ [ -60.792229058896851, 6.008351001208423 ], [ -61.029414128018125, 5.496080451799351 ], [ -61.593948088591858, 5.544693137737009 ], [ -61.823961141219023, 5.937729824222689 ], [ -61.488363647850534, 6.281226378858503 ], [ -61.022001477107231, 6.401639482107028 ], [ -60.792229058896851, 6.008351001208423 ] ] ] ] } },
{ "type": "Feature", "properties": { "geogrid_id": "5206030074057649559", "seqnum": 10397.0, "lat_c": 6.0300742589823626, "lon_c": -57.649559260206196, "res": 8.0, "count_Mammals": 3, "count_Flowering Plants": 17, "count_Insects": 3, "count_Sac Fungi": 3, "count_Birds": 12, "count_Ferns": 0, "count_Amphibians": 1, "count_Gymnosperms": 2, "count_Arachnids": 1, "count_Molluscs": 0, "count_Mosses": 1, "count_Basidiomycota": 0, "count_Reptiles": 4, "unique_species_count": 47.0, "countryCode": "GY" }, "geometry": { "type": "MultiPolygon", "coordinates": [ [ [ [ -57.159454438455683, 6.069646060386951 ], [ -57.418664441299015, 5.619416380282572 ], [ -57.90859621364509, 5.576981961388557 ], [ -58.139779467208385, 5.98452805787496 ], [ -57.880757571293614, 6.439323731837513 ], [ -57.390231951300478, 6.481749879123123 ], [ -57.159454438455683, 6.069646060386951 ] ] ] ] } },
{ "type": "Feature", "properties": { "geogrid_id": "5206196593059834976", "seqnum": 10232.0, "lat_c": 6.1965926422032398, "lon_c": -59.834975777106678, "res": 8.0, "count_Mammals": 3, "count_Flowering Plants": 15, "count_Insects": 9, "count_Sac Fungi": 2, "count_Birds": 6, "count_Ferns": 1, "count_Amphibians": 0, "count_Gymnosperms": 0, "count_Arachnids": 0, "count_Molluscs": 0, "count_Mosses": 0, "count_Basidiomycota": 0, "count_Reptiles": 1, "unique_species_count": 37.0, "countryCode": "GY" }, "geometry": { "type": "MultiPolygon", "coordinates": [ [ [ [ -59.349215696019932, 6.27098470888475 ], [ -59.604395175975206, 5.798992452643343 ], [ -60.086698322285983, 5.714743058851212 ], [ -60.316681711363252, 6.109913774903109 ], [ -60.065740171651775, 6.593727195364702 ], [ -59.580434114306968, 6.670675257166738 ], [ -59.349215696019932, 6.27098470888475 ] ] ] ] } },
{ "type": "Feature", "properties": { "geogrid_id": "5206390833058371171", "seqnum": 10315.0, "lat_c": 6.3908328604325231, "lon_c": -58.371171277778245, "res": 8.0, "count_Mammals": 29, "count_Flowering Plants": 174, "count_Insects": 209, "count_Sac Fungi": 64, "count_Birds": 162, "count_Ferns": 3, "count_Amphibians": 21, "count_Gymnosperms": 0, "count_Arachnids": 8, "count_Molluscs": 16, "count_Mosses": 5, "count_Basidiomycota": 45, "count_Reptiles": 40, "unique_species_count": 776.0, "countryCode": "GY" }, "geometry": { "type": "MultiPolygon", "coordinates": [ [ [ [ -57.880757571293614, 6.439323731837513 ], [ -58.139779467208385, 5.98452805787496 ], [ -58.629572046936865, 5.931851427844629 ], [ -58.860917539286504, 6.335172391655279 ], [ -58.602768403775592, 6.796056588034562 ], [ -58.112231144831753, 6.847334679506374 ], [ -57.880757571293614, 6.439323731837513 ] ] ] ] } },
{ "type": "Feature", "properties": { "geogrid_id": "5206504835060546912", "seqnum": 10150.0, "lat_c": 6.5048353236641674, "lon_c": -60.546911815671699, "res": 8.0, "count_Mammals": 0, "count_Flowering Plants": 0, "count_Insects": 6, "count_Sac Fungi": 0, "count_Birds": 0, "count_Ferns": 0, "count_Amphibians": 0, "count_Gymnosperms": 0, "count_Arachnids": 0, "count_Molluscs": 0, "count_Mosses": 0, "count_Basidiomycota": 0, "count_Reptiles": 0, "unique_species_count": 6.0, "countryCode": "GY" }, "geometry": { "type": "MultiPolygon", "coordinates": [ [ [ [ -60.065740171651775, 6.593727195364702 ], [ -60.316681711363252, 6.109913774903109 ], [ -60.792229058896851, 6.008351001208423 ], [ -61.022001477107231, 6.401639482107028 ], [ -60.777428828091324, 6.899548414819144 ], [ -60.296730710514453, 6.990467041029463 ], [ -60.065740171651775, 6.593727195364702 ] ] ] ] } },
{ "type": "Feature", "properties": { "geogrid_id": "5206737597059092426", "seqnum": 10233.0, "lat_c": 6.7375970943544381, "lon_c": -59.092426181389179, "res": 8.0, "count_Mammals": 5, "count_Flowering Plants": 4, "count_Insects": 158, "count_Sac Fungi": 0, "count_Birds": 7, "count_Ferns": 0, "count_Amphibians": 5, "count_Gymnosperms": 0, "count_Arachnids": 1, "count_Molluscs": 0, "count_Mosses": 0, "count_Basidiomycota": 0, "count_Reptiles": 10, "unique_species_count": 190.0, "countryCode": "GY" }, "geometry": { "type": "MultiPolygon", "coordinates": [ [ [ [ -58.602768403775592, 6.796056588034562 ], [ -58.860917539286504, 6.335172391655279 ], [ -59.349215696019932, 6.27098470888475 ], [ -59.580434114306968, 6.670675257166738 ], [ -59.32412314495884, 7.139245135981355 ], [ -58.834579363120476, 7.20033450455605 ], [ -58.602768403775592, 6.796056588034562 ] ] ] ] } },
{ "type": "Feature", "properties": { "geogrid_id": "5206892485057621376", "seqnum": 10316.0, "lat_c": 6.8924854503576984, "lon_c": -57.621375786801579, "res": 8.0, "count_Mammals": 6, "count_Flowering Plants": 37, "count_Insects": 27, "count_Sac Fungi": 1, "count_Birds": 116, "count_Ferns": 1, "count_Amphibians": 4, "count_Gymnosperms": 1, "count_Arachnids": 2, "count_Molluscs": 0, "count_Mosses": 0, "count_Basidiomycota": 2, "count_Reptiles": 14, "unique_species_count": 211.0, "countryCode": "GY" }, "geometry": { "type": "MultiPolygon", "coordinates": [ [ [ [ -57.130608299486639, 6.932380492649812 ], [ -57.390231951300478, 6.481749879123123 ], [ -57.880757571293614, 6.439323731837513 ], [ -58.112231144831753, 6.847334679506374 ], [ -57.852853816827967, 7.302003586803686 ], [ -57.36164981252773, 7.344426151251971 ], [ -57.130608299486639, 6.932380492649812 ] ] ] ] } },
{ "type": "Feature", "properties": { "geogrid_id": "5207069776059811844", "seqnum": 10151.0, "lat_c": 7.0697759266926674, "lon_c": -59.811844414305369, "res": 8.0, "count_Mammals": 2, "count_Flowering Plants": 2, "count_Insects": 0, "count_Sac Fungi": 0, "count_Birds": 1, "count_Ferns": 0, "count_Amphibians": 0, "count_Gymnosperms": 0, "count_Arachnids": 0, "count_Molluscs": 0, "count_Mosses": 0, "count_Basidiomycota": 0, "count_Reptiles": 2, "unique_species_count": 7.0, "countryCode": "GY" }, "geometry": { "type": "MultiPolygon", "coordinates": [ [ [ [ -59.32412314495884, 7.139245135981355 ], [ -59.580434114306968, 6.670675257166738 ], [ -60.065740171651775, 6.593727195364702 ], [ -60.296730710514453, 6.990467041029463 ], [ -60.043484239569047, 7.468367698504472 ], [ -59.556037598939795, 7.540216729710024 ], [ -59.32412314495884, 7.139245135981355 ] ] ] ] } },
{ "type": "Feature", "properties": { "geogrid_id": "5207254253058343969", "seqnum": 10234.0, "lat_c": 7.2542525057539162, "lon_c": -58.343968880228744, "res": 8.0, "count_Mammals": 0, "count_Flowering Plants": 29, "count_Insects": 16, "count_Sac Fungi": 1, "count_Birds": 10, "count_Ferns": 0, "count_Amphibians": 1, "count_Gymnosperms": 0, "count_Arachnids": 0, "count_Molluscs": 6, "count_Mosses": 0, "count_Basidiomycota": 0, "count_Reptiles": 3, "unique_species_count": 66.0, "countryCode": "GY" }, "geometry": { "type": "MultiPolygon", "coordinates": [ [ [ [ -57.852853816827967, 7.302003586803686 ], [ -58.112231144831753, 6.847334679506374 ], [ -58.602768403775592, 6.796056588034562 ], [ -58.834579363120476, 7.20033450455605 ], [ -58.575971867578623, 7.660202180512242 ], [ -58.084650117276276, 7.710435435734085 ], [ -57.852853816827967, 7.302003586803686 ] ] ] ] } },
{ "type": "Feature", "properties": { "geogrid_id": "5207386870060527988", "seqnum": 10069.0, "lat_c": 7.3868699325130658, "lon_c": -60.52798813838983, "res": 8.0, "count_Mammals": 0, "count_Flowering Plants": 2, "count_Insects": 48, "count_Sac Fungi": 0, "count_Birds": 2, "count_Ferns": 0, "count_Amphibians": 1, "count_Gymnosperms": 0, "count_Arachnids": 1, "count_Molluscs": 0, "count_Mosses": 0, "count_Basidiomycota": 0, "count_Reptiles": 0, "unique_species_count": 54.0, "countryCode": "GY" }, "geometry": { "type": "MultiPolygon", "coordinates": [ [ [ [ -60.043484239569047, 7.468367698504472 ], [ -60.296730710514453, 6.990467041029463 ], [ -60.777428828091324, 6.899548414819144 ], [ -61.008270794999916, 7.294085660676344 ], [ -60.759551709983711, 7.782983331758241 ], [ -60.275391229274391, 7.866518023117787 ], [ -60.043484239569047, 7.468367698504472 ] ] ] ] } },
{ "type": "Feature", "properties": { "geogrid_id": "5207603781059066621", "seqnum": 10152.0, "lat_c": 7.6037814375012349, "lon_c": -59.066620686662546, "res": 8.0, "count_Mammals": 4, "count_Flowering Plants": 1, "count_Insects": 19, "count_Sac Fungi": 0, "count_Birds": 11, "count_Ferns": 0, "count_Amphibians": 3, "count_Gymnosperms": 0, "count_Arachnids": 1, "count_Molluscs": 0, "count_Mosses": 0, "count_Basidiomycota": 0, "count_Reptiles": 8, "unique_species_count": 47.0, "countryCode": "GY" }, "geometry": { "type": "MultiPolygon", "coordinates": [ [ [ [ -58.575971867578623, 7.660202180512242 ], [ -58.834579363120476, 7.20033450455605 ], [ -59.32412314495884, 7.139245135981355 ], [ -59.556037598939795, 7.540216729710024 ], [ -59.298914385569589, 8.00649538418285 ], [ -58.80824993578485, 8.06529155695184 ], [ -58.575971867578623, 7.660202180512242 ] ] ] ] } },
{ "type": "Feature", "properties": { "geogrid_id": "5207940596059788201", "seqnum": 10070.0, "lat_c": 7.9405963965436603, "lon_c": -59.788201162227018, "res": 8.0, "count_Mammals": 2, "count_Flowering Plants": 5, "count_Insects": 13, "count_Sac Fungi": 0, "count_Birds": 28, "count_Ferns": 0, "count_Amphibians": 4, "count_Gymnosperms": 0, "count_Arachnids": 1, "count_Molluscs": 0, "count_Mosses": 0, "count_Basidiomycota": 0, "count_Reptiles": 2, "unique_species_count": 55.0, "countryCode": "GY" }, "geometry": { "type": "MultiPolygon", "coordinates": [ [ [ [ -59.298914385569589, 8.00649538418285 ], [ -59.556037598939795, 7.540216729710024 ], [ -60.043484239569047, 7.468367698504472 ], [ -60.275391229274391, 7.866518023117787 ], [ -60.020646910013305, 8.340455859305719 ], [ -59.53148622537087, 8.408560402323795 ], [ -59.298914385569589, 8.00649538418285 ] ] ] ] } },
{ "type": "Feature", "properties": { "geogrid_id": "5208117895058316761", "seqnum": 10153.0, "lat_c": 8.1178953914438488, "lon_c": -58.316760726996421, "res": 8.0, "count_Mammals": 0, "count_Flowering Plants": 0, "count_Insects": 0, "count_Sac Fungi": 0, "count_Birds": 0, "count_Ferns": 0, "count_Amphibians": 0, "count_Gymnosperms": 0, "count_Arachnids": 0, "count_Molluscs": 49, "count_Mosses": 0, "count_Basidiomycota": 0, "count_Reptiles": 0, "unique_species_count": 49.0, "countryCode": "GY" }, "geometry": { "type": "MultiPolygon", "coordinates": [ [ [ [ -57.824870409523662, 8.165079437740633 ], [ -58.084650117276276, 7.710435435734085 ], [ -58.575971867578623, 7.660202180512242 ], [ -58.80824993578485, 8.06529155695184 ], [ -58.54919058057348, 8.524483547842774 ], [ -58.057023796610785, 8.573909406450202 ], [ -57.824870409523662, 8.165079437740633 ] ] ] ] } },
{ "type": "Feature", "properties": { "geogrid_id": "5208245723056841099", "seqnum": 10236.0, "lat_c": 8.2457233731260366, "lon_c": -56.841099401255029, "res": 8.0, "count_Mammals": 1, "count_Flowering Plants": 0, "count_Insects": 0, "count_Sac Fungi": 0, "count_Birds": 0, "count_Ferns": 0, "count_Amphibians": 0, "count_Gymnosperms": 0, "count_Arachnids": 0, "count_Molluscs": 0, "count_Mosses": 0, "count_Basidiomycota": 0, "count_Reptiles": 0, "unique_species_count": 1.0, "countryCode": "GY" }, "geometry": { "type": "MultiPolygon", "coordinates": [ [ [ [ -56.349645737983003, 8.28022697540449 ], [ -56.610354622106584, 7.831460574979551 ], [ -57.101566946217297, 7.795435713987231 ], [ -57.332901883567601, 8.207501448382004 ], [ -57.072311693451837, 8.658881060087198 ], [ -56.580211257357199, 8.695443779594269 ], [ -56.349645737983003, 8.28022697540449 ] ] ] ] } },
{ "type": "Feature", "properties": { "geogrid_id": "5208469614059040819", "seqnum": 10071.0, "lat_c": 8.4696140946935365, "lon_c": -59.04081921755747, "res": 8.0, "count_Mammals": 0, "count_Flowering Plants": 0, "count_Insects": 0, "count_Sac Fungi": 0, "count_Birds": 0, "count_Ferns": 0, "count_Amphibians": 0, "count_Gymnosperms": 0, "count_Arachnids": 0, "count_Molluscs": 18, "count_Mosses": 0, "count_Basidiomycota": 0, "count_Reptiles": 0, "unique_species_count": 18.0, "countryCode": "GY" }, "geometry": { "type": "MultiPolygon", "coordinates": [ [ [ [ -58.54919058057348, 8.524483547842774 ], [ -58.80824993578485, 8.06529155695184 ], [ -59.298914385569589, 8.00649538418285 ], [ -59.53148622537087, 8.408560402323795 ], [ -59.273700418254116, 8.873251099941372 ], [ -58.78195127221764, 8.930287760783532 ], [ -58.54919058057348, 8.524483547842774 ] ] ] ] } },
{ "type": "Feature", "properties": { "geogrid_id": "5208618527057564647", "seqnum": 10154.0, "lat_c": 8.6185265868165999, "lon_c": -57.564646727509206, "res": 8.0, "count_Mammals": 0, "count_Flowering Plants": 0, "count_Insects": 0, "count_Sac Fungi": 0, "count_Birds": 0, "count_Ferns": 0, "count_Amphibians": 0, "count_Gymnosperms": 0, "count_Arachnids": 0, "count_Molluscs": 1, "count_Mosses": 0, "count_Basidiomycota": 0, "count_Reptiles": 0, "unique_species_count": 1.0, "countryCode": "GY" }, "geometry": { "type": "MultiPolygon", "coordinates": [ [ [ [ -57.072311693451837, 8.658881060087198 ], [ -57.332901883567601, 8.207501448382004 ], [ -57.824870409523662, 8.165079437740633 ], [ -58.057023796610785, 8.573909406450202 ], [ -57.796792512800138, 9.02860604367169 ], [ -57.303971921842667, 9.071029611555046 ], [ -57.072311693451837, 8.658881060087198 ] ] ] ] } }
]
}
