{
"type": "FeatureCollection",
"name": "HN",
"crs": { "type": "name", "properties": { "name": "urn:ogc:def:crs:OGC:1.3:CRS84" } },
"features": [
{ "type": "Feature", "properties": { "geogrid_id": "5212793146087746606", "seqnum": 34416.0, "lat_c": 12.793145569301169, "lon_c": -87.746606154068189, "res": 8.0, "count_Birds": 5, "count_Molluscs": 0, "count_Reptiles": 1, "count_Mammals": 0, "count_Mosses": 0, "count_Sac Fungi": 0, "count_Arachnids": 0, "count_Basidiomycota": 0, "count_Amphibians": 0, "count_Flowering Plants": 0, "count_Insects": 0, "count_Ferns": 0, "count_Gymnosperms": 0, "unique_species_count": 6.0, "countryCode": "HN" }, "geometry": { "type": "MultiPolygon", "coordinates": [ [ [ [ -87.194107613335959, 12.804285998489835 ], [ -87.444391763756727, 12.410006314394405 ], [ -87.995546733563302, 12.399086787599128 ], [ -88.300975763662962, 12.779441182650823 ], [ -88.052434132992431, 13.173042324751675 ], [ -87.496717664983308, 13.186975331007876 ], [ -87.194107613335959, 12.804285998489835 ] ] ] ] } },
{ "type": "Feature", "properties": { "geogrid_id": "5213198315086942865", "seqnum": 34417.0, "lat_c": 13.198315334615955, "lon_c": -86.942864847899543, "res": 8.0, "count_Birds": 233, "count_Molluscs": 21, "count_Reptiles": 32, "count_Mammals": 24, "count_Mosses": 0, "count_Sac Fungi": 3, "count_Arachnids": 13, "count_Basidiomycota": 2, "count_Amphibians": 12, "count_Flowering Plants": 133, "count_Insects": 107, "count_Ferns": 2, "count_Gymnosperms": 0, "unique_species_count": 582.0, "countryCode": "HN" }, "geometry": { "type": "MultiPolygon", "coordinates": [ [ [ [ -86.390644571011023, 13.207390580233051 ], [ -86.643244053060187, 12.813194367901151 ], [ -87.194107613335959, 12.804285998489835 ], [ -87.496717664983308, 13.186975331007876 ], [ -87.245840770709606, 13.580581110072183 ], [ -86.690622052730461, 13.592099360556322 ], [ -86.390644571011023, 13.207390580233051 ] ] ] ] } },
{ "type": "Feature", "properties": { "geogrid_id": "5213566443087802915", "seqnum": 34335.0, "lat_c": 13.566442926738121, "lon_c": -87.802914783463052, "res": 8.0, "count_Birds": 159, "count_Molluscs": 21, "count_Reptiles": 28, "count_Mammals": 13, "count_Mosses": 0, "count_Sac Fungi": 0, "count_Arachnids": 11, "count_Basidiomycota": 0, "count_Amphibians": 9, "count_Flowering Plants": 65, "count_Insects": 95, "count_Ferns": 0, "count_Gymnosperms": 0, "unique_species_count": 401.0, "countryCode": "HN" }, "geometry": { "type": "MultiPolygon", "coordinates": [ [ [ [ -87.245840770709606, 13.580581110072183 ], [ -87.496717664983308, 13.186975331007876 ], [ -88.052434132992431, 13.173042324751675 ], [ -88.36210314902273, 13.549292442045385 ], [ -88.11292057463092, 13.942296150505394 ], [ -87.552378427278001, 13.959647223829066 ], [ -87.245840770709606, 13.580581110072183 ] ] ] ] } },
{ "type": "Feature", "properties": { "geogrid_id": "5213601322086137032", "seqnum": 34418.0, "lat_c": 13.601322098381088, "lon_c": -86.137032402795256, "res": 8.0, "count_Birds": 7, "count_Molluscs": 0, "count_Reptiles": 5, "count_Mammals": 4, "count_Mosses": 0, "count_Sac Fungi": 1, "count_Arachnids": 2, "count_Basidiomycota": 23, "count_Amphibians": 3, "count_Flowering Plants": 29, "count_Insects": 25, "count_Ferns": 0, "count_Gymnosperms": 0, "unique_species_count": 99.0, "countryCode": "HN" }, "geometry": { "type": "MultiPolygon", "coordinates": [ [ [ [ -85.584873301577147, 13.608519318736374 ], [ -85.8398546579607, 13.214473211801796 ], [ -86.390644571011023, 13.207390580233051 ], [ -86.690622052730461, 13.592099360556322 ], [ -86.43733803283213, 13.985642517100008 ], [ -85.88236557316992, 13.994993252344088 ], [ -85.584873301577147, 13.608519318736374 ] ] ] ] } },
{ "type": "Feature", "properties": { "geogrid_id": "5213921446088675852", "seqnum": 34253.0, "lat_c": 13.921445894977406, "lon_c": -88.675851505189016, "res": 8.0, "count_Birds": 101, "count_Molluscs": 0, "count_Reptiles": 26, "count_Mammals": 7, "count_Mosses": 0, "count_Sac Fungi": 0, "count_Arachnids": 2, "count_Basidiomycota": 1, "count_Amphibians": 5, "count_Flowering Plants": 128, "count_Insects": 63, "count_Ferns": 4, "count_Gymnosperms": 0, "unique_species_count": 337.0, "countryCode": "HN" }, "geometry": { "type": "MultiPolygon", "coordinates": [ [ [ [ -88.11292057463092, 13.942296150505394 ], [ -88.36210314902273, 13.549292442045385 ], [ -88.923703995244367, 13.528651779650476 ], [ -89.241505282466136, 13.896524534616137 ], [ -88.99392851277058, 14.289001323828446 ], [ -88.426966894882497, 14.314098859783284 ], [ -88.11292057463092, 13.942296150505394 ] ] ] ] } },
{ "type": "Feature", "properties": { "geogrid_id": "5213973967086993935", "seqnum": 34336.0, "lat_c": 13.973967326329774, "lon_c": -86.99393516980561, "res": 8.0, "count_Birds": 365, "count_Molluscs": 12, "count_Reptiles": 88, "count_Mammals": 69, "count_Mosses": 12, "count_Sac Fungi": 81, "count_Arachnids": 123, "count_Basidiomycota": 197, "count_Amphibians": 34, "count_Flowering Plants": 1073, "count_Insects": 1750, "count_Ferns": 21, "count_Gymnosperms": 5, "unique_species_count": 3830.0, "countryCode": "HN" }, "geometry": { "type": "MultiPolygon", "coordinates": [ [ [ [ -86.43733803283213, 13.985642517100008 ], [ -86.690622052730461, 13.592099360556322 ], [ -87.245840770709606, 13.580581110072183 ], [ -87.552378427278001, 13.959647223829066 ], [ -87.30078585309758, 14.352658862158625 ], [ -86.740960674276408, 14.367137814816171 ], [ -86.43733803283213, 13.985642517100008 ] ] ] ] } },
{ "type": "Feature", "properties": { "geogrid_id": "5214002287085328823", "seqnum": 34419.0, "lat_c": 14.002287201498106, "lon_c": -85.328822888131114, "res": 8.0, "count_Birds": 3, "count_Molluscs": 0, "count_Reptiles": 8, "count_Mammals": 1, "count_Mosses": 0, "count_Sac Fungi": 0, "count_Arachnids": 0, "count_Basidiomycota": 0, "count_Amphibians": 8, "count_Flowering Plants": 2, "count_Insects": 0, "count_Ferns": 0, "count_Gymnosperms": 0, "unique_species_count": 22.0, "countryCode": "HN" }, "geometry": { "type": "MultiPolygon", "coordinates": [ [ [ [ -84.776537651092298, 14.007749254957387 ], [ -85.033969712395617, 13.613917097433363 ], [ -85.584873301577147, 13.608519318736374 ], [ -85.88236557316992, 13.994993252344088 ], [ -85.626602259606244, 14.388407825232138 ], [ -85.071660924519719, 14.395780455925571 ], [ -84.776537651092298, 14.007749254957387 ] ] ] ] } },
{ "type": "Feature", "properties": { "geogrid_id": "5214259156089563952", "seqnum": 34171.0, "lat_c": 14.259156091132251, "lon_c": -89.563952302272924, "res": 8.0, "count_Birds": 119, "count_Molluscs": 0, "count_Reptiles": 10, "count_Mammals": 7, "count_Mosses": 0, "count_Sac Fungi": 2, "count_Arachnids": 6, "count_Basidiomycota": 10, "count_Amphibians": 11, "count_Flowering Plants": 152, "count_Insects": 38, "count_Ferns": 2, "count_Gymnosperms": 2, "unique_species_count": 359.0, "countryCode": "HN" }, "geometry": { "type": "MultiPolygon", "coordinates": [ [ [ [ -88.99392851277058, 14.289001323828446 ], [ -89.241505282466136, 13.896524534616137 ], [ -89.810268725779864, 13.866828087617208 ], [ -90.137471089642034, 14.223719334211024 ], [ -89.891325334553358, 14.615898168291025 ], [ -89.316594515275369, 14.651399937252686 ], [ -88.99392851277058, 14.289001323828446 ] ] ] ] } },
{ "type": "Feature", "properties": { "geogrid_id": "5214335132087862694", "seqnum": 34254.0, "lat_c": 14.335132098369005, "lon_c": -87.862693937453869, "res": 8.0, "count_Birds": 341, "count_Molluscs": 0, "count_Reptiles": 73, "count_Mammals": 42, "count_Mosses": 15, "count_Sac Fungi": 13, "count_Arachnids": 30, "count_Basidiomycota": 40, "count_Amphibians": 27, "count_Flowering Plants": 485, "count_Insects": 439, "count_Ferns": 8, "count_Gymnosperms": 2, "unique_species_count": 1515.0, "countryCode": "HN" }, "geometry": { "type": "MultiPolygon", "coordinates": [ [ [ [ -87.30078585309758, 14.352658862158625 ], [ -87.552378427278001, 13.959647223829066 ], [ -88.11292057463092, 13.942296150505394 ], [ -88.426966894882497, 14.314098859783284 ], [ -88.177013119252123, 14.706612866454952 ], [ -87.611385068910209, 14.727803019899929 ], [ -87.30078585309758, 14.352658862158625 ] ] ] ] } },
{ "type": "Feature", "properties": { "geogrid_id": "5214378949086182972", "seqnum": 34337.0, "lat_c": 14.378948675580741, "lon_c": -86.18297173147738, "res": 8.0, "count_Birds": 74, "count_Molluscs": 0, "count_Reptiles": 26, "count_Mammals": 10, "count_Mosses": 0, "count_Sac Fungi": 6, "count_Arachnids": 6, "count_Basidiomycota": 2, "count_Amphibians": 13, "count_Flowering Plants": 49, "count_Insects": 58, "count_Ferns": 0, "count_Gymnosperms": 0, "unique_species_count": 244.0, "countryCode": "HN" }, "geometry": { "type": "MultiPolygon", "coordinates": [ [ [ [ -85.626602259606244, 14.388407825232138 ], [ -85.88236557316992, 13.994993252344088 ], [ -86.43733803283213, 13.985642517100008 ], [ -86.740960674276408, 14.367137814816171 ], [ -86.486877135996011, 14.760095855149387 ], [ -85.927482155695841, 14.772021162860446 ], [ -85.626602259606244, 14.388407825232138 ] ] ] ] } },
{ "type": "Feature", "properties": { "geogrid_id": "5214401290084517978", "seqnum": 34420.0, "lat_c": 14.401290105772643, "lon_c": -84.517978100502035, "res": 8.0, "count_Birds": 154, "count_Molluscs": 0, "count_Reptiles": 16, "count_Mammals": 7, "count_Mosses": 0, "count_Sac Fungi": 1, "count_Arachnids": 3, "count_Basidiomycota": 2, "count_Amphibians": 4, "count_Flowering Plants": 42, "count_Insects": 20, "count_Ferns": 0, "count_Gymnosperms": 1, "unique_species_count": 250.0, "countryCode": "HN" }, "geometry": { "type": "MultiPolygon", "coordinates": [ [ [ [ -83.965402761672124, 14.4051261975341 ], [ -84.225356814889096, 14.011569400284012 ], [ -84.776537651092298, 14.007749254957387 ], [ -85.071660924519719, 14.395780455925571 ], [ -84.813345002631038, 14.789002173645169 ], [ -84.258248068495149, 14.794542501831661 ], [ -83.965402761672124, 14.4051261975341 ] ] ] ] } },
{ "type": "Feature", "properties": { "geogrid_id": "5214681366088745296", "seqnum": 34172.0, "lat_c": 14.681366370564474, "lon_c": -88.745295973907247, "res": 8.0, "count_Birds": 349, "count_Molluscs": 3, "count_Reptiles": 85, "count_Mammals": 49, "count_Mosses": 8, "count_Sac Fungi": 33, "count_Arachnids": 37, "count_Basidiomycota": 28, "count_Amphibians": 42, "count_Flowering Plants": 701, "count_Insects": 514, "count_Ferns": 26, "count_Gymnosperms": 5, "unique_species_count": 1880.0, "countryCode": "HN" }, "geometry": { "type": "MultiPolygon", "coordinates": [ [ [ [ -88.177013119252123, 14.706612866454952 ], [ -88.426966894882497, 14.314098859783284 ], [ -88.99392851277058, 14.289001323828446 ], [ -89.316594515275369, 14.651399937252686 ], [ -89.068160415341126, 15.043559836751511 ], [ -88.495571584969724, 15.073620710347289 ], [ -88.177013119252123, 14.706612866454952 ] ] ] ] } },
{ "type": "Feature", "properties": { "geogrid_id": "5214745481087048098", "seqnum": 34255.0, "lat_c": 14.745480931924483, "lon_c": -87.048097854730457, "res": 8.0, "count_Birds": 89, "count_Molluscs": 1, "count_Reptiles": 29, "count_Mammals": 8, "count_Mosses": 9, "count_Sac Fungi": 1, "count_Arachnids": 8, "count_Basidiomycota": 5, "count_Amphibians": 17, "count_Flowering Plants": 539, "count_Insects": 159, "count_Ferns": 10, "count_Gymnosperms": 3, "unique_species_count": 878.0, "countryCode": "HN" }, "geometry": { "type": "MultiPolygon", "coordinates": [ [ [ [ -86.486877135996011, 14.760095855149387 ], [ -86.740960674276408, 14.367137814816171 ], [ -87.30078585309758, 14.352658862158625 ], [ -87.611385068910209, 14.727803019899929 ], [ -87.358955697258466, 15.120311138807709 ], [ -86.794275165939354, 15.138115996801723 ], [ -86.486877135996011, 14.760095855149387 ] ] ] ] } },
{ "type": "Feature", "properties": { "geogrid_id": "5214781569085369701", "seqnum": 34338.0, "lat_c": 14.781569073644956, "lon_c": -85.369700717875318, "res": 8.0, "count_Birds": 128, "count_Molluscs": 1, "count_Reptiles": 45, "count_Mammals": 24, "count_Mosses": 1, "count_Sac Fungi": 3, "count_Arachnids": 21, "count_Basidiomycota": 11, "count_Amphibians": 23, "count_Flowering Plants": 112, "count_Insects": 174, "count_Ferns": 3, "count_Gymnosperms": 0, "unique_species_count": 546.0, "countryCode": "HN" }, "geometry": { "type": "MultiPolygon", "coordinates": [ [ [ [ -84.813345002631038, 14.789002173645169 ], [ -85.071660924519719, 14.395780455925571 ], [ -85.626602259606244, 14.388407825232138 ], [ -85.927482155695841, 14.772021162860446 ], [ -85.670828307758356, 15.164862783902542 ], [ -85.111619213396494, 15.174479746256022 ], [ -84.813345002631038, 14.789002173645169 ] ] ] ] } },
{ "type": "Feature", "properties": { "geogrid_id": "5214798379083704261", "seqnum": 34421.0, "lat_c": 14.798378765568598, "lon_c": -83.704260919701298, "res": 8.0, "count_Birds": 0, "count_Molluscs": 0, "count_Reptiles": 4, "count_Mammals": 0, "count_Mosses": 0, "count_Sac Fungi": 0, "count_Arachnids": 0, "count_Basidiomycota": 0, "count_Amphibians": 0, "count_Flowering Plants": 0, "count_Insects": 0, "count_Ferns": 0, "count_Gymnosperms": 0, "unique_species_count": 4.0, "countryCode": "HN" }, "geometry": { "type": "MultiPolygon", "coordinates": [ [ [ [ -83.151250038650218, 14.800672110525397 ], [ -83.413799876536629, 14.407450041741363 ], [ -83.965402761672124, 14.4051261975341 ], [ -84.258248068495149, 14.794542501831661 ], [ -83.997304581185006, 15.187508826276769 ], [ -83.441887799482174, 15.19132921205636 ], [ -83.151250038650218, 14.800672110525397 ] ] ] ] } },
{ "type": "Feature", "properties": { "geogrid_id": "5215008019089644121", "seqnum": 34090.0, "lat_c": 15.008018691306583, "lon_c": -89.644120742603263, "res": 8.0, "count_Birds": 3, "count_Molluscs": 0, "count_Reptiles": 1, "count_Mammals": 1, "count_Mosses": 0, "count_Sac Fungi": 0, "count_Arachnids": 2, "count_Basidiomycota": 0, "count_Amphibians": 0, "count_Flowering Plants": 5, "count_Insects": 8, "count_Ferns": 0, "count_Gymnosperms": 0, "unique_species_count": 20.0, "countryCode": "HN" }, "geometry": { "type": "MultiPolygon", "coordinates": [ [ [ [ -89.068160415341126, 15.043559836751511 ], [ -89.316594515275369, 14.651399937252686 ], [ -89.891325334553358, 14.615898168291025 ], [ -90.223915918337553, 14.966025743761103 ], [ -89.976788946213816, 15.358162670717856 ], [ -89.39582303901102, 15.400079981447524 ], [ -89.068160415341126, 15.043559836751511 ] ] ] ] } },
{ "type": "Feature", "properties": { "geogrid_id": "5215098990087925953", "seqnum": 34173.0, "lat_c": 15.098989630067759, "lon_c": -87.925952975888293, "res": 8.0, "count_Birds": 416, "count_Molluscs": 13, "count_Reptiles": 94, "count_Mammals": 48, "count_Mosses": 2, "count_Sac Fungi": 10, "count_Arachnids": 91, "count_Basidiomycota": 32, "count_Amphibians": 32, "count_Flowering Plants": 683, "count_Insects": 1267, "count_Ferns": 15, "count_Gymnosperms": 1, "unique_species_count": 2704.0, "countryCode": "HN" }, "geometry": { "type": "MultiPolygon", "coordinates": [ [ [ [ -87.358955697258466, 15.120311138807709 ], [ -87.611385068910209, 14.727803019899929 ], [ -88.177013119252123, 14.706612866454952 ], [ -88.495571584969724, 15.073620710347289 ], [ -88.244718998203936, 15.465764980078509 ], [ -87.673749053504238, 15.491230415663503 ], [ -87.358955697258466, 15.120311138807709 ] ] ] ] } },
{ "type": "Feature", "properties": { "geogrid_id": "5215152844086231644", "seqnum": 34256.0, "lat_c": 15.152844197840729, "lon_c": -86.231644379259492, "res": 8.0, "count_Birds": 166, "count_Molluscs": 4, "count_Reptiles": 41, "count_Mammals": 18, "count_Mosses": 3, "count_Sac Fungi": 0, "count_Arachnids": 33, "count_Basidiomycota": 4, "count_Amphibians": 16, "count_Flowering Plants": 165, "count_Insects": 468, "count_Ferns": 4, "count_Gymnosperms": 0, "unique_species_count": 922.0, "countryCode": "HN" }, "geometry": { "type": "MultiPolygon", "coordinates": [ [ [ [ -85.670828307758356, 15.164862783902542 ], [ -85.927482155695841, 14.772021162860446 ], [ -86.486877135996011, 14.760095855149387 ], [ -86.794275165939354, 15.138115996801723 ], [ -86.53927840047362, 15.53056611997741 ], [ -85.975222138608601, 15.545385087778032 ], [ -85.670828307758356, 15.164862783902542 ] ] ] ] } },
{ "type": "Feature", "properties": { "geogrid_id": "5215181955084553833", "seqnum": 34339.0, "lat_c": 15.181954956673849, "lon_c": -84.553832731267136, "res": 8.0, "count_Birds": 129, "count_Molluscs": 4, "count_Reptiles": 35, "count_Mammals": 7, "count_Mosses": 0, "count_Sac Fungi": 1, "count_Arachnids": 4, "count_Basidiomycota": 2, "count_Amphibians": 23, "count_Flowering Plants": 57, "count_Insects": 22, "count_Ferns": 1, "count_Gymnosperms": 1, "unique_species_count": 286.0, "countryCode": "HN" }, "geometry": { "type": "MultiPolygon", "coordinates": [ [ [ [ -83.997304581185006, 15.187508826276769 ], [ -84.258248068495149, 14.794542501831661 ], [ -84.813345002631038, 14.789002173645169 ], [ -85.111619213396494, 15.174479746256022 ], [ -84.852315957596034, 15.56714210066322 ], [ -84.293081672839904, 15.574640930767828 ], [ -83.997304581185006, 15.187508826276769 ] ] ] ] } },
{ "type": "Feature", "properties": { "geogrid_id": "5215193577082887450", "seqnum": 34422.0, "lat_c": 15.193576962006812, "lon_c": -82.88745040122717, "res": 8.0, "count_Birds": 10, "count_Molluscs": 2, "count_Reptiles": 2, "count_Mammals": 0, "count_Mosses": 0, "count_Sac Fungi": 0, "count_Arachnids": 0, "count_Basidiomycota": 0, "count_Amphibians": 0, "count_Flowering Plants": 0, "count_Insects": 1, "count_Ferns": 0, "count_Gymnosperms": 0, "unique_species_count": 15.0, "countryCode": "HN" }, "geometry": { "type": "MultiPolygon", "coordinates": [ [ [ [ -82.333873399416291, 15.194390395057896 ], [ -82.599095302489829, 14.801560764539804 ], [ -83.151250038650218, 14.800672110525397 ], [ -83.441887799482174, 15.19132921205636 ], [ -83.178239864951067, 15.583979204522608 ], [ -82.622356966819595, 15.586165963822873 ], [ -82.333873399416291, 15.194390395057896 ] ] ] ] } },
{ "type": "Feature", "properties": { "geogrid_id": "5215435636088818615", "seqnum": 34091.0, "lat_c": 15.435635672375831, "lon_c": -88.818614722277644, "res": 8.0, "count_Birds": 64, "count_Molluscs": 0, "count_Reptiles": 31, "count_Mammals": 11, "count_Mosses": 0, "count_Sac Fungi": 2, "count_Arachnids": 1, "count_Basidiomycota": 2, "count_Amphibians": 19, "count_Flowering Plants": 36, "count_Insects": 40, "count_Ferns": 2, "count_Gymnosperms": 0, "unique_species_count": 208.0, "countryCode": "HN" }, "geometry": { "type": "MultiPolygon", "coordinates": [ [ [ [ -88.244718998203936, 15.465764980078509 ], [ -88.495571584969724, 15.073620710347289 ], [ -89.068160415341126, 15.043559836751511 ], [ -89.39582303901102, 15.400079981447524 ], [ -89.14639752731533, 15.792080883046948 ], [ -88.567921790279101, 15.82762701495121 ], [ -88.244718998203936, 15.465764980078509 ] ] ] ] } },
{ "type": "Feature", "properties": { "geogrid_id": "5215512658087105367", "seqnum": 34174.0, "lat_c": 15.51265819574396, "lon_c": -87.105367391110903, "res": 8.0, "count_Birds": 385, "count_Molluscs": 13, "count_Reptiles": 101, "count_Mammals": 64, "count_Mosses": 2, "count_Sac Fungi": 8, "count_Arachnids": 67, "count_Basidiomycota": 24, "count_Amphibians": 42, "count_Flowering Plants": 493, "count_Insects": 948, "count_Ferns": 11, "count_Gymnosperms": 2, "unique_species_count": 2160.0, "countryCode": "HN" }, "geometry": { "type": "MultiPolygon", "coordinates": [ [ [ [ -86.53927840047362, 15.53056611997741 ], [ -86.794275165939354, 15.138115996801723 ], [ -87.358955697258466, 15.120311138807709 ], [ -87.673749053504238, 15.491230415663503 ], [ -87.420363684220803, 15.883336061867571 ], [ -86.850581507194192, 15.904845472355717 ], [ -86.53927840047362, 15.53056611997741 ] ] ] ] } },
{ "type": "Feature", "properties": { "geogrid_id": "5215557476085412969", "seqnum": 34257.0, "lat_c": 15.557475842079914, "lon_c": -85.41296912184886, "res": 8.0, "count_Birds": 115, "count_Molluscs": 0, "count_Reptiles": 46, "count_Mammals": 27, "count_Mosses": 0, "count_Sac Fungi": 1, "count_Arachnids": 8, "count_Basidiomycota": 4, "count_Amphibians": 23, "count_Flowering Plants": 122, "count_Insects": 189, "count_Ferns": 3, "count_Gymnosperms": 0, "unique_species_count": 538.0, "countryCode": "HN" }, "geometry": { "type": "MultiPolygon", "coordinates": [ [ [ [ -84.852315957596034, 15.56714210066322 ], [ -85.111619213396494, 15.174479746256022 ], [ -85.670828307758356, 15.164862783902542 ], [ -85.975222138608601, 15.545385087778032 ], [ -85.717570001195625, 15.937720285106829 ], [ -85.153863405225437, 15.949862157358481 ], [ -84.852315957596034, 15.56714210066322 ] ] ] ] } },
{ "type": "Feature", "properties": { "geogrid_id": "5215580191083735105", "seqnum": 34340.0, "lat_c": 15.580191003398344, "lon_c": -83.735104620450613, "res": 8.0, "count_Birds": 43, "count_Molluscs": 1, "count_Reptiles": 6, "count_Mammals": 2, "count_Mosses": 0, "count_Sac Fungi": 0, "count_Arachnids": 2, "count_Basidiomycota": 0, "count_Amphibians": 2, "count_Flowering Plants": 8, "count_Insects": 6, "count_Ferns": 0, "count_Gymnosperms": 0, "unique_species_count": 70.0, "countryCode": "HN" }, "geometry": { "type": "MultiPolygon", "coordinates": [ [ [ [ -83.178239864951067, 15.583979204522608 ], [ -83.441887799482174, 15.19132921205636 ], [ -83.997304581185006, 15.187508826276769 ], [ -84.293081672839904, 15.574640930767828 ], [ -84.031049284235877, 15.967061757525924 ], [ -83.47160506540574, 15.972590507717788 ], [ -83.178239864951067, 15.583979204522608 ] ] ] ] } },
{ "type": "Feature", "properties": { "geogrid_id": "5215586890082067338", "seqnum": 34423.0, "lat_c": 15.586889575645273, "lon_c": -82.067338098731085, "res": 8.0, "count_Birds": 0, "count_Molluscs": 0, "count_Reptiles": 1, "count_Mammals": 0, "count_Mosses": 0, "count_Sac Fungi": 0, "count_Arachnids": 0, "count_Basidiomycota": 0, "count_Amphibians": 0, "count_Flowering Plants": 0, "count_Insects": 0, "count_Ferns": 0, "count_Gymnosperms": 0, "unique_species_count": 1.0, "countryCode": "HN" }, "geometry": { "type": "MultiPolygon", "coordinates": [ [ [ [ -81.513076438948573, 15.586269722810639 ], [ -81.78104912101756, 15.193888941915993 ], [ -82.333873399416291, 15.194390395057896 ], [ -82.622356966819595, 15.586165963822873 ], [ -82.355925629030807, 15.978440066079552 ], [ -81.799444875808732, 15.979058939853228 ], [ -81.513076438948573, 15.586269722810639 ] ] ] ] } },
{ "type": "Feature", "properties": { "geogrid_id": "5215857799087992702", "seqnum": 34092.0, "lat_c": 15.857799439152339, "lon_c": -87.992701557136826, "res": 8.0, "count_Birds": 422, "count_Molluscs": 21, "count_Reptiles": 94, "count_Mammals": 51, "count_Mosses": 2, "count_Sac Fungi": 4, "count_Arachnids": 61, "count_Basidiomycota": 31, "count_Amphibians": 34, "count_Flowering Plants": 394, "count_Insects": 619, "count_Ferns": 10, "count_Gymnosperms": 5, "unique_species_count": 1748.0, "countryCode": "HN" }, "geometry": { "type": "MultiPolygon", "coordinates": [ [ [ [ -87.420363684220803, 15.883336061867571 ], [ -87.673749053504238, 15.491230415663503 ], [ -88.244718998203936, 15.465764980078509 ], [ -88.567921790279101, 15.82762701495121 ], [ -88.3160455749139, 16.2195331367598 ], [ -87.739482257340967, 16.249723987415152 ], [ -87.420363684220803, 15.883336061867571 ] ] ] ] } },
{ "type": "Feature", "properties": { "geogrid_id": "5215922833086283068", "seqnum": 34175.0, "lat_c": 15.922832887123903, "lon_c": -86.283067996572882, "res": 8.0, "count_Birds": 188, "count_Molluscs": 38, "count_Reptiles": 68, "count_Mammals": 15, "count_Mosses": 0, "count_Sac Fungi": 2, "count_Arachnids": 16, "count_Basidiomycota": 2, "count_Amphibians": 19, "count_Flowering Plants": 160, "count_Insects": 140, "count_Ferns": 3, "count_Gymnosperms": 1, "unique_species_count": 652.0, "countryCode": "HN" }, "geometry": { "type": "MultiPolygon", "coordinates": [ [ [ [ -85.717570001195625, 15.937720285106829 ], [ -85.975222138608601, 15.545385087778032 ], [ -86.53927840047362, 15.53056611997741 ], [ -86.850581507194192, 15.904845472355717 ], [ -86.594559141717198, 16.2968738122552 ], [ -86.025604165295434, 16.314917426594942 ], [ -85.717570001195625, 15.937720285106829 ] ] ] ] } },
{ "type": "Feature", "properties": { "geogrid_id": "5215959558084591749", "seqnum": 34258.0, "lat_c": 15.959557918574347, "lon_c": -84.59174904862266, "res": 8.0, "count_Birds": 134, "count_Molluscs": 6, "count_Reptiles": 20, "count_Mammals": 16, "count_Mosses": 0, "count_Sac Fungi": 0, "count_Arachnids": 8, "count_Basidiomycota": 2, "count_Amphibians": 9, "count_Flowering Plants": 34, "count_Insects": 41, "count_Ferns": 3, "count_Gymnosperms": 0, "unique_species_count": 273.0, "countryCode": "HN" }, "geometry": { "type": "MultiPolygon", "coordinates": [ [ [ [ -84.031049284235877, 15.967061757525924 ], [ -84.293081672839904, 15.574640930767828 ], [ -84.852315957596034, 15.56714210066322 ], [ -85.153863405225437, 15.949862157358481 ], [ -84.893469783266852, 16.342023082491483 ], [ -84.329876415852283, 16.351728519399746 ], [ -84.031049284235877, 15.967061757525924 ] ] ] ] } },
{ "type": "Feature", "properties": { "geogrid_id": "5215976330082913273", "seqnum": 34341.0, "lat_c": 15.976329976566172, "lon_c": -82.913273475886768, "res": 8.0, "count_Birds": 1, "count_Molluscs": 3, "count_Reptiles": 3, "count_Mammals": 0, "count_Mosses": 0, "count_Sac Fungi": 0, "count_Arachnids": 0, "count_Basidiomycota": 0, "count_Amphibians": 0, "count_Flowering Plants": 0, "count_Insects": 0, "count_Ferns": 0, "count_Gymnosperms": 0, "unique_species_count": 7.0, "countryCode": "HN" }, "geometry": { "type": "MultiPolygon", "coordinates": [ [ [ [ -82.355925629030807, 15.978440066079552 ], [ -82.622356966819595, 15.586165963822873 ], [ -83.178239864951067, 15.583979204522608 ], [ -83.47160506540574, 15.972590507717788 ], [ -83.20676263732804, 16.364708372172728 ], [ -82.646944833582026, 16.368382333463526 ], [ -82.355925629030807, 15.978440066079552 ] ] ] ] } },
{ "type": "Feature", "properties": { "geogrid_id": "5215978306081243725", "seqnum": 34424.0, "lat_c": 15.978306432732614, "lon_c": -81.243725271706452, "res": 8.0, "count_Birds": 0, "count_Molluscs": 0, "count_Reptiles": 2, "count_Mammals": 0, "count_Mosses": 0, "count_Sac Fungi": 0, "count_Arachnids": 0, "count_Basidiomycota": 0, "count_Amphibians": 0, "count_Flowering Plants": 0, "count_Insects": 0, "count_Ferns": 0, "count_Gymnosperms": 0, "unique_species_count": 2.0, "countryCode": "HN" }, "geometry": { "type": "MultiPolygon", "coordinates": [ [ [ [ -80.688670261150861, 15.976286855465087 ], [ -80.95947479674264, 15.584410365994293 ], [ -81.513076438948573, 15.586269722810639 ], [ -81.799444875808732, 15.979058939853228 ], [ -81.530149037337722, 16.370898720957783 ], [ -80.972950542282035, 16.369998976947159 ], [ -80.688670261150861, 15.976286855465087 ] ] ] ] } },
{ "type": "Feature", "properties": { "geogrid_id": "5216275307087165759", "seqnum": 34093.0, "lat_c": 16.275307001265389, "lon_c": -87.165758899070397, "res": 8.0, "count_Birds": 69, "count_Molluscs": 58, "count_Reptiles": 28, "count_Mammals": 15, "count_Mosses": 0, "count_Sac Fungi": 1, "count_Arachnids": 15, "count_Basidiomycota": 6, "count_Amphibians": 6, "count_Flowering Plants": 87, "count_Insects": 96, "count_Ferns": 1, "count_Gymnosperms": 0, "unique_species_count": 382.0, "countryCode": "HN" }, "geometry": { "type": "MultiPolygon", "coordinates": [ [ [ [ -86.594559141717198, 16.2968738122552 ], [ -86.850581507194192, 15.904845472355717 ], [ -87.420363684220803, 15.883336061867571 ], [ -87.739482257340967, 16.249723987415152 ], [ -87.485023709385487, 16.641538180350921 ], [ -86.909896386207222, 16.667143277900575 ], [ -86.594559141717198, 16.2968738122552 ] ] ] ] } },
{ "type": "Feature", "properties": { "geogrid_id": "5216329851085458647", "seqnum": 34176.0, "lat_c": 16.329851083716267, "lon_c": -85.458647353054161, "res": 8.0, "count_Birds": 119, "count_Molluscs": 67, "count_Reptiles": 17, "count_Mammals": 8, "count_Mosses": 1, "count_Sac Fungi": 0, "count_Arachnids": 6, "count_Basidiomycota": 2, "count_Amphibians": 7, "count_Flowering Plants": 52, "count_Insects": 53, "count_Ferns": 0, "count_Gymnosperms": 1, "unique_species_count": 333.0, "countryCode": "HN" }, "geometry": { "type": "MultiPolygon", "coordinates": [ [ [ [ -84.893469783266852, 16.342023082491483 ], [ -85.153863405225437, 15.949862157358481 ], [ -85.717570001195625, 15.937720285106829 ], [ -86.025604165295434, 16.314917426594942 ], [ -85.766846842117019, 16.706820427097739 ], [ -85.198413328731277, 16.721778327518479 ], [ -84.893469783266852, 16.342023082491483 ] ] ] ] } },
{ "type": "Feature", "properties": { "geogrid_id": "5216359219083767693", "seqnum": 34259.0, "lat_c": 16.359218645267234, "lon_c": -83.767692861322374, "res": 8.0, "count_Birds": 1, "count_Molluscs": 0, "count_Reptiles": 0, "count_Mammals": 0, "count_Mosses": 0, "count_Sac Fungi": 0, "count_Arachnids": 0, "count_Basidiomycota": 0, "count_Amphibians": 0, "count_Flowering Plants": 0, "count_Insects": 0, "count_Ferns": 0, "count_Gymnosperms": 0, "unique_species_count": 1.0, "countryCode": "HN" }, "geometry": { "type": "MultiPolygon", "coordinates": [ [ [ [ -83.20676263732804, 16.364708372172728 ], [ -83.47160506540574, 15.972590507717788 ], [ -84.031049284235877, 15.967061757525924 ], [ -84.329876415852283, 16.351728519399746 ], [ -84.066655767686242, 16.743654772325552 ], [ -83.502969486632182, 16.751112358710706 ], [ -83.20676263732804, 16.364708372172728 ] ] ] ] } },
{ "type": "Feature", "properties": { "geogrid_id": "5216367805080416421", "seqnum": 34425.0, "lat_c": 16.367805146984409, "lon_c": -80.416420739835331, "res": 8.0, "count_Birds": 0, "count_Molluscs": 2, "count_Reptiles": 2, "count_Mammals": 0, "count_Mosses": 0, "count_Sac Fungi": 0, "count_Arachnids": 0, "count_Basidiomycota": 0, "count_Amphibians": 0, "count_Flowering Plants": 0, "count_Insects": 0, "count_Ferns": 0, "count_Gymnosperms": 0, "unique_species_count": 4.0, "countryCode": "HN" }, "geometry": { "type": "MultiPolygon", "coordinates": [ [ [ [ -79.86047180070598, 16.364408742221606 ], [ -80.134191545207344, 15.973091313256839 ], [ -80.688670261150861, 15.976286855465087 ], [ -80.972950542282035, 16.369998976947159 ], [ -80.700706947920651, 16.761346872997891 ], [ -80.142680574165141, 16.758964422068004 ], [ -79.86047180070598, 16.364408742221606 ] ] ] ] } },
{ "type": "Feature", "properties": { "geogrid_id": "5216370400082088112", "seqnum": 34342.0, "lat_c": 16.370399804539922, "lon_c": -82.088112119164109, "res": 8.0, "count_Birds": 0, "count_Molluscs": 0, "count_Reptiles": 2, "count_Mammals": 0, "count_Mosses": 0, "count_Sac Fungi": 0, "count_Arachnids": 0, "count_Basidiomycota": 0, "count_Amphibians": 0, "count_Flowering Plants": 0, "count_Insects": 0, "count_Ferns": 0, "count_Gymnosperms": 0, "unique_species_count": 2.0, "countryCode": "HN" }, "geometry": { "type": "MultiPolygon", "coordinates": [ [ [ [ -81.530149037337722, 16.370898720957783 ], [ -81.799444875808732, 15.979058939853228 ], [ -82.355925629030807, 15.978440066079552 ], [ -82.646944833582026, 16.368382333463526 ], [ -82.379209929380877, 16.760136657119556 ], [ -81.818871955561363, 16.762045303377697 ], [ -81.530149037337722, 16.370898720957783 ] ] ] ] } },
{ "type": "Feature", "properties": { "geogrid_id": "5216688744086337261", "seqnum": 34094.0, "lat_c": 16.688743639220721, "lon_c": -86.337261084799508, "res": 8.0, "count_Birds": 103, "count_Molluscs": 217, "count_Reptiles": 31, "count_Mammals": 18, "count_Mosses": 0, "count_Sac Fungi": 0, "count_Arachnids": 15, "count_Basidiomycota": 4, "count_Amphibians": 6, "count_Flowering Plants": 213, "count_Insects": 135, "count_Ferns": 3, "count_Gymnosperms": 2, "unique_species_count": 747.0, "countryCode": "HN" }, "geometry": { "type": "MultiPolygon", "coordinates": [ [ [ [ -85.766846842117019, 16.706820427097739 ], [ -86.025604165295434, 16.314917426594942 ], [ -86.594559141717198, 16.2968738122552 ], [ -86.909896386207222, 16.667143277900575 ], [ -86.652737451386741, 17.058844562207693 ], [ -86.078647777493288, 17.080454972904406 ], [ -85.766846842117019, 16.706820427097739 ] ] ] ] } },
{ "type": "Feature", "properties": { "geogrid_id": "5216756545082940534", "seqnum": 34260.0, "lat_c": 16.756545195394256, "lon_c": -82.940533847620173, "res": 8.0, "count_Birds": 2, "count_Molluscs": 0, "count_Reptiles": 0, "count_Mammals": 2, "count_Mosses": 0, "count_Sac Fungi": 0, "count_Arachnids": 0, "count_Basidiomycota": 0, "count_Amphibians": 0, "count_Flowering Plants": 0, "count_Insects": 0, "count_Ferns": 0, "count_Gymnosperms": 0, "unique_species_count": 4.0, "countryCode": "HN" }, "geometry": { "type": "MultiPolygon", "coordinates": [ [ [ [ -82.379209929380877, 16.760136657119556 ], [ -82.646944833582026, 16.368382333463526 ], [ -83.20676263732804, 16.364708372172728 ], [ -83.502969486632182, 16.751112358710706 ], [ -83.236835979819958, 17.142743227489003 ], [ -82.672874948424678, 17.14810114807517 ], [ -82.379209929380877, 16.760136657119556 ] ] ] ] } },
{ "type": "Feature", "properties": { "geogrid_id": "5216762409081259406", "seqnum": 34343.0, "lat_c": 16.762408752675992, "lon_c": -81.25940567162435, "res": 8.0, "count_Birds": 0, "count_Molluscs": 0, "count_Reptiles": 2, "count_Mammals": 1, "count_Mosses": 0, "count_Sac Fungi": 0, "count_Arachnids": 0, "count_Basidiomycota": 0, "count_Amphibians": 0, "count_Flowering Plants": 0, "count_Insects": 0, "count_Ferns": 0, "count_Gymnosperms": 0, "unique_species_count": 3.0, "countryCode": "HN" }, "geometry": { "type": "MultiPolygon", "coordinates": [ [ [ [ -80.700706947920651, 16.761346872997891 ], [ -80.972950542282035, 16.369998976947159 ], [ -81.530149037337722, 16.370898720957783 ], [ -81.818871955561363, 16.762045303377697 ], [ -81.548160395311271, 17.153376277446817 ], [ -80.987169601114047, 17.153588469565971 ], [ -80.700706947920651, 16.761346872997891 ] ] ] ] } },
{ "type": "Feature", "properties": { "geogrid_id": "5217098542085506756", "seqnum": 34095.0, "lat_c": 17.098542153066504, "lon_c": -85.506755641322442, "res": 8.0, "count_Birds": 0, "count_Molluscs": 0, "count_Reptiles": 1, "count_Mammals": 0, "count_Mosses": 0, "count_Sac Fungi": 0, "count_Arachnids": 0, "count_Basidiomycota": 0, "count_Amphibians": 0, "count_Flowering Plants": 0, "count_Insects": 0, "count_Ferns": 0, "count_Gymnosperms": 0, "unique_species_count": 1.0, "countryCode": "HN" }, "geometry": { "type": "MultiPolygon", "coordinates": [ [ [ [ -84.936826763808966, 17.113502424692967 ], [ -85.198413328731277, 16.721778327518479 ], [ -85.766846842117019, 16.706820427097739 ], [ -86.078647777493288, 17.080454972904406 ], [ -85.818679270996924, 17.472007442288174 ], [ -85.245289812777415, 17.490082457937966 ], [ -84.936826763808966, 17.113502424692967 ] ] ] ] } },
{ "type": "Feature", "properties": { "geogrid_id": "5217135337083802045", "seqnum": 34178.0, "lat_c": 17.13533710694033, "lon_c": -83.802044542209785, "res": 8.0, "count_Birds": 8, "count_Molluscs": 7, "count_Reptiles": 18, "count_Mammals": 3, "count_Mosses": 0, "count_Sac Fungi": 0, "count_Arachnids": 0, "count_Basidiomycota": 0, "count_Amphibians": 0, "count_Flowering Plants": 7, "count_Insects": 2, "count_Ferns": 0, "count_Gymnosperms": 0, "unique_species_count": 45.0, "countryCode": "HN" }, "geometry": { "type": "MultiPolygon", "coordinates": [ [ [ [ -83.236835979819958, 17.142743227489003 ], [ -83.502969486632182, 16.751112358710706 ], [ -84.066655767686242, 16.743654772325552 ], [ -84.368652108813421, 17.125671921523942 ], [ -84.104143947474952, 17.517160325260875 ], [ -83.535999860330264, 17.526775522485771 ], [ -83.236835979819958, 17.142743227489003 ] ] ] ] } },
{ "type": "Feature", "properties": { "geogrid_id": "5217151593082110024", "seqnum": 34261.0, "lat_c": 17.15159291033703, "lon_c": -82.110024495733086, "res": 8.0, "count_Birds": 0, "count_Molluscs": 0, "count_Reptiles": 1, "count_Mammals": 0, "count_Mosses": 0, "count_Sac Fungi": 0, "count_Arachnids": 0, "count_Basidiomycota": 0, "count_Amphibians": 0, "count_Flowering Plants": 0, "count_Insects": 0, "count_Ferns": 0, "count_Gymnosperms": 0, "unique_species_count": 1.0, "countryCode": "HN" }, "geometry": { "type": "MultiPolygon", "coordinates": [ [ [ [ -81.548160395311271, 17.153376277446817 ], [ -81.818871955561363, 16.762045303377697 ], [ -82.379209929380877, 16.760136657119556 ], [ -82.672874948424678, 17.14810114807517 ], [ -82.40374188555802, 17.539375978434823 ], [ -81.839343959455263, 17.542750640386096 ], [ -81.548160395311271, 17.153376277446817 ] ] ] ] } },
{ "type": "Feature", "properties": { "geogrid_id": "5217505023084673846", "seqnum": 34096.0, "lat_c": 17.505023360051396, "lon_c": -84.673846149904747, "res": 8.0, "count_Birds": 0, "count_Molluscs": 0, "count_Reptiles": 1, "count_Mammals": 0, "count_Mosses": 0, "count_Sac Fungi": 0, "count_Arachnids": 0, "count_Basidiomycota": 0, "count_Amphibians": 0, "count_Flowering Plants": 0, "count_Insects": 0, "count_Ferns": 0, "count_Gymnosperms": 0, "unique_species_count": 1.0, "countryCode": "HN" }, "geometry": { "type": "MultiPolygon", "coordinates": [ [ [ [ -84.104143947474952, 17.517160325260875 ], [ -84.368652108813421, 17.125671921523942 ], [ -84.936826763808966, 17.113502424692967 ], [ -85.245289812777415, 17.490082457937966 ], [ -84.982408200722745, 17.881440795506943 ], [ -84.40942959179381, 17.896340705663039 ], [ -84.104143947474952, 17.517160325260875 ] ] ] ] } },
{ "type": "Feature", "properties": { "geogrid_id": "5217534111082969249", "seqnum": 34179.0, "lat_c": 17.534111153532042, "lon_c": -82.969248850532082, "res": 8.0, "count_Birds": 0, "count_Molluscs": 0, "count_Reptiles": 1, "count_Mammals": 0, "count_Mosses": 0, "count_Sac Fungi": 0, "count_Arachnids": 0, "count_Basidiomycota": 0, "count_Amphibians": 0, "count_Flowering Plants": 0, "count_Insects": 0, "count_Ferns": 0, "count_Gymnosperms": 0, "unique_species_count": 1.0, "countryCode": "HN" }, "geometry": { "type": "MultiPolygon", "coordinates": [ [ [ [ -82.40374188555802, 17.539375978434823 ], [ -82.672874948424678, 17.14810114807517 ], [ -83.236835979819958, 17.142743227489003 ], [ -83.535999860330264, 17.526775522485771 ], [ -83.268478481060725, 17.917969595799068 ], [ -82.700164253373089, 17.925215617356947 ], [ -82.40374188555802, 17.539375978434823 ] ] ] ] } },
{ "type": "Feature", "properties": { "geogrid_id": "5217908424083838180", "seqnum": 34097.0, "lat_c": 17.908424338918216, "lon_c": -83.838179572910462, "res": 8.0, "count_Birds": 0, "count_Molluscs": 0, "count_Reptiles": 1, "count_Mammals": 0, "count_Mosses": 0, "count_Sac Fungi": 0, "count_Arachnids": 0, "count_Basidiomycota": 0, "count_Amphibians": 0, "count_Flowering Plants": 0, "count_Insects": 0, "count_Ferns": 0, "count_Gymnosperms": 0, "unique_species_count": 1.0, "countryCode": "HN" }, "geometry": { "type": "MultiPolygon", "coordinates": [ [ [ [ -83.268478481060725, 17.917969595799068 ], [ -83.535999860330264, 17.526775522485771 ], [ -84.104143947474952, 17.517160325260875 ], [ -84.40942959179381, 17.896340705663039 ], [ -84.143534766340139, 18.287453629867372 ], [ -83.570715979631501, 18.299463160950157 ], [ -83.268478481060725, 17.917969595799068 ] ] ] ] } },
{ "type": "Feature", "properties": { "geogrid_id": "5218272616084718069", "seqnum": 34015.0, "lat_c": 18.272616229520104, "lon_c": -84.718069204279189, "res": 8.0, "count_Birds": 1, "count_Molluscs": 0, "count_Reptiles": 0, "count_Mammals": 0, "count_Mosses": 0, "count_Sac Fungi": 0, "count_Arachnids": 0, "count_Basidiomycota": 0, "count_Amphibians": 0, "count_Flowering Plants": 0, "count_Insects": 0, "count_Ferns": 0, "count_Gymnosperms": 0, "unique_species_count": 1.0, "countryCode": "HN" }, "geometry": { "type": "MultiPolygon", "coordinates": [ [ [ [ -84.143534766340139, 18.287453629867372 ], [ -84.40942959179381, 17.896340705663039 ], [ -84.982408200722745, 17.881440795506943 ], [ -85.294514683851446, 18.254632417373795 ], [ -85.030236413313617, 18.645702321321405 ], [ -84.452230739391027, 18.663607441648008 ], [ -84.143534766340139, 18.287453629867372 ] ] ] ] } },
{ "type": "Feature", "properties": { "geogrid_id": "5218308918082999437", "seqnum": 34098.0, "lat_c": 18.308918488010985, "lon_c": -82.999436758653687, "res": 8.0, "count_Birds": 2, "count_Molluscs": 0, "count_Reptiles": 1, "count_Mammals": 0, "count_Mosses": 0, "count_Sac Fungi": 0, "count_Arachnids": 0, "count_Basidiomycota": 0, "count_Amphibians": 0, "count_Flowering Plants": 0, "count_Insects": 0, "count_Ferns": 0, "count_Gymnosperms": 0, "unique_species_count": 3.0, "countryCode": "HN" }, "geometry": { "type": "MultiPolygon", "coordinates": [ [ [ [ -82.429537944688207, 18.316055683301194 ], [ -82.700164253373089, 17.925215617356947 ], [ -83.268478481060725, 17.917969595799068 ], [ -83.570715979631501, 18.299463160950157 ], [ -83.301709707025267, 18.690275584559139 ], [ -82.728830601323835, 18.699620950059501 ], [ -82.429537944688207, 18.316055683301194 ] ] ] ] } }
]
}
