{
"type": "FeatureCollection",
"name": "HR",
"crs": { "type": "name", "properties": { "name": "urn:ogc:def:crs:OGC:1.3:CRS84" } },
"features": [
{ "type": "Feature", "properties": { "geogrid_id": "842018420016133054", "seqnum": 14493.0, "lat_c": 42.018420067316832, "lon_c": 16.133053905572115, "res": 8.0, "count_Flowering Plants": 15, "count_Molluscs": 2, "count_Insects": 9, "count_Birds": 3, "count_Gymnosperms": 0, "count_Basidiomycota": 0, "count_Arachnids": 2, "count_Mammals": 4, "count_Mosses": 0, "count_Amphibians": 0, "count_Reptiles": 5, "count_Sac Fungi": 0, "count_Ferns": 0, "unique_species_count": 40.0, "countryCode": "HR" }, "geometry": { "type": "MultiPolygon", "coordinates": [ [ [ [ 16.762902546609002, 42.29463640606501 ], [ 16.726136767641943, 41.830302200165839 ], [ 16.100911785179008, 41.554678695860069 ], [ 15.507450940463302, 41.736816301462497 ], [ 15.535707764602787, 42.200166887471461 ], [ 16.165899158242361, 42.482379036343715 ], [ 16.762902546609002, 42.29463640606501 ] ] ] ] } },
{ "type": "Feature", "properties": { "geogrid_id": "842100878017355494", "seqnum": 14575.0, "lat_c": 42.100878334949471, "lon_c": 17.35549399489906, "res": 8.0, "count_Flowering Plants": 0, "count_Molluscs": 3, "count_Insects": 0, "count_Birds": 0, "count_Gymnosperms": 0, "count_Basidiomycota": 0, "count_Arachnids": 0, "count_Mammals": 5, "count_Mosses": 0, "count_Amphibians": 0, "count_Reptiles": 0, "count_Sac Fungi": 0, "count_Ferns": 0, "unique_species_count": 8.0, "countryCode": "HR" }, "geometry": { "type": "MultiPolygon", "coordinates": [ [ [ [ 17.989012612723645, 42.366667662154498 ], [ 17.943589959208104, 41.901427782763534 ], [ 17.314851438644034, 41.636165295535278 ], [ 16.726136767641943, 41.830302200165839 ], [ 16.762902546609002, 42.29463640606501 ], [ 17.397014360158895, 42.565768961719805 ], [ 17.989012612723645, 42.366667662154498 ] ] ] ] } },
{ "type": "Feature", "properties": { "geogrid_id": "842162169018576402", "seqnum": 14657.0, "lat_c": 42.162168575199729, "lon_c": 18.576402026612861, "res": 8.0, "count_Flowering Plants": 120, "count_Molluscs": 17, "count_Insects": 68, "count_Birds": 13, "count_Gymnosperms": 3, "count_Basidiomycota": 1, "count_Arachnids": 2, "count_Mammals": 1, "count_Mosses": 0, "count_Amphibians": 3, "count_Reptiles": 10, "count_Sac Fungi": 7, "count_Ferns": 1, "unique_species_count": 246.0, "countryCode": "HR" }, "geometry": { "type": "MultiPolygon", "coordinates": [ [ [ [ 19.213330610628557, 42.418573913684426 ], [ 19.159135929749485, 41.95255117624103 ], [ 18.527127319180163, 41.696587542508723 ], [ 17.943589959208104, 41.901427782763534 ], [ 17.989012612723645, 42.366667662154498 ], [ 18.626728977814338, 42.627888693464506 ], [ 19.213330610628557, 42.418573913684426 ] ] ] ] } },
{ "type": "Feature", "properties": { "geogrid_id": "842663762015564590", "seqnum": 14412.0, "lat_c": 42.663761648031659, "lon_c": 15.564590254754117, "res": 8.0, "count_Flowering Plants": 106, "count_Molluscs": 12, "count_Insects": 22, "count_Birds": 14, "count_Gymnosperms": 3, "count_Basidiomycota": 0, "count_Arachnids": 1, "count_Mammals": 1, "count_Mosses": 0, "count_Amphibians": 0, "count_Reptiles": 3, "count_Sac Fungi": 1, "count_Ferns": 0, "unique_species_count": 163.0, "countryCode": "HR" }, "geometry": { "type": "MultiPolygon", "coordinates": [ [ [ [ 16.199471029763671, 42.946568826031459 ], [ 16.165899158242361, 42.482379036343715 ], [ 15.535707764602787, 42.200166887471461 ], [ 14.934229108851762, 42.375166324689133 ], [ 14.95910784901459, 42.838416492082992 ], [ 15.594119030310766, 43.127613104377666 ], [ 16.199471029763671, 42.946568826031459 ] ] ] ] } },
{ "type": "Feature", "properties": { "geogrid_id": "842759175016800472", "seqnum": 14494.0, "lat_c": 42.759174956162219, "lon_c": 16.800472107179203, "res": 8.0, "count_Flowering Plants": 608, "count_Molluscs": 95, "count_Insects": 447, "count_Birds": 88, "count_Gymnosperms": 9, "count_Basidiomycota": 15, "count_Arachnids": 43, "count_Mammals": 16, "count_Mosses": 3, "count_Amphibians": 4, "count_Reptiles": 21, "count_Sac Fungi": 16, "count_Ferns": 8, "unique_species_count": 1373.0, "countryCode": "HR" }, "geometry": { "type": "MultiPolygon", "coordinates": [ [ [ [ 17.439442573250481, 43.030851209032654 ], [ 17.397014360158895, 42.565768961719805 ], [ 16.762902546609002, 42.29463640606501 ], [ 16.165899158242361, 42.482379036343715 ], [ 16.199471029763671, 42.946568826031459 ], [ 16.838872642990115, 43.22393135664273 ], [ 17.439442573250481, 43.030851209032654 ] ] ] ] } },
{ "type": "Feature", "properties": { "geogrid_id": "842832073018035417", "seqnum": 14576.0, "lat_c": 42.832072837879281, "lon_c": 18.035416849614524, "res": 8.0, "count_Flowering Plants": 779, "count_Molluscs": 183, "count_Insects": 523, "count_Birds": 200, "count_Gymnosperms": 8, "count_Basidiomycota": 25, "count_Arachnids": 32, "count_Mammals": 14, "count_Mosses": 10, "count_Amphibians": 4, "count_Reptiles": 19, "count_Sac Fungi": 40, "count_Ferns": 15, "unique_species_count": 1852.0, "countryCode": "HR" }, "geometry": { "type": "MultiPolygon", "coordinates": [ [ [ [ 18.678144830472313, 43.093762324968218 ], [ 18.626728977814338, 42.627888693464506 ], [ 17.989012612723645, 42.366667662154498 ], [ 17.397014360158895, 42.565768961719805 ], [ 17.439442573250481, 43.030851209032654 ], [ 18.082836555518472, 43.297657394881846 ], [ 18.678144830472313, 43.093762324968218 ] ] ] ] } },
{ "type": "Feature", "properties": { "geogrid_id": "843301948014984549", "seqnum": 14331.0, "lat_c": 43.301948239984092, "lon_c": 14.984549360896631, "res": 8.0, "count_Flowering Plants": 11, "count_Molluscs": 22, "count_Insects": 0, "count_Birds": 0, "count_Gymnosperms": 0, "count_Basidiomycota": 0, "count_Arachnids": 0, "count_Mammals": 2, "count_Mosses": 0, "count_Amphibians": 0, "count_Reptiles": 1, "count_Sac Fungi": 0, "count_Ferns": 0, "unique_species_count": 36.0, "countryCode": "HR" }, "geometry": { "type": "MultiPolygon", "coordinates": [ [ [ [ 15.624315454948244, 43.59173351554 ], [ 15.594119030310766, 43.127613104377666 ], [ 14.95910784901459, 42.838416492082992 ], [ 14.349612518101141, 43.005950987403565 ], [ 14.370923498919549, 43.469191065151712 ], [ 15.01057203786474, 43.765773136458925 ], [ 15.624315454948244, 43.59173351554 ] ] ] ] } },
{ "type": "Feature", "properties": { "geogrid_id": "843411002016233794", "seqnum": 14413.0, "lat_c": 43.411002347131713, "lon_c": 16.233793819573869, "res": 8.0, "count_Flowering Plants": 1403, "count_Molluscs": 257, "count_Insects": 1753, "count_Birds": 215, "count_Gymnosperms": 15, "count_Basidiomycota": 79, "count_Arachnids": 97, "count_Mammals": 30, "count_Mosses": 16, "count_Amphibians": 9, "count_Reptiles": 21, "count_Sac Fungi": 36, "count_Ferns": 10, "unique_species_count": 3941.0, "countryCode": "HR" }, "geometry": { "type": "MultiPolygon", "coordinates": [ [ [ [ 16.878132291701942, 43.688918784561231 ], [ 16.838872642990115, 43.22393135664273 ], [ 16.199471029763671, 42.946568826031459 ], [ 15.594119030310766, 43.127613104377666 ], [ 15.624315454948244, 43.59173351554 ], [ 16.268892702740803, 43.875692224273102 ], [ 16.878132291701942, 43.688918784561231 ] ] ] ] } },
{ "type": "Feature", "properties": { "geogrid_id": "843496139017482810", "seqnum": 14495.0, "lat_c": 43.496138743335983, "lon_c": 17.482809677625518, "res": 8.0, "count_Flowering Plants": 846, "count_Molluscs": 118, "count_Insects": 830, "count_Birds": 152, "count_Gymnosperms": 9, "count_Basidiomycota": 15, "count_Arachnids": 55, "count_Mammals": 42, "count_Mosses": 7, "count_Amphibians": 8, "count_Reptiles": 23, "count_Sac Fungi": 20, "count_Ferns": 6, "unique_species_count": 2131.0, "countryCode": "HR" }, "geometry": { "type": "MultiPolygon", "coordinates": [ [ [ [ 18.131306762463542, 43.763435045984629 ], [ 18.082836555518472, 43.297657394881846 ], [ 17.439442573250481, 43.030851209032654 ], [ 16.838872642990115, 43.22393135664273 ], [ 16.878132291701942, 43.688918784561231 ], [ 17.527147802020465, 43.96164489059931 ], [ 18.131306762463542, 43.763435045984629 ] ] ] ] } },
{ "type": "Feature", "properties": { "geogrid_id": "843932747014392726", "seqnum": 14250.0, "lat_c": 43.93274701030191, "lon_c": 14.392725976148322, "res": 8.0, "count_Flowering Plants": 124, "count_Molluscs": 28, "count_Insects": 101, "count_Birds": 20, "count_Gymnosperms": 3, "count_Basidiomycota": 2, "count_Arachnids": 9, "count_Mammals": 3, "count_Mosses": 0, "count_Amphibians": 1, "count_Reptiles": 6, "count_Sac Fungi": 1, "count_Ferns": 2, "unique_species_count": 300.0, "countryCode": "HR" }, "geometry": { "type": "MultiPolygon", "coordinates": [ [ [ [ 15.037194986231615, 44.229902562851592 ], [ 15.01057203786474, 43.765773136458925 ], [ 14.370923498919549, 43.469191065151712 ], [ 13.753434293134221, 43.628933163782349 ], [ 13.770970631424806, 44.09225696144793 ], [ 14.415035961893022, 44.396629550863445 ], [ 15.037194986231615, 44.229902562851592 ] ] ] ] } },
{ "type": "Feature", "properties": { "geogrid_id": "844056135015655202", "seqnum": 14332.0, "lat_c": 44.056134902231456, "lon_c": 15.655201691144407, "res": 8.0, "count_Flowering Plants": 1646, "count_Molluscs": 220, "count_Insects": 1566, "count_Birds": 278, "count_Gymnosperms": 18, "count_Basidiomycota": 49, "count_Arachnids": 109, "count_Mammals": 32, "count_Mosses": 11, "count_Amphibians": 9, "count_Reptiles": 33, "count_Sac Fungi": 50, "count_Ferns": 14, "unique_species_count": 4035.0, "countryCode": "HR" }, "geometry": { "type": "MultiPolygon", "coordinates": [ [ [ [ 16.304793794600311, 44.340650819809618 ], [ 16.268892702740803, 43.875692224273102 ], [ 15.624315454948244, 43.59173351554 ], [ 15.01057203786474, 43.765773136458925 ], [ 15.037194986231615, 44.229902562851592 ], [ 15.686800756571042, 44.52082906854401 ], [ 16.304793794600311, 44.340650819809618 ] ] ] ] } },
{ "type": "Feature", "properties": { "geogrid_id": "844154150016918280", "seqnum": 14414.0, "lat_c": 44.154150113213156, "lon_c": 16.918280207749277, "res": 8.0, "count_Flowering Plants": 421, "count_Molluscs": 9, "count_Insects": 482, "count_Birds": 52, "count_Gymnosperms": 4, "count_Basidiomycota": 0, "count_Arachnids": 25, "count_Mammals": 9, "count_Mosses": 3, "count_Amphibians": 6, "count_Reptiles": 14, "count_Sac Fungi": 4, "count_Ferns": 5, "unique_species_count": 1034.0, "countryCode": "HR" }, "geometry": { "type": "MultiPolygon", "coordinates": [ [ [ [ 17.572490243422411, 44.42738266028698 ], [ 17.527147802020465, 43.96164489059931 ], [ 16.878132291701942, 43.688918784561231 ], [ 16.268892702740803, 43.875692224273102 ], [ 16.304793794600311, 44.340650819809618 ], [ 16.959346637411024, 44.619637935259405 ], [ 17.572490243422411, 44.42738266028698 ] ] ] ] } },
{ "type": "Feature", "properties": { "geogrid_id": "844555927013788919", "seqnum": 14169.0, "lat_c": 44.555927429228674, "lon_c": 13.788918568180346, "res": 8.0, "count_Flowering Plants": 1027, "count_Molluscs": 260, "count_Insects": 841, "count_Birds": 168, "count_Gymnosperms": 11, "count_Basidiomycota": 83, "count_Arachnids": 55, "count_Mammals": 24, "count_Mosses": 31, "count_Amphibians": 6, "count_Reptiles": 25, "count_Sac Fungi": 16, "count_Ferns": 8, "unique_species_count": 2555.0, "countryCode": "HR" }, "geometry": { "type": "MultiPolygon", "coordinates": [ [ [ [ 14.437870125639632, 44.860849297711347 ], [ 14.415035961893022, 44.396629550863445 ], [ 13.770970631424806, 44.09225696144793 ], [ 13.145533621740883, 44.243879245114591 ], [ 13.159070512107222, 44.707383516832913 ], [ 13.807291531220555, 45.019954589125291 ], [ 14.437870125639632, 44.860849297711347 ] ] ] ] } },
{ "type": "Feature", "properties": { "geogrid_id": "844694348015064438", "seqnum": 14251.0, "lat_c": 44.694347732743537, "lon_c": 15.064438073345542, "res": 8.0, "count_Flowering Plants": 1630, "count_Molluscs": 167, "count_Insects": 1444, "count_Birds": 278, "count_Gymnosperms": 17, "count_Basidiomycota": 122, "count_Arachnids": 81, "count_Mammals": 36, "count_Mosses": 45, "count_Amphibians": 11, "count_Reptiles": 31, "count_Sac Fungi": 103, "count_Ferns": 25, "unique_species_count": 3990.0, "countryCode": "HR" }, "geometry": { "type": "MultiPolygon", "coordinates": [ [ [ [ 15.719136582720509, 44.98582762167598 ], [ 15.686800756571042, 44.52082906854401 ], [ 15.037194986231615, 44.229902562851592 ], [ 14.415035961893022, 44.396629550863445 ], [ 14.437870125639632, 44.860849297711347 ], [ 15.092321977801621, 45.159119709182555 ], [ 15.719136582720509, 44.98582762167598 ] ] ] ] } },
{ "type": "Feature", "properties": { "geogrid_id": "844805890016341524", "seqnum": 14333.0, "lat_c": 44.805890255527089, "lon_c": 16.341524217691639, "res": 8.0, "count_Flowering Plants": 217, "count_Molluscs": 3, "count_Insects": 156, "count_Birds": 81, "count_Gymnosperms": 1, "count_Basidiomycota": 2, "count_Arachnids": 3, "count_Mammals": 9, "count_Mosses": 2, "count_Amphibians": 6, "count_Reptiles": 8, "count_Sac Fungi": 1, "count_Ferns": 7, "unique_species_count": 496.0, "countryCode": "HR" }, "geometry": { "type": "MultiPolygon", "coordinates": [ [ [ [ 17.001362996678722, 45.085394583801559 ], [ 16.959346637411024, 44.619637935259405 ], [ 16.304793794600311, 44.340650819809618 ], [ 15.686800756571042, 44.52082906854401 ], [ 15.719136582720509, 44.98582762167598 ], [ 16.379112171413691, 45.271422432407135 ], [ 17.001362996678722, 45.085394583801559 ] ] ] ] } },
{ "type": "Feature", "properties": { "geogrid_id": "844893365017618872", "seqnum": 14415.0, "lat_c": 44.893364767231482, "lon_c": 17.61887155287517, "res": 8.0, "count_Flowering Plants": 338, "count_Molluscs": 6, "count_Insects": 134, "count_Birds": 205, "count_Gymnosperms": 4, "count_Basidiomycota": 12, "count_Arachnids": 9, "count_Mammals": 16, "count_Mosses": 0, "count_Amphibians": 9, "count_Reptiles": 5, "count_Sac Fungi": 3, "count_Ferns": 3, "unique_species_count": 744.0, "countryCode": "HR" }, "geometry": { "type": "MultiPolygon", "coordinates": [ [ [ [ 18.283389828108959, 45.162058605377474 ], [ 18.231545085786795, 44.695622764678859 ], [ 17.572490243422411, 44.42738266028698 ], [ 16.959346637411024, 44.619637935259405 ], [ 17.001362996678722, 45.085394583801559 ], [ 17.666327624658745, 45.359603651573941 ], [ 18.283389828108959, 45.162058605377474 ] ] ] ] } },
{ "type": "Feature", "properties": { "geogrid_id": "844959067018895475", "seqnum": 14497.0, "lat_c": 44.959067076424439, "lon_c": 18.895474507853436, "res": 8.0, "count_Flowering Plants": 306, "count_Molluscs": 4, "count_Insects": 153, "count_Birds": 196, "count_Gymnosperms": 1, "count_Basidiomycota": 14, "count_Arachnids": 7, "count_Mammals": 14, "count_Mosses": 0, "count_Amphibians": 6, "count_Reptiles": 9, "count_Sac Fungi": 3, "count_Ferns": 1, "unique_species_count": 714.0, "countryCode": "HR" }, "geometry": { "type": "MultiPolygon", "coordinates": [ [ [ [ 19.564313783649101, 45.217881233049084 ], [ 19.502525836316899, 44.750884946252349 ], [ 18.83931097397841, 44.492442738808393 ], [ 18.231545085786795, 44.695622764678859 ], [ 18.283389828108959, 45.162058605377474 ], [ 18.952930244563021, 45.42591153750471 ], [ 19.564313783649101, 45.217881233049084 ] ] ] ] } },
{ "type": "Feature", "properties": { "geogrid_id": "845171261013172930", "seqnum": 14088.0, "lat_c": 45.171261431110956, "lon_c": 13.172930212929339, "res": 8.0, "count_Flowering Plants": 1067, "count_Molluscs": 270, "count_Insects": 912, "count_Birds": 241, "count_Gymnosperms": 9, "count_Basidiomycota": 39, "count_Arachnids": 47, "count_Mammals": 15, "count_Mosses": 21, "count_Amphibians": 8, "count_Reptiles": 22, "count_Sac Fungi": 14, "count_Ferns": 11, "unique_species_count": 2676.0, "countryCode": "HR" }, "geometry": { "type": "MultiPolygon", "coordinates": [ [ [ [ 13.826103525671117, 45.484348407467429 ], [ 13.807291531220555, 45.019954589125291 ], [ 13.159070512107222, 44.707383516832913 ], [ 12.525756700012, 44.850559343890765 ], [ 12.53505070899592, 45.314343232452629 ], [ 13.187123313949362, 45.635522456484097 ], [ 13.826103525671117, 45.484348407467429 ] ] ] ] } },
{ "type": "Feature", "properties": { "geogrid_id": "845325417014461246", "seqnum": 14170.0, "lat_c": 45.325416758886526, "lon_c": 14.461245836010367, "res": 8.0, "count_Flowering Plants": 1899, "count_Molluscs": 252, "count_Insects": 1871, "count_Birds": 241, "count_Gymnosperms": 19, "count_Basidiomycota": 129, "count_Arachnids": 84, "count_Mammals": 42, "count_Mosses": 54, "count_Amphibians": 14, "count_Reptiles": 31, "count_Sac Fungi": 54, "count_Ferns": 26, "unique_species_count": 4716.0, "countryCode": "HR" }, "geometry": { "type": "MultiPolygon", "coordinates": [ [ [ [ 15.120868242079611, 45.6242294203592 ], [ 15.092321977801621, 45.159119709182555 ], [ 14.437870125639632, 44.860849297711347 ], [ 13.807291531220555, 45.019954589125291 ], [ 13.826103525671117, 45.484348407467429 ], [ 14.485181204713236, 45.790342352619035 ], [ 15.120868242079611, 45.6242294203592 ] ] ] ] } },
{ "type": "Feature", "properties": { "geogrid_id": "845451142015752234", "seqnum": 14252.0, "lat_c": 45.451141989882579, "lon_c": 15.752234076131987, "res": 8.0, "count_Flowering Plants": 1153, "count_Molluscs": 41, "count_Insects": 1121, "count_Birds": 195, "count_Gymnosperms": 15, "count_Basidiomycota": 112, "count_Arachnids": 78, "count_Mammals": 35, "count_Mosses": 28, "count_Amphibians": 14, "count_Reptiles": 15, "count_Sac Fungi": 42, "count_Ferns": 16, "unique_species_count": 2865.0, "countryCode": "HR" }, "geometry": { "type": "MultiPolygon", "coordinates": [ [ [ [ 16.417587004828999, 45.737259048624701 ], [ 16.379112171413691, 45.271422432407135 ], [ 15.719136582720509, 44.98582762167598 ], [ 15.092321977801621, 45.159119709182555 ], [ 15.120868242079611, 45.6242294203592 ], [ 15.786119182587573, 45.916783438819969 ], [ 16.417587004828999, 45.737259048624701 ] ] ] ] } },
{ "type": "Feature", "properties": { "geogrid_id": "845551432017044362", "seqnum": 14334.0, "lat_c": 45.55143215158234, "lon_c": 17.044361952404834, "res": 8.0, "count_Flowering Plants": 598, "count_Molluscs": 11, "count_Insects": 394, "count_Birds": 217, "count_Gymnosperms": 5, "count_Basidiomycota": 104, "count_Arachnids": 21, "count_Mammals": 21, "count_Mosses": 4, "count_Amphibians": 14, "count_Reptiles": 9, "count_Sac Fungi": 15, "count_Ferns": 8, "unique_species_count": 1421.0, "countryCode": "HR" }, "geometry": { "type": "MultiPolygon", "coordinates": [ [ [ [ 17.714895789381035, 45.826111496920028 ], [ 17.666327624658745, 45.359603651573941 ], [ 17.001362996678722, 45.085394583801559 ], [ 16.379112171413691, 45.271422432407135 ], [ 16.417587004828999, 45.737259048624701 ], [ 17.088377507219928, 46.017762508466326 ], [ 17.714895789381035, 45.826111496920028 ] ] ] ] } },
{ "type": "Feature", "properties": { "geogrid_id": "845628739018336439", "seqnum": 14416.0, "lat_c": 45.628739125032752, "lon_c": 18.336438521085583, "res": 8.0, "count_Flowering Plants": 494, "count_Molluscs": 13, "count_Insects": 396, "count_Birds": 247, "count_Gymnosperms": 5, "count_Basidiomycota": 56, "count_Arachnids": 32, "count_Mammals": 25, "count_Mosses": 3, "count_Amphibians": 13, "count_Reptiles": 12, "count_Sac Fungi": 14, "count_Ferns": 5, "unique_species_count": 1315.0, "countryCode": "HR" }, "geometry": { "type": "MultiPolygon", "coordinates": [ [ [ [ 19.011723579405384, 45.892988479682266 ], [ 18.952930244563021, 45.42591153750471 ], [ 18.283389828108959, 45.162058605377474 ], [ 17.666327624658745, 45.359603651573941 ], [ 17.714895789381035, 45.826111496920028 ], [ 18.390733352990161, 46.095676500114529 ], [ 19.011723579405384, 45.892988479682266 ] ] ] ] } },
{ "type": "Feature", "properties": { "geogrid_id": "845685085019627527", "seqnum": 14498.0, "lat_c": 45.685085451888796, "lon_c": 19.627527106748101, "res": 8.0, "count_Flowering Plants": 38, "count_Molluscs": 0, "count_Insects": 20, "count_Birds": 24, "count_Gymnosperms": 0, "count_Basidiomycota": 0, "count_Arachnids": 0, "count_Mammals": 0, "count_Mosses": 0, "count_Amphibians": 0, "count_Reptiles": 3, "count_Sac Fungi": 0, "count_Ferns": 0, "unique_species_count": 85.0, "countryCode": "HR" }, "geometry": { "type": "MultiPolygon", "coordinates": [ [ [ [ 20.307218650439747, 45.93971620911767 ], [ 20.238102086457953, 45.472204213627819 ], [ 19.564313783649101, 45.217881233049084 ], [ 18.952930244563021, 45.42591153750471 ], [ 19.011723579405384, 45.892988479682266 ], [ 19.692216220388389, 46.152509780175933 ], [ 20.307218650439747, 45.93971620911767 ] ] ] ] } },
{ "type": "Feature", "properties": { "geogrid_id": "846089688015150099", "seqnum": 14171.0, "lat_c": 46.08968767388648, "lon_c": 15.150099327921009, "res": 8.0, "count_Flowering Plants": 320, "count_Molluscs": 5, "count_Insects": 232, "count_Birds": 36, "count_Gymnosperms": 3, "count_Basidiomycota": 11, "count_Arachnids": 18, "count_Mammals": 7, "count_Mosses": 2, "count_Amphibians": 5, "count_Reptiles": 5, "count_Sac Fungi": 4, "count_Ferns": 7, "unique_species_count": 655.0, "countryCode": "HR" }, "geometry": { "type": "MultiPolygon", "coordinates": [ [ [ [ 15.820818954658987, 46.382763086432142 ], [ 15.786119182587573, 45.916783438819969 ], [ 15.120868242079611, 45.6242294203592 ], [ 14.485181204713236, 45.790342352619035 ], [ 14.509695132940573, 46.255636419208869 ], [ 15.180038674769479, 46.555505169819668 ], [ 15.820818954658987, 46.382763086432142 ] ] ] ] } },
{ "type": "Feature", "properties": { "geogrid_id": "846203412016456979", "seqnum": 14253.0, "lat_c": 46.203411615934591, "lon_c": 16.456979293051397, "res": 8.0, "count_Flowering Plants": 858, "count_Molluscs": 29, "count_Insects": 1506, "count_Birds": 195, "count_Gymnosperms": 12, "count_Basidiomycota": 80, "count_Arachnids": 68, "count_Mammals": 31, "count_Mosses": 18, "count_Amphibians": 14, "count_Reptiles": 11, "count_Sac Fungi": 35, "count_Ferns": 13, "unique_species_count": 2870.0, "countryCode": "HR" }, "geometry": { "type": "MultiPolygon", "coordinates": [ [ [ [ 17.133445088721345, 46.484397317337979 ], [ 17.088377507219928, 46.017762508466326 ], [ 16.417587004828999, 45.737259048624701 ], [ 15.786119182587573, 45.916783438819969 ], [ 15.820818954658987, 46.382763086432142 ], [ 16.49732091766797, 46.669891474584283 ], [ 17.133445088721345, 46.484397317337979 ] ] ] ] } },
{ "type": "Feature", "properties": { "geogrid_id": "846292900017764615", "seqnum": 14335.0, "lat_c": 46.292900246843281, "lon_c": 17.764614911533098, "res": 8.0, "count_Flowering Plants": 36, "count_Molluscs": 0, "count_Insects": 39, "count_Birds": 12, "count_Gymnosperms": 0, "count_Basidiomycota": 0, "count_Arachnids": 0, "count_Mammals": 5, "count_Mosses": 1, "count_Amphibians": 2, "count_Reptiles": 2, "count_Sac Fungi": 1, "count_Ferns": 0, "unique_species_count": 98.0, "countryCode": "HR" }, "geometry": { "type": "MultiPolygon", "coordinates": [ [ [ [ 18.4463182564023, 46.562882651935091 ], [ 18.390733352990161, 46.095676500114529 ], [ 17.714895789381035, 45.826111496920028 ], [ 17.088377507219928, 46.017762508466326 ], [ 17.133445088721345, 46.484397317337979 ], [ 17.815525492078173, 46.75998161985234 ], [ 18.4463182564023, 46.562882651935091 ] ] ] ] } }
]
}
