{
"type": "FeatureCollection",
"name": "HU",
"crs": { "type": "name", "properties": { "name": "urn:ogc:def:crs:OGC:1.3:CRS84" } },
"features": [
{ "type": "Feature", "properties": { "geogrid_id": "845628739018336439", "seqnum": 14416.0, "lat_c": 45.628739125032752, "lon_c": 18.336438521085583, "res": 8.0, "count_Sac Fungi": 7, "count_Gymnosperms": 0, "count_Flowering Plants": 458, "count_Insects": 681, "count_Birds": 70, "count_Ferns": 5, "count_Arachnids": 22, "count_Mosses": 1, "count_Basidiomycota": 9, "count_Reptiles": 10, "count_Mammals": 11, "count_Molluscs": 8, "count_Amphibians": 5, "unique_species_count": 1287.0, "countryCode": "HU" }, "geometry": { "type": "MultiPolygon", "coordinates": [ [ [ [ 19.011723579405384, 45.892988479682266 ], [ 18.952930244563021, 45.42591153750471 ], [ 18.283389828108959, 45.162058605377474 ], [ 17.666327624658745, 45.359603651573941 ], [ 17.714895789381035, 45.826111496920028 ], [ 18.390733352990161, 46.095676500114529 ], [ 19.011723579405384, 45.892988479682266 ] ] ] ] } },
{ "type": "Feature", "properties": { "geogrid_id": "846203412016456979", "seqnum": 14253.0, "lat_c": 46.203411615934591, "lon_c": 16.456979293051397, "res": 8.0, "count_Sac Fungi": 3, "count_Gymnosperms": 1, "count_Flowering Plants": 404, "count_Insects": 1076, "count_Birds": 93, "count_Ferns": 2, "count_Arachnids": 27, "count_Mosses": 9, "count_Basidiomycota": 26, "count_Reptiles": 6, "count_Mammals": 24, "count_Molluscs": 11, "count_Amphibians": 8, "unique_species_count": 1690.0, "countryCode": "HU" }, "geometry": { "type": "MultiPolygon", "coordinates": [ [ [ [ 17.133445088721345, 46.484397317337979 ], [ 17.088377507219928, 46.017762508466326 ], [ 16.417587004828999, 45.737259048624701 ], [ 15.786119182587573, 45.916783438819969 ], [ 15.820818954658987, 46.382763086432142 ], [ 16.49732091766797, 46.669891474584283 ], [ 17.133445088721345, 46.484397317337979 ] ] ] ] } },
{ "type": "Feature", "properties": { "geogrid_id": "846292900017764615", "seqnum": 14335.0, "lat_c": 46.292900246843281, "lon_c": 17.764614911533098, "res": 8.0, "count_Sac Fungi": 48, "count_Gymnosperms": 10, "count_Flowering Plants": 946, "count_Insects": 1799, "count_Birds": 153, "count_Ferns": 17, "count_Arachnids": 37, "count_Mosses": 25, "count_Basidiomycota": 230, "count_Reptiles": 9, "count_Mammals": 27, "count_Molluscs": 17, "count_Amphibians": 9, "unique_species_count": 3327.0, "countryCode": "HU" }, "geometry": { "type": "MultiPolygon", "coordinates": [ [ [ [ 18.4463182564023, 46.562882651935091 ], [ 18.390733352990161, 46.095676500114529 ], [ 17.714895789381035, 45.826111496920028 ], [ 17.088377507219928, 46.017762508466326 ], [ 17.133445088721345, 46.484397317337979 ], [ 17.815525492078173, 46.75998161985234 ], [ 18.4463182564023, 46.562882651935091 ] ] ] ] } },
{ "type": "Feature", "properties": { "geogrid_id": "846360310019071902", "seqnum": 14417.0, "lat_c": 46.360309977986134, "lon_c": 19.071901750498959, "res": 8.0, "count_Sac Fungi": 50, "count_Gymnosperms": 6, "count_Flowering Plants": 1013, "count_Insects": 1692, "count_Birds": 218, "count_Ferns": 8, "count_Arachnids": 65, "count_Mosses": 25, "count_Basidiomycota": 321, "count_Reptiles": 11, "count_Mammals": 24, "count_Molluscs": 40, "count_Amphibians": 8, "unique_species_count": 3481.0, "countryCode": "HU" }, "geometry": { "type": "MultiPolygon", "coordinates": [ [ [ [ 19.758433603424418, 46.6201661010696 ], [ 19.692216220388389, 46.152509780175933 ], [ 19.011723579405384, 45.892988479682266 ], [ 18.390733352990161, 46.095676500114529 ], [ 18.4463182564023, 46.562882651935091 ], [ 19.133513963194126, 46.827887838344907 ], [ 19.758433603424418, 46.6201661010696 ] ] ] ] } },
{ "type": "Feature", "properties": { "geogrid_id": "846407436020377954", "seqnum": 14499.0, "lat_c": 46.407435678376473, "lon_c": 20.377953810663751, "res": 8.0, "count_Sac Fungi": 59, "count_Gymnosperms": 7, "count_Flowering Plants": 834, "count_Insects": 1515, "count_Birds": 245, "count_Ferns": 4, "count_Arachnids": 75, "count_Mosses": 31, "count_Basidiomycota": 401, "count_Reptiles": 10, "count_Mammals": 22, "count_Molluscs": 36, "count_Amphibians": 9, "unique_species_count": 3248.0, "countryCode": "HU" }, "geometry": { "type": "MultiPolygon", "coordinates": [ [ [ [ 21.068976367537783, 46.657876772736756 ], [ 20.992045747023624, 46.189917137635042 ], [ 20.307218650439747, 45.93971620911767 ], [ 19.692216220388389, 46.152509780175933 ], [ 19.758433603424418, 46.6201661010696 ], [ 20.450365476547443, 46.875374225953159 ], [ 21.068976367537783, 46.657876772736756 ] ] ] ] } },
{ "type": "Feature", "properties": { "geogrid_id": "846435782021682051", "seqnum": 14581.0, "lat_c": 46.435781975917372, "lon_c": 21.682050839785123, "res": 8.0, "count_Sac Fungi": 0, "count_Gymnosperms": 1, "count_Flowering Plants": 255, "count_Insects": 352, "count_Birds": 48, "count_Ferns": 2, "count_Arachnids": 9, "count_Mosses": 1, "count_Basidiomycota": 13, "count_Reptiles": 2, "count_Mammals": 5, "count_Molluscs": 5, "count_Amphibians": 7, "unique_species_count": 700.0, "countryCode": "HU" }, "geometry": { "type": "MultiPolygon", "coordinates": [ [ [ [ 22.377277062461122, 46.67738735982072 ], [ 22.289585790913655, 46.209288419722697 ], [ 21.600694427878206, 45.967820512504211 ], [ 20.992045747023624, 46.189917137635042 ], [ 21.068976367537783, 46.657876772736756 ], [ 21.765325489018423, 46.903924443519017 ], [ 22.377277062461122, 46.67738735982072 ] ] ] ] } },
{ "type": "Feature", "properties": { "geogrid_id": "846849092015856362", "seqnum": 14172.0, "lat_c": 46.84909191651235, "lon_c": 15.85636162300081, "res": 8.0, "count_Sac Fungi": 58, "count_Gymnosperms": 10, "count_Flowering Plants": 682, "count_Insects": 1530, "count_Birds": 56, "count_Ferns": 11, "count_Arachnids": 65, "count_Mosses": 51, "count_Basidiomycota": 353, "count_Reptiles": 4, "count_Mammals": 20, "count_Molluscs": 21, "count_Amphibians": 14, "unique_species_count": 2875.0, "countryCode": "HU" }, "geometry": { "type": "MultiPolygon", "coordinates": [ [ [ [ 16.538645151665584, 47.136709806873682 ], [ 16.49732091766797, 46.669891474584283 ], [ 15.820818954658987, 46.382763086432142 ], [ 15.180038674769479, 46.555505169819668 ], [ 15.210710761614047, 47.021692512536042 ], [ 15.892776671805775, 47.315780791054443 ], [ 16.538645151665584, 47.136709806873682 ] ] ] ] } },
{ "type": "Feature", "properties": { "geogrid_id": "846951348017179602", "seqnum": 14254.0, "lat_c": 46.951348048537923, "lon_c": 17.179601643455349, "res": 8.0, "count_Sac Fungi": 71, "count_Gymnosperms": 13, "count_Flowering Plants": 1303, "count_Insects": 1897, "count_Birds": 200, "count_Ferns": 20, "count_Arachnids": 72, "count_Mosses": 44, "count_Basidiomycota": 274, "count_Reptiles": 11, "count_Mammals": 33, "count_Molluscs": 45, "count_Amphibians": 15, "unique_species_count": 3998.0, "countryCode": "HU" }, "geometry": { "type": "MultiPolygon", "coordinates": [ [ [ [ 17.867669776669963, 47.227367122924804 ], [ 17.815525492078173, 46.75998161985234 ], [ 17.133445088721345, 46.484397317337979 ], [ 16.49732091766797, 46.669891474584283 ], [ 16.538645151665584, 47.136709806873682 ], [ 17.226885736240117, 47.418625992944165 ], [ 17.867669776669963, 47.227367122924804 ] ] ] ] } },
{ "type": "Feature", "properties": { "geogrid_id": "847030369018503239", "seqnum": 14336.0, "lat_c": 47.030369260320448, "lon_c": 18.503239024795434, "res": 8.0, "count_Sac Fungi": 71, "count_Gymnosperms": 7, "count_Flowering Plants": 1299, "count_Insects": 2750, "count_Birds": 251, "count_Ferns": 13, "count_Arachnids": 143, "count_Mosses": 62, "count_Basidiomycota": 151, "count_Reptiles": 11, "count_Mammals": 36, "count_Molluscs": 50, "count_Amphibians": 10, "unique_species_count": 4854.0, "countryCode": "HU" }, "geometry": { "type": "MultiPolygon", "coordinates": [ [ [ [ 19.196611521261222, 47.295733609660161 ], [ 19.133513963194126, 46.827887838344907 ], [ 18.4463182564023, 46.562882651935091 ], [ 17.815525492078173, 46.75998161985234 ], [ 17.867669776669963, 47.227367122924804 ], [ 18.561543435665218, 47.498147775882686 ], [ 19.196611521261222, 47.295733609660161 ] ] ] ] } },
{ "type": "Feature", "properties": { "geogrid_id": "847088066019826234", "seqnum": 14418.0, "lat_c": 47.088066015092508, "lon_c": 19.826233937433873, "res": 8.0, "count_Sac Fungi": 67, "count_Gymnosperms": 6, "count_Flowering Plants": 1073, "count_Insects": 1735, "count_Birds": 209, "count_Ferns": 6, "count_Arachnids": 73, "count_Mosses": 50, "count_Basidiomycota": 249, "count_Reptiles": 10, "count_Mammals": 32, "count_Molluscs": 27, "count_Amphibians": 11, "unique_species_count": 3548.0, "countryCode": "HU" }, "geometry": { "type": "MultiPolygon", "coordinates": [ [ [ [ 20.524514008244935, 47.343543159935621 ], [ 20.450365476547443, 46.875374225953159 ], [ 19.758433603424418, 46.6201661010696 ], [ 19.133513963194126, 46.827887838344907 ], [ 19.196611521261222, 47.295733609660161 ], [ 19.895674253112116, 47.556220850353647 ], [ 20.524514008244935, 47.343543159935621 ] ] ] ] } },
{ "type": "Feature", "properties": { "geogrid_id": "847126042021147737", "seqnum": 14500.0, "lat_c": 47.126042124270604, "lon_c": 21.147736583562867, "res": 8.0, "count_Sac Fungi": 6, "count_Gymnosperms": 6, "count_Flowering Plants": 655, "count_Insects": 390, "count_Birds": 212, "count_Ferns": 1, "count_Arachnids": 87, "count_Mosses": 27, "count_Basidiomycota": 88, "count_Reptiles": 7, "count_Mammals": 22, "count_Molluscs": 6, "count_Amphibians": 11, "unique_species_count": 1518.0, "countryCode": "HU" }, "geometry": { "type": "MultiPolygon", "coordinates": [ [ [ [ 21.850587711257607, 47.372258715082687 ], [ 21.765325489018423, 46.903924443519017 ], [ 21.068976367537783, 46.657876772736756 ], [ 20.450365476547443, 46.875374225953159 ], [ 20.524514008244935, 47.343543159935621 ], [ 21.228392634996464, 47.594424123537685 ], [ 21.850587711257607, 47.372258715082687 ] ] ] ] } },
{ "type": "Feature", "properties": { "geogrid_id": "847145653022467043", "seqnum": 19749.0, "lat_c": 47.145653253686476, "lon_c": 22.46704346243677, "res": 8.0, "count_Sac Fungi": 0, "count_Gymnosperms": 0, "count_Flowering Plants": 9, "count_Insects": 0, "count_Birds": 2, "count_Ferns": 0, "count_Arachnids": 0, "count_Mosses": 0, "count_Basidiomycota": 0, "count_Reptiles": 0, "count_Mammals": 0, "count_Molluscs": 0, "count_Amphibians": 0, "unique_species_count": 11.0, "countryCode": "HU" }, "geometry": { "type": "MultiPolygon", "coordinates": [ [ [ [ 22.556575062168651, 47.617579895464424 ], [ 23.169312853951162, 47.3909352178772 ], [ 23.074907642700754, 46.918979447032186 ], [ 22.377277062461122, 46.67738735982072 ], [ 21.765325489018423, 46.903924443519017 ], [ 21.850587711257607, 47.372258715082687 ], [ 22.556575062168651, 47.617579895464424 ] ] ] ] } },
{ "type": "Feature", "properties": { "geogrid_id": "847603878016580987", "seqnum": 14173.0, "lat_c": 47.603877649468075, "lon_c": 16.580986749357269, "res": 8.0, "count_Sac Fungi": 86, "count_Gymnosperms": 16, "count_Flowering Plants": 1205, "count_Insects": 1856, "count_Birds": 242, "count_Ferns": 16, "count_Arachnids": 66, "count_Mosses": 53, "count_Basidiomycota": 356, "count_Reptiles": 11, "count_Mammals": 39, "count_Molluscs": 24, "count_Amphibians": 14, "unique_species_count": 3984.0, "countryCode": "HU" }, "geometry": { "type": "MultiPolygon", "coordinates": [ [ [ [ 17.275337655408105, 47.886242273791304 ], [ 17.226885736240117, 47.418625992944165 ], [ 16.538645151665584, 47.136709806873682 ], [ 15.892776671805775, 47.315780791054443 ], [ 15.930094918862052, 47.782840461495681 ], [ 16.624382041834167, 48.071405904557203 ], [ 17.275337655408105, 47.886242273791304 ] ] ] ] } },
{ "type": "Feature", "properties": { "geogrid_id": "847695068017921092", "seqnum": 14255.0, "lat_c": 47.695068063697747, "lon_c": 17.921091870127292, "res": 8.0, "count_Sac Fungi": 44, "count_Gymnosperms": 9, "count_Flowering Plants": 1258, "count_Insects": 1516, "count_Birds": 184, "count_Ferns": 12, "count_Arachnids": 50, "count_Mosses": 52, "count_Basidiomycota": 246, "count_Reptiles": 12, "count_Mammals": 31, "count_Molluscs": 40, "count_Amphibians": 11, "unique_species_count": 3465.0, "countryCode": "HU" }, "geometry": { "type": "MultiPolygon", "coordinates": [ [ [ [ 18.621281380908844, 47.966229430965434 ], [ 18.561543435665218, 47.498147775882686 ], [ 17.867669776669963, 47.227367122924804 ], [ 17.226885736240117, 47.418625992944165 ], [ 17.275337655408105, 47.886242273791304 ], [ 17.975837857830793, 48.163095561393085 ], [ 18.621281380908844, 47.966229430965434 ] ] ] ] } },
{ "type": "Feature", "properties": { "geogrid_id": "847763859019261248", "seqnum": 14337.0, "lat_c": 47.76385859451311, "lon_c": 19.261247965604621, "res": 8.0, "count_Sac Fungi": 181, "count_Gymnosperms": 20, "count_Flowering Plants": 1886, "count_Insects": 3911, "count_Birds": 240, "count_Ferns": 24, "count_Arachnids": 200, "count_Mosses": 127, "count_Basidiomycota": 558, "count_Reptiles": 18, "count_Mammals": 55, "count_Molluscs": 85, "count_Amphibians": 12, "unique_species_count": 7317.0, "countryCode": "HU" }, "geometry": { "type": "MultiPolygon", "coordinates": [ [ [ [ 19.966814085248895, 48.024641671428689 ], [ 19.895674253112116, 47.556220850353647 ], [ 19.196611521261222, 47.295733609660161 ], [ 18.561543435665218, 47.498147775882686 ], [ 18.621281380908844, 47.966229430965434 ], [ 19.327479221299317, 48.232273858558607 ], [ 19.966814085248895, 48.024641671428689 ] ] ] ] } },
{ "type": "Feature", "properties": { "geogrid_id": "847811953020600462", "seqnum": 14419.0, "lat_c": 47.811953500106839, "lon_c": 20.600462378856346, "res": 8.0, "count_Sac Fungi": 50, "count_Gymnosperms": 7, "count_Flowering Plants": 1466, "count_Insects": 2517, "count_Birds": 270, "count_Ferns": 20, "count_Arachnids": 80, "count_Mosses": 103, "count_Basidiomycota": 202, "count_Reptiles": 13, "count_Mammals": 55, "count_Molluscs": 42, "count_Amphibians": 16, "unique_species_count": 4841.0, "countryCode": "HU" }, "geometry": { "type": "MultiPolygon", "coordinates": [ [ [ [ 21.311013651501902, 48.06303339654967 ], [ 21.228392634996464, 47.594424123537685 ], [ 20.524514008244935, 47.343543159935621 ], [ 19.895674253112116, 47.556220850353647 ], [ 19.966814085248895, 48.024641671428689 ], [ 20.678276346342962, 48.280615984770691 ], [ 21.311013651501902, 48.06303339654967 ] ] ] ] } },
{ "type": "Feature", "properties": { "geogrid_id": "847840795021937910", "seqnum": 19750.0, "lat_c": 47.840795260744116, "lon_c": 21.937909826775943, "res": 8.0, "count_Sac Fungi": 24, "count_Gymnosperms": 4, "count_Flowering Plants": 714, "count_Insects": 1243, "count_Birds": 201, "count_Ferns": 7, "count_Arachnids": 68, "count_Mosses": 23, "count_Basidiomycota": 54, "count_Reptiles": 10, "count_Mammals": 24, "count_Molluscs": 16, "count_Amphibians": 10, "unique_species_count": 2398.0, "countryCode": "HU" }, "geometry": { "type": "MultiPolygon", "coordinates": [ [ [ [ 22.025566477391845, 48.312224457593778 ], [ 22.649358275321138, 48.089050557880057 ], [ 22.556575062168651, 47.617579895464424 ], [ 21.850587711257607, 47.372258715082687 ], [ 21.228392634996464, 47.594424123537685 ], [ 21.311013651501902, 48.06303339654967 ], [ 22.025566477391845, 48.312224457593778 ] ] ] ] } },
{ "type": "Feature", "properties": { "geogrid_id": "847862420023267079", "seqnum": 19831.0, "lat_c": 47.862420445871329, "lon_c": 23.267079282836686, "res": 8.0, "count_Sac Fungi": 0, "count_Gymnosperms": 0, "count_Flowering Plants": 49, "count_Insects": 142, "count_Birds": 60, "count_Ferns": 0, "count_Arachnids": 1, "count_Mosses": 2, "count_Basidiomycota": 0, "count_Reptiles": 2, "count_Mammals": 1, "count_Molluscs": 1, "count_Amphibians": 1, "unique_species_count": 259.0, "countryCode": "HU" }, "geometry": { "type": "MultiPolygon", "coordinates": [ [ [ [ 23.368491023790575, 48.333362760710422 ], [ 23.985126369285343, 48.103309263739256 ], [ 23.878765181882347, 47.63239502411944 ], [ 23.169312853951162, 47.3909352178772 ], [ 22.556575062168651, 47.617579895464424 ], [ 22.649358275321138, 48.089050557880057 ], [ 23.368491023790575, 48.333362760710422 ] ] ] ] } },
{ "type": "Feature", "properties": { "geogrid_id": "848354208017325000", "seqnum": 14174.0, "lat_c": 48.354207857309156, "lon_c": 17.324999524583834, "res": 8.0, "count_Sac Fungi": 4, "count_Gymnosperms": 1, "count_Flowering Plants": 205, "count_Insects": 204, "count_Birds": 94, "count_Ferns": 0, "count_Arachnids": 1, "count_Mosses": 2, "count_Basidiomycota": 4, "count_Reptiles": 1, "count_Mammals": 4, "count_Molluscs": 7, "count_Amphibians": 2, "unique_species_count": 529.0, "countryCode": "HU" }, "geometry": { "type": "MultiPolygon", "coordinates": [ [ [ [ 18.031955934752379, 48.631460556544951 ], [ 17.975837857830793, 48.163095561393085 ], [ 17.275337655408105, 47.886242273791304 ], [ 16.624382041834167, 48.071405904557203 ], [ 16.668869038504763, 48.539305349941543 ], [ 17.375915421656885, 48.822533562250982 ], [ 18.031955934752379, 48.631460556544951 ] ] ] ] } },
{ "type": "Feature", "properties": { "geogrid_id": "848493339020039716", "seqnum": 14338.0, "lat_c": 48.493339286933441, "lon_c": 20.039715637173611, "res": 8.0, "count_Sac Fungi": 28, "count_Gymnosperms": 5, "count_Flowering Plants": 527, "count_Insects": 1234, "count_Birds": 91, "count_Ferns": 9, "count_Arachnids": 60, "count_Mosses": 15, "count_Basidiomycota": 47, "count_Reptiles": 9, "count_Mammals": 18, "count_Molluscs": 11, "count_Amphibians": 10, "unique_species_count": 2064.0, "countryCode": "HU" }, "geometry": { "type": "MultiPolygon", "coordinates": [ [ [ [ 20.758024636127981, 48.749541076264052 ], [ 20.678276346342962, 48.280615984770691 ], [ 19.966814085248895, 48.024641671428689 ], [ 19.327479221299317, 48.232273858558607 ], [ 19.395363753801313, 48.700990238650704 ], [ 20.11444395561956, 48.962324255816952 ], [ 20.758024636127981, 48.749541076264052 ] ] ] ] } },
{ "type": "Feature", "properties": { "geogrid_id": "848531880021395672", "seqnum": 19751.0, "lat_c": 48.531880266315227, "lon_c": 21.395671842961647, "res": 8.0, "count_Sac Fungi": 17, "count_Gymnosperms": 7, "count_Flowering Plants": 863, "count_Insects": 907, "count_Birds": 160, "count_Ferns": 20, "count_Arachnids": 63, "count_Mosses": 33, "count_Basidiomycota": 79, "count_Reptiles": 9, "count_Mammals": 26, "count_Molluscs": 20, "count_Amphibians": 14, "unique_species_count": 2218.0, "countryCode": "HU" }, "geometry": { "type": "MultiPolygon", "coordinates": [ [ [ [ 21.481347666598811, 49.002747380374039 ], [ 22.116636107857747, 48.783144725799716 ], [ 22.025566477391845, 48.312224457593778 ], [ 21.311013651501902, 48.06303339654967 ], [ 20.678276346342962, 48.280615984770691 ], [ 20.758024636127981, 48.749541076264052 ], [ 21.481347666598811, 49.002747380374039 ] ] ] ] } },
{ "type": "Feature", "properties": { "geogrid_id": "848559995022745673", "seqnum": 19832.0, "lat_c": 48.55999538272647, "lon_c": 22.745673043668312, "res": 8.0, "count_Sac Fungi": 2, "count_Gymnosperms": 0, "count_Flowering Plants": 129, "count_Insects": 81, "count_Birds": 47, "count_Ferns": 1, "count_Arachnids": 3, "count_Mosses": 4, "count_Basidiomycota": 3, "count_Reptiles": 2, "count_Mammals": 2, "count_Molluscs": 3, "count_Amphibians": 2, "unique_species_count": 279.0, "countryCode": "HU" }, "geometry": { "type": "MultiPolygon", "coordinates": [ [ [ [ 22.845820300435054, 49.030337816747164 ], [ 23.473853392772906, 48.803682792504191 ], [ 23.368491023790575, 48.333362760710422 ], [ 22.649358275321138, 48.089050557880057 ], [ 22.025566477391845, 48.312224457593778 ], [ 22.116636107857747, 48.783144725799716 ], [ 22.845820300435054, 49.030337816747164 ] ] ] ] } }
]
}
