{
"type": "FeatureCollection",
"name": "IE",
"crs": { "type": "name", "properties": { "name": "urn:ogc:def:crs:OGC:1.3:CRS84" } },
"features": [
{ "type": "Feature", "properties": { "geogrid_id": "5248153790012339270", "seqnum": 7849.0, "lat_c": 48.153790225749376, "lon_c": -12.339269539118058, "res": 8.0, "count_Insects": 0, "count_Mosses": 0, "count_Sac Fungi": 0, "count_Arachnids": 0, "count_Flowering Plants": 0, "count_Basidiomycota": 0, "count_Birds": 0, "count_Ferns": 0, "count_Molluscs": 0, "count_Gymnosperms": 0, "count_Amphibians": 0, "count_Mammals": 0, "count_Reptiles": 1, "unique_species_count": 1.0, "countryCode": "IE" }, "geometry": { "type": "MultiPolygon", "coordinates": [ [ [ [ -11.559940257138521, 47.981004707266607 ], [ -12.108848922287791, 47.700899902883329 ], [ -12.885017496166329, 47.870589456947627 ], [ -13.128660817279455, 48.319807284151729 ], [ -12.57970184940174, 48.60364661182264 ], [ -11.787078060817214, 48.434457759039091 ], [ -11.559940257138521, 47.981004707266607 ] ] ] ] } },
{ "type": "Feature", "properties": { "geogrid_id": "5248258520011004654", "seqnum": 7850.0, "lat_c": 48.258520285432382, "lon_c": -11.004654044786163, "res": 8.0, "count_Insects": 0, "count_Mosses": 0, "count_Sac Fungi": 0, "count_Arachnids": 0, "count_Flowering Plants": 0, "count_Basidiomycota": 0, "count_Birds": 8, "count_Ferns": 0, "count_Molluscs": 0, "count_Gymnosperms": 0, "count_Amphibians": 0, "count_Mammals": 6, "count_Reptiles": 0, "unique_species_count": 14.0, "countryCode": "IE" }, "geometry": { "type": "MultiPolygon", "coordinates": [ [ [ [ -10.231876513228919, 48.076325300284829 ], [ -10.790112364523315, 47.801951300515057 ], [ -11.559940257138521, 47.981004707266607 ], [ -11.787078060817214, 48.434457759039091 ], [ -11.228349310545237, 48.71253750379109 ], [ -10.442900149446697, 48.53339231695108 ], [ -10.231876513228919, 48.076325300284829 ] ] ] ] } },
{ "type": "Feature", "properties": { "geogrid_id": "5248348002009667246", "seqnum": 7851.0, "lat_c": 48.348001971525186, "lon_c": -9.6672455243414781, "res": 8.0, "count_Insects": 0, "count_Mosses": 0, "count_Sac Fungi": 0, "count_Arachnids": 0, "count_Flowering Plants": 0, "count_Basidiomycota": 0, "count_Birds": 16, "count_Ferns": 0, "count_Molluscs": 0, "count_Gymnosperms": 0, "count_Amphibians": 0, "count_Mammals": 4, "count_Reptiles": 0, "unique_species_count": 20.0, "countryCode": "IE" }, "geometry": { "type": "MultiPolygon", "coordinates": [ [ [ [ -8.900901204429244, 48.156777973053693 ], [ -9.468257194334067, 47.88829062152675 ], [ -10.231876513228919, 48.076325300284829 ], [ -10.442900149446697, 48.53339231695108 ], [ -9.874589729900368, 48.805564963802155 ], [ -9.096134414935483, 48.616925689116698 ], [ -8.900901204429244, 48.156777973053693 ] ] ] ] } },
{ "type": "Feature", "properties": { "geogrid_id": "5248765505013383155", "seqnum": 7767.0, "lat_c": 48.765505173746796, "lon_c": -13.38315531637363, "res": 8.0, "count_Insects": 0, "count_Mosses": 0, "count_Sac Fungi": 0, "count_Arachnids": 0, "count_Flowering Plants": 0, "count_Basidiomycota": 0, "count_Birds": 1, "count_Ferns": 0, "count_Molluscs": 0, "count_Gymnosperms": 0, "count_Amphibians": 0, "count_Mammals": 1, "count_Reptiles": 0, "unique_species_count": 2.0, "countryCode": "IE" }, "geometry": { "type": "MultiPolygon", "coordinates": [ [ [ [ -12.57970184940174, 48.60364661182264 ], [ -13.128660817279455, 48.319807284151729 ], [ -13.928754847359974, 48.478460634717415 ], [ -14.198158864897337, 48.919339095506757 ], [ -13.649310181144919, 49.20722838560549 ], [ -12.83089121850549, 49.050077873206845 ], [ -12.57970184940174, 48.60364661182264 ] ] ] ] } },
{ "type": "Feature", "properties": { "geogrid_id": "5248884956012024140", "seqnum": 7768.0, "lat_c": 48.884955571681544, "lon_c": -12.024139674438498, "res": 8.0, "count_Insects": 0, "count_Mosses": 0, "count_Sac Fungi": 0, "count_Arachnids": 0, "count_Flowering Plants": 0, "count_Basidiomycota": 0, "count_Birds": 5, "count_Ferns": 0, "count_Molluscs": 1, "count_Gymnosperms": 0, "count_Amphibians": 0, "count_Mammals": 8, "count_Reptiles": 1, "unique_species_count": 15.0, "countryCode": "IE" }, "geometry": { "type": "MultiPolygon", "coordinates": [ [ [ [ -11.228349310545237, 48.71253750379109 ], [ -11.787078060817214, 48.434457759039091 ], [ -12.57970184940174, 48.60364661182264 ], [ -12.83089121850549, 49.050077873206845 ], [ -12.271862262744236, 49.332122089623745 ], [ -11.461877813155759, 49.163677801343951 ], [ -11.228349310545237, 48.71253750379109 ] ] ] ] } },
{ "type": "Feature", "properties": { "geogrid_id": "5248987973010662991", "seqnum": 7769.0, "lat_c": 48.987973373825731, "lon_c": -10.662990617754371, "res": 8.0, "count_Insects": 0, "count_Mosses": 0, "count_Sac Fungi": 0, "count_Arachnids": 0, "count_Flowering Plants": 0, "count_Basidiomycota": 0, "count_Birds": 18, "count_Ferns": 0, "count_Molluscs": 0, "count_Gymnosperms": 0, "count_Amphibians": 0, "count_Mammals": 7, "count_Reptiles": 1, "unique_species_count": 26.0, "countryCode": "IE" }, "geometry": { "type": "MultiPolygon", "coordinates": [ [ [ [ -9.874589729900368, 48.805564963802155 ], [ -10.442900149446697, 48.53339231695108 ], [ -11.228349310545237, 48.71253750379109 ], [ -11.461877813155759, 49.163677801343951 ], [ -10.892820788962098, 49.439755398581021 ], [ -10.090910544128159, 49.26070775200057 ], [ -9.874589729900368, 48.805564963802155 ] ] ] ] } },
{ "type": "Feature", "properties": { "geogrid_id": "5249074981009299635", "seqnum": 7770.0, "lat_c": 49.074980875641828, "lon_c": -9.2996353903494402, "res": 8.0, "count_Insects": 0, "count_Mosses": 0, "count_Sac Fungi": 0, "count_Arachnids": 0, "count_Flowering Plants": 0, "count_Basidiomycota": 0, "count_Birds": 16, "count_Ferns": 0, "count_Molluscs": 0, "count_Gymnosperms": 0, "count_Amphibians": 0, "count_Mammals": 4, "count_Reptiles": 1, "unique_species_count": 21.0, "countryCode": "IE" }, "geometry": { "type": "MultiPolygon", "coordinates": [ [ [ [ -8.51845984349313, 48.883039343099128 ], [ -9.096134414935483, 48.616925689116698 ], [ -9.874589729900368, 48.805564963802155 ], [ -10.090910544128159, 49.26070775200057 ], [ -9.512019048522813, 49.530681492616949 ], [ -8.717951343936418, 49.341581195414818 ], [ -8.51845984349313, 48.883039343099128 ] ] ] ] } },
{ "type": "Feature", "properties": { "geogrid_id": "5249355597014480204", "seqnum": 7685.0, "lat_c": 49.355597152796825, "lon_c": -14.480204484445988, "res": 8.0, "count_Insects": 0, "count_Mosses": 0, "count_Sac Fungi": 0, "count_Arachnids": 0, "count_Flowering Plants": 0, "count_Basidiomycota": 0, "count_Birds": 0, "count_Ferns": 0, "count_Molluscs": 0, "count_Gymnosperms": 0, "count_Amphibians": 0, "count_Mammals": 3, "count_Reptiles": 0, "unique_species_count": 3.0, "countryCode": "IE" }, "geometry": { "type": "MultiPolygon", "coordinates": [ [ [ [ -13.649310181144919, 49.20722838560549 ], [ -14.198158864897337, 48.919339095506757 ], [ -15.025540005386755, 49.064312805725116 ], [ -15.324502080027465, 49.494205935303597 ], [ -14.77583191008479, 49.786640818211147 ], [ -13.927992596625542, 49.644468818348152 ], [ -13.649310181144919, 49.20722838560549 ] ] ] ] } },
{ "type": "Feature", "properties": { "geogrid_id": "5249492648013093637", "seqnum": 7686.0, "lat_c": 49.49264767024588, "lon_c": -13.093637222467029, "res": 8.0, "count_Insects": 0, "count_Mosses": 0, "count_Sac Fungi": 0, "count_Arachnids": 0, "count_Flowering Plants": 0, "count_Basidiomycota": 0, "count_Birds": 3, "count_Ferns": 0, "count_Molluscs": 0, "count_Gymnosperms": 0, "count_Amphibians": 0, "count_Mammals": 8, "count_Reptiles": 0, "unique_species_count": 11.0, "countryCode": "IE" }, "geometry": { "type": "MultiPolygon", "coordinates": [ [ [ [ -12.271862262744236, 49.332122089623745 ], [ -12.83089121850549, 49.050077873206845 ], [ -13.649310181144919, 49.20722838560549 ], [ -13.927992596625542, 49.644468818348152 ], [ -13.368796443622951, 49.930869309144391 ], [ -12.53103634130296, 49.775538539306439 ], [ -12.271862262744236, 49.332122089623745 ] ] ] ] } },
{ "type": "Feature", "properties": { "geogrid_id": "5249611580011705969", "seqnum": 7687.0, "lat_c": 49.611579640307326, "lon_c": -11.705968917034927, "res": 8.0, "count_Insects": 0, "count_Mosses": 0, "count_Sac Fungi": 0, "count_Arachnids": 0, "count_Flowering Plants": 0, "count_Basidiomycota": 0, "count_Birds": 13, "count_Ferns": 0, "count_Molluscs": 1, "count_Gymnosperms": 0, "count_Amphibians": 0, "count_Mammals": 9, "count_Reptiles": 0, "unique_species_count": 23.0, "countryCode": "IE" }, "geometry": { "type": "MultiPolygon", "coordinates": [ [ [ [ -10.892820788962098, 49.439755398581021 ], [ -11.461877813155759, 49.163677801343951 ], [ -12.271862262744236, 49.332122089623745 ], [ -12.53103634130296, 49.775538539306439 ], [ -11.961404564547598, 50.055841037775828 ], [ -11.133112576002716, 49.88839079636471 ], [ -10.892820788962098, 49.439755398581021 ] ] ] ] } },
{ "type": "Feature", "properties": { "geogrid_id": "5249713129010316874", "seqnum": 7688.0, "lat_c": 49.713128919555444, "lon_c": -10.316874294304693, "res": 8.0, "count_Insects": 0, "count_Mosses": 0, "count_Sac Fungi": 0, "count_Arachnids": 0, "count_Flowering Plants": 0, "count_Basidiomycota": 0, "count_Birds": 16, "count_Ferns": 0, "count_Molluscs": 0, "count_Gymnosperms": 0, "count_Amphibians": 0, "count_Mammals": 7, "count_Reptiles": 1, "unique_species_count": 24.0, "countryCode": "IE" }, "geometry": { "type": "MultiPolygon", "coordinates": [ [ [ [ -9.512019048522813, 49.530681492616949 ], [ -10.090910544128159, 49.26070775200057 ], [ -10.892820788962098, 49.439755398581021 ], [ -11.133112576002716, 49.88839079636471 ], [ -10.553195741723897, 50.16249427631702 ], [ -9.733945370094592, 49.98373737756625 ], [ -9.512019048522813, 49.530681492616949 ] ] ] ] } },
{ "type": "Feature", "properties": { "geogrid_id": "5249797834008926228", "seqnum": 7689.0, "lat_c": 49.797833924356375, "lon_c": -8.9262276647783043, "res": 8.0, "count_Insects": 0, "count_Mosses": 0, "count_Sac Fungi": 0, "count_Arachnids": 0, "count_Flowering Plants": 0, "count_Basidiomycota": 0, "count_Birds": 19, "count_Ferns": 0, "count_Molluscs": 0, "count_Gymnosperms": 0, "count_Amphibians": 0, "count_Mammals": 4, "count_Reptiles": 0, "unique_species_count": 23.0, "countryCode": "IE" }, "geometry": { "type": "MultiPolygon", "coordinates": [ [ [ [ -8.129453588835752, 49.605305565605555 ], [ -8.717951343936418, 49.341581195414818 ], [ -9.512019048522813, 49.530681492616949 ], [ -9.733945370094592, 49.98373737756625 ], [ -9.143942598256409, 50.251518242608959 ], [ -8.333449692399336, 50.062102854049904 ], [ -8.129453588835752, 49.605305565605555 ] ] ] ] } },
{ "type": "Feature", "properties": { "geogrid_id": "5250059714015373348", "seqnum": 7603.0, "lat_c": 50.059714177671978, "lon_c": -15.373347703355346, "res": 8.0, "count_Insects": 0, "count_Mosses": 0, "count_Sac Fungi": 0, "count_Arachnids": 0, "count_Flowering Plants": 0, "count_Basidiomycota": 0, "count_Birds": 3, "count_Ferns": 0, "count_Molluscs": 0, "count_Gymnosperms": 0, "count_Amphibians": 0, "count_Mammals": 2, "count_Reptiles": 0, "unique_species_count": 5.0, "countryCode": "IE" }, "geometry": { "type": "MultiPolygon", "coordinates": [ [ [ [ -14.77583191008479, 49.786640818211147 ], [ -15.324502080027465, 49.494205935303597 ], [ -15.921797842820544, 49.764701051881794 ], [ -15.986204886426655, 50.32509675070262 ], [ -15.430794187343574, 50.620482345168753 ], [ -14.817773537696317, 50.352331110520076 ], [ -14.77583191008479, 49.786640818211147 ] ] ] ] } },
{ "type": "Feature", "properties": { "geogrid_id": "5250076659014220130", "seqnum": 7604.0, "lat_c": 50.076658766494681, "lon_c": -14.220130298260402, "res": 8.0, "count_Insects": 0, "count_Mosses": 0, "count_Sac Fungi": 0, "count_Arachnids": 0, "count_Flowering Plants": 0, "count_Basidiomycota": 0, "count_Birds": 3, "count_Ferns": 0, "count_Molluscs": 0, "count_Gymnosperms": 0, "count_Amphibians": 0, "count_Mammals": 8, "count_Reptiles": 0, "unique_species_count": 11.0, "countryCode": "IE" }, "geometry": { "type": "MultiPolygon", "coordinates": [ [ [ [ -13.368796443622951, 49.930869309144391 ], [ -13.927992596625542, 49.644468818348152 ], [ -14.77583191008479, 49.786640818211147 ], [ -14.817773537696317, 50.352331110520076 ], [ -14.254958053563502, 50.64249192178292 ], [ -13.657285014585563, 50.36419995102824 ], [ -13.368796443622951, 49.930869309144391 ] ] ] ] } },
{ "type": "Feature", "properties": { "geogrid_id": "5250214739012802509", "seqnum": 7605.0, "lat_c": 50.214738587495368, "lon_c": -12.802508547404342, "res": 8.0, "count_Insects": 0, "count_Mosses": 0, "count_Sac Fungi": 0, "count_Arachnids": 0, "count_Flowering Plants": 0, "count_Basidiomycota": 0, "count_Birds": 3, "count_Ferns": 0, "count_Molluscs": 0, "count_Gymnosperms": 0, "count_Amphibians": 0, "count_Mammals": 8, "count_Reptiles": 0, "unique_species_count": 11.0, "countryCode": "IE" }, "geometry": { "type": "MultiPolygon", "coordinates": [ [ [ [ -11.961404564547598, 50.055841037775828 ], [ -12.53103634130296, 49.775538539306439 ], [ -13.368796443622951, 49.930869309144391 ], [ -13.657285014585563, 50.36419995102824 ], [ -13.087184183641854, 50.649202960257533 ], [ -12.229022030886906, 50.496015052898869 ], [ -11.961404564547598, 50.055841037775828 ] ] ] ] } },
{ "type": "Feature", "properties": { "geogrid_id": "5250333494011384640", "seqnum": 7606.0, "lat_c": 50.333493653459222, "lon_c": -11.384639775007983, "res": 8.0, "count_Insects": 0, "count_Mosses": 0, "count_Sac Fungi": 0, "count_Arachnids": 0, "count_Flowering Plants": 0, "count_Basidiomycota": 0, "count_Birds": 16, "count_Ferns": 0, "count_Molluscs": 0, "count_Gymnosperms": 0, "count_Amphibians": 0, "count_Mammals": 8, "count_Reptiles": 1, "unique_species_count": 25.0, "countryCode": "IE" }, "geometry": { "type": "MultiPolygon", "coordinates": [ [ [ [ -10.553195741723897, 50.16249427631702 ], [ -11.133112576002716, 49.88839079636471 ], [ -11.961404564547598, 50.055841037775828 ], [ -12.229022030886906, 50.496015052898869 ], [ -11.648230811921936, 50.774635524968843 ], [ -10.800640906148486, 50.60843330575603 ], [ -10.553195741723897, 50.16249427631702 ] ] ] ] } },
{ "type": "Feature", "properties": { "geogrid_id": "5250433827009966122", "seqnum": 7607.0, "lat_c": 50.433827240611102, "lon_c": -9.9661222177529858, "res": 8.0, "count_Insects": 3, "count_Mosses": 0, "count_Sac Fungi": 0, "count_Arachnids": 0, "count_Flowering Plants": 0, "count_Basidiomycota": 0, "count_Birds": 23, "count_Ferns": 0, "count_Molluscs": 0, "count_Gymnosperms": 0, "count_Amphibians": 0, "count_Mammals": 8, "count_Reptiles": 0, "unique_species_count": 34.0, "countryCode": "IE" }, "geometry": { "type": "MultiPolygon", "coordinates": [ [ [ [ -9.143942598256409, 50.251518242608959 ], [ -9.733945370094592, 49.98373737756625 ], [ -10.553195741723897, 50.16249427631702 ], [ -10.800640906148486, 50.60843330575603 ], [ -10.209308150456099, 50.880595335763878 ], [ -9.371797316612909, 50.702325287311815 ], [ -9.143942598256409, 50.251518242608959 ] ] ] ] } },
{ "type": "Feature", "properties": { "geogrid_id": "5250516407008546776", "seqnum": 7608.0, "lat_c": 50.516407442049307, "lon_c": -8.5467763074980656, "res": 8.0, "count_Insects": 0, "count_Mosses": 0, "count_Sac Fungi": 0, "count_Arachnids": 0, "count_Flowering Plants": 0, "count_Basidiomycota": 0, "count_Birds": 19, "count_Ferns": 0, "count_Molluscs": 0, "count_Gymnosperms": 0, "count_Amphibians": 0, "count_Mammals": 7, "count_Reptiles": 1, "unique_species_count": 27.0, "countryCode": "IE" }, "geometry": { "type": "MultiPolygon", "coordinates": [ [ [ [ -7.733600400106403, 50.323424571575735 ], [ -8.333449692399336, 50.062102854049904 ], [ -9.143942598256409, 50.251518242608959 ], [ -9.371797316612909, 50.702325287311815 ], [ -8.770128080943971, 50.967922449255703 ], [ -7.94235879238594, 50.778339362701885 ], [ -7.733600400106403, 50.323424571575735 ] ] ] ] } },
{ "type": "Feature", "properties": { "geogrid_id": "5250581734007126597", "seqnum": 7609.0, "lat_c": 50.581733856173585, "lon_c": -7.1265972422466417, "res": 8.0, "count_Insects": 0, "count_Mosses": 0, "count_Sac Fungi": 0, "count_Arachnids": 0, "count_Flowering Plants": 0, "count_Basidiomycota": 0, "count_Birds": 12, "count_Ferns": 0, "count_Molluscs": 0, "count_Gymnosperms": 0, "count_Amphibians": 0, "count_Mammals": 5, "count_Reptiles": 1, "unique_species_count": 18.0, "countryCode": "IE" }, "geometry": { "type": "MultiPolygon", "coordinates": [ [ [ [ -6.322268875791857, 50.378597056103644 ], [ -6.931691014370414, 50.123877569155169 ], [ -7.733600400106403, 50.323424571575735 ], [ -7.94235879238594, 50.778339362701885 ], [ -7.330604545790701, 51.037246854600859 ], [ -6.512360088033317, 50.836963984459594 ], [ -6.322268875791857, 50.378597056103644 ] ] ] ] } },
{ "type": "Feature", "properties": { "geogrid_id": "5250881216016058342", "seqnum": 7521.0, "lat_c": 50.881216061717424, "lon_c": -16.058342474894193, "res": 8.0, "count_Insects": 0, "count_Mosses": 0, "count_Sac Fungi": 0, "count_Arachnids": 0, "count_Flowering Plants": 0, "count_Basidiomycota": 0, "count_Birds": 1, "count_Ferns": 0, "count_Molluscs": 0, "count_Gymnosperms": 0, "count_Amphibians": 0, "count_Mammals": 5, "count_Reptiles": 0, "unique_species_count": 6.0, "countryCode": "IE" }, "geometry": { "type": "MultiPolygon", "coordinates": [ [ [ [ -15.430794187343574, 50.620482345168753 ], [ -15.986204886426655, 50.32509675070262 ], [ -16.613514836558785, 50.582907696992592 ], [ -16.69963167822738, 51.134631580454254 ], [ -16.137294833226761, 51.433586117454801 ], [ -15.495746059327603, 51.177097772439957 ], [ -15.430794187343574, 50.620482345168753 ] ] ] ] } },
{ "type": "Feature", "properties": { "geogrid_id": "5250913428014868049", "seqnum": 7522.0, "lat_c": 50.913428193225741, "lon_c": -14.868049196237548, "res": 8.0, "count_Insects": 0, "count_Mosses": 0, "count_Sac Fungi": 0, "count_Arachnids": 0, "count_Flowering Plants": 0, "count_Basidiomycota": 0, "count_Birds": 2, "count_Ferns": 0, "count_Molluscs": 0, "count_Gymnosperms": 0, "count_Amphibians": 0, "count_Mammals": 11, "count_Reptiles": 0, "unique_species_count": 13.0, "countryCode": "IE" }, "geometry": { "type": "MultiPolygon", "coordinates": [ [ [ [ -14.254958053563502, 50.64249192178292 ], [ -14.817773537696317, 50.352331110520076 ], [ -15.430794187343574, 50.620482345168753 ], [ -15.495746059327603, 51.177097772439957 ], [ -14.925597048338934, 51.470491953519222 ], [ -14.297847235592101, 51.203872925271092 ], [ -14.254958053563502, 50.64249192178292 ] ] ] ] } },
{ "type": "Feature", "properties": { "geogrid_id": "5250930135013684784", "seqnum": 7523.0, "lat_c": 50.930135038027892, "lon_c": -13.684784173770277, "res": 8.0, "count_Insects": 0, "count_Mosses": 0, "count_Sac Fungi": 0, "count_Arachnids": 0, "count_Flowering Plants": 0, "count_Basidiomycota": 0, "count_Birds": 8, "count_Ferns": 0, "count_Molluscs": 0, "count_Gymnosperms": 0, "count_Amphibians": 0, "count_Mammals": 8, "count_Reptiles": 1, "unique_species_count": 17.0, "countryCode": "IE" }, "geometry": { "type": "MultiPolygon", "coordinates": [ [ [ [ -13.087184183641854, 50.649202960257533 ], [ -13.657285014585563, 50.36419995102824 ], [ -14.254958053563502, 50.64249192178292 ], [ -14.297847235592101, 51.203872925271092 ], [ -13.720065895159749, 51.491753415081412 ], [ -13.107135225804095, 51.215197218749488 ], [ -13.087184183641854, 50.649202960257533 ] ] ] ] } },
{ "type": "Feature", "properties": { "geogrid_id": "5250931605012509716", "seqnum": 7524.0, "lat_c": 50.931604778570716, "lon_c": -12.509716474982943, "res": 8.0, "count_Insects": 0, "count_Mosses": 0, "count_Sac Fungi": 0, "count_Arachnids": 0, "count_Flowering Plants": 0, "count_Basidiomycota": 0, "count_Birds": 8, "count_Ferns": 0, "count_Molluscs": 0, "count_Gymnosperms": 0, "count_Amphibians": 0, "count_Mammals": 9, "count_Reptiles": 1, "unique_species_count": 18.0, "countryCode": "IE" }, "geometry": { "type": "MultiPolygon", "coordinates": [ [ [ [ -11.648230811921936, 50.774635524968843 ], [ -12.229022030886906, 50.496015052898869 ], [ -13.087184183641854, 50.649202960257533 ], [ -13.107135225804095, 51.215197218749488 ], [ -12.521895146307147, 51.497613535328796 ], [ -11.924771307586303, 51.211340766194688 ], [ -11.648230811921936, 50.774635524968843 ] ] ] ] } },
{ "type": "Feature", "properties": { "geogrid_id": "5251050535011060030", "seqnum": 7525.0, "lat_c": 51.050535227861111, "lon_c": -11.0600298110362, "res": 8.0, "count_Insects": 1, "count_Mosses": 0, "count_Sac Fungi": 0, "count_Arachnids": 0, "count_Flowering Plants": 1, "count_Basidiomycota": 0, "count_Birds": 18, "count_Ferns": 0, "count_Molluscs": 4, "count_Gymnosperms": 0, "count_Amphibians": 0, "count_Mammals": 12, "count_Reptiles": 2, "unique_species_count": 38.0, "countryCode": "IE" }, "geometry": { "type": "MultiPolygon", "coordinates": [ [ [ [ -10.209308150456099, 50.880595335763878 ], [ -10.800640906148486, 50.60843330575603 ], [ -11.648230811921936, 50.774635524968843 ], [ -11.924771307586303, 51.211340766194688 ], [ -11.33223906887819, 51.488344640814553 ], [ -10.464315173372842, 51.323647776416692 ], [ -10.209308150456099, 50.880595335763878 ] ] ] ] } },
{ "type": "Feature", "properties": { "geogrid_id": "5251149913009610543", "seqnum": 7526.0, "lat_c": 51.149913497964413, "lon_c": -9.6105431817434521, "res": 8.0, "count_Insects": 374, "count_Mosses": 101, "count_Sac Fungi": 95, "count_Arachnids": 21, "count_Flowering Plants": 451, "count_Basidiomycota": 12, "count_Birds": 215, "count_Ferns": 15, "count_Molluscs": 174, "count_Gymnosperms": 2, "count_Amphibians": 2, "count_Mammals": 28, "count_Reptiles": 3, "unique_species_count": 1493.0, "countryCode": "IE" }, "geometry": { "type": "MultiPolygon", "coordinates": [ [ [ [ -8.770128080943971, 50.967922449255703 ], [ -9.371797316612909, 50.702325287311815 ], [ -10.209308150456099, 50.880595335763878 ], [ -10.464315173372842, 51.323647776416692 ], [ -9.860984505249522, 51.593905164251005 ], [ -9.004249391684883, 51.416319953748413 ], [ -8.770128080943971, 50.967922449255703 ] ] ] ] } },
{ "type": "Feature", "properties": { "geogrid_id": "5251230551008161024", "seqnum": 7527.0, "lat_c": 51.230551192944873, "lon_c": -8.1610235184866404, "res": 8.0, "count_Insects": 14, "count_Mosses": 0, "count_Sac Fungi": 0, "count_Arachnids": 2, "count_Flowering Plants": 8, "count_Basidiomycota": 0, "count_Birds": 66, "count_Ferns": 0, "count_Molluscs": 28, "count_Gymnosperms": 0, "count_Amphibians": 0, "count_Mammals": 10, "count_Reptiles": 1, "unique_species_count": 129.0, "countryCode": "IE" }, "geometry": { "type": "MultiPolygon", "coordinates": [ [ [ [ -7.330604545790701, 51.037246854600859 ], [ -7.94235879238594, 50.778339362701885 ], [ -8.770128080943971, 50.967922449255703 ], [ -9.004249391684883, 51.416319953748413 ], [ -8.390332140850017, 51.679745267041071 ], [ -7.544394851042972, 51.490142419458891 ], [ -7.330604545790701, 51.037246854600859 ] ] ] ] } },
{ "type": "Feature", "properties": { "geogrid_id": "5251293061006711431", "seqnum": 7528.0, "lat_c": 51.293061236746759, "lon_c": -6.7114305047390594, "res": 8.0, "count_Insects": 0, "count_Mosses": 0, "count_Sac Fungi": 0, "count_Arachnids": 0, "count_Flowering Plants": 0, "count_Basidiomycota": 0, "count_Birds": 28, "count_Ferns": 0, "count_Molluscs": 44, "count_Gymnosperms": 0, "count_Amphibians": 0, "count_Mammals": 4, "count_Reptiles": 1, "unique_species_count": 77.0, "countryCode": "IE" }, "geometry": { "type": "MultiPolygon", "coordinates": [ [ [ [ -5.890811463552206, 51.089046740421679 ], [ -6.512360088033317, 50.836963984459594 ], [ -7.330604545790701, 51.037246854600859 ], [ -7.544394851042972, 51.490142419458891 ], [ -6.920155777521876, 51.746625467663016 ], [ -6.084756309666837, 51.545712305111429 ], [ -5.890811463552206, 51.089046740421679 ] ] ] ] } },
{ "type": "Feature", "properties": { "geogrid_id": "5251730065015567312", "seqnum": 7440.0, "lat_c": 51.730064535990124, "lon_c": -15.56731173908271, "res": 8.0, "count_Insects": 0, "count_Mosses": 0, "count_Sac Fungi": 0, "count_Arachnids": 0, "count_Flowering Plants": 0, "count_Basidiomycota": 0, "count_Birds": 5, "count_Ferns": 0, "count_Molluscs": 0, "count_Gymnosperms": 0, "count_Amphibians": 0, "count_Mammals": 10, "count_Reptiles": 1, "unique_species_count": 16.0, "countryCode": "IE" }, "geometry": { "type": "MultiPolygon", "coordinates": [ [ [ [ -14.925597048338934, 51.470491953519222 ], [ -15.495746059327603, 51.177097772439957 ], [ -16.137294833226761, 51.433586117454801 ], [ -16.222318909662128, 51.982660068242531 ], [ -15.64476340685246, 52.279817553098376 ], [ -14.989547782094288, 52.024004695374828 ], [ -14.925597048338934, 51.470491953519222 ] ] ] ] } },
{ "type": "Feature", "properties": { "geogrid_id": "5251761336014347767", "seqnum": 7441.0, "lat_c": 51.761335864595885, "lon_c": -14.347767020351206, "res": 8.0, "count_Insects": 0, "count_Mosses": 0, "count_Sac Fungi": 0, "count_Arachnids": 0, "count_Flowering Plants": 0, "count_Basidiomycota": 0, "count_Birds": 8, "count_Ferns": 0, "count_Molluscs": 33, "count_Gymnosperms": 0, "count_Amphibians": 0, "count_Mammals": 6, "count_Reptiles": 1, "unique_species_count": 48.0, "countryCode": "IE" }, "geometry": { "type": "MultiPolygon", "coordinates": [ [ [ [ -13.720065895159749, 51.491753415081412 ], [ -14.297847235592101, 51.203872925271092 ], [ -14.925597048338934, 51.470491953519222 ], [ -14.989547782094288, 52.024004695374828 ], [ -14.403868498579728, 52.315342456889688 ], [ -13.762127873097821, 52.049564883781649 ], [ -13.720065895159749, 51.491753415081412 ] ] ] ] } },
{ "type": "Feature", "properties": { "geogrid_id": "5251762548010732011", "seqnum": 7444.0, "lat_c": 51.762548461126329, "lon_c": -10.732011348854096, "res": 8.0, "count_Insects": 481, "count_Mosses": 192, "count_Sac Fungi": 207, "count_Arachnids": 18, "count_Flowering Plants": 489, "count_Basidiomycota": 50, "count_Birds": 203, "count_Ferns": 18, "count_Molluscs": 220, "count_Gymnosperms": 7, "count_Amphibians": 3, "count_Mammals": 35, "count_Reptiles": 5, "unique_species_count": 1928.0, "countryCode": "IE" }, "geometry": { "type": "MultiPolygon", "coordinates": [ [ [ [ -9.860984505249522, 51.593905164251005 ], [ -10.464315173372842, 51.323647776416692 ], [ -11.33223906887819, 51.488344640814553 ], [ -11.328181720961474, 52.05424030534828 ], [ -10.719481354812848, 52.328312293745185 ], [ -10.123981189788918, 52.033882612545817 ], [ -9.860984505249522, 51.593905164251005 ] ] ] ] } },
{ "type": "Feature", "properties": { "geogrid_id": "5251777005013134583", "seqnum": 7442.0, "lat_c": 51.777004760174457, "lon_c": -13.134583234329014, "res": 8.0, "count_Insects": 0, "count_Mosses": 0, "count_Sac Fungi": 0, "count_Arachnids": 0, "count_Flowering Plants": 0, "count_Basidiomycota": 0, "count_Birds": 10, "count_Ferns": 0, "count_Molluscs": 0, "count_Gymnosperms": 0, "count_Amphibians": 0, "count_Mammals": 5, "count_Reptiles": 0, "unique_species_count": 15.0, "countryCode": "IE" }, "geometry": { "type": "MultiPolygon", "coordinates": [ [ [ [ -12.521895146307147, 51.497613535328796 ], [ -13.107135225804095, 51.215197218749488 ], [ -13.720065895159749, 51.491753415081412 ], [ -13.762127873097821, 52.049564883781649 ], [ -13.168552040617726, 52.33511249107795 ], [ -12.541278001059032, 52.059560263109184 ], [ -12.521895146307147, 51.497613535328796 ] ] ] ] } },
{ "type": "Feature", "properties": { "geogrid_id": "5251777317011928949", "seqnum": 7443.0, "lat_c": 51.777317351468859, "lon_c": -11.928948701047993, "res": 8.0, "count_Insects": 0, "count_Mosses": 0, "count_Sac Fungi": 0, "count_Arachnids": 0, "count_Flowering Plants": 0, "count_Basidiomycota": 0, "count_Birds": 16, "count_Ferns": 0, "count_Molluscs": 1, "count_Gymnosperms": 0, "count_Amphibians": 0, "count_Mammals": 10, "count_Reptiles": 0, "unique_species_count": 27.0, "countryCode": "IE" }, "geometry": { "type": "MultiPolygon", "coordinates": [ [ [ [ -11.33223906887819, 51.488344640814553 ], [ -11.924771307586303, 51.211340766194688 ], [ -12.521895146307147, 51.497613535328796 ], [ -12.541278001059032, 52.059560263109184 ], [ -11.940029868002515, 52.339351414033132 ], [ -11.328181720961474, 52.05424030534828 ], [ -11.33223906887819, 51.488344640814553 ] ] ] ] } },
{ "type": "Feature", "properties": { "geogrid_id": "5251861238009249937", "seqnum": 7445.0, "lat_c": 51.8612377540259, "lon_c": -9.2499371257202725, "res": 8.0, "count_Insects": 1614, "count_Mosses": 396, "count_Sac Fungi": 293, "count_Arachnids": 93, "count_Flowering Plants": 1001, "count_Basidiomycota": 362, "count_Birds": 255, "count_Ferns": 26, "count_Molluscs": 299, "count_Gymnosperms": 23, "count_Amphibians": 3, "count_Mammals": 50, "count_Reptiles": 5, "unique_species_count": 4420.0, "countryCode": "IE" }, "geometry": { "type": "MultiPolygon", "coordinates": [ [ [ [ -8.390332140850017, 51.679745267041071 ], [ -9.004249391684883, 51.416319953748413 ], [ -9.860984505249522, 51.593905164251005 ], [ -10.123981189788918, 52.033882612545817 ], [ -9.508043351995566, 52.302275795309406 ], [ -8.63107433348846, 52.1255742701508 ], [ -8.390332140850017, 51.679745267041071 ] ] ] ] } },
{ "type": "Feature", "properties": { "geogrid_id": "5251940118007768699", "seqnum": 7446.0, "lat_c": 51.94011840229237, "lon_c": -7.7686990244595364, "res": 8.0, "count_Insects": 1204, "count_Mosses": 325, "count_Sac Fungi": 111, "count_Arachnids": 86, "count_Flowering Plants": 908, "count_Basidiomycota": 131, "count_Birds": 273, "count_Ferns": 18, "count_Molluscs": 221, "count_Gymnosperms": 27, "count_Amphibians": 2, "count_Mammals": 41, "count_Reptiles": 7, "unique_species_count": 3354.0, "countryCode": "IE" }, "geometry": { "type": "MultiPolygon", "coordinates": [ [ [ [ -6.920155777521876, 51.746625467663016 ], [ -7.544394851042972, 51.490142419458891 ], [ -8.390332140850017, 51.679745267041071 ], [ -8.63107433348846, 52.1255742701508 ], [ -8.004299689470233, 52.386841794168291 ], [ -7.139260153038813, 52.197366725102469 ], [ -6.920155777521876, 51.746625467663016 ] ] ] ] } },
{ "type": "Feature", "properties": { "geogrid_id": "5251999928006288223", "seqnum": 7447.0, "lat_c": 51.999928119992113, "lon_c": -6.2882227511240787, "res": 8.0, "count_Insects": 872, "count_Mosses": 191, "count_Sac Fungi": 22, "count_Arachnids": 133, "count_Flowering Plants": 698, "count_Basidiomycota": 44, "count_Birds": 282, "count_Ferns": 16, "count_Molluscs": 253, "count_Gymnosperms": 19, "count_Amphibians": 3, "count_Mammals": 41, "count_Reptiles": 4, "unique_species_count": 2578.0, "countryCode": "IE" }, "geometry": { "type": "MultiPolygon", "coordinates": [ [ [ [ -5.450504577019202, 51.795128343182007 ], [ -6.084756309666837, 51.545712305111429 ], [ -6.920155777521876, 51.746625467663016 ], [ -7.139260153038813, 52.197366725102469 ], [ -6.501928448086342, 52.45141600575689 ], [ -5.648515270663474, 52.249976611091313 ], [ -5.450504577019202, 51.795128343182007 ] ] ] ] } },
{ "type": "Feature", "properties": { "geogrid_id": "5252528830016312811", "seqnum": 7358.0, "lat_c": 52.528829524083847, "lon_c": -16.312810908188339, "res": 8.0, "count_Insects": 0, "count_Mosses": 0, "count_Sac Fungi": 0, "count_Arachnids": 0, "count_Flowering Plants": 0, "count_Basidiomycota": 0, "count_Birds": 5, "count_Ferns": 0, "count_Molluscs": 0, "count_Gymnosperms": 0, "count_Amphibians": 0, "count_Mammals": 1, "count_Reptiles": 0, "unique_species_count": 6.0, "countryCode": "IE" }, "geometry": { "type": "MultiPolygon", "coordinates": [ [ [ [ -15.64476340685246, 52.279817553098376 ], [ -16.222318909662128, 51.982660068242531 ], [ -16.889991040952701, 52.228344867884722 ], [ -16.993125150269382, 52.771093091369465 ], [ -16.408280284346006, 53.072434623347185 ], [ -15.7275058570534, 52.826733981814115 ], [ -15.64476340685246, 52.279817553098376 ] ] ] ] } },
{ "type": "Feature", "properties": { "geogrid_id": "5252567655008884095", "seqnum": 7364.0, "lat_c": 52.567655015215074, "lon_c": -8.8840945960467472, "res": 8.0, "count_Insects": 1673, "count_Mosses": 365, "count_Sac Fungi": 244, "count_Arachnids": 111, "count_Flowering Plants": 1008, "count_Basidiomycota": 444, "count_Birds": 233, "count_Ferns": 25, "count_Molluscs": 116, "count_Gymnosperms": 29, "count_Amphibians": 2, "count_Mammals": 39, "count_Reptiles": 7, "unique_species_count": 4296.0, "countryCode": "IE" }, "geometry": { "type": "MultiPolygon", "coordinates": [ [ [ [ -8.004299689470233, 52.386841794168291 ], [ -8.63107433348846, 52.1255742701508 ], [ -9.508043351995566, 52.302275795309406 ], [ -9.477837285066915, 52.867614174854729 ], [ -8.844676985108721, 53.132695044165835 ], [ -8.2520339818217, 52.829945577264702 ], [ -8.004299689470233, 52.386841794168291 ] ] ] ] } },
{ "type": "Feature", "properties": { "geogrid_id": "5252574384015059187", "seqnum": 7359.0, "lat_c": 52.574384013705924, "lon_c": -15.059187418889771, "res": 8.0, "count_Insects": 0, "count_Mosses": 0, "count_Sac Fungi": 0, "count_Arachnids": 0, "count_Flowering Plants": 0, "count_Basidiomycota": 0, "count_Birds": 13, "count_Ferns": 0, "count_Molluscs": 1, "count_Gymnosperms": 0, "count_Amphibians": 0, "count_Mammals": 9, "count_Reptiles": 0, "unique_species_count": 23.0, "countryCode": "IE" }, "geometry": { "type": "MultiPolygon", "coordinates": [ [ [ [ -14.403868498579728, 52.315342456889688 ], [ -14.989547782094288, 52.024004695374828 ], [ -15.64476340685246, 52.279817553098376 ], [ -15.7275058570534, 52.826733981814115 ], [ -15.133928286558325, 53.121993253062762 ], [ -14.465450153807762, 52.86629382122365 ], [ -14.403868498579728, 52.315342456889688 ] ] ] ] } },
{ "type": "Feature", "properties": { "geogrid_id": "5252599461010102736", "seqnum": 7363.0, "lat_c": 52.599461458394721, "lon_c": -10.102736339012285, "res": 8.0, "count_Insects": 575, "count_Mosses": 308, "count_Sac Fungi": 39, "count_Arachnids": 23, "count_Flowering Plants": 690, "count_Basidiomycota": 80, "count_Birds": 270, "count_Ferns": 16, "count_Molluscs": 267, "count_Gymnosperms": 11, "count_Amphibians": 3, "count_Mammals": 36, "count_Reptiles": 6, "unique_species_count": 2324.0, "countryCode": "IE" }, "geometry": { "type": "MultiPolygon", "coordinates": [ [ [ [ -9.508043351995566, 52.302275795309406 ], [ -10.123981189788918, 52.033882612545817 ], [ -10.719481354812848, 52.328312293745185 ], [ -10.713229758514791, 52.890357464897662 ], [ -10.087444128619358, 53.161426149738674 ], [ -9.477837285066915, 52.867614174854729 ], [ -9.508043351995566, 52.302275795309406 ] ] ] ] } },
{ "type": "Feature", "properties": { "geogrid_id": "5252604012013810140", "seqnum": 7360.0, "lat_c": 52.604011669943752, "lon_c": -13.810139789681019, "res": 8.0, "count_Insects": 0, "count_Mosses": 0, "count_Sac Fungi": 0, "count_Arachnids": 0, "count_Flowering Plants": 0, "count_Basidiomycota": 0, "count_Birds": 11, "count_Ferns": 0, "count_Molluscs": 43, "count_Gymnosperms": 0, "count_Amphibians": 0, "count_Mammals": 7, "count_Reptiles": 0, "unique_species_count": 61.0, "countryCode": "IE" }, "geometry": { "type": "MultiPolygon", "coordinates": [ [ [ [ -13.168552040617726, 52.33511249107795 ], [ -13.762127873097821, 52.049564883781649 ], [ -14.403868498579728, 52.315342456889688 ], [ -14.465450153807762, 52.86629382122365 ], [ -13.863411221487288, 53.15547920317686 ], [ -13.208228155493281, 52.88994415815958 ], [ -13.168552040617726, 52.33511249107795 ] ] ] ] } },
{ "type": "Feature", "properties": { "geogrid_id": "5252616308011330720", "seqnum": 7362.0, "lat_c": 52.616307874789108, "lon_c": -11.33071968642597, "res": 8.0, "count_Insects": 0, "count_Mosses": 0, "count_Sac Fungi": 0, "count_Arachnids": 0, "count_Flowering Plants": 0, "count_Basidiomycota": 0, "count_Birds": 16, "count_Ferns": 0, "count_Molluscs": 0, "count_Gymnosperms": 0, "count_Amphibians": 0, "count_Mammals": 8, "count_Reptiles": 1, "unique_species_count": 25.0, "countryCode": "IE" }, "geometry": { "type": "MultiPolygon", "coordinates": [ [ [ [ -10.719481354812848, 52.328312293745185 ], [ -11.328181720961474, 52.05424030534828 ], [ -11.940029868002515, 52.339351414033132 ], [ -11.957084168436646, 52.897887804718351 ], [ -11.338941891588442, 53.174972842324422 ], [ -10.713229758514791, 52.890357464897662 ], [ -10.719481354812848, 52.328312293745185 ] ] ] ] } },
{ "type": "Feature", "properties": { "geogrid_id": "5252617910012566913", "seqnum": 7361.0, "lat_c": 52.617910252417943, "lon_c": -12.56691272855503, "res": 8.0, "count_Insects": 0, "count_Mosses": 0, "count_Sac Fungi": 0, "count_Arachnids": 0, "count_Flowering Plants": 0, "count_Basidiomycota": 0, "count_Birds": 18, "count_Ferns": 0, "count_Molluscs": 24, "count_Gymnosperms": 0, "count_Amphibians": 0, "count_Mammals": 8, "count_Reptiles": 0, "unique_species_count": 50.0, "countryCode": "IE" }, "geometry": { "type": "MultiPolygon", "coordinates": [ [ [ [ -11.940029868002515, 52.339351414033132 ], [ -12.541278001059032, 52.059560263109184 ], [ -13.168552040617726, 52.33511249107795 ], [ -13.208228155493281, 52.88994415815958 ], [ -12.598000949279667, 53.173069705847169 ], [ -11.957084168436646, 52.897887804718351 ], [ -11.940029868002515, 52.339351414033132 ] ] ] ] } },
{ "type": "Feature", "properties": { "geogrid_id": "5252644966007369519", "seqnum": 7365.0, "lat_c": 52.64496576308899, "lon_c": -7.3695193152506411, "res": 8.0, "count_Insects": 1364, "count_Mosses": 306, "count_Sac Fungi": 70, "count_Arachnids": 56, "count_Flowering Plants": 920, "count_Basidiomycota": 149, "count_Birds": 177, "count_Ferns": 19, "count_Molluscs": 54, "count_Gymnosperms": 22, "count_Amphibians": 2, "count_Mammals": 33, "count_Reptiles": 1, "unique_species_count": 3173.0, "countryCode": "IE" }, "geometry": { "type": "MultiPolygon", "coordinates": [ [ [ [ -6.501928448086342, 52.45141600575689 ], [ -7.139260153038813, 52.197366725102469 ], [ -8.004299689470233, 52.386841794168291 ], [ -8.2520339818217, 52.829945577264702 ], [ -7.611763184676535, 53.089071082480906 ], [ -6.726642207607381, 52.899869970949744 ], [ -6.501928448086342, 52.45141600575689 ] ] ] ] } },
{ "type": "Feature", "properties": { "geogrid_id": "5252702190005856620", "seqnum": 7366.0, "lat_c": 52.702190425951656, "lon_c": -5.8566199528051266, "res": 8.0, "count_Insects": 1442, "count_Mosses": 316, "count_Sac Fungi": 188, "count_Arachnids": 49, "count_Flowering Plants": 823, "count_Basidiomycota": 261, "count_Birds": 233, "count_Ferns": 17, "count_Molluscs": 166, "count_Gymnosperms": 21, "count_Amphibians": 2, "count_Mammals": 38, "count_Reptiles": 2, "unique_species_count": 3558.0, "countryCode": "IE" }, "geometry": { "type": "MultiPolygon", "coordinates": [ [ [ [ -5.00095618595222, 52.496695639596219 ], [ -5.648515270663474, 52.249976611091313 ], [ -6.501928448086342, 52.45141600575689 ], [ -6.726642207607381, 52.899869970949744 ], [ -6.075580569199368, 53.15147657387763 ], [ -5.203254157865847, 52.949612588993325 ], [ -5.00095618595222, 52.496695639596219 ] ] ] ] } },
{ "type": "Feature", "properties": { "geogrid_id": "5253344953006963187", "seqnum": 7284.0, "lat_c": 53.344953428183494, "lon_c": -6.9631868289631544, "res": 8.0, "count_Insects": 1966, "count_Mosses": 343, "count_Sac Fungi": 213, "count_Arachnids": 142, "count_Flowering Plants": 1305, "count_Basidiomycota": 476, "count_Birds": 222, "count_Ferns": 22, "count_Molluscs": 214, "count_Gymnosperms": 38, "count_Amphibians": 3, "count_Mammals": 41, "count_Reptiles": 4, "unique_species_count": 4989.0, "countryCode": "IE" }, "geometry": { "type": "MultiPolygon", "coordinates": [ [ [ [ -6.075580569199368, 53.15147657387763 ], [ -6.726642207607381, 52.899869970949744 ], [ -7.611763184676535, 53.089071082480906 ], [ -7.553156681461273, 53.653330744838961 ], [ -6.894596175031397, 53.90872587581012 ], [ -6.306212839036363, 53.597512812021684 ], [ -6.075580569199368, 53.15147657387763 ] ] ] ] } },
{ "type": "Feature", "properties": { "geogrid_id": "5253371142015815052", "seqnum": 7277.0, "lat_c": 53.371142489507619, "lon_c": -15.815052164363273, "res": 8.0, "count_Insects": 0, "count_Mosses": 0, "count_Sac Fungi": 0, "count_Arachnids": 0, "count_Flowering Plants": 0, "count_Basidiomycota": 0, "count_Birds": 8, "count_Ferns": 0, "count_Molluscs": 0, "count_Gymnosperms": 0, "count_Amphibians": 0, "count_Mammals": 10, "count_Reptiles": 1, "unique_species_count": 19.0, "countryCode": "IE" }, "geometry": { "type": "MultiPolygon", "coordinates": [ [ [ [ -15.133928286558325, 53.121993253062762 ], [ -15.7275058570534, 52.826733981814115 ], [ -16.408280284346006, 53.072434623347185 ], [ -16.508329410554445, 53.613772226946757 ], [ -15.907004555387173, 53.9133308292189 ], [ -15.21328621995892, 53.667150048916284 ], [ -15.133928286558325, 53.121993253062762 ] ] ] ] } },
{ "type": "Feature", "properties": { "geogrid_id": "5253394627008203151", "seqnum": 7283.0, "lat_c": 53.394626887604495, "lon_c": -8.203150735876827, "res": 8.0, "count_Insects": 1276, "count_Mosses": 287, "count_Sac Fungi": 118, "count_Arachnids": 55, "count_Flowering Plants": 864, "count_Basidiomycota": 229, "count_Birds": 189, "count_Ferns": 20, "count_Molluscs": 52, "count_Gymnosperms": 21, "count_Amphibians": 2, "count_Mammals": 31, "count_Reptiles": 2, "unique_species_count": 3146.0, "countryCode": "IE" }, "geometry": { "type": "MultiPolygon", "coordinates": [ [ [ [ -7.611763184676535, 53.089071082480906 ], [ -8.2520339818217, 52.829945577264702 ], [ -8.844676985108721, 53.132695044165835 ], [ -8.810532535221173, 53.694315341574935 ], [ -8.159186267514141, 53.955978439734835 ], [ -7.553156681461273, 53.653330744838961 ], [ -7.611763184676535, 53.089071082480906 ] ] ] ] } },
{ "type": "Feature", "properties": { "geogrid_id": "5253399706005416250", "seqnum": 7285.0, "lat_c": 53.399706098950702, "lon_c": -5.4162501554283136, "res": 8.0, "count_Insects": 797, "count_Mosses": 131, "count_Sac Fungi": 132, "count_Arachnids": 46, "count_Flowering Plants": 837, "count_Basidiomycota": 88, "count_Birds": 231, "count_Ferns": 15, "count_Molluscs": 293, "count_Gymnosperms": 14, "count_Amphibians": 2, "count_Mammals": 34, "count_Reptiles": 5, "unique_species_count": 2625.0, "countryCode": "IE" }, "geometry": { "type": "MultiPolygon", "coordinates": [ [ [ [ -4.541754342080391, 53.193603533763458 ], [ -5.203254157865847, 52.949612588993325 ], [ -6.075580569199368, 53.15147657387763 ], [ -6.306212839036363, 53.597512812021684 ], [ -5.640752807791265, 53.846667740068625 ], [ -4.748570637380741, 53.644477457153457 ], [ -4.541754342080391, 53.193603533763458 ] ] ] ] } },
{ "type": "Feature", "properties": { "geogrid_id": "5253414540014531931", "seqnum": 7278.0, "lat_c": 53.414540085459905, "lon_c": -14.531930772723072, "res": 8.0, "count_Insects": 0, "count_Mosses": 0, "count_Sac Fungi": 0, "count_Arachnids": 0, "count_Flowering Plants": 0, "count_Basidiomycota": 0, "count_Birds": 7, "count_Ferns": 0, "count_Molluscs": 17, "count_Gymnosperms": 0, "count_Amphibians": 0, "count_Mammals": 9, "count_Reptiles": 1, "unique_species_count": 34.0, "countryCode": "IE" }, "geometry": { "type": "MultiPolygon", "coordinates": [ [ [ [ -13.863411221487288, 53.15547920317686 ], [ -14.465450153807762, 52.86629382122365 ], [ -15.133928286558325, 53.121993253062762 ], [ -15.21328621995892, 53.667150048916284 ], [ -14.602828056200819, 53.960388265554968 ], [ -13.921366322169774, 53.704304951588817 ], [ -13.863411221487288, 53.15547920317686 ] ] ] ] } },
{ "type": "Feature", "properties": { "geogrid_id": "5253429438009453249", "seqnum": 7282.0, "lat_c": 53.429438031263025, "lon_c": -9.4532488939558572, "res": 8.0, "count_Insects": 1793, "count_Mosses": 393, "count_Sac Fungi": 310, "count_Arachnids": 90, "count_Flowering Plants": 1103, "count_Basidiomycota": 329, "count_Birds": 238, "count_Ferns": 29, "count_Molluscs": 430, "count_Gymnosperms": 25, "count_Amphibians": 2, "count_Mammals": 54, "count_Reptiles": 5, "unique_species_count": 4801.0, "countryCode": "IE" }, "geometry": { "type": "MultiPolygon", "coordinates": [ [ [ [ -8.844676985108721, 53.132695044165835 ], [ -9.477837285066915, 52.867614174854729 ], [ -10.087444128619358, 53.161426149738674 ], [ -10.077226598023278, 53.7201663694686 ], [ -9.433413895603858, 53.988120440038237 ], [ -8.810532535221173, 53.694315341574935 ], [ -8.844676985108721, 53.132695044165835 ] ] ] ] } },
{ "type": "Feature", "properties": { "geogrid_id": "5253441870013252931", "seqnum": 7279.0, "lat_c": 53.441870231448561, "lon_c": -13.252930887624169, "res": 8.0, "count_Insects": 0, "count_Mosses": 0, "count_Sac Fungi": 0, "count_Arachnids": 0, "count_Flowering Plants": 0, "count_Basidiomycota": 0, "count_Birds": 14, "count_Ferns": 0, "count_Molluscs": 44, "count_Gymnosperms": 0, "count_Amphibians": 0, "count_Mammals": 4, "count_Reptiles": 0, "unique_species_count": 62.0, "countryCode": "IE" }, "geometry": { "type": "MultiPolygon", "coordinates": [ [ [ [ -12.598000949279667, 53.173069705847169 ], [ -13.208228155493281, 52.88994415815958 ], [ -13.863411221487288, 53.15547920317686 ], [ -13.921366322169774, 53.704304951588817 ], [ -13.302088648652505, 53.991216037989567 ], [ -12.633870349643377, 53.725394810535882 ], [ -12.598000949279667, 53.173069705847169 ] ] ] ] } },
{ "type": "Feature", "properties": { "geogrid_id": "5253449091010712363", "seqnum": 7281.0, "lat_c": 53.449091105231375, "lon_c": -10.712363023326365, "res": 8.0, "count_Insects": 191, "count_Mosses": 148, "count_Sac Fungi": 13, "count_Arachnids": 5, "count_Flowering Plants": 326, "count_Basidiomycota": 1, "count_Birds": 144, "count_Ferns": 7, "count_Molluscs": 200, "count_Gymnosperms": 0, "count_Amphibians": 2, "count_Mammals": 21, "count_Reptiles": 4, "unique_species_count": 1062.0, "countryCode": "IE" }, "geometry": { "type": "MultiPolygon", "coordinates": [ [ [ [ -10.087444128619358, 53.161426149738674 ], [ -10.713229758514791, 52.890357464897662 ], [ -11.338941891588442, 53.174972842324422 ], [ -11.352075171570796, 53.730608845500498 ], [ -10.716118156519867, 54.004871702260246 ], [ -10.077226598023278, 53.7201663694686 ], [ -10.087444128619358, 53.161426149738674 ] ] ] ] } },
{ "type": "Feature", "properties": { "geogrid_id": "5253453316011979327", "seqnum": 7280.0, "lat_c": 53.453316045319973, "lon_c": -11.979326652525879, "res": 8.0, "count_Insects": 0, "count_Mosses": 0, "count_Sac Fungi": 0, "count_Arachnids": 0, "count_Flowering Plants": 0, "count_Basidiomycota": 0, "count_Birds": 15, "count_Ferns": 0, "count_Molluscs": 16, "count_Gymnosperms": 0, "count_Amphibians": 0, "count_Mammals": 8, "count_Reptiles": 0, "unique_species_count": 39.0, "countryCode": "IE" }, "geometry": { "type": "MultiPolygon", "coordinates": [ [ [ [ -11.338941891588442, 53.174972842324422 ], [ -11.957084168436646, 52.897887804718351 ], [ -12.598000949279667, 53.173069705847169 ], [ -12.633870349643377, 53.725394810535882 ], [ -12.006092035419314, 54.005978666581086 ], [ -11.352075171570796, 53.730608845500498 ], [ -11.338941891588442, 53.174972842324422 ] ] ] ] } },
{ "type": "Feature", "properties": { "geogrid_id": "5254160730006227374", "seqnum": 7203.0, "lat_c": 54.160729766669739, "lon_c": -6.2273741596744241, "res": 8.0, "count_Insects": 804, "count_Mosses": 255, "count_Sac Fungi": 33, "count_Arachnids": 30, "count_Flowering Plants": 743, "count_Basidiomycota": 71, "count_Birds": 201, "count_Ferns": 17, "count_Molluscs": 223, "count_Gymnosperms": 13, "count_Amphibians": 2, "count_Mammals": 28, "count_Reptiles": 3, "unique_species_count": 2423.0, "countryCode": "IE" }, "geometry": { "type": "MultiPolygon", "coordinates": [ [ [ [ -5.640752807791265, 53.846667740068625 ], [ -6.306212839036363, 53.597512812021684 ], [ -6.894596175031397, 53.90872587581012 ], [ -6.830184787655171, 54.469334076876251 ], [ -6.152329125832653, 54.720857992352173 ], [ -5.551399568358166, 54.409258140119043 ], [ -5.640752807791265, 53.846667740068625 ] ] ] ] } },
{ "type": "Feature", "properties": { "geogrid_id": "5254210133015296863", "seqnum": 7196.0, "lat_c": 54.210133339183159, "lon_c": -15.29686254690095, "res": 8.0, "count_Insects": 0, "count_Mosses": 0, "count_Sac Fungi": 0, "count_Arachnids": 0, "count_Flowering Plants": 0, "count_Basidiomycota": 0, "count_Birds": 10, "count_Ferns": 0, "count_Molluscs": 0, "count_Gymnosperms": 0, "count_Amphibians": 0, "count_Mammals": 4, "count_Reptiles": 0, "unique_species_count": 14.0, "countryCode": "IE" }, "geometry": { "type": "MultiPolygon", "coordinates": [ [ [ [ -14.602828056200819, 53.960388265554968 ], [ -15.21328621995892, 53.667150048916284 ], [ -15.907004555387173, 53.9133308292189 ], [ -16.003039289202015, 54.453552065326534 ], [ -15.384329778784341, 54.751189149021656 ], [ -14.67774163434804, 54.504108760088506 ], [ -14.602828056200819, 53.960388265554968 ] ] ] ] } },
{ "type": "Feature", "properties": { "geogrid_id": "5254214346007499104", "seqnum": 7202.0, "lat_c": 54.214345812143279, "lon_c": -7.4991044118744794, "res": 8.0, "count_Insects": 1107, "count_Mosses": 291, "count_Sac Fungi": 62, "count_Arachnids": 32, "count_Flowering Plants": 657, "count_Basidiomycota": 43, "count_Birds": 156, "count_Ferns": 18, "count_Molluscs": 39, "count_Gymnosperms": 17, "count_Amphibians": 2, "count_Mammals": 29, "count_Reptiles": 1, "unique_species_count": 2454.0, "countryCode": "IE" }, "geometry": { "type": "MultiPolygon", "coordinates": [ [ [ [ -6.894596175031397, 53.90872587581012 ], [ -7.553156681461273, 53.653330744838961 ], [ -8.159186267514141, 53.955978439734835 ], [ -8.119298179682968, 54.514342343751686 ], [ -7.448772291482971, 54.772443911991374 ], [ -6.830184787655171, 54.469334076876251 ], [ -6.894596175031397, 53.90872587581012 ] ] ] ] } },
{ "type": "Feature", "properties": { "geogrid_id": "5254250786013983524", "seqnum": 7197.0, "lat_c": 54.250785697682744, "lon_c": -13.98352373040664, "res": 8.0, "count_Insects": 0, "count_Mosses": 0, "count_Sac Fungi": 0, "count_Arachnids": 0, "count_Flowering Plants": 0, "count_Basidiomycota": 0, "count_Birds": 11, "count_Ferns": 0, "count_Molluscs": 64, "count_Gymnosperms": 0, "count_Amphibians": 0, "count_Mammals": 11, "count_Reptiles": 0, "unique_species_count": 86.0, "countryCode": "IE" }, "geometry": { "type": "MultiPolygon", "coordinates": [ [ [ [ -13.302088648652505, 53.991216037989567 ], [ -13.921366322169774, 53.704304951588817 ], [ -14.602828056200819, 53.960388265554968 ], [ -14.67774163434804, 54.504108760088506 ], [ -14.049480535201958, 54.795183559088358 ], [ -13.355220053942999, 54.538268486954756 ], [ -13.302088648652505, 53.991216037989567 ] ] ] ] } },
{ "type": "Feature", "properties": { "geogrid_id": "5254252873008780809", "seqnum": 7201.0, "lat_c": 54.252873146806131, "lon_c": -8.7808087999575868, "res": 8.0, "count_Insects": 1300, "count_Mosses": 364, "count_Sac Fungi": 182, "count_Arachnids": 46, "count_Flowering Plants": 800, "count_Basidiomycota": 130, "count_Birds": 208, "count_Ferns": 23, "count_Molluscs": 262, "count_Gymnosperms": 18, "count_Amphibians": 2, "count_Mammals": 49, "count_Reptiles": 4, "unique_species_count": 3388.0, "countryCode": "IE" }, "geometry": { "type": "MultiPolygon", "coordinates": [ [ [ [ -8.159186267514141, 53.955978439734835 ], [ -8.810532535221173, 53.694315341574935 ], [ -9.433413895603858, 53.988120440038237 ], [ -9.417584918098415, 54.543991561499553 ], [ -8.754763908811013, 54.808685336753328 ], [ -8.119298179682968, 54.514342343751686 ], [ -8.159186267514141, 53.955978439734835 ] ] ] ] } },
{ "type": "Feature", "properties": { "geogrid_id": "5254275199012673952", "seqnum": 7198.0, "lat_c": 54.27519923442064, "lon_c": -12.673952473530944, "res": 8.0, "count_Insects": 0, "count_Mosses": 0, "count_Sac Fungi": 0, "count_Arachnids": 0, "count_Flowering Plants": 0, "count_Basidiomycota": 0, "count_Birds": 11, "count_Ferns": 0, "count_Molluscs": 0, "count_Gymnosperms": 0, "count_Amphibians": 0, "count_Mammals": 8, "count_Reptiles": 1, "unique_species_count": 20.0, "countryCode": "IE" }, "geometry": { "type": "MultiPolygon", "coordinates": [ [ [ [ -12.006092035419314, 54.005978666581086 ], [ -12.633870349643377, 53.725394810535882 ], [ -13.302088648652505, 53.991216037989567 ], [ -13.355220053942999, 54.538268486954756 ], [ -12.717764920163807, 54.822760347897741 ], [ -12.036813851174236, 54.556178123932725 ], [ -12.006092035419314, 54.005978666581086 ] ] ] ] } },
{ "type": "Feature", "properties": { "geogrid_id": "5254276026010071329", "seqnum": 7200.0, "lat_c": 54.276026130939947, "lon_c": -10.071329343105141, "res": 8.0, "count_Insects": 551, "count_Mosses": 287, "count_Sac Fungi": 123, "count_Arachnids": 16, "count_Flowering Plants": 468, "count_Basidiomycota": 53, "count_Birds": 193, "count_Ferns": 11, "count_Molluscs": 204, "count_Gymnosperms": 7, "count_Amphibians": 2, "count_Mammals": 31, "count_Reptiles": 4, "unique_species_count": 1950.0, "countryCode": "IE" }, "geometry": { "type": "MultiPolygon", "coordinates": [ [ [ [ -9.433413895603858, 53.988120440038237 ], [ -10.077226598023278, 53.7201663694686 ], [ -10.716118156519867, 54.004871702260246 ], [ -10.723839900592294, 54.558016165961043 ], [ -10.069100112172745, 54.829310291953348 ], [ -9.417584918098415, 54.543991561499553 ], [ -9.433413895603858, 53.988120440038237 ] ] ] ] } },
{ "type": "Feature", "properties": { "geogrid_id": "5254283545011369460", "seqnum": 7199.0, "lat_c": 54.283545337679136, "lon_c": -11.369459925637138, "res": 8.0, "count_Insects": 1, "count_Mosses": 0, "count_Sac Fungi": 0, "count_Arachnids": 0, "count_Flowering Plants": 0, "count_Basidiomycota": 0, "count_Birds": 15, "count_Ferns": 0, "count_Molluscs": 17, "count_Gymnosperms": 0, "count_Amphibians": 0, "count_Mammals": 12, "count_Reptiles": 0, "unique_species_count": 45.0, "countryCode": "IE" }, "geometry": { "type": "MultiPolygon", "coordinates": [ [ [ [ -10.716118156519867, 54.004871702260246 ], [ -11.352075171570796, 53.730608845500498 ], [ -12.006092035419314, 54.005978666581086 ], [ -12.036813851174236, 54.556178123932725 ], [ -11.390530520248214, 54.834073974303195 ], [ -10.723839900592294, 54.558016165961043 ], [ -10.716118156519867, 54.004871702260246 ] ] ] ] } },
{ "type": "Feature", "properties": { "geogrid_id": "5254992030016102895", "seqnum": 7114.0, "lat_c": 54.992029715360928, "lon_c": -16.102894649153328, "res": 8.0, "count_Insects": 0, "count_Mosses": 0, "count_Sac Fungi": 0, "count_Arachnids": 0, "count_Flowering Plants": 0, "count_Basidiomycota": 0, "count_Birds": 0, "count_Ferns": 0, "count_Molluscs": 0, "count_Gymnosperms": 0, "count_Amphibians": 0, "count_Mammals": 2, "count_Reptiles": 0, "unique_species_count": 2.0, "countryCode": "IE" }, "geometry": { "type": "MultiPolygon", "coordinates": [ [ [ [ -15.384329778784341, 54.751189149021656 ], [ -16.003039289202015, 54.453552065326534 ], [ -16.72094838397053, 54.690655045682 ], [ -16.833059645634446, 55.226632230082949 ], [ -16.206361368003112, 55.528962017472082 ], [ -15.475420190662556, 55.290535386868626 ], [ -15.384329778784341, 54.751189149021656 ] ] ] ] } },
{ "type": "Feature", "properties": { "geogrid_id": "5255027092006769125", "seqnum": 7121.0, "lat_c": 55.027091766999938, "lon_c": -6.7691252064216814, "res": 8.0, "count_Insects": 260, "count_Mosses": 164, "count_Sac Fungi": 7, "count_Arachnids": 5, "count_Flowering Plants": 412, "count_Basidiomycota": 2, "count_Birds": 160, "count_Ferns": 12, "count_Molluscs": 181, "count_Gymnosperms": 5, "count_Amphibians": 2, "count_Mammals": 21, "count_Reptiles": 3, "unique_species_count": 1234.0, "countryCode": "IE" }, "geometry": { "type": "MultiPolygon", "coordinates": [ [ [ [ -6.152329125832653, 54.720857992352173 ], [ -6.830184787655171, 54.469334076876251 ], [ -7.448772291482971, 54.772443911991374 ], [ -7.401424958382585, 55.327916871585224 ], [ -6.71068312536632, 55.582278917675175 ], [ -6.080255259123835, 55.278197870461952 ], [ -6.152329125832653, 54.720857992352173 ] ] ] ] } },
{ "type": "Feature", "properties": { "geogrid_id": "5255045941014756340", "seqnum": 7115.0, "lat_c": 55.045940729343556, "lon_c": -14.75633950814346, "res": 8.0, "count_Insects": 0, "count_Mosses": 0, "count_Sac Fungi": 0, "count_Arachnids": 0, "count_Flowering Plants": 0, "count_Basidiomycota": 0, "count_Birds": 2, "count_Ferns": 0, "count_Molluscs": 0, "count_Gymnosperms": 0, "count_Amphibians": 0, "count_Mammals": 4, "count_Reptiles": 0, "unique_species_count": 6.0, "countryCode": "IE" }, "geometry": { "type": "MultiPolygon", "coordinates": [ [ [ [ -14.049480535201958, 54.795183559088358 ], [ -14.67774163434804, 54.504108760088506 ], [ -15.384329778784341, 54.751189149021656 ], [ -15.475420190662556, 55.290535386868626 ], [ -14.838347176083156, 55.586096571486053 ], [ -14.118899413035763, 55.33773099388565 ], [ -14.049480535201958, 54.795183559088358 ] ] ] ] } },
{ "type": "Feature", "properties": { "geogrid_id": "5255070023008082749", "seqnum": 7120.0, "lat_c": 55.070022714152387, "lon_c": -8.0827485971237962, "res": 8.0, "count_Insects": 947, "count_Mosses": 341, "count_Sac Fungi": 183, "count_Arachnids": 30, "count_Flowering Plants": 749, "count_Basidiomycota": 118, "count_Birds": 222, "count_Ferns": 18, "count_Molluscs": 267, "count_Gymnosperms": 17, "count_Amphibians": 2, "count_Mammals": 39, "count_Reptiles": 4, "unique_species_count": 2937.0, "countryCode": "IE" }, "geometry": { "type": "MultiPolygon", "coordinates": [ [ [ [ -7.448772291482971, 54.772443911991374 ], [ -8.119298179682968, 54.514342343751686 ], [ -8.754763908811013, 54.808685336753328 ], [ -8.731747624215728, 55.362033977279893 ], [ -8.048886299704272, 55.623290800868055 ], [ -7.401424958382585, 55.327916871585224 ], [ -7.448772291482971, 54.772443911991374 ] ] ] ] } },
{ "type": "Feature", "properties": { "geogrid_id": "5255083282013411919", "seqnum": 7116.0, "lat_c": 55.083281655633208, "lon_c": -13.41191876494937, "res": 8.0, "count_Insects": 0, "count_Mosses": 0, "count_Sac Fungi": 0, "count_Arachnids": 0, "count_Flowering Plants": 0, "count_Basidiomycota": 0, "count_Birds": 10, "count_Ferns": 0, "count_Molluscs": 0, "count_Gymnosperms": 0, "count_Amphibians": 0, "count_Mammals": 6, "count_Reptiles": 0, "unique_species_count": 16.0, "countryCode": "IE" }, "geometry": { "type": "MultiPolygon", "coordinates": [ [ [ [ -12.717764920163807, 54.822760347897741 ], [ -13.355220053942999, 54.538268486954756 ], [ -14.049480535201958, 54.795183559088358 ], [ -14.118899413035763, 55.33773099388565 ], [ -13.471841269677144, 55.626481450065633 ], [ -12.76489699547434, 55.368324410411205 ], [ -12.717764920163807, 54.822760347897741 ] ] ] ] } },
{ "type": "Feature", "properties": { "geogrid_id": "5255097345009405111", "seqnum": 7119.0, "lat_c": 55.097344651717592, "lon_c": -9.4051113816996619, "res": 8.0, "count_Insects": 0, "count_Mosses": 0, "count_Sac Fungi": 0, "count_Arachnids": 0, "count_Flowering Plants": 0, "count_Basidiomycota": 0, "count_Birds": 20, "count_Ferns": 0, "count_Molluscs": 18, "count_Gymnosperms": 0, "count_Amphibians": 0, "count_Mammals": 10, "count_Reptiles": 1, "unique_species_count": 49.0, "countryCode": "IE" }, "geometry": { "type": "MultiPolygon", "coordinates": [ [ [ [ -8.754763908811013, 54.808685336753328 ], [ -9.417584918098415, 54.543991561499553 ], [ -10.069100112172745, 54.829310291953348 ], [ -10.069971404919604, 55.380290014878 ], [ -9.395423060921075, 55.648441117204428 ], [ -8.731747624215728, 55.362033977279893 ], [ -8.754763908811013, 54.808685336753328 ] ] ] ] } },
{ "type": "Feature", "properties": { "geogrid_id": "5255104183012071008", "seqnum": 7117.0, "lat_c": 55.104182558334074, "lon_c": -12.071007659619116, "res": 8.0, "count_Insects": 0, "count_Mosses": 0, "count_Sac Fungi": 0, "count_Arachnids": 0, "count_Flowering Plants": 0, "count_Basidiomycota": 0, "count_Birds": 8, "count_Ferns": 0, "count_Molluscs": 0, "count_Gymnosperms": 0, "count_Amphibians": 0, "count_Mammals": 11, "count_Reptiles": 0, "unique_species_count": 19.0, "countryCode": "IE" }, "geometry": { "type": "MultiPolygon", "coordinates": [ [ [ [ -11.390530520248214, 54.834073974303195 ], [ -12.036813851174236, 54.556178123932725 ], [ -12.717764920163807, 54.822760347897741 ], [ -12.76489699547434, 55.368324410411205 ], [ -12.108257443328116, 55.65023061546222 ], [ -11.414799423622972, 55.382453951344239 ], [ -11.390530520248214, 54.834073974303195 ] ] ] ] } },
{ "type": "Feature", "properties": { "geogrid_id": "5255108806010734962", "seqnum": 7118.0, "lat_c": 55.108805731379, "lon_c": -10.734962281791232, "res": 8.0, "count_Insects": 0, "count_Mosses": 0, "count_Sac Fungi": 0, "count_Arachnids": 0, "count_Flowering Plants": 0, "count_Basidiomycota": 1, "count_Birds": 16, "count_Ferns": 0, "count_Molluscs": 7, "count_Gymnosperms": 0, "count_Amphibians": 0, "count_Mammals": 12, "count_Reptiles": 0, "unique_species_count": 36.0, "countryCode": "IE" }, "geometry": { "type": "MultiPolygon", "coordinates": [ [ [ [ -10.069100112172745, 54.829310291953348 ], [ -10.723839900592294, 54.558016165961043 ], [ -11.390530520248214, 54.834073974303195 ], [ -11.414799423622972, 55.382453951344239 ], [ -10.748993597209703, 55.657490909359765 ], [ -10.069971404919604, 55.380290014878 ], [ -10.069100112172745, 54.829310291953348 ] ] ] ] } },
{ "type": "Feature", "properties": { "geogrid_id": "5255828366015569917", "seqnum": 7033.0, "lat_c": 55.828365839490367, "lon_c": -15.569916671598596, "res": 8.0, "count_Insects": 0, "count_Mosses": 0, "count_Sac Fungi": 0, "count_Arachnids": 0, "count_Flowering Plants": 0, "count_Basidiomycota": 0, "count_Birds": 3, "count_Ferns": 0, "count_Molluscs": 76, "count_Gymnosperms": 0, "count_Amphibians": 0, "count_Mammals": 2, "count_Reptiles": 0, "unique_species_count": 81.0, "countryCode": "IE" }, "geometry": { "type": "MultiPolygon", "coordinates": [ [ [ [ -14.838347176083156, 55.586096571486053 ], [ -15.475420190662556, 55.290535386868626 ], [ -16.206361368003112, 55.528962017472082 ], [ -16.313274971161547, 56.064525488893899 ], [ -15.667645372243589, 56.364853514930914 ], [ -14.923538879641526, 56.124765664350349 ], [ -14.838347176083156, 55.586096571486053 ] ] ] ] } },
{ "type": "Feature", "properties": { "geogrid_id": "5255878635014191498", "seqnum": 7034.0, "lat_c": 55.878634980631929, "lon_c": -14.191498261329773, "res": 8.0, "count_Insects": 0, "count_Mosses": 0, "count_Sac Fungi": 0, "count_Arachnids": 0, "count_Flowering Plants": 0, "count_Basidiomycota": 0, "count_Birds": 4, "count_Ferns": 0, "count_Molluscs": 0, "count_Gymnosperms": 0, "count_Amphibians": 0, "count_Mammals": 0, "count_Reptiles": 0, "unique_species_count": 4.0, "countryCode": "IE" }, "geometry": { "type": "MultiPolygon", "coordinates": [ [ [ [ -13.471841269677144, 55.626481450065633 ], [ -14.118899413035763, 55.33773099388565 ], [ -14.838347176083156, 55.586096571486053 ], [ -14.923538879641526, 56.124765664350349 ], [ -14.267041809760256, 56.41808052449732 ], [ -13.534696984975245, 56.168069510600439 ], [ -13.471841269677144, 55.626481450065633 ] ] ] ] } },
{ "type": "Feature", "properties": { "geogrid_id": "5255881025007356409", "seqnum": 7039.0, "lat_c": 55.88102546348226, "lon_c": -7.3564088915954269, "res": 8.0, "count_Insects": 64, "count_Mosses": 25, "count_Sac Fungi": 1, "count_Arachnids": 0, "count_Flowering Plants": 116, "count_Basidiomycota": 0, "count_Birds": 110, "count_Ferns": 1, "count_Molluscs": 64, "count_Gymnosperms": 0, "count_Amphibians": 1, "count_Mammals": 15, "count_Reptiles": 2, "unique_species_count": 399.0, "countryCode": "IE" }, "geometry": { "type": "MultiPolygon", "coordinates": [ [ [ [ -6.710683125366319, 55.582278917675175 ], [ -7.401424958382585, 55.327916871585224 ], [ -8.048886299704272, 55.623290800868055 ], [ -8.017131975947601, 56.174389329892783 ], [ -7.313138404890124, 56.432003431355788 ], [ -6.654201412765954, 56.135146128334092 ], [ -6.710683125366319, 55.582278917675175 ] ] ] ] } },
{ "type": "Feature", "properties": { "geogrid_id": "5255912111012814998", "seqnum": 7035.0, "lat_c": 55.912110912847957, "lon_c": -12.814998086689362, "res": 8.0, "count_Insects": 0, "count_Mosses": 0, "count_Sac Fungi": 0, "count_Arachnids": 0, "count_Flowering Plants": 0, "count_Basidiomycota": 0, "count_Birds": 11, "count_Ferns": 0, "count_Molluscs": 0, "count_Gymnosperms": 0, "count_Amphibians": 0, "count_Mammals": 3, "count_Reptiles": 0, "unique_species_count": 14.0, "countryCode": "IE" }, "geometry": { "type": "MultiPolygon", "coordinates": [ [ [ [ -12.108257443328116, 55.65023061546222 ], [ -12.76489699547434, 55.368324410411205 ], [ -13.471841269677144, 55.626481450065633 ], [ -13.534696984975245, 56.168069510600439 ], [ -12.867768197081116, 56.454316228452733 ], [ -12.148204529879932, 56.194535493942681 ], [ -12.108257443328116, 55.65023061546222 ] ] ] ] } },
{ "type": "Feature", "properties": { "geogrid_id": "5255913171008711186", "seqnum": 7038.0, "lat_c": 55.913171005841427, "lon_c": -8.7111857863918321, "res": 8.0, "count_Insects": 0, "count_Mosses": 0, "count_Sac Fungi": 0, "count_Arachnids": 0, "count_Flowering Plants": 0, "count_Basidiomycota": 0, "count_Birds": 18, "count_Ferns": 0, "count_Molluscs": 51, "count_Gymnosperms": 0, "count_Amphibians": 0, "count_Mammals": 10, "count_Reptiles": 1, "unique_species_count": 80.0, "countryCode": "IE" }, "geometry": { "type": "MultiPolygon", "coordinates": [ [ [ [ -8.048886299704272, 55.623290800868055 ], [ -8.731747624215728, 55.362033977279893 ], [ -9.395423060921075, 55.648441117204428 ], [ -9.388016572842485, 56.197514781147078 ], [ -8.692567459924406, 56.462322195209609 ], [ -8.017131975947601, 56.174389329892783 ], [ -8.048886299704272, 55.623290800868055 ] ] ] ] } },
{ "type": "Feature", "properties": { "geogrid_id": "5255928916011441844", "seqnum": 7036.0, "lat_c": 55.928916486093904, "lon_c": -11.441844289124782, "res": 8.0, "count_Insects": 0, "count_Mosses": 0, "count_Sac Fungi": 0, "count_Arachnids": 0, "count_Flowering Plants": 0, "count_Basidiomycota": 0, "count_Birds": 8, "count_Ferns": 0, "count_Molluscs": 0, "count_Gymnosperms": 0, "count_Amphibians": 0, "count_Mammals": 6, "count_Reptiles": 1, "unique_species_count": 15.0, "countryCode": "IE" }, "geometry": { "type": "MultiPolygon", "coordinates": [ [ [ [ -10.748993597209703, 55.657490909359765 ], [ -11.414799423622972, 55.382453951344239 ], [ -12.108257443328116, 55.65023061546222 ], [ -12.148204529879932, 56.194535493942681 ], [ -11.471297381264682, 56.473668593147522 ], [ -10.765504129231701, 56.204295655234723 ], [ -10.748993597209703, 55.657490909359765 ] ] ] ] } },
{ "type": "Feature", "properties": { "geogrid_id": "5255929207010073446", "seqnum": 7037.0, "lat_c": 55.929207360984059, "lon_c": -10.073446242430366, "res": 8.0, "count_Insects": 0, "count_Mosses": 0, "count_Sac Fungi": 0, "count_Arachnids": 0, "count_Flowering Plants": 0, "count_Basidiomycota": 0, "count_Birds": 13, "count_Ferns": 0, "count_Molluscs": 0, "count_Gymnosperms": 0, "count_Amphibians": 0, "count_Mammals": 8, "count_Reptiles": 0, "unique_species_count": 21.0, "countryCode": "IE" }, "geometry": { "type": "MultiPolygon", "coordinates": [ [ [ [ -9.395423060921075, 55.648441117204428 ], [ -10.069971404919604, 55.380290014878 ], [ -10.748993597209703, 55.657490909359765 ], [ -10.765504129231701, 56.204295655234723 ], [ -10.079086460830847, 56.476279170868445 ], [ -9.388016572842485, 56.197514781147078 ], [ -9.395423060921075, 55.648441117204428 ] ] ] ] } },
{ "type": "Feature", "properties": { "geogrid_id": "5256662118015011731", "seqnum": 6952.0, "lat_c": 56.66211750704273, "lon_c": -15.011730532701, "res": 8.0, "count_Insects": 0, "count_Mosses": 0, "count_Sac Fungi": 0, "count_Arachnids": 0, "count_Flowering Plants": 0, "count_Basidiomycota": 0, "count_Birds": 1, "count_Ferns": 0, "count_Molluscs": 0, "count_Gymnosperms": 0, "count_Amphibians": 0, "count_Mammals": 1, "count_Reptiles": 0, "unique_species_count": 2.0, "countryCode": "IE" }, "geometry": { "type": "MultiPolygon", "coordinates": [ [ [ [ -14.267041809760256, 56.41808052449732 ], [ -14.923538879641526, 56.124765664350349 ], [ -15.667645372243589, 56.364853514930914 ], [ -15.768469786100422, 56.900153451980046 ], [ -15.102773999133344, 57.198304368758293 ], [ -14.345334809206079, 56.956233610625553 ], [ -14.267041809760256, 56.41808052449732 ] ] ] ] } },
{ "type": "Feature", "properties": { "geogrid_id": "5256708226013600240", "seqnum": 6953.0, "lat_c": 56.708226498573765, "lon_c": -13.600240205234622, "res": 8.0, "count_Insects": 0, "count_Mosses": 0, "count_Sac Fungi": 0, "count_Arachnids": 0, "count_Flowering Plants": 0, "count_Basidiomycota": 0, "count_Birds": 7, "count_Ferns": 0, "count_Molluscs": 0, "count_Gymnosperms": 0, "count_Amphibians": 0, "count_Mammals": 3, "count_Reptiles": 0, "unique_species_count": 10.0, "countryCode": "IE" }, "geometry": { "type": "MultiPolygon", "coordinates": [ [ [ [ -12.867768197081116, 56.454316228452733 ], [ -13.534696984975245, 56.168069510600439 ], [ -14.267041809760256, 56.41808052449732 ], [ -14.345334809206079, 56.956233610625553 ], [ -13.668263528668334, 57.247114873526698 ], [ -12.92295020431358, 56.995116694931092 ], [ -12.867768197081116, 56.454316228452733 ] ] ] ] } },
{ "type": "Feature", "properties": { "geogrid_id": "5256737288012190539", "seqnum": 6954.0, "lat_c": 56.737288359755773, "lon_c": -12.190538524201514, "res": 8.0, "count_Insects": 0, "count_Mosses": 0, "count_Sac Fungi": 0, "count_Arachnids": 0, "count_Flowering Plants": 0, "count_Basidiomycota": 0, "count_Birds": 5, "count_Ferns": 0, "count_Molluscs": 0, "count_Gymnosperms": 0, "count_Amphibians": 0, "count_Mammals": 1, "count_Reptiles": 0, "unique_species_count": 6.0, "countryCode": "IE" }, "geometry": { "type": "MultiPolygon", "coordinates": [ [ [ [ -11.471297381264682, 56.473668593147522 ], [ -12.148204529879932, 56.194535493942681 ], [ -12.867768197081116, 56.454316228452733 ], [ -12.92295020431358, 56.995116694931092 ], [ -12.234989849499588, 57.278661237420636 ], [ -11.502836872157234, 57.016896278876494 ], [ -11.471297381264682, 56.473668593147522 ] ] ] ] } },
{ "type": "Feature", "properties": { "geogrid_id": "5256744775009382444", "seqnum": 6956.0, "lat_c": 56.744775497207023, "lon_c": -9.3824442013104008, "res": 8.0, "count_Insects": 0, "count_Mosses": 0, "count_Sac Fungi": 0, "count_Arachnids": 0, "count_Flowering Plants": 0, "count_Basidiomycota": 0, "count_Birds": 12, "count_Ferns": 0, "count_Molluscs": 1, "count_Gymnosperms": 0, "count_Amphibians": 0, "count_Mammals": 2, "count_Reptiles": 0, "unique_species_count": 15.0, "countryCode": "IE" }, "geometry": { "type": "MultiPolygon", "coordinates": [ [ [ [ -8.692567459924406, 56.462322195209609 ], [ -9.388016572842485, 56.197514781147078 ], [ -10.079086460830847, 56.476279170868445 ], [ -10.086503022040414, 57.021700354018158 ], [ -9.378304592795615, 57.290412221485724 ], [ -8.675434242802238, 57.009690520272102 ], [ -8.692567459924406, 56.462322195209609 ] ] ] ] } },
{ "type": "Feature", "properties": { "geogrid_id": "5256749421010784116", "seqnum": 6955.0, "lat_c": 56.749420892512113, "lon_c": -10.784116033657291, "res": 8.0, "count_Insects": 0, "count_Mosses": 0, "count_Sac Fungi": 0, "count_Arachnids": 0, "count_Flowering Plants": 0, "count_Basidiomycota": 0, "count_Birds": 4, "count_Ferns": 0, "count_Molluscs": 0, "count_Gymnosperms": 0, "count_Amphibians": 0, "count_Mammals": 0, "count_Reptiles": 0, "unique_species_count": 4.0, "countryCode": "IE" }, "geometry": { "type": "MultiPolygon", "coordinates": [ [ [ [ -10.079086460830847, 56.476279170868445 ], [ -10.765504129231701, 56.204295655234723 ], [ -11.471297381264682, 56.473668593147522 ], [ -11.502836872157234, 57.016896278876494 ], [ -10.804494968077217, 57.293047502557556 ], [ -10.086503022040414, 57.021700354018158 ], [ -10.079086460830847, 56.476279170868445 ] ] ] ] } }
]
}
