{
"type": "FeatureCollection",
"name": "IQ",
"crs": { "type": "name", "properties": { "name": "urn:ogc:def:crs:OGC:1.3:CRS84" } },
"features": [
{ "type": "Feature", "properties": { "geogrid_id": "829935020048194886", "seqnum": 21106.0, "lat_c": 29.935020159147562, "lon_c": 48.194886428954163, "res": 8.0, "count_Ferns": 0, "count_Birds": 7, "count_Molluscs": 2, "count_Mosses": 0, "count_Flowering Plants": 2, "count_Mammals": 2, "count_Amphibians": 0, "count_Arachnids": 0, "count_Sac Fungi": 0, "count_Reptiles": 0, "count_Gymnosperms": 0, "count_Insects": 2, "count_Basidiomycota": 0, "unique_species_count": 15.0, "countryCode": "IQ" }, "geometry": { "type": "MultiPolygon", "coordinates": [ [ [ [ 48.369796314514026, 30.380694616757232 ], [ 48.7829250811508, 30.046820041305249 ], [ 48.608322571230033, 29.60302930870586 ], [ 48.022144618977265, 29.48973414168859 ], [ 47.608970177506933, 29.821008607530526 ], [ 47.781916893793792, 30.268049529180669 ], [ 48.369796314514026, 30.380694616757232 ] ] ] ] } },
{ "type": "Feature", "properties": { "geogrid_id": "829993415044454051", "seqnum": 20781.0, "lat_c": 29.993414961469256, "lon_c": 44.454050526918849, "res": 8.0, "count_Ferns": 0, "count_Birds": 0, "count_Molluscs": 0, "count_Mosses": 0, "count_Flowering Plants": 0, "count_Mammals": 1, "count_Amphibians": 0, "count_Arachnids": 0, "count_Sac Fungi": 0, "count_Reptiles": 0, "count_Gymnosperms": 0, "count_Insects": 0, "count_Basidiomycota": 0, "unique_species_count": 1.0, "countryCode": "IQ" }, "geometry": { "type": "MultiPolygon", "coordinates": [ [ [ [ 44.618219012847071, 30.447616968932444 ], [ 45.033874609913418, 30.120360386598819 ], [ 44.869471492659478, 29.667388632881192 ], [ 44.291904757141481, 29.539512659917321 ], [ 43.875756533752806, 29.863805556291162 ], [ 44.037575109627596, 30.318878201391918 ], [ 44.618219012847071, 30.447616968932444 ] ] ] ] } },
{ "type": "Feature", "properties": { "geogrid_id": "830152982047195953", "seqnum": 21025.0, "lat_c": 30.15298222078756, "lon_c": 47.195953159400865, "res": 8.0, "count_Ferns": 0, "count_Birds": 1, "count_Molluscs": 6, "count_Mosses": 0, "count_Flowering Plants": 1, "count_Mammals": 1, "count_Amphibians": 0, "count_Arachnids": 0, "count_Sac Fungi": 0, "count_Reptiles": 1, "count_Gymnosperms": 0, "count_Insects": 0, "count_Basidiomycota": 0, "unique_species_count": 10.0, "countryCode": "IQ" }, "geometry": { "type": "MultiPolygon", "coordinates": [ [ [ [ 47.369105800122242, 30.60167193180029 ], [ 47.781916893793792, 30.268049529180669 ], [ 47.608970177506933, 29.821008607530526 ], [ 47.025027265431802, 29.704669977701606 ], [ 46.611799472661161, 30.035423620410921 ], [ 46.782821405010672, 30.485281339635851 ], [ 47.369105800122242, 30.60167193180029 ] ] ] ] } },
{ "type": "Feature", "properties": { "geogrid_id": "830366281046198223", "seqnum": 20944.0, "lat_c": 30.366281044260806, "lon_c": 46.198222531846326, "res": 8.0, "count_Ferns": 0, "count_Birds": 0, "count_Molluscs": 0, "count_Mosses": 0, "count_Flowering Plants": 1, "count_Mammals": 0, "count_Amphibians": 0, "count_Arachnids": 0, "count_Sac Fungi": 0, "count_Reptiles": 0, "count_Gymnosperms": 0, "count_Insects": 0, "count_Basidiomycota": 0, "unique_species_count": 1.0, "countryCode": "IQ" }, "geometry": { "type": "MultiPolygon", "coordinates": [ [ [ [ 46.36932168329097, 30.817590288167683 ], [ 46.782821405010672, 30.485281339635851 ], [ 46.611799472661161, 30.035423620410921 ], [ 46.029374501616338, 29.915325562213859 ], [ 45.615254352429673, 30.244646020345957 ], [ 45.784069540522772, 30.696971012122848 ], [ 46.36932168329097, 30.817590288167683 ] ] ] ] } },
{ "type": "Feature", "properties": { "geogrid_id": "830715491047957147", "seqnum": 21107.0, "lat_c": 30.715490564339632, "lon_c": 47.957147394493973, "res": 8.0, "count_Ferns": 0, "count_Birds": 42, "count_Molluscs": 11, "count_Mosses": 0, "count_Flowering Plants": 89, "count_Mammals": 7, "count_Amphibians": 2, "count_Arachnids": 12, "count_Sac Fungi": 0, "count_Reptiles": 6, "count_Gymnosperms": 0, "count_Insects": 163, "count_Basidiomycota": 0, "unique_species_count": 332.0, "countryCode": "IQ" }, "geometry": { "type": "MultiPolygon", "coordinates": [ [ [ [ 48.134840176857246, 31.163360083900585 ], [ 48.547040742120622, 30.826793048465515 ], [ 48.369796314514026, 30.380694616757232 ], [ 47.781916893793792, 30.268049529180669 ], [ 47.369105800122242, 30.60167193180029 ], [ 47.544653896996294, 31.050762651665931 ], [ 48.134840176857246, 31.163360083900585 ] ] ] ] } },
{ "type": "Feature", "properties": { "geogrid_id": "830774244044201472", "seqnum": 20782.0, "lat_c": 30.774243782658726, "lon_c": 44.201472033309713, "res": 8.0, "count_Ferns": 0, "count_Birds": 0, "count_Molluscs": 0, "count_Mosses": 0, "count_Flowering Plants": 0, "count_Mammals": 0, "count_Amphibians": 0, "count_Arachnids": 0, "count_Sac Fungi": 0, "count_Reptiles": 0, "count_Gymnosperms": 1, "count_Insects": 0, "count_Basidiomycota": 0, "unique_species_count": 1.0, "countryCode": "IQ" }, "geometry": { "type": "MultiPolygon", "coordinates": [ [ [ [ 44.367591971889254, 31.229906969158169 ], [ 44.78455042946414, 30.902127280261737 ], [ 44.618219012847071, 30.447616968932444 ], [ 44.037575109627596, 30.318878201391918 ], [ 43.619883288175615, 30.643616827962781 ], [ 43.78346686798028, 31.100082479144469 ], [ 44.367591971889254, 31.229906969158169 ] ] ] ] } },
{ "type": "Feature", "properties": { "geogrid_id": "830935515046956168", "seqnum": 21026.0, "lat_c": 30.935515191712071, "lon_c": 46.956167972871008, "res": 8.0, "count_Ferns": 0, "count_Birds": 4, "count_Molluscs": 4, "count_Mosses": 0, "count_Flowering Plants": 2, "count_Mammals": 1, "count_Amphibians": 0, "count_Arachnids": 0, "count_Sac Fungi": 0, "count_Reptiles": 3, "count_Gymnosperms": 0, "count_Insects": 4, "count_Basidiomycota": 0, "unique_species_count": 18.0, "countryCode": "IQ" }, "geometry": { "type": "MultiPolygon", "coordinates": [ [ [ [ 47.132016971359441, 31.386141918945153 ], [ 47.544653896996294, 31.050762651665931 ], [ 47.369105800122242, 30.60167193180029 ], [ 46.782821405010672, 30.485281339635851 ], [ 46.36932168329097, 30.817590288167683 ], [ 46.542839119982617, 31.26926711208225 ], [ 47.132016971359441, 31.386141918945153 ] ] ] ] } },
{ "type": "Feature", "properties": { "geogrid_id": "831149641045955218", "seqnum": 20945.0, "lat_c": 31.149641302054601, "lon_c": 45.95521800015166, "res": 8.0, "count_Ferns": 0, "count_Birds": 4, "count_Molluscs": 1, "count_Mosses": 0, "count_Flowering Plants": 6, "count_Mammals": 0, "count_Amphibians": 0, "count_Arachnids": 0, "count_Sac Fungi": 0, "count_Reptiles": 0, "count_Gymnosperms": 0, "count_Insects": 5, "count_Basidiomycota": 0, "unique_species_count": 16.0, "countryCode": "IQ" }, "geometry": { "type": "MultiPolygon", "coordinates": [ [ [ [ 46.128873846046268, 31.602664690407305 ], [ 46.542839119982617, 31.26926711208225 ], [ 46.36932168329097, 30.817590288167683 ], [ 45.784069540522772, 30.696971012122848 ], [ 45.369127964540311, 31.027261089081314 ], [ 45.540290011527816, 31.481206304637738 ], [ 46.128873846046268, 31.602664690407305 ] ] ] ] } },
{ "type": "Feature", "properties": { "geogrid_id": "831356951044953198", "seqnum": 20864.0, "lat_c": 31.356951266916596, "lon_c": 44.953198358612099, "res": 8.0, "count_Ferns": 0, "count_Birds": 1, "count_Molluscs": 0, "count_Mosses": 0, "count_Flowering Plants": 4, "count_Mammals": 0, "count_Amphibians": 0, "count_Arachnids": 0, "count_Sac Fungi": 0, "count_Reptiles": 0, "count_Gymnosperms": 0, "count_Insects": 0, "count_Basidiomycota": 0, "unique_species_count": 5.0, "countryCode": "IQ" }, "geometry": { "type": "MultiPolygon", "coordinates": [ [ [ [ 45.124331553249789, 31.812090161251039 ], [ 45.540290011527816, 31.481206304637738 ], [ 45.369127964540311, 31.027261089081314 ], [ 44.78455042946414, 30.902127280261737 ], [ 44.367591971889254, 31.229906969158169 ], [ 44.536093181525317, 31.685868682588655 ], [ 45.124331553249789, 31.812090161251039 ] ] ] ] } },
{ "type": "Feature", "properties": { "geogrid_id": "831500275047722787", "seqnum": 21108.0, "lat_c": 31.500274944013885, "lon_c": 47.722786823495575, "res": 8.0, "count_Ferns": 0, "count_Birds": 1, "count_Molluscs": 0, "count_Mosses": 0, "count_Flowering Plants": 17, "count_Mammals": 0, "count_Amphibians": 0, "count_Arachnids": 0, "count_Sac Fungi": 0, "count_Reptiles": 0, "count_Gymnosperms": 0, "count_Insects": 0, "count_Basidiomycota": 0, "unique_species_count": 18.0, "countryCode": "IQ" }, "geometry": { "type": "MultiPolygon", "coordinates": [ [ [ [ 47.903718286150855, 31.950224863654689 ], [ 48.315197189396514, 31.61168364252806 ], [ 48.134840176857246, 31.163360083900585 ], [ 47.544653896996294, 31.050762651665931 ], [ 47.132016971359441, 31.386141918945153 ], [ 47.310567531450396, 31.837173948697554 ], [ 47.903718286150855, 31.950224863654689 ] ] ] ] } },
{ "type": "Feature", "properties": { "geogrid_id": "831721321046718961", "seqnum": 21027.0, "lat_c": 31.721321272147371, "lon_c": 46.718960830384837, "res": 8.0, "count_Ferns": 0, "count_Birds": 2, "count_Molluscs": 0, "count_Mosses": 0, "count_Flowering Plants": 6, "count_Mammals": 0, "count_Amphibians": 1, "count_Arachnids": 0, "count_Sac Fungi": 0, "count_Reptiles": 0, "count_Gymnosperms": 0, "count_Insects": 3, "count_Basidiomycota": 0, "unique_species_count": 12.0, "countryCode": "IQ" }, "geometry": { "type": "MultiPolygon", "coordinates": [ [ [ [ 46.89789464274692, 32.173756979038025 ], [ 47.310567531450396, 31.837173948697554 ], [ 47.132016971359441, 31.386141918945153 ], [ 46.542839119982617, 31.26926711208225 ], [ 46.128873846046268, 31.602664690407305 ], [ 46.305230415903047, 32.056043936656081 ], [ 46.89789464274692, 32.173756979038025 ] ] ] ] } },
{ "type": "Feature", "properties": { "geogrid_id": "831935485045714044", "seqnum": 20946.0, "lat_c": 31.935485369284329, "lon_c": 45.714043809769194, "res": 8.0, "count_Ferns": 0, "count_Birds": 0, "count_Molluscs": 0, "count_Mosses": 0, "count_Flowering Plants": 3, "count_Mammals": 0, "count_Amphibians": 0, "count_Arachnids": 0, "count_Sac Fungi": 0, "count_Reptiles": 1, "count_Gymnosperms": 0, "count_Insects": 2, "count_Basidiomycota": 0, "unique_species_count": 6.0, "countryCode": "IQ" }, "geometry": { "type": "MultiPolygon", "coordinates": [ [ [ [ 45.890589258193067, 32.390094171620092 ], [ 46.305230415903047, 32.056043936656081 ], [ 46.128873846046268, 31.602664690407305 ], [ 45.540290011527816, 31.481206304637738 ], [ 45.124331553249789, 31.812090161251039 ], [ 45.298136033932721, 32.267539915945406 ], [ 45.890589258193067, 32.390094171620092 ] ] ] ] } },
{ "type": "Feature", "properties": { "geogrid_id": "832142125044707149", "seqnum": 20865.0, "lat_c": 32.142125130325034, "lon_c": 44.707149291415064, "res": 8.0, "count_Ferns": 0, "count_Birds": 27, "count_Molluscs": 0, "count_Mosses": 0, "count_Flowering Plants": 12, "count_Mammals": 3, "count_Amphibians": 0, "count_Arachnids": 0, "count_Sac Fungi": 0, "count_Reptiles": 6, "count_Gymnosperms": 1, "count_Insects": 24, "count_Basidiomycota": 0, "unique_species_count": 73.0, "countryCode": "IQ" }, "geometry": { "type": "MultiPolygon", "coordinates": [ [ [ [ 44.880951367641551, 32.598666609201324 ], [ 45.298136033932721, 32.267539915945406 ], [ 45.124331553249789, 31.812090161251039 ], [ 44.536093181525317, 31.685868682588655 ], [ 44.117635707195078, 32.01386323160802 ], [ 44.288561491619511, 32.471166285951746 ], [ 44.880951367641551, 32.598666609201324 ] ] ] ] } },
{ "type": "Feature", "properties": { "geogrid_id": "832288618047492044", "seqnum": 21109.0, "lat_c": 32.288617635941371, "lon_c": 47.4920437696425, "res": 8.0, "count_Ferns": 0, "count_Birds": 0, "count_Molluscs": 0, "count_Mosses": 0, "count_Flowering Plants": 2, "count_Mammals": 0, "count_Amphibians": 0, "count_Arachnids": 0, "count_Sac Fungi": 0, "count_Reptiles": 0, "count_Gymnosperms": 0, "count_Insects": 0, "count_Basidiomycota": 0, "unique_species_count": 2.0, "countryCode": "IQ" }, "geometry": { "type": "MultiPolygon", "coordinates": [ [ [ [ 47.676699197504398, 32.740470921613678 ], [ 48.087690792080721, 32.400621869122432 ], [ 47.903718286150855, 31.950224863654689 ], [ 47.310567531450396, 31.837173948697554 ], [ 46.89789464274692, 32.173756979038025 ], [ 47.079873826542844, 32.62657095953363 ], [ 47.676699197504398, 32.740470921613678 ] ] ] ] } },
{ "type": "Feature", "properties": { "geogrid_id": "832340804043697659", "seqnum": 20784.0, "lat_c": 32.340803915192303, "lon_c": 43.697659029429929, "res": 8.0, "count_Ferns": 0, "count_Birds": 4, "count_Molluscs": 1, "count_Mosses": 0, "count_Flowering Plants": 6, "count_Mammals": 1, "count_Amphibians": 0, "count_Arachnids": 2, "count_Sac Fungi": 0, "count_Reptiles": 1, "count_Gymnosperms": 0, "count_Insects": 5, "count_Basidiomycota": 0, "unique_species_count": 20.0, "countryCode": "IQ" }, "geometry": { "type": "MultiPolygon", "coordinates": [ [ [ [ 43.868396902134684, 32.799087731151538 ], [ 44.288561491619511, 32.471166285951746 ], [ 44.117635707195078, 32.01386323160802 ], [ 43.529602492572479, 31.882768151104962 ], [ 43.1082547701956, 32.207594835990356 ], [ 43.276005156238234, 32.666575790604213 ], [ 43.868396902134684, 32.799087731151538 ] ] ] ] } },
{ "type": "Feature", "properties": { "geogrid_id": "832509775046484503", "seqnum": 21028.0, "lat_c": 32.509775144941969, "lon_c": 46.484503246500971, "res": 8.0, "count_Ferns": 0, "count_Birds": 1, "count_Molluscs": 0, "count_Mosses": 0, "count_Flowering Plants": 0, "count_Mammals": 0, "count_Amphibians": 0, "count_Arachnids": 0, "count_Sac Fungi": 0, "count_Reptiles": 1, "count_Gymnosperms": 0, "count_Insects": 0, "count_Basidiomycota": 0, "unique_species_count": 2.0, "countryCode": "IQ" }, "geometry": { "type": "MultiPolygon", "coordinates": [ [ [ [ 46.666933605195283, 32.963845686354752 ], [ 47.079873826542844, 32.62657095953363 ], [ 46.89789464274692, 32.173756979038025 ], [ 46.305230415903047, 32.056043936656081 ], [ 45.890589258193067, 32.390094171620092 ], [ 46.070148691051195, 32.845020961196056 ], [ 46.666933605195283, 32.963845686354752 ] ] ] ] } },
{ "type": "Feature", "properties": { "geogrid_id": "832713094041669294", "seqnum": 20622.0, "lat_c": 32.713093565826924, "lon_c": 41.669293619784177, "res": 8.0, "count_Ferns": 0, "count_Birds": 0, "count_Molluscs": 0, "count_Mosses": 0, "count_Flowering Plants": 1, "count_Mammals": 0, "count_Amphibians": 0, "count_Arachnids": 0, "count_Sac Fungi": 0, "count_Reptiles": 0, "count_Gymnosperms": 0, "count_Insects": 0, "count_Basidiomycota": 0, "unique_species_count": 1.0, "countryCode": "IQ" }, "geometry": { "type": "MultiPolygon", "coordinates": [ [ [ [ 41.833060413416888, 33.174419797494778 ], [ 42.260120101581109, 32.853509889892955 ], [ 42.09581471007084, 32.392996969892991 ], [ 41.508038782170352, 32.251962664627918 ], [ 41.08005593009559, 32.569845219105268 ], [ 41.240670852912658, 33.031765009202488 ], [ 41.833060413416888, 33.174419797494778 ] ] ] ] } },
{ "type": "Feature", "properties": { "geogrid_id": "832723290045474818", "seqnum": 20947.0, "lat_c": 32.723289776534131, "lon_c": 45.474817532525869, "res": 8.0, "count_Ferns": 0, "count_Birds": 1, "count_Molluscs": 0, "count_Mosses": 0, "count_Flowering Plants": 3, "count_Mammals": 0, "count_Amphibians": 0, "count_Arachnids": 0, "count_Sac Fungi": 0, "count_Reptiles": 0, "count_Gymnosperms": 0, "count_Insects": 1, "count_Basidiomycota": 0, "unique_species_count": 5.0, "countryCode": "IQ" }, "geometry": { "type": "MultiPolygon", "coordinates": [ [ [ [ 45.654604348943721, 33.179320491715998 ], [ 46.070148691051195, 32.845020961196056 ], [ 45.890589258193067, 32.390094171620092 ], [ 45.298136033932721, 32.267539915945406 ], [ 44.880951367641551, 32.598666609201324 ], [ 45.057710307048112, 33.055476023290055 ], [ 45.654604348943721, 33.179320491715998 ] ] ] ] } },
{ "type": "Feature", "properties": { "geogrid_id": "832886271040649916", "seqnum": 20541.0, "lat_c": 32.88627148733358, "lon_c": 40.649915523010684, "res": 8.0, "count_Ferns": 0, "count_Birds": 0, "count_Molluscs": 0, "count_Mosses": 0, "count_Flowering Plants": 1, "count_Mammals": 0, "count_Amphibians": 0, "count_Arachnids": 0, "count_Sac Fungi": 0, "count_Reptiles": 0, "count_Gymnosperms": 0, "count_Insects": 0, "count_Basidiomycota": 0, "unique_species_count": 1.0, "countryCode": "IQ" }, "geometry": { "type": "MultiPolygon", "coordinates": [ [ [ [ 40.809826564276484, 33.348939155193086 ], [ 41.240670852912658, 33.031765009202488 ], [ 41.08005593009559, 32.569845219105268 ], [ 40.492417272858496, 32.423781689959107 ], [ 40.060804132584387, 32.737956428980702 ], [ 40.217504475473014, 33.201172767736054 ], [ 40.809826564276484, 33.348939155193086 ] ] ] ] } },
{ "type": "Feature", "properties": { "geogrid_id": "832928726044462303", "seqnum": 20866.0, "lat_c": 32.928726478960243, "lon_c": 44.462303095304151, "res": 8.0, "count_Ferns": 0, "count_Birds": 92, "count_Molluscs": 4, "count_Mosses": 0, "count_Flowering Plants": 54, "count_Mammals": 7, "count_Amphibians": 3, "count_Arachnids": 4, "count_Sac Fungi": 0, "count_Reptiles": 8, "count_Gymnosperms": 1, "count_Insects": 31, "count_Basidiomycota": 0, "unique_species_count": 204.0, "countryCode": "IQ" }, "geometry": { "type": "MultiPolygon", "coordinates": [ [ [ [ 44.639075971087621, 33.386520725794078 ], [ 45.057710307048112, 33.055476023290055 ], [ 44.880951367641551, 32.598666609201324 ], [ 44.288561491619511, 32.471166285951746 ], [ 43.868396902134684, 32.799087731151538 ], [ 44.042015683721822, 33.257599395731376 ], [ 44.639075971087621, 33.386520725794078 ] ] ] ] } },
{ "type": "Feature", "properties": { "geogrid_id": "833050579039626876", "seqnum": 20460.0, "lat_c": 33.050578853139861, "lon_c": 39.626876400281972, "res": 8.0, "count_Ferns": 0, "count_Birds": 0, "count_Molluscs": 0, "count_Mosses": 0, "count_Flowering Plants": 2, "count_Mammals": 0, "count_Amphibians": 0, "count_Arachnids": 0, "count_Sac Fungi": 0, "count_Reptiles": 0, "count_Gymnosperms": 0, "count_Insects": 0, "count_Basidiomycota": 0, "unique_species_count": 2.0, "countryCode": "IQ" }, "geometry": { "type": "MultiPolygon", "coordinates": [ [ [ [ 39.782713822887175, 33.514485746195099 ], [ 40.217504475473014, 33.201172767736054 ], [ 40.060804132584387, 32.737956428980702 ], [ 39.47334546464139, 32.586837086847588 ], [ 39.037950135824666, 32.897175020693268 ], [ 39.190530753370766, 33.361588057665763 ], [ 39.782713822887175, 33.514485746195099 ] ] ] ] } },
{ "type": "Feature", "properties": { "geogrid_id": "833125779043446494", "seqnum": 20785.0, "lat_c": 33.125779456494641, "lon_c": 43.44649374425051, "res": 8.0, "count_Ferns": 0, "count_Birds": 2, "count_Molluscs": 1, "count_Mosses": 0, "count_Flowering Plants": 2, "count_Mammals": 2, "count_Amphibians": 0, "count_Arachnids": 0, "count_Sac Fungi": 0, "count_Reptiles": 2, "count_Gymnosperms": 0, "count_Insects": 0, "count_Basidiomycota": 0, "unique_species_count": 9.0, "countryCode": "IQ" }, "geometry": { "type": "MultiPolygon", "coordinates": [ [ [ [ 43.619923657124311, 33.585180848621079 ], [ 44.042015683721822, 33.257599395731376 ], [ 43.868396902134684, 32.799087731151538 ], [ 43.276005156238234, 32.666575790604213 ], [ 42.852524188341327, 32.991077418563918 ], [ 43.022698802072867, 33.451144726913682 ], [ 43.619923657124311, 33.585180848621079 ] ] ] ] } },
{ "type": "Feature", "properties": { "geogrid_id": "833300244046252970", "seqnum": 21029.0, "lat_c": 33.300244168975297, "lon_c": 46.252970323721051, "res": 8.0, "count_Ferns": 0, "count_Birds": 0, "count_Molluscs": 0, "count_Mosses": 0, "count_Flowering Plants": 0, "count_Mammals": 1, "count_Amphibians": 0, "count_Arachnids": 0, "count_Sac Fungi": 0, "count_Reptiles": 1, "count_Gymnosperms": 0, "count_Insects": 0, "count_Basidiomycota": 0, "unique_species_count": 2.0, "countryCode": "IQ" }, "geometry": { "type": "MultiPolygon", "coordinates": [ [ [ [ 46.439332329521292, 33.755729631982668 ], [ 46.852792695846112, 33.418231519577795 ], [ 46.666933605195283, 32.963845686354752 ], [ 46.070148691051195, 32.845020961196056 ], [ 45.654604348943721, 33.179320491715998 ], [ 45.837750700382713, 33.635602064853018 ], [ 46.439332329521292, 33.755729631982668 ] ] ] ] } },
{ "type": "Feature", "properties": { "geogrid_id": "833493860041403834", "seqnum": 20623.0, "lat_c": 33.493860457981825, "lon_c": 41.40383403425075, "res": 8.0, "count_Ferns": 0, "count_Birds": 0, "count_Molluscs": 0, "count_Mosses": 0, "count_Flowering Plants": 1, "count_Mammals": 0, "count_Amphibians": 0, "count_Arachnids": 0, "count_Sac Fungi": 0, "count_Reptiles": 0, "count_Gymnosperms": 0, "count_Insects": 0, "count_Basidiomycota": 0, "unique_species_count": 1.0, "countryCode": "IQ" }, "geometry": { "type": "MultiPolygon", "coordinates": [ [ [ [ 41.569726007010054, 33.956106319932836 ], [ 41.999517447996176, 33.635919180956151 ], [ 41.833060413416888, 33.174419797494778 ], [ 41.240670852912658, 33.031765009202488 ], [ 40.809826564276484, 33.348939155193086 ], [ 40.972318874538537, 33.811762822846781 ], [ 41.569726007010054, 33.956106319932836 ] ] ] ] } },
{ "type": "Feature", "properties": { "geogrid_id": "833512527045237660", "seqnum": 20948.0, "lat_c": 33.512527043833572, "lon_c": 45.237659621116258, "res": 8.0, "count_Ferns": 0, "count_Birds": 1, "count_Molluscs": 0, "count_Mosses": 0, "count_Flowering Plants": 2, "count_Mammals": 0, "count_Amphibians": 1, "count_Arachnids": 0, "count_Sac Fungi": 0, "count_Reptiles": 0, "count_Gymnosperms": 0, "count_Insects": 0, "count_Basidiomycota": 0, "unique_species_count": 4.0, "countryCode": "IQ" }, "geometry": { "type": "MultiPolygon", "coordinates": [ [ [ [ 45.421058681653747, 33.969781820037916 ], [ 45.837750700382713, 33.635602064853018 ], [ 45.654604348943721, 33.179320491715998 ], [ 45.057710307048112, 33.055476023290055 ], [ 44.639075971087621, 33.386520725794078 ], [ 44.819118162134231, 33.844516087919075 ], [ 45.421058681653747, 33.969781820037916 ] ] ] ] } },
{ "type": "Feature", "properties": { "geogrid_id": "833664550040376646", "seqnum": 20542.0, "lat_c": 33.664549990833734, "lon_c": 40.376645567296009, "res": 8.0, "count_Ferns": 0, "count_Birds": 0, "count_Molluscs": 0, "count_Mosses": 0, "count_Flowering Plants": 2, "count_Mammals": 0, "count_Amphibians": 0, "count_Arachnids": 0, "count_Sac Fungi": 0, "count_Reptiles": 0, "count_Gymnosperms": 0, "count_Insects": 0, "count_Basidiomycota": 0, "unique_species_count": 2.0, "countryCode": "IQ" }, "geometry": { "type": "MultiPolygon", "coordinates": [ [ [ [ 40.538397693875687, 34.128063762989591 ], [ 40.972318874538537, 33.811762822846781 ], [ 40.809826564276484, 33.348939155193086 ], [ 40.217504475473014, 33.201172767736054 ], [ 39.782713822887175, 33.514485746195099 ], [ 39.941016956335588, 33.978536708632532 ], [ 40.538397693875687, 34.128063762989591 ] ] ] ] } },
{ "type": "Feature", "properties": { "geogrid_id": "833716310044218735", "seqnum": 20867.0, "lat_c": 33.716310220475115, "lon_c": 44.21873483036137, "res": 8.0, "count_Ferns": 0, "count_Birds": 69, "count_Molluscs": 9, "count_Mosses": 0, "count_Flowering Plants": 57, "count_Mammals": 6, "count_Amphibians": 3, "count_Arachnids": 1, "count_Sac Fungi": 1, "count_Reptiles": 5, "count_Gymnosperms": 0, "count_Insects": 36, "count_Basidiomycota": 1, "unique_species_count": 188.0, "countryCode": "IQ" }, "geometry": { "type": "MultiPolygon", "coordinates": [ [ [ [ 44.398796306549158, 34.175181149326164 ], [ 44.819118162134231, 33.844516087919075 ], [ 44.639075971087621, 33.386520725794078 ], [ 44.042015683721822, 33.257599395731376 ], [ 43.619923657124311, 33.585180848621079 ], [ 43.79651785457456, 34.04474607865707 ], [ 44.398796306549158, 34.175181149326164 ] ] ] ] } },
{ "type": "Feature", "properties": { "geogrid_id": "833911379043195871", "seqnum": 20786.0, "lat_c": 33.911379282722194, "lon_c": 43.195870589432346, "res": 8.0, "count_Ferns": 0, "count_Birds": 0, "count_Molluscs": 0, "count_Mosses": 0, "count_Flowering Plants": 3, "count_Mammals": 0, "count_Amphibians": 0, "count_Arachnids": 0, "count_Sac Fungi": 0, "count_Reptiles": 0, "count_Gymnosperms": 0, "count_Insects": 2, "count_Basidiomycota": 0, "unique_species_count": 5.0, "countryCode": "IQ" }, "geometry": { "type": "MultiPolygon", "coordinates": [ [ [ [ 43.372265562902278, 34.371742408939966 ], [ 43.79651785457456, 34.04474607865707 ], [ 43.619923657124311, 33.585180848621079 ], [ 43.022698802072867, 33.451144726913682 ], [ 42.596866603752048, 33.775097902017933 ], [ 42.76970820308896, 34.236113892389831 ], [ 43.372265562902278, 34.371742408939966 ] ] ] ] } },
{ "type": "Feature", "properties": { "geogrid_id": "834097563042168859", "seqnum": 20705.0, "lat_c": 34.097562613178241, "lon_c": 42.168858686199499, "res": 8.0, "count_Ferns": 0, "count_Birds": 0, "count_Molluscs": 5, "count_Mosses": 0, "count_Flowering Plants": 1, "count_Mammals": 1, "count_Amphibians": 0, "count_Arachnids": 0, "count_Sac Fungi": 0, "count_Reptiles": 3, "count_Gymnosperms": 0, "count_Insects": 0, "count_Basidiomycota": 0, "unique_species_count": 10.0, "countryCode": "IQ" }, "geometry": { "type": "MultiPolygon", "coordinates": [ [ [ [ 42.341295564237669, 34.559312787167812 ], [ 42.76970820308896, 34.236113892389831 ], [ 42.596866603752048, 33.775097902017933 ], [ 41.999517447996176, 33.635919180956151 ], [ 41.569726007010054, 33.956106319932836 ], [ 41.738542935674189, 34.418470235036345 ], [ 42.341295564237669, 34.559312787167812 ] ] ] ] } },
{ "type": "Feature", "properties": { "geogrid_id": "834302667045002693", "seqnum": 20949.0, "lat_c": 34.302667467078308, "lon_c": 45.002693440189972, "res": 8.0, "count_Ferns": 0, "count_Birds": 0, "count_Molluscs": 0, "count_Mosses": 0, "count_Flowering Plants": 16, "count_Mammals": 1, "count_Amphibians": 0, "count_Arachnids": 0, "count_Sac Fungi": 0, "count_Reptiles": 0, "count_Gymnosperms": 0, "count_Insects": 0, "count_Basidiomycota": 0, "unique_species_count": 17.0, "countryCode": "IQ" }, "geometry": { "type": "MultiPolygon", "coordinates": [ [ [ [ 45.1900949529998, 34.760914754883444 ], [ 45.608196514312702, 34.427188124315258 ], [ 45.421058681653747, 33.969781820037916 ], [ 44.819118162134231, 33.844516087919075 ], [ 44.398796306549158, 34.175181149326164 ], [ 44.582467614447658, 34.634160455649635 ], [ 45.1900949529998, 34.760914754883444 ] ] ] ] } },
{ "type": "Feature", "properties": { "geogrid_id": "834504430043976522", "seqnum": 20868.0, "lat_c": 34.504430474794454, "lon_c": 43.976521676311599, "res": 8.0, "count_Ferns": 0, "count_Birds": 0, "count_Molluscs": 3, "count_Mosses": 0, "count_Flowering Plants": 29, "count_Mammals": 1, "count_Amphibians": 0, "count_Arachnids": 0, "count_Sac Fungi": 1, "count_Reptiles": 1, "count_Gymnosperms": 0, "count_Insects": 0, "count_Basidiomycota": 0, "unique_species_count": 35.0, "countryCode": "IQ" }, "geometry": { "type": "MultiPolygon", "coordinates": [ [ [ [ 44.160205762828326, 34.964176298096127 ], [ 44.582467614447658, 34.634160455649635 ], [ 44.398796306549158, 34.175181149326164 ], [ 43.79651785457456, 34.04474607865707 ], [ 43.372265562902278, 34.371742408939966 ], [ 43.552131949986851, 34.832184318001651 ], [ 44.160205762828326, 34.964176298096127 ] ] ] ] } },
{ "type": "Feature", "properties": { "geogrid_id": "834884676045799396", "seqnum": 21031.0, "lat_c": 34.884675782977716, "lon_c": 45.799396242977387, "res": 8.0, "count_Ferns": 3, "count_Birds": 15, "count_Molluscs": 0, "count_Mosses": 0, "count_Flowering Plants": 152, "count_Mammals": 4, "count_Amphibians": 2, "count_Arachnids": 3, "count_Sac Fungi": 0, "count_Reptiles": 5, "count_Gymnosperms": 0, "count_Insects": 42, "count_Basidiomycota": 1, "unique_species_count": 227.0, "countryCode": "IQ" }, "geometry": { "type": "MultiPolygon", "coordinates": [ [ [ [ 45.995020308338468, 35.342152200977928 ], [ 46.410365665148589, 35.005425903552712 ], [ 46.215292795325354, 34.548726337652774 ], [ 45.608196514312702, 34.427188124315258 ], [ 45.1900949529998, 34.760914754883444 ], [ 45.381649472083097, 35.21917930069219 ], [ 45.995020308338468, 35.342152200977928 ] ] ] ] } },
{ "type": "Feature", "properties": { "geogrid_id": "835093181044770045", "seqnum": 20950.0, "lat_c": 35.093180918386267, "lon_c": 44.770045296051578, "res": 8.0, "count_Ferns": 0, "count_Birds": 0, "count_Molluscs": 0, "count_Mosses": 0, "count_Flowering Plants": 19, "count_Mammals": 0, "count_Amphibians": 0, "count_Arachnids": 0, "count_Sac Fungi": 0, "count_Reptiles": 0, "count_Gymnosperms": 0, "count_Insects": 1, "count_Basidiomycota": 0, "unique_species_count": 20.0, "countryCode": "IQ" }, "geometry": { "type": "MultiPolygon", "coordinates": [ [ [ [ 44.961858988849457, 35.552156351279727 ], [ 45.381649472083097, 35.21917930069219 ], [ 45.1900949529998, 34.760914754883444 ], [ 44.582467614447658, 34.634160455649635 ], [ 44.160205762828326, 34.964176298096127 ], [ 44.34786941511846, 35.423909962888963 ], [ 44.961858988849457, 35.552156351279727 ] ] ] ] } },
{ "type": "Feature", "properties": { "geogrid_id": "835292642043735743", "seqnum": 20869.0, "lat_c": 35.292641860638035, "lon_c": 43.735743007196369, "res": 8.0, "count_Ferns": 0, "count_Birds": 0, "count_Molluscs": 0, "count_Mosses": 0, "count_Flowering Plants": 3, "count_Mammals": 0, "count_Amphibians": 0, "count_Arachnids": 0, "count_Sac Fungi": 0, "count_Reptiles": 0, "count_Gymnosperms": 0, "count_Insects": 0, "count_Basidiomycota": 0, "unique_species_count": 3.0, "countryCode": "IQ" }, "geometry": { "type": "MultiPolygon", "coordinates": [ [ [ [ 43.923400241529492, 35.753035804293013 ], [ 44.34786941511846, 35.423909962888963 ], [ 44.160205762828326, 34.964176298096127 ], [ 43.552131949986851, 34.832184318001651 ], [ 43.125473775850857, 35.158372721906204 ], [ 43.308923842946804, 35.619493168183027 ], [ 43.923400241529492, 35.753035804293013 ] ] ] ] } },
{ "type": "Feature", "properties": { "geogrid_id": "835462080046610164", "seqnum": 21113.0, "lat_c": 35.462079778379284, "lon_c": 46.610164314997398, "res": 8.0, "count_Ferns": 1, "count_Birds": 1, "count_Molluscs": 1, "count_Mosses": 0, "count_Flowering Plants": 87, "count_Mammals": 0, "count_Amphibians": 0, "count_Arachnids": 0, "count_Sac Fungi": 0, "count_Reptiles": 1, "count_Gymnosperms": 0, "count_Insects": 6, "count_Basidiomycota": 1, "unique_species_count": 98.0, "countryCode": "IQ" }, "geometry": { "type": "MultiPolygon", "coordinates": [ [ [ [ 46.81514800643329, 35.918543352333991 ], [ 47.227094494737521, 35.578941225911485 ], [ 47.022999956727681, 35.123147340950972 ], [ 46.410365665148589, 35.005425903552712 ], [ 45.995020308338468, 35.342152200977928 ], [ 46.19547660793792, 35.799496733906828 ], [ 46.81514800643329, 35.918543352333991 ] ] ] ] } },
{ "type": "Feature", "properties": { "geogrid_id": "835482934042696402", "seqnum": 20788.0, "lat_c": 35.482933701121681, "lon_c": 42.696401812509549, "res": 8.0, "count_Ferns": 0, "count_Birds": 2, "count_Molluscs": 0, "count_Mosses": 0, "count_Flowering Plants": 0, "count_Mammals": 0, "count_Amphibians": 0, "count_Arachnids": 0, "count_Sac Fungi": 0, "count_Reptiles": 0, "count_Gymnosperms": 0, "count_Insects": 0, "count_Basidiomycota": 0, "unique_species_count": 2.0, "countryCode": "IQ" }, "geometry": { "type": "MultiPolygon", "coordinates": [ [ [ [ 42.879601095221368, 35.944673619270212 ], [ 43.308923842946804, 35.619493168183027 ], [ 43.125473775850857, 35.158372721906204 ], [ 42.517059023613882, 35.021122671567525 ], [ 42.085825189665897, 35.343379388453876 ], [ 42.26477788231611, 35.805811747526086 ], [ 42.879601095221368, 35.944673619270212 ] ] ] ] } },
{ "type": "Feature", "properties": { "geogrid_id": "835677360045577722", "seqnum": 21032.0, "lat_c": 35.677359523055244, "lon_c": 45.577722348839913, "res": 8.0, "count_Ferns": 3, "count_Birds": 28, "count_Molluscs": 4, "count_Mosses": 1, "count_Flowering Plants": 650, "count_Mammals": 9, "count_Amphibians": 2, "count_Arachnids": 6, "count_Sac Fungi": 0, "count_Reptiles": 8, "count_Gymnosperms": 0, "count_Insects": 84, "count_Basidiomycota": 12, "unique_species_count": 807.0, "countryCode": "IQ" }, "geometry": { "type": "MultiPolygon", "coordinates": [ [ [ [ 45.778723306427416, 36.135325441726764 ], [ 46.19547660793792, 35.799496733906828 ], [ 45.995020308338468, 35.342152200977928 ], [ 45.381649472083097, 35.21917930069219 ], [ 44.961858988849457, 35.552156351279727 ], [ 45.158276129492798, 36.010977326249282 ], [ 45.778723306427416, 36.135325441726764 ] ] ] ] } },
{ "type": "Feature", "properties": { "geogrid_id": "835883539044539844", "seqnum": 20951.0, "lat_c": 35.883538645855275, "lon_c": 44.539844464680712, "res": 8.0, "count_Ferns": 3, "count_Birds": 19, "count_Molluscs": 15, "count_Mosses": 1, "count_Flowering Plants": 100, "count_Mammals": 6, "count_Amphibians": 0, "count_Arachnids": 0, "count_Sac Fungi": 0, "count_Reptiles": 4, "count_Gymnosperms": 1, "count_Insects": 26, "count_Basidiomycota": 0, "unique_species_count": 175.0, "countryCode": "IQ" }, "geometry": { "type": "MultiPolygon", "coordinates": [ [ [ [ 44.736499736550535, 36.342946139631835 ], [ 45.158276129492798, 36.010977326249282 ], [ 44.961858988849457, 35.552156351279727 ], [ 44.34786941511846, 35.423909962888963 ], [ 43.923400241529492, 35.753035804293013 ], [ 44.115437102587286, 36.21326753586473 ], [ 44.736499736550535, 36.342946139631835 ] ] ] ] } },
{ "type": "Feature", "properties": { "geogrid_id": "836080501043496480", "seqnum": 20870.0, "lat_c": 36.08050077701558, "lon_c": 43.496480467349386, "res": 8.0, "count_Ferns": 0, "count_Birds": 18, "count_Molluscs": 7, "count_Mosses": 0, "count_Flowering Plants": 88, "count_Mammals": 1, "count_Amphibians": 2, "count_Arachnids": 5, "count_Sac Fungi": 1, "count_Reptiles": 13, "count_Gymnosperms": 1, "count_Insects": 62, "count_Basidiomycota": 0, "unique_species_count": 198.0, "countryCode": "IQ" }, "geometry": { "type": "MultiPolygon", "coordinates": [ [ [ [ 43.688478224493814, 36.54129193688766 ], [ 44.115437102587286, 36.21326753586473 ], [ 43.923400241529492, 35.753035804293013 ], [ 43.308923842946804, 35.619493168183027 ], [ 42.879601095221368, 35.944673619270212 ], [ 43.066961413378735, 36.406253901332441 ], [ 43.688478224493814, 36.54129193688766 ] ] ] ] } },
{ "type": "Feature", "properties": { "geogrid_id": "836268133042447635", "seqnum": 20789.0, "lat_c": 36.268132529745756, "lon_c": 42.447635003220377, "res": 8.0, "count_Ferns": 0, "count_Birds": 1, "count_Molluscs": 3, "count_Mosses": 0, "count_Flowering Plants": 2, "count_Mammals": 0, "count_Amphibians": 0, "count_Arachnids": 0, "count_Sac Fungi": 1, "count_Reptiles": 0, "count_Gymnosperms": 0, "count_Insects": 0, "count_Basidiomycota": 0, "unique_species_count": 7.0, "countryCode": "IQ" }, "geometry": { "type": "MultiPolygon", "coordinates": [ [ [ [ 42.634702042125475, 36.730249481783424 ], [ 43.066961413378735, 36.406253901332441 ], [ 42.879601095221368, 35.944673619270212 ], [ 42.26477788231611, 35.805811747526086 ], [ 41.830470224456342, 36.126956597931361 ], [ 42.012892416750915, 36.589823940876883 ], [ 42.634702042125475, 36.730249481783424 ] ] ] ] } },
{ "type": "Feature", "properties": { "geogrid_id": "836446322041393353", "seqnum": 20708.0, "lat_c": 36.446322214909337, "lon_c": 41.393352836075195, "res": 8.0, "count_Ferns": 0, "count_Birds": 0, "count_Molluscs": 0, "count_Mosses": 0, "count_Flowering Plants": 8, "count_Mammals": 1, "count_Amphibians": 0, "count_Arachnids": 0, "count_Sac Fungi": 0, "count_Reptiles": 1, "count_Gymnosperms": 0, "count_Insects": 2, "count_Basidiomycota": 0, "unique_species_count": 12.0, "countryCode": "IQ" }, "geometry": { "type": "MultiPolygon", "coordinates": [ [ [ [ 41.575246091148692, 36.909705640926347 ], [ 42.012892416750915, 36.589823940876883 ], [ 41.830470224456342, 36.126956597931361 ], [ 41.215445093226144, 35.98275284851411 ], [ 40.776054790813433, 36.299773846111094 ], [ 40.95330489119965, 36.763865941543422 ], [ 41.575246091148692, 36.909705640926347 ] ] ] ] } },
{ "type": "Feature", "properties": { "geogrid_id": "836469506045359707", "seqnum": 21033.0, "lat_c": 36.469505889956743, "lon_c": 45.359707415739777, "res": 8.0, "count_Ferns": 1, "count_Birds": 5, "count_Molluscs": 1, "count_Mosses": 0, "count_Flowering Plants": 180, "count_Mammals": 1, "count_Amphibians": 2, "count_Arachnids": 4, "count_Sac Fungi": 0, "count_Reptiles": 6, "count_Gymnosperms": 0, "count_Insects": 45, "count_Basidiomycota": 0, "unique_species_count": 245.0, "countryCode": "IQ" }, "geometry": { "type": "MultiPolygon", "coordinates": [ [ [ [ 45.566613154529321, 36.927569018772076 ], [ 45.985113217092071, 36.592911844684572 ], [ 45.778723306427416, 36.135325441726764 ], [ 45.158276129492798, 36.010977326249282 ], [ 44.736499736550535, 36.342946139631835 ], [ 44.938246200802972, 36.801987770197627 ], [ 45.566613154529321, 36.927569018772076 ] ] ] ] } },
{ "type": "Feature", "properties": { "geogrid_id": "836673215044312223", "seqnum": 20952.0, "lat_c": 36.673215058196433, "lon_c": 44.312223217793857, "res": 8.0, "count_Ferns": 2, "count_Birds": 25, "count_Molluscs": 2, "count_Mosses": 0, "count_Flowering Plants": 279, "count_Mammals": 4, "count_Amphibians": 1, "count_Arachnids": 4, "count_Sac Fungi": 0, "count_Reptiles": 18, "count_Gymnosperms": 0, "count_Insects": 66, "count_Basidiomycota": 0, "unique_species_count": 401.0, "countryCode": "IQ" }, "geometry": { "type": "MultiPolygon", "coordinates": [ [ [ [ 44.514169253392801, 37.132728118008103 ], [ 44.938246200802972, 36.801987770197627 ], [ 44.736499736550535, 36.342946139631835 ], [ 44.115437102587286, 36.21326753586473 ], [ 43.688478224493814, 36.54129193688766 ], [ 43.885287053343873, 37.001739770912693 ], [ 44.514169253392801, 37.132728118008103 ] ] ] ] } },
{ "type": "Feature", "properties": { "geogrid_id": "836867567043258818", "seqnum": 20871.0, "lat_c": 36.867566670988282, "lon_c": 43.258818048476982, "res": 8.0, "count_Ferns": 3, "count_Birds": 38, "count_Molluscs": 1, "count_Mosses": 0, "count_Flowering Plants": 517, "count_Mammals": 9, "count_Amphibians": 5, "count_Arachnids": 8, "count_Sac Fungi": 0, "count_Reptiles": 10, "count_Gymnosperms": 1, "count_Insects": 91, "count_Basidiomycota": 3, "unique_species_count": 686.0, "countryCode": "IQ" }, "geometry": { "type": "MultiPolygon", "coordinates": [ [ [ [ 43.455540841483376, 37.328481003345843 ], [ 43.885287053343873, 37.001739770912693 ], [ 43.688478224493814, 36.54129193688766 ], [ 43.066961413378735, 36.406253901332441 ], [ 42.634702042125475, 36.730249481783424 ], [ 42.826314629386005, 37.192051138477758 ], [ 43.455540841483376, 37.328481003345843 ] ] ] ] } },
{ "type": "Feature", "properties": { "geogrid_id": "837052446042199568", "seqnum": 20790.0, "lat_c": 37.052445969642477, "lon_c": 42.199568096716519, "res": 8.0, "count_Ferns": 0, "count_Birds": 2, "count_Molluscs": 0, "count_Mosses": 0, "count_Flowering Plants": 52, "count_Mammals": 1, "count_Amphibians": 1, "count_Arachnids": 0, "count_Sac Fungi": 0, "count_Reptiles": 2, "count_Gymnosperms": 0, "count_Insects": 9, "count_Basidiomycota": 0, "unique_species_count": 67.0, "countryCode": "IQ" }, "geometry": { "type": "MultiPolygon", "coordinates": [ [ [ [ 42.390832940164309, 37.514708250001966 ], [ 42.826314629386005, 37.192051138477758 ], [ 42.634702042125475, 36.730249481783424 ], [ 42.012892416750915, 36.589823940876883 ], [ 41.575246091148692, 36.909705640926347 ], [ 41.76143134932159, 37.372805036793388 ], [ 42.390832940164309, 37.514708250001966 ] ] ] ] } },
{ "type": "Feature", "properties": { "geogrid_id": "837461689044087317", "seqnum": 20953.0, "lat_c": 37.461689479935202, "lon_c": 44.087316846689092, "res": 8.0, "count_Ferns": 1, "count_Birds": 0, "count_Molluscs": 0, "count_Mosses": 0, "count_Flowering Plants": 0, "count_Mammals": 0, "count_Amphibians": 0, "count_Arachnids": 1, "count_Sac Fungi": 0, "count_Reptiles": 0, "count_Gymnosperms": 0, "count_Insects": 0, "count_Basidiomycota": 0, "unique_species_count": 2.0, "countryCode": "IQ" }, "geometry": { "type": "MultiPolygon", "coordinates": [ [ [ [ 44.295022691028016, 37.920952701231236 ], [ 44.721732494672118, 37.591622263089988 ], [ 44.514169253392801, 37.132728118008103 ], [ 43.885287053343873, 37.001739770912693 ], [ 43.455540841483376, 37.328481003345843 ], [ 43.657538531726672, 37.788838483923911 ], [ 44.295022691028016, 37.920952701231236 ] ] ] ] } },
{ "type": "Feature", "properties": { "geogrid_id": "837653403043022842", "seqnum": 20872.0, "lat_c": 37.653403283155868, "lon_c": 43.022842167658851, "res": 8.0, "count_Ferns": 1, "count_Birds": 0, "count_Molluscs": 0, "count_Mosses": 0, "count_Flowering Plants": 4, "count_Mammals": 0, "count_Amphibians": 0, "count_Arachnids": 0, "count_Sac Fungi": 0, "count_Reptiles": 0, "count_Gymnosperms": 0, "count_Insects": 0, "count_Basidiomycota": 0, "unique_species_count": 5.0, "countryCode": "IQ" }, "geometry": { "type": "MultiPolygon", "coordinates": [ [ [ [ 43.224691937907657, 38.114144720251154 ], [ 43.657538531726672, 37.788838483923911 ], [ 43.455540841483376, 37.328481003345843 ], [ 42.826314629386005, 37.192051138477758 ], [ 42.390832940164309, 37.514708250001966 ], [ 42.5870556298322, 37.976473958164796 ], [ 43.224691937907657, 38.114144720251154 ] ] ] ] } }
]
}
