{
"type": "FeatureCollection",
"name": "IR",
"crs": { "type": "name", "properties": { "name": "urn:ogc:def:crs:OGC:1.3:CRS84" } },
"features": [
{ "type": "Feature", "properties": { "geogrid_id": "723780925059159011", "seqnum": 7332.0, "lat_c": 23.780925126549516, "lon_c": 59.159011244092746, "res": 7.0, "count_Flowering Plants": 0, "count_Reptiles": 0, "count_Gymnosperms": 0, "count_Arachnids": 0, "count_Birds": 1, "count_Mammals": 0, "count_Basidiomycota": 0, "count_Amphibians": 0, "count_Sac Fungi": 0, "count_Molluscs": 0, "count_Insects": 0, "count_Ferns": 0, "count_Mosses": 0, "unique_species_count": 1.0, "countryCode": "IR" }, "geometry": { "type": "MultiPolygon", "coordinates": [ [ [ [ 59.02310253233388, 24.637939874372261 ], [ 59.891520197081086, 24.232572381888605 ], [ 60.020965024087772, 23.373825456794272 ], [ 59.29336991726472, 22.923176837906652 ], [ 58.43092467077026, 23.33069200893738 ], [ 58.29002237501102, 24.187000581334559 ], [ 59.02310253233388, 24.637939874372261 ] ] ] ] } },
{ "type": "Feature", "properties": { "geogrid_id": "723825258060752780", "seqnum": 7387.0, "lat_c": 23.825258391424068, "lon_c": 60.752779622304054, "res": 7.0, "count_Flowering Plants": 0, "count_Reptiles": 0, "count_Gymnosperms": 0, "count_Arachnids": 0, "count_Birds": 1, "count_Mammals": 0, "count_Basidiomycota": 0, "count_Amphibians": 0, "count_Sac Fungi": 0, "count_Molluscs": 0, "count_Insects": 0, "count_Ferns": 0, "count_Mosses": 0, "unique_species_count": 1.0, "countryCode": "IR" }, "geometry": { "type": "MultiPolygon", "coordinates": [ [ [ [ 60.628270748118041, 24.685343435748585 ], [ 61.488669719591748, 24.277213179999734 ], [ 61.607120843306845, 23.415171634352863 ], [ 60.876070063664969, 22.964666914806298 ], [ 60.020965024087772, 23.373825456794272 ], [ 59.891520197081086, 24.232572381888605 ], [ 60.628270748118041, 24.685343435748585 ] ] ] ] } },
{ "type": "Feature", "properties": { "geogrid_id": "724983280054914183", "seqnum": 7197.0, "lat_c": 24.983279895551355, "lon_c": 54.914183456527731, "res": 7.0, "count_Flowering Plants": 0, "count_Reptiles": 1, "count_Gymnosperms": 0, "count_Arachnids": 0, "count_Birds": 0, "count_Mammals": 0, "count_Basidiomycota": 0, "count_Amphibians": 0, "count_Sac Fungi": 0, "count_Molluscs": 0, "count_Insects": 0, "count_Ferns": 0, "count_Mosses": 0, "unique_species_count": 1.0, "countryCode": "IR" }, "geometry": { "type": "MultiPolygon", "coordinates": [ [ [ [ 54.744920808495003, 25.842837205270747 ], [ 55.640653989546983, 25.417452915403494 ], [ 55.802799085730982, 24.561318868245554 ], [ 55.080870007377079, 24.124593334542311 ], [ 54.194429300162263, 24.555106262114556 ], [ 54.021237958766314, 25.419247983674349 ], [ 54.744920808495003, 25.842837205270747 ] ] ] ] } },
{ "type": "Feature", "properties": { "geogrid_id": "725003442053305398", "seqnum": 7143.0, "lat_c": 25.003441687592389, "lon_c": 53.305398443384902, "res": 7.0, "count_Flowering Plants": 0, "count_Reptiles": 1, "count_Gymnosperms": 0, "count_Arachnids": 0, "count_Birds": 0, "count_Mammals": 0, "count_Basidiomycota": 0, "count_Amphibians": 0, "count_Sac Fungi": 0, "count_Molluscs": 0, "count_Insects": 0, "count_Ferns": 0, "count_Mosses": 0, "unique_species_count": 1.0, "countryCode": "IR" }, "geometry": { "type": "MultiPolygon", "coordinates": [ [ [ [ 53.127276548132102, 25.878305887413941 ], [ 54.021237958766314, 25.419247983674349 ], [ 54.194429300162263, 24.555106262114556 ], [ 53.481780151110428, 24.133348353239086 ], [ 52.597873604565713, 24.595864541408865 ], [ 52.418239011940749, 25.48027775158986 ], [ 53.127276548132102, 25.878305887413941 ] ] ] ] } },
{ "type": "Feature", "properties": { "geogrid_id": "725042543058147322", "seqnum": 7306.0, "lat_c": 25.042543017960849, "lon_c": 58.147322278778979, "res": 7.0, "count_Flowering Plants": 2, "count_Reptiles": 3, "count_Gymnosperms": 0, "count_Arachnids": 0, "count_Birds": 24, "count_Mammals": 3, "count_Basidiomycota": 0, "count_Amphibians": 0, "count_Sac Fungi": 0, "count_Molluscs": 9, "count_Insects": 1, "count_Ferns": 0, "count_Mosses": 0, "unique_species_count": 42.0, "countryCode": "IR" }, "geometry": { "type": "MultiPolygon", "coordinates": [ [ [ [ 58.002716764322749, 25.897362548446765 ], [ 58.885542567092202, 25.494273494090404 ], [ 59.02310253233388, 24.637939874372261 ], [ 58.29002237501102, 24.187000581334559 ], [ 57.413885434939218, 24.593522347398594 ], [ 57.264066232341371, 25.448103681805648 ], [ 58.002716764322749, 25.897362548446765 ] ] ] ] } },
{ "type": "Feature", "properties": { "geogrid_id": "725090721059760651", "seqnum": 7360.0, "lat_c": 25.0907208606186, "lon_c": 59.760651221581426, "res": 7.0, "count_Flowering Plants": 1, "count_Reptiles": 4, "count_Gymnosperms": 0, "count_Arachnids": 0, "count_Birds": 18, "count_Mammals": 2, "count_Basidiomycota": 0, "count_Amphibians": 0, "count_Sac Fungi": 0, "count_Molluscs": 2, "count_Insects": 1, "count_Ferns": 0, "count_Mosses": 0, "unique_species_count": 28.0, "countryCode": "IR" }, "geometry": { "type": "MultiPolygon", "coordinates": [ [ [ [ 59.62825161768906, 25.948346089825137 ], [ 60.502433067895922, 25.545016873069901 ], [ 60.628270748118041, 24.685343435748585 ], [ 59.891520197081086, 24.232572381888605 ], [ 59.02310253233388, 24.637939874372261 ], [ 58.885542567092202, 25.494273494090404 ], [ 59.62825161768906, 25.948346089825137 ] ] ] ] } },
{ "type": "Feature", "properties": { "geogrid_id": "725138946061369075", "seqnum": 7414.0, "lat_c": 25.138946037827253, "lon_c": 61.36907494081774, "res": 7.0, "count_Flowering Plants": 2, "count_Reptiles": 14, "count_Gymnosperms": 0, "count_Arachnids": 1, "count_Birds": 47, "count_Mammals": 4, "count_Basidiomycota": 0, "count_Amphibians": 1, "count_Sac Fungi": 0, "count_Molluscs": 4, "count_Insects": 6, "count_Ferns": 0, "count_Mosses": 0, "unique_species_count": 79.0, "countryCode": "IR" }, "geometry": { "type": "MultiPolygon", "coordinates": [ [ [ [ 61.248203771190148, 26.000498813743071 ], [ 62.113737784602328, 25.593086878687338 ], [ 62.228485538340934, 24.729426463103746 ], [ 61.488669719591748, 24.277213179999734 ], [ 60.628270748118041, 24.685343435748585 ], [ 60.502433067895922, 25.545016873069901 ], [ 61.248203771190148, 26.000498813743071 ] ] ] ] } },
{ "type": "Feature", "properties": { "geogrid_id": "726273730055475937", "seqnum": 7225.0, "lat_c": 26.273730336844832, "lon_c": 55.475937122099069, "res": 7.0, "count_Flowering Plants": 10, "count_Reptiles": 9, "count_Gymnosperms": 0, "count_Arachnids": 2, "count_Birds": 97, "count_Mammals": 10, "count_Basidiomycota": 0, "count_Amphibians": 0, "count_Sac Fungi": 0, "count_Molluscs": 2, "count_Insects": 10, "count_Ferns": 0, "count_Mosses": 0, "unique_species_count": 140.0, "countryCode": "IR" }, "geometry": { "type": "MultiPolygon", "coordinates": [ [ [ [ 55.308558550248172, 27.130553440166366 ], [ 56.213739573889505, 26.711417890288615 ], [ 56.373426333403522, 25.85718796429429 ], [ 55.640653989546983, 25.417452915403494 ], [ 54.744920808495003, 25.842837205270747 ], [ 54.573084026539782, 26.703976031724736 ], [ 55.308558550248172, 27.130553440166366 ] ] ] ] } },
{ "type": "Feature", "properties": { "geogrid_id": "726286375053845764", "seqnum": 7170.0, "lat_c": 26.286374571453674, "lon_c": 53.845764462774326, "res": 7.0, "count_Flowering Plants": 8, "count_Reptiles": 6, "count_Gymnosperms": 0, "count_Arachnids": 1, "count_Birds": 37, "count_Mammals": 7, "count_Basidiomycota": 0, "count_Amphibians": 0, "count_Sac Fungi": 0, "count_Molluscs": 0, "count_Insects": 6, "count_Ferns": 0, "count_Mosses": 0, "unique_species_count": 65.0, "countryCode": "IR" }, "geometry": { "type": "MultiPolygon", "coordinates": [ [ [ [ 53.668435546466419, 27.158260841610073 ], [ 54.573084026539782, 26.703976031724736 ], [ 54.744920808495003, 25.842837205270747 ], [ 54.021237958766314, 25.419247983674349 ], [ 53.127276548132102, 25.878305887413941 ], [ 52.948292106848847, 26.760548968667809 ], [ 53.668435546466419, 27.158260841610073 ] ] ] ] } },
{ "type": "Feature", "properties": { "geogrid_id": "726302029057112061", "seqnum": 7279.0, "lat_c": 26.302028653703918, "lon_c": 57.112060793868906, "res": 7.0, "count_Flowering Plants": 14, "count_Reptiles": 4, "count_Gymnosperms": 0, "count_Arachnids": 3, "count_Birds": 63, "count_Mammals": 6, "count_Basidiomycota": 0, "count_Amphibians": 0, "count_Sac Fungi": 0, "count_Molluscs": 0, "count_Insects": 12, "count_Ferns": 0, "count_Mosses": 0, "unique_species_count": 102.0, "countryCode": "IR" }, "geometry": { "type": "MultiPolygon", "coordinates": [ [ [ [ 56.957744823381681, 27.155362625785443 ], [ 57.85609355237159, 26.751501770048925 ], [ 58.002716764322749, 25.897362548446765 ], [ 57.264066232341371, 25.448103681805648 ], [ 56.373426333403522, 25.85718796429429 ], [ 56.213739573889505, 26.711417890288615 ], [ 56.957744823381681, 27.155362625785443 ] ] ] ] } },
{ "type": "Feature", "properties": { "geogrid_id": "726349981058746225", "seqnum": 7333.0, "lat_c": 26.349980654270922, "lon_c": 58.746225078804592, "res": 7.0, "count_Flowering Plants": 9, "count_Reptiles": 1, "count_Gymnosperms": 0, "count_Arachnids": 1, "count_Birds": 1, "count_Mammals": 3, "count_Basidiomycota": 0, "count_Amphibians": 0, "count_Sac Fungi": 0, "count_Molluscs": 0, "count_Insects": 2, "count_Ferns": 0, "count_Mosses": 0, "unique_species_count": 17.0, "countryCode": "IR" }, "geometry": { "type": "MultiPolygon", "coordinates": [ [ [ [ 58.605037866804182, 27.205119677326511 ], [ 59.494205755963449, 26.805533311206624 ], [ 59.62825161768906, 25.948346089825137 ], [ 58.885542567092202, 25.494273494090404 ], [ 58.002716764322749, 25.897362548446765 ], [ 57.85609355237159, 26.751501770048925 ], [ 58.605037866804182, 27.205119677326511 ] ] ] ] } },
{ "type": "Feature", "properties": { "geogrid_id": "726375249052239189", "seqnum": 7116.0, "lat_c": 26.375248637415108, "lon_c": 52.239189448824028, "res": 7.0, "count_Flowering Plants": 0, "count_Reptiles": 1, "count_Gymnosperms": 0, "count_Arachnids": 0, "count_Birds": 0, "count_Mammals": 0, "count_Basidiomycota": 0, "count_Amphibians": 0, "count_Sac Fungi": 0, "count_Molluscs": 0, "count_Insects": 0, "count_Ferns": 0, "count_Mosses": 0, "unique_species_count": 1.0, "countryCode": "IR" }, "geometry": { "type": "MultiPolygon", "coordinates": [ [ [ [ 51.978760991031173, 27.079940784108597 ], [ 52.948292106848847, 26.760548968667809 ], [ 53.127276548132102, 25.878305887413941 ], [ 52.418239011940749, 25.48027775158986 ], [ 51.458824462906833, 25.795866526837468 ], [ 51.201097508724423, 26.512272907202313 ], [ 51.978760991031173, 27.079940784108597 ] ] ] ] } },
{ "type": "Feature", "properties": { "geogrid_id": "726404388060375143", "seqnum": 7388.0, "lat_c": 26.404388448090909, "lon_c": 60.37514300419307, "res": 7.0, "count_Flowering Plants": 0, "count_Reptiles": 5, "count_Gymnosperms": 0, "count_Arachnids": 0, "count_Birds": 26, "count_Mammals": 6, "count_Basidiomycota": 0, "count_Amphibians": 2, "count_Sac Fungi": 0, "count_Molluscs": 1, "count_Insects": 5, "count_Ferns": 0, "count_Mosses": 0, "unique_species_count": 45.0, "countryCode": "IR" }, "geometry": { "type": "MultiPolygon", "coordinates": [ [ [ [ 60.24625818365427, 27.263589416046688 ], [ 61.125899092023147, 26.86202499676326 ], [ 61.248203771190148, 26.000498813743071 ], [ 60.502433067895922, 25.545016873069901 ], [ 59.62825161768906, 25.948346089825137 ], [ 59.494205755963449, 26.805533311206624 ], [ 60.24625818365427, 27.263589416046688 ] ] ] ] } },
{ "type": "Feature", "properties": { "geogrid_id": "726456836061997710", "seqnum": 7442.0, "lat_c": 26.456836267984489, "lon_c": 61.997710418905562, "res": 7.0, "count_Flowering Plants": 3, "count_Reptiles": 6, "count_Gymnosperms": 0, "count_Arachnids": 3, "count_Birds": 15, "count_Mammals": 3, "count_Basidiomycota": 0, "count_Amphibians": 0, "count_Sac Fungi": 0, "count_Molluscs": 0, "count_Insects": 3, "count_Ferns": 0, "count_Mosses": 0, "unique_species_count": 33.0, "countryCode": "IR" }, "geometry": { "type": "MultiPolygon", "coordinates": [ [ [ [ 61.880191637058701, 27.320878438093636 ], [ 62.750691837852294, 26.913698634716557 ], [ 62.862057420092555, 26.047472454510103 ], [ 62.113737784602328, 25.593086878687338 ], [ 61.248203771190148, 26.000498813743071 ], [ 61.125899092023147, 26.86202499676326 ], [ 61.880191637058701, 27.320878438093636 ] ] ] ] } },
{ "type": "Feature", "properties": { "geogrid_id": "727241208050946413", "seqnum": 7089.0, "lat_c": 27.241208002087976, "lon_c": 50.946413013827367, "res": 7.0, "count_Flowering Plants": 0, "count_Reptiles": 0, "count_Gymnosperms": 0, "count_Arachnids": 0, "count_Birds": 2, "count_Mammals": 1, "count_Basidiomycota": 0, "count_Amphibians": 0, "count_Sac Fungi": 0, "count_Molluscs": 5, "count_Insects": 0, "count_Ferns": 0, "count_Mosses": 0, "unique_species_count": 8.0, "countryCode": "IR" }, "geometry": { "type": "MultiPolygon", "coordinates": [ [ [ [ 50.695167496166349, 27.981838684223153 ], [ 51.722066666906258, 27.799862570399338 ], [ 51.978760991031173, 27.079940784108597 ], [ 51.201097508724423, 26.512272907202313 ], [ 50.18152073941679, 26.68258277918207 ], [ 49.93057730736539, 27.427699571409363 ], [ 50.695167496166349, 27.981838684223153 ] ] ] ] } },
{ "type": "Feature", "properties": { "geogrid_id": "727565504056051455", "seqnum": 7252.0, "lat_c": 27.56550396960986, "lon_c": 56.051455225691576, "res": 7.0, "count_Flowering Plants": 63, "count_Reptiles": 22, "count_Gymnosperms": 1, "count_Arachnids": 17, "count_Birds": 126, "count_Mammals": 13, "count_Basidiomycota": 0, "count_Amphibians": 2, "count_Sac Fungi": 3, "count_Molluscs": 9, "count_Insects": 44, "count_Ferns": 1, "count_Mosses": 0, "unique_species_count": 301.0, "countryCode": "IR" }, "geometry": { "type": "MultiPolygon", "coordinates": [ [ [ [ 55.886449250493712, 28.419730298819911 ], [ 56.800987690488604, 28.008182583242419 ], [ 56.957744823381681, 27.155362625785443 ], [ 56.213739573889505, 26.711417890288615 ], [ 55.308558550248172, 27.130553440166366 ], [ 55.138470320848967, 27.98854025881985 ], [ 55.886449250493712, 28.419730298819911 ] ] ] ] } },
{ "type": "Feature", "properties": { "geogrid_id": "727567809054398799", "seqnum": 7198.0, "lat_c": 27.567808709878065, "lon_c": 54.398798983644767, "res": 7.0, "count_Flowering Plants": 5, "count_Reptiles": 2, "count_Gymnosperms": 0, "count_Arachnids": 3, "count_Birds": 8, "count_Mammals": 13, "count_Basidiomycota": 0, "count_Amphibians": 1, "count_Sac Fungi": 0, "count_Molluscs": 0, "count_Insects": 29, "count_Ferns": 0, "count_Mosses": 0, "unique_species_count": 61.0, "countryCode": "IR" }, "geometry": { "type": "MultiPolygon", "coordinates": [ [ [ [ 54.222469112724305, 28.436198189599743 ], [ 55.138470320848967, 27.98854025881985 ], [ 55.308558550248172, 27.130553440166366 ], [ 54.573084026539782, 26.703976031724736 ], [ 53.668435546466419, 27.158260841610073 ], [ 53.490242127943368, 28.037893154703234 ], [ 54.222469112724305, 28.436198189599743 ] ] ] ] } },
{ "type": "Feature", "properties": { "geogrid_id": "727605003057707335", "seqnum": 7307.0, "lat_c": 27.605002648403101, "lon_c": 57.707335324959111, "res": 7.0, "count_Flowering Plants": 18, "count_Reptiles": 9, "count_Gymnosperms": 0, "count_Arachnids": 0, "count_Birds": 41, "count_Mammals": 13, "count_Basidiomycota": 0, "count_Amphibians": 3, "count_Sac Fungi": 0, "count_Molluscs": 0, "count_Insects": 38, "count_Ferns": 0, "count_Mosses": 0, "unique_species_count": 122.0, "countryCode": "IR" }, "geometry": { "type": "MultiPolygon", "coordinates": [ [ [ [ 57.556319319288662, 28.457906515820433 ], [ 58.461861502473838, 28.059754844646072 ], [ 58.605037866804182, 27.205119677326511 ], [ 57.85609355237159, 26.751501770048925 ], [ 56.957744823381681, 27.155362625785443 ], [ 56.800987690488604, 28.008182583242419 ], [ 57.556319319288662, 28.457906515820433 ] ] ] ] } },
{ "type": "Feature", "properties": { "geogrid_id": "727654561052770299", "seqnum": 7144.0, "lat_c": 27.654560644055195, "lon_c": 52.770299178358805, "res": 7.0, "count_Flowering Plants": 15, "count_Reptiles": 5, "count_Gymnosperms": 0, "count_Arachnids": 2, "count_Birds": 21, "count_Mammals": 1, "count_Basidiomycota": 0, "count_Amphibians": 1, "count_Sac Fungi": 0, "count_Molluscs": 0, "count_Insects": 5, "count_Ferns": 0, "count_Mosses": 0, "unique_species_count": 50.0, "countryCode": "IR" }, "geometry": { "type": "MultiPolygon", "coordinates": [ [ [ [ 52.510197618069128, 28.361269143363444 ], [ 53.490242127943368, 28.037893154703234 ], [ 53.668435546466419, 27.158260841610073 ], [ 52.948292106848847, 26.760548968667809 ], [ 51.978760991031173, 27.079940784108597 ], [ 51.722066666906258, 27.799862570399338 ], [ 52.510197618069128, 28.361269143363444 ] ] ] ] } },
{ "type": "Feature", "properties": { "geogrid_id": "727662383059358385", "seqnum": 7361.0, "lat_c": 27.662382890727681, "lon_c": 59.358385465878811, "res": 7.0, "count_Flowering Plants": 6, "count_Reptiles": 6, "count_Gymnosperms": 0, "count_Arachnids": 0, "count_Birds": 0, "count_Mammals": 0, "count_Basidiomycota": 0, "count_Amphibians": 1, "count_Sac Fungi": 0, "count_Molluscs": 0, "count_Insects": 1, "count_Ferns": 0, "count_Mosses": 0, "unique_species_count": 14.0, "countryCode": "IR" }, "geometry": { "type": "MultiPolygon", "coordinates": [ [ [ [ 59.220644278005523, 28.519018614527194 ], [ 60.11560813113757, 28.122782791877331 ], [ 60.24625818365427, 27.263589416046688 ], [ 59.494205755963449, 26.805533311206624 ], [ 58.605037866804182, 27.205119677326511 ], [ 58.461861502473838, 28.059754844646072 ], [ 59.220644278005523, 28.519018614527194 ] ] ] ] } },
{ "type": "Feature", "properties": { "geogrid_id": "727723713061001968", "seqnum": 7415.0, "lat_c": 27.723713446212983, "lon_c": 61.001967538950957, "res": 7.0, "count_Flowering Plants": 5, "count_Reptiles": 14, "count_Gymnosperms": 0, "count_Arachnids": 0, "count_Birds": 13, "count_Mammals": 5, "count_Basidiomycota": 0, "count_Amphibians": 2, "count_Sac Fungi": 0, "count_Molluscs": 0, "count_Insects": 6, "count_Ferns": 0, "count_Mosses": 0, "unique_species_count": 45.0, "countryCode": "IR" }, "geometry": { "type": "MultiPolygon", "coordinates": [ [ [ [ 60.876159457976179, 28.585804453160812 ], [ 61.760905871404205, 28.185467503887914 ], [ 61.880191637058701, 27.320878438093636 ], [ 61.125899092023147, 26.86202499676326 ], [ 60.24625818365427, 27.263589416046688 ], [ 60.11560813113757, 28.122782791877331 ], [ 60.876159457976179, 28.585804453160812 ] ] ] ] } },
{ "type": "Feature", "properties": { "geogrid_id": "727780571062637682", "seqnum": 7470.0, "lat_c": 27.780571258532404, "lon_c": 62.637682445652231, "res": 7.0, "count_Flowering Plants": 2, "count_Reptiles": 1, "count_Gymnosperms": 0, "count_Arachnids": 0, "count_Birds": 1, "count_Mammals": 0, "count_Basidiomycota": 0, "count_Amphibians": 0, "count_Sac Fungi": 0, "count_Molluscs": 0, "count_Insects": 1, "count_Ferns": 0, "count_Mosses": 0, "unique_species_count": 5.0, "countryCode": "IR" }, "geometry": { "type": "MultiPolygon", "coordinates": [ [ [ [ 62.52263328297056, 28.648413387129395 ], [ 63.398024094076057, 28.240727245566408 ], [ 63.506878985027157, 27.370756264192156 ], [ 62.750691837852294, 26.913698634716557 ], [ 61.880191637058701, 27.320878438093636 ], [ 61.760905871404205, 28.185467503887914 ], [ 62.52263328297056, 28.648413387129395 ] ] ] ] } },
{ "type": "Feature", "properties": { "geogrid_id": "728533998051469664", "seqnum": 7117.0, "lat_c": 28.533997671073099, "lon_c": 51.469663673196315, "res": 7.0, "count_Flowering Plants": 264, "count_Reptiles": 17, "count_Gymnosperms": 0, "count_Arachnids": 2, "count_Birds": 53, "count_Mammals": 15, "count_Basidiomycota": 1, "count_Amphibians": 1, "count_Sac Fungi": 0, "count_Molluscs": 1, "count_Insects": 11, "count_Ferns": 2, "count_Mosses": 0, "unique_species_count": 367.0, "countryCode": "IR" }, "geometry": { "type": "MultiPolygon", "coordinates": [ [ [ [ 51.222129159653889, 29.281216195829472 ], [ 52.255347717717164, 29.085725727493866 ], [ 52.510197618069128, 28.361269143363444 ], [ 51.722066666906258, 27.799862570399338 ], [ 50.695167496166349, 27.981838684223153 ], [ 50.447770461727004, 28.733259499894281 ], [ 51.222129159653889, 29.281216195829472 ] ] ] ] } },
{ "type": "Feature", "properties": { "geogrid_id": "728848712054965727", "seqnum": 7226.0, "lat_c": 28.848712368558246, "lon_c": 54.965727012759032, "res": 7.0, "count_Flowering Plants": 13, "count_Reptiles": 1, "count_Gymnosperms": 1, "count_Arachnids": 1, "count_Birds": 18, "count_Mammals": 7, "count_Basidiomycota": 0, "count_Amphibians": 1, "count_Sac Fungi": 0, "count_Molluscs": 0, "count_Insects": 34, "count_Ferns": 0, "count_Mosses": 0, "unique_species_count": 76.0, "countryCode": "IR" }, "geometry": { "type": "MultiPolygon", "coordinates": [ [ [ [ 54.790647678708709, 29.71291669124312 ], [ 55.718614936632477, 29.274549800230837 ], [ 55.886449250493712, 28.419730298819911 ], [ 55.138470320848967, 27.98854025881985 ], [ 54.222469112724305, 28.436198189599743 ], [ 54.045173607135808, 29.31253923200547 ], [ 54.790647678708709, 29.71291669124312 ] ] ] ] } },
{ "type": "Feature", "properties": { "geogrid_id": "728860586056641652", "seqnum": 7280.0, "lat_c": 28.86058609335554, "lon_c": 56.641651880312374, "res": 7.0, "count_Flowering Plants": 21, "count_Reptiles": 6, "count_Gymnosperms": 1, "count_Arachnids": 1, "count_Birds": 1, "count_Mammals": 1, "count_Basidiomycota": 0, "count_Amphibians": 2, "count_Sac Fungi": 1, "count_Molluscs": 0, "count_Insects": 27, "count_Ferns": 0, "count_Mosses": 0, "unique_species_count": 61.0, "countryCode": "IR" }, "geometry": { "type": "MultiPolygon", "coordinates": [ [ [ [ 56.479592730866486, 29.71270941727904 ], [ 57.402916889590294, 29.310254066949689 ], [ 57.556319319288662, 28.457906515820433 ], [ 56.800987690488604, 28.008182583242419 ], [ 55.886449250493712, 28.419730298819911 ], [ 55.718614936632477, 29.274549800230837 ], [ 56.479592730866486, 29.71270941727904 ] ] ] ] } },
{ "type": "Feature", "properties": { "geogrid_id": "728913960058316567", "seqnum": 7334.0, "lat_c": 28.913960385158614, "lon_c": 58.316567227449028, "res": 7.0, "count_Flowering Plants": 29, "count_Reptiles": 2, "count_Gymnosperms": 0, "count_Arachnids": 0, "count_Birds": 16, "count_Mammals": 9, "count_Basidiomycota": 0, "count_Amphibians": 0, "count_Sac Fungi": 0, "count_Molluscs": 0, "count_Insects": 17, "count_Ferns": 0, "count_Mosses": 0, "unique_species_count": 73.0, "countryCode": "IR" }, "geometry": { "type": "MultiPolygon", "coordinates": [ [ [ [ 58.169013178291451, 29.767827785522183 ], [ 59.080806956353747, 29.375601852718649 ], [ 59.220644278005523, 28.519018614527194 ], [ 58.461861502473838, 28.059754844646072 ], [ 57.556319319288662, 28.457906515820433 ], [ 57.402916889590294, 29.310254066949689 ], [ 58.169013178291451, 29.767827785522183 ] ] ] ] } },
{ "type": "Feature", "properties": { "geogrid_id": "728930717053313508", "seqnum": 7171.0, "lat_c": 28.930717222371719, "lon_c": 53.313508395827327, "res": 7.0, "count_Flowering Plants": 15, "count_Reptiles": 12, "count_Gymnosperms": 0, "count_Arachnids": 5, "count_Birds": 32, "count_Mammals": 14, "count_Basidiomycota": 0, "count_Amphibians": 3, "count_Sac Fungi": 0, "count_Molluscs": 0, "count_Insects": 14, "count_Ferns": 0, "count_Mosses": 0, "unique_species_count": 95.0, "countryCode": "IR" }, "geometry": { "type": "MultiPolygon", "coordinates": [ [ [ [ 53.05424092554631, 29.640078563400063 ], [ 54.045173607135808, 29.31253923200547 ], [ 54.222469112724305, 28.436198189599743 ], [ 53.490242127943368, 28.037893154703234 ], [ 52.510197618069128, 28.361269143363444 ], [ 52.255347717717164, 29.085725727493866 ], [ 53.05424092554631, 29.640078563400063 ] ] ] ] } },
{ "type": "Feature", "properties": { "geogrid_id": "728982180059982978", "seqnum": 7389.0, "lat_c": 28.982179846939118, "lon_c": 59.982977937383112, "res": 7.0, "count_Flowering Plants": 2, "count_Reptiles": 2, "count_Gymnosperms": 0, "count_Arachnids": 2, "count_Birds": 3, "count_Mammals": 0, "count_Basidiomycota": 0, "count_Amphibians": 3, "count_Sac Fungi": 0, "count_Molluscs": 0, "count_Insects": 2, "count_Ferns": 0, "count_Mosses": 0, "unique_species_count": 14.0, "countryCode": "IR" }, "geometry": { "type": "MultiPolygon", "coordinates": [ [ [ [ 59.848077792414799, 29.842067734388319 ], [ 60.748133308488278, 29.448615079530367 ], [ 60.876159457976179, 28.585804453160812 ], [ 60.11560813113757, 28.122782791877331 ], [ 59.220644278005523, 28.519018614527194 ], [ 59.080806956353747, 29.375601852718649 ], [ 59.848077792414799, 29.842067734388319 ] ] ] ] } },
{ "type": "Feature", "properties": { "geogrid_id": "729050930061639477", "seqnum": 7443.0, "lat_c": 29.050929536055616, "lon_c": 61.639476784301692, "res": 7.0, "count_Flowering Plants": 13, "count_Reptiles": 6, "count_Gymnosperms": 0, "count_Arachnids": 0, "count_Birds": 4, "count_Mammals": 6, "count_Basidiomycota": 0, "count_Amphibians": 1, "count_Sac Fungi": 0, "count_Molluscs": 0, "count_Insects": 1, "count_Ferns": 0, "count_Mosses": 0, "unique_species_count": 31.0, "countryCode": "IR" }, "geometry": { "type": "MultiPolygon", "coordinates": [ [ [ [ 61.51536122199812, 29.917695779196141 ], [ 62.404983272778921, 29.517639226595126 ], [ 62.52263328297056, 28.648413387129395 ], [ 61.760905871404205, 28.185467503887914 ], [ 60.876159457976179, 28.585804453160812 ], [ 60.748133308488278, 29.448615079530367 ], [ 61.51536122199812, 29.917695779196141 ] ] ] ] } },
{ "type": "Feature", "properties": { "geogrid_id": "729494497050204643", "seqnum": 7090.0, "lat_c": 29.494496801316473, "lon_c": 50.204643090798655, "res": 7.0, "count_Flowering Plants": 12, "count_Reptiles": 1, "count_Gymnosperms": 0, "count_Arachnids": 2, "count_Birds": 10, "count_Mammals": 5, "count_Basidiomycota": 0, "count_Amphibians": 0, "count_Sac Fungi": 0, "count_Molluscs": 0, "count_Insects": 2, "count_Ferns": 0, "count_Mosses": 0, "unique_species_count": 32.0, "countryCode": "IR" }, "geometry": { "type": "MultiPolygon", "coordinates": [ [ [ [ 49.966216757532216, 30.264513906737921 ], [ 50.980057317007407, 30.040280547933094 ], [ 51.222129159653889, 29.281216195829472 ], [ 50.447770461727004, 28.733259499894281 ], [ 49.437955398800078, 28.944414906609694 ], [ 49.196886334997174, 29.714406379591846 ], [ 49.966216757532216, 30.264513906737921 ] ] ] ] } },
{ "type": "Feature", "properties": { "geogrid_id": "729826499052006579", "seqnum": 7145.0, "lat_c": 29.826498763789679, "lon_c": 52.006579469444098, "res": 7.0, "count_Flowering Plants": 292, "count_Reptiles": 22, "count_Gymnosperms": 5, "count_Arachnids": 16, "count_Birds": 100, "count_Mammals": 28, "count_Basidiomycota": 0, "count_Amphibians": 3, "count_Sac Fungi": 2, "count_Molluscs": 4, "count_Insects": 78, "count_Ferns": 3, "count_Mosses": 0, "unique_species_count": 553.0, "countryCode": "IR" }, "geometry": { "type": "MultiPolygon", "coordinates": [ [ [ [ 51.764749632029137, 30.581975841919771 ], [ 52.802480438432013, 30.370583624440751 ], [ 53.05424092554631, 29.640078563400063 ], [ 52.255347717717164, 29.085725727493866 ], [ 51.222129159653889, 29.281216195829472 ], [ 50.980057317007407, 30.040280547933094 ], [ 51.764749632029137, 30.581975841919771 ] ] ] ] } },
{ "type": "Feature", "properties": { "geogrid_id": "730130760055547903", "seqnum": 7253.0, "lat_c": 30.130760393152812, "lon_c": 55.547903446947124, "res": 7.0, "count_Flowering Plants": 10, "count_Reptiles": 9, "count_Gymnosperms": 0, "count_Arachnids": 0, "count_Birds": 16, "count_Mammals": 6, "count_Basidiomycota": 0, "count_Amphibians": 0, "count_Sac Fungi": 0, "count_Molluscs": 0, "count_Insects": 11, "count_Ferns": 0, "count_Mosses": 0, "unique_species_count": 52.0, "countryCode": "IR" }, "geometry": { "type": "MultiPolygon", "coordinates": [ [ [ [ 55.374456518330909, 30.989956107729302 ], [ 56.314659614065668, 30.564767894213549 ], [ 56.479592730866486, 29.71270941727904 ], [ 55.718614936632477, 29.274549800230837 ], [ 54.790647678708709, 29.71291669124312 ], [ 54.614313399608697, 30.584904026392046 ], [ 55.374456518330909, 30.989956107729302 ] ] ] ] } },
{ "type": "Feature", "properties": { "geogrid_id": "730162085057246993", "seqnum": 7308.0, "lat_c": 30.162085351603029, "lon_c": 57.246993033581958, "res": 7.0, "count_Flowering Plants": 70, "count_Reptiles": 16, "count_Gymnosperms": 0, "count_Arachnids": 5, "count_Birds": 12, "count_Mammals": 14, "count_Basidiomycota": 2, "count_Amphibians": 1, "count_Sac Fungi": 0, "count_Molluscs": 4, "count_Insects": 38, "count_Ferns": 0, "count_Mosses": 0, "unique_species_count": 162.0, "countryCode": "IR" }, "geometry": { "type": "MultiPolygon", "coordinates": [ [ [ [ 57.088405879766107, 31.013439764514121 ], [ 58.019036776532495, 30.621480169457509 ], [ 58.169013178291451, 29.767827785522183 ], [ 57.402916889590294, 29.310254066949689 ], [ 56.479592730866486, 29.71270941727904 ], [ 56.314659614065668, 30.564767894213549 ], [ 57.088405879766107, 31.013439764514121 ] ] ] ] } },
{ "type": "Feature", "properties": { "geogrid_id": "730203740053869851", "seqnum": 7199.0, "lat_c": 30.203739842698152, "lon_c": 53.869850926607995, "res": 7.0, "count_Flowering Plants": 18, "count_Reptiles": 6, "count_Gymnosperms": 0, "count_Arachnids": 0, "count_Birds": 51, "count_Mammals": 9, "count_Basidiomycota": 0, "count_Amphibians": 0, "count_Sac Fungi": 1, "count_Molluscs": 0, "count_Insects": 2, "count_Ferns": 0, "count_Mosses": 0, "unique_species_count": 87.0, "countryCode": "IR" }, "geometry": { "type": "MultiPolygon", "coordinates": [ [ [ [ 53.612191019035663, 30.916767700816202 ], [ 54.614313399608697, 30.584904026392046 ], [ 54.790647678708709, 29.71291669124312 ], [ 54.045173607135808, 29.31253923200547 ], [ 53.05424092554631, 29.640078563400063 ], [ 52.802480438432013, 30.370583624440751 ], [ 53.612191019035663, 30.916767700816202 ] ] ] ] } },
{ "type": "Feature", "properties": { "geogrid_id": "730232357058938649", "seqnum": 7362.0, "lat_c": 30.232357051607817, "lon_c": 58.938648922771662, "res": 7.0, "count_Flowering Plants": 0, "count_Reptiles": 1, "count_Gymnosperms": 0, "count_Arachnids": 3, "count_Birds": 0, "count_Mammals": 0, "count_Basidiomycota": 0, "count_Amphibians": 0, "count_Sac Fungi": 0, "count_Molluscs": 0, "count_Insects": 1, "count_Ferns": 0, "count_Mosses": 0, "unique_species_count": 5.0, "countryCode": "IR" }, "geometry": { "type": "MultiPolygon", "coordinates": [ [ [ [ 58.793851882927243, 31.089620638965506 ], [ 59.71048190340511, 30.702857911482216 ], [ 59.848077792414799, 29.842067734388319 ], [ 59.080806956353747, 29.375601852718649 ], [ 58.169013178291451, 29.767827785522183 ], [ 58.019036776532495, 30.621480169457509 ], [ 58.793851882927243, 31.089620638965506 ] ] ] ] } },
{ "type": "Feature", "properties": { "geogrid_id": "730312580060617389", "seqnum": 7416.0, "lat_c": 30.312580447671834, "lon_c": 60.617388655128195, "res": 7.0, "count_Flowering Plants": 2, "count_Reptiles": 4, "count_Gymnosperms": 0, "count_Arachnids": 1, "count_Birds": 6, "count_Mammals": 1, "count_Basidiomycota": 0, "count_Amphibians": 0, "count_Sac Fungi": 0, "count_Molluscs": 0, "count_Insects": 0, "count_Ferns": 0, "count_Mosses": 0, "unique_species_count": 14.0, "countryCode": "IR" }, "geometry": { "type": "MultiPolygon", "coordinates": [ [ [ [ 60.483130923532556, 31.178323333323377 ], [ 61.387724474008998, 30.78635467028197 ], [ 61.51536122199812, 29.917695779196141 ], [ 60.748133308488278, 29.448615079530367 ], [ 59.848077792414799, 29.842067734388319 ], [ 59.71048190340511, 30.702857911482216 ], [ 60.483130923532556, 31.178323333323377 ] ] ] ] } },
{ "type": "Feature", "properties": { "geogrid_id": "730388793062283896", "seqnum": 7471.0, "lat_c": 30.388792675902522, "lon_c": 62.28389621827916, "res": 7.0, "count_Flowering Plants": 0, "count_Reptiles": 12, "count_Gymnosperms": 0, "count_Arachnids": 1, "count_Birds": 1, "count_Mammals": 0, "count_Basidiomycota": 0, "count_Amphibians": 2, "count_Sac Fungi": 0, "count_Molluscs": 0, "count_Insects": 0, "count_Ferns": 0, "count_Mosses": 0, "unique_species_count": 16.0, "countryCode": "IR" }, "geometry": { "type": "MultiPolygon", "coordinates": [ [ [ [ 62.158052960447073, 31.262604078138565 ], [ 63.052960458806893, 30.861280081027417 ], [ 63.172090130088925, 29.985417170115607 ], [ 62.404983272778921, 29.517639226595126 ], [ 61.51536122199812, 29.917695779196141 ], [ 61.387724474008998, 30.78635467028197 ], [ 62.158052960447073, 31.262604078138565 ] ] ] ] } },
{ "type": "Feature", "properties": { "geogrid_id": "730491017048959730", "seqnum": 7064.0, "lat_c": 30.491016619837374, "lon_c": 48.959730154723218, "res": 7.0, "count_Flowering Plants": 6, "count_Reptiles": 7, "count_Gymnosperms": 0, "count_Arachnids": 2, "count_Birds": 58, "count_Mammals": 8, "count_Basidiomycota": 0, "count_Amphibians": 2, "count_Sac Fungi": 0, "count_Molluscs": 0, "count_Insects": 18, "count_Ferns": 0, "count_Mosses": 0, "unique_species_count": 101.0, "countryCode": "IR" }, "geometry": { "type": "MultiPolygon", "coordinates": [ [ [ [ 48.72680848510187, 31.273349953147456 ], [ 49.732931390602346, 31.042217244263721 ], [ 49.966216757532216, 30.264513906737921 ], [ 49.196886334997174, 29.714406379591846 ], [ 48.194886428954163, 29.935020159147562 ], [ 47.957147394493973, 30.715490564339632 ], [ 48.72680848510187, 31.273349953147456 ] ] ] ] } },
{ "type": "Feature", "properties": { "geogrid_id": "730809853050744056", "seqnum": 7118.0, "lat_c": 30.809853354834068, "lon_c": 50.744056057847679, "res": 7.0, "count_Flowering Plants": 92, "count_Reptiles": 4, "count_Gymnosperms": 0, "count_Arachnids": 2, "count_Birds": 23, "count_Mammals": 13, "count_Basidiomycota": 0, "count_Amphibians": 2, "count_Sac Fungi": 0, "count_Molluscs": 0, "count_Insects": 29, "count_Ferns": 0, "count_Mosses": 0, "unique_species_count": 165.0, "countryCode": "IR" }, "geometry": { "type": "MultiPolygon", "coordinates": [ [ [ [ 50.514743319154064, 31.588507406123068 ], [ 51.530734284994757, 31.350376211192827 ], [ 51.764749632029137, 30.581975841919771 ], [ 50.980057317007407, 30.040280547933094 ], [ 49.966216757532216, 30.264513906737921 ], [ 49.732931390602346, 31.042217244263721 ], [ 50.514743319154064, 31.588507406123068 ] ] ] ] } },
{ "type": "Feature", "properties": { "geogrid_id": "731120075052559511", "seqnum": 7172.0, "lat_c": 31.120075396283418, "lon_c": 52.559511291587484, "res": 7.0, "count_Flowering Plants": 16, "count_Reptiles": 6, "count_Gymnosperms": 1, "count_Arachnids": 1, "count_Birds": 8, "count_Mammals": 13, "count_Basidiomycota": 0, "count_Amphibians": 0, "count_Sac Fungi": 0, "count_Molluscs": 0, "count_Insects": 14, "count_Ferns": 0, "count_Mosses": 0, "unique_species_count": 59.0, "countryCode": "IR" }, "geometry": { "type": "MultiPolygon", "coordinates": [ [ [ [ 52.326648627972439, 31.886087334976036 ], [ 53.365650842138443, 31.655757263085523 ], [ 53.612191019035663, 30.916767700816202 ], [ 52.802480438432013, 30.370583624440751 ], [ 51.764749632029137, 30.581975841919771 ], [ 51.530734284994757, 31.350376211192827 ], [ 52.326648627972439, 31.886087334976036 ] ] ] ] } },
{ "type": "Feature", "properties": { "geogrid_id": "731417159056146704", "seqnum": 7281.0, "lat_c": 31.417158674644813, "lon_c": 56.146703779886245, "res": 7.0, "count_Flowering Plants": 48, "count_Reptiles": 2, "count_Gymnosperms": 0, "count_Arachnids": 0, "count_Birds": 6, "count_Mammals": 1, "count_Basidiomycota": 0, "count_Amphibians": 0, "count_Sac Fungi": 0, "count_Molluscs": 0, "count_Insects": 3, "count_Ferns": 2, "count_Mosses": 0, "unique_species_count": 62.0, "countryCode": "IR" }, "geometry": { "type": "MultiPolygon", "coordinates": [ [ [ [ 55.975621176962797, 32.270776339641337 ], [ 56.927006131359946, 31.864356031765244 ], [ 57.088405879766107, 31.013439764514121 ], [ 56.314659614065668, 30.564767894213549 ], [ 55.374456518330909, 30.989956107729302 ], [ 55.199135902437334, 31.855920811776375 ], [ 55.975621176962797, 32.270776339641337 ] ] ] ] } },
{ "type": "Feature", "properties": { "geogrid_id": "731473636054440434", "seqnum": 7227.0, "lat_c": 31.473635660438681, "lon_c": 54.44043439038348, "res": 7.0, "count_Flowering Plants": 23, "count_Reptiles": 10, "count_Gymnosperms": 0, "count_Arachnids": 2, "count_Birds": 16, "count_Mammals": 5, "count_Basidiomycota": 0, "count_Amphibians": 1, "count_Sac Fungi": 2, "count_Molluscs": 0, "count_Insects": 17, "count_Ferns": 0, "count_Mosses": 0, "unique_species_count": 76.0, "countryCode": "IR" }, "geometry": { "type": "MultiPolygon", "coordinates": [ [ [ [ 54.185768750712974, 32.192195115730954 ], [ 55.199135902437334, 31.855920811776375 ], [ 55.374456518330909, 30.989956107729302 ], [ 54.614313399608697, 30.584904026392046 ], [ 53.612191019035663, 30.916767700816202 ], [ 53.365650842138443, 31.655757263085523 ], [ 54.185768750712974, 32.192195115730954 ] ] ] ] } },
{ "type": "Feature", "properties": { "geogrid_id": "731475103057866437", "seqnum": 7335.0, "lat_c": 31.475103233783916, "lon_c": 57.866437206659469, "res": 7.0, "count_Flowering Plants": 0, "count_Reptiles": 8, "count_Gymnosperms": 0, "count_Arachnids": 0, "count_Birds": 0, "count_Mammals": 0, "count_Basidiomycota": 0, "count_Amphibians": 0, "count_Sac Fungi": 1, "count_Molluscs": 1, "count_Insects": 1, "count_Ferns": 0, "count_Mosses": 0, "unique_species_count": 11.0, "countryCode": "IR" }, "geometry": { "type": "MultiPolygon", "coordinates": [ [ [ [ 57.710927877715093, 32.329020142723827 ], [ 58.645896408336107, 31.947942508988312 ], [ 58.793851882927243, 31.089620638965506 ], [ 58.019036776532495, 30.621480169457509 ], [ 57.088405879766107, 31.013439764514121 ], [ 56.927006131359946, 31.864356031765244 ], [ 57.710927877715093, 32.329020142723827 ] ] ] ] } },
{ "type": "Feature", "properties": { "geogrid_id": "731500275047722787", "seqnum": 7037.0, "lat_c": 31.500274944013885, "lon_c": 47.722786823495575, "res": 7.0, "count_Flowering Plants": 10, "count_Reptiles": 15, "count_Gymnosperms": 0, "count_Arachnids": 7, "count_Birds": 104, "count_Mammals": 19, "count_Basidiomycota": 0, "count_Amphibians": 2, "count_Sac Fungi": 0, "count_Molluscs": 0, "count_Insects": 32, "count_Ferns": 0, "count_Mosses": 0, "unique_species_count": 189.0, "countryCode": "IR" }, "geometry": { "type": "MultiPolygon", "coordinates": [ [ [ [ 47.4920437696425, 32.288617635941371 ], [ 48.498448314080044, 32.06048220825167 ], [ 48.72680848510187, 31.273349953147456 ], [ 47.957147394493973, 30.715490564339632 ], [ 46.956167972871008, 30.935515191712071 ], [ 46.718960830384837, 31.721321272147371 ], [ 47.4920437696425, 32.288617635941371 ] ] ] ] } },
{ "type": "Feature", "properties": { "geogrid_id": "731565176059569495", "seqnum": 7390.0, "lat_c": 31.565175567279599, "lon_c": 59.569494753486396, "res": 7.0, "count_Flowering Plants": 19, "count_Reptiles": 6, "count_Gymnosperms": 0, "count_Arachnids": 0, "count_Birds": 4, "count_Mammals": 3, "count_Basidiomycota": 0, "count_Amphibians": 0, "count_Sac Fungi": 0, "count_Molluscs": 0, "count_Insects": 1, "count_Ferns": 0, "count_Mosses": 0, "unique_species_count": 33.0, "countryCode": "IR" }, "geometry": { "type": "MultiPolygon", "coordinates": [ [ [ [ 59.423823652475598, 32.430034546107898 ], [ 60.343973990327513, 32.046775131821171 ], [ 60.483130923532556, 31.178323333323377 ], [ 59.71048190340511, 30.702857911482216 ], [ 58.793851882927243, 31.089620638965506 ], [ 58.645896408336107, 31.947942508988312 ], [ 59.423823652475598, 32.430034546107898 ] ] ] ] } },
{ "type": "Feature", "properties": { "geogrid_id": "731657734061255188", "seqnum": 7444.0, "lat_c": 31.65773428766208, "lon_c": 61.255188098182138, "res": 7.0, "count_Flowering Plants": 0, "count_Reptiles": 11, "count_Gymnosperms": 0, "count_Arachnids": 4, "count_Birds": 1, "count_Mammals": 6, "count_Basidiomycota": 0, "count_Amphibians": 1, "count_Sac Fungi": 0, "count_Molluscs": 0, "count_Insects": 1, "count_Ferns": 0, "count_Mosses": 0, "unique_species_count": 24.0, "countryCode": "IR" }, "geometry": { "type": "MultiPolygon", "coordinates": [ [ [ [ 61.115275688667225, 32.533031049560783 ], [ 62.025231757369795, 32.140070945435227 ], [ 62.158052960447073, 31.262604078138565 ], [ 61.387724474008998, 30.78635467028197 ], [ 60.483130923532556, 31.178323333323377 ], [ 60.343973990327513, 32.046775131821171 ], [ 61.115275688667225, 32.533031049560783 ] ] ] ] } },
{ "type": "Feature", "properties": { "geogrid_id": "731826463049505234", "seqnum": 7091.0, "lat_c": 31.826463408119256, "lon_c": 49.505233685821828, "res": 7.0, "count_Flowering Plants": 30, "count_Reptiles": 20, "count_Gymnosperms": 0, "count_Arachnids": 5, "count_Birds": 43, "count_Mammals": 25, "count_Basidiomycota": 0, "count_Amphibians": 3, "count_Sac Fungi": 0, "count_Molluscs": 0, "count_Insects": 43, "count_Ferns": 0, "count_Mosses": 0, "unique_species_count": 169.0, "countryCode": "IR" }, "geometry": { "type": "MultiPolygon", "coordinates": [ [ [ [ 49.28357518454677, 32.616067029638607 ], [ 50.292743026604064, 32.374737463324671 ], [ 50.514743319154064, 31.588507406123068 ], [ 49.732931390602346, 31.042217244263721 ], [ 48.72680848510187, 31.273349953147456 ], [ 48.498448314080044, 32.06048220825167 ], [ 49.28357518454677, 32.616067029638607 ] ] ] ] } },
{ "type": "Feature", "properties": { "geogrid_id": "732129768051305420", "seqnum": 7146.0, "lat_c": 32.129767736200762, "lon_c": 51.30542043395964, "res": 7.0, "count_Flowering Plants": 127, "count_Reptiles": 23, "count_Gymnosperms": 1, "count_Arachnids": 16, "count_Birds": 74, "count_Mammals": 15, "count_Basidiomycota": 0, "count_Amphibians": 2, "count_Sac Fungi": 1, "count_Molluscs": 8, "count_Insects": 75, "count_Ferns": 0, "count_Mosses": 0, "unique_species_count": 342.0, "countryCode": "IR" }, "geometry": { "type": "MultiPolygon", "coordinates": [ [ [ [ 51.089696811354678, 32.918088109355281 ], [ 52.105218298278579, 32.66587399698065 ], [ 52.326648627972439, 31.886087334976036 ], [ 51.530734284994757, 31.350376211192827 ], [ 50.514743319154064, 31.588507406123068 ], [ 50.292743026604064, 32.374737463324671 ], [ 51.089696811354678, 32.918088109355281 ] ] ] ] } },
{ "type": "Feature", "properties": { "geogrid_id": "732417124053132344", "seqnum": 7200.0, "lat_c": 32.417123513273424, "lon_c": 53.13234359522103, "res": 7.0, "count_Flowering Plants": 18, "count_Reptiles": 6, "count_Gymnosperms": 1, "count_Arachnids": 1, "count_Birds": 14, "count_Mammals": 5, "count_Basidiomycota": 1, "count_Amphibians": 3, "count_Sac Fungi": 2, "count_Molluscs": 7, "count_Insects": 5, "count_Ferns": 0, "count_Mosses": 0, "unique_species_count": 63.0, "countryCode": "IR" }, "geometry": { "type": "MultiPolygon", "coordinates": [ [ [ [ 52.91439326687167, 33.19669695836977 ], [ 53.948745323598445, 32.944005048618408 ], [ 54.185768750712974, 32.192195115730954 ], [ 53.365650842138443, 31.655757263085523 ], [ 52.326648627972439, 31.886087334976036 ], [ 52.105218298278579, 32.66587399698065 ], [ 52.91439326687167, 33.19669695836977 ] ] ] ] } },
{ "type": "Feature", "properties": { "geogrid_id": "732509775046484503", "seqnum": 7010.0, "lat_c": 32.509775144941969, "lon_c": 46.484503246500971, "res": 7.0, "count_Flowering Plants": 1, "count_Reptiles": 1, "count_Gymnosperms": 0, "count_Arachnids": 1, "count_Birds": 4, "count_Mammals": 6, "count_Basidiomycota": 0, "count_Amphibians": 0, "count_Sac Fungi": 0, "count_Molluscs": 0, "count_Insects": 0, "count_Ferns": 0, "count_Mosses": 0, "unique_species_count": 13.0, "countryCode": "IR" }, "geometry": { "type": "MultiPolygon", "coordinates": [ [ [ [ 46.252970323721051, 33.300244168975297 ], [ 47.265161411771466, 33.079749919524971 ], [ 47.4920437696425, 32.288617635941371 ], [ 46.718960830384837, 31.721321272147371 ], [ 45.714043809769194, 31.935485369284329 ], [ 45.474817532525869, 32.723289776534131 ], [ 46.252970323721051, 33.300244168975297 ] ] ] ] } },
{ "type": "Feature", "properties": { "geogrid_id": "732714872056762636", "seqnum": 7309.0, "lat_c": 32.714872193583567, "lon_c": 56.762636462165901, "res": 7.0, "count_Flowering Plants": 1, "count_Reptiles": 4, "count_Gymnosperms": 0, "count_Arachnids": 0, "count_Birds": 2, "count_Mammals": 2, "count_Basidiomycota": 0, "count_Amphibians": 0, "count_Sac Fungi": 0, "count_Molluscs": 0, "count_Insects": 0, "count_Ferns": 0, "count_Mosses": 0, "unique_species_count": 9.0, "countryCode": "IR" }, "geometry": { "type": "MultiPolygon", "coordinates": [ [ [ [ 56.595130859130201, 33.565025583165443 ], [ 57.551975189638227, 33.183905043326888 ], [ 57.710927877715093, 32.329020142723827 ], [ 56.927006131359946, 31.864356031765244 ], [ 55.975621176962797, 32.270776339641337 ], [ 55.801645283799672, 33.128320550039092 ], [ 56.595130859130201, 33.565025583165443 ] ] ] ] } },
{ "type": "Feature", "properties": { "geogrid_id": "732740396055026449", "seqnum": 7254.0, "lat_c": 32.740396182817932, "lon_c": 55.026448748391203, "res": 7.0, "count_Flowering Plants": 2, "count_Reptiles": 4, "count_Gymnosperms": 0, "count_Arachnids": 1, "count_Birds": 3, "count_Mammals": 4, "count_Basidiomycota": 0, "count_Amphibians": 0, "count_Sac Fungi": 0, "count_Molluscs": 0, "count_Insects": 2, "count_Ferns": 0, "count_Mosses": 0, "unique_species_count": 16.0, "countryCode": "IR" }, "geometry": { "type": "MultiPolygon", "coordinates": [ [ [ [ 54.778052569933841, 33.46874313193819 ], [ 55.801645283799672, 33.128320550039092 ], [ 55.975621176962797, 32.270776339641337 ], [ 55.199135902437334, 31.855920811776375 ], [ 54.185768750712974, 32.192195115730954 ], [ 53.948745323598445, 32.944005048618408 ], [ 54.778052569933841, 33.46874313193819 ] ] ] ] } },
{ "type": "Feature", "properties": { "geogrid_id": "732808318058493759", "seqnum": 7363.0, "lat_c": 32.808318203074258, "lon_c": 58.493759139654053, "res": 7.0, "count_Flowering Plants": 87, "count_Reptiles": 13, "count_Gymnosperms": 0, "count_Arachnids": 5, "count_Birds": 12, "count_Mammals": 4, "count_Basidiomycota": 2, "count_Amphibians": 1, "count_Sac Fungi": 0, "count_Molluscs": 0, "count_Insects": 14, "count_Ferns": 0, "count_Mosses": 0, "unique_species_count": 138.0, "countryCode": "IR" }, "geometry": { "type": "MultiPolygon", "coordinates": [ [ [ [ 58.334853908564625, 33.672786729654455 ], [ 59.270648864170631, 33.299197925215076 ], [ 59.423823652475598, 32.430034546107898 ], [ 58.645896408336107, 31.947942508988312 ], [ 57.710927877715093, 32.329020142723827 ], [ 57.551975189638227, 33.183905043326888 ], [ 58.334853908564625, 33.672786729654455 ] ] ] ] } },
{ "type": "Feature", "properties": { "geogrid_id": "732851466048274981", "seqnum": 7065.0, "lat_c": 32.851465977005752, "lon_c": 48.274981118132303, "res": 7.0, "count_Flowering Plants": 43, "count_Reptiles": 17, "count_Gymnosperms": 1, "count_Arachnids": 7, "count_Birds": 70, "count_Mammals": 17, "count_Basidiomycota": 0, "count_Amphibians": 5, "count_Sac Fungi": 0, "count_Molluscs": 2, "count_Insects": 54, "count_Ferns": 2, "count_Mosses": 0, "unique_species_count": 218.0, "countryCode": "IR" }, "geometry": { "type": "MultiPolygon", "coordinates": [ [ [ [ 48.056741938258313, 33.645336176340443 ], [ 49.068410234578408, 33.40980934083376 ], [ 49.28357518454677, 32.616067029638607 ], [ 48.498448314080044, 32.06048220825167 ], [ 47.4920437696425, 32.288617635941371 ], [ 47.265161411771466, 33.079749919524971 ], [ 48.056741938258313, 33.645336176340443 ] ] ] ] } },
{ "type": "Feature", "properties": { "geogrid_id": "732919389060197211", "seqnum": 7417.0, "lat_c": 32.919388646081593, "lon_c": 60.197210942665677, "res": 7.0, "count_Flowering Plants": 71, "count_Reptiles": 8, "count_Gymnosperms": 0, "count_Arachnids": 2, "count_Birds": 5, "count_Mammals": 3, "count_Basidiomycota": 1, "count_Amphibians": 1, "count_Sac Fungi": 1, "count_Molluscs": 0, "count_Insects": 11, "count_Ferns": 0, "count_Mosses": 0, "unique_species_count": 103.0, "countryCode": "IR" }, "geometry": { "type": "MultiPolygon", "coordinates": [ [ [ [ 60.03674986067697, 33.798484598571626 ], [ 60.963059241980744, 33.413987962107335 ], [ 61.115275688667225, 32.533031049560783 ], [ 60.343973990327513, 32.046775131821171 ], [ 59.423823652475598, 32.430034546107898 ], [ 59.270648864170631, 33.299197925215076 ], [ 60.03674986067697, 33.798484598571626 ] ] ] ] } },
{ "type": "Feature", "properties": { "geogrid_id": "733166974050078681", "seqnum": 7119.0, "lat_c": 33.166973736220136, "lon_c": 50.07868077184073, "res": 7.0, "count_Flowering Plants": 55, "count_Reptiles": 4, "count_Gymnosperms": 0, "count_Arachnids": 3, "count_Birds": 24, "count_Mammals": 11, "count_Basidiomycota": 0, "count_Amphibians": 0, "count_Sac Fungi": 0, "count_Molluscs": 0, "count_Insects": 21, "count_Ferns": 0, "count_Mosses": 0, "unique_species_count": 118.0, "countryCode": "IR" }, "geometry": { "type": "MultiPolygon", "coordinates": [ [ [ [ 49.873179264030775, 33.963596755596939 ], [ 50.884444058904478, 33.713169847127922 ], [ 51.089696811354678, 32.918088109355281 ], [ 50.292743026604064, 32.374737463324671 ], [ 49.28357518454677, 32.616067029638607 ], [ 49.068410234578408, 33.40980934083376 ], [ 49.873179264030775, 33.963596755596939 ] ] ] ] } },
{ "type": "Feature", "properties": { "geogrid_id": "733456453051896535", "seqnum": 7173.0, "lat_c": 33.456452793660276, "lon_c": 51.89653465077609, "res": 7.0, "count_Flowering Plants": 84, "count_Reptiles": 9, "count_Gymnosperms": 0, "count_Arachnids": 2, "count_Birds": 21, "count_Mammals": 10, "count_Basidiomycota": 0, "count_Amphibians": 0, "count_Sac Fungi": 1, "count_Molluscs": 0, "count_Insects": 20, "count_Ferns": 0, "count_Mosses": 0, "unique_species_count": 147.0, "countryCode": "IR" }, "geometry": { "type": "MultiPolygon", "coordinates": [ [ [ [ 51.701876915729216, 34.254655645263554 ], [ 52.713874411333045, 33.989816342925216 ], [ 52.91439326687167, 33.19669695836977 ], [ 52.105218298278579, 32.66587399698065 ], [ 51.089696811354678, 32.918088109355281 ], [ 50.884444058904478, 33.713169847127922 ], [ 51.701876915729216, 34.254655645263554 ] ] ] ] } },
{ "type": "Feature", "properties": { "geogrid_id": "733512527045237660", "seqnum": 6984.0, "lat_c": 33.512527043833572, "lon_c": 45.237659621116258, "res": 7.0, "count_Flowering Plants": 0, "count_Reptiles": 4, "count_Gymnosperms": 0, "count_Arachnids": 0, "count_Birds": 4, "count_Mammals": 4, "count_Basidiomycota": 0, "count_Amphibians": 1, "count_Sac Fungi": 0, "count_Molluscs": 0, "count_Insects": 0, "count_Ferns": 0, "count_Mosses": 0, "unique_species_count": 13.0, "countryCode": "IR" }, "geometry": { "type": "MultiPolygon", "coordinates": [ [ [ [ 45.002693440189972, 34.302667467078308 ], [ 46.024540659142254, 34.092090922282786 ], [ 46.252970323721051, 33.300244168975297 ], [ 45.474817532525869, 32.723289776534131 ], [ 44.462303095304151, 32.928726478960243 ], [ 44.21873483036137, 33.716310220475115 ], [ 45.002693440189972, 34.302667467078308 ] ] ] ] } },
{ "type": "Feature", "properties": { "geogrid_id": "733722102053733202", "seqnum": 7228.0, "lat_c": 33.722102275198715, "lon_c": 53.733202168431674, "res": 7.0, "count_Flowering Plants": 0, "count_Reptiles": 9, "count_Gymnosperms": 0, "count_Arachnids": 0, "count_Birds": 3, "count_Mammals": 2, "count_Basidiomycota": 0, "count_Amphibians": 0, "count_Sac Fungi": 0, "count_Molluscs": 0, "count_Insects": 11, "count_Ferns": 0, "count_Mosses": 0, "unique_species_count": 25.0, "countryCode": "IR" }, "geometry": { "type": "MultiPolygon", "coordinates": [ [ [ [ 53.542813858537869, 34.518269811959932 ], [ 54.561901945982726, 34.2419503672361 ], [ 54.778052569933841, 33.46874313193819 ], [ 53.948745323598445, 32.944005048618408 ], [ 52.91439326687167, 33.19669695836977 ], [ 52.713874411333045, 33.989816342925216 ], [ 53.542813858537869, 34.518269811959932 ] ] ] ] } },
{ "type": "Feature", "properties": { "geogrid_id": "733872894047042387", "seqnum": 7038.0, "lat_c": 33.872893726796356, "lon_c": 47.042386686386784, "res": 7.0, "count_Flowering Plants": 69, "count_Reptiles": 14, "count_Gymnosperms": 0, "count_Arachnids": 2, "count_Birds": 71, "count_Mammals": 29, "count_Basidiomycota": 0, "count_Amphibians": 3, "count_Sac Fungi": 0, "count_Molluscs": 1, "count_Insects": 10, "count_Ferns": 0, "count_Mosses": 0, "unique_species_count": 199.0, "countryCode": "IR" }, "geometry": { "type": "MultiPolygon", "coordinates": [ [ [ [ 46.82396989892699, 34.667265446711852 ], [ 47.844068409709344, 34.441115835062192 ], [ 48.056741938258313, 33.645336176340443 ], [ 47.265161411771466, 33.079749919524971 ], [ 46.252970323721051, 33.300244168975297 ], [ 46.024540659142254, 34.092090922282786 ], [ 46.82396989892699, 34.667265446711852 ] ] ] ] } },
{ "type": "Feature", "properties": { "geogrid_id": "734003996055629176", "seqnum": 7282.0, "lat_c": 34.003995733509846, "lon_c": 55.629175832968421, "res": 7.0, "count_Flowering Plants": 5, "count_Reptiles": 1, "count_Gymnosperms": 0, "count_Arachnids": 0, "count_Birds": 2, "count_Mammals": 0, "count_Basidiomycota": 0, "count_Amphibians": 0, "count_Sac Fungi": 0, "count_Molluscs": 0, "count_Insects": 6, "count_Ferns": 0, "count_Mosses": 0, "unique_species_count": 14.0, "countryCode": "IR" }, "geometry": { "type": "MultiPolygon", "coordinates": [ [ [ [ 55.400749252543164, 34.756096302538523 ], [ 56.424313905700828, 34.414852801140768 ], [ 56.595130859130201, 33.565025583165443 ], [ 55.801645283799672, 33.128320550039092 ], [ 54.778052569933841, 33.46874313193819 ], [ 54.561901945982726, 34.2419503672361 ], [ 55.400749252543164, 34.756096302538523 ] ] ] ] } },
{ "type": "Feature", "properties": { "geogrid_id": "734041559057388024", "seqnum": 7336.0, "lat_c": 34.041558774616561, "lon_c": 57.38802396429692, "res": 7.0, "count_Flowering Plants": 10, "count_Reptiles": 5, "count_Gymnosperms": 0, "count_Arachnids": 0, "count_Birds": 4, "count_Mammals": 0, "count_Basidiomycota": 0, "count_Amphibians": 1, "count_Sac Fungi": 0, "count_Molluscs": 0, "count_Insects": 4, "count_Ferns": 0, "count_Mosses": 0, "unique_species_count": 24.0, "countryCode": "IR" }, "geometry": { "type": "MultiPolygon", "coordinates": [ [ [ [ 57.209066708848191, 34.909005557895625 ], [ 58.159833931628825, 34.546132151509632 ], [ 58.334853908564625, 33.672786729654455 ], [ 57.551975189638227, 33.183905043326888 ], [ 56.595130859130201, 33.565025583165443 ], [ 56.424313905700828, 34.414852801140768 ], [ 57.209066708848191, 34.909005557895625 ] ] ] ] } },
{ "type": "Feature", "properties": { "geogrid_id": "734175912059102370", "seqnum": 7391.0, "lat_c": 34.175911834640729, "lon_c": 59.10236953540025, "res": 7.0, "count_Flowering Plants": 18, "count_Reptiles": 11, "count_Gymnosperms": 0, "count_Arachnids": 0, "count_Birds": 13, "count_Mammals": 3, "count_Basidiomycota": 0, "count_Amphibians": 1, "count_Sac Fungi": 0, "count_Molluscs": 0, "count_Insects": 0, "count_Ferns": 0, "count_Mosses": 0, "unique_species_count": 46.0, "countryCode": "IR" }, "geometry": { "type": "MultiPolygon", "coordinates": [ [ [ [ 58.890908548972959, 35.065498931865612 ], [ 59.845983913336561, 34.687472047950777 ], [ 60.03674986067697, 33.798484598571626 ], [ 59.270648864170631, 33.299197925215076 ], [ 58.334853908564625, 33.672786729654455 ], [ 58.159833931628825, 34.546132151509632 ], [ 58.890908548972959, 35.065498931865612 ] ] ] ] } },
{ "type": "Feature", "properties": { "geogrid_id": "734206447048860194", "seqnum": 7092.0, "lat_c": 34.206447287114152, "lon_c": 48.860193852926322, "res": 7.0, "count_Flowering Plants": 90, "count_Reptiles": 9, "count_Gymnosperms": 0, "count_Arachnids": 5, "count_Birds": 41, "count_Mammals": 13, "count_Basidiomycota": 0, "count_Amphibians": 2, "count_Sac Fungi": 0, "count_Molluscs": 0, "count_Insects": 69, "count_Ferns": 0, "count_Mosses": 0, "unique_species_count": 229.0, "countryCode": "IR" }, "geometry": { "type": "MultiPolygon", "coordinates": [ [ [ [ 48.659379512167099, 35.004723028611792 ], [ 49.676853625854882, 34.762953316453903 ], [ 49.873179264030775, 33.963596755596939 ], [ 49.068410234578408, 33.40980934083376 ], [ 48.056741938258313, 33.645336176340443 ], [ 47.844068409709344, 34.441115835062192 ], [ 48.659379512167099, 35.004723028611792 ] ] ] ] } },
{ "type": "Feature", "properties": { "geogrid_id": "734302983060787366", "seqnum": 7445.0, "lat_c": 34.302982693417412, "lon_c": 60.787365743920148, "res": 7.0, "count_Flowering Plants": 1, "count_Reptiles": 1, "count_Gymnosperms": 0, "count_Arachnids": 0, "count_Birds": 2, "count_Mammals": 3, "count_Basidiomycota": 0, "count_Amphibians": 0, "count_Sac Fungi": 0, "count_Molluscs": 0, "count_Insects": 0, "count_Ferns": 0, "count_Mosses": 0, "unique_species_count": 7.0, "countryCode": "IR" }, "geometry": { "type": "MultiPolygon", "coordinates": [ [ [ [ 60.557974539614648, 35.201776456182429 ], [ 61.518089323905407, 34.809574439696625 ], [ 61.718435677783503, 33.911830887275194 ], [ 60.963059241980744, 33.413987962107335 ], [ 60.03674986067697, 33.798484598571626 ], [ 59.845983913336561, 34.687472047950777 ], [ 60.557974539614648, 35.201776456182429 ] ] ] ] } },
{ "type": "Feature", "properties": { "geogrid_id": "734512768050690525", "seqnum": 7147.0, "lat_c": 34.512768398426708, "lon_c": 50.690524515237207, "res": 7.0, "count_Flowering Plants": 59, "count_Reptiles": 28, "count_Gymnosperms": 0, "count_Arachnids": 9, "count_Birds": 118, "count_Mammals": 8, "count_Basidiomycota": 0, "count_Amphibians": 1, "count_Sac Fungi": 1, "count_Molluscs": 0, "count_Insects": 21, "count_Ferns": 0, "count_Mosses": 0, "unique_species_count": 245.0, "countryCode": "IR" }, "geometry": { "type": "MultiPolygon", "coordinates": [ [ [ [ 50.50877186085458, 35.314592524586253 ], [ 51.52246506094307, 35.057188577198346 ], [ 51.701876915729216, 34.254655645263554 ], [ 50.884444058904478, 33.713169847127922 ], [ 49.873179264030775, 33.963596755596939 ], [ 49.676853625854882, 34.762953316453903 ], [ 50.50877186085458, 35.314592524586253 ] ] ] ] } },
{ "type": "Feature", "properties": { "geogrid_id": "734791453052532748", "seqnum": 7201.0, "lat_c": 34.791453138200247, "lon_c": 52.532748266373964, "res": 7.0, "count_Flowering Plants": 22, "count_Reptiles": 16, "count_Gymnosperms": 0, "count_Arachnids": 1, "count_Birds": 142, "count_Mammals": 10, "count_Basidiomycota": 0, "count_Amphibians": 0, "count_Sac Fungi": 0, "count_Molluscs": 0, "count_Insects": 14, "count_Ferns": 0, "count_Mosses": 0, "unique_species_count": 205.0, "countryCode": "IR" }, "geometry": { "type": "MultiPolygon", "coordinates": [ [ [ [ 52.372799278257858, 35.596360659704018 ], [ 53.380877014699514, 35.3234169087374 ], [ 53.542813858537869, 34.518269811959932 ], [ 52.713874411333045, 33.989816342925216 ], [ 51.701876915729216, 34.254655645263554 ], [ 51.52246506094307, 35.057188577198346 ], [ 52.372799278257858, 35.596360659704018 ] ] ] ] } },
{ "type": "Feature", "properties": { "geogrid_id": "734884676045799396", "seqnum": 7011.0, "lat_c": 34.884675782977716, "lon_c": 45.799396242977387, "res": 7.0, "count_Flowering Plants": 50, "count_Reptiles": 10, "count_Gymnosperms": 0, "count_Arachnids": 2, "count_Birds": 60, "count_Mammals": 8, "count_Basidiomycota": 0, "count_Amphibians": 5, "count_Sac Fungi": 0, "count_Molluscs": 1, "count_Insects": 20, "count_Ferns": 0, "count_Mosses": 0, "unique_species_count": 156.0, "countryCode": "IR" }, "geometry": { "type": "MultiPolygon", "coordinates": [ [ [ [ 45.577722348839913, 35.677359523055244 ], [ 46.610164314997398, 35.462079778379284 ], [ 46.82396989892699, 34.667265446711852 ], [ 46.024540659142254, 34.092090922282786 ], [ 45.002693440189972, 34.302667467078308 ], [ 44.770045296051578, 35.093180918386267 ], [ 45.577722348839913, 35.677359523055244 ] ] ] ] } },
{ "type": "Feature", "properties": { "geogrid_id": "735042115054386163", "seqnum": 7255.0, "lat_c": 35.042115472928572, "lon_c": 54.386163367736273, "res": 7.0, "count_Flowering Plants": 2, "count_Reptiles": 4, "count_Gymnosperms": 0, "count_Arachnids": 0, "count_Birds": 21, "count_Mammals": 1, "count_Basidiomycota": 0, "count_Amphibians": 0, "count_Sac Fungi": 0, "count_Molluscs": 0, "count_Insects": 3, "count_Ferns": 0, "count_Mosses": 0, "unique_species_count": 31.0, "countryCode": "IR" }, "geometry": { "type": "MultiPolygon", "coordinates": [ [ [ [ 54.257374985259048, 35.848440485197784 ], [ 55.257345706666165, 35.560505085399967 ], [ 55.400749252543164, 34.756096302538523 ], [ 54.561901945982726, 34.2419503672361 ], [ 53.542813858537869, 34.518269811959932 ], [ 53.380877014699514, 35.3234169087374 ], [ 54.257374985259048, 35.848440485197784 ] ] ] ] } },
{ "type": "Feature", "properties": { "geogrid_id": "735237822047637300", "seqnum": 7066.0, "lat_c": 35.237822023024648, "lon_c": 47.63729975154687, "res": 7.0, "count_Flowering Plants": 46, "count_Reptiles": 4, "count_Gymnosperms": 1, "count_Arachnids": 0, "count_Birds": 28, "count_Mammals": 17, "count_Basidiomycota": 0, "count_Amphibians": 1, "count_Sac Fungi": 0, "count_Molluscs": 0, "count_Insects": 15, "count_Ferns": 0, "count_Mosses": 0, "unique_species_count": 112.0, "countryCode": "IR" }, "geometry": { "type": "MultiPolygon", "coordinates": [ [ [ [ 47.436775722746695, 36.034471836707922 ], [ 48.466416874133778, 35.803373657472264 ], [ 48.659379512167099, 35.004723028611792 ], [ 47.844068409709344, 34.441115835062192 ], [ 46.82396989892699, 34.667265446711852 ], [ 46.610164314997398, 35.462079778379284 ], [ 47.436775722746695, 36.034471836707922 ] ] ] ] } },
{ "type": "Feature", "properties": { "geogrid_id": "735264390056250000", "seqnum": 7310.0, "lat_c": 35.264389685039355, "lon_c": 56.249999999543114, "res": 7.0, "count_Flowering Plants": 9, "count_Reptiles": 18, "count_Gymnosperms": 0, "count_Arachnids": 0, "count_Birds": 43, "count_Mammals": 5, "count_Basidiomycota": 0, "count_Amphibians": 2, "count_Sac Fungi": 0, "count_Molluscs": 0, "count_Insects": 3, "count_Ferns": 0, "count_Mosses": 0, "unique_species_count": 80.0, "countryCode": "IR" }, "geometry": { "type": "MultiPolygon", "coordinates": [ [ [ [ 56.140129522031152, 36.12125532477895 ], [ 57.068426655606402, 35.810888008940758 ], [ 57.209066708848191, 34.909005557895625 ], [ 56.424313905700828, 34.414852801140768 ], [ 55.400749252543164, 34.756096302538523 ], [ 55.257345706666165, 35.560505085399967 ], [ 56.140129522031152, 36.12125532477895 ] ] ] ] } },
{ "type": "Feature", "properties": { "geogrid_id": "735436801057903949", "seqnum": 7364.0, "lat_c": 35.436800578450914, "lon_c": 57.903949190196485, "res": 7.0, "count_Flowering Plants": 42, "count_Reptiles": 14, "count_Gymnosperms": 0, "count_Arachnids": 0, "count_Birds": 7, "count_Mammals": 9, "count_Basidiomycota": 0, "count_Amphibians": 1, "count_Sac Fungi": 0, "count_Molluscs": 0, "count_Insects": 2, "count_Ferns": 0, "count_Mosses": 0, "unique_species_count": 75.0, "countryCode": "IR" }, "geometry": { "type": "MultiPolygon", "coordinates": [ [ [ [ 57.898184473096428, 36.351792993517542 ], [ 58.767402114764387, 35.980771036891284 ], [ 58.890908548972959, 35.065498931865612 ], [ 58.159833931628825, 34.546132151509632 ], [ 57.209066708848191, 34.909005557895625 ], [ 57.068426655606402, 35.810888008940758 ], [ 57.898184473096428, 36.351792993517542 ] ] ] ] } },
{ "type": "Feature", "properties": { "geogrid_id": "735563373049490307", "seqnum": 7120.0, "lat_c": 35.563373122257843, "lon_c": 49.490306611086119, "res": 7.0, "count_Flowering Plants": 32, "count_Reptiles": 12, "count_Gymnosperms": 0, "count_Arachnids": 2, "count_Birds": 16, "count_Mammals": 6, "count_Basidiomycota": 0, "count_Amphibians": 0, "count_Sac Fungi": 0, "count_Molluscs": 0, "count_Insects": 26, "count_Ferns": 0, "count_Mosses": 0, "unique_species_count": 94.0, "countryCode": "IR" }, "geometry": { "type": "MultiPolygon", "coordinates": [ [ [ [ 49.314123825750634, 36.363185732650884 ], [ 50.339980891083599, 36.116335985273516 ], [ 50.50877186085458, 35.314592524586253 ], [ 49.676853625854882, 34.762953316453903 ], [ 48.659379512167099, 35.004723028611792 ], [ 48.466416874133778, 35.803373657472264 ], [ 49.314123825750634, 36.363185732650884 ] ] ] ] } },
{ "type": "Feature", "properties": { "geogrid_id": "735586585059564763", "seqnum": 7418.0, "lat_c": 35.586584570131514, "lon_c": 59.56476340773515, "res": 7.0, "count_Flowering Plants": 155, "count_Reptiles": 14, "count_Gymnosperms": 1, "count_Arachnids": 4, "count_Birds": 136, "count_Mammals": 10, "count_Basidiomycota": 0, "count_Amphibians": 3, "count_Sac Fungi": 1, "count_Molluscs": 2, "count_Insects": 57, "count_Ferns": 0, "count_Mosses": 0, "unique_species_count": 383.0, "countryCode": "IR" }, "geometry": { "type": "MultiPolygon", "coordinates": [ [ [ [ 59.620154878304582, 36.513560304422164 ], [ 60.453248159572567, 36.120462576407441 ], [ 60.557974539614648, 35.201776456182429 ], [ 59.845983913336561, 34.687472047950777 ], [ 58.890908548972959, 35.065498931865612 ], [ 58.767402114764387, 35.980771036891284 ], [ 59.620154878304582, 36.513560304422164 ] ] ] ] } },
{ "type": "Feature", "properties": { "geogrid_id": "735713538061231797", "seqnum": 7473.0, "lat_c": 35.713537668833297, "lon_c": 61.231796744898269, "res": 7.0, "count_Flowering Plants": 1, "count_Reptiles": 1, "count_Gymnosperms": 0, "count_Arachnids": 0, "count_Birds": 5, "count_Mammals": 2, "count_Basidiomycota": 0, "count_Amphibians": 0, "count_Sac Fungi": 0, "count_Molluscs": 0, "count_Insects": 0, "count_Ferns": 0, "count_Mosses": 0, "unique_species_count": 9.0, "countryCode": "IR" }, "geometry": { "type": "MultiPolygon", "coordinates": [ [ [ [ 61.330102061646073, 36.643858415040732 ], [ 62.139374880993856, 36.235641143740025 ], [ 62.224922968165501, 35.31530847287209 ], [ 61.518089323905407, 34.809574439696625 ], [ 60.557974539614648, 35.201776456182429 ], [ 60.453248159572567, 36.120462576407441 ], [ 61.330102061646073, 36.643858415040732 ] ] ] ] } },
{ "type": "Feature", "properties": { "geogrid_id": "735860697051359436", "seqnum": 7174.0, "lat_c": 35.860696682802036, "lon_c": 51.359436092585888, "res": 7.0, "count_Flowering Plants": 641, "count_Reptiles": 41, "count_Gymnosperms": 5, "count_Arachnids": 48, "count_Birds": 297, "count_Mammals": 44, "count_Basidiomycota": 11, "count_Amphibians": 6, "count_Sac Fungi": 7, "count_Molluscs": 4, "count_Insects": 388, "count_Ferns": 4, "count_Mosses": 2, "unique_species_count": 1498.0, "countryCode": "IR" }, "geometry": { "type": "MultiPolygon", "coordinates": [ [ [ [ 51.213821806557043, 36.661831452039529 ], [ 52.235576440250043, 36.399237691977845 ], [ 52.372799278257858, 35.596360659704018 ], [ 51.52246506094307, 35.057188577198346 ], [ 50.50877186085458, 35.314592524586253 ], [ 50.339980891083599, 36.116335985273516 ], [ 51.213821806557043, 36.661831452039529 ] ] ] ] } },
{ "type": "Feature", "properties": { "geogrid_id": "735883539044539844", "seqnum": 6985.0, "lat_c": 35.883538645855275, "lon_c": 44.539844464680712, "res": 7.0, "count_Flowering Plants": 1, "count_Reptiles": 0, "count_Gymnosperms": 0, "count_Arachnids": 0, "count_Birds": 0, "count_Mammals": 0, "count_Basidiomycota": 0, "count_Amphibians": 0, "count_Sac Fungi": 0, "count_Molluscs": 0, "count_Insects": 0, "count_Ferns": 0, "count_Mosses": 0, "unique_species_count": 1.0, "countryCode": "IR" }, "geometry": { "type": "MultiPolygon", "coordinates": [ [ [ [ 44.312223217793857, 36.673215058196433 ], [ 45.359707415739777, 36.469505889956743 ], [ 45.577722348839913, 35.677359523055244 ], [ 44.770045296051578, 35.093180918386267 ], [ 43.735743007196369, 35.292641860638035 ], [ 43.496480467349386, 36.08050077701558 ], [ 44.312223217793857, 36.673215058196433 ] ] ] ] } },
{ "type": "Feature", "properties": { "geogrid_id": "736128063053250108", "seqnum": 7229.0, "lat_c": 36.128062630163065, "lon_c": 53.250108200869334, "res": 7.0, "count_Flowering Plants": 239, "count_Reptiles": 22, "count_Gymnosperms": 2, "count_Arachnids": 8, "count_Birds": 197, "count_Mammals": 29, "count_Basidiomycota": 17, "count_Amphibians": 5, "count_Sac Fungi": 37, "count_Molluscs": 2, "count_Insects": 178, "count_Ferns": 9, "count_Mosses": 0, "unique_species_count": 745.0, "countryCode": "IR" }, "geometry": { "type": "MultiPolygon", "coordinates": [ [ [ [ 53.15248079036536, 36.922864442238122 ], [ 54.179529650932601, 36.6397227222269 ], [ 54.257374985259048, 35.848440485197784 ], [ 53.380877014699514, 35.3234169087374 ], [ 52.372799278257858, 35.596360659704018 ], [ 52.235576440250043, 36.399237691977845 ], [ 53.15248079036536, 36.922864442238122 ] ] ] ] } },
{ "type": "Feature", "properties": { "geogrid_id": "736256554046401226", "seqnum": 7039.0, "lat_c": 36.25655358788611, "lon_c": 46.401225732963162, "res": 7.0, "count_Flowering Plants": 34, "count_Reptiles": 8, "count_Gymnosperms": 0, "count_Arachnids": 0, "count_Birds": 21, "count_Mammals": 8, "count_Basidiomycota": 0, "count_Amphibians": 0, "count_Sac Fungi": 0, "count_Molluscs": 0, "count_Insects": 9, "count_Ferns": 0, "count_Mosses": 0, "unique_species_count": 80.0, "countryCode": "IR" }, "geometry": { "type": "MultiPolygon", "coordinates": [ [ [ [ 46.197412039479325, 37.049909723394997 ], [ 47.242835552103053, 36.830088353999571 ], [ 47.436775722746695, 36.034471836707922 ], [ 46.610164314997398, 35.462079778379284 ], [ 45.577722348839913, 35.677359523055244 ], [ 45.359707415739777, 36.469505889956743 ], [ 46.197412039479325, 37.049909723394997 ] ] ] ] } },
{ "type": "Feature", "properties": { "geogrid_id": "736335158055216228", "seqnum": 7283.0, "lat_c": 36.335157854262313, "lon_c": 55.216228417015401, "res": 7.0, "count_Flowering Plants": 159, "count_Reptiles": 23, "count_Gymnosperms": 4, "count_Arachnids": 17, "count_Birds": 93, "count_Mammals": 19, "count_Basidiomycota": 1, "count_Amphibians": 5, "count_Sac Fungi": 0, "count_Molluscs": 0, "count_Insects": 59, "count_Ferns": 5, "count_Mosses": 0, "unique_species_count": 385.0, "countryCode": "IR" }, "geometry": { "type": "MultiPolygon", "coordinates": [ [ [ [ 55.078265381311653, 37.215639252801409 ], [ 56.027827882852428, 36.978066851743932 ], [ 56.140129522031152, 36.12125532477895 ], [ 55.257345706666165, 35.560505085399967 ], [ 54.257374985259048, 35.848440485197784 ], [ 54.179529650932601, 36.6397227222269 ], [ 55.078265381311653, 37.215639252801409 ] ] ] ] } },
{ "type": "Feature", "properties": { "geogrid_id": "736601141048281749", "seqnum": 7093.0, "lat_c": 36.601140952001778, "lon_c": 48.281749496234667, "res": 7.0, "count_Flowering Plants": 49, "count_Reptiles": 16, "count_Gymnosperms": 1, "count_Arachnids": 1, "count_Birds": 13, "count_Mammals": 9, "count_Basidiomycota": 1, "count_Amphibians": 2, "count_Sac Fungi": 0, "count_Molluscs": 0, "count_Insects": 31, "count_Ferns": 0, "count_Mosses": 0, "unique_species_count": 123.0, "countryCode": "IR" }, "geometry": { "type": "MultiPolygon", "coordinates": [ [ [ [ 48.105812536766351, 37.396780988036333 ], [ 49.14886903723599, 37.160737405877398 ], [ 49.314123825750634, 36.363185732650884 ], [ 48.466416874133778, 35.803373657472264 ], [ 47.436775722746695, 36.034471836707922 ], [ 47.242835552103053, 36.830088353999571 ], [ 48.105812536766351, 37.396780988036333 ] ] ] ] } },
{ "type": "Feature", "properties": { "geogrid_id": "736687678056976752", "seqnum": 7337.0, "lat_c": 36.687678492713246, "lon_c": 56.976751552904105, "res": 7.0, "count_Flowering Plants": 10, "count_Reptiles": 3, "count_Gymnosperms": 0, "count_Arachnids": 3, "count_Birds": 15, "count_Mammals": 26, "count_Basidiomycota": 0, "count_Amphibians": 0, "count_Sac Fungi": 0, "count_Molluscs": 0, "count_Insects": 10, "count_Ferns": 0, "count_Mosses": 0, "unique_species_count": 67.0, "countryCode": "IR" }, "geometry": { "type": "MultiPolygon", "coordinates": [ [ [ [ 56.874478231257925, 37.552295026723669 ], [ 57.820720210970777, 37.234902544043898 ], [ 57.898184473096428, 36.351792993517542 ], [ 57.068426655606402, 35.810888008940758 ], [ 56.140129522031152, 36.12125532477895 ], [ 56.027827882852428, 36.978066851743932 ], [ 56.874478231257925, 37.552295026723669 ] ] ] ] } },
{ "type": "Feature", "properties": { "geogrid_id": "736886942058739586", "seqnum": 7392.0, "lat_c": 36.886941613910103, "lon_c": 58.73958603365368, "res": 7.0, "count_Flowering Plants": 390, "count_Reptiles": 7, "count_Gymnosperms": 2, "count_Arachnids": 7, "count_Birds": 69, "count_Mammals": 21, "count_Basidiomycota": 0, "count_Amphibians": 3, "count_Sac Fungi": 0, "count_Molluscs": 0, "count_Insects": 15, "count_Ferns": 0, "count_Mosses": 0, "unique_species_count": 514.0, "countryCode": "IR" }, "geometry": { "type": "MultiPolygon", "coordinates": [ [ [ [ 58.674630202391327, 37.773249607428902 ], [ 59.592944787512167, 37.416164096602067 ], [ 59.620154878304582, 36.513560304422164 ], [ 58.767402114764387, 35.980771036891284 ], [ 57.898184473096428, 36.351792993517542 ], [ 57.820720210970777, 37.234902544043898 ], [ 58.674630202391327, 37.773249607428902 ] ] ] ] } },
{ "type": "Feature", "properties": { "geogrid_id": "736915709050184898", "seqnum": 7148.0, "lat_c": 36.91570949415658, "lon_c": 50.184897693787015, "res": 7.0, "count_Flowering Plants": 372, "count_Reptiles": 24, "count_Gymnosperms": 2, "count_Arachnids": 25, "count_Birds": 160, "count_Mammals": 24, "count_Basidiomycota": 16, "count_Amphibians": 8, "count_Sac Fungi": 3, "count_Molluscs": 16, "count_Insects": 288, "count_Ferns": 7, "count_Mosses": 1, "unique_species_count": 946.0, "countryCode": "IR" }, "geometry": { "type": "MultiPolygon", "coordinates": [ [ [ [ 50.044210501608632, 37.710471898587734 ], [ 51.08652895296246, 37.457317287682713 ], [ 51.213821806557043, 36.661831452039529 ], [ 50.339980891083599, 36.116335985273516 ], [ 49.314123825750634, 36.363185732650884 ], [ 49.14886903723599, 37.160737405877398 ], [ 50.044210501608632, 37.710471898587734 ] ] ] ] } },
{ "type": "Feature", "properties": { "geogrid_id": "737038555060479856", "seqnum": 7446.0, "lat_c": 37.03855519168949, "lon_c": 60.479855743939432, "res": 7.0, "count_Flowering Plants": 7, "count_Reptiles": 4, "count_Gymnosperms": 0, "count_Arachnids": 1, "count_Birds": 40, "count_Mammals": 7, "count_Basidiomycota": 0, "count_Amphibians": 1, "count_Sac Fungi": 0, "count_Molluscs": 0, "count_Insects": 0, "count_Ferns": 0, "count_Mosses": 0, "unique_species_count": 60.0, "countryCode": "IR" }, "geometry": { "type": "MultiPolygon", "coordinates": [ [ [ [ 60.458574449011266, 37.939283751021932 ], [ 61.349845989719014, 37.556572346201115 ], [ 61.330102061646073, 36.643858415040732 ], [ 60.453248159572567, 36.120462576407441 ], [ 59.620154878304582, 36.513560304422164 ], [ 59.592944787512167, 37.416164096602067 ], [ 60.458574449011266, 37.939283751021932 ] ] ] ] } },
{ "type": "Feature", "properties": { "geogrid_id": "737194895052122344", "seqnum": 7202.0, "lat_c": 37.194894718275272, "lon_c": 52.122343674023263, "res": 7.0, "count_Flowering Plants": 41, "count_Reptiles": 8, "count_Gymnosperms": 1, "count_Arachnids": 1, "count_Birds": 39, "count_Mammals": 15, "count_Basidiomycota": 4, "count_Amphibians": 3, "count_Sac Fungi": 0, "count_Molluscs": 4, "count_Insects": 44, "count_Ferns": 3, "count_Mosses": 0, "unique_species_count": 163.0, "countryCode": "IR" }, "geometry": { "type": "MultiPolygon", "coordinates": [ [ [ [ 52.034042778835399, 37.978410608281358 ], [ 53.089122377519757, 37.699123710327754 ], [ 53.15248079036536, 36.922864442238122 ], [ 52.235576440250043, 36.399237691977845 ], [ 51.213821806557043, 36.661831452039529 ], [ 51.08652895296246, 37.457317287682713 ], [ 52.034042778835399, 37.978410608281358 ] ] ] ] } },
{ "type": "Feature", "properties": { "geogrid_id": "737260484045145543", "seqnum": 7012.0, "lat_c": 37.260484151000149, "lon_c": 45.145542921793421, "res": 7.0, "count_Flowering Plants": 74, "count_Reptiles": 8, "count_Gymnosperms": 0, "count_Arachnids": 2, "count_Birds": 46, "count_Mammals": 17, "count_Basidiomycota": 0, "count_Amphibians": 2, "count_Sac Fungi": 2, "count_Molluscs": 1, "count_Insects": 25, "count_Ferns": 0, "count_Mosses": 0, "unique_species_count": 177.0, "countryCode": "IR" }, "geometry": { "type": "MultiPolygon", "coordinates": [ [ [ [ 44.935423249717765, 38.049671576440119 ], [ 45.998982749713981, 37.841380744124656 ], [ 46.197412039479325, 37.049909723394997 ], [ 45.359707415739777, 36.469505889956743 ], [ 44.312223217793857, 36.673215058196433 ], [ 44.087316846689092, 37.461689479935202 ], [ 44.935423249717765, 38.049671576440119 ] ] ] ] } },
{ "type": "Feature", "properties": { "geogrid_id": "737396925054153612", "seqnum": 7256.0, "lat_c": 37.396924847677596, "lon_c": 54.153612264606593, "res": 7.0, "count_Flowering Plants": 65, "count_Reptiles": 12, "count_Gymnosperms": 1, "count_Arachnids": 2, "count_Birds": 94, "count_Mammals": 17, "count_Basidiomycota": 5, "count_Amphibians": 5, "count_Sac Fungi": 4, "count_Molluscs": 1, "count_Insects": 34, "count_Ferns": 6, "count_Mosses": 0, "unique_species_count": 246.0, "countryCode": "IR" }, "geometry": { "type": "MultiPolygon", "coordinates": [ [ [ [ 53.994051930315251, 38.284463889252855 ], [ 54.948716862887238, 38.079522453091457 ], [ 55.078265381311653, 37.215639252801409 ], [ 54.179529650932601, 36.6397227222269 ], [ 53.15248079036536, 36.922864442238122 ], [ 53.089122377519757, 37.699123710327754 ], [ 53.994051930315251, 38.284463889252855 ] ] ] ] } },
{ "type": "Feature", "properties": { "geogrid_id": "737623706047055817", "seqnum": 7067.0, "lat_c": 37.623706472014469, "lon_c": 47.055816849644188, "res": 7.0, "count_Flowering Plants": 199, "count_Reptiles": 9, "count_Gymnosperms": 0, "count_Arachnids": 0, "count_Birds": 93, "count_Mammals": 6, "count_Basidiomycota": 1, "count_Amphibians": 4, "count_Sac Fungi": 0, "count_Molluscs": 0, "count_Insects": 15, "count_Ferns": 0, "count_Mosses": 0, "unique_species_count": 327.0, "countryCode": "IR" }, "geometry": { "type": "MultiPolygon", "coordinates": [ [ [ [ 46.876054507632752, 38.41437854507415 ], [ 47.939030486109822, 38.189073433331444 ], [ 48.105812536766351, 37.396780988036333 ], [ 47.242835552103053, 36.830088353999571 ], [ 46.197412039479325, 37.049909723394997 ], [ 45.998982749713981, 37.841380744124656 ], [ 46.876054507632752, 38.41437854507415 ] ] ] ] } },
{ "type": "Feature", "properties": { "geogrid_id": "737834867055912955", "seqnum": 7311.0, "lat_c": 37.834867063469069, "lon_c": 55.91295528743283, "res": 7.0, "count_Flowering Plants": 120, "count_Reptiles": 19, "count_Gymnosperms": 2, "count_Arachnids": 3, "count_Birds": 47, "count_Mammals": 19, "count_Basidiomycota": 2, "count_Amphibians": 4, "count_Sac Fungi": 0, "count_Molluscs": 0, "count_Insects": 36, "count_Ferns": 11, "count_Mosses": 0, "unique_species_count": 263.0, "countryCode": "IR" }, "geometry": { "type": "MultiPolygon", "coordinates": [ [ [ [ 55.795362853878743, 38.691698420473578 ], [ 56.768849371210493, 38.413553084443642 ], [ 56.874478231257925, 37.552295026723669 ], [ 56.027827882852428, 36.978066851743932 ], [ 55.078265381311653, 37.215639252801409 ], [ 54.948716862887238, 38.079522453091457 ], [ 55.795362853878743, 38.691698420473578 ] ] ] ] } },
{ "type": "Feature", "properties": { "geogrid_id": "737954407048995080", "seqnum": 7121.0, "lat_c": 37.954407433822887, "lon_c": 48.995079655436854, "res": 7.0, "count_Flowering Plants": 132, "count_Reptiles": 12, "count_Gymnosperms": 2, "count_Arachnids": 3, "count_Birds": 110, "count_Mammals": 14, "count_Basidiomycota": 5, "count_Amphibians": 6, "count_Sac Fungi": 1, "count_Molluscs": 7, "count_Insects": 64, "count_Ferns": 2, "count_Mosses": 0, "unique_species_count": 358.0, "countryCode": "IR" }, "geometry": { "type": "MultiPolygon", "coordinates": [ [ [ [ 48.853262467054108, 38.742623591413569 ], [ 49.918541468414212, 38.498459589376552 ], [ 50.044210501608632, 37.710471898587734 ], [ 49.14886903723599, 37.160737405877398 ], [ 48.105812536766351, 37.396780988036333 ], [ 47.939030486109822, 38.189073433331444 ], [ 48.853262467054108, 38.742623591413569 ] ] ] ] } },
{ "type": "Feature", "properties": { "geogrid_id": "738106640057731010", "seqnum": 7365.0, "lat_c": 38.106640312187473, "lon_c": 57.731010152033427, "res": 7.0, "count_Flowering Plants": 20, "count_Reptiles": 0, "count_Gymnosperms": 1, "count_Arachnids": 0, "count_Birds": 28, "count_Mammals": 6, "count_Basidiomycota": 0, "count_Amphibians": 1, "count_Sac Fungi": 1, "count_Molluscs": 0, "count_Insects": 11, "count_Ferns": 1, "count_Mosses": 0, "unique_species_count": 69.0, "countryCode": "IR" }, "geometry": { "type": "MultiPolygon", "coordinates": [ [ [ [ 57.636472222353937, 38.973408124878674 ], [ 58.597812247068845, 38.64980805775474 ], [ 58.674630202391327, 37.773249607428902 ], [ 57.820720210970777, 37.234902544043898 ], [ 56.874478231257925, 37.552295026723669 ], [ 56.768849371210493, 38.413553084443642 ], [ 57.636472222353937, 38.973408124878674 ] ] ] ] } },
{ "type": "Feature", "properties": { "geogrid_id": "738248448043865264", "seqnum": 6986.0, "lat_c": 38.248447863294984, "lon_c": 43.865263683643043, "res": 7.0, "count_Flowering Plants": 10, "count_Reptiles": 1, "count_Gymnosperms": 0, "count_Arachnids": 0, "count_Birds": 0, "count_Mammals": 0, "count_Basidiomycota": 0, "count_Amphibians": 0, "count_Sac Fungi": 0, "count_Molluscs": 0, "count_Insects": 2, "count_Ferns": 0, "count_Mosses": 0, "unique_species_count": 13.0, "countryCode": "IR" }, "geometry": { "type": "MultiPolygon", "coordinates": [ [ [ [ 43.646205120662778, 39.032984443495678 ], [ 44.729545544251287, 38.836455837990407 ], [ 44.935423249717765, 38.049671576440119 ], [ 44.087316846689092, 37.461689479935202 ], [ 43.022842167658851, 37.653403283155868 ], [ 42.788641746100645, 38.437579862594866 ], [ 43.646205120662778, 39.032984443495678 ] ] ] ] } },
{ "type": "Feature", "properties": { "geogrid_id": "738630213045806199", "seqnum": 7040.0, "lat_c": 38.630212520710103, "lon_c": 45.806198534193861, "res": 7.0, "count_Flowering Plants": 68, "count_Reptiles": 2, "count_Gymnosperms": 0, "count_Arachnids": 2, "count_Birds": 24, "count_Mammals": 4, "count_Basidiomycota": 1, "count_Amphibians": 0, "count_Sac Fungi": 0, "count_Molluscs": 1, "count_Insects": 20, "count_Ferns": 0, "count_Mosses": 0, "unique_species_count": 122.0, "countryCode": "IR" }, "geometry": { "type": "MultiPolygon", "coordinates": [ [ [ [ 45.619320734364841, 39.415667667175192 ], [ 46.7038795994781, 39.201179745352533 ], [ 46.876054507632752, 38.41437854507415 ], [ 45.998982749713981, 37.841380744124656 ], [ 44.935423249717765, 38.049671576440119 ], [ 44.729545544251287, 38.836455837990407 ], [ 45.619320734364841, 39.415667667175192 ] ] ] ] } },
{ "type": "Feature", "properties": { "geogrid_id": "738976830047781815", "seqnum": 7094.0, "lat_c": 38.976830361863094, "lon_c": 47.781814950652063, "res": 7.0, "count_Flowering Plants": 71, "count_Reptiles": 5, "count_Gymnosperms": 1, "count_Arachnids": 1, "count_Birds": 33, "count_Mammals": 9, "count_Basidiomycota": 2, "count_Amphibians": 2, "count_Sac Fungi": 0, "count_Molluscs": 1, "count_Insects": 14, "count_Ferns": 0, "count_Mosses": 0, "unique_species_count": 139.0, "countryCode": "IR" }, "geometry": { "type": "MultiPolygon", "coordinates": [ [ [ [ 47.634562515647787, 39.758904441098217 ], [ 48.723889698573679, 39.523876361544467 ], [ 48.853262467054108, 38.742623591413569 ], [ 47.939030486109822, 38.189073433331444 ], [ 46.876054507632752, 38.41437854507415 ], [ 46.7038795994781, 39.201179745352533 ], [ 47.634562515647787, 39.758904441098217 ] ] ] ] } },
{ "type": "Feature", "properties": { "geogrid_id": "739620237044528110", "seqnum": 7013.0, "lat_c": 39.620237301093248, "lon_c": 44.528109561724449, "res": 7.0, "count_Flowering Plants": 12, "count_Reptiles": 5, "count_Gymnosperms": 0, "count_Arachnids": 0, "count_Birds": 2, "count_Mammals": 17, "count_Basidiomycota": 0, "count_Amphibians": 1, "count_Sac Fungi": 0, "count_Molluscs": 0, "count_Insects": 0, "count_Ferns": 0, "count_Mosses": 0, "unique_species_count": 37.0, "countryCode": "IR" }, "geometry": { "type": "MultiPolygon", "coordinates": [ [ [ [ 44.331317512084915, 40.400431191016622 ], [ 45.43861086910799, 40.197028768261688 ], [ 45.619320734364841, 39.415667667175192 ], [ 44.729545544251287, 38.836455837990407 ], [ 43.646205120662778, 39.032984443495678 ], [ 43.430285625435225, 39.814803324998998 ], [ 44.331317512084915, 40.400431191016622 ] ] ] ] } }
]
}
