{
"type": "FeatureCollection",
"name": "IS",
"crs": { "type": "name", "properties": { "name": "urn:ogc:def:crs:OGC:1.3:CRS84" } },
"features": [
{ "type": "Feature", "properties": { "geogrid_id": "5259786592017151435", "seqnum": 6625.0, "lat_c": 59.786592078549631, "lon_c": -17.151435316178098, "res": 8.0, "count_Insects": 0, "count_Mosses": 0, "count_Birds": 1, "count_Ferns": 0, "count_Basidiomycota": 0, "count_Mammals": 1, "count_Sac Fungi": 0, "count_Flowering Plants": 0, "count_Molluscs": 0, "count_Gymnosperms": 0, "count_Arachnids": 0, "unique_species_count": 2.0, "countryCode": "IS" }, "geometry": { "type": "MultiPolygon", "coordinates": [ [ [ [ -16.316336092097874, 59.563276012250206 ], [ -17.022259662294402, 59.25697006906325 ], [ -17.855358190422265, 59.4758292116368 ], [ -17.987049071068768, 60.004669230255566 ], [ -17.26158832659878, 60.317410579328794 ], [ -16.423945935081921, 60.094601384736663 ], [ -16.316336092097874, 59.563276012250206 ] ] ] ] } },
{ "type": "Feature", "properties": { "geogrid_id": "5260145540022824742", "seqnum": 1864.0, "lat_c": 60.145540261923983, "lon_c": -22.824742008088702, "res": 8.0, "count_Insects": 0, "count_Mosses": 0, "count_Birds": 2, "count_Ferns": 0, "count_Basidiomycota": 0, "count_Mammals": 0, "count_Sac Fungi": 0, "count_Flowering Plants": 0, "count_Molluscs": 0, "count_Gymnosperms": 0, "count_Arachnids": 0, "unique_species_count": 2.0, "countryCode": "IS" }, "geometry": { "type": "MultiPolygon", "coordinates": [ [ [ [ -22.632127251571653, 59.624198901047556 ], [ -23.498764426331245, 59.804702922746444 ], [ -23.705314564311628, 60.32442469876581 ], [ -23.022752835736544, 60.666905512268663 ], [ -22.137742010596586, 60.483404859683048 ], [ -21.953897630583491, 59.960482801390441 ], [ -22.632127251571653, 59.624198901047556 ] ] ] ] } },
{ "type": "Feature", "properties": { "geogrid_id": "5260293723021262866", "seqnum": 1783.0, "lat_c": 60.293723395139033, "lon_c": -21.262866155023158, "res": 8.0, "count_Insects": 0, "count_Mosses": 0, "count_Birds": 4, "count_Ferns": 0, "count_Basidiomycota": 0, "count_Mammals": 0, "count_Sac Fungi": 0, "count_Flowering Plants": 0, "count_Molluscs": 0, "count_Gymnosperms": 0, "count_Arachnids": 0, "unique_species_count": 4.0, "countryCode": "IS" }, "geometry": { "type": "MultiPolygon", "coordinates": [ [ [ [ -21.092906673298508, 59.769348281117885 ], [ -21.953897630583491, 59.960482801390441 ], [ -22.137742010596586, 60.483404859683048 ], [ -21.437617988427661, 60.818245002713745 ], [ -20.558900118582198, 60.623869480240877 ], [ -20.398242111360201, 60.09796100168527 ], [ -21.092906673298508, 59.769348281117885 ] ] ] ] } },
{ "type": "Feature", "properties": { "geogrid_id": "5260464192027057062", "seqnum": 2025.0, "lat_c": 60.464191605853479, "lon_c": -27.057062113151144, "res": 8.0, "count_Insects": 0, "count_Mosses": 0, "count_Birds": 1, "count_Ferns": 0, "count_Basidiomycota": 0, "count_Mammals": 0, "count_Sac Fungi": 0, "count_Flowering Plants": 0, "count_Molluscs": 0, "count_Gymnosperms": 0, "count_Arachnids": 0, "unique_species_count": 1.0, "countryCode": "IS" }, "geometry": { "type": "MultiPolygon", "coordinates": [ [ [ [ -26.799835333792728, 59.951769749996949 ], [ -27.696905844929827, 60.102678588122423 ], [ -27.968693872381458, 60.612987626182097 ], [ -27.321749580951636, 60.976350224917589 ], [ -26.403878973078935, 60.823095464393504 ], [ -26.154059668786775, 60.308877860845854 ], [ -26.799835333792728, 59.951769749996949 ] ] ] ] } },
{ "type": "Feature", "properties": { "geogrid_id": "5260534464018110489", "seqnum": 1621.0, "lat_c": 60.534463918858677, "lon_c": -18.110488515373738, "res": 8.0, "count_Insects": 0, "count_Mosses": 0, "count_Birds": 4, "count_Ferns": 0, "count_Basidiomycota": 0, "count_Mammals": 1, "count_Sac Fungi": 0, "count_Flowering Plants": 0, "count_Molluscs": 0, "count_Gymnosperms": 0, "count_Arachnids": 0, "unique_species_count": 5.0, "countryCode": "IS" }, "geometry": { "type": "MultiPolygon", "coordinates": [ [ [ [ -17.987049071068768, 60.004669230255566 ], [ -18.833536103510717, 60.216977341623966 ], [ -18.970605684218945, 60.745653761809258 ], [ -18.237441042666902, 61.064640581750261 ], [ -17.374751334422356, 60.848633725537006 ], [ -17.26158832659878, 60.317410579328794 ], [ -17.987049071068768, 60.004669230255566 ] ] ] ] } },
{ "type": "Feature", "properties": { "geogrid_id": "5260626776016523684", "seqnum": 1540.0, "lat_c": 60.626776450720222, "lon_c": -16.52368361800902, "res": 8.0, "count_Insects": 0, "count_Mosses": 0, "count_Birds": 0, "count_Ferns": 0, "count_Basidiomycota": 0, "count_Mammals": 1, "count_Sac Fungi": 0, "count_Flowering Plants": 0, "count_Molluscs": 0, "count_Gymnosperms": 0, "count_Arachnids": 0, "unique_species_count": 1.0, "countryCode": "IS" }, "geometry": { "type": "MultiPolygon", "coordinates": [ [ [ [ -16.423945935081921, 60.094601384736663 ], [ -17.26158832659878, 60.317410579328794 ], [ -17.374751334422356, 60.848633725537006 ], [ -16.626268109578252, 61.159446362273286 ], [ -15.773291864746934, 60.932727701101577 ], [ -15.68426529026252, 60.399179810804789 ], [ -16.423945935081921, 60.094601384736663 ] ] ] ] } },
{ "type": "Feature", "properties": { "geogrid_id": "5260663295025495054", "seqnum": 1944.0, "lat_c": 60.663295478612788, "lon_c": -25.495053635363373, "res": 8.0, "count_Insects": 0, "count_Mosses": 0, "count_Birds": 1, "count_Ferns": 0, "count_Basidiomycota": 0, "count_Mammals": 0, "count_Sac Fungi": 0, "count_Flowering Plants": 0, "count_Molluscs": 0, "count_Gymnosperms": 0, "count_Arachnids": 0, "unique_species_count": 1.0, "countryCode": "IS" }, "geometry": { "type": "MultiPolygon", "coordinates": [ [ [ [ -25.259889035686168, 60.147132782997907 ], [ -26.154059668786775, 60.308877860845854 ], [ -26.403878973078935, 60.823095464393504 ], [ -25.737144695511947, 61.179336693207418 ], [ -24.822618466613271, 61.014968905615021 ], [ -24.595472212184671, 60.497041066020714 ], [ -25.259889035686168, 60.147132782997907 ] ] ] ] } },
{ "type": "Feature", "properties": { "geogrid_id": "5260700290014932363", "seqnum": 1459.0, "lat_c": 60.700289572929115, "lon_c": -14.932363279933405, "res": 8.0, "count_Insects": 0, "count_Mosses": 0, "count_Birds": 0, "count_Ferns": 0, "count_Basidiomycota": 0, "count_Mammals": 1, "count_Sac Fungi": 0, "count_Flowering Plants": 0, "count_Molluscs": 0, "count_Gymnosperms": 0, "count_Arachnids": 0, "unique_species_count": 1.0, "countryCode": "IS" }, "geometry": { "type": "MultiPolygon", "coordinates": [ [ [ [ -14.856506380769552, 60.165954166740626 ], [ -15.68426529026252, 60.399179810804789 ], [ -15.773291864746934, 60.932727701101577 ], [ -15.010389742228957, 61.235229634445965 ], [ -14.168229363736547, 60.997897435246081 ], [ -14.103477505409245, 60.462245515460182 ], [ -14.856506380769552, 60.165954166740626 ] ] ] ] } },
{ "type": "Feature", "properties": { "geogrid_id": "5261006435022326890", "seqnum": 1782.0, "lat_c": 61.00643492101031, "lon_c": -22.326889525823908, "res": 8.0, "count_Insects": 0, "count_Mosses": 0, "count_Birds": 3, "count_Ferns": 0, "count_Basidiomycota": 0, "count_Mammals": 0, "count_Sac Fungi": 0, "count_Flowering Plants": 0, "count_Molluscs": 0, "count_Gymnosperms": 0, "count_Arachnids": 0, "unique_species_count": 3.0, "countryCode": "IS" }, "geometry": { "type": "MultiPolygon", "coordinates": [ [ [ [ -22.137742010596586, 60.483404859683048 ], [ -23.022752835736544, 60.666905512268663 ], [ -23.226587973198033, 61.188335984881292 ], [ -22.521786205809587, 61.529619974473555 ], [ -21.61757824953235, 61.342962915719255 ], [ -21.437617988427661, 60.818245002713745 ], [ -22.137742010596586, 60.483404859683048 ] ] ] ] } },
{ "type": "Feature", "properties": { "geogrid_id": "5261337134026661148", "seqnum": 1943.0, "lat_c": 61.33713429072651, "lon_c": -26.661148020461116, "res": 8.0, "count_Insects": 0, "count_Mosses": 0, "count_Birds": 0, "count_Ferns": 0, "count_Basidiomycota": 0, "count_Mammals": 2, "count_Sac Fungi": 0, "count_Flowering Plants": 0, "count_Molluscs": 1, "count_Gymnosperms": 0, "count_Arachnids": 0, "unique_species_count": 3.0, "countryCode": "IS" }, "geometry": { "type": "MultiPolygon", "coordinates": [ [ [ [ -26.403878973078935, 60.823095464393504 ], [ -27.321749580951636, 60.976350224917589 ], [ -27.594414563982415, 61.488268211258223 ], [ -26.926407909501993, 61.851021973782814 ], [ -25.986675167745833, 61.695287848849944 ], [ -25.737144695511947, 61.179336693207418 ], [ -26.403878973078935, 60.823095464393504 ] ] ] ] } },
{ "type": "Feature", "properties": { "geogrid_id": "5261380331017491279", "seqnum": 1539.0, "lat_c": 61.380331113234426, "lon_c": -17.491279206300678, "res": 8.0, "count_Insects": 0, "count_Mosses": 0, "count_Birds": 1, "count_Ferns": 0, "count_Basidiomycota": 0, "count_Mammals": 0, "count_Sac Fungi": 0, "count_Flowering Plants": 0, "count_Molluscs": 0, "count_Gymnosperms": 0, "count_Arachnids": 0, "unique_species_count": 1.0, "countryCode": "IS" }, "geometry": { "type": "MultiPolygon", "coordinates": [ [ [ [ -17.374751334422356, 60.848633725537006 ], [ -18.237441042666902, 61.064640581750261 ], [ -18.368293668179856, 61.595266807140824 ], [ -17.611576995300368, 61.912577723340895 ], [ -16.732070064276193, 61.69268804436738 ], [ -16.626268109578252, 61.159446362273286 ], [ -17.374751334422356, 60.848633725537006 ] ] ] ] } },
{ "type": "Feature", "properties": { "geogrid_id": "5261534253014234975", "seqnum": 1377.0, "lat_c": 61.534252705914078, "lon_c": -14.234975495612122, "res": 8.0, "count_Insects": 0, "count_Mosses": 0, "count_Birds": 7, "count_Ferns": 0, "count_Basidiomycota": 0, "count_Mammals": 0, "count_Sac Fungi": 0, "count_Flowering Plants": 0, "count_Molluscs": 0, "count_Gymnosperms": 0, "count_Arachnids": 0, "unique_species_count": 7.0, "countryCode": "IS" }, "geometry": { "type": "MultiPolygon", "coordinates": [ [ [ [ -14.168229363736547, 60.997897435246081 ], [ -15.010389742228957, 61.235229634445965 ], [ -15.090939258138793, 61.77086094973086 ], [ -14.30408817413813, 62.071406736163389 ], [ -13.447070836296856, 61.829773293042734 ], [ -13.391874252368783, 61.291975402489683 ], [ -14.168229363736547, 60.997897435246081 ] ] ] ] } },
{ "type": "Feature", "properties": { "geogrid_id": "5261770182029487781", "seqnum": 2023.0, "lat_c": 61.770181880173276, "lon_c": -29.48778083657389, "res": 8.0, "count_Insects": 0, "count_Mosses": 0, "count_Birds": 3, "count_Ferns": 0, "count_Basidiomycota": 0, "count_Mammals": 0, "count_Sac Fungi": 0, "count_Flowering Plants": 0, "count_Molluscs": 0, "count_Gymnosperms": 0, "count_Arachnids": 0, "unique_species_count": 3.0, "countryCode": "IS" }, "geometry": { "type": "MultiPolygon", "coordinates": [ [ [ [ -29.183737265823527, 61.262870863992951 ], [ -30.127362189494523, 61.395965966447946 ], [ -30.447351834970004, 61.900786347133639 ], [ -29.801488467632272, 62.277129458160992 ], [ -28.834077413972164, 62.142035457578267 ], [ -28.536710264799385, 61.632647070524627 ], [ -29.183737265823527, 61.262870863992951 ] ] ] ] } },
{ "type": "Feature", "properties": { "geogrid_id": "5261999969027875626", "seqnum": 1942.0, "lat_c": 61.999969168123464, "lon_c": -27.875626020300075, "res": 8.0, "count_Insects": 0, "count_Mosses": 0, "count_Birds": 5, "count_Ferns": 0, "count_Basidiomycota": 0, "count_Mammals": 0, "count_Sac Fungi": 0, "count_Flowering Plants": 0, "count_Molluscs": 1, "count_Gymnosperms": 0, "count_Arachnids": 0, "unique_species_count": 6.0, "countryCode": "IS" }, "geometry": { "type": "MultiPolygon", "coordinates": [ [ [ [ -27.594414563982415, 61.488268211258223 ], [ -28.536710264799385, 61.632647070524627 ], [ -28.834077413972164, 62.142035457578267 ], [ -28.166012493993939, 62.511477772340307 ], [ -27.20025718033504, 62.364787557713846 ], [ -26.926407909501993, 61.851021973782814 ], [ -27.594414563982415, 61.488268211258223 ] ] ] ] } },
{ "type": "Feature", "properties": { "geogrid_id": "5262211182026244213", "seqnum": 1861.0, "lat_c": 62.211182097891886, "lon_c": -26.244213204809768, "res": 8.0, "count_Insects": 1, "count_Mosses": 0, "count_Birds": 0, "count_Ferns": 0, "count_Basidiomycota": 0, "count_Mammals": 0, "count_Sac Fungi": 0, "count_Flowering Plants": 0, "count_Molluscs": 4, "count_Gymnosperms": 0, "count_Arachnids": 0, "unique_species_count": 5.0, "countryCode": "IS" }, "geometry": { "type": "MultiPolygon", "coordinates": [ [ [ [ -25.986675167745833, 61.695287848849944 ], [ -26.926407909501993, 61.851021973782814 ], [ -27.20025718033504, 62.364787557713846 ], [ -26.510390474966034, 62.727054469883498 ], [ -25.54763015053819, 62.568700445882321 ], [ -25.298129429669231, 62.050760486515358 ], [ -25.986675167745833, 61.695287848849944 ] ] ] ] } },
{ "type": "Feature", "properties": { "geogrid_id": "5262226585016841515", "seqnum": 1457.0, "lat_c": 62.22658462420204, "lon_c": -16.841515366222993, "res": 8.0, "count_Insects": 0, "count_Mosses": 0, "count_Birds": 10, "count_Ferns": 0, "count_Basidiomycota": 0, "count_Mammals": 2, "count_Sac Fungi": 0, "count_Flowering Plants": 0, "count_Molluscs": 1, "count_Gymnosperms": 0, "count_Arachnids": 0, "unique_species_count": 13.0, "countryCode": "IS" }, "geometry": { "type": "MultiPolygon", "coordinates": [ [ [ [ -16.732070064276193, 61.69268804436738 ], [ -17.611576995300368, 61.912577723340895 ], [ -17.736108795173287, 62.445454531653915 ], [ -16.955095204289645, 62.761226147665127 ], [ -16.058091776157738, 62.53725956567461 ], [ -15.959785616862668, 62.001679017431265 ], [ -16.732070064276193, 61.69268804436738 ] ] ] ] } },
{ "type": "Feature", "properties": { "geogrid_id": "5262307277015174422", "seqnum": 1376.0, "lat_c": 62.307277426521296, "lon_c": -15.174422156574595, "res": 8.0, "count_Insects": 0, "count_Mosses": 0, "count_Birds": 11, "count_Ferns": 0, "count_Basidiomycota": 0, "count_Mammals": 4, "count_Sac Fungi": 0, "count_Flowering Plants": 0, "count_Molluscs": 0, "count_Gymnosperms": 0, "count_Arachnids": 0, "unique_species_count": 15.0, "countryCode": "IS" }, "geometry": { "type": "MultiPolygon", "coordinates": [ [ [ [ -15.090939258138793, 61.77086094973086 ], [ -15.959785616862668, 62.001679017431265 ], [ -16.058091776157738, 62.53725956567461 ], [ -15.261316354599993, 62.844581153818517 ], [ -14.376002565960111, 62.609463294785456 ], [ -14.30408817413813, 62.071406736163389 ], [ -15.090939258138793, 61.77086094973086 ] ] ] ] } },
{ "type": "Feature", "properties": { "geogrid_id": "5262368485013504484", "seqnum": 1295.0, "lat_c": 62.368484669393212, "lon_c": -13.504484301151965, "res": 8.0, "count_Insects": 0, "count_Mosses": 0, "count_Birds": 2, "count_Ferns": 0, "count_Basidiomycota": 0, "count_Mammals": 2, "count_Sac Fungi": 0, "count_Flowering Plants": 0, "count_Molluscs": 2, "count_Gymnosperms": 0, "count_Arachnids": 0, "unique_species_count": 6.0, "countryCode": "IS" }, "geometry": { "type": "MultiPolygon", "coordinates": [ [ [ [ -13.447070836296856, 61.829773293042734 ], [ -14.30408817413813, 62.071406736163389 ], [ -14.376002565960111, 62.609463294785456 ], [ -13.564578731228845, 62.908224237102914 ], [ -12.692191138300391, 62.662083930881153 ], [ -12.646722918555115, 62.121774538888239 ], [ -13.447070836296856, 61.829773293042734 ] ] ] ] } },
{ "type": "Feature", "properties": { "geogrid_id": "5262405163030777564", "seqnum": 2022.0, "lat_c": 62.405162694267446, "lon_c": -30.777564132748747, "res": 8.0, "count_Insects": 0, "count_Mosses": 0, "count_Birds": 3, "count_Ferns": 0, "count_Basidiomycota": 0, "count_Mammals": 0, "count_Sac Fungi": 0, "count_Flowering Plants": 0, "count_Molluscs": 0, "count_Gymnosperms": 0, "count_Arachnids": 0, "unique_species_count": 3.0, "countryCode": "IS" }, "geometry": { "type": "MultiPolygon", "coordinates": [ [ [ [ -30.447351834970004, 61.900786347133639 ], [ -31.415128839619161, 62.024377177899474 ], [ -31.761988174817077, 62.526049921401949 ], [ -31.118713505974906, 62.909105070931048 ], [ -30.125546834780927, 62.783728778008587 ], [ -29.801488467632272, 62.277129458160992 ], [ -30.447351834970004, 61.900786347133639 ] ] ] ] } },
{ "type": "Feature", "properties": { "geogrid_id": "5262576659022930883", "seqnum": 1699.0, "lat_c": 62.576658919958263, "lon_c": -22.930883425337342, "res": 8.0, "count_Insects": 0, "count_Mosses": 0, "count_Birds": 4, "count_Ferns": 0, "count_Basidiomycota": 0, "count_Mammals": 0, "count_Sac Fungi": 0, "count_Flowering Plants": 0, "count_Molluscs": 0, "count_Gymnosperms": 0, "count_Arachnids": 0, "unique_species_count": 4.0, "countryCode": "IS" }, "geometry": { "type": "MultiPolygon", "coordinates": [ [ [ [ -22.722930840110646, 62.053010127646658 ], [ -23.653692072327882, 62.231571099196053 ], [ -23.878089083273025, 62.753472365397769 ], [ -23.146275298520717, 63.100623659789271 ], [ -22.193670394818291, 62.91884537592486 ], [ -21.995046444257202, 62.393204136010368 ], [ -22.722930840110646, 62.053010127646658 ] ] ] ] } },
{ "type": "Feature", "properties": { "geogrid_id": "5262651156029141207", "seqnum": 1941.0, "lat_c": 62.651156118985746, "lon_c": -29.141207307546384, "res": 8.0, "count_Insects": 0, "count_Mosses": 0, "count_Birds": 1, "count_Ferns": 0, "count_Basidiomycota": 0, "count_Mammals": 2, "count_Sac Fungi": 0, "count_Flowering Plants": 0, "count_Molluscs": 0, "count_Gymnosperms": 0, "count_Arachnids": 0, "unique_species_count": 3.0, "countryCode": "IS" }, "geometry": { "type": "MultiPolygon", "coordinates": [ [ [ [ -28.834077413972164, 62.142035457578267 ], [ -29.801488467632272, 62.277129458160992 ], [ -30.125546834780927, 62.783728778008587 ], [ -29.458828626217617, 63.160029852731853 ], [ -28.466270963838209, 63.022819839644797 ], [ -28.166012493993939, 62.511477772340307 ], [ -28.834077413972164, 62.142035457578267 ] ] ] ] } },
{ "type": "Feature", "properties": { "geogrid_id": "5262730416021252949", "seqnum": 1618.0, "lat_c": 62.730415986191467, "lon_c": -21.252949351801508, "res": 8.0, "count_Insects": 0, "count_Mosses": 0, "count_Birds": 5, "count_Ferns": 0, "count_Basidiomycota": 0, "count_Mammals": 3, "count_Sac Fungi": 0, "count_Flowering Plants": 0, "count_Molluscs": 0, "count_Gymnosperms": 0, "count_Arachnids": 0, "unique_species_count": 8.0, "countryCode": "IS" }, "geometry": { "type": "MultiPolygon", "coordinates": [ [ [ [ -21.070741363488871, 62.203222223814684 ], [ -21.995046444257202, 62.393204136010368 ], [ -22.193670394818291, 62.91884537592486 ], [ -21.441940500223993, 63.258092663462918 ], [ -20.496541266548707, 63.064608417156371 ], [ -20.324264394470315, 62.535454620010725 ], [ -21.070741363488871, 62.203222223814684 ] ] ] ] } },
{ "type": "Feature", "properties": { "geogrid_id": "5262864591019563698", "seqnum": 1537.0, "lat_c": 62.864590949695298, "lon_c": -19.563698090997935, "res": 8.0, "count_Insects": 0, "count_Mosses": 0, "count_Birds": 13, "count_Ferns": 0, "count_Basidiomycota": 0, "count_Mammals": 1, "count_Sac Fungi": 0, "count_Flowering Plants": 1, "count_Molluscs": 0, "count_Gymnosperms": 0, "count_Arachnids": 0, "unique_species_count": 15.0, "countryCode": "IS" }, "geometry": { "type": "MultiPolygon", "coordinates": [ [ [ [ -19.407742637778799, 62.334081045511667 ], [ -20.324264394470315, 62.535454620010725 ], [ -20.496541266548707, 63.064608417156371 ], [ -19.725749812786027, 63.39574938916418 ], [ -18.788984067320754, 63.190599989521147 ], [ -18.64352447805496, 62.658164781686828 ], [ -19.407742637778799, 62.334081045511667 ] ] ] ] } },
{ "type": "Feature", "properties": { "geogrid_id": "5262979049017865408", "seqnum": 1456.0, "lat_c": 62.979049190675767, "lon_c": -17.865408455322822, "res": 8.0, "count_Insects": 0, "count_Mosses": 0, "count_Birds": 7, "count_Ferns": 0, "count_Basidiomycota": 0, "count_Mammals": 2, "count_Sac Fungi": 0, "count_Flowering Plants": 3, "count_Molluscs": 0, "count_Gymnosperms": 0, "count_Arachnids": 0, "unique_species_count": 12.0, "countryCode": "IS" }, "geometry": { "type": "MultiPolygon", "coordinates": [ [ [ [ -17.736108795173287, 62.445454531653915 ], [ -18.64352447805496, 62.658164781686828 ], [ -18.788984067320754, 63.190599989521147 ], [ -18.000092604002838, 63.513456789535589 ], [ -17.073378310705422, 63.296710381978976 ], [ -16.955095204289645, 62.761226147665127 ], [ -17.736108795173287, 62.445454531653915 ] ] ] ] } },
{ "type": "Feature", "properties": { "geogrid_id": "5263073708016160443", "seqnum": 1375.0, "lat_c": 63.073707510450269, "lon_c": -16.160443250492214, "res": 8.0, "count_Insects": 0, "count_Mosses": 0, "count_Birds": 0, "count_Ferns": 0, "count_Basidiomycota": 0, "count_Mammals": 1, "count_Sac Fungi": 0, "count_Flowering Plants": 2, "count_Molluscs": 0, "count_Gymnosperms": 0, "count_Arachnids": 0, "unique_species_count": 3.0, "countryCode": "IS" }, "geometry": { "type": "MultiPolygon", "coordinates": [ [ [ [ -16.058091776157738, 62.53725956567461 ], [ -16.955095204289645, 62.761226147665127 ], [ -17.073378310705422, 63.296710381978976 ], [ -16.26744898258363, 63.611131858758164 ], [ -15.352180461690534, 63.382883385295436 ], [ -15.261316354599993, 62.844581153818517 ], [ -16.058091776157738, 62.53725956567461 ] ] ] ] } },
{ "type": "Feature", "properties": { "geogrid_id": "5263086725025805829", "seqnum": 1779.0, "lat_c": 63.086724550759769, "lon_c": -25.80582945891004, "res": 8.0, "count_Insects": 0, "count_Mosses": 0, "count_Birds": 0, "count_Ferns": 0, "count_Basidiomycota": 0, "count_Mammals": 2, "count_Sac Fungi": 0, "count_Flowering Plants": 0, "count_Molluscs": 3, "count_Gymnosperms": 0, "count_Arachnids": 0, "unique_species_count": 5.0, "countryCode": "IS" }, "geometry": { "type": "MultiPolygon", "coordinates": [ [ [ [ -25.54763015053819, 62.568700445882321 ], [ -26.510390474966034, 62.727054469883498 ], [ -26.785912087468333, 63.242942016509687 ], [ -26.073478272045698, 63.604877026528683 ], [ -25.086397561901933, 63.443755531570517 ], [ -24.836475491140405, 62.923531426775291 ], [ -25.54763015053819, 62.568700445882321 ] ] ] ] } },
{ "type": "Feature", "properties": { "geogrid_id": "5263148536014451229", "seqnum": 1294.0, "lat_c": 63.148535527941846, "lon_c": -14.451228973427574, "res": 8.0, "count_Insects": 0, "count_Mosses": 0, "count_Birds": 1, "count_Ferns": 0, "count_Basidiomycota": 0, "count_Mammals": 1, "count_Sac Fungi": 0, "count_Flowering Plants": 0, "count_Molluscs": 1, "count_Gymnosperms": 0, "count_Arachnids": 0, "unique_species_count": 3.0, "countryCode": "IS" }, "geometry": { "type": "MultiPolygon", "coordinates": [ [ [ [ -14.376002565960111, 62.609463294785456 ], [ -15.261316354599993, 62.844581153818517 ], [ -15.352180461690534, 63.382883385295436 ], [ -14.530367817685521, 63.688747109372201 ], [ -13.627901993971621, 63.449117440343421 ], [ -13.564578731228845, 62.908224237102914 ], [ -14.376002565960111, 62.609463294785456 ] ] ] ] } },
{ "type": "Feature", "properties": { "geogrid_id": "5263238848011029946", "seqnum": 1132.0, "lat_c": 63.238847637099163, "lon_c": -11.029946229831138, "res": 8.0, "count_Insects": 0, "count_Mosses": 0, "count_Birds": 4, "count_Ferns": 0, "count_Basidiomycota": 0, "count_Mammals": 0, "count_Sac Fungi": 0, "count_Flowering Plants": 0, "count_Molluscs": 0, "count_Gymnosperms": 0, "count_Arachnids": 0, "unique_species_count": 4.0, "countryCode": "IS" }, "geometry": { "type": "MultiPolygon", "coordinates": [ [ [ [ -11.009025532115533, 62.69519100749234 ], [ -11.867302760873347, 62.952202372602173 ], [ -11.903086171861284, 63.495466184565579 ], [ -11.053289545804649, 63.783970359922293 ], [ -10.18028408538237, 63.52203837519103 ], [ -10.171916424955052, 62.976615036069639 ], [ -11.009025532115533, 62.69519100749234 ] ] ] ] } },
{ "type": "Feature", "properties": { "geogrid_id": "5263275633024110586", "seqnum": 1698.0, "lat_c": 63.275632668767742, "lon_c": -24.110585931901767, "res": 8.0, "count_Insects": 0, "count_Mosses": 0, "count_Birds": 2, "count_Ferns": 0, "count_Basidiomycota": 0, "count_Mammals": 3, "count_Sac Fungi": 0, "count_Flowering Plants": 0, "count_Molluscs": 2, "count_Gymnosperms": 0, "count_Arachnids": 0, "unique_species_count": 7.0, "countryCode": "IS" }, "geometry": { "type": "MultiPolygon", "coordinates": [ [ [ [ -23.878089083273025, 62.753472365397769 ], [ -24.836475491140405, 62.923531426775291 ], [ -25.086397561901933, 63.443755531570517 ], [ -24.351941474037002, 63.798108991516422 ], [ -23.369821359307867, 63.624965782590863 ], [ -23.146275298520717, 63.100623659789271 ], [ -23.878089083273025, 62.753472365397769 ] ] ] ] } },
{ "type": "Feature", "properties": { "geogrid_id": "5263289995030460715", "seqnum": 1940.0, "lat_c": 63.289995354651182, "lon_c": -30.460715403751696, "res": 8.0, "count_Insects": 0, "count_Mosses": 0, "count_Birds": 1, "count_Ferns": 0, "count_Basidiomycota": 0, "count_Mammals": 0, "count_Sac Fungi": 0, "count_Flowering Plants": 0, "count_Molluscs": 0, "count_Gymnosperms": 0, "count_Arachnids": 0, "unique_species_count": 1.0, "countryCode": "IS" }, "geometry": { "type": "MultiPolygon", "coordinates": [ [ [ [ -30.125546834780927, 62.783728778008587 ], [ -31.118713505974906, 62.909105070931048 ], [ -31.471589069099597, 63.412623452972724 ], [ -30.807837525487344, 63.795944984727079 ], [ -29.787751592476173, 63.668678199054888 ], [ -29.458828626217617, 63.160029852731853 ], [ -30.125546834780927, 62.783728778008587 ] ] ] ] } },
{ "type": "Feature", "properties": { "geogrid_id": "5263444920022399756", "seqnum": 1617.0, "lat_c": 63.444919576667715, "lon_c": -22.399756123596561, "res": 8.0, "count_Insects": 9, "count_Mosses": 13, "count_Birds": 60, "count_Ferns": 2, "count_Basidiomycota": 5, "count_Mammals": 10, "count_Sac Fungi": 4, "count_Flowering Plants": 94, "count_Molluscs": 9, "count_Gymnosperms": 1, "count_Arachnids": 2, "unique_species_count": 209.0, "countryCode": "IS" }, "geometry": { "type": "MultiPolygon", "coordinates": [ [ [ [ -22.193670394818291, 62.91884537592486 ], [ -23.146275298520717, 63.100623659789271 ], [ -23.369821359307867, 63.624965782590863 ], [ -22.61406838879353, 63.971497225639069 ], [ -21.638431557755823, 63.786326909559641 ], [ -21.441940500223993, 63.258092663462918 ], [ -22.193670394818291, 62.91884537592486 ] ] ] ] } },
{ "type": "Feature", "properties": { "geogrid_id": "5263534022028777177", "seqnum": 1859.0, "lat_c": 63.534022373007993, "lon_c": -28.77717740857068, "res": 8.0, "count_Insects": 0, "count_Mosses": 0, "count_Birds": 4, "count_Ferns": 0, "count_Basidiomycota": 0, "count_Mammals": 3, "count_Sac Fungi": 0, "count_Flowering Plants": 0, "count_Molluscs": 1, "count_Gymnosperms": 0, "count_Arachnids": 0, "unique_species_count": 8.0, "countryCode": "IS" }, "geometry": { "type": "MultiPolygon", "coordinates": [ [ [ [ -28.466270963838209, 63.022819839644797 ], [ -29.458828626217617, 63.160029852731853 ], [ -29.787751592476173, 63.668678199054888 ], [ -29.099599500387122, 64.045113582210448 ], [ -28.080380782543596, 63.905665477350425 ], [ -27.776458449310486, 63.392076287433461 ], [ -28.466270963838209, 63.022819839644797 ] ] ] ] } },
{ "type": "Feature", "properties": { "geogrid_id": "5263594368020675607", "seqnum": 1536.0, "lat_c": 63.594368079264939, "lon_c": -20.675607453875028, "res": 8.0, "count_Insects": 67, "count_Mosses": 58, "count_Birds": 89, "count_Ferns": 6, "count_Basidiomycota": 14, "count_Mammals": 15, "count_Sac Fungi": 21, "count_Flowering Plants": 194, "count_Molluscs": 10, "count_Gymnosperms": 3, "count_Arachnids": 5, "unique_species_count": 482.0, "countryCode": "IS" }, "geometry": { "type": "MultiPolygon", "coordinates": [ [ [ [ -20.496541266548707, 63.064608417156371 ], [ -21.441940500223993, 63.258092663462918 ], [ -21.638431557755823, 63.786326909559641 ], [ -20.862231727988913, 64.124818394968955 ], [ -19.894614606944668, 63.927644978616257 ], [ -19.725749812786027, 63.39574938916418 ], [ -20.496541266548707, 63.064608417156371 ] ] ] ] } },
{ "type": "Feature", "properties": { "geogrid_id": "5263723813018940532", "seqnum": 1455.0, "lat_c": 63.723813031299848, "lon_c": -18.940531768894022, "res": 8.0, "count_Insects": 77, "count_Mosses": 45, "count_Birds": 81, "count_Ferns": 4, "count_Basidiomycota": 14, "count_Mammals": 13, "count_Sac Fungi": 6, "count_Flowering Plants": 196, "count_Molluscs": 8, "count_Gymnosperms": 1, "count_Arachnids": 4, "unique_species_count": 449.0, "countryCode": "IS" }, "geometry": { "type": "MultiPolygon", "coordinates": [ [ [ [ -18.788984067320754, 63.190599989521147 ], [ -19.725749812786027, 63.39574938916418 ], [ -19.894614606944668, 63.927644978616257 ], [ -19.098938689583406, 64.2579038471319 ], [ -18.140876557902139, 64.048780697711635 ], [ -18.000092604002838, 63.513456789535589 ], [ -18.788984067320754, 63.190599989521147 ] ] ] ] } },
{ "type": "Feature", "properties": { "geogrid_id": "5263758884027071569", "seqnum": 1778.0, "lat_c": 63.758883946791535, "lon_c": -27.071568510556681, "res": 8.0, "count_Insects": 0, "count_Mosses": 0, "count_Birds": 0, "count_Ferns": 0, "count_Basidiomycota": 0, "count_Mammals": 3, "count_Sac Fungi": 0, "count_Flowering Plants": 0, "count_Molluscs": 0, "count_Gymnosperms": 0, "count_Arachnids": 0, "unique_species_count": 3.0, "countryCode": "IS" }, "geometry": { "type": "MultiPolygon", "coordinates": [ [ [ [ -26.785912087468333, 63.242942016509687 ], [ -27.776458449310486, 63.392076287433461 ], [ -28.080380782543596, 63.905665477350425 ], [ -27.368249969809757, 64.274921740652204 ], [ -26.351423363010699, 64.12320487680465 ], [ -26.073478272045698, 63.604877026528683 ], [ -26.785912087468333, 63.242942016509687 ] ] ] ] } },
{ "type": "Feature", "properties": { "geogrid_id": "5263833144017197026", "seqnum": 1374.0, "lat_c": 63.833143712683771, "lon_c": -17.197025901168228, "res": 8.0, "count_Insects": 38, "count_Mosses": 37, "count_Birds": 62, "count_Ferns": 4, "count_Basidiomycota": 10, "count_Mammals": 8, "count_Sac Fungi": 13, "count_Flowering Plants": 170, "count_Molluscs": 3, "count_Gymnosperms": 2, "count_Arachnids": 6, "unique_species_count": 353.0, "countryCode": "IS" }, "geometry": { "type": "MultiPolygon", "coordinates": [ [ [ [ -17.073378310705422, 63.296710381978976 ], [ -18.000092604002838, 63.513456789535589 ], [ -18.140876557902139, 64.048780697711635 ], [ -17.32681000718776, 64.370642142173423 ], [ -16.379821563133103, 64.149651587071645 ], [ -16.26744898258363, 63.611131858758164 ], [ -17.073378310705422, 63.296710381978976 ] ] ] ] } },
{ "type": "Feature", "properties": { "geogrid_id": "5263922306015447670", "seqnum": 1293.0, "lat_c": 63.92230564676894, "lon_c": -15.4476698313365, "res": 8.0, "count_Insects": 18, "count_Mosses": 20, "count_Birds": 77, "count_Ferns": 1, "count_Basidiomycota": 6, "count_Mammals": 12, "count_Sac Fungi": 7, "count_Flowering Plants": 125, "count_Molluscs": 11, "count_Gymnosperms": 3, "count_Arachnids": 2, "unique_species_count": 282.0, "countryCode": "IS" }, "geometry": { "type": "MultiPolygon", "coordinates": [ [ [ [ -15.352180461690534, 63.382883385295436 ], [ -16.26744898258363, 63.611131858758164 ], [ -16.379821563133103, 64.149651587071645 ], [ -15.548556322538055, 64.462980980201351 ], [ -14.614128066040902, 64.230233538939032 ], [ -14.530367817685521, 63.688747109372201 ], [ -15.352180461690534, 63.382883385295436 ] ] ] ] } },
{ "type": "Feature", "properties": { "geogrid_id": "5263964228025345893", "seqnum": 1697.0, "lat_c": 63.964228361467349, "lon_c": -25.345893045903605, "res": 8.0, "count_Insects": 0, "count_Mosses": 0, "count_Birds": 5, "count_Ferns": 0, "count_Basidiomycota": 0, "count_Mammals": 2, "count_Sac Fungi": 0, "count_Flowering Plants": 0, "count_Molluscs": 2, "count_Gymnosperms": 0, "count_Arachnids": 0, "unique_species_count": 9.0, "countryCode": "IS" }, "geometry": { "type": "MultiPolygon", "coordinates": [ [ [ [ -25.086397561901933, 63.443755531570517 ], [ -26.073478272045698, 63.604877026528683 ], [ -26.351423363010699, 64.12320487680465 ], [ -25.615872871883621, 64.485005578082522 ], [ -24.603017807904873, 64.320962328572733 ], [ -24.351941474037002, 63.798108991516422 ], [ -25.086397561901933, 63.443755531570517 ] ] ] ] } },
{ "type": "Feature", "properties": { "geogrid_id": "5263991302013695103", "seqnum": 1212.0, "lat_c": 63.991301805922063, "lon_c": -13.695102897714635, "res": 8.0, "count_Insects": 0, "count_Mosses": 0, "count_Birds": 4, "count_Ferns": 0, "count_Basidiomycota": 0, "count_Mammals": 1, "count_Sac Fungi": 0, "count_Flowering Plants": 4, "count_Molluscs": 0, "count_Gymnosperms": 0, "count_Arachnids": 0, "unique_species_count": 9.0, "countryCode": "IS" }, "geometry": { "type": "MultiPolygon", "coordinates": [ [ [ [ -13.627901993971621, 63.449117440343421 ], [ -14.530367817685521, 63.688747109372201 ], [ -14.614128066040902, 64.230233538939032 ], [ -13.766952377423626, 64.534928464246434 ], [ -12.846523197716863, 64.290561715718454 ], [ -12.791443152596948, 63.746331439519686 ], [ -13.627901993971621, 63.449117440343421 ] ] ] ] } },
{ "type": "Feature", "properties": { "geogrid_id": "5264040193011941999", "seqnum": 1131.0, "lat_c": 64.040193163858603, "lon_c": -11.94199858371754, "res": 8.0, "count_Insects": 0, "count_Mosses": 0, "count_Birds": 9, "count_Ferns": 0, "count_Basidiomycota": 0, "count_Mammals": 1, "count_Sac Fungi": 0, "count_Flowering Plants": 0, "count_Molluscs": 0, "count_Gymnosperms": 0, "count_Arachnids": 0, "unique_species_count": 10.0, "countryCode": "IS" }, "geometry": { "type": "MultiPolygon", "coordinates": [ [ [ [ -11.903086171861284, 63.495466184565579 ], [ -12.791443152596948, 63.746331439519686 ], [ -12.846523197716863, 64.290561715718454 ], [ -11.984809618250905, 64.586553653772668 ], [ -11.079755978701231, 64.330730752951553 ], [ -11.053289545804649, 63.783970359922293 ], [ -11.903086171861284, 63.495466184565579 ] ] ] ] } },
{ "type": "Feature", "properties": { "geogrid_id": "5264069099010191038", "seqnum": 1050.0, "lat_c": 64.069098571519447, "lon_c": -10.191038476046298, "res": 8.0, "count_Insects": 0, "count_Mosses": 0, "count_Birds": 18, "count_Ferns": 0, "count_Basidiomycota": 0, "count_Mammals": 0, "count_Sac Fungi": 0, "count_Flowering Plants": 0, "count_Molluscs": 0, "count_Gymnosperms": 0, "count_Arachnids": 0, "unique_species_count": 18.0, "countryCode": "IS" }, "geometry": { "type": "MultiPolygon", "coordinates": [ [ [ [ -10.18028408538237, 63.52203837519103 ], [ -11.053289545804649, 63.783970359922293 ], [ -11.079755978701231, 64.330730752951553 ], [ -10.204947878861898, 64.617986383696163 ], [ -9.316569977488406, 64.35089425271579 ], [ -9.318516919732652, 63.801805566997295 ], [ -10.18028408538237, 63.52203837519103 ] ] ] ] } },
{ "type": "Feature", "properties": { "geogrid_id": "5264149751023602335", "seqnum": 1616.0, "lat_c": 64.149751224448991, "lon_c": -23.602334895128202, "res": 8.0, "count_Insects": 4, "count_Mosses": 8, "count_Birds": 73, "count_Ferns": 0, "count_Basidiomycota": 2, "count_Mammals": 11, "count_Sac Fungi": 4, "count_Flowering Plants": 58, "count_Molluscs": 8, "count_Gymnosperms": 0, "count_Arachnids": 1, "unique_species_count": 169.0, "countryCode": "IS" }, "geometry": { "type": "MultiPolygon", "coordinates": [ [ [ [ -23.369821359307867, 63.624965782590863 ], [ -24.351941474037002, 63.798108991516422 ], [ -24.603017807904873, 64.320962328572733 ], [ -23.844745670415286, 64.675050801090478 ], [ -22.837482679035105, 64.498654220747298 ], [ -22.61406838879353, 63.971497225639069 ], [ -23.369821359307867, 63.624965782590863 ] ] ] ] } },
{ "type": "Feature", "properties": { "geogrid_id": "5264177123030128881", "seqnum": 1858.0, "lat_c": 64.177123399845286, "lon_c": -30.128881005720395, "res": 8.0, "count_Insects": 0, "count_Mosses": 0, "count_Birds": 1, "count_Ferns": 0, "count_Basidiomycota": 0, "count_Mammals": 0, "count_Sac Fungi": 0, "count_Flowering Plants": 0, "count_Molluscs": 0, "count_Gymnosperms": 0, "count_Arachnids": 0, "unique_species_count": 1.0, "countryCode": "IS" }, "geometry": { "type": "MultiPolygon", "coordinates": [ [ [ [ -29.787751592476173, 63.668678199054888 ], [ -30.807837525487344, 63.795944984727079 ], [ -31.167853775371153, 64.301593644907157 ], [ -30.483232014560699, 64.685388299340943 ], [ -29.434511955387975, 64.556122857377375 ], [ -29.099599500387122, 64.045113582210448 ], [ -29.787751592476173, 63.668678199054888 ] ] ] ] } },
{ "type": "Feature", "properties": { "geogrid_id": "5264315199021843244", "seqnum": 1535.0, "lat_c": 64.315199277532173, "lon_c": -21.843244265187067, "res": 8.0, "count_Insects": 161, "count_Mosses": 156, "count_Birds": 128, "count_Ferns": 9, "count_Basidiomycota": 63, "count_Mammals": 21, "count_Sac Fungi": 79, "count_Flowering Plants": 368, "count_Molluscs": 57, "count_Gymnosperms": 14, "count_Arachnids": 15, "unique_species_count": 1071.0, "countryCode": "IS" }, "geometry": { "type": "MultiPolygon", "coordinates": [ [ [ [ -21.638431557755823, 63.786326909559641 ], [ -22.61406838879353, 63.971497225639069 ], [ -22.837482679035105, 64.498654220747298 ], [ -22.057325405985114, 64.844796776705579 ], [ -21.057301142529383, 64.656051138584118 ], [ -20.862231727988913, 64.124818394968955 ], [ -21.638431557755823, 63.786326909559641 ] ] ] ] } },
{ "type": "Feature", "properties": { "geogrid_id": "5264419265028396060", "seqnum": 1777.0, "lat_c": 64.419264779408451, "lon_c": -28.396060377665595, "res": 8.0, "count_Insects": 0, "count_Mosses": 0, "count_Birds": 3, "count_Ferns": 0, "count_Basidiomycota": 0, "count_Mammals": 1, "count_Sac Fungi": 0, "count_Flowering Plants": 0, "count_Molluscs": 0, "count_Gymnosperms": 0, "count_Arachnids": 0, "unique_species_count": 4.0, "countryCode": "IS" }, "geometry": { "type": "MultiPolygon", "coordinates": [ [ [ [ -28.080380782543596, 63.905665477350425 ], [ -29.099599500387122, 64.045113582210448 ], [ -29.434511955387975, 64.556122857377375 ], [ -28.724551824569733, 64.932911526474342 ], [ -27.676963955227055, 64.791099222848899 ], [ -27.368249969809757, 64.274921740652204 ], [ -28.080380782543596, 63.905665477350425 ] ] ] ] } },
{ "type": "Feature", "properties": { "geogrid_id": "5264460374020071121", "seqnum": 1454.0, "lat_c": 64.460373798240724, "lon_c": -20.071120891872546, "res": 8.0, "count_Insects": 42, "count_Mosses": 67, "count_Birds": 60, "count_Ferns": 1, "count_Basidiomycota": 20, "count_Mammals": 6, "count_Sac Fungi": 6, "count_Flowering Plants": 185, "count_Molluscs": 1, "count_Gymnosperms": 6, "count_Arachnids": 5, "unique_species_count": 399.0, "countryCode": "IS" }, "geometry": { "type": "MultiPolygon", "coordinates": [ [ [ [ -19.894614606944668, 63.927644978616257 ], [ -20.862231727988913, 64.124818394968955 ], [ -21.057301142529383, 64.656051138584118 ], [ -20.256230771430946, 64.994040163459587 ], [ -19.2651017972909, 64.792981128996914 ], [ -19.098938689583406, 64.2579038471319 ], [ -19.894614606944668, 63.927644978616257 ] ] ] ] } },
{ "type": "Feature", "properties": { "geogrid_id": "5264585133018288594", "seqnum": 1373.0, "lat_c": 64.585133496432576, "lon_c": -18.288593861903838, "res": 8.0, "count_Insects": 10, "count_Mosses": 0, "count_Birds": 54, "count_Ferns": 2, "count_Basidiomycota": 1, "count_Mammals": 1, "count_Sac Fungi": 6, "count_Flowering Plants": 108, "count_Molluscs": 5, "count_Gymnosperms": 0, "count_Arachnids": 1, "unique_species_count": 188.0, "countryCode": "IS" }, "geometry": { "type": "MultiPolygon", "coordinates": [ [ [ [ -18.140876557902139, 64.048780697711635 ], [ -19.098938689583406, 64.2579038471319 ], [ -19.2651017972909, 64.792981128996914 ], [ -18.444220422023474, 65.122637998176458 ], [ -17.463636093002123, 64.909332394802831 ], [ -17.32681000718776, 64.370642142173423 ], [ -18.140876557902139, 64.048780697711635 ] ] ] ] } },
{ "type": "Feature", "properties": { "geogrid_id": "5264641758026640624", "seqnum": 1696.0, "lat_c": 64.641758038465468, "lon_c": -26.640624226360121, "res": 8.0, "count_Insects": 0, "count_Mosses": 0, "count_Birds": 0, "count_Ferns": 0, "count_Basidiomycota": 0, "count_Mammals": 4, "count_Sac Fungi": 0, "count_Flowering Plants": 0, "count_Molluscs": 0, "count_Gymnosperms": 0, "count_Arachnids": 0, "unique_species_count": 4.0, "countryCode": "IS" }, "geometry": { "type": "MultiPolygon", "coordinates": [ [ [ [ -26.351423363010699, 64.12320487680465 ], [ -27.368249969809757, 64.274921740652204 ], [ -27.676963955227055, 64.791099222848899 ], [ -26.942173705998947, 65.160589489711455 ], [ -25.897375800063841, 65.006146536739109 ], [ -25.615872871883621, 64.485005578082522 ], [ -26.351423363010699, 64.12320487680465 ] ] ] ] } },
{ "type": "Feature", "properties": { "geogrid_id": "5264689397016498398", "seqnum": 1292.0, "lat_c": 64.689396821074155, "lon_c": -16.49839838956855, "res": 8.0, "count_Insects": 1, "count_Mosses": 1, "count_Birds": 13, "count_Ferns": 0, "count_Basidiomycota": 0, "count_Mammals": 3, "count_Sac Fungi": 1, "count_Flowering Plants": 26, "count_Molluscs": 0, "count_Gymnosperms": 0, "count_Arachnids": 0, "unique_species_count": 45.0, "countryCode": "IS" }, "geometry": { "type": "MultiPolygon", "coordinates": [ [ [ [ -16.379821563133103, 64.149651587071645 ], [ -17.32681000718776, 64.370642142173423 ], [ -17.463636093002123, 64.909332394802831 ], [ -16.624167885797164, 65.230510144398863 ], [ -15.655752758205281, 65.005055335369235 ], [ -15.548556322538055, 64.462980980201351 ], [ -16.379821563133103, 64.149651587071645 ] ] ] ] } },
{ "type": "Feature", "properties": { "geogrid_id": "5264773144014703350", "seqnum": 1211.0, "lat_c": 64.773143604742387, "lon_c": -14.703350011940469, "res": 8.0, "count_Insects": 15, "count_Mosses": 29, "count_Birds": 78, "count_Ferns": 1, "count_Basidiomycota": 38, "count_Mammals": 8, "count_Sac Fungi": 29, "count_Flowering Plants": 198, "count_Molluscs": 17, "count_Gymnosperms": 6, "count_Arachnids": 3, "unique_species_count": 422.0, "countryCode": "IS" }, "geometry": { "type": "MultiPolygon", "coordinates": [ [ [ [ -14.614128066040902, 64.230233538939032 ], [ -15.548556322538055, 64.462980980201351 ], [ -15.655752758205281, 65.005055335369235 ], [ -14.799033588104791, 65.317641022392891 ], [ -13.844369790849649, 65.080163865687737 ], [ -13.766952377423626, 64.534928464246434 ], [ -14.614128066040902, 64.230233538939032 ] ] ] ] } },
{ "type": "Feature", "properties": { "geogrid_id": "5264836416012906317", "seqnum": 1130.0, "lat_c": 64.836415989769435, "lon_c": -12.906316781138424, "res": 8.0, "count_Insects": 1, "count_Mosses": 0, "count_Birds": 23, "count_Ferns": 0, "count_Basidiomycota": 0, "count_Mammals": 1, "count_Sac Fungi": 5, "count_Flowering Plants": 10, "count_Molluscs": 0, "count_Gymnosperms": 0, "count_Arachnids": 0, "unique_species_count": 40.0, "countryCode": "IS" }, "geometry": { "type": "MultiPolygon", "coordinates": [ [ [ [ -12.846523197716863, 64.290561715718454 ], [ -13.766952377423626, 64.534928464246434 ], [ -13.844369790849649, 65.080163865687737 ], [ -12.971834636491941, 65.384080558943126 ], [ -12.032444675471783, 65.134735964917525 ], [ -11.984809618250905, 64.586553653772668 ], [ -12.846523197716863, 64.290561715718454 ] ] ] ] } },
{ "type": "Feature", "properties": { "geogrid_id": "5264844258024864799", "seqnum": 1615.0, "lat_c": 64.844257981890493, "lon_c": -24.864799223532806, "res": 8.0, "count_Insects": 1, "count_Mosses": 3, "count_Birds": 55, "count_Ferns": 6, "count_Basidiomycota": 4, "count_Mammals": 15, "count_Sac Fungi": 5, "count_Flowering Plants": 57, "count_Molluscs": 6, "count_Gymnosperms": 1, "count_Arachnids": 2, "unique_species_count": 155.0, "countryCode": "IS" }, "geometry": { "type": "MultiPolygon", "coordinates": [ [ [ [ -24.603017807904873, 64.320962328572733 ], [ -25.615872871883621, 64.485005578082522 ], [ -25.897375800063841, 65.006146536739109 ], [ -25.138415490249972, 65.368065821913106 ], [ -24.098122135748174, 65.20094057556669 ], [ -23.844745670415286, 64.675050801090478 ], [ -24.603017807904873, 64.320962328572733 ] ] ] ] } },
{ "type": "Feature", "properties": { "geogrid_id": "5264879319011110190", "seqnum": 1049.0, "lat_c": 64.879318599335093, "lon_c": -11.110190123851432, "res": 8.0, "count_Insects": 0, "count_Mosses": 0, "count_Birds": 6, "count_Ferns": 0, "count_Basidiomycota": 0, "count_Mammals": 2, "count_Sac Fungi": 0, "count_Flowering Plants": 0, "count_Molluscs": 0, "count_Gymnosperms": 0, "count_Arachnids": 0, "unique_species_count": 8.0, "countryCode": "IS" }, "geometry": { "type": "MultiPolygon", "coordinates": [ [ [ [ -11.079755978701231, 64.330730752951553 ], [ -11.984809618250905, 64.586553653772668 ], [ -12.032444675471783, 65.134735964917525 ], [ -11.145613117985398, 65.429944316889831 ], [ -10.222943574797922, 65.168913427238451 ], [ -10.204947878861898, 64.617986383696163 ], [ -11.079755978701231, 64.330730752951553 ] ] ] ] } },
{ "type": "Feature", "properties": { "geogrid_id": "5264902018009317855", "seqnum": 968.0, "lat_c": 64.902017938323468, "lon_c": -9.3178551007928672, "res": 8.0, "count_Insects": 0, "count_Mosses": 0, "count_Birds": 2, "count_Ferns": 0, "count_Basidiomycota": 0, "count_Mammals": 0, "count_Sac Fungi": 0, "count_Flowering Plants": 0, "count_Molluscs": 0, "count_Gymnosperms": 0, "count_Arachnids": 0, "unique_species_count": 2.0, "countryCode": "IS" }, "geometry": { "type": "MultiPolygon", "coordinates": [ [ [ [ -9.316569977488406, 64.35089425271579 ], [ -10.204947878861898, 64.617986383696163 ], [ -10.222943574797922, 65.168913427238451 ], [ -9.323403732931016, 65.455412788513271 ], [ -8.418810292777264, 65.182900811345661 ], [ -8.430166850015368, 64.629416344697134 ], [ -9.316569977488406, 64.35089425271579 ] ] ] ] } },
{ "type": "Feature", "properties": { "geogrid_id": "5264904741007532161", "seqnum": 887.0, "lat_c": 64.904741031299352, "lon_c": -7.5321608272122047, "res": 8.0, "count_Insects": 0, "count_Mosses": 0, "count_Birds": 2, "count_Ferns": 0, "count_Basidiomycota": 0, "count_Mammals": 2, "count_Sac Fungi": 0, "count_Flowering Plants": 0, "count_Molluscs": 0, "count_Gymnosperms": 0, "count_Arachnids": 0, "unique_species_count": 4.0, "countryCode": "IS" }, "geometry": { "type": "MultiPolygon", "coordinates": [ [ [ [ -7.559676102476772, 64.351263573128804 ], [ -8.430166850015368, 64.629416344697134 ], [ -8.418810292777264, 65.182900811345661 ], [ -7.508201622059669, 65.460729862165678 ], [ -6.62293581711081, 65.176963608859197 ], [ -6.663218053918651, 64.621091441960516 ], [ -7.559676102476772, 64.351263573128804 ] ] ] ] } },
{ "type": "Feature", "properties": { "geogrid_id": "5265026472023071006", "seqnum": 1534.0, "lat_c": 65.02647233670308, "lon_c": -23.071006341187033, "res": 8.0, "count_Insects": 28, "count_Mosses": 92, "count_Birds": 96, "count_Ferns": 7, "count_Basidiomycota": 13, "count_Mammals": 16, "count_Sac Fungi": 66, "count_Flowering Plants": 213, "count_Molluscs": 26, "count_Gymnosperms": 4, "count_Arachnids": 4, "unique_species_count": 565.0, "countryCode": "IS" }, "geometry": { "type": "MultiPolygon", "coordinates": [ [ [ [ -22.837482679035105, 64.498654220747298 ], [ -23.844745670415286, 64.675050801090478 ], [ -24.098122135748174, 65.20094057556669 ], [ -23.315804659803788, 65.55503967943514 ], [ -22.281771529753293, 65.37521344216843 ], [ -22.057325405985114, 64.844796776705579 ], [ -22.837482679035105, 64.498654220747298 ] ] ] ] } },
{ "type": "Feature", "properties": { "geogrid_id": "5265067081029783015", "seqnum": 1776.0, "lat_c": 65.067080671108243, "lon_c": -29.783015225388027, "res": 8.0, "count_Insects": 0, "count_Mosses": 0, "count_Birds": 1, "count_Ferns": 0, "count_Basidiomycota": 0, "count_Mammals": 2, "count_Sac Fungi": 0, "count_Flowering Plants": 0, "count_Molluscs": 0, "count_Gymnosperms": 0, "count_Arachnids": 0, "unique_species_count": 3.0, "countryCode": "IS" }, "geometry": { "type": "MultiPolygon", "coordinates": [ [ [ [ -29.434511955387975, 64.556122857377375 ], [ -30.483232014560699, 64.685388299340943 ], [ -30.851949337849881, 65.193496156839799 ], [ -30.146358424069103, 65.578018371998084 ], [ -29.0670535311484, 65.446644680564674 ], [ -28.724551824569733, 64.932911526474342 ], [ -29.434511955387975, 64.556122857377375 ] ] ] ] } },
{ "type": "Feature", "properties": { "geogrid_id": "5265188166021261844", "seqnum": 1453.0, "lat_c": 65.188165744666975, "lon_c": -21.261844418163168, "res": 8.0, "count_Insects": 31, "count_Mosses": 74, "count_Birds": 68, "count_Ferns": 4, "count_Basidiomycota": 16, "count_Mammals": 11, "count_Sac Fungi": 31, "count_Flowering Plants": 152, "count_Molluscs": 12, "count_Gymnosperms": 3, "count_Arachnids": 4, "unique_species_count": 406.0, "countryCode": "IS" }, "geometry": { "type": "MultiPolygon", "coordinates": [ [ [ [ -21.057301142529383, 64.656051138584118 ], [ -22.057325405985114, 64.844796776705579 ], [ -22.281771529753293, 65.37521344216843 ], [ -21.477060925384723, 65.721269999411263 ], [ -20.451067356368203, 65.528757438046625 ], [ -20.256230771430946, 64.994040163459587 ], [ -21.057301142529383, 64.656051138584118 ] ] ] ] } },
{ "type": "Feature", "properties": { "geogrid_id": "5265307463027998857", "seqnum": 1695.0, "lat_c": 65.307462570289459, "lon_c": -27.998856652458812, "res": 8.0, "count_Insects": 0, "count_Mosses": 0, "count_Birds": 4, "count_Ferns": 0, "count_Basidiomycota": 0, "count_Mammals": 4, "count_Sac Fungi": 0, "count_Flowering Plants": 0, "count_Molluscs": 2, "count_Gymnosperms": 0, "count_Arachnids": 0, "unique_species_count": 10.0, "countryCode": "IS" }, "geometry": { "type": "MultiPolygon", "coordinates": [ [ [ [ -27.676963955227055, 64.791099222848899 ], [ -28.724551824569733, 64.932911526474342 ], [ -29.0670535311484, 65.446644680564674 ], [ -28.335239364539898, 65.824060212473654 ], [ -27.257323397842502, 65.679755277442851 ], [ -26.942173705998947, 65.160589489711455 ], [ -27.676963955227055, 64.791099222848899 ] ] ] ] } },
{ "type": "Feature", "properties": { "geogrid_id": "5265329163019440070", "seqnum": 1372.0, "lat_c": 65.329163243085787, "lon_c": -19.440069623794376, "res": 8.0, "count_Insects": 10, "count_Mosses": 41, "count_Birds": 65, "count_Ferns": 1, "count_Basidiomycota": 11, "count_Mammals": 9, "count_Sac Fungi": 21, "count_Flowering Plants": 145, "count_Molluscs": 5, "count_Gymnosperms": 1, "count_Arachnids": 3, "unique_species_count": 312.0, "countryCode": "IS" }, "geometry": { "type": "MultiPolygon", "coordinates": [ [ [ [ -19.2651017972909, 64.792981128996914 ], [ -20.256230771430946, 64.994040163459587 ], [ -20.451067356368203, 65.528757438046625 ], [ -19.625074238428347, 65.866579206251387 ], [ -18.608904486667768, 65.66142834862795 ], [ -18.444220422023474, 65.122637998176458 ], [ -19.2651017972909, 64.792981128996914 ] ] ] ] } },
{ "type": "Feature", "properties": { "geogrid_id": "5265449353017608571", "seqnum": 1291.0, "lat_c": 65.449353129339769, "lon_c": -17.608571117381743, "res": 8.0, "count_Insects": 55, "count_Mosses": 46, "count_Birds": 94, "count_Ferns": 4, "count_Basidiomycota": 45, "count_Mammals": 11, "count_Sac Fungi": 61, "count_Flowering Plants": 289, "count_Molluscs": 7, "count_Gymnosperms": 7, "count_Arachnids": 21, "unique_species_count": 640.0, "countryCode": "IS" }, "geometry": { "type": "MultiPolygon", "coordinates": [ [ [ [ -17.463636093002123, 64.909332394802831 ], [ -18.444220422023474, 65.122637998176458 ], [ -18.608904486667768, 65.66142834862795 ], [ -17.762878559330066, 65.99085625200108 ], [ -16.758302181573935, 65.77314803745081 ], [ -16.624167885797164, 65.230510144398863 ], [ -17.463636093002123, 64.909332394802831 ] ] ] ] } },
{ "type": "Feature", "properties": { "geogrid_id": "5265527714026191593", "seqnum": 1614.0, "lat_c": 65.52771443436454, "lon_c": -26.191592777025917, "res": 8.0, "count_Insects": 0, "count_Mosses": 0, "count_Birds": 4, "count_Ferns": 0, "count_Basidiomycota": 0, "count_Mammals": 5, "count_Sac Fungi": 0, "count_Flowering Plants": 0, "count_Molluscs": 0, "count_Gymnosperms": 0, "count_Arachnids": 0, "unique_species_count": 9.0, "countryCode": "IS" }, "geometry": { "type": "MultiPolygon", "coordinates": [ [ [ [ -25.897375800063841, 65.006146536739109 ], [ -26.942173705998947, 65.160589489711455 ], [ -27.257323397842502, 65.679755277442851 ], [ -26.499897105059414, 66.049776359245499 ], [ -25.425170668170534, 65.892460481927699 ], [ -25.138415490249972, 65.368065821913106 ], [ -25.897375800063841, 65.006146536739109 ] ] ] ] } },
{ "type": "Feature", "properties": { "geogrid_id": "5265548689015770343", "seqnum": 1210.0, "lat_c": 65.548689117027109, "lon_c": -15.77034336632285, "res": 8.0, "count_Insects": 3, "count_Mosses": 1, "count_Birds": 49, "count_Ferns": 2, "count_Basidiomycota": 5, "count_Mammals": 6, "count_Sac Fungi": 6, "count_Flowering Plants": 100, "count_Molluscs": 0, "count_Gymnosperms": 0, "count_Arachnids": 0, "unique_species_count": 172.0, "countryCode": "IS" }, "geometry": { "type": "MultiPolygon", "coordinates": [ [ [ [ -15.655752758205281, 65.005055335369235 ], [ -16.624167885797164, 65.230510144398863 ], [ -16.758302181573935, 65.77314803745081 ], [ -15.893621890437002, 66.094058888796638 ], [ -14.902373757344922, 65.863906260867466 ], [ -14.799033588104791, 65.317641022392891 ], [ -15.655752758205281, 65.005055335369235 ] ] ] ] } },
{ "type": "Feature", "properties": { "geogrid_id": "5265627192013928456", "seqnum": 1129.0, "lat_c": 65.627191708701091, "lon_c": -13.92845573770907, "res": 8.0, "count_Insects": 16, "count_Mosses": 22, "count_Birds": 78, "count_Ferns": 1, "count_Basidiomycota": 5, "count_Mammals": 10, "count_Sac Fungi": 50, "count_Flowering Plants": 192, "count_Molluscs": 4, "count_Gymnosperms": 3, "count_Arachnids": 2, "unique_species_count": 383.0, "countryCode": "IS" }, "geometry": { "type": "MultiPolygon", "coordinates": [ [ [ [ -13.844369790849649, 65.080163865687737 ], [ -14.799033588104791, 65.317641022392891 ], [ -14.902373757344922, 65.863906260867466 ], [ -14.020533257968909, 66.176215090733777 ], [ -13.044293745231226, 65.933761635263266 ], [ -12.971834636491941, 65.384080558943126 ], [ -13.844369790849649, 65.080163865687737 ] ] ] ] } },
{ "type": "Feature", "properties": { "geogrid_id": "5265684949012086020", "seqnum": 1048.0, "lat_c": 65.684948731485676, "lon_c": -12.086020107315957, "res": 8.0, "count_Insects": 0, "count_Mosses": 0, "count_Birds": 4, "count_Ferns": 0, "count_Basidiomycota": 0, "count_Mammals": 2, "count_Sac Fungi": 0, "count_Flowering Plants": 0, "count_Molluscs": 0, "count_Gymnosperms": 0, "count_Arachnids": 0, "unique_species_count": 6.0, "countryCode": "IS" }, "geometry": { "type": "MultiPolygon", "coordinates": [ [ [ [ -12.032444675471783, 65.134735964917525 ], [ -12.971834636491941, 65.384080558943126 ], [ -13.044293745231226, 65.933761635263266 ], [ -12.146887476251885, 66.237423566311662 ], [ -11.187263389563146, 65.98284171317583 ], [ -11.145613117985398, 65.429944316889831 ], [ -12.032444675471783, 65.134735964917525 ] ] ] ] } },
{ "type": "Feature", "properties": { "geogrid_id": "5265727502024363699", "seqnum": 1533.0, "lat_c": 65.727502187583838, "lon_c": -24.363698872876441, "res": 8.0, "count_Insects": 9, "count_Mosses": 36, "count_Birds": 68, "count_Ferns": 2, "count_Basidiomycota": 3, "count_Mammals": 10, "count_Sac Fungi": 7, "count_Flowering Plants": 153, "count_Molluscs": 19, "count_Gymnosperms": 2, "count_Arachnids": 1, "unique_species_count": 310.0, "countryCode": "IS" }, "geometry": { "type": "MultiPolygon", "coordinates": [ [ [ [ -24.098122135748174, 65.20094057556669 ], [ -25.138415490249972, 65.368065821913106 ], [ -25.425170668170534, 65.892460481927699 ], [ -24.642910741581176, 66.254823101875431 ], [ -23.573233261338686, 66.084451095277458 ], [ -23.315804659803788, 65.55503967943514 ], [ -24.098122135748174, 65.20094057556669 ] ] ] ] } },
{ "type": "Feature", "properties": { "geogrid_id": "5265735622006586477", "seqnum": 805.0, "lat_c": 65.735621519694433, "lon_c": -6.586476594544787, "res": 8.0, "count_Insects": 0, "count_Mosses": 0, "count_Birds": 4, "count_Ferns": 0, "count_Basidiomycota": 0, "count_Mammals": 1, "count_Sac Fungi": 0, "count_Flowering Plants": 0, "count_Molluscs": 0, "count_Gymnosperms": 0, "count_Arachnids": 0, "unique_species_count": 5.0, "countryCode": "IS" }, "geometry": { "type": "MultiPolygon", "coordinates": [ [ [ [ -6.62293581711081, 65.176963608859197 ], [ -7.508201622059669, 65.460729862165678 ], [ -7.489079004703781, 66.019524985911758 ], [ -6.55527471332699, 66.297395170941599 ], [ -5.654146011200735, 66.007716044758894 ], [ -5.70293123396067, 65.446200496612988 ], [ -6.62293581711081, 65.176963608859197 ] ] ] ] } },
{ "type": "Feature", "properties": { "geogrid_id": "5265738911008411963", "seqnum": 886.0, "lat_c": 65.738911147955392, "lon_c": -8.4119634444445701, "res": 8.0, "count_Insects": 0, "count_Mosses": 0, "count_Birds": 2, "count_Ferns": 0, "count_Basidiomycota": 0, "count_Mammals": 0, "count_Sac Fungi": 0, "count_Flowering Plants": 0, "count_Molluscs": 0, "count_Gymnosperms": 0, "count_Arachnids": 0, "unique_species_count": 2.0, "countryCode": "IS" }, "geometry": { "type": "MultiPolygon", "coordinates": [ [ [ [ -8.418810292777264, 65.182900811345661 ], [ -9.323403732931016, 65.455412788513271 ], [ -9.334475411724217, 66.011342151819463 ], [ -8.411033350516464, 66.297742331719661 ], [ -7.489079004703781, 66.019524985911758 ], [ -7.508201622059669, 65.460729862165678 ], [ -8.418810292777264, 65.182900811345661 ] ] ] ] } },
{ "type": "Feature", "properties": { "geogrid_id": "5265906551022517860", "seqnum": 1452.0, "lat_c": 65.906550891602294, "lon_c": -22.517859632018482, "res": 8.0, "count_Insects": 28, "count_Mosses": 91, "count_Birds": 71, "count_Ferns": 5, "count_Basidiomycota": 7, "count_Mammals": 13, "count_Sac Fungi": 13, "count_Flowering Plants": 194, "count_Molluscs": 23, "count_Gymnosperms": 4, "count_Arachnids": 3, "unique_species_count": 452.0, "countryCode": "IS" }, "geometry": { "type": "MultiPolygon", "coordinates": [ [ [ [ -22.281771529753293, 65.37521344216843 ], [ -23.315804659803788, 65.55503967943514 ], [ -23.573233261338686, 66.084451095277458 ], [ -22.767085480367683, 66.438918828160368 ], [ -21.704356838146506, 66.255480718165543 ], [ -21.477060925384723, 65.721269999411263 ], [ -22.281771529753293, 65.37521344216843 ] ] ] ] } },
{ "type": "Feature", "properties": { "geogrid_id": "5265960505029424935", "seqnum": 1694.0, "lat_c": 65.960504600630628, "lon_c": -29.424935125854095, "res": 8.0, "count_Insects": 0, "count_Mosses": 0, "count_Birds": 6, "count_Ferns": 0, "count_Basidiomycota": 0, "count_Mammals": 6, "count_Sac Fungi": 0, "count_Flowering Plants": 0, "count_Molluscs": 0, "count_Gymnosperms": 0, "count_Arachnids": 0, "unique_species_count": 12.0, "countryCode": "IS" }, "geometry": { "type": "MultiPolygon", "coordinates": [ [ [ [ -29.0670535311484, 65.446644680564674 ], [ -30.146358424069103, 65.578018371998084 ], [ -30.525967662280799, 66.088967814907235 ], [ -29.799771544593149, 66.474532605986639 ], [ -28.687621329933247, 66.340942565079359 ], [ -28.335239364539898, 65.824060212473654 ], [ -29.0670535311484, 65.446644680564674 ] ] ] ] } },
{ "type": "Feature", "properties": { "geogrid_id": "5266064649020656949", "seqnum": 1371.0, "lat_c": 66.064648869317793, "lon_c": -20.656948797751294, "res": 8.0, "count_Insects": 9, "count_Mosses": 4, "count_Birds": 66, "count_Ferns": 0, "count_Basidiomycota": 3, "count_Mammals": 8, "count_Sac Fungi": 2, "count_Flowering Plants": 108, "count_Molluscs": 11, "count_Gymnosperms": 1, "count_Arachnids": 2, "unique_species_count": 214.0, "countryCode": "IS" }, "geometry": { "type": "MultiPolygon", "coordinates": [ [ [ [ -20.451067356368203, 65.528757438046625 ], [ -21.477060925384723, 65.721269999411263 ], [ -21.704356838146506, 66.255480718165543 ], [ -20.875430960383532, 66.601848407423262 ], [ -19.821571276202796, 66.4053696904042 ], [ -19.625074238428347, 65.866579206251387 ], [ -20.451067356368203, 65.528757438046625 ] ] ] ] } },
{ "type": "Feature", "properties": { "geogrid_id": "5266199314027587515", "seqnum": 1613.0, "lat_c": 66.199314413222396, "lon_c": -27.587515158269895, "res": 8.0, "count_Insects": 0, "count_Mosses": 0, "count_Birds": 6, "count_Ferns": 0, "count_Basidiomycota": 0, "count_Mammals": 2, "count_Sac Fungi": 0, "count_Flowering Plants": 0, "count_Molluscs": 0, "count_Gymnosperms": 0, "count_Arachnids": 0, "unique_species_count": 8.0, "countryCode": "IS" }, "geometry": { "type": "MultiPolygon", "coordinates": [ [ [ [ -27.257323397842502, 65.679755277442851 ], [ -28.335239364539898, 65.824060212473654 ], [ -28.687621329933247, 66.340942565079359 ], [ -27.934420482095074, 66.719328561640481 ], [ -26.823882087378806, 66.572403178658192 ], [ -26.499897105059414, 66.049776359245499 ], [ -27.257323397842502, 65.679755277442851 ] ] ] ] } },
{ "type": "Feature", "properties": { "geogrid_id": "5266201651018784004", "seqnum": 1290.0, "lat_c": 66.201651195290623, "lon_c": -18.784004123478457, "res": 8.0, "count_Insects": 12, "count_Mosses": 9, "count_Birds": 72, "count_Ferns": 4, "count_Basidiomycota": 2, "count_Mammals": 15, "count_Sac Fungi": 12, "count_Flowering Plants": 155, "count_Molluscs": 14, "count_Gymnosperms": 4, "count_Arachnids": 5, "unique_species_count": 304.0, "countryCode": "IS" }, "geometry": { "type": "MultiPolygon", "coordinates": [ [ [ [ -18.608904486667768, 65.66142834862795 ], [ -19.625074238428347, 65.866579206251387 ], [ -19.821571276202796, 66.4053696904042 ], [ -18.97113436926357, 66.743466890318061 ], [ -17.928062410334093, 66.534008310537558 ], [ -17.762878559330066, 65.99085625200108 ], [ -18.608904486667768, 65.66142834862795 ] ] ] ] } },
{ "type": "Feature", "properties": { "geogrid_id": "5266317482016902198", "seqnum": 1209.0, "lat_c": 66.317482437941592, "lon_c": -16.902198090618239, "res": 8.0, "count_Insects": 10, "count_Mosses": 30, "count_Birds": 94, "count_Ferns": 4, "count_Basidiomycota": 15, "count_Mammals": 19, "count_Sac Fungi": 12, "count_Flowering Plants": 176, "count_Molluscs": 26, "count_Gymnosperms": 3, "count_Arachnids": 2, "unique_species_count": 391.0, "countryCode": "IS" }, "geometry": { "type": "MultiPolygon", "coordinates": [ [ [ [ -16.758302181573935, 65.77314803745081 ], [ -17.762878559330066, 65.99085625200108 ], [ -17.928062410334093, 66.534008310537558 ], [ -17.057528823315682, 66.863702398588231 ], [ -16.027139597219346, 66.641359223050401 ], [ -15.893621890437002, 66.094058888796638 ], [ -16.758302181573935, 65.77314803745081 ] ] ] ] } },
{ "type": "Feature", "properties": { "geogrid_id": "5266412139015014805", "seqnum": 1128.0, "lat_c": 66.412138556002276, "lon_c": -15.014805015799423, "res": 8.0, "count_Insects": 1, "count_Mosses": 6, "count_Birds": 52, "count_Ferns": 0, "count_Basidiomycota": 2, "count_Mammals": 8, "count_Sac Fungi": 3, "count_Flowering Plants": 59, "count_Molluscs": 2, "count_Gymnosperms": 0, "count_Arachnids": 0, "unique_species_count": 133.0, "countryCode": "IS" }, "geometry": { "type": "MultiPolygon", "coordinates": [ [ [ [ -14.902373757344922, 65.863906260867466 ], [ -15.893621890437002, 66.094058888796638 ], [ -16.027139597219346, 66.641359223050401 ], [ -15.138057708477193, 66.962558097387245 ], [ -14.122199865292833, 66.727458882200665 ], [ -14.020533257968909, 66.176215090733777 ], [ -14.902373757344922, 65.863906260867466 ] ] ] ] } },
{ "type": "Feature", "properties": { "geogrid_id": "5266417521025726579", "seqnum": 1532.0, "lat_c": 66.417521432507726, "lon_c": -25.726579005750395, "res": 8.0, "count_Insects": 0, "count_Mosses": 0, "count_Birds": 8, "count_Ferns": 0, "count_Basidiomycota": 0, "count_Mammals": 8, "count_Sac Fungi": 0, "count_Flowering Plants": 0, "count_Molluscs": 1, "count_Gymnosperms": 0, "count_Arachnids": 0, "unique_species_count": 17.0, "countryCode": "IS" }, "geometry": { "type": "MultiPolygon", "coordinates": [ [ [ [ -25.425170668170534, 65.892460481927699 ], [ -26.499897105059414, 66.049776359245499 ], [ -26.823882087378806, 66.572403178658192 ], [ -26.044409997471369, 66.943332855235894 ], [ -24.937435668992979, 66.782996709363729 ], [ -24.642910741581176, 66.254823101875431 ], [ -25.425170668170534, 65.892460481927699 ] ] ] ] } },
{ "type": "Feature", "properties": { "geogrid_id": "5266485688013125165", "seqnum": 1047.0, "lat_c": 66.485687874505857, "lon_c": -13.125165353488216, "res": 8.0, "count_Insects": 0, "count_Mosses": 0, "count_Birds": 2, "count_Ferns": 0, "count_Basidiomycota": 0, "count_Mammals": 2, "count_Sac Fungi": 0, "count_Flowering Plants": 0, "count_Molluscs": 2, "count_Gymnosperms": 0, "count_Arachnids": 0, "unique_species_count": 6.0, "countryCode": "IS" }, "geometry": { "type": "MultiPolygon", "coordinates": [ [ [ [ -13.044293745231226, 65.933761635263266 ], [ -14.020533257968909, 66.176215090733777 ], [ -14.122199865292833, 66.727458882200665 ], [ -13.216235882259829, 67.040113168259765 ], [ -12.216689583387707, 66.792418028182681 ], [ -12.146887476251885, 66.237423566311662 ], [ -13.044293745231226, 65.933761635263266 ] ] ] ] } },
{ "type": "Feature", "properties": { "geogrid_id": "5266572690005611148", "seqnum": 723.0, "lat_c": 66.572689510781103, "lon_c": -5.6111476332766816, "res": 8.0, "count_Insects": 0, "count_Mosses": 0, "count_Birds": 2, "count_Ferns": 0, "count_Basidiomycota": 0, "count_Mammals": 1, "count_Sac Fungi": 0, "count_Flowering Plants": 0, "count_Molluscs": 0, "count_Gymnosperms": 0, "count_Arachnids": 0, "unique_species_count": 3.0, "countryCode": "IS" }, "geometry": { "type": "MultiPolygon", "coordinates": [ [ [ [ -5.654146011200735, 66.007716044758894 ], [ -6.55527471332699, 66.297395170941599 ], [ -6.531103671935782, 66.862655519024671 ], [ -5.131413591158843, 66.999884984360008 ], [ -4.223134365341387, 66.701305795275132 ], [ -4.711788070243927, 66.277179956970897 ], [ -5.654146011200735, 66.007716044758894 ] ] ] ] } },
{ "type": "Feature", "properties": { "geogrid_id": "5266581457007476370", "seqnum": 804.0, "lat_c": 66.581457070617958, "lon_c": -7.476370214379612, "res": 8.0, "count_Insects": 0, "count_Mosses": 0, "count_Birds": 2, "count_Ferns": 0, "count_Basidiomycota": 0, "count_Mammals": 1, "count_Sac Fungi": 0, "count_Flowering Plants": 0, "count_Molluscs": 0, "count_Gymnosperms": 0, "count_Arachnids": 0, "unique_species_count": 3.0, "countryCode": "IS" }, "geometry": { "type": "MultiPolygon", "coordinates": [ [ [ [ -7.489079004703781, 66.019524985911758 ], [ -8.411033350516464, 66.297742331719661 ], [ -8.417750766473805, 66.85972487985687 ], [ -7.472023369886171, 67.146897591346061 ], [ -6.531103671935782, 66.862655519024671 ], [ -6.55527471332699, 66.297395170941599 ], [ -7.489079004703781, 66.019524985911758 ] ] ] ] } },
{ "type": "Feature", "properties": { "geogrid_id": "5266614808023844879", "seqnum": 1451.0, "lat_c": 66.61480848181921, "lon_c": -23.844878655706811, "res": 8.0, "count_Insects": 0, "count_Mosses": 0, "count_Birds": 15, "count_Ferns": 2, "count_Basidiomycota": 0, "count_Mammals": 12, "count_Sac Fungi": 0, "count_Flowering Plants": 30, "count_Molluscs": 7, "count_Gymnosperms": 0, "count_Arachnids": 0, "unique_species_count": 66.0, "countryCode": "IS" }, "geometry": { "type": "MultiPolygon", "coordinates": [ [ [ [ -23.573233261338686, 66.084451095277458 ], [ -24.642910741581176, 66.254823101875431 ], [ -24.937435668992979, 66.782996709363729 ], [ -24.132609326627797, 67.146220917062692 ], [ -23.031211828752088, 66.97243542296782 ], [ -22.767085480367683, 66.438918828160368 ], [ -23.573233261338686, 66.084451095277458 ] ] ] ] } },
{ "type": "Feature", "properties": { "geogrid_id": "5266790924021945391", "seqnum": 1370.0, "lat_c": 66.790924357725771, "lon_c": -21.945390539022526, "res": 8.0, "count_Insects": 0, "count_Mosses": 0, "count_Birds": 10, "count_Ferns": 0, "count_Basidiomycota": 0, "count_Mammals": 6, "count_Sac Fungi": 0, "count_Flowering Plants": 12, "count_Molluscs": 4, "count_Gymnosperms": 0, "count_Arachnids": 1, "unique_species_count": 33.0, "countryCode": "IS" }, "geometry": { "type": "MultiPolygon", "coordinates": [ [ [ [ -21.704356838146506, 66.255480718165543 ], [ -22.767085480367683, 66.438918828160368 ], [ -23.031211828752088, 66.97243542296782 ], [ -22.202130049489877, 67.327737479968235 ], [ -21.108361298830385, 67.14050144455625 ], [ -20.875430960383532, 66.601848407423262 ], [ -21.704356838146506, 66.255480718165543 ] ] ] ] } },
{ "type": "Feature", "properties": { "geogrid_id": "5266945688020031290", "seqnum": 1289.0, "lat_c": 66.945688007598335, "lon_c": -20.031290384402634, "res": 8.0, "count_Insects": 0, "count_Mosses": 0, "count_Birds": 4, "count_Ferns": 0, "count_Basidiomycota": 0, "count_Mammals": 5, "count_Sac Fungi": 0, "count_Flowering Plants": 0, "count_Molluscs": 4, "count_Gymnosperms": 0, "count_Arachnids": 0, "unique_species_count": 13.0, "countryCode": "IS" }, "geometry": { "type": "MultiPolygon", "coordinates": [ [ [ [ -19.821571276202796, 66.4053696904042 ], [ -20.875430960383532, 66.601848407423262 ], [ -21.108361298830385, 67.14050144455625 ], [ -20.256299245115336, 67.487700995084367 ], [ -19.17222695300574, 67.287050668294242 ], [ -18.97113436926357, 66.743466890318061 ], [ -19.821571276202796, 66.4053696904042 ] ] ] ] } },
{ "type": "Feature", "properties": { "geogrid_id": "5267078992018105923", "seqnum": 1208.0, "lat_c": 67.078991928727461, "lon_c": -18.105922792849313, "res": 8.0, "count_Insects": 0, "count_Mosses": 0, "count_Birds": 18, "count_Ferns": 0, "count_Basidiomycota": 1, "count_Mammals": 10, "count_Sac Fungi": 0, "count_Flowering Plants": 6, "count_Molluscs": 1, "count_Gymnosperms": 0, "count_Arachnids": 0, "unique_species_count": 36.0, "countryCode": "IS" }, "geometry": { "type": "MultiPolygon", "coordinates": [ [ [ [ -17.928062410334093, 66.534008310537558 ], [ -18.97113436926357, 66.743466890318061 ], [ -19.17222695300574, 67.287050668294242 ], [ -18.298626764191766, 67.62600720629716 ], [ -17.22630968428043, 67.412015790468487 ], [ -17.057528823315682, 66.863702398588231 ], [ -17.928062410334093, 66.534008310537558 ] ] ] ] } },
{ "type": "Feature", "properties": { "geogrid_id": "5267190805016172766", "seqnum": 1127.0, "lat_c": 67.190804665405622, "lon_c": -16.172766145346426, "res": 8.0, "count_Insects": 0, "count_Mosses": 0, "count_Birds": 5, "count_Ferns": 0, "count_Basidiomycota": 0, "count_Mammals": 3, "count_Sac Fungi": 0, "count_Flowering Plants": 0, "count_Molluscs": 0, "count_Gymnosperms": 0, "count_Arachnids": 0, "unique_species_count": 8.0, "countryCode": "IS" }, "geometry": { "type": "MultiPolygon", "coordinates": [ [ [ [ -16.027139597219346, 66.641359223050401 ], [ -17.057528823315682, 66.863702398588231 ], [ -17.22630968428043, 67.412015790468487 ], [ -16.332767289952464, 67.742631747757684 ], [ -15.274229766443957, 67.515408347841884 ], [ -15.138057708477193, 66.962558097387245 ], [ -16.027139597219346, 66.641359223050401 ] ] ] ] } },
{ "type": "Feature", "properties": { "geogrid_id": "5267292904006061155", "seqnum": 722.0, "lat_c": 67.292904471957073, "lon_c": -6.0611551719130672, "res": 8.0, "count_Insects": 0, "count_Mosses": 0, "count_Birds": 4, "count_Ferns": 0, "count_Basidiomycota": 0, "count_Mammals": 0, "count_Sac Fungi": 0, "count_Flowering Plants": 0, "count_Molluscs": 5, "count_Gymnosperms": 0, "count_Arachnids": 0, "unique_species_count": 9.0, "countryCode": "IS" }, "geometry": { "type": "MultiPolygon", "coordinates": [ [ [ [ -6.531103671935782, 66.862655519024671 ], [ -7.472023369886171, 67.146897591346061 ], [ -7.012769226142969, 67.580177237170716 ], [ -5.584703904098332, 67.725162908726631 ], [ -4.644669934391293, 67.429003200601912 ], [ -5.131413591158843, 66.999884984360008 ], [ -6.531103671935782, 66.862655519024671 ] ] ] ] } },
{ "type": "Feature", "properties": { "geogrid_id": "5267312122025249249", "seqnum": 1450.0, "lat_c": 67.312122178837271, "lon_c": -25.249248671005176, "res": 8.0, "count_Insects": 0, "count_Mosses": 0, "count_Birds": 1, "count_Ferns": 0, "count_Basidiomycota": 0, "count_Mammals": 5, "count_Sac Fungi": 0, "count_Flowering Plants": 0, "count_Molluscs": 0, "count_Gymnosperms": 0, "count_Arachnids": 0, "unique_species_count": 6.0, "countryCode": "IS" }, "geometry": { "type": "MultiPolygon", "coordinates": [ [ [ [ -24.937435668992979, 66.782996709363729 ], [ -26.044409997471369, 66.943332855235894 ], [ -26.380745378239229, 67.469983192375366 ], [ -25.580690590245538, 67.842303901750071 ], [ -24.438640604847102, 67.678804477093934 ], [ -24.132609326627797, 67.146220917062692 ], [ -24.937435668992979, 66.782996709363729 ] ] ] ] } },
{ "type": "Feature", "properties": { "geogrid_id": "5267350219012297432", "seqnum": 965.0, "lat_c": 67.350218896479817, "lon_c": -12.297431850954112, "res": 8.0, "count_Insects": 0, "count_Mosses": 0, "count_Birds": 0, "count_Ferns": 0, "count_Basidiomycota": 0, "count_Mammals": 0, "count_Sac Fungi": 0, "count_Flowering Plants": 0, "count_Molluscs": 2, "count_Gymnosperms": 0, "count_Arachnids": 0, "unique_species_count": 2.0, "countryCode": "IS" }, "geometry": { "type": "MultiPolygon", "coordinates": [ [ [ [ -12.216689583387707, 66.792418028182681 ], [ -13.216235882259829, 67.040113168259765 ], [ -13.319684703607589, 67.59731967182006 ], [ -12.391573883244648, 67.911145714403602 ], [ -11.36640476106483, 67.657920703261269 ], [ -11.295608800543945, 67.096522731532147 ], [ -12.216689583387707, 66.792418028182681 ] ] ] ] } },
{ "type": "Feature", "properties": { "geogrid_id": "5267398146010362517", "seqnum": 884.0, "lat_c": 67.398145775477445, "lon_c": -10.362516961724985, "res": 8.0, "count_Insects": 0, "count_Mosses": 0, "count_Birds": 0, "count_Ferns": 0, "count_Basidiomycota": 0, "count_Mammals": 0, "count_Sac Fungi": 0, "count_Flowering Plants": 0, "count_Molluscs": 1, "count_Gymnosperms": 0, "count_Arachnids": 0, "unique_species_count": 1.0, "countryCode": "IS" }, "geometry": { "type": "MultiPolygon", "coordinates": [ [ [ [ -10.314064710768411, 66.83642114214841 ], [ -11.295608800543945, 67.096522731532147 ], [ -11.36640476106483, 67.657920703261269 ], [ -10.423879398665495, 67.963393613241493 ], [ -9.418107500262206, 67.69746065254914 ], [ -9.379710744132089, 67.132016701035539 ], [ -10.314064710768411, 66.83642114214841 ] ] ] ] } },
{ "type": "Feature", "properties": { "geogrid_id": "5267425230008434252", "seqnum": 803.0, "lat_c": 67.425229766649068, "lon_c": -8.4342516915299086, "res": 8.0, "count_Insects": 0, "count_Mosses": 0, "count_Birds": 2, "count_Ferns": 0, "count_Basidiomycota": 0, "count_Mammals": 0, "count_Sac Fungi": 0, "count_Flowering Plants": 0, "count_Molluscs": 1, "count_Gymnosperms": 0, "count_Arachnids": 0, "unique_species_count": 3.0, "countryCode": "IS" }, "geometry": { "type": "MultiPolygon", "coordinates": [ [ [ [ -8.417750766473805, 66.85972487985687 ], [ -9.379710744132089, 67.132016701035539 ], [ -9.418107500262206, 67.69746065254914 ], [ -7.986643678413122, 67.861510165913302 ], [ -7.012769226142969, 67.580177237170716 ], [ -7.472023369886171, 67.146897591346061 ], [ -8.417750766473805, 66.85972487985687 ] ] ] ] } },
{ "type": "Feature", "properties": { "geogrid_id": "5267507227023312330", "seqnum": 1369.0, "lat_c": 67.507227472017661, "lon_c": -23.312329517241945, "res": 8.0, "count_Insects": 0, "count_Mosses": 0, "count_Birds": 4, "count_Ferns": 0, "count_Basidiomycota": 0, "count_Mammals": 5, "count_Sac Fungi": 0, "count_Flowering Plants": 0, "count_Molluscs": 0, "count_Gymnosperms": 0, "count_Arachnids": 0, "unique_species_count": 9.0, "countryCode": "IS" }, "geometry": { "type": "MultiPolygon", "coordinates": [ [ [ [ -23.031211828752088, 66.97243542296782 ], [ -24.132609326627797, 67.146220917062692 ], [ -24.438640604847102, 67.678804477093934 ], [ -23.612935497268232, 68.043430162174303 ], [ -22.476926212024402, 67.866066933443591 ], [ -22.202130049489877, 67.327737479968235 ], [ -23.031211828752088, 66.97243542296782 ] ] ] ] } },
{ "type": "Feature", "properties": { "geogrid_id": "5267680765021357947", "seqnum": 1288.0, "lat_c": 67.680765368764696, "lon_c": -21.357947368821794, "res": 8.0, "count_Insects": 0, "count_Mosses": 0, "count_Birds": 1, "count_Ferns": 0, "count_Basidiomycota": 0, "count_Mammals": 4, "count_Sac Fungi": 0, "count_Flowering Plants": 0, "count_Molluscs": 0, "count_Gymnosperms": 0, "count_Arachnids": 0, "unique_species_count": 5.0, "countryCode": "IS" }, "geometry": { "type": "MultiPolygon", "coordinates": [ [ [ [ -21.108361298830385, 67.14050144455625 ], [ -22.202130049489877, 67.327737479968235 ], [ -22.476926212024402, 67.866066933443591 ], [ -21.626844609423078, 68.222809762493711 ], [ -20.499085424123155, 68.031589666645516 ], [ -20.256299245115336, 67.487700995084367 ], [ -21.108361298830385, 67.14050144455625 ] ] ] ] } },
{ "type": "Feature", "properties": { "geogrid_id": "5267832594019389606", "seqnum": 1207.0, "lat_c": 67.832593696741952, "lon_c": -19.389606484088365, "res": 8.0, "count_Insects": 0, "count_Mosses": 0, "count_Birds": 3, "count_Ferns": 0, "count_Basidiomycota": 0, "count_Mammals": 3, "count_Sac Fungi": 0, "count_Flowering Plants": 0, "count_Molluscs": 0, "count_Gymnosperms": 0, "count_Arachnids": 0, "unique_species_count": 6.0, "countryCode": "IS" }, "geometry": { "type": "MultiPolygon", "coordinates": [ [ [ [ -19.17222695300574, 67.287050668294242 ], [ -20.256299245115336, 67.487700995084367 ], [ -20.499085424123155, 68.031589666645516 ], [ -19.626088371189915, 68.380303828598215 ], [ -18.508799106146316, 68.175272953853678 ], [ -18.298626764191766, 67.62600720629716 ], [ -19.17222695300574, 67.287050668294242 ] ] ] ] } },
{ "type": "Feature", "properties": { "geogrid_id": "5267962651017410982", "seqnum": 1126.0, "lat_c": 67.962650956294638, "lon_c": -17.410982125374442, "res": 8.0, "count_Insects": 0, "count_Mosses": 0, "count_Birds": 0, "count_Ferns": 0, "count_Basidiomycota": 0, "count_Mammals": 1, "count_Sac Fungi": 0, "count_Flowering Plants": 0, "count_Molluscs": 0, "count_Gymnosperms": 0, "count_Arachnids": 0, "unique_species_count": 1.0, "countryCode": "IS" }, "geometry": { "type": "MultiPolygon", "coordinates": [ [ [ [ -17.22630968428043, 67.412015790468487 ], [ -18.298626764191766, 67.62600720629716 ], [ -18.508799106146316, 68.175272953853678 ], [ -17.614522078112955, 68.515858145900637 ], [ -16.5099047930191, 68.297100926442624 ], [ -16.332767289952464, 67.742631747757684 ], [ -17.22630968428043, 67.412015790468487 ] ] ] ] } },
{ "type": "Feature", "properties": { "geogrid_id": "5268015553006547590", "seqnum": 721.0, "lat_c": 68.01555255174857, "lon_c": -6.5475904278283874, "res": 8.0, "count_Insects": 0, "count_Mosses": 0, "count_Birds": 1, "count_Ferns": 0, "count_Basidiomycota": 0, "count_Mammals": 0, "count_Sac Fungi": 0, "count_Flowering Plants": 0, "count_Molluscs": 0, "count_Gymnosperms": 0, "count_Arachnids": 0, "unique_species_count": 1.0, "countryCode": "IS" }, "geometry": { "type": "MultiPolygon", "coordinates": [ [ [ [ -7.012769226142969, 67.580177237170716 ], [ -7.986643678413122, 67.861510165913302 ], [ -7.533766103426633, 68.299971327078111 ], [ -6.075158502008275, 68.452707650439081 ], [ -5.100445514782589, 68.15911747849934 ], [ -5.584703904098332, 67.725162908726631 ], [ -7.012769226142969, 67.580177237170716 ] ] ] ] } },
{ "type": "Feature", "properties": { "geogrid_id": "5268070958015425879", "seqnum": 1045.0, "lat_c": 68.070958409697425, "lon_c": -15.425878728271726, "res": 8.0, "count_Insects": 0, "count_Mosses": 0, "count_Birds": 6, "count_Ferns": 0, "count_Basidiomycota": 0, "count_Mammals": 0, "count_Sac Fungi": 0, "count_Flowering Plants": 0, "count_Molluscs": 1, "count_Gymnosperms": 0, "count_Arachnids": 0, "unique_species_count": 7.0, "countryCode": "IS" }, "geometry": { "type": "MultiPolygon", "coordinates": [ [ [ [ -15.274229766443957, 67.515408347841884 ], [ -16.332767289952464, 67.742631747757684 ], [ -16.5099047930191, 68.297100926442624 ], [ -15.596140649279864, 68.62950527727709 ], [ -14.50635094714883, 68.397143076047328 ], [ -14.362478126473176, 67.837631655094782 ], [ -15.274229766443957, 67.515408347841884 ] ] ] ] } },
{ "type": "Feature", "properties": { "geogrid_id": "5268157621013438184", "seqnum": 964.0, "lat_c": 68.157620995539332, "lon_c": -13.438184145037821, "res": 8.0, "count_Insects": 0, "count_Mosses": 0, "count_Birds": 5, "count_Ferns": 0, "count_Basidiomycota": 0, "count_Mammals": 0, "count_Sac Fungi": 0, "count_Flowering Plants": 0, "count_Molluscs": 0, "count_Gymnosperms": 0, "count_Arachnids": 0, "unique_species_count": 5.0, "countryCode": "IS" }, "geometry": { "type": "MultiPolygon", "coordinates": [ [ [ [ -13.319684703607589, 67.59731967182006 ], [ -14.362478126473176, 67.837631655094782 ], [ -14.50635094714883, 68.397143076047328 ], [ -13.575029019606546, 68.721365411432913 ], [ -12.502147751036182, 68.475554503888404 ], [ -12.391573883244648, 67.911145714403602 ], [ -13.319684703607589, 67.59731967182006 ] ] ] ] } },
{ "type": "Feature", "properties": { "geogrid_id": "5268222827011451821", "seqnum": 883.0, "lat_c": 68.22282701066942, "lon_c": -11.451821300508783, "res": 8.0, "count_Insects": 0, "count_Mosses": 0, "count_Birds": 1, "count_Ferns": 0, "count_Basidiomycota": 0, "count_Mammals": 2, "count_Sac Fungi": 0, "count_Flowering Plants": 1, "count_Molluscs": 0, "count_Gymnosperms": 0, "count_Arachnids": 0, "unique_species_count": 4.0, "countryCode": "IS" }, "geometry": { "type": "MultiPolygon", "coordinates": [ [ [ [ -11.36640476106483, 67.657920703261269 ], [ -12.391573883244648, 67.911145714403602 ], [ -12.502147751036182, 68.475554503888404 ], [ -11.045284573714637, 68.667850389628711 ], [ -10.002588778859575, 68.40555439379574 ], [ -10.423879398665495, 67.963393613241493 ], [ -11.36640476106483, 67.657920703261269 ] ] ] ] } },
{ "type": "Feature", "properties": { "geogrid_id": "5268577549020762662", "seqnum": 1206.0, "lat_c": 68.577549412703618, "lon_c": -20.762661814374638, "res": 8.0, "count_Insects": 0, "count_Mosses": 0, "count_Birds": 2, "count_Ferns": 0, "count_Basidiomycota": 0, "count_Mammals": 1, "count_Sac Fungi": 0, "count_Flowering Plants": 0, "count_Molluscs": 0, "count_Gymnosperms": 0, "count_Arachnids": 0, "unique_species_count": 3.0, "countryCode": "IS" }, "geometry": { "type": "MultiPolygon", "coordinates": [ [ [ [ -20.499085424123155, 68.031589666645516 ], [ -21.626844609423078, 68.222809762493711 ], [ -21.918269706964008, 68.766815974361421 ], [ -21.050703566804469, 69.125789398601484 ], [ -19.885105653392507, 68.930405776495022 ], [ -19.626088371189915, 68.380303828598215 ], [ -20.499085424123155, 68.031589666645516 ] ] ] ] } },
{ "type": "Feature", "properties": { "geogrid_id": "5268727028018739640", "seqnum": 1125.0, "lat_c": 68.727027543229028, "lon_c": -18.739639626804085, "res": 8.0, "count_Insects": 0, "count_Mosses": 0, "count_Birds": 1, "count_Ferns": 0, "count_Basidiomycota": 0, "count_Mammals": 0, "count_Sac Fungi": 0, "count_Flowering Plants": 0, "count_Molluscs": 0, "count_Gymnosperms": 0, "count_Arachnids": 0, "unique_species_count": 1.0, "countryCode": "IS" }, "geometry": { "type": "MultiPolygon", "coordinates": [ [ [ [ -18.508799106146316, 68.175272953853678 ], [ -19.626088371189915, 68.380303828598215 ], [ -19.885105653392507, 68.930405776495022 ], [ -18.995075921044872, 69.281529010108187 ], [ -17.840580660253771, 69.071910449526385 ], [ -17.614522078112955, 68.515858145900637 ], [ -18.508799106146316, 68.175272953853678 ] ] ] ] } },
{ "type": "Feature", "properties": { "geogrid_id": "5268850060009577593", "seqnum": 801.0, "lat_c": 68.850060353823267, "lon_c": -9.5775934378188481, "res": 8.0, "count_Insects": 0, "count_Mosses": 0, "count_Birds": 0, "count_Ferns": 0, "count_Basidiomycota": 0, "count_Mammals": 2, "count_Sac Fungi": 0, "count_Flowering Plants": 0, "count_Molluscs": 0, "count_Gymnosperms": 0, "count_Arachnids": 0, "unique_species_count": 2.0, "countryCode": "IS" }, "geometry": { "type": "MultiPolygon", "coordinates": [ [ [ [ -10.002588778859575, 68.40555439379574 ], [ -11.045284573714637, 68.667850389628711 ], [ -10.635965026978461, 69.115296836328994 ], [ -9.14751362260507, 69.296587585733306 ], [ -8.098243598440909, 69.021662575654105 ], [ -8.543640957172066, 68.578211857731986 ], [ -10.002588778859575, 68.40555439379574 ] ] ] ] } },
{ "type": "Feature", "properties": { "geogrid_id": "5268854498016707566", "seqnum": 1044.0, "lat_c": 68.854498228110643, "lon_c": -16.707565855261969, "res": 8.0, "count_Insects": 0, "count_Mosses": 0, "count_Birds": 1, "count_Ferns": 0, "count_Basidiomycota": 0, "count_Mammals": 0, "count_Sac Fungi": 0, "count_Flowering Plants": 0, "count_Molluscs": 1, "count_Gymnosperms": 0, "count_Arachnids": 0, "unique_species_count": 2.0, "countryCode": "IS" }, "geometry": { "type": "MultiPolygon", "coordinates": [ [ [ [ -16.5099047930191, 68.297100926442624 ], [ -17.614522078112955, 68.515858145900637 ], [ -17.840580660253771, 69.071910449526385 ], [ -16.929932118356273, 69.415136233500476 ], [ -15.788884941220161, 69.191375692674185 ], [ -15.596140649279864, 68.62950527727709 ], [ -16.5099047930191, 68.297100926442624 ] ] ] ] } },
{ "type": "Feature", "properties": { "geogrid_id": "5268923376012111481", "seqnum": 882.0, "lat_c": 68.923376475111155, "lon_c": -12.111480989436469, "res": 8.0, "count_Insects": 0, "count_Mosses": 0, "count_Birds": 3, "count_Ferns": 0, "count_Basidiomycota": 0, "count_Mammals": 1, "count_Sac Fungi": 0, "count_Flowering Plants": 0, "count_Molluscs": 0, "count_Gymnosperms": 0, "count_Arachnids": 0, "unique_species_count": 4.0, "countryCode": "IS" }, "geometry": { "type": "MultiPolygon", "coordinates": [ [ [ [ -12.502147751036182, 68.475554503888404 ], [ -13.575029019606546, 68.721365411432913 ], [ -13.201385076092315, 69.171912070645263 ], [ -11.719054479351732, 69.373695429838975 ], [ -10.635965026978461, 69.115296836328994 ], [ -11.045284573714637, 68.667850389628711 ], [ -12.502147751036182, 68.475554503888404 ] ] ] ] } },
{ "type": "Feature", "properties": { "geogrid_id": "5268960045014670586", "seqnum": 963.0, "lat_c": 68.960045141282407, "lon_c": -14.670585997264855, "res": 8.0, "count_Insects": 0, "count_Mosses": 0, "count_Birds": 2, "count_Ferns": 0, "count_Basidiomycota": 0, "count_Mammals": 1, "count_Sac Fungi": 0, "count_Flowering Plants": 0, "count_Molluscs": 1, "count_Gymnosperms": 0, "count_Arachnids": 0, "unique_species_count": 4.0, "countryCode": "IS" }, "geometry": { "type": "MultiPolygon", "coordinates": [ [ [ [ -14.50635094714883, 68.397143076047328 ], [ -15.596140649279864, 68.62950527727709 ], [ -15.788884941220161, 69.191375692674185 ], [ -14.315151638788555, 69.413232147070985 ], [ -13.201385076092315, 69.171912070645263 ], [ -13.575029019606546, 68.721365411432913 ], [ -14.50635094714883, 68.397143076047328 ] ] ] ] } },
{ "type": "Feature", "properties": { "geogrid_id": "5269564839010222475", "seqnum": 800.0, "lat_c": 69.564839479685133, "lon_c": -10.222474603350985, "res": 8.0, "count_Insects": 0, "count_Mosses": 0, "count_Birds": 1, "count_Ferns": 0, "count_Basidiomycota": 0, "count_Mammals": 0, "count_Sac Fungi": 0, "count_Flowering Plants": 0, "count_Molluscs": 0, "count_Gymnosperms": 0, "count_Arachnids": 0, "unique_species_count": 1.0, "countryCode": "IS" }, "geometry": { "type": "MultiPolygon", "coordinates": [ [ [ [ -10.635965026978461, 69.115296836328994 ], [ -11.719054479351732, 69.373695429838975 ], [ -11.323477156539377, 69.826181294150899 ], [ -9.803395487488794, 70.016174359786078 ], [ -8.710936779080882, 69.744833586693176 ], [ -9.14751362260507, 69.296587585733306 ], [ -10.635965026978461, 69.115296836328994 ] ] ] ] } },
{ "type": "Feature", "properties": { "geogrid_id": "5269625025012827112", "seqnum": 881.0, "lat_c": 69.625024731012161, "lon_c": -12.827111716364087, "res": 8.0, "count_Insects": 0, "count_Mosses": 0, "count_Birds": 2, "count_Ferns": 0, "count_Basidiomycota": 0, "count_Mammals": 1, "count_Sac Fungi": 0, "count_Flowering Plants": 0, "count_Molluscs": 0, "count_Gymnosperms": 0, "count_Arachnids": 0, "unique_species_count": 3.0, "countryCode": "IS" }, "geometry": { "type": "MultiPolygon", "coordinates": [ [ [ [ -13.201385076092315, 69.171912070645263 ], [ -14.315151638788555, 69.413232147070985 ], [ -13.960331408357442, 69.869048259335699 ], [ -12.450820692751851, 70.080369806126328 ], [ -11.323477156539377, 69.826181294150899 ], [ -11.719054479351732, 69.373695429838975 ], [ -13.201385076092315, 69.171912070645263 ] ] ] ] } }
]
}
