{
"type": "FeatureCollection",
"name": "JO",
"crs": { "type": "name", "properties": { "name": "urn:ogc:def:crs:OGC:1.3:CRS84" } },
"features": [
{ "type": "Feature", "properties": { "geogrid_id": "829164967036324817", "seqnum": 20049.0, "lat_c": 29.164967462549306, "lon_c": 36.324816937119927, "res": 8.0, "count_Insects": 0, "count_Ferns": 0, "count_Birds": 0, "count_Arachnids": 0, "count_Gymnosperms": 0, "count_Basidiomycota": 0, "count_Reptiles": 0, "count_Flowering Plants": 1, "count_Molluscs": 0, "count_Amphibians": 0, "count_Sac Fungi": 0, "count_Mammals": 0, "unique_species_count": 1.0, "countryCode": "JO" }, "geometry": { "type": "MultiPolygon", "coordinates": [ [ [ [ 36.457353199952458, 29.629431338807528 ], [ 36.889627150995921, 29.329775476930177 ], [ 36.755870159727266, 28.865955484276341 ], [ 36.193426063682004, 28.700693762156522 ], [ 35.761497312294658, 28.997568784538029 ], [ 35.891617370478677, 29.462460557387448 ], [ 36.457353199952458, 29.629431338807528 ] ] ] ] } },
{ "type": "Feature", "properties": { "geogrid_id": "829292893035327399", "seqnum": 19968.0, "lat_c": 29.292893384136949, "lon_c": 35.327398709123379, "res": 8.0, "count_Insects": 65, "count_Ferns": 1, "count_Birds": 204, "count_Arachnids": 5, "count_Gymnosperms": 3, "count_Basidiomycota": 1, "count_Reptiles": 18, "count_Flowering Plants": 148, "count_Molluscs": 54, "count_Amphibians": 0, "count_Sac Fungi": 0, "count_Mammals": 15, "unique_species_count": 514.0, "countryCode": "JO" }, "geometry": { "type": "MultiPolygon", "coordinates": [ [ [ [ 35.456198365812405, 29.758377486513755 ], [ 35.891617370478677, 29.462460557387448 ], [ 35.761497312294658, 28.997568784538029 ], [ 35.199666924777127, 28.827594417813842 ], [ 34.764696203007524, 29.120745283107585 ], [ 34.891060208145497, 29.586612264872066 ], [ 35.456198365812405, 29.758377486513755 ] ] ] ] } },
{ "type": "Feature", "properties": { "geogrid_id": "829927542036022883", "seqnum": 20050.0, "lat_c": 29.927541551472299, "lon_c": 36.022883074676187, "res": 8.0, "count_Insects": 1, "count_Ferns": 0, "count_Birds": 6, "count_Arachnids": 0, "count_Gymnosperms": 0, "count_Basidiomycota": 0, "count_Reptiles": 2, "count_Flowering Plants": 9, "count_Molluscs": 0, "count_Amphibians": 0, "count_Sac Fungi": 0, "count_Mammals": 0, "unique_species_count": 18.0, "countryCode": "JO" }, "geometry": { "type": "MultiPolygon", "coordinates": [ [ [ [ 36.155374775857027, 30.392814112663107 ], [ 36.591114472088393, 30.094088565315648 ], [ 36.457353199952458, 29.629431338807528 ], [ 35.891617370478677, 29.462460557387448 ], [ 35.456198365812405, 29.758377486513755 ], [ 35.586142352818037, 30.224049549352571 ], [ 36.155374775857027, 30.392814112663107 ] ] ] ] } },
{ "type": "Feature", "properties": { "geogrid_id": "830052664035018489", "seqnum": 19969.0, "lat_c": 30.052663580246733, "lon_c": 35.018488623927318, "res": 8.0, "count_Insects": 26, "count_Ferns": 0, "count_Birds": 54, "count_Arachnids": 3, "count_Gymnosperms": 2, "count_Basidiomycota": 0, "count_Reptiles": 10, "count_Flowering Plants": 112, "count_Molluscs": 0, "count_Amphibians": 0, "count_Sac Fungi": 0, "count_Mammals": 5, "unique_species_count": 212.0, "countryCode": "JO" }, "geometry": { "type": "MultiPolygon", "coordinates": [ [ [ [ 35.147058459905651, 30.518901343656019 ], [ 35.586142352818037, 30.224049549352571 ], [ 35.456198365812405, 29.758377486513755 ], [ 34.891060208145497, 29.586612264872066 ], [ 34.452413437509961, 29.878672477858181 ], [ 34.57841856717836, 30.345266482476838 ], [ 35.147058459905651, 30.518901343656019 ] ] ] ] } },
{ "type": "Feature", "properties": { "geogrid_id": "830419268037732214", "seqnum": 20213.0, "lat_c": 30.419267847265079, "lon_c": 37.732214150365323, "res": 8.0, "count_Insects": 0, "count_Ferns": 0, "count_Birds": 0, "count_Arachnids": 0, "count_Gymnosperms": 0, "count_Basidiomycota": 0, "count_Reptiles": 0, "count_Flowering Plants": 1, "count_Molluscs": 0, "count_Amphibians": 0, "count_Sac Fungi": 0, "count_Mammals": 0, "unique_species_count": 1.0, "countryCode": "JO" }, "geometry": { "type": "MultiPolygon", "coordinates": [ [ [ [ 37.872533553850488, 30.883216363130678 ], [ 38.305078997360226, 30.577868345112773 ], [ 38.163663807138981, 30.114610896159832 ], [ 37.593377058886006, 29.955521924490363 ], [ 37.160891947739152, 30.258002628513552 ], [ 37.298572254608438, 30.722413829571856 ], [ 37.872533553850488, 30.883216363130678 ] ] ] ] } },
{ "type": "Feature", "properties": { "geogrid_id": "830558941036726185", "seqnum": 20132.0, "lat_c": 30.558940975417173, "lon_c": 36.726185233741695, "res": 8.0, "count_Insects": 0, "count_Ferns": 0, "count_Birds": 2, "count_Arachnids": 0, "count_Gymnosperms": 1, "count_Basidiomycota": 0, "count_Reptiles": 0, "count_Flowering Plants": 3, "count_Molluscs": 0, "count_Amphibians": 0, "count_Sac Fungi": 0, "count_Mammals": 1, "unique_species_count": 7.0, "countryCode": "JO" }, "geometry": { "type": "MultiPolygon", "coordinates": [ [ [ [ 36.862655239367825, 31.023988869416094 ], [ 37.298572254608438, 30.722413829571856 ], [ 37.160891947739152, 30.258002628513552 ], [ 36.591114472088393, 30.094088565315648 ], [ 36.155374775857027, 30.392814112663107 ], [ 36.289177718866213, 30.858279193170066 ], [ 36.862655239367825, 31.023988869416094 ] ] ] ] } },
{ "type": "Feature", "properties": { "geogrid_id": "830689911035717312", "seqnum": 20051.0, "lat_c": 30.689911128381382, "lon_c": 35.71731167486351, "res": 8.0, "count_Insects": 109, "count_Ferns": 2, "count_Birds": 108, "count_Arachnids": 9, "count_Gymnosperms": 3, "count_Basidiomycota": 0, "count_Reptiles": 21, "count_Flowering Plants": 294, "count_Molluscs": 2, "count_Amphibians": 3, "count_Sac Fungi": 1, "count_Mammals": 11, "unique_species_count": 563.0, "countryCode": "JO" }, "geometry": { "type": "MultiPolygon", "coordinates": [ [ [ [ 35.849792259676178, 31.155962339017659 ], [ 36.289177718866213, 30.858279193170066 ], [ 36.155374775857027, 30.392814112663107 ], [ 35.586142352818037, 30.224049549352571 ], [ 35.147058459905651, 30.518901343656019 ], [ 35.276851298512682, 30.985326360400151 ], [ 35.849792259676178, 31.155962339017659 ] ] ] ] } },
{ "type": "Feature", "properties": { "geogrid_id": "831187023037437742", "seqnum": 20214.0, "lat_c": 31.187023471851717, "lon_c": 37.437742018641487, "res": 8.0, "count_Insects": 0, "count_Ferns": 0, "count_Birds": 0, "count_Arachnids": 0, "count_Gymnosperms": 0, "count_Basidiomycota": 0, "count_Reptiles": 0, "count_Flowering Plants": 0, "count_Molluscs": 0, "count_Amphibians": 0, "count_Sac Fungi": 0, "count_Mammals": 3, "unique_species_count": 3.0, "countryCode": "JO" }, "geometry": { "type": "MultiPolygon", "coordinates": [ [ [ [ 37.57850199453943, 31.651829215464279 ], [ 38.014434968649596, 31.347366307211669 ], [ 37.872533553850488, 30.883216363130678 ], [ 37.298572254608438, 30.722413829571856 ], [ 36.862655239367825, 31.023988869416094 ], [ 37.000619971350552, 31.489230796355134 ], [ 37.57850199453943, 31.651829215464279 ] ] ] ] } },
{ "type": "Feature", "properties": { "geogrid_id": "831323936036424382", "seqnum": 20133.0, "lat_c": 31.323936158266513, "lon_c": 36.424382455009862, "res": 8.0, "count_Insects": 6, "count_Ferns": 0, "count_Birds": 7, "count_Arachnids": 1, "count_Gymnosperms": 0, "count_Basidiomycota": 0, "count_Reptiles": 1, "count_Flowering Plants": 11, "count_Molluscs": 0, "count_Amphibians": 0, "count_Sac Fungi": 0, "count_Mammals": 0, "unique_species_count": 26.0, "countryCode": "JO" }, "geometry": { "type": "MultiPolygon", "coordinates": [ [ [ [ 36.561085293696543, 31.789782567228738 ], [ 37.000619971350552, 31.489230796355134 ], [ 36.862655239367825, 31.023988869416094 ], [ 36.289177718866213, 30.858279193170066 ], [ 35.849792259676178, 31.155962339017659 ], [ 35.983675369020666, 31.622201662455559 ], [ 36.561085293696543, 31.789782567228738 ] ] ] ] } },
{ "type": "Feature", "properties": { "geogrid_id": "831451938035407954", "seqnum": 20052.0, "lat_c": 31.451937954552839, "lon_c": 35.407953670143286, "res": 8.0, "count_Insects": 87, "count_Ferns": 1, "count_Birds": 97, "count_Arachnids": 6, "count_Gymnosperms": 0, "count_Basidiomycota": 0, "count_Reptiles": 9, "count_Flowering Plants": 184, "count_Molluscs": 2, "count_Amphibians": 2, "count_Sac Fungi": 0, "count_Mammals": 7, "unique_species_count": 395.0, "countryCode": "JO" }, "geometry": { "type": "MultiPolygon", "coordinates": [ [ [ [ 35.540457462466534, 31.918733774995463 ], [ 35.983675369020666, 31.622201662455559 ], [ 35.849792259676178, 31.155962339017659 ], [ 35.276851298512682, 30.985326360400151 ], [ 34.833921595375571, 31.279008784851197 ], [ 34.963588633407248, 31.746155756942027 ], [ 35.540457462466534, 31.918733774995463 ] ] ] ] } },
{ "type": "Feature", "properties": { "geogrid_id": "831811714038158025", "seqnum": 20296.0, "lat_c": 31.811714370446158, "lon_c": 38.158024802157435, "res": 8.0, "count_Insects": 0, "count_Ferns": 0, "count_Birds": 0, "count_Arachnids": 0, "count_Gymnosperms": 0, "count_Basidiomycota": 0, "count_Reptiles": 0, "count_Flowering Plants": 2, "count_Molluscs": 0, "count_Amphibians": 0, "count_Sac Fungi": 0, "count_Mammals": 0, "unique_species_count": 2.0, "countryCode": "JO" }, "geometry": { "type": "MultiPolygon", "coordinates": [ [ [ [ 38.30341678034079, 32.276254778066303 ], [ 38.739183756725147, 31.968869217682485 ], [ 38.592730126705568, 31.505000683107397 ], [ 38.014434968649596, 31.347366307211669 ], [ 37.57850199453943, 31.651829215464279 ], [ 37.72095968020912, 32.116826502559363 ], [ 38.30341678034079, 32.276254778066303 ] ] ] ] } },
{ "type": "Feature", "properties": { "geogrid_id": "831954663037140181", "seqnum": 20215.0, "lat_c": 31.954663305846069, "lon_c": 37.140181137723175, "res": 8.0, "count_Insects": 19, "count_Ferns": 0, "count_Birds": 116, "count_Arachnids": 2, "count_Gymnosperms": 0, "count_Basidiomycota": 0, "count_Reptiles": 10, "count_Flowering Plants": 45, "count_Molluscs": 0, "count_Amphibians": 2, "count_Sac Fungi": 0, "count_Mammals": 8, "unique_species_count": 202.0, "countryCode": "JO" }, "geometry": { "type": "MultiPolygon", "coordinates": [ [ [ [ 37.281447218698936, 32.420280665663107 ], [ 37.72095968020912, 32.116826502559363 ], [ 37.57850199453943, 31.651829215464279 ], [ 37.000619971350552, 31.489230796355134 ], [ 36.561085293696543, 31.789782567228738 ], [ 36.69938879726616, 32.255813924908324 ], [ 37.281447218698936, 32.420280665663107 ] ] ] ] } },
{ "type": "Feature", "properties": { "geogrid_id": "832088626036119058", "seqnum": 20134.0, "lat_c": 32.088625726461281, "lon_c": 36.119058048105749, "res": 8.0, "count_Insects": 149, "count_Ferns": 1, "count_Birds": 101, "count_Arachnids": 13, "count_Gymnosperms": 4, "count_Basidiomycota": 5, "count_Reptiles": 17, "count_Flowering Plants": 327, "count_Molluscs": 3, "count_Amphibians": 4, "count_Sac Fungi": 2, "count_Mammals": 13, "unique_species_count": 639.0, "countryCode": "JO" }, "geometry": { "type": "MultiPolygon", "coordinates": [ [ [ [ 36.256043617353249, 32.55522905743404 ], [ 36.69938879726616, 32.255813924908324 ], [ 36.561085293696543, 31.789782567228738 ], [ 35.983675369020666, 31.622201662455559 ], [ 35.540457462466534, 31.918733774995463 ], [ 35.674460367445569, 32.385709576694104 ], [ 36.256043617353249, 32.55522905743404 ] ] ] ] } },
{ "type": "Feature", "properties": { "geogrid_id": "832213483035094654", "seqnum": 20053.0, "lat_c": 32.213483004606239, "lon_c": 35.094654136169666, "res": 8.0, "count_Insects": 23, "count_Ferns": 0, "count_Birds": 2, "count_Arachnids": 1, "count_Gymnosperms": 1, "count_Basidiomycota": 0, "count_Reptiles": 0, "count_Flowering Plants": 14, "count_Molluscs": 1, "count_Amphibians": 0, "count_Sac Fungi": 0, "count_Mammals": 2, "unique_species_count": 44.0, "countryCode": "JO" }, "geometry": { "type": "MultiPolygon", "coordinates": [ [ [ [ 35.227216355310794, 32.680985468708641 ], [ 35.674460367445569, 32.385709576694104 ], [ 35.540457462466534, 31.918733774995463 ], [ 34.963588633407248, 31.746155756942027 ], [ 34.516625622070514, 32.038567362241871 ], [ 34.646192626124829, 32.506401697689128 ], [ 35.227216355310794, 32.680985468708641 ] ] ] ] } },
{ "type": "Feature", "properties": { "geogrid_id": "832432931038887547", "seqnum": 20378.0, "lat_c": 32.432930758872345, "lon_c": 38.88754737285872, "res": 8.0, "count_Insects": 0, "count_Ferns": 0, "count_Birds": 0, "count_Arachnids": 0, "count_Gymnosperms": 0, "count_Basidiomycota": 0, "count_Reptiles": 0, "count_Flowering Plants": 1, "count_Molluscs": 0, "count_Amphibians": 0, "count_Sac Fungi": 0, "count_Mammals": 0, "unique_species_count": 1.0, "countryCode": "JO" }, "geometry": { "type": "MultiPolygon", "coordinates": [ [ [ [ 39.037950135824666, 32.897175020693268 ], [ 39.47334546464139, 32.586837086847588 ], [ 39.321973299401307, 32.123276724096407 ], [ 38.739183756725147, 31.968869217682485 ], [ 38.30341678034079, 32.276254778066303 ], [ 38.45073262144502, 32.740978920925627 ], [ 39.037950135824666, 32.897175020693268 ] ] ] ] } },
{ "type": "Feature", "properties": { "geogrid_id": "832582008037865230", "seqnum": 20297.0, "lat_c": 32.582008235231406, "lon_c": 37.865229922440676, "res": 8.0, "count_Insects": 2, "count_Ferns": 0, "count_Birds": 0, "count_Arachnids": 0, "count_Gymnosperms": 0, "count_Basidiomycota": 0, "count_Reptiles": 0, "count_Flowering Plants": 5, "count_Molluscs": 0, "count_Amphibians": 0, "count_Sac Fungi": 0, "count_Mammals": 0, "unique_species_count": 7.0, "countryCode": "JO" }, "geometry": { "type": "MultiPolygon", "coordinates": [ [ [ [ 38.011435584200164, 33.047364407364604 ], [ 38.45073262144502, 32.740978920925627 ], [ 38.30341678034079, 32.276254778066303 ], [ 37.72095968020912, 32.116826502559363 ], [ 37.281447218698936, 32.420280665663107 ], [ 37.42453406733248, 32.886074540154475 ], [ 38.011435584200164, 33.047364407364604 ] ] ] ] } },
{ "type": "Feature", "properties": { "geogrid_id": "832722023036839402", "seqnum": 20216.0, "lat_c": 32.722023399821879, "lon_c": 36.83940232360068, "res": 8.0, "count_Insects": 0, "count_Ferns": 0, "count_Birds": 0, "count_Arachnids": 0, "count_Gymnosperms": 0, "count_Basidiomycota": 0, "count_Reptiles": 1, "count_Flowering Plants": 2, "count_Molluscs": 0, "count_Amphibians": 0, "count_Sac Fungi": 0, "count_Mammals": 1, "unique_species_count": 4.0, "countryCode": "JO" }, "geometry": { "type": "MultiPolygon", "coordinates": [ [ [ [ 36.981242621624169, 33.188401504027418 ], [ 37.42453406733248, 32.886074540154475 ], [ 37.281447218698936, 32.420280665663107 ], [ 36.69938879726616, 32.255813924908324 ], [ 36.256043617353249, 32.55522905743404 ], [ 36.394742210952657, 33.022003799790518 ], [ 36.981242621624169, 33.188401504027418 ] ] ] ] } },
{ "type": "Feature", "properties": { "geogrid_id": "832852859035810066", "seqnum": 20135.0, "lat_c": 32.852858973917598, "lon_c": 35.810066369918033, "res": 8.0, "count_Insects": 57, "count_Ferns": 0, "count_Birds": 44, "count_Arachnids": 6, "count_Gymnosperms": 0, "count_Basidiomycota": 0, "count_Reptiles": 9, "count_Flowering Plants": 69, "count_Molluscs": 0, "count_Amphibians": 2, "count_Sac Fungi": 0, "count_Mammals": 10, "unique_species_count": 197.0, "countryCode": "JO" }, "geometry": { "type": "MultiPolygon", "coordinates": [ [ [ [ 35.947386282000117, 33.320173161625121 ], [ 36.394742210952657, 33.022003799790518 ], [ 36.256043617353249, 32.55522905743404 ], [ 35.674460367445569, 32.385709576694104 ], [ 35.227216355310794, 32.680985468708641 ], [ 35.361379848730749, 33.148655917258345 ], [ 35.947386282000117, 33.320173161625121 ] ] ] ] } }
]
}
