{
"type": "FeatureCollection",
"name": "KE",
"crs": { "type": "name", "properties": { "name": "urn:ogc:def:crs:OGC:1.3:CRS84" } },
"features": [
{ "type": "Feature", "properties": { "geogrid_id": "3000815440034232785", "seqnum": 18863.0, "lat_c": -0.81544020047798804, "lon_c": 34.232784842598811, "res": 8.0, "count_Insects": 106, "count_Amphibians": 7, "count_Flowering Plants": 93, "count_Mammals": 15, "count_Sac Fungi": 0, "count_Ferns": 0, "count_Arachnids": 6, "count_Molluscs": 3, "count_Reptiles": 11, "count_Basidiomycota": 6, "count_Birds": 148, "count_Gymnosperms": 0, "count_Mosses": 0, "unique_species_count": 395.0, "countryCode": "KE" }, "geometry": { "type": "MultiPolygon", "coordinates": [ [ [ [ 34.61894162700321, -0.54408879145686 ], [ 34.615861956324522, -1.089404754686525 ], [ 34.230379951111715, -1.360588965414729 ], [ 33.846815423103813, -1.08632354730826 ], [ 33.848239246802244, -0.542602315431057 ], [ 34.234888536551068, -0.271531116677289 ], [ 34.61894162700321, -0.54408879145686 ] ] ] ] } },
{ "type": "Feature", "properties": { "geogrid_id": "3000817749035001536", "seqnum": 18945.0, "lat_c": -0.81774894296837497, "lon_c": 35.001535590464954, "res": 8.0, "count_Insects": 172, "count_Amphibians": 15, "count_Flowering Plants": 244, "count_Mammals": 75, "count_Sac Fungi": 21, "count_Ferns": 4, "count_Arachnids": 14, "count_Molluscs": 3, "count_Reptiles": 35, "count_Basidiomycota": 5, "count_Birds": 337, "count_Gymnosperms": 1, "count_Mosses": 0, "unique_species_count": 926.0, "countryCode": "KE" }, "geometry": { "type": "MultiPolygon", "coordinates": [ [ [ [ 35.387427152882033, -0.545626303021478 ], [ 35.382536185345565, -1.09259147065737 ], [ 34.997333226012387, -1.364577692340142 ], [ 34.615861956324522, -1.089404754686525 ], [ 34.61894162700321, -0.54408879145686 ], [ 35.005312277390388, -0.272273850738249 ], [ 35.387427152882033, -0.545626303021478 ] ] ] ] } },
{ "type": "Feature", "properties": { "geogrid_id": "3000820135035767961", "seqnum": 19027.0, "lat_c": -0.82013549358647497, "lon_c": 35.767961021761394, "res": 8.0, "count_Insects": 21, "count_Amphibians": 0, "count_Flowering Plants": 133, "count_Mammals": 27, "count_Sac Fungi": 28, "count_Ferns": 0, "count_Arachnids": 1, "count_Molluscs": 0, "count_Reptiles": 6, "count_Basidiomycota": 1, "count_Birds": 138, "count_Gymnosperms": 1, "count_Mosses": 0, "unique_species_count": 356.0, "countryCode": "KE" }, "geometry": { "type": "MultiPolygon", "coordinates": [ [ [ [ 36.153633947962142, -0.547214827582154 ], [ 36.146772668896666, -1.095883620372951 ], [ 35.761798821176022, -1.368700458235895 ], [ 35.382536185345565, -1.09259147065737 ], [ 35.387427152882033, -0.545626303021478 ], [ 35.77356305713171, -0.273041680939008 ], [ 36.153633947962142, -0.547214827582154 ] ] ] ] } },
{ "type": "Feature", "properties": { "geogrid_id": "3000822600036531998", "seqnum": 19109.0, "lat_c": -0.82259980708426395, "lon_c": 36.531998124287455, "res": 8.0, "count_Insects": 327, "count_Amphibians": 16, "count_Flowering Plants": 501, "count_Mammals": 135, "count_Sac Fungi": 106, "count_Ferns": 8, "count_Arachnids": 13, "count_Molluscs": 3, "count_Reptiles": 29, "count_Basidiomycota": 48, "count_Birds": 444, "count_Gymnosperms": 5, "count_Mosses": 0, "unique_species_count": 1635.0, "countryCode": "KE" }, "geometry": { "type": "MultiPolygon", "coordinates": [ [ [ [ 36.917501338528012, -0.548854341854722 ], [ 36.90850731589483, -1.099281126556923 ], [ 36.523710189193217, -1.372957146709215 ], [ 36.146772668896666, -1.095883620372951 ], [ 36.153633947962142, -0.547214827582154 ], [ 36.539581309280472, -0.273834599162489 ], [ 36.917501338528012, -0.548854341854722 ] ] ] ] } },
{ "type": "Feature", "properties": { "geogrid_id": "3000825142037293585", "seqnum": 19191.0, "lat_c": -0.82514183676048303, "lon_c": 37.293585170794231, "res": 8.0, "count_Insects": 149, "count_Amphibians": 15, "count_Flowering Plants": 238, "count_Mammals": 36, "count_Sac Fungi": 84, "count_Ferns": 0, "count_Arachnids": 4, "count_Molluscs": 16, "count_Reptiles": 15, "count_Basidiomycota": 4, "count_Birds": 318, "count_Gymnosperms": 1, "count_Mosses": 0, "unique_species_count": 880.0, "countryCode": "KE" }, "geometry": { "type": "MultiPolygon", "coordinates": [ [ [ [ 37.678969874296655, -0.550544821814592 ], [ 37.667677407568249, -1.102783909510878 ], [ 37.28300222580026, -1.377347637684447 ], [ 36.90850731589483, -1.099281126556923 ], [ 36.917501338528012, -0.548854341854722 ], [ 37.303308613491033, -0.274652597027501 ], [ 37.678969874296655, -0.550544821814592 ] ] ] ] } },
{ "type": "Feature", "properties": { "geogrid_id": "3000827762038052662", "seqnum": 19273.0, "lat_c": -0.82776153446354905, "lon_c": 38.052661739584444, "res": 8.0, "count_Insects": 9, "count_Amphibians": 0, "count_Flowering Plants": 243, "count_Mammals": 22, "count_Sac Fungi": 2, "count_Ferns": 0, "count_Arachnids": 0, "count_Molluscs": 1, "count_Reptiles": 2, "count_Basidiomycota": 0, "count_Birds": 18, "count_Gymnosperms": 0, "count_Mosses": 0, "unique_species_count": 297.0, "countryCode": "KE" }, "geometry": { "type": "MultiPolygon", "coordinates": [ [ [ [ 38.437981347612038, -0.552286242697753 ], [ 38.424221617856979, -1.106391887120989 ], [ 38.039611291792824, -1.38187180741573 ], [ 37.667677407568249, -1.102783909510878 ], [ 37.678969874296655, -0.550544821814592 ], [ 38.064687714834626, -0.275495665888929 ], [ 38.437981347612038, -0.552286242697753 ] ] ] ] } },
{ "type": "Feature", "properties": { "geogrid_id": "3000830459038809169", "seqnum": 19355.0, "lat_c": -0.83045885059453795, "lon_c": 38.80916873351741, "res": 8.0, "count_Insects": 16, "count_Amphibians": 0, "count_Flowering Plants": 13, "count_Mammals": 0, "count_Sac Fungi": 0, "count_Ferns": 0, "count_Arachnids": 0, "count_Molluscs": 0, "count_Reptiles": 0, "count_Basidiomycota": 0, "count_Birds": 0, "count_Gymnosperms": 0, "count_Mosses": 0, "unique_species_count": 29.0, "countryCode": "KE" }, "geometry": { "type": "MultiPolygon", "coordinates": [ [ [ [ 39.194478811161986, -0.554078579001819 ], [ 39.178080032092836, -1.110104974864835 ], [ 38.793475233078141, -1.386529528500027 ], [ 38.424221617856979, -1.106391887120989 ], [ 38.437981347612038, -0.552286242697753 ], [ 38.823662541697367, -0.276363796837942 ], [ 39.194478811161986, -0.554078579001819 ] ] ] ] } },
{ "type": "Feature", "properties": { "geogrid_id": "3000833234039563048", "seqnum": 19437.0, "lat_c": -0.83323373411026302, "lon_c": 39.563048397421589, "res": 8.0, "count_Insects": 2, "count_Amphibians": 0, "count_Flowering Plants": 20, "count_Mammals": 7, "count_Sac Fungi": 1, "count_Ferns": 0, "count_Arachnids": 0, "count_Molluscs": 0, "count_Reptiles": 3, "count_Basidiomycota": 0, "count_Birds": 21, "count_Gymnosperms": 0, "count_Mosses": 0, "unique_species_count": 54.0, "countryCode": "KE" }, "geometry": { "type": "MultiPolygon", "coordinates": [ [ [ [ 39.948406594220131, -0.555921804487095 ], [ 39.92919416396451, -1.113923085818428 ], [ 39.544533398872268, -1.391320669890526 ], [ 39.178080032092836, -1.110104974864835 ], [ 39.194478811161986, -0.554078579001819 ], [ 39.580178222308305, -0.277256980702192 ], [ 39.948406594220131, -0.555921804487095 ] ] ] ] } },
{ "type": "Feature", "properties": { "geogrid_id": "3000836086040314244", "seqnum": 19519.0, "lat_c": -0.83608613252643704, "lon_c": 40.31424433392047, "res": 8.0, "count_Insects": 1, "count_Amphibians": 0, "count_Flowering Plants": 5, "count_Mammals": 2, "count_Sac Fungi": 0, "count_Ferns": 0, "count_Arachnids": 0, "count_Molluscs": 0, "count_Reptiles": 0, "count_Basidiomycota": 0, "count_Birds": 1, "count_Gymnosperms": 0, "count_Mosses": 0, "unique_species_count": 9.0, "countryCode": "KE" }, "geometry": { "type": "MultiPolygon", "coordinates": [ [ [ [ 40.699710317418308, -0.557815892177677 ], [ 40.677506970777195, -1.117846130663418 ], [ 40.292726658052295, -1.396245096910399 ], [ 39.92919416396451, -1.113923085818428 ], [ 39.948406594220131, -0.555921804487095 ], [ 40.334181099899965, -0.278175208046035 ], [ 40.699710317418308, -0.557815892177677 ] ] ] ] } },
{ "type": "Feature", "properties": { "geogrid_id": "3001362502043410266", "seqnum": 46090.0, "lat_c": -1.3625016299933861, "lon_c": 43.410265901719583, "res": 8.0, "count_Insects": 0, "count_Amphibians": 0, "count_Flowering Plants": 0, "count_Mammals": 1, "count_Sac Fungi": 0, "count_Ferns": 0, "count_Arachnids": 0, "count_Molluscs": 0, "count_Reptiles": 0, "count_Basidiomycota": 0, "count_Birds": 0, "count_Gymnosperms": 0, "count_Mosses": 0, "unique_species_count": 1.0, "countryCode": "KE" }, "geometry": { "type": "MultiPolygon", "coordinates": [ [ [ [ 43.719530460570866, -0.892559712513503 ], [ 43.867551183427757, -1.345751939974519 ], [ 43.557547402127589, -1.815418060609578 ], [ 43.030493344230045, -1.617735197470879 ], [ 42.88373448275135, -1.164127992211918 ], [ 43.262841050647594, -0.908964755529524 ], [ 43.719530460570866, -0.892559712513503 ] ] ] ] } },
{ "type": "Feature", "properties": { "geogrid_id": "3001551948041580471", "seqnum": 19682.0, "lat_c": -1.551947633706888, "lon_c": 41.58047142085335, "res": 8.0, "count_Insects": 0, "count_Amphibians": 0, "count_Flowering Plants": 11, "count_Mammals": 0, "count_Sac Fungi": 0, "count_Ferns": 0, "count_Arachnids": 0, "count_Molluscs": 1, "count_Reptiles": 0, "count_Basidiomycota": 0, "count_Birds": 23, "count_Gymnosperms": 0, "count_Mosses": 0, "unique_species_count": 35.0, "countryCode": "KE" }, "geometry": { "type": "MultiPolygon", "coordinates": [ [ [ [ 41.96545893999734, -1.271678950797398 ], [ 42.120198802171707, -1.703406990414089 ], [ 41.735573425708751, -1.984131215041275 ], [ 41.19590373237213, -1.83179479195696 ], [ 41.037997416574115, -1.40130267079747 ], [ 41.422962869947064, -1.121874017221345 ], [ 41.96545893999734, -1.271678950797398 ] ] ] ] } },
{ "type": "Feature", "properties": { "geogrid_id": "3001636089034612326", "seqnum": 18944.0, "lat_c": -1.6360891532732229, "lon_c": 34.612326053635719, "res": 8.0, "count_Insects": 14, "count_Amphibians": 3, "count_Flowering Plants": 66, "count_Mammals": 44, "count_Sac Fungi": 2, "count_Ferns": 0, "count_Arachnids": 1, "count_Molluscs": 0, "count_Reptiles": 15, "count_Basidiomycota": 1, "count_Birds": 190, "count_Gymnosperms": 0, "count_Mosses": 0, "unique_species_count": 336.0, "countryCode": "KE" }, "geometry": { "type": "MultiPolygon", "coordinates": [ [ [ [ 34.997333226012387, -1.364577692340142 ], [ 34.992502041055488, -1.91291215856606 ], [ 34.608127474640327, -2.184296620187486 ], [ 34.227488690428842, -1.907120910585383 ], [ 34.230379951111715, -1.360588965414729 ], [ 34.615861956324522, -1.089404754686525 ], [ 34.997333226012387, -1.364577692340142 ] ] ] ] } },
{ "type": "Feature", "properties": { "geogrid_id": "3001641045035377051", "seqnum": 19026.0, "lat_c": -1.641045046086361, "lon_c": 35.377050571253868, "res": 8.0, "count_Insects": 201, "count_Amphibians": 12, "count_Flowering Plants": 217, "count_Mammals": 89, "count_Sac Fungi": 0, "count_Ferns": 0, "count_Arachnids": 16, "count_Molluscs": 1, "count_Reptiles": 34, "count_Basidiomycota": 2, "count_Birds": 418, "count_Gymnosperms": 0, "count_Mosses": 0, "unique_species_count": 990.0, "countryCode": "KE" }, "geometry": { "type": "MultiPolygon", "coordinates": [ [ [ [ 35.761798821176022, -1.368700458235895 ], [ 35.75485442639426, -1.918897393828647 ], [ 35.370744310608558, -2.191150724011507 ], [ 34.992502041055488, -1.91291215856606 ], [ 34.997333226012387, -1.364577692340142 ], [ 35.382536185345565, -1.09259147065737 ], [ 35.761798821176022, -1.368700458235895 ] ] ] ] } },
{ "type": "Feature", "properties": { "geogrid_id": "3001646164036139168", "seqnum": 19108.0, "lat_c": -1.646164391585291, "lon_c": 36.139167829571903, "res": 8.0, "count_Insects": 45, "count_Amphibians": 3, "count_Flowering Plants": 73, "count_Mammals": 40, "count_Sac Fungi": 0, "count_Ferns": 0, "count_Arachnids": 1, "count_Molluscs": 1, "count_Reptiles": 14, "count_Basidiomycota": 0, "count_Birds": 225, "count_Gymnosperms": 0, "count_Mosses": 0, "unique_species_count": 402.0, "countryCode": "KE" }, "geometry": { "type": "MultiPolygon", "coordinates": [ [ [ [ 36.523710189193217, -1.372957146709215 ], [ 36.514475682471954, -1.925076386121578 ], [ 36.130572917398034, -2.198230095510801 ], [ 35.75485442639426, -1.918897393828647 ], [ 35.761798821176022, -1.368700458235895 ], [ 36.146772668896666, -1.095883620372951 ], [ 36.523710189193217, -1.372957146709215 ] ] ] ] } },
{ "type": "Feature", "properties": { "geogrid_id": "3001651447036898610", "seqnum": 19190.0, "lat_c": -1.6514470197672759, "lon_c": 36.898610244652168, "res": 8.0, "count_Insects": 891, "count_Amphibians": 19, "count_Flowering Plants": 904, "count_Mammals": 109, "count_Sac Fungi": 85, "count_Ferns": 10, "count_Arachnids": 36, "count_Molluscs": 10, "count_Reptiles": 48, "count_Basidiomycota": 60, "count_Birds": 438, "count_Gymnosperms": 7, "count_Mosses": 1, "unique_species_count": 2618.0, "countryCode": "KE" }, "geometry": { "type": "MultiPolygon", "coordinates": [ [ [ [ 37.28300222580026, -1.377347637684447 ], [ 37.271297268749272, -1.931448898028368 ], [ 36.887542154077344, -2.205534423558396 ], [ 36.514475682471954, -1.925076386121578 ], [ 36.523710189193217, -1.372957146709215 ], [ 36.90850731589483, -1.099281126556923 ], [ 37.28300222580026, -1.377347637684447 ] ] ] ] } },
{ "type": "Feature", "properties": { "geogrid_id": "3001656893037655312", "seqnum": 19272.0, "lat_c": -1.656892755387424, "lon_c": 37.655311774426167, "res": 8.0, "count_Insects": 50, "count_Amphibians": 5, "count_Flowering Plants": 82, "count_Mammals": 22, "count_Sac Fungi": 8, "count_Ferns": 0, "count_Arachnids": 0, "count_Molluscs": 16, "count_Reptiles": 2, "count_Basidiomycota": 9, "count_Birds": 50, "count_Gymnosperms": 0, "count_Mosses": 0, "unique_species_count": 244.0, "countryCode": "KE" }, "geometry": { "type": "MultiPolygon", "coordinates": [ [ [ [ 38.039611291792824, -1.38187180741573 ], [ 38.025252291271059, -1.938014685003857 ], [ 37.641582614683557, -2.213063387606875 ], [ 37.271297268749272, -1.931448898028368 ], [ 37.28300222580026, -1.377347637684447 ], [ 37.667677407568249, -1.102783909510878 ], [ 38.039611291792824, -1.38187180741573 ] ] ] ] } },
{ "type": "Feature", "properties": { "geogrid_id": "3001662501038409208", "seqnum": 19354.0, "lat_c": -1.6625014179812081, "lon_c": 38.409207940233472, "res": 8.0, "count_Insects": 11, "count_Amphibians": 1, "count_Flowering Plants": 25, "count_Mammals": 14, "count_Sac Fungi": 1, "count_Ferns": 0, "count_Arachnids": 3, "count_Molluscs": 1, "count_Reptiles": 5, "count_Basidiomycota": 0, "count_Birds": 35, "count_Gymnosperms": 0, "count_Mosses": 0, "unique_species_count": 96.0, "countryCode": "KE" }, "geometry": { "type": "MultiPolygon", "coordinates": [ [ [ [ 38.793475233078141, -1.386529528500027 ], [ 38.776275523639256, -1.944773495411459 ], [ 38.392626650757528, -2.220816657745251 ], [ 38.025252291271059, -1.938014685003857 ], [ 38.039611291792824, -1.38187180741573 ], [ 38.424221617856979, -1.106391887120989 ], [ 38.793475233078141, -1.386529528500027 ] ] ] ] } },
{ "type": "Feature", "properties": { "geogrid_id": "3001668273039160236", "seqnum": 19436.0, "lat_c": -1.6682728218876131, "lon_c": 39.160235846351952, "res": 8.0, "count_Insects": 0, "count_Amphibians": 0, "count_Flowering Plants": 3, "count_Mammals": 1, "count_Sac Fungi": 0, "count_Ferns": 0, "count_Arachnids": 0, "count_Molluscs": 2, "count_Reptiles": 0, "count_Basidiomycota": 0, "count_Birds": 17, "count_Gymnosperms": 0, "count_Mosses": 0, "unique_species_count": 23.0, "countryCode": "KE" }, "geometry": { "type": "MultiPolygon", "coordinates": [ [ [ [ 39.544533398872268, -1.391320669890526 ], [ 39.524303425820214, -1.951725070561405 ], [ 39.140608391529462, -2.228793894757343 ], [ 38.776275523639256, -1.944773495411459 ], [ 38.793475233078141, -1.386529528500027 ], [ 39.178080032092836, -1.110104974864835 ], [ 39.544533398872268, -1.391320669890526 ] ] ] ] } },
{ "type": "Feature", "properties": { "geogrid_id": "3001674207039908334", "seqnum": 19518.0, "lat_c": -1.674206776272894, "lon_c": 39.90833419753006, "res": 8.0, "count_Insects": 7, "count_Amphibians": 1, "count_Flowering Plants": 25, "count_Mammals": 11, "count_Sac Fungi": 0, "count_Ferns": 0, "count_Arachnids": 2, "count_Molluscs": 0, "count_Reptiles": 4, "count_Basidiomycota": 0, "count_Birds": 162, "count_Gymnosperms": 0, "count_Mosses": 0, "unique_species_count": 212.0, "countryCode": "KE" }, "geometry": { "type": "MultiPolygon", "coordinates": [ [ [ [ 40.292726658052295, -1.396245096910399 ], [ 40.269274163638208, -1.958869144287792 ], [ 39.885463764577509, -2.236994749723047 ], [ 39.524303425820214, -1.951725070561405 ], [ 39.544533398872268, -1.391320669890526 ], [ 39.92919416396451, -1.113923085818428 ], [ 40.292726658052295, -1.396245096910399 ] ] ] ] } },
{ "type": "Feature", "properties": { "geogrid_id": "3001680303040653443", "seqnum": 19600.0, "lat_c": -1.680303084689168, "lon_c": 40.653443317402264, "res": 8.0, "count_Insects": 2, "count_Amphibians": 0, "count_Flowering Plants": 6, "count_Mammals": 0, "count_Sac Fungi": 0, "count_Ferns": 0, "count_Arachnids": 0, "count_Molluscs": 0, "count_Reptiles": 1, "count_Basidiomycota": 0, "count_Birds": 0, "count_Gymnosperms": 0, "count_Mosses": 0, "unique_species_count": 9.0, "countryCode": "KE" }, "geometry": { "type": "MultiPolygon", "coordinates": [ [ [ [ 41.037997416574115, -1.40130267079747 ], [ 41.19590373237213, -1.83179479195696 ], [ 40.811729271496041, -2.111214336007866 ], [ 40.269274163638208, -1.958869144287792 ], [ 40.292726658052295, -1.396245096910399 ], [ 40.677506970777195, -1.117846130663418 ], [ 41.037997416574115, -1.40130267079747 ] ] ] ] } },
{ "type": "Feature", "properties": { "geogrid_id": "3001763522045396248", "seqnum": 20009.0, "lat_c": -1.7635217239203551, "lon_c": 45.396247945045857, "res": 8.0, "count_Insects": 0, "count_Amphibians": 0, "count_Flowering Plants": 0, "count_Mammals": 1, "count_Sac Fungi": 0, "count_Ferns": 0, "count_Arachnids": 0, "count_Molluscs": 0, "count_Reptiles": 0, "count_Basidiomycota": 0, "count_Birds": 0, "count_Gymnosperms": 0, "count_Mosses": 0, "unique_species_count": 1.0, "countryCode": "KE" }, "geometry": { "type": "MultiPolygon", "coordinates": [ [ [ [ 45.737282016076144, -1.324033680095035 ], [ 45.871815626307928, -1.765794628976638 ], [ 45.546055333519554, -2.214676032784671 ], [ 45.084024265617991, -2.223960516996768 ], [ 44.934899665136328, -1.772578226276818 ], [ 45.26180901992128, -1.322317680711567 ], [ 45.737282016076144, -1.324033680095035 ] ] ] ] } },
{ "type": "Feature", "properties": { "geogrid_id": "3002070731043177099", "seqnum": 46089.0, "lat_c": -2.0707305073976721, "lon_c": 43.177099199630241, "res": 8.0, "count_Insects": 0, "count_Amphibians": 0, "count_Flowering Plants": 0, "count_Mammals": 1, "count_Sac Fungi": 0, "count_Ferns": 0, "count_Arachnids": 0, "count_Molluscs": 0, "count_Reptiles": 0, "count_Basidiomycota": 0, "count_Birds": 0, "count_Gymnosperms": 0, "count_Mosses": 0, "unique_species_count": 1.0, "countryCode": "KE" }, "geometry": { "type": "MultiPolygon", "coordinates": [ [ [ [ 43.557547402127589, -1.815418060609578 ], [ 43.704707077084642, -2.267721349944606 ], [ 43.323573500077607, -2.523121246077075 ], [ 42.797278135639552, -2.329119840432898 ], [ 42.651345831958984, -1.875995275838914 ], [ 43.030493344230045, -1.617735197470879 ], [ 43.557547402127589, -1.815418060609578 ] ] ] ] } },
{ "type": "Feature", "properties": { "geogrid_id": "3002137044042272768", "seqnum": 46007.0, "lat_c": -2.137043734957381, "lon_c": 42.27276761284196, "res": 8.0, "count_Insects": 0, "count_Amphibians": 0, "count_Flowering Plants": 0, "count_Mammals": 1, "count_Sac Fungi": 0, "count_Ferns": 0, "count_Arachnids": 0, "count_Molluscs": 0, "count_Reptiles": 0, "count_Basidiomycota": 0, "count_Birds": 0, "count_Gymnosperms": 0, "count_Mosses": 0, "unique_species_count": 1.0, "countryCode": "KE" }, "geometry": { "type": "MultiPolygon", "coordinates": [ [ [ [ 42.651345831958984, -1.875995275838914 ], [ 42.797278135639552, -2.329119840432898 ], [ 42.41802753167228, -2.590342534278057 ], [ 41.888454086819081, -2.418257049337657 ], [ 41.735573425708751, -1.984131215041275 ], [ 42.120198802171707, -1.703406990414089 ], [ 42.651345831958984, -1.875995275838914 ] ] ] ] } },
{ "type": "Feature", "properties": { "geogrid_id": "3002264435041351348", "seqnum": 19681.0, "lat_c": -2.2644352248053798, "lon_c": 41.351348397840134, "res": 8.0, "count_Insects": 11, "count_Amphibians": 9, "count_Flowering Plants": 41, "count_Mammals": 16, "count_Sac Fungi": 0, "count_Ferns": 0, "count_Arachnids": 6, "count_Molluscs": 10, "count_Reptiles": 28, "count_Basidiomycota": 0, "count_Birds": 70, "count_Gymnosperms": 0, "count_Mosses": 0, "unique_species_count": 191.0, "countryCode": "KE" }, "geometry": { "type": "MultiPolygon", "coordinates": [ [ [ [ 41.735573425708751, -1.984131215041275 ], [ 41.888454086819081, -2.418257049337657 ], [ 41.504520237454848, -2.699052041967809 ], [ 40.967497086862771, -2.544312997385442 ], [ 40.811729271496041, -2.111214336007866 ], [ 41.19590373237213, -1.83179479195696 ], [ 41.735573425708751, -1.984131215041275 ] ] ] ] } },
{ "type": "Feature", "properties": { "geogrid_id": "3002390200040427922", "seqnum": 19599.0, "lat_c": -2.39020019282649, "lon_c": 40.427921652718936, "res": 8.0, "count_Insects": 7, "count_Amphibians": 3, "count_Flowering Plants": 77, "count_Mammals": 1, "count_Sac Fungi": 1, "count_Ferns": 0, "count_Arachnids": 0, "count_Molluscs": 5, "count_Reptiles": 6, "count_Basidiomycota": 0, "count_Birds": 71, "count_Gymnosperms": 0, "count_Mosses": 0, "unique_species_count": 171.0, "countryCode": "KE" }, "geometry": { "type": "MultiPolygon", "coordinates": [ [ [ [ 40.811729271496041, -2.111214336007866 ], [ 40.967497086862771, -2.544312997385442 ], [ 40.583993068663851, -2.823758526813041 ], [ 40.044454701393384, -2.668746302814189 ], [ 39.885463764577509, -2.236994749723047 ], [ 40.269274163638208, -1.958869144287792 ], [ 40.811729271496041, -2.111214336007866 ] ] ] ] } },
{ "type": "Feature", "properties": { "geogrid_id": "3002479144036504021", "seqnum": 19189.0, "lat_c": -2.4791435397090611, "lon_c": 36.504020978496605, "res": 8.0, "count_Insects": 10, "count_Amphibians": 0, "count_Flowering Plants": 55, "count_Mammals": 5, "count_Sac Fungi": 0, "count_Ferns": 0, "count_Arachnids": 1, "count_Molluscs": 0, "count_Reptiles": 5, "count_Basidiomycota": 0, "count_Birds": 24, "count_Gymnosperms": 0, "count_Mosses": 0, "unique_species_count": 100.0, "countryCode": "KE" }, "geometry": { "type": "MultiPolygon", "coordinates": [ [ [ [ 36.887542154077344, -2.205534423558396 ], [ 36.874999404532772, -2.761743399820456 ], [ 36.492035419096908, -3.035362887185192 ], [ 36.120708451313931, -2.752270472155037 ], [ 36.130572917398034, -2.198230095510801 ], [ 36.514475682471954, -1.925076386121578 ], [ 36.887542154077344, -2.205534423558396 ] ] ] ] } },
{ "type": "Feature", "properties": { "geogrid_id": "3002487642037258173", "seqnum": 19271.0, "lat_c": -2.4876415978874822, "lon_c": 37.25817342273848, "res": 8.0, "count_Insects": 179, "count_Amphibians": 14, "count_Flowering Plants": 149, "count_Mammals": 63, "count_Sac Fungi": 0, "count_Ferns": 0, "count_Arachnids": 15, "count_Molluscs": 3, "count_Reptiles": 29, "count_Basidiomycota": 2, "count_Birds": 401, "count_Gymnosperms": 0, "count_Mosses": 0, "unique_species_count": 855.0, "countryCode": "KE" }, "geometry": { "type": "MultiPolygon", "coordinates": [ [ [ [ 37.641582614683557, -2.213063387606875 ], [ 37.626161108864657, -2.771506370256392 ], [ 37.243293834724206, -3.046140899481292 ], [ 36.874999404532772, -2.761743399820456 ], [ 36.887542154077344, -2.205534423558396 ], [ 37.271297268749272, -1.931448898028368 ], [ 37.641582614683557, -2.213063387606875 ] ] ] ] } },
{ "type": "Feature", "properties": { "geogrid_id": "3002496396038009264", "seqnum": 19353.0, "lat_c": -2.4963962871533818, "lon_c": 38.009263643891003, "res": 8.0, "count_Insects": 139, "count_Amphibians": 16, "count_Flowering Plants": 167, "count_Mammals": 50, "count_Sac Fungi": 53, "count_Ferns": 1, "count_Arachnids": 14, "count_Molluscs": 1, "count_Reptiles": 36, "count_Basidiomycota": 4, "count_Birds": 284, "count_Gymnosperms": 0, "count_Mosses": 0, "unique_species_count": 765.0, "countryCode": "KE" }, "geometry": { "type": "MultiPolygon", "coordinates": [ [ [ [ 38.392626650757528, -2.220816657745251 ], [ 38.374122751073422, -2.781558840903485 ], [ 37.991281244769581, -3.057242832253255 ], [ 37.626161108864657, -2.771506370256392 ], [ 37.641582614683557, -2.213063387606875 ], [ 38.025252291271059, -1.938014685003857 ], [ 38.392626650757528, -2.220816657745251 ] ] ] ] } },
{ "type": "Feature", "properties": { "geogrid_id": "3002505407038757223", "seqnum": 19435.0, "lat_c": -2.505407174045176, "lon_c": 38.757223348814584, "res": 8.0, "count_Insects": 9, "count_Amphibians": 0, "count_Flowering Plants": 19, "count_Mammals": 33, "count_Sac Fungi": 1, "count_Ferns": 0, "count_Arachnids": 4, "count_Molluscs": 0, "count_Reptiles": 14, "count_Basidiomycota": 0, "count_Birds": 149, "count_Gymnosperms": 0, "count_Mosses": 0, "unique_species_count": 229.0, "countryCode": "KE" }, "geometry": { "type": "MultiPolygon", "coordinates": [ [ [ [ 39.140608391529462, -2.228793894757343 ], [ 39.118815519377861, -2.791900253798281 ], [ 38.735926324575829, -3.068667998805527 ], [ 38.374122751073422, -2.781558840903485 ], [ 38.392626650757528, -2.220816657745251 ], [ 38.776275523639256, -1.944773495411459 ], [ 39.140608391529462, -2.228793894757343 ] ] ] ] } },
{ "type": "Feature", "properties": { "geogrid_id": "3002514674039501986", "seqnum": 19517.0, "lat_c": -2.514673812767886, "lon_c": 39.501986141110358, "res": 8.0, "count_Insects": 7, "count_Amphibians": 2, "count_Flowering Plants": 7, "count_Mammals": 0, "count_Sac Fungi": 0, "count_Ferns": 0, "count_Arachnids": 0, "count_Molluscs": 0, "count_Reptiles": 0, "count_Basidiomycota": 0, "count_Birds": 1, "count_Gymnosperms": 0, "count_Mosses": 0, "unique_species_count": 17.0, "countryCode": "KE" }, "geometry": { "type": "MultiPolygon", "coordinates": [ [ [ [ 39.885463764577509, -2.236994749723047 ], [ 40.044454701393384, -2.668746302814189 ], [ 39.661302447180766, -2.946846616794414 ], [ 39.118815519377861, -2.791900253798281 ], [ 39.140608391529462, -2.228793894757343 ], [ 39.524303425820214, -1.951725070561405 ], [ 39.885463764577509, -2.236994749723047 ] ] ] ] } },
{ "type": "Feature", "properties": { "geogrid_id": "3002719419043851766", "seqnum": 46170.0, "lat_c": -2.7194187081350152, "lon_c": 43.851766311331566, "res": 8.0, "count_Insects": 0, "count_Amphibians": 0, "count_Flowering Plants": 0, "count_Mammals": 1, "count_Sac Fungi": 0, "count_Ferns": 0, "count_Arachnids": 0, "count_Molluscs": 0, "count_Reptiles": 0, "count_Basidiomycota": 0, "count_Birds": 0, "count_Gymnosperms": 0, "count_Mosses": 0, "unique_species_count": 1.0, "countryCode": "KE" }, "geometry": { "type": "MultiPolygon", "coordinates": [ [ [ [ 44.1632483733759, -2.250272276028098 ], [ 44.310967798492001, -2.701614867546362 ], [ 43.998746362682631, -3.170517253335188 ], [ 43.469937556983858, -2.974914648602215 ], [ 43.323573500077607, -2.523121246077075 ], [ 43.704707077084642, -2.267721349944606 ], [ 44.1632483733759, -2.250272276028098 ] ] ] ] } },
{ "type": "Feature", "properties": { "geogrid_id": "3002781650042943070", "seqnum": 46088.0, "lat_c": -2.7816496876430499, "lon_c": 42.943069681101846, "res": 8.0, "count_Insects": 0, "count_Amphibians": 0, "count_Flowering Plants": 0, "count_Mammals": 1, "count_Sac Fungi": 0, "count_Ferns": 0, "count_Arachnids": 0, "count_Molluscs": 0, "count_Reptiles": 0, "count_Basidiomycota": 0, "count_Birds": 0, "count_Gymnosperms": 0, "count_Mosses": 0, "unique_species_count": 1.0, "countryCode": "KE" }, "geometry": { "type": "MultiPolygon", "coordinates": [ [ [ [ 43.323573500077607, -2.523121246077075 ], [ 43.469937556983858, -2.974914648602215 ], [ 43.088741728162837, -3.233592128185393 ], [ 42.563137973353513, -3.043057548139195 ], [ 42.41802753167228, -2.590342534278057 ], [ 42.797278135639552, -2.329119840432898 ], [ 43.323573500077607, -2.523121246077075 ] ] ] ] } },
{ "type": "Feature", "properties": { "geogrid_id": "3002854168042039291", "seqnum": 46006.0, "lat_c": -2.8541678556981811, "lon_c": 42.039290605214788, "res": 8.0, "count_Insects": 0, "count_Amphibians": 0, "count_Flowering Plants": 0, "count_Mammals": 1, "count_Sac Fungi": 0, "count_Ferns": 0, "count_Arachnids": 0, "count_Molluscs": 0, "count_Reptiles": 0, "count_Basidiomycota": 0, "count_Birds": 0, "count_Gymnosperms": 0, "count_Mosses": 0, "unique_species_count": 1.0, "countryCode": "KE" }, "geometry": { "type": "MultiPolygon", "coordinates": [ [ [ [ 42.41802753167228, -2.590342534278057 ], [ 42.563137973353513, -3.043057548139195 ], [ 42.183720629441019, -3.307108955546811 ], [ 41.655599828808775, -3.135484135028286 ], [ 41.504520237454848, -2.699052041967809 ], [ 41.888454086819081, -2.418257049337657 ], [ 42.41802753167228, -2.590342534278057 ] ] ] ] } },
{ "type": "Feature", "properties": { "geogrid_id": "3002979423041120939", "seqnum": 19680.0, "lat_c": -2.9794227669060391, "lon_c": 41.120939353716338, "res": 8.0, "count_Insects": 0, "count_Amphibians": 0, "count_Flowering Plants": 0, "count_Mammals": 1, "count_Sac Fungi": 0, "count_Ferns": 0, "count_Arachnids": 0, "count_Molluscs": 0, "count_Reptiles": 1, "count_Basidiomycota": 0, "count_Birds": 0, "count_Gymnosperms": 0, "count_Mosses": 0, "unique_species_count": 2.0, "countryCode": "KE" }, "geometry": { "type": "MultiPolygon", "coordinates": [ [ [ [ 41.504520237454848, -2.699052041967809 ], [ 41.655599828808775, -3.135484135028286 ], [ 41.272240155480873, -3.416378576934537 ], [ 40.737684918929673, -3.259363302499955 ], [ 40.583993068663851, -2.823758526813041 ], [ 40.967497086862771, -2.544312997385442 ], [ 41.504520237454848, -2.699052041967809 ] ] ] ] } },
{ "type": "Feature", "properties": { "geogrid_id": "3003102766040200810", "seqnum": 19598.0, "lat_c": -3.1027658205548172, "lon_c": 40.200810119797715, "res": 8.0, "count_Insects": 314, "count_Amphibians": 25, "count_Flowering Plants": 203, "count_Mammals": 56, "count_Sac Fungi": 19, "count_Ferns": 1, "count_Arachnids": 23, "count_Molluscs": 99, "count_Reptiles": 48, "count_Basidiomycota": 3, "count_Birds": 279, "count_Gymnosperms": 1, "count_Mosses": 0, "unique_species_count": 1071.0, "countryCode": "KE" }, "geometry": { "type": "MultiPolygon", "coordinates": [ [ [ [ 40.583993068663851, -2.823758526813041 ], [ 40.737684918929673, -3.259363302499955 ], [ 40.354730604477133, -3.538867741300438 ], [ 39.817922210680393, -3.381328896663001 ], [ 39.661302447180766, -2.946846616794414 ], [ 40.044454701393384, -2.668746302814189 ], [ 40.583993068663851, -2.823758526813041 ] ] ] ] } },
{ "type": "Feature", "properties": { "geogrid_id": "3003152355044458630", "seqnum": 46251.0, "lat_c": -3.152355242650863, "lon_c": 44.458629541313222, "res": 8.0, "count_Insects": 0, "count_Amphibians": 0, "count_Flowering Plants": 0, "count_Mammals": 1, "count_Sac Fungi": 0, "count_Ferns": 0, "count_Arachnids": 0, "count_Molluscs": 0, "count_Reptiles": 0, "count_Basidiomycota": 0, "count_Birds": 0, "count_Gymnosperms": 0, "count_Mosses": 0, "unique_species_count": 1.0, "countryCode": "KE" }, "geometry": { "type": "MultiPolygon", "coordinates": [ [ [ [ 44.771453135287089, -2.686792674323894 ], [ 44.919814702120746, -3.13722368081247 ], [ 44.60625478932198, -3.602500412554499 ], [ 44.145668375350311, -3.62102401213895 ], [ 43.998746362682631, -3.170517253335188 ], [ 44.310967798492001, -2.701614867546362 ], [ 44.771453135287089, -2.686792674323894 ] ] ] ] } },
{ "type": "Feature", "properties": { "geogrid_id": "3003224495039278439", "seqnum": 19516.0, "lat_c": -3.2244950930581529, "lon_c": 39.278439117640282, "res": 8.0, "count_Insects": 18, "count_Amphibians": 5, "count_Flowering Plants": 64, "count_Mammals": 23, "count_Sac Fungi": 3, "count_Ferns": 0, "count_Arachnids": 2, "count_Molluscs": 0, "count_Reptiles": 9, "count_Basidiomycota": 0, "count_Birds": 135, "count_Gymnosperms": 0, "count_Mosses": 0, "unique_species_count": 259.0, "countryCode": "KE" }, "geometry": { "type": "MultiPolygon", "coordinates": [ [ [ [ 39.661302447180766, -2.946846616794414 ], [ 39.817922210680393, -3.381328896663001 ], [ 39.43530349889555, -3.659441780992985 ], [ 38.895839131953025, -3.501685694465382 ], [ 38.735926324575829, -3.068667998805527 ], [ 39.118815519377861, -2.791900253798281 ], [ 39.661302447180766, -2.946846616794414 ] ] ] ] } },
{ "type": "Feature", "properties": { "geogrid_id": "3003332453037608674", "seqnum": 19352.0, "lat_c": -3.3324530866618982, "lon_c": 37.608673663387208, "res": 8.0, "count_Insects": 56, "count_Amphibians": 3, "count_Flowering Plants": 54, "count_Mammals": 35, "count_Sac Fungi": 0, "count_Ferns": 0, "count_Arachnids": 2, "count_Molluscs": 1, "count_Reptiles": 7, "count_Basidiomycota": 0, "count_Birds": 299, "count_Gymnosperms": 0, "count_Mosses": 0, "unique_species_count": 457.0, "countryCode": "KE" }, "geometry": { "type": "MultiPolygon", "coordinates": [ [ [ [ 37.991281244769581, -3.057242832253255 ], [ 37.970890875651946, -3.620803115216078 ], [ 37.588694413437004, -3.896158340480486 ], [ 37.226275021511761, -3.607183541601638 ], [ 37.243293834724206, -3.046140899481292 ], [ 37.626161108864657, -2.771506370256392 ], [ 37.991281244769581, -3.057242832253255 ] ] ] ] } },
{ "type": "Feature", "properties": { "geogrid_id": "3003344971038353293", "seqnum": 19434.0, "lat_c": -3.34497097645884, "lon_c": 38.353293174903143, "res": 8.0, "count_Insects": 418, "count_Amphibians": 19, "count_Flowering Plants": 275, "count_Mammals": 71, "count_Sac Fungi": 72, "count_Ferns": 5, "count_Arachnids": 19, "count_Molluscs": 4, "count_Reptiles": 45, "count_Basidiomycota": 2, "count_Birds": 409, "count_Gymnosperms": 1, "count_Mosses": 0, "unique_species_count": 1340.0, "countryCode": "KE" }, "geometry": { "type": "MultiPolygon", "coordinates": [ [ [ [ 38.735926324575829, -3.068667998805527 ], [ 38.895839131953025, -3.501685694465382 ], [ 38.513477094777173, -3.778412385600825 ], [ 37.970890875651946, -3.620803115216078 ], [ 37.991281244769581, -3.057242832253255 ], [ 38.374122751073422, -2.781558840903485 ], [ 38.735926324575829, -3.068667998805527 ] ] ] ] } },
{ "type": "Feature", "properties": { "geogrid_id": "3003426118043616213", "seqnum": 46169.0, "lat_c": -3.426117861610793, "lon_c": 43.616212555585435, "res": 8.0, "count_Insects": 0, "count_Amphibians": 0, "count_Flowering Plants": 0, "count_Mammals": 1, "count_Sac Fungi": 0, "count_Ferns": 0, "count_Arachnids": 0, "count_Molluscs": 0, "count_Reptiles": 0, "count_Basidiomycota": 0, "count_Birds": 0, "count_Gymnosperms": 0, "count_Mosses": 0, "unique_species_count": 1.0, "countryCode": "KE" }, "geometry": { "type": "MultiPolygon", "coordinates": [ [ [ [ 43.998746362682631, -3.170517253335188 ], [ 44.145668375350311, -3.62102401213895 ], [ 43.76241956826911, -3.87673794380399 ], [ 43.234315412658631, -3.684954390387495 ], [ 43.088741728162837, -3.233592128185393 ], [ 43.469937556983858, -2.974914648602215 ], [ 43.998746362682631, -3.170517253335188 ] ] ] ] } },
{ "type": "Feature", "properties": { "geogrid_id": "3003495196042708120", "seqnum": 46087.0, "lat_c": -3.4951962029863139, "lon_c": 42.708120165913535, "res": 8.0, "count_Insects": 0, "count_Amphibians": 0, "count_Flowering Plants": 1, "count_Mammals": 1, "count_Sac Fungi": 0, "count_Ferns": 0, "count_Arachnids": 0, "count_Molluscs": 0, "count_Reptiles": 0, "count_Basidiomycota": 0, "count_Birds": 0, "count_Gymnosperms": 0, "count_Mosses": 0, "unique_species_count": 2.0, "countryCode": "KE" }, "geometry": { "type": "MultiPolygon", "coordinates": [ [ [ [ 43.088741728162837, -3.233592128185393 ], [ 43.234315412658631, -3.684954390387495 ], [ 42.852995216902784, -3.946765850795318 ], [ 42.328014114567537, -3.759485669829908 ], [ 42.183720629441019, -3.307108955546811 ], [ 42.563137973353513, -3.043057548139195 ], [ 43.088741728162837, -3.233592128185393 ] ] ] ] } },
{ "type": "Feature", "properties": { "geogrid_id": "3003573581041804760", "seqnum": 46005.0, "lat_c": -3.5735805386848369, "lon_c": 41.804759922267245, "res": 8.0, "count_Insects": 0, "count_Amphibians": 0, "count_Flowering Plants": 0, "count_Mammals": 1, "count_Sac Fungi": 0, "count_Ferns": 0, "count_Arachnids": 0, "count_Molluscs": 0, "count_Reptiles": 0, "count_Basidiomycota": 0, "count_Birds": 0, "count_Gymnosperms": 0, "count_Mosses": 0, "unique_species_count": 1.0, "countryCode": "KE" }, "geometry": { "type": "MultiPolygon", "coordinates": [ [ [ [ 42.183720629441019, -3.307108955546811 ], [ 42.328014114567537, -3.759485669829908 ], [ 41.948364846714945, -4.02623227506597 ], [ 41.421575506511296, -3.855025876556405 ], [ 41.272240155480873, -3.416378576934537 ], [ 41.655599828808775, -3.135484135028286 ], [ 42.183720629441019, -3.307108955546811 ] ] ] ] } },
{ "type": "Feature", "properties": { "geogrid_id": "3003696845040889185", "seqnum": 19679.0, "lat_c": -3.6968453470768421, "lon_c": 40.889184930159985, "res": 8.0, "count_Insects": 0, "count_Amphibians": 0, "count_Flowering Plants": 0, "count_Mammals": 1, "count_Sac Fungi": 0, "count_Ferns": 0, "count_Arachnids": 0, "count_Molluscs": 0, "count_Reptiles": 1, "count_Basidiomycota": 0, "count_Birds": 1, "count_Gymnosperms": 0, "count_Mosses": 0, "unique_species_count": 3.0, "countryCode": "KE" }, "geometry": { "type": "MultiPolygon", "coordinates": [ [ [ [ 41.272240155480873, -3.416378576934537 ], [ 41.421575506511296, -3.855025876556405 ], [ 41.038672503949563, -4.136046404445095 ], [ 40.506407670209711, -3.976878633743681 ], [ 40.354730604477133, -3.538867741300438 ], [ 40.737684918929673, -3.259363302499955 ], [ 41.272240155480873, -3.416378576934537 ] ] ] ] } },
{ "type": "Feature", "properties": { "geogrid_id": "3003817930039972050", "seqnum": 19597.0, "lat_c": -3.8179301874128861, "lon_c": 39.972050262581192, "res": 8.0, "count_Insects": 195, "count_Amphibians": 10, "count_Flowering Plants": 225, "count_Mammals": 77, "count_Sac Fungi": 2, "count_Ferns": 2, "count_Arachnids": 10, "count_Molluscs": 194, "count_Reptiles": 33, "count_Basidiomycota": 9, "count_Birds": 273, "count_Gymnosperms": 1, "count_Mosses": 0, "unique_species_count": 1031.0, "countryCode": "KE" }, "geometry": { "type": "MultiPolygon", "coordinates": [ [ [ [ 40.354730604477133, -3.538867741300438 ], [ 40.506407670209711, -3.976878633743681 ], [ 40.123882058746368, -4.256472638086302 ], [ 39.589617919161213, -4.096544753926955 ], [ 39.43530349889555, -3.659441780992985 ], [ 39.817922210680393, -3.381328896663001 ], [ 40.354730604477133, -3.538867741300438 ] ] ] ] } },
{ "type": "Feature", "properties": { "geogrid_id": "3003937099039052928", "seqnum": 19515.0, "lat_c": -3.9370985044871452, "lon_c": 39.05292832260578, "res": 8.0, "count_Insects": 76, "count_Amphibians": 16, "count_Flowering Plants": 163, "count_Mammals": 39, "count_Sac Fungi": 7, "count_Ferns": 2, "count_Arachnids": 8, "count_Molluscs": 2, "count_Reptiles": 25, "count_Basidiomycota": 9, "count_Birds": 182, "count_Gymnosperms": 2, "count_Mosses": 0, "unique_species_count": 531.0, "countryCode": "KE" }, "geometry": { "type": "MultiPolygon", "coordinates": [ [ [ [ 39.43530349889555, -3.659441780992985 ], [ 39.589617919161213, -4.096544753926955 ], [ 39.207407766753015, -4.374705560425241 ], [ 38.670771194062468, -4.214293100524411 ], [ 38.513477094777173, -3.778412385600825 ], [ 38.895839131953025, -3.501685694465382 ], [ 39.43530349889555, -3.659441780992985 ] ] ] ] } },
{ "type": "Feature", "properties": { "geogrid_id": "3004054669038131328", "seqnum": 19433.0, "lat_c": -4.0546691299824662, "lon_c": 38.131327790230458, "res": 8.0, "count_Insects": 0, "count_Amphibians": 0, "count_Flowering Plants": 1, "count_Mammals": 1, "count_Sac Fungi": 0, "count_Ferns": 0, "count_Arachnids": 0, "count_Molluscs": 0, "count_Reptiles": 1, "count_Basidiomycota": 0, "count_Birds": 11, "count_Gymnosperms": 0, "count_Mosses": 0, "unique_species_count": 14.0, "countryCode": "KE" }, "geometry": { "type": "MultiPolygon", "coordinates": [ [ [ [ 38.513477094777173, -3.778412385600825 ], [ 38.670771194062468, -4.214293100524411 ], [ 38.288806793207478, -4.49101960233531 ], [ 37.749366175995959, -4.330449887321399 ], [ 37.588694413437004, -3.896158340480486 ], [ 37.970890875651946, -3.620803115216078 ], [ 38.513477094777173, -3.778412385600825 ] ] ] ] } },
{ "type": "Feature", "properties": { "geogrid_id": "3004070946044292553", "seqnum": 46250.0, "lat_c": -4.070945919973795, "lon_c": 44.292553393067642, "res": 8.0, "count_Insects": 0, "count_Amphibians": 0, "count_Flowering Plants": 0, "count_Mammals": 1, "count_Sac Fungi": 0, "count_Ferns": 0, "count_Arachnids": 0, "count_Molluscs": 0, "count_Reptiles": 0, "count_Basidiomycota": 0, "count_Birds": 0, "count_Gymnosperms": 0, "count_Mosses": 0, "unique_species_count": 1.0, "countryCode": "KE" }, "geometry": { "type": "MultiPolygon", "coordinates": [ [ [ [ 44.60625478932198, -3.602500412554499 ], [ 44.75386463720659, -4.052057297287011 ], [ 44.439422372026335, -4.520289821466549 ], [ 43.908579567703597, -4.326781866447578 ], [ 43.76241956826911, -3.87673794380399 ], [ 44.145668375350311, -3.62102401213895 ], [ 44.60625478932198, -3.602500412554499 ] ] ] ] } },
{ "type": "Feature", "properties": { "geogrid_id": "3004135744043379812", "seqnum": 46168.0, "lat_c": -4.135743620969377, "lon_c": 43.379811759870577, "res": 8.0, "count_Insects": 0, "count_Amphibians": 0, "count_Flowering Plants": 0, "count_Mammals": 1, "count_Sac Fungi": 0, "count_Ferns": 0, "count_Arachnids": 0, "count_Molluscs": 0, "count_Reptiles": 0, "count_Basidiomycota": 0, "count_Birds": 0, "count_Gymnosperms": 0, "count_Mosses": 0, "unique_species_count": 1.0, "countryCode": "KE" }, "geometry": { "type": "MultiPolygon", "coordinates": [ [ [ [ 43.76241956826911, -3.87673794380399 ], [ 43.908579567703597, -4.326781866447578 ], [ 43.525251697773967, -4.585966885829002 ], [ 42.997784127009574, -4.397773770225565 ], [ 42.852995216902784, -3.946765850795318 ], [ 43.234315412658631, -3.684954390387495 ], [ 43.76241956826911, -3.87673794380399 ] ] ] ] } },
{ "type": "Feature", "properties": { "geogrid_id": "3004211306042472192", "seqnum": 46086.0, "lat_c": -4.2113055064520797, "lon_c": 42.472192158938462, "res": 8.0, "count_Insects": 0, "count_Amphibians": 0, "count_Flowering Plants": 0, "count_Mammals": 1, "count_Sac Fungi": 0, "count_Ferns": 0, "count_Arachnids": 0, "count_Molluscs": 0, "count_Reptiles": 0, "count_Basidiomycota": 0, "count_Birds": 0, "count_Gymnosperms": 0, "count_Mosses": 0, "unique_species_count": 1.0, "countryCode": "KE" }, "geometry": { "type": "MultiPolygon", "coordinates": [ [ [ [ 42.852995216902784, -3.946765850795318 ], [ 42.997784127009574, -4.397773770225565 ], [ 42.616275758983925, -4.662575909636952 ], [ 42.091846466320384, -4.478340042249289 ], [ 41.948364846714945, -4.02623227506597 ], [ 42.328014114567537, -3.759485669829908 ], [ 42.852995216902784, -3.946765850795318 ] ] ] ] } },
{ "type": "Feature", "properties": { "geogrid_id": "3004295220041569114", "seqnum": 46004.0, "lat_c": -4.2952199650708573, "lon_c": 41.569113773327906, "res": 8.0, "count_Insects": 0, "count_Amphibians": 0, "count_Flowering Plants": 0, "count_Mammals": 1, "count_Sac Fungi": 0, "count_Ferns": 0, "count_Arachnids": 0, "count_Molluscs": 0, "count_Reptiles": 0, "count_Basidiomycota": 0, "count_Birds": 0, "count_Gymnosperms": 0, "count_Mosses": 0, "unique_species_count": 1.0, "countryCode": "KE" }, "geometry": { "type": "MultiPolygon", "coordinates": [ [ [ [ 41.948364846714945, -4.02623227506597 ], [ 42.091846466320384, -4.478340042249289 ], [ 41.711898517263194, -4.747648777598567 ], [ 41.186319156459732, -4.576818427616701 ], [ 41.038672503949563, -4.136046404445095 ], [ 41.421575506511296, -3.855025876556405 ], [ 41.948364846714945, -4.02623227506597 ] ] ] ] } },
{ "type": "Feature", "properties": { "geogrid_id": "3004416636040656024", "seqnum": 19678.0, "lat_c": -4.4166364036083383, "lon_c": 40.656024236871609, "res": 8.0, "count_Insects": 0, "count_Amphibians": 0, "count_Flowering Plants": 0, "count_Mammals": 1, "count_Sac Fungi": 0, "count_Ferns": 0, "count_Arachnids": 0, "count_Molluscs": 0, "count_Reptiles": 1, "count_Basidiomycota": 0, "count_Birds": 0, "count_Gymnosperms": 0, "count_Mosses": 0, "unique_species_count": 2.0, "countryCode": "KE" }, "geometry": { "type": "MultiPolygon", "coordinates": [ [ [ [ 41.038672503949563, -4.136046404445095 ], [ 41.186319156459732, -4.576818427616701 ], [ 40.803755087360898, -4.857989550014295 ], [ 40.273604175475448, -4.696790176730604 ], [ 40.123882058746368, -4.256472638086302 ], [ 40.506407670209711, -3.976878633743681 ], [ 41.038672503949563, -4.136046404445095 ] ] ] ] } },
{ "type": "Feature", "properties": { "geogrid_id": "3004535622039741582", "seqnum": 19596.0, "lat_c": -4.5356215717650974, "lon_c": 39.741581936921747, "res": 8.0, "count_Insects": 272, "count_Amphibians": 20, "count_Flowering Plants": 269, "count_Mammals": 86, "count_Sac Fungi": 35, "count_Ferns": 0, "count_Arachnids": 46, "count_Molluscs": 255, "count_Reptiles": 50, "count_Basidiomycota": 4, "count_Birds": 229, "count_Gymnosperms": 3, "count_Mosses": 0, "unique_species_count": 1269.0, "countryCode": "KE" }, "geometry": { "type": "MultiPolygon", "coordinates": [ [ [ [ 40.123882058746368, -4.256472638086302 ], [ 40.273604175475448, -4.696790176730604 ], [ 39.891385930615719, -4.97650203847758 ], [ 39.359481296217936, -4.814319654686773 ], [ 39.207407766753015, -4.374705560425241 ], [ 39.589617919161213, -4.096544753926955 ], [ 40.123882058746368, -4.256472638086302 ] ] ] ] } },
{ "type": "Feature", "properties": { "geogrid_id": "3004652407038825394", "seqnum": 19514.0, "lat_c": -4.6524067305716503, "lon_c": 38.825394157481021, "res": 8.0, "count_Insects": 3, "count_Amphibians": 3, "count_Flowering Plants": 32, "count_Mammals": 0, "count_Sac Fungi": 0, "count_Ferns": 0, "count_Arachnids": 1, "count_Molluscs": 2, "count_Reptiles": 2, "count_Basidiomycota": 0, "count_Birds": 70, "count_Gymnosperms": 0, "count_Mosses": 0, "unique_species_count": 113.0, "countryCode": "KE" }, "geometry": { "type": "MultiPolygon", "coordinates": [ [ [ [ 39.207407766753015, -4.374705560425241 ], [ 39.359481296217936, -4.814319654686773 ], [ 38.977554270739439, -5.092561112834181 ], [ 38.443551596071892, -4.929642389780661 ], [ 38.288806793207478, -4.49101960233531 ], [ 38.670771194062468, -4.214293100524411 ], [ 39.207407766753015, -4.374705560425241 ] ] ] ] } },
{ "type": "Feature", "properties": { "geogrid_id": "3004848227043142508", "seqnum": 46167.0, "lat_c": -4.8482271678075568, "lon_c": 43.142507803522093, "res": 8.0, "count_Insects": 0, "count_Amphibians": 0, "count_Flowering Plants": 1, "count_Mammals": 0, "count_Sac Fungi": 0, "count_Ferns": 0, "count_Arachnids": 0, "count_Molluscs": 0, "count_Reptiles": 0, "count_Basidiomycota": 0, "count_Birds": 0, "count_Gymnosperms": 0, "count_Mosses": 0, "unique_species_count": 1.0, "countryCode": "KE" }, "geometry": { "type": "MultiPolygon", "coordinates": [ [ [ [ 43.525251697773967, -4.585966885829002 ], [ 43.670656070128928, -5.03563117083397 ], [ 43.287187073658444, -5.298133179169509 ], [ 42.760285822979895, -5.113304261587109 ], [ 42.616275758983925, -4.662575909636952 ], [ 42.997784127009574, -4.397773770225565 ], [ 43.525251697773967, -4.585966885829002 ] ] ] ] } },
{ "type": "Feature", "properties": { "geogrid_id": "800000000033849501", "seqnum": 18782.0, "lat_c": 5.017844e-09, "lon_c": 33.849500891528869, "res": 8.0, "count_Insects": 25, "count_Amphibians": 1, "count_Flowering Plants": 54, "count_Mammals": 5, "count_Sac Fungi": 0, "count_Ferns": 0, "count_Arachnids": 0, "count_Molluscs": 2, "count_Reptiles": 4, "count_Basidiomycota": 0, "count_Birds": 39, "count_Gymnosperms": 0, "count_Mosses": 0, "unique_species_count": 130.0, "countryCode": "KE" }, "geometry": { "type": "MultiPolygon", "coordinates": [ [ [ [ 34.234888538777291, 0.271531125725307 ], [ 34.234888536551068, -0.271531116677289 ], [ 33.848239246802244, -0.542602315431057 ], [ 33.462352526622269, -0.270813486608901 ], [ 33.46235252884329, 0.270813495466247 ], [ 33.848239248931989, 0.542602324386006 ], [ 34.234888538777291, 0.271531125725307 ] ] ] ] } },
{ "type": "Feature", "properties": { "geogrid_id": "800000000034621748", "seqnum": 18864.0, "lat_c": 5.211431e-09, "lon_c": 34.621747614008136, "res": 8.0, "count_Insects": 402, "count_Amphibians": 23, "count_Flowering Plants": 232, "count_Mammals": 83, "count_Sac Fungi": 33, "count_Ferns": 3, "count_Arachnids": 9, "count_Molluscs": 9, "count_Reptiles": 34, "count_Basidiomycota": 5, "count_Birds": 432, "count_Gymnosperms": 0, "count_Mosses": 0, "unique_species_count": 1265.0, "countryCode": "KE" }, "geometry": { "type": "MultiPolygon", "coordinates": [ [ [ [ 35.00531227962189, 0.272273859974781 ], [ 35.005312277390388, -0.272273850738249 ], [ 34.61894162700321, -0.54408879145686 ], [ 34.234888536551068, -0.271531116677289 ], [ 34.234888538777291, 0.271531125725307 ], [ 34.61894162913854, 0.544088800601301 ], [ 35.00531227962189, 0.272273859974781 ] ] ] ] } },
{ "type": "Feature", "properties": { "geogrid_id": "800000000035391923", "seqnum": 18946.0, "lat_c": 5.402936e-09, "lon_c": 35.391923401727816, "res": 8.0, "count_Insects": 43, "count_Amphibians": 7, "count_Flowering Plants": 149, "count_Mammals": 28, "count_Sac Fungi": 70, "count_Ferns": 1, "count_Arachnids": 0, "count_Molluscs": 4, "count_Reptiles": 6, "count_Basidiomycota": 1, "count_Birds": 67, "count_Gymnosperms": 1, "count_Mosses": 1, "unique_species_count": 378.0, "countryCode": "KE" }, "geometry": { "type": "MultiPolygon", "coordinates": [ [ [ [ 35.773563059368577, 0.273041690361861 ], [ 35.77356305713171, -0.273041680939008 ], [ 35.387427152882033, -0.545626303021478 ], [ 35.005312277390388, -0.272273850738249 ], [ 35.00531227962189, 0.272273859974781 ], [ 35.387427155023047, 0.545626312353224 ], [ 35.773563059368577, 0.273041690361861 ] ] ] ] } },
{ "type": "Feature", "properties": { "geogrid_id": "800000000036159970", "seqnum": 19028.0, "lat_c": 5.592318e-09, "lon_c": 36.159969841487865, "res": 8.0, "count_Insects": 110, "count_Amphibians": 8, "count_Flowering Plants": 287, "count_Mammals": 104, "count_Sac Fungi": 12, "count_Ferns": 4, "count_Arachnids": 3, "count_Molluscs": 6, "count_Reptiles": 26, "count_Basidiomycota": 5, "count_Birds": 433, "count_Gymnosperms": 1, "count_Mosses": 1, "unique_species_count": 1000.0, "countryCode": "KE" }, "geometry": { "type": "MultiPolygon", "coordinates": [ [ [ [ 36.539581311522767, 0.273834608769438 ], [ 36.539581309280472, -0.273834599162489 ], [ 36.153633947962142, -0.547214827582154 ], [ 35.77356305713171, -0.273041680939008 ], [ 35.773563059368577, 0.273041690361861 ], [ 36.153633950108905, 0.547214837098981 ], [ 36.539581311522767, 0.273834608769438 ] ] ] ] } },
{ "type": "Feature", "properties": { "geogrid_id": "800000000036925830", "seqnum": 19110.0, "lat_c": 5.77954e-09, "lon_c": 36.925829593578996, "res": 8.0, "count_Insects": 373, "count_Amphibians": 19, "count_Flowering Plants": 484, "count_Mammals": 114, "count_Sac Fungi": 186, "count_Ferns": 9, "count_Arachnids": 24, "count_Molluscs": 4, "count_Reptiles": 38, "count_Basidiomycota": 6, "count_Birds": 450, "count_Gymnosperms": 7, "count_Mosses": 1, "unique_species_count": 1715.0, "countryCode": "KE" }, "geometry": { "type": "MultiPolygon", "coordinates": [ [ [ [ 37.303308615738828, 0.274652606816286 ], [ 37.303308613491033, -0.274652597027501 ], [ 36.917501338528012, -0.548854341854722 ], [ 36.539581309280472, -0.273834599162489 ], [ 36.539581311522767, 0.273834608769438 ], [ 36.917501340680595, 0.548854351554376 ], [ 37.303308615738828, 0.274652606816286 ] ] ] ] } },
{ "type": "Feature", "properties": { "geogrid_id": "800000000037689446", "seqnum": 19192.0, "lat_c": 5.964565e-09, "lon_c": 37.68944641102572, "res": 8.0, "count_Insects": 103, "count_Amphibians": 10, "count_Flowering Plants": 576, "count_Mammals": 72, "count_Sac Fungi": 122, "count_Ferns": 5, "count_Arachnids": 7, "count_Molluscs": 1, "count_Reptiles": 26, "count_Basidiomycota": 2, "count_Birds": 250, "count_Gymnosperms": 1, "count_Mosses": 0, "unique_species_count": 1175.0, "countryCode": "KE" }, "geometry": { "type": "MultiPolygon", "coordinates": [ [ [ [ 38.064687717087978, 0.275495675857263 ], [ 38.064687714834626, -0.275495665888929 ], [ 37.678969874296655, -0.550544821814592 ], [ 37.303308613491033, -0.274652597027501 ], [ 37.303308615738828, 0.274652606816286 ], [ 37.678969876455128, 0.550544831694785 ], [ 38.064687717087978, 0.275495675857263 ] ] ] ] } },
{ "type": "Feature", "properties": { "geogrid_id": "800000000038450765", "seqnum": 19274.0, "lat_c": 6.147358e-09, "lon_c": 38.450765157560085, "res": 8.0, "count_Insects": 52, "count_Amphibians": 4, "count_Flowering Plants": 37, "count_Mammals": 44, "count_Sac Fungi": 46, "count_Ferns": 1, "count_Arachnids": 9, "count_Molluscs": 0, "count_Reptiles": 20, "count_Basidiomycota": 0, "count_Birds": 132, "count_Gymnosperms": 0, "count_Mosses": 0, "unique_species_count": 345.0, "countryCode": "KE" }, "geometry": { "type": "MultiPolygon", "coordinates": [ [ [ [ 38.823662543956317, 0.276363806983507 ], [ 38.823662541697367, -0.276363796837942 ], [ 38.437981347612038, -0.552286242697753 ], [ 38.064687714834626, -0.275495665888929 ], [ 38.064687717087978, 0.275495675857263 ], [ 38.437981349776443, 0.55228625275617 ], [ 38.823662543956317, 0.276363806983507 ] ] ] ] } },
{ "type": "Feature", "properties": { "geogrid_id": "800000000039209732", "seqnum": 19356.0, "lat_c": 6.327887e-09, "lon_c": 39.209731824323846, "res": 8.0, "count_Insects": 0, "count_Amphibians": 0, "count_Flowering Plants": 4, "count_Mammals": 4, "count_Sac Fungi": 0, "count_Ferns": 0, "count_Arachnids": 0, "count_Molluscs": 0, "count_Reptiles": 0, "count_Basidiomycota": 0, "count_Birds": 0, "count_Gymnosperms": 0, "count_Mosses": 0, "unique_species_count": 8.0, "countryCode": "KE" }, "geometry": { "type": "MultiPolygon", "coordinates": [ [ [ [ 39.58017822457289, 0.277256991022645 ], [ 39.580178222308305, -0.277256980702192 ], [ 39.194478811161986, -0.554078579001819 ], [ 38.823662541697367, -0.276363796837942 ], [ 38.823662543956317, 0.276363806983507 ], [ 39.194478813332374, 0.554078589236118 ], [ 39.58017822457289, 0.277256991022645 ] ] ] ] } },
{ "type": "Feature", "properties": { "geogrid_id": "800000000039966294", "seqnum": 19438.0, "lat_c": 6.506118e-09, "lon_c": 39.966293545299024, "res": 8.0, "count_Insects": 0, "count_Amphibians": 0, "count_Flowering Plants": 8, "count_Mammals": 2, "count_Sac Fungi": 0, "count_Ferns": 0, "count_Arachnids": 1, "count_Molluscs": 0, "count_Reptiles": 1, "count_Basidiomycota": 1, "count_Birds": 24, "count_Gymnosperms": 0, "count_Mosses": 0, "unique_species_count": 37.0, "countryCode": "KE" }, "geometry": { "type": "MultiPolygon", "coordinates": [ [ [ [ 40.33418110217022, 0.278175218539005 ], [ 40.334181099899965, -0.278175208046035 ], [ 39.948406594220131, -0.555921804487095 ], [ 39.580178222308305, -0.277256980702192 ], [ 39.58017822457289, 0.277256991022645 ], [ 39.948406596396538, 0.555921814894906 ], [ 40.33418110217022, 0.278175218539005 ] ] ] ] } },
{ "type": "Feature", "properties": { "geogrid_id": "800000000040720399", "seqnum": 19520.0, "lat_c": 6.682021e-09, "lon_c": 40.720398611469527, "res": 8.0, "count_Insects": 0, "count_Amphibians": 0, "count_Flowering Plants": 10, "count_Mammals": 0, "count_Sac Fungi": 0, "count_Ferns": 0, "count_Arachnids": 0, "count_Molluscs": 0, "count_Reptiles": 0, "count_Basidiomycota": 0, "count_Birds": 0, "count_Gymnosperms": 0, "count_Mosses": 0, "unique_species_count": 10.0, "countryCode": "KE" }, "geometry": { "type": "MultiPolygon", "coordinates": [ [ [ [ 41.085618748782458, 0.279118479833838 ], [ 41.085618746506512, -0.279118469170742 ], [ 40.699710317418308, -0.557815892177677 ], [ 40.334181099899965, -0.278175208046035 ], [ 40.33418110217022, 0.278175218539005 ], [ 40.699710319600761, 0.557815902756609 ], [ 41.085618748782458, 0.279118479833838 ] ] ] ] } },
{ "type": "Feature", "properties": { "geogrid_id": "800815440034232785", "seqnum": 18783.0, "lat_c": 0.81544020952992102, "lon_c": 34.232784844637578, "res": 8.0, "count_Insects": 43, "count_Amphibians": 14, "count_Flowering Plants": 70, "count_Mammals": 13, "count_Sac Fungi": 2, "count_Ferns": 0, "count_Arachnids": 1, "count_Molluscs": 1, "count_Reptiles": 4, "count_Basidiomycota": 0, "count_Birds": 25, "count_Gymnosperms": 0, "count_Mosses": 0, "unique_species_count": 173.0, "countryCode": "KE" }, "geometry": { "type": "MultiPolygon", "coordinates": [ [ [ [ 34.615861958272603, 1.089404763834796 ], [ 34.61894162913854, 0.544088800601301 ], [ 34.234888538777291, 0.271531125725307 ], [ 33.848239248931989, 0.542602324386006 ], [ 33.846815425045627, 1.086323556267261 ], [ 34.230379952962728, 1.360588974470626 ], [ 34.615861958272603, 1.089404763834796 ] ] ] ] } },
{ "type": "Feature", "properties": { "geogrid_id": "800817749035001536", "seqnum": 18865.0, "lat_c": 0.817748952208595, "lon_c": 35.001535592509697, "res": 8.0, "count_Insects": 38, "count_Amphibians": 4, "count_Flowering Plants": 189, "count_Mammals": 55, "count_Sac Fungi": 36, "count_Ferns": 0, "count_Arachnids": 3, "count_Molluscs": 4, "count_Reptiles": 7, "count_Basidiomycota": 4, "count_Birds": 177, "count_Gymnosperms": 0, "count_Mosses": 0, "unique_species_count": 517.0, "countryCode": "KE" }, "geometry": { "type": "MultiPolygon", "coordinates": [ [ [ [ 35.382536187299998, 1.092591479992692 ], [ 35.387427155023047, 0.545626312353224 ], [ 35.00531227962189, 0.272273859974781 ], [ 34.61894162913854, 0.544088800601301 ], [ 34.615861958272603, 1.089404763834796 ], [ 34.997333227870037, 1.364577701584076 ], [ 35.382536187299998, 1.092591479992692 ] ] ] ] } },
{ "type": "Feature", "properties": { "geogrid_id": "800820136035767961", "seqnum": 18947.0, "lat_c": 0.82013550301276195, "lon_c": 35.767961023812205, "res": 8.0, "count_Insects": 119, "count_Amphibians": 7, "count_Flowering Plants": 145, "count_Mammals": 37, "count_Sac Fungi": 62, "count_Ferns": 3, "count_Arachnids": 9, "count_Molluscs": 1, "count_Reptiles": 23, "count_Basidiomycota": 2, "count_Birds": 341, "count_Gymnosperms": 0, "count_Mosses": 0, "unique_species_count": 749.0, "countryCode": "KE" }, "geometry": { "type": "MultiPolygon", "coordinates": [ [ [ [ 36.14677267085753, 1.095883629893075 ], [ 36.153633950108905, 0.547214837098981 ], [ 35.773563059368577, 0.273041690361861 ], [ 35.387427155023047, 0.545626312353224 ], [ 35.382536187299998, 1.092591479992692 ], [ 35.761798823040401, 1.368700467665616 ], [ 36.14677267085753, 1.095883629893075 ] ] ] ] } },
{ "type": "Feature", "properties": { "geogrid_id": "800822600036531998", "seqnum": 19029.0, "lat_c": 0.82259981669436399, "lon_c": 36.531998126344398, "res": 8.0, "count_Insects": 36, "count_Amphibians": 5, "count_Flowering Plants": 118, "count_Mammals": 28, "count_Sac Fungi": 1, "count_Ferns": 0, "count_Arachnids": 8, "count_Molluscs": 1, "count_Reptiles": 23, "count_Basidiomycota": 0, "count_Birds": 236, "count_Gymnosperms": 1, "count_Mosses": 0, "unique_species_count": 457.0, "countryCode": "KE" }, "geometry": { "type": "MultiPolygon", "coordinates": [ [ [ [ 36.90850731786221, 1.099281136259564 ], [ 36.917501340680595, 0.548854351554376 ], [ 36.539581311522767, 0.273834608769438 ], [ 36.153633950108905, 0.547214837098981 ], [ 36.14677267085753, 1.095883629893075 ], [ 36.523710191064389, 1.372957156322441 ], [ 36.90850731786221, 1.099281136259564 ] ] ] ] } },
{ "type": "Feature", "properties": { "geogrid_id": "800825142037293585", "seqnum": 19111.0, "lat_c": 0.82514184655211298, "lon_c": 37.293585172857377, "res": 8.0, "count_Insects": 92, "count_Amphibians": 8, "count_Flowering Plants": 152, "count_Mammals": 79, "count_Sac Fungi": 26, "count_Ferns": 0, "count_Arachnids": 6, "count_Molluscs": 0, "count_Reptiles": 24, "count_Basidiomycota": 1, "count_Birds": 294, "count_Gymnosperms": 0, "count_Mosses": 1, "unique_species_count": 683.0, "countryCode": "KE" }, "geometry": { "type": "MultiPolygon", "coordinates": [ [ [ [ 37.667677409542193, 1.102783919393725 ], [ 37.678969876455128, 0.550544831694785 ], [ 37.303308615738828, 0.274652606816286 ], [ 36.917501340680595, 0.548854351554376 ], [ 36.90850731786221, 1.099281136259564 ], [ 37.283002227678303, 1.377347647478867 ], [ 37.667677409542193, 1.102783919393725 ] ] ] ] } },
{ "type": "Feature", "properties": { "geogrid_id": "800827762038052662", "seqnum": 19193.0, "lat_c": 0.82776154443439398, "lon_c": 38.05266174165385, "res": 8.0, "count_Insects": 22, "count_Amphibians": 4, "count_Flowering Plants": 36, "count_Mammals": 46, "count_Sac Fungi": 0, "count_Ferns": 0, "count_Arachnids": 3, "count_Molluscs": 7, "count_Reptiles": 18, "count_Basidiomycota": 0, "count_Birds": 211, "count_Gymnosperms": 0, "count_Mosses": 0, "unique_species_count": 347.0, "countryCode": "KE" }, "geometry": { "type": "MultiPolygon", "coordinates": [ [ [ [ 38.424221619837553, 1.106391897181698 ], [ 38.437981349776443, 0.55228625275617 ], [ 38.064687717087978, 0.275495675857263 ], [ 37.678969876455128, 0.550544831694785 ], [ 37.667677409542193, 1.102783919393725 ], [ 38.039611293677787, 1.381871817389001 ], [ 38.424221619837553, 1.106391897181698 ] ] ] ] } },
{ "type": "Feature", "properties": { "geogrid_id": "800830459038809169", "seqnum": 19275.0, "lat_c": 0.83045886074225606, "lon_c": 38.809168735593126, "res": 8.0, "count_Insects": 10, "count_Amphibians": 0, "count_Flowering Plants": 9, "count_Mammals": 4, "count_Sac Fungi": 0, "count_Ferns": 0, "count_Arachnids": 0, "count_Molluscs": 0, "count_Reptiles": 1, "count_Basidiomycota": 0, "count_Birds": 7, "count_Gymnosperms": 0, "count_Mosses": 0, "unique_species_count": 31.0, "countryCode": "KE" }, "geometry": { "type": "MultiPolygon", "coordinates": [ [ [ [ 39.178080034080082, 1.11010498510104 ], [ 39.194478813332374, 0.554078589236118 ], [ 38.823662543956317, 0.276363806983507 ], [ 38.437981349776443, 0.55228625275617 ], [ 38.424221619837553, 1.106391897181698 ], [ 38.793475234970082, 1.386529538649782 ], [ 39.178080034080082, 1.11010498510104 ] ] ] ] } },
{ "type": "Feature", "properties": { "geogrid_id": "800833234039563048", "seqnum": 19357.0, "lat_c": 0.83323374443248599, "lon_c": 39.563048399503657, "res": 8.0, "count_Insects": 0, "count_Amphibians": 0, "count_Flowering Plants": 1, "count_Mammals": 5, "count_Sac Fungi": 0, "count_Ferns": 0, "count_Arachnids": 0, "count_Molluscs": 0, "count_Reptiles": 0, "count_Basidiomycota": 0, "count_Birds": 13, "count_Gymnosperms": 0, "count_Mosses": 0, "unique_species_count": 19.0, "countryCode": "KE" }, "geometry": { "type": "MultiPolygon", "coordinates": [ [ [ [ 39.929194165958464, 1.113923096227735 ], [ 39.948406596396538, 0.555921814894906 ], [ 39.58017822457289, 0.277256991022645 ], [ 39.194478813332374, 0.554078589236118 ], [ 39.178080034080082, 1.11010498510104 ], [ 39.544533400771229, 1.39132068021437 ], [ 39.929194165958464, 1.113923096227735 ] ] ] ] } },
{ "type": "Feature", "properties": { "geogrid_id": "800836086040314244", "seqnum": 19439.0, "lat_c": 0.836086143020772, "lon_c": 40.314244336008926, "res": 8.0, "count_Insects": 0, "count_Amphibians": 0, "count_Flowering Plants": 2, "count_Mammals": 0, "count_Sac Fungi": 0, "count_Ferns": 0, "count_Arachnids": 0, "count_Molluscs": 0, "count_Reptiles": 0, "count_Basidiomycota": 0, "count_Birds": 0, "count_Gymnosperms": 0, "count_Mosses": 0, "unique_species_count": 2.0, "countryCode": "KE" }, "geometry": { "type": "MultiPolygon", "coordinates": [ [ [ [ 40.677506972777891, 1.117846141243411 ], [ 40.699710319600761, 0.557815902756609 ], [ 40.33418110217022, 0.278175218539005 ], [ 39.948406596396538, 0.555921814894906 ], [ 39.929194165958464, 1.113923096227735 ], [ 40.292726659958312, 1.396245107405915 ], [ 40.677506972777891, 1.117846141243411 ] ] ] ] } },
{ "type": "Feature", "properties": { "geogrid_id": "801636089034612326", "seqnum": 18784.0, "lat_c": 1.6360891624253391, "lon_c": 34.612326055396188, "res": 8.0, "count_Insects": 8, "count_Amphibians": 0, "count_Flowering Plants": 26, "count_Mammals": 2, "count_Sac Fungi": 18, "count_Ferns": 0, "count_Arachnids": 1, "count_Molluscs": 0, "count_Reptiles": 2, "count_Basidiomycota": 0, "count_Birds": 0, "count_Gymnosperms": 0, "count_Mosses": 4, "unique_species_count": 61.0, "countryCode": "KE" }, "geometry": { "type": "MultiPolygon", "coordinates": [ [ [ [ 34.992502042725626, 1.912912167813687 ], [ 34.997333227870037, 1.364577701584076 ], [ 34.615861958272603, 1.089404763834796 ], [ 34.230379952962728, 1.360588974470626 ], [ 34.227488692091725, 1.907120919645252 ], [ 34.608127476212736, 2.184296629343419 ], [ 34.992502042725626, 1.912912167813687 ] ] ] ] } },
{ "type": "Feature", "properties": { "geogrid_id": "801641045035377051", "seqnum": 18866.0, "lat_c": 1.64104505542525, "lon_c": 35.377050573021329, "res": 8.0, "count_Insects": 20, "count_Amphibians": 4, "count_Flowering Plants": 124, "count_Mammals": 25, "count_Sac Fungi": 2, "count_Ferns": 3, "count_Arachnids": 0, "count_Molluscs": 0, "count_Reptiles": 4, "count_Basidiomycota": 0, "count_Birds": 18, "count_Gymnosperms": 1, "count_Mosses": 0, "unique_species_count": 201.0, "countryCode": "KE" }, "geometry": { "type": "MultiPolygon", "coordinates": [ [ [ [ 35.754854428071738, 1.918897403261753 ], [ 35.761798823040401, 1.368700467665616 ], [ 35.382536187299998, 1.092591479992692 ], [ 34.997333227870037, 1.364577701584076 ], [ 34.992502042725626, 1.912912167813687 ], [ 35.370744312188563, 2.191150733353903 ], [ 35.754854428071738, 1.918897403261753 ] ] ] ] } },
{ "type": "Feature", "properties": { "geogrid_id": "801646164036139168", "seqnum": 18948.0, "lat_c": 1.6461644011086729, "lon_c": 36.139167831346441, "res": 8.0, "count_Insects": 0, "count_Amphibians": 1, "count_Flowering Plants": 13, "count_Mammals": 3, "count_Sac Fungi": 0, "count_Ferns": 0, "count_Arachnids": 2, "count_Molluscs": 1, "count_Reptiles": 1, "count_Basidiomycota": 0, "count_Birds": 13, "count_Gymnosperms": 0, "count_Mosses": 0, "unique_species_count": 34.0, "countryCode": "KE" }, "geometry": { "type": "MultiPolygon", "coordinates": [ [ [ [ 36.514475684156857, 1.925076395737851 ], [ 36.523710191064389, 1.372957156322441 ], [ 36.14677267085753, 1.095883629893075 ], [ 35.761798823040401, 1.368700467665616 ], [ 35.754854428071738, 1.918897403261753 ], [ 36.130572918985713, 2.198230105037349 ], [ 36.514475684156857, 1.925076395737851 ] ] ] ] } },
{ "type": "Feature", "properties": { "geogrid_id": "801651447036898610", "seqnum": 19030.0, "lat_c": 1.6514470294728389, "lon_c": 36.898610246433861, "res": 8.0, "count_Insects": 3, "count_Amphibians": 2, "count_Flowering Plants": 81, "count_Mammals": 41, "count_Sac Fungi": 0, "count_Ferns": 2, "count_Arachnids": 1, "count_Molluscs": 1, "count_Reptiles": 1, "count_Basidiomycota": 0, "count_Birds": 34, "count_Gymnosperms": 0, "count_Mosses": 0, "unique_species_count": 166.0, "countryCode": "KE" }, "geometry": { "type": "MultiPolygon", "coordinates": [ [ [ [ 37.271297270441664, 1.931448907825466 ], [ 37.283002227678303, 1.377347647478867 ], [ 36.90850731786221, 1.099281136259564 ], [ 36.523710191064389, 1.372957156322441 ], [ 36.514475684156857, 1.925076395737851 ], [ 36.887542155672776, 2.205534433266753 ], [ 37.271297270441664, 1.931448907825466 ] ] ] ] } },
{ "type": "Feature", "properties": { "geogrid_id": "801656893037655312", "seqnum": 19112.0, "lat_c": 1.6568927652728249, "lon_c": 37.655311776215065, "res": 8.0, "count_Insects": 5, "count_Amphibians": 1, "count_Flowering Plants": 15, "count_Mammals": 9, "count_Sac Fungi": 0, "count_Ferns": 0, "count_Arachnids": 2, "count_Molluscs": 0, "count_Reptiles": 9, "count_Basidiomycota": 0, "count_Birds": 45, "count_Gymnosperms": 0, "count_Mosses": 0, "unique_species_count": 86.0, "countryCode": "KE" }, "geometry": { "type": "MultiPolygon", "coordinates": [ [ [ [ 38.02525229297099, 1.938014694979408 ], [ 38.039611293677787, 1.381871817389001 ], [ 37.667677409542193, 1.102783919393725 ], [ 37.283002227678303, 1.377347647478867 ], [ 37.271297270441664, 1.931448907825466 ], [ 37.641582616286797, 2.21306339749467 ], [ 38.02525229297099, 1.938014694979408 ] ] ] ] } },
{ "type": "Feature", "properties": { "geogrid_id": "801662501038409208", "seqnum": 19194.0, "lat_c": 1.6625014280440791, "lon_c": 38.409207942029646, "res": 8.0, "count_Insects": 2, "count_Amphibians": 0, "count_Flowering Plants": 4, "count_Mammals": 0, "count_Sac Fungi": 0, "count_Ferns": 0, "count_Arachnids": 0, "count_Molluscs": 0, "count_Reptiles": 0, "count_Basidiomycota": 0, "count_Birds": 0, "count_Gymnosperms": 0, "count_Mosses": 0, "unique_species_count": 6.0, "countryCode": "KE" }, "geometry": { "type": "MultiPolygon", "coordinates": [ [ [ [ 38.776275525346783, 1.944773505563068 ], [ 38.793475234970082, 1.386529538649782 ], [ 38.424221619837553, 1.106391897181698 ], [ 38.039611293677787, 1.381871817389001 ], [ 38.02525229297099, 1.938014694979408 ], [ 38.392626652368627, 2.220816667810083 ], [ 38.776275525346783, 1.944773505563068 ] ] ] ] } },
{ "type": "Feature", "properties": { "geogrid_id": "801668273039160236", "seqnum": 19276.0, "lat_c": 1.668272832125558, "lon_c": 39.160235848155438, "res": 8.0, "count_Insects": 0, "count_Amphibians": 0, "count_Flowering Plants": 0, "count_Mammals": 0, "count_Sac Fungi": 0, "count_Ferns": 0, "count_Arachnids": 0, "count_Molluscs": 0, "count_Reptiles": 0, "count_Basidiomycota": 0, "count_Birds": 5, "count_Gymnosperms": 0, "count_Mosses": 0, "unique_species_count": 5.0, "countryCode": "KE" }, "geometry": { "type": "MultiPolygon", "coordinates": [ [ [ [ 39.524303427535379, 1.95172508088665 ], [ 39.544533400771229, 1.39132068021437 ], [ 39.178080034080082, 1.11010498510104 ], [ 38.793475234970082, 1.386529538649782 ], [ 38.776275525346783, 1.944773505563068 ], [ 39.140608393148469, 2.22879390499679 ], [ 39.524303427535379, 1.95172508088665 ] ] ] ] } },
{ "type": "Feature", "properties": { "geogrid_id": "801674207039908334", "seqnum": 19358.0, "lat_c": 1.6742067866834951, "lon_c": 39.908334199340892, "res": 8.0, "count_Insects": 5, "count_Amphibians": 0, "count_Flowering Plants": 11, "count_Mammals": 3, "count_Sac Fungi": 0, "count_Ferns": 0, "count_Arachnids": 0, "count_Molluscs": 2, "count_Reptiles": 0, "count_Basidiomycota": 0, "count_Birds": 101, "count_Gymnosperms": 0, "count_Mosses": 0, "unique_species_count": 122.0, "countryCode": "KE" }, "geometry": { "type": "MultiPolygon", "coordinates": [ [ [ [ 40.26927416253853, 1.958869156830238 ], [ 40.292726659958312, 1.396245107405915 ], [ 39.929194165958464, 1.113923096227735 ], [ 39.544533400771229, 1.39132068021437 ], [ 39.524303427535379, 1.95172508088665 ], [ 39.885463763422592, 2.236994762149805 ], [ 40.26927416253853, 1.958869156830238 ] ] ] ] } },
{ "type": "Feature", "properties": { "geogrid_id": "801680303040653443", "seqnum": 19440.0, "lat_c": 1.680303097346898, "lon_c": 40.653443316357055, "res": 8.0, "count_Insects": 0, "count_Amphibians": 0, "count_Flowering Plants": 2, "count_Mammals": 0, "count_Sac Fungi": 0, "count_Ferns": 0, "count_Arachnids": 0, "count_Molluscs": 0, "count_Reptiles": 0, "count_Basidiomycota": 0, "count_Birds": 0, "count_Gymnosperms": 0, "count_Mosses": 0, "unique_species_count": 2.0, "countryCode": "KE" }, "geometry": { "type": "MultiPolygon", "coordinates": [ [ [ [ 41.195903731273219, 1.831794804788041 ], [ 41.037997415582602, 1.401302683570083 ], [ 40.677506972777891, 1.117846141243411 ], [ 40.292726659958312, 1.396245107405915 ], [ 40.26927416253853, 1.958869156830238 ], [ 40.811729270342795, 2.111214348724368 ], [ 41.195903731273219, 1.831794804788041 ] ] ] ] } },
{ "type": "Feature", "properties": { "geogrid_id": "802390200040427922", "seqnum": 19359.0, "lat_c": 2.3902002054280049, "lon_c": 40.427921651510566, "res": 8.0, "count_Insects": 0, "count_Amphibians": 0, "count_Flowering Plants": 0, "count_Mammals": 0, "count_Sac Fungi": 0, "count_Ferns": 0, "count_Arachnids": 0, "count_Molluscs": 0, "count_Reptiles": 1, "count_Basidiomycota": 0, "count_Birds": 2, "count_Gymnosperms": 0, "count_Mosses": 0, "unique_species_count": 3.0, "countryCode": "KE" }, "geometry": { "type": "MultiPolygon", "coordinates": [ [ [ [ 40.9674970856016, 2.54431301016 ], [ 40.811729270342795, 2.111214348724368 ], [ 40.26927416253853, 1.958869156830238 ], [ 39.885463763422592, 2.236994762149805 ], [ 40.04445470012913, 2.66874631530031 ], [ 40.583993067346888, 2.823758539472894 ], [ 40.9674970856016, 2.54431301016 ] ] ] ] } },
{ "type": "Feature", "properties": { "geogrid_id": "802462919034986812", "seqnum": 18785.0, "lat_c": 2.4629189997964689, "lon_c": 34.986811947221703, "res": 8.0, "count_Insects": 9, "count_Amphibians": 0, "count_Flowering Plants": 7, "count_Mammals": 5, "count_Sac Fungi": 0, "count_Ferns": 0, "count_Arachnids": 1, "count_Molluscs": 0, "count_Reptiles": 4, "count_Basidiomycota": 0, "count_Birds": 3, "count_Gymnosperms": 0, "count_Mosses": 0, "unique_species_count": 29.0, "countryCode": "KE" }, "geometry": { "type": "MultiPolygon", "coordinates": [ [ [ [ 35.363361042010638, 2.743088124088336 ], [ 35.370744312188563, 2.191150733353903 ], [ 34.992502042725626, 1.912912167813687 ], [ 34.608127476212736, 2.184296629343419 ], [ 34.603031920126064, 2.734196849026737 ], [ 34.980001410999236, 3.014781285535211 ], [ 35.363361042010638, 2.743088124088336 ] ] ] ] } },
{ "type": "Feature", "properties": { "geogrid_id": "802470903035746876", "seqnum": 18867.0, "lat_c": 2.4709025435500469, "lon_c": 35.746876480617544, "res": 8.0, "count_Insects": 0, "count_Amphibians": 0, "count_Flowering Plants": 12, "count_Mammals": 2, "count_Sac Fungi": 0, "count_Ferns": 0, "count_Arachnids": 3, "count_Molluscs": 0, "count_Reptiles": 0, "count_Basidiomycota": 0, "count_Birds": 5, "count_Gymnosperms": 0, "count_Mosses": 0, "unique_species_count": 22.0, "countryCode": "KE" }, "geometry": { "type": "MultiPolygon", "coordinates": [ [ [ [ 36.120708452714126, 2.752270481684596 ], [ 36.130572918985713, 2.198230105037349 ], [ 35.754854428071738, 1.918897403261753 ], [ 35.370744312188563, 2.191150733353903 ], [ 35.363361042010638, 2.743088124088336 ], [ 35.737579436793901, 3.024909472540293 ], [ 36.120708452714126, 2.752270481684596 ] ] ] ] } },
{ "type": "Feature", "properties": { "geogrid_id": "802479144036504021", "seqnum": 18949.0, "lat_c": 2.479143549328239, "lon_c": 36.504020979994635, "res": 8.0, "count_Insects": 16, "count_Amphibians": 2, "count_Flowering Plants": 28, "count_Mammals": 8, "count_Sac Fungi": 0, "count_Ferns": 0, "count_Arachnids": 7, "count_Molluscs": 1, "count_Reptiles": 10, "count_Basidiomycota": 0, "count_Birds": 51, "count_Gymnosperms": 0, "count_Mosses": 0, "unique_species_count": 123.0, "countryCode": "KE" }, "geometry": { "type": "MultiPolygon", "coordinates": [ [ [ [ 36.874999405941267, 2.761743409531414 ], [ 36.887542155672776, 2.205534433266753 ], [ 36.514475684156857, 1.925076395737851 ], [ 36.130572918985713, 2.198230105037349 ], [ 36.120708452714126, 2.752270481684596 ], [ 36.492035420407355, 3.035362896807066 ], [ 36.874999405941267, 2.761743409531414 ] ] ] ] } },
{ "type": "Feature", "properties": { "geogrid_id": "802487642037258173", "seqnum": 19031.0, "lat_c": 2.487641607687078, "lon_c": 37.258173424244568, "res": 8.0, "count_Insects": 5, "count_Amphibians": 0, "count_Flowering Plants": 24, "count_Mammals": 2, "count_Sac Fungi": 26, "count_Ferns": 0, "count_Arachnids": 8, "count_Molluscs": 0, "count_Reptiles": 0, "count_Basidiomycota": 0, "count_Birds": 53, "count_Gymnosperms": 0, "count_Mosses": 0, "unique_species_count": 118.0, "countryCode": "KE" }, "geometry": { "type": "MultiPolygon", "coordinates": [ [ [ [ 37.626161110281508, 2.771506380146344 ], [ 37.641582616286797, 2.21306339749467 ], [ 37.271297270441664, 1.931448907825466 ], [ 36.887542155672776, 2.205534433266753 ], [ 36.874999405941267, 2.761743409531414 ], [ 37.243293836043236, 3.046140909283136 ], [ 37.626161110281508, 2.771506380146344 ] ] ] ] } },
{ "type": "Feature", "properties": { "geogrid_id": "802496396038009264", "seqnum": 19113.0, "lat_c": 2.4963962971309961, "lon_c": 38.009263645405206, "res": 8.0, "count_Insects": 29, "count_Amphibians": 2, "count_Flowering Plants": 59, "count_Mammals": 19, "count_Sac Fungi": 18, "count_Ferns": 1, "count_Arachnids": 2, "count_Molluscs": 0, "count_Reptiles": 2, "count_Basidiomycota": 0, "count_Birds": 126, "count_Gymnosperms": 0, "count_Mosses": 0, "unique_species_count": 258.0, "countryCode": "KE" }, "geometry": { "type": "MultiPolygon", "coordinates": [ [ [ [ 38.374122752498671, 2.781558850970001 ], [ 38.392626652368627, 2.220816667810083 ], [ 38.02525229297099, 1.938014694979408 ], [ 37.641582616286797, 2.21306339749467 ], [ 37.626161110281508, 2.771506380146344 ], [ 37.991281246097238, 3.057242842232634 ], [ 38.374122752498671, 2.781558850970001 ] ] ] ] } },
{ "type": "Feature", "properties": { "geogrid_id": "802505407038757223", "seqnum": 19195.0, "lat_c": 2.5054071841983809, "lon_c": 38.75722335033695, "res": 8.0, "count_Insects": 0, "count_Amphibians": 0, "count_Flowering Plants": 1, "count_Mammals": 0, "count_Sac Fungi": 0, "count_Ferns": 0, "count_Arachnids": 0, "count_Molluscs": 0, "count_Reptiles": 0, "count_Basidiomycota": 0, "count_Birds": 0, "count_Gymnosperms": 0, "count_Mosses": 0, "unique_species_count": 1.0, "countryCode": "KE" }, "geometry": { "type": "MultiPolygon", "coordinates": [ [ [ [ 39.118815518110232, 2.791900265992457 ], [ 39.140608393148469, 2.22879390499679 ], [ 38.776275525346783, 1.944773505563068 ], [ 38.392626652368627, 2.220816667810083 ], [ 38.374122752498671, 2.781558850970001 ], [ 38.735926323250759, 3.068668010882807 ], [ 39.118815518110232, 2.791900265992457 ] ] ] ] } },
{ "type": "Feature", "properties": { "geogrid_id": "802514674039501986", "seqnum": 19277.0, "lat_c": 2.514673825078555, "lon_c": 39.501986139899458, "res": 8.0, "count_Insects": 0, "count_Amphibians": 0, "count_Flowering Plants": 0, "count_Mammals": 1, "count_Sac Fungi": 0, "count_Ferns": 0, "count_Arachnids": 0, "count_Molluscs": 0, "count_Reptiles": 0, "count_Basidiomycota": 0, "count_Birds": 11, "count_Gymnosperms": 0, "count_Mosses": 0, "unique_species_count": 12.0, "countryCode": "KE" }, "geometry": { "type": "MultiPolygon", "coordinates": [ [ [ [ 40.04445470012913, 2.66874631530031 ], [ 39.885463763422592, 2.236994762149805 ], [ 39.524303427535379, 1.95172508088665 ], [ 39.140608393148469, 2.22879390499679 ], [ 39.118815518110232, 2.791900265992457 ], [ 39.661302445859867, 2.946846629164731 ], [ 40.04445470012913, 2.66874631530031 ] ] ] ] } },
{ "type": "Feature", "properties": { "geogrid_id": "802979423041120939", "seqnum": 19360.0, "lat_c": 2.979422779737996, "lon_c": 41.120939352347392, "res": 8.0, "count_Insects": 0, "count_Amphibians": 0, "count_Flowering Plants": 8, "count_Mammals": 0, "count_Sac Fungi": 0, "count_Ferns": 0, "count_Arachnids": 0, "count_Molluscs": 0, "count_Reptiles": 0, "count_Basidiomycota": 0, "count_Birds": 0, "count_Gymnosperms": 0, "count_Mosses": 0, "unique_species_count": 8.0, "countryCode": "KE" }, "geometry": { "type": "MultiPolygon", "coordinates": [ [ [ [ 41.655599827388635, 3.1354841480308 ], [ 41.504520236141609, 2.699052054913785 ], [ 40.9674970856016, 2.54431301016 ], [ 40.583993067346888, 2.823758539472894 ], [ 40.737684917504232, 3.259363315217472 ], [ 41.272240154004301, 3.416378589823289 ], [ 41.655599827388635, 3.1354841480308 ] ] ] ] } },
{ "type": "Feature", "properties": { "geogrid_id": "803102766040200810", "seqnum": 19278.0, "lat_c": 3.1027658330995491, "lon_c": 40.200810118424187, "res": 8.0, "count_Insects": 0, "count_Amphibians": 0, "count_Flowering Plants": 2, "count_Mammals": 0, "count_Sac Fungi": 0, "count_Ferns": 0, "count_Arachnids": 0, "count_Molluscs": 0, "count_Reptiles": 0, "count_Basidiomycota": 0, "count_Birds": 0, "count_Gymnosperms": 0, "count_Mosses": 0, "unique_species_count": 2.0, "countryCode": "KE" }, "geometry": { "type": "MultiPolygon", "coordinates": [ [ [ [ 40.737684917504232, 3.259363315217472 ], [ 40.583993067346888, 2.823758539472894 ], [ 40.04445470012913, 2.66874631530031 ], [ 39.661302445859867, 2.946846629164731 ], [ 39.817922209249531, 3.381328909092198 ], [ 40.354730602994415, 3.538867753903093 ], [ 40.737684917504232, 3.259363315217472 ] ] ] ] } },
{ "type": "Feature", "properties": { "geogrid_id": "803224495039278439", "seqnum": 19196.0, "lat_c": 3.2244951053122581, "lon_c": 39.278439116262, "res": 8.0, "count_Insects": 0, "count_Amphibians": 0, "count_Flowering Plants": 13, "count_Mammals": 9, "count_Sac Fungi": 0, "count_Ferns": 0, "count_Arachnids": 2, "count_Molluscs": 0, "count_Reptiles": 1, "count_Basidiomycota": 0, "count_Birds": 34, "count_Gymnosperms": 0, "count_Mosses": 0, "unique_species_count": 59.0, "countryCode": "KE" }, "geometry": { "type": "MultiPolygon", "coordinates": [ [ [ [ 39.817922209249531, 3.381328909092198 ], [ 39.661302445859867, 2.946846629164731 ], [ 39.118815518110232, 2.791900265992457 ], [ 38.735926323250759, 3.068668010882807 ], [ 38.895839130516627, 3.501685706602866 ], [ 39.435303497406622, 3.659441793306232 ], [ 39.817922209249531, 3.381328909092198 ] ] ] ] } },
{ "type": "Feature", "properties": { "geogrid_id": "803285976034596773", "seqnum": 18704.0, "lat_c": 3.285976492515823, "lon_c": 34.596772521796808, "res": 8.0, "count_Insects": 10, "count_Amphibians": 0, "count_Flowering Plants": 1, "count_Mammals": 11, "count_Sac Fungi": 0, "count_Ferns": 0, "count_Arachnids": 0, "count_Molluscs": 0, "count_Reptiles": 0, "count_Basidiomycota": 0, "count_Birds": 2, "count_Gymnosperms": 0, "count_Mosses": 0, "unique_species_count": 24.0, "countryCode": "KE" }, "geometry": { "type": "MultiPolygon", "coordinates": [ [ [ [ 34.97177211353312, 3.568700673899338 ], [ 34.980001410999236, 3.014781285535211 ], [ 34.603031920126064, 2.734196849026737 ], [ 34.219378931974383, 3.004978965992972 ], [ 34.213649426361798, 3.556668235322002 ], [ 34.589044231752581, 3.839841441110676 ], [ 34.97177211353312, 3.568700673899338 ] ] ] ] } },
{ "type": "Feature", "properties": { "geogrid_id": "803297055035354609", "seqnum": 18786.0, "lat_c": 3.2970547793808391, "lon_c": 35.354608941255727, "res": 8.0, "count_Insects": 3, "count_Amphibians": 0, "count_Flowering Plants": 13, "count_Mammals": 4, "count_Sac Fungi": 0, "count_Ferns": 0, "count_Arachnids": 2, "count_Molluscs": 0, "count_Reptiles": 1, "count_Basidiomycota": 0, "count_Birds": 9, "count_Gymnosperms": 0, "count_Mosses": 0, "unique_species_count": 32.0, "countryCode": "KE" }, "geometry": { "type": "MultiPolygon", "coordinates": [ [ [ [ 35.726637792314115, 3.581131340143934 ], [ 35.737579436793901, 3.024909472540293 ], [ 35.363361042010638, 2.743088124088336 ], [ 34.980001410999236, 3.014781285535211 ], [ 34.97177211353312, 3.568700673899338 ], [ 35.344154655874462, 3.853268515728652 ], [ 35.726637792314115, 3.581131340143934 ] ] ] ] } },
{ "type": "Feature", "properties": { "geogrid_id": "803308494036109256", "seqnum": 18868.0, "lat_c": 3.308494171137045, "lon_c": 36.109256489748724, "res": 8.0, "count_Insects": 4, "count_Amphibians": 0, "count_Flowering Plants": 5, "count_Mammals": 2, "count_Sac Fungi": 0, "count_Ferns": 0, "count_Arachnids": 3, "count_Molluscs": 2, "count_Reptiles": 3, "count_Basidiomycota": 0, "count_Birds": 29, "count_Gymnosperms": 0, "count_Mosses": 0, "unique_species_count": 48.0, "countryCode": "KE" }, "geometry": { "type": "MultiPolygon", "coordinates": [ [ [ [ 36.478165104634208, 3.593959289896179 ], [ 36.492035420407355, 3.035362896807066 ], [ 36.120708452714126, 2.752270481684596 ], [ 35.737579436793901, 3.024909472540293 ], [ 35.726637792314115, 3.581131340143934 ], [ 36.095854085138541, 3.867131133381649 ], [ 36.478165104634208, 3.593959289896179 ] ] ] ] } },
{ "type": "Feature", "properties": { "geogrid_id": "803320294036860637", "seqnum": 18950.0, "lat_c": 3.3202938803011488, "lon_c": 36.860636788629968, "res": 8.0, "count_Insects": 0, "count_Amphibians": 0, "count_Flowering Plants": 6, "count_Mammals": 2, "count_Sac Fungi": 0, "count_Ferns": 0, "count_Arachnids": 1, "count_Molluscs": 0, "count_Reptiles": 0, "count_Basidiomycota": 0, "count_Birds": 6, "count_Gymnosperms": 0, "count_Mosses": 0, "unique_species_count": 15.0, "countryCode": "KE" }, "geometry": { "type": "MultiPolygon", "coordinates": [ [ [ [ 37.226275022642845, 3.60718355140539 ], [ 37.243293836043236, 3.046140909283136 ], [ 36.874999405941267, 2.761743409531414 ], [ 36.492035420407355, 3.035362896807066 ], [ 36.478165104634208, 3.593959289896179 ], [ 36.844060510064949, 3.881428140476311 ], [ 37.226275022642845, 3.60718355140539 ] ] ] ] } },
{ "type": "Feature", "properties": { "geogrid_id": "803332453037608674", "seqnum": 19032.0, "lat_c": 3.33245309655369, "lon_c": 37.608673664616816, "res": 8.0, "count_Insects": 2, "count_Amphibians": 0, "count_Flowering Plants": 5, "count_Mammals": 4, "count_Sac Fungi": 0, "count_Ferns": 0, "count_Arachnids": 4, "count_Molluscs": 0, "count_Reptiles": 0, "count_Basidiomycota": 0, "count_Birds": 12, "count_Gymnosperms": 0, "count_Mosses": 0, "unique_species_count": 27.0, "countryCode": "KE" }, "geometry": { "type": "MultiPolygon", "coordinates": [ [ [ [ 37.970890874209871, 3.620803127058358 ], [ 37.991281246097238, 3.057242842232634 ], [ 37.626161110281508, 2.771506380146344 ], [ 37.243293836043236, 3.046140909283136 ], [ 37.226275022642845, 3.60718355140539 ], [ 37.588694411935407, 3.896158352204662 ], [ 37.970890874209871, 3.620803127058358 ] ] ] ] } },
{ "type": "Feature", "properties": { "geogrid_id": "803344971038353293", "seqnum": 19114.0, "lat_c": 3.3449709884188228, "lon_c": 38.353293173519916, "res": 8.0, "count_Insects": 13, "count_Amphibians": 1, "count_Flowering Plants": 7, "count_Mammals": 4, "count_Sac Fungi": 3, "count_Ferns": 0, "count_Arachnids": 1, "count_Molluscs": 0, "count_Reptiles": 1, "count_Basidiomycota": 0, "count_Birds": 33, "count_Gymnosperms": 0, "count_Mosses": 0, "unique_species_count": 63.0, "countryCode": "KE" }, "geometry": { "type": "MultiPolygon", "coordinates": [ [ [ [ 38.895839130516627, 3.501685706602866 ], [ 38.735926323250759, 3.068668010882807 ], [ 38.374122752498671, 2.781558850970001 ], [ 37.991281246097238, 3.057242842232634 ], [ 37.970890874209871, 3.620803127058358 ], [ 38.513477093281956, 3.77841239762128 ], [ 38.895839130516627, 3.501685706602866 ] ] ] ] } },
{ "type": "Feature", "properties": { "geogrid_id": "803696845040889185", "seqnum": 19279.0, "lat_c": 3.6968453598514071, "lon_c": 40.889184928626193, "res": 8.0, "count_Insects": 0, "count_Amphibians": 0, "count_Flowering Plants": 5, "count_Mammals": 0, "count_Sac Fungi": 0, "count_Ferns": 0, "count_Arachnids": 0, "count_Molluscs": 0, "count_Reptiles": 0, "count_Basidiomycota": 0, "count_Birds": 0, "count_Gymnosperms": 0, "count_Mosses": 0, "unique_species_count": 5.0, "countryCode": "KE" }, "geometry": { "type": "MultiPolygon", "coordinates": [ [ [ [ 41.421575504927276, 3.855025889501405 ], [ 41.272240154004301, 3.416378589823289 ], [ 40.737684917504232, 3.259363315217472 ], [ 40.354730602994415, 3.538867753903093 ], [ 40.506407668617911, 3.976878646403629 ], [ 41.038672502307563, 4.136046417276144 ], [ 41.421575504927276, 3.855025889501405 ] ] ] ] } },
{ "type": "Feature", "properties": { "geogrid_id": "803817930039972050", "seqnum": 19197.0, "lat_c": 3.8179301999002582, "lon_c": 39.972050261040437, "res": 8.0, "count_Insects": 2, "count_Amphibians": 0, "count_Flowering Plants": 11, "count_Mammals": 2, "count_Sac Fungi": 0, "count_Ferns": 0, "count_Arachnids": 2, "count_Molluscs": 0, "count_Reptiles": 2, "count_Basidiomycota": 0, "count_Birds": 8, "count_Gymnosperms": 0, "count_Mosses": 0, "unique_species_count": 27.0, "countryCode": "KE" }, "geometry": { "type": "MultiPolygon", "coordinates": [ [ [ [ 40.506407668617911, 3.976878646403629 ], [ 40.354730602994415, 3.538867753903093 ], [ 39.817922209249531, 3.381328909092198 ], [ 39.435303497406622, 3.659441793306232 ], [ 39.589617917561675, 4.096544766298623 ], [ 40.123882057095798, 4.256472650631203 ], [ 40.506407668617911, 3.976878646403629 ] ] ] ] } },
{ "type": "Feature", "properties": { "geogrid_id": "803937099039052928", "seqnum": 19115.0, "lat_c": 3.9370985166840269, "lon_c": 39.052928321058047, "res": 8.0, "count_Insects": 0, "count_Amphibians": 0, "count_Flowering Plants": 2, "count_Mammals": 0, "count_Sac Fungi": 0, "count_Ferns": 0, "count_Arachnids": 0, "count_Molluscs": 0, "count_Reptiles": 0, "count_Basidiomycota": 0, "count_Birds": 0, "count_Gymnosperms": 0, "count_Mosses": 0, "unique_species_count": 2.0, "countryCode": "KE" }, "geometry": { "type": "MultiPolygon", "coordinates": [ [ [ [ 39.589617917561675, 4.096544766298623 ], [ 39.435303497406622, 3.659441793306232 ], [ 38.895839130516627, 3.501685706602866 ], [ 38.513477093281956, 3.77841239762128 ], [ 38.67077119245522, 4.214293112604511 ], [ 39.207407765093954, 4.374705572680781 ], [ 39.589617917561675, 4.096544766298623 ] ] ] ] } },
{ "type": "Feature", "properties": { "geogrid_id": "804054669038131328", "seqnum": 19033.0, "lat_c": 4.0546691418854808, "lon_c": 38.131327788675726, "res": 8.0, "count_Insects": 0, "count_Amphibians": 0, "count_Flowering Plants": 4, "count_Mammals": 1, "count_Sac Fungi": 0, "count_Ferns": 0, "count_Arachnids": 0, "count_Molluscs": 0, "count_Reptiles": 0, "count_Basidiomycota": 0, "count_Birds": 2, "count_Gymnosperms": 0, "count_Mosses": 0, "unique_species_count": 7.0, "countryCode": "KE" }, "geometry": { "type": "MultiPolygon", "coordinates": [ [ [ [ 38.67077119245522, 4.214293112604511 ], [ 38.513477093281956, 3.77841239762128 ], [ 37.970890874209871, 3.620803127058358 ], [ 37.588694411935407, 3.896158352204662 ], [ 37.749366174381024, 4.330449899106565 ], [ 38.288806791540011, 4.491019614298214 ], [ 38.67077119245522, 4.214293112604511 ] ] ] ] } },
{ "type": "Feature", "properties": { "geogrid_id": "804110471034206401", "seqnum": 18623.0, "lat_c": 4.1104713786674703, "lon_c": 34.206400696920731, "res": 8.0, "count_Insects": 1, "count_Amphibians": 0, "count_Flowering Plants": 1, "count_Mammals": 7, "count_Sac Fungi": 0, "count_Ferns": 0, "count_Arachnids": 4, "count_Molluscs": 0, "count_Reptiles": 0, "count_Basidiomycota": 0, "count_Birds": 18, "count_Gymnosperms": 0, "count_Mosses": 0, "unique_species_count": 31.0, "countryCode": "KE" }, "geometry": { "type": "MultiPolygon", "coordinates": [ [ [ [ 34.579497083215479, 4.396019346215661 ], [ 34.589044231752581, 3.839841441110676 ], [ 34.213649426361798, 3.556668235322002 ], [ 33.830607285597139, 3.826851030110588 ], [ 33.823817024992266, 4.380584796393974 ], [ 34.19727398812649, 4.666621232686137 ], [ 34.579497083215479, 4.396019346215661 ] ] ] ] } },
{ "type": "Feature", "properties": { "geogrid_id": "804124900034961783", "seqnum": 18705.0, "lat_c": 4.1248998124789464, "lon_c": 34.961782550799491, "res": 8.0, "count_Insects": 2, "count_Amphibians": 1, "count_Flowering Plants": 4, "count_Mammals": 4, "count_Sac Fungi": 0, "count_Ferns": 0, "count_Arachnids": 2, "count_Molluscs": 0, "count_Reptiles": 0, "count_Basidiomycota": 0, "count_Birds": 12, "count_Gymnosperms": 0, "count_Mosses": 0, "unique_species_count": 25.0, "countryCode": "KE" }, "geometry": { "type": "MultiPolygon", "coordinates": [ [ [ [ 35.331616029932178, 4.411970083019677 ], [ 35.344154655874462, 3.853268515728652 ], [ 34.97177211353312, 3.568700673899338 ], [ 34.589044231752581, 3.839841441110676 ], [ 34.579497083215479, 4.396019346215661 ], [ 34.949640364296918, 4.683625153160562 ], [ 35.331616029932178, 4.411970083019677 ] ] ] ] } },
{ "type": "Feature", "properties": { "geogrid_id": "804139803035713679", "seqnum": 18787.0, "lat_c": 4.1398034024504842, "lon_c": 35.713679189622795, "res": 8.0, "count_Insects": 1, "count_Amphibians": 0, "count_Flowering Plants": 3, "count_Mammals": 3, "count_Sac Fungi": 0, "count_Ferns": 0, "count_Arachnids": 4, "count_Molluscs": 0, "count_Reptiles": 0, "count_Basidiomycota": 0, "count_Birds": 24, "count_Gymnosperms": 0, "count_Mosses": 0, "unique_species_count": 35.0, "countryCode": "KE" }, "geometry": { "type": "MultiPolygon", "coordinates": [ [ [ [ 36.080085475216379, 4.428435421345282 ], [ 36.095854085138541, 3.867131133381649 ], [ 35.726637792314115, 3.581131340143934 ], [ 35.344154655874462, 3.853268515728652 ], [ 35.331616029932178, 4.411970083019677 ], [ 35.698276158700246, 4.70118593813119 ], [ 36.080085475216379, 4.428435421345282 ] ] ] ] } },
{ "type": "Feature", "properties": { "geogrid_id": "804155181036462005", "seqnum": 18869.0, "lat_c": 4.1551807910350682, "lon_c": 36.46200548639785, "res": 8.0, "count_Insects": 6, "count_Amphibians": 0, "count_Flowering Plants": 8, "count_Mammals": 1, "count_Sac Fungi": 0, "count_Ferns": 0, "count_Arachnids": 2, "count_Molluscs": 0, "count_Reptiles": 2, "count_Basidiomycota": 0, "count_Birds": 26, "count_Gymnosperms": 0, "count_Mosses": 0, "unique_species_count": 45.0, "countryCode": "KE" }, "geometry": { "type": "MultiPolygon", "coordinates": [ [ [ [ 36.824819817895289, 4.44541373160418 ], [ 36.844060510064949, 3.881428140476311 ], [ 36.478165104634208, 3.593959289896179 ], [ 36.095854085138541, 3.867131133381649 ], [ 36.080085475216379, 4.428435421345282 ], [ 36.443092515934502, 4.719301696406208 ], [ 36.824819817895289, 4.44541373160418 ] ] ] ] } },
{ "type": "Feature", "properties": { "geogrid_id": "804171031037206679", "seqnum": 18951.0, "lat_c": 4.1710305834071368, "lon_c": 37.206678948999858, "res": 8.0, "count_Insects": 2, "count_Amphibians": 0, "count_Flowering Plants": 1, "count_Mammals": 3, "count_Sac Fungi": 0, "count_Ferns": 0, "count_Arachnids": 3, "count_Molluscs": 0, "count_Reptiles": 0, "count_Basidiomycota": 0, "count_Birds": 29, "count_Gymnosperms": 0, "count_Mosses": 0, "unique_species_count": 38.0, "countryCode": "KE" }, "geometry": { "type": "MultiPolygon", "coordinates": [ [ [ [ 37.749366174381024, 4.330449899106565 ], [ 37.588694411935407, 3.896158352204662 ], [ 37.226275022642845, 3.60718355140539 ], [ 36.844060510064949, 3.881428140476311 ], [ 36.824819817895289, 4.44541373160418 ], [ 37.367567375871488, 4.605748622498662 ], [ 37.749366174381024, 4.330449899106565 ] ] ] ] } },
{ "type": "Feature", "properties": { "geogrid_id": "804295220041569114", "seqnum": 19691.0, "lat_c": 4.2952199683947416, "lon_c": 41.569113772965984, "res": 8.0, "count_Insects": 0, "count_Amphibians": 0, "count_Flowering Plants": 0, "count_Mammals": 0, "count_Sac Fungi": 0, "count_Ferns": 0, "count_Arachnids": 0, "count_Molluscs": 0, "count_Reptiles": 0, "count_Basidiomycota": 0, "count_Birds": 1, "count_Gymnosperms": 0, "count_Mosses": 0, "unique_species_count": 1.0, "countryCode": "KE" }, "geometry": { "type": "MultiPolygon", "coordinates": [ [ [ [ 41.711898516841671, 4.747648780966597 ], [ 42.091846465925208, 4.478340045674308 ], [ 41.948364846379178, 4.026232278446925 ], [ 41.421575504927276, 3.855025889501405 ], [ 41.038672502307563, 4.136046417276144 ], [ 41.186319154709686, 4.576818440503725 ], [ 41.711898516841671, 4.747648780966597 ] ] ] ] } },
{ "type": "Feature", "properties": { "geogrid_id": "804416636040656024", "seqnum": 19198.0, "lat_c": 4.4166364163250016, "lon_c": 40.656024235170854, "res": 8.0, "count_Insects": 0, "count_Amphibians": 0, "count_Flowering Plants": 1, "count_Mammals": 0, "count_Sac Fungi": 0, "count_Ferns": 0, "count_Arachnids": 1, "count_Molluscs": 1, "count_Reptiles": 0, "count_Basidiomycota": 0, "count_Birds": 2, "count_Gymnosperms": 0, "count_Mosses": 0, "unique_species_count": 5.0, "countryCode": "KE" }, "geometry": { "type": "MultiPolygon", "coordinates": [ [ [ [ 41.186319154709686, 4.576818440503725 ], [ 41.038672502307563, 4.136046417276144 ], [ 40.506407668617911, 3.976878646403629 ], [ 40.123882057095798, 4.256472650631203 ], [ 40.273604173715164, 4.696790189332446 ], [ 40.803755085551323, 4.857989562787153 ], [ 41.186319154709686, 4.576818440503725 ] ] ] ] } },
{ "type": "Feature", "properties": { "geogrid_id": "804973426035316553", "seqnum": 18706.0, "lat_c": 4.9734262340934601, "lon_c": 35.316553372284325, "res": 8.0, "count_Insects": 0, "count_Amphibians": 0, "count_Flowering Plants": 0, "count_Mammals": 0, "count_Sac Fungi": 0, "count_Ferns": 0, "count_Arachnids": 0, "count_Molluscs": 0, "count_Reptiles": 0, "count_Basidiomycota": 0, "count_Birds": 1, "count_Gymnosperms": 0, "count_Mosses": 0, "unique_species_count": 1.0, "countryCode": "KE" }, "geometry": { "type": "MultiPolygon", "coordinates": [ [ [ [ 35.6799361814967, 5.265567601592107 ], [ 35.698276158700246, 4.70118593813119 ], [ 35.331616029932178, 4.411970083019677 ], [ 34.949640364296918, 4.683625153160562 ], [ 34.934893099409905, 5.245150185475 ], [ 35.298458921239842, 5.537933260631154 ], [ 35.6799361814967, 5.265567601592107 ] ] ] ] } }
]
}
