{
"type": "FeatureCollection",
"name": "KH",
"crs": { "type": "name", "properties": { "name": "urn:ogc:def:crs:OGC:1.3:CRS84" } },
"features": [
{ "type": "Feature", "properties": { "geogrid_id": "810031630102851476", "seqnum": 52706.0, "lat_c": 10.031629953470768, "lon_c": 102.85147617747397, "res": 8.0, "count_Molluscs": 3, "count_Arachnids": 0, "count_Mammals": 0, "count_Insects": 2, "count_Basidiomycota": 0, "count_Birds": 0, "count_Flowering Plants": 0, "count_Sac Fungi": 0, "count_Amphibians": 0, "count_Reptiles": 2, "count_Ferns": 0, "count_Mosses": 0, "count_Gymnosperms": 0, "unique_species_count": 7.0, "countryCode": "KH" }, "geometry": { "type": "MultiPolygon", "coordinates": [ [ [ [ 103.121962118530746, 10.433004984653897 ], [ 103.385190075312067, 10.036917892419261 ], [ 103.114854141282521, 9.635345617266122 ], [ 102.582158195249121, 9.62989771831711 ], [ 102.317732085015763, 10.025930012616744 ], [ 102.587166685067857, 10.427481577391598 ], [ 103.121962118530746, 10.433004984653897 ] ] ] ] } },
{ "type": "Feature", "properties": { "geogrid_id": "810046169104452698", "seqnum": 52869.0, "lat_c": 10.046168812576997, "lon_c": 104.45269818141247, "res": 8.0, "count_Molluscs": 0, "count_Arachnids": 0, "count_Mammals": 0, "count_Insects": 0, "count_Basidiomycota": 0, "count_Birds": 7, "count_Flowering Plants": 2, "count_Sac Fungi": 0, "count_Amphibians": 0, "count_Reptiles": 0, "count_Ferns": 0, "count_Mosses": 0, "count_Gymnosperms": 0, "unique_species_count": 9.0, "countryCode": "KH" }, "geometry": { "type": "MultiPolygon", "coordinates": [ [ [ [ 104.726665882767932, 10.446728089227756 ], [ 104.986586684514236, 10.05007877339108 ], [ 104.712871344421259, 9.649265033159111 ], [ 104.180167971870759, 9.645051145707644 ], [ 103.918915666701494, 10.04177238922243 ], [ 104.191663792352998, 10.442655998545217 ], [ 104.726665882767932, 10.446728089227756 ] ] ] ] } },
{ "type": "Feature", "properties": { "geogrid_id": "810438072103656779", "seqnum": 52788.0, "lat_c": 10.438071731379758, "lon_c": 103.65677915501259, "res": 8.0, "count_Molluscs": 32, "count_Arachnids": 21, "count_Mammals": 11, "count_Insects": 279, "count_Basidiomycota": 0, "count_Birds": 91, "count_Flowering Plants": 170, "count_Sac Fungi": 0, "count_Amphibians": 8, "count_Reptiles": 28, "count_Ferns": 2, "count_Mosses": 1, "count_Gymnosperms": 1, "unique_species_count": 644.0, "countryCode": "KH" }, "geometry": { "type": "MultiPolygon", "coordinates": [ [ [ [ 103.929720251197267, 10.838727650740797 ], [ 104.191663792352998, 10.442655998545217 ], [ 103.918915666701494, 10.04177238922243 ], [ 103.385190075312067, 10.036917892419261 ], [ 103.121962118530746, 10.433004984653897 ], [ 103.393710694600557, 10.833949682238076 ], [ 103.929720251197267, 10.838727650740797 ] ] ] ] } },
{ "type": "Feature", "properties": { "geogrid_id": "810450254105261840", "seqnum": 52951.0, "lat_c": 10.450253730228619, "lon_c": 105.26183970597745, "res": 8.0, "count_Molluscs": 2, "count_Arachnids": 8, "count_Mammals": 1, "count_Insects": 58, "count_Basidiomycota": 1, "count_Birds": 16, "count_Flowering Plants": 7, "count_Sac Fungi": 0, "count_Amphibians": 5, "count_Reptiles": 11, "count_Ferns": 0, "count_Mosses": 0, "count_Gymnosperms": 0, "unique_species_count": 109.0, "countryCode": "KH" }, "geometry": { "type": "MultiPolygon", "coordinates": [ [ [ [ 105.538744321803975, 10.849686187061749 ], [ 105.797244643743468, 10.453193222248613 ], [ 105.520634656519519, 10.053469436771396 ], [ 104.986586684514236, 10.05007877339108 ], [ 104.726665882767932, 10.446728089227756 ], [ 105.002179514188342, 10.846634333371073 ], [ 105.538744321803975, 10.849686187061749 ] ] ] ] } },
{ "type": "Feature", "properties": { "geogrid_id": "810828665102857779", "seqnum": 52707.0, "lat_c": 10.828664804826424, "lon_c": 102.85777894790813, "res": 8.0, "count_Molluscs": 21, "count_Arachnids": 7, "count_Mammals": 0, "count_Insects": 82, "count_Basidiomycota": 1, "count_Birds": 23, "count_Flowering Plants": 38, "count_Sac Fungi": 0, "count_Amphibians": 4, "count_Reptiles": 27, "count_Ferns": 5, "count_Mosses": 0, "count_Gymnosperms": 0, "unique_species_count": 208.0, "countryCode": "KH" }, "geometry": { "type": "MultiPolygon", "coordinates": [ [ [ [ 103.129662993650072, 11.22940664690193 ], [ 103.393710694600557, 10.833949682238076 ], [ 103.121962118530746, 10.433004984653897 ], [ 102.587166685067857, 10.427481577391598 ], [ 102.321878304754691, 10.822899987614315 ], [ 102.592593415867768, 11.223897250796025 ], [ 103.129662993650072, 11.22940664690193 ] ] ] ] } },
{ "type": "Feature", "properties": { "geogrid_id": "810842968104465858", "seqnum": 52870.0, "lat_c": 10.842967752336619, "lon_c": 104.46585818994295, "res": 8.0, "count_Molluscs": 4, "count_Arachnids": 18, "count_Mammals": 9, "count_Insects": 224, "count_Basidiomycota": 4, "count_Birds": 109, "count_Flowering Plants": 104, "count_Sac Fungi": 7, "count_Amphibians": 9, "count_Reptiles": 22, "count_Ferns": 1, "count_Mosses": 0, "count_Gymnosperms": 1, "unique_species_count": 512.0, "countryCode": "KH" }, "geometry": { "type": "MultiPolygon", "coordinates": [ [ [ [ 104.74160642113182, 11.24261333684683 ], [ 105.002179514188342, 10.846634333371073 ], [ 104.726665882767932, 10.446728089227756 ], [ 104.191663792352998, 10.442655998545217 ], [ 103.929720251197267, 10.838727650740797 ], [ 104.204116053993658, 11.238799263152382 ], [ 104.74160642113182, 11.24261333684683 ] ] ] ] } },
{ "type": "Feature", "properties": { "geogrid_id": "810852076106075619", "seqnum": 53033.0, "lat_c": 10.852075507605345, "lon_c": 106.0756185871565, "res": 8.0, "count_Molluscs": 0, "count_Arachnids": 0, "count_Mammals": 0, "count_Insects": 1, "count_Basidiomycota": 2, "count_Birds": 4, "count_Flowering Plants": 1, "count_Sac Fungi": 10, "count_Amphibians": 0, "count_Reptiles": 1, "count_Ferns": 0, "count_Mosses": 0, "count_Gymnosperms": 0, "unique_species_count": 19.0, "countryCode": "KH" }, "geometry": { "type": "MultiPolygon", "coordinates": [ [ [ [ 106.3558816522104, 11.249991378566902 ], [ 106.612875086933144, 10.853746607230214 ], [ 106.332945977275358, 10.45550040004256 ], [ 105.797244643743468, 10.453193222248613 ], [ 105.538744321803975, 10.849686187061749 ], [ 105.817419267254863, 11.248262753310945 ], [ 106.3558816522104, 11.249991378566902 ] ] ] ] } },
{ "type": "Feature", "properties": { "geogrid_id": "811234385103666820", "seqnum": 52789.0, "lat_c": 11.234384708048927, "lon_c": 103.66682013010823, "res": 8.0, "count_Molluscs": 1, "count_Arachnids": 7, "count_Mammals": 7, "count_Insects": 179, "count_Basidiomycota": 1, "count_Birds": 57, "count_Flowering Plants": 28, "count_Sac Fungi": 0, "count_Amphibians": 2, "count_Reptiles": 32, "count_Ferns": 4, "count_Mosses": 0, "count_Gymnosperms": 0, "unique_species_count": 318.0, "countryCode": "KH" }, "geometry": { "type": "MultiPolygon", "coordinates": [ [ [ [ 103.941392386850893, 11.634223954559468 ], [ 104.204116053993658, 11.238799263152382 ], [ 103.929720251197267, 10.838727650740797 ], [ 103.393710694600557, 10.833949682238076 ], [ 103.129662993650072, 11.22940664690193 ], [ 103.402916420379313, 11.629627960933453 ], [ 103.941392386850893, 11.634223954559468 ] ] ] ] } },
{ "type": "Feature", "properties": { "geogrid_id": "811245784105279352", "seqnum": 52952.0, "lat_c": 11.24578428657947, "lon_c": 105.27935196594704, "res": 8.0, "count_Molluscs": 3, "count_Arachnids": 5, "count_Mammals": 4, "count_Insects": 51, "count_Basidiomycota": 1, "count_Birds": 67, "count_Flowering Plants": 37, "count_Sac Fungi": 3, "count_Amphibians": 3, "count_Reptiles": 18, "count_Ferns": 0, "count_Mosses": 0, "count_Gymnosperms": 0, "unique_species_count": 192.0, "countryCode": "KH" }, "geometry": { "type": "MultiPolygon", "coordinates": [ [ [ [ 105.558300820337337, 11.644065243896845 ], [ 105.817419267254863, 11.248262753310945 ], [ 105.538744321803975, 10.849686187061749 ], [ 105.002179514188342, 10.846634333371073 ], [ 104.74160642113182, 11.24261333684683 ], [ 105.019020388083348, 11.641490012347992 ], [ 105.558300820337337, 11.644065243896845 ] ] ] ] } },
{ "type": "Feature", "properties": { "geogrid_id": "811624443102864589", "seqnum": 52708.0, "lat_c": 11.624442897640339, "lon_c": 102.86458913635614, "res": 8.0, "count_Molluscs": 2, "count_Arachnids": 33, "count_Mammals": 1, "count_Insects": 637, "count_Basidiomycota": 5, "count_Birds": 134, "count_Flowering Plants": 105, "count_Sac Fungi": 0, "count_Amphibians": 5, "count_Reptiles": 43, "count_Ferns": 8, "count_Mosses": 0, "count_Gymnosperms": 0, "unique_species_count": 973.0, "countryCode": "KH" }, "geometry": { "type": "MultiPolygon", "coordinates": [ [ [ [ 103.137962458363688, 12.024458027095918 ], [ 103.402916420379313, 11.629627960933453 ], [ 103.129662993650072, 11.22940664690193 ], [ 102.592593415867768, 11.223897250796025 ], [ 102.326358709518445, 11.618702100057211 ], [ 102.598442513042556, 12.019058549121212 ], [ 103.137962458363688, 12.024458027095918 ] ] ] ] } },
{ "type": "Feature", "properties": { "geogrid_id": "811638193104480073", "seqnum": 52871.0, "lat_c": 11.638192640611306, "lon_c": 104.48007327720795, "res": 8.0, "count_Molluscs": 5, "count_Arachnids": 7, "count_Mammals": 12, "count_Insects": 152, "count_Basidiomycota": 6, "count_Birds": 136, "count_Flowering Plants": 137, "count_Sac Fungi": 39, "count_Amphibians": 7, "count_Reptiles": 23, "count_Ferns": 0, "count_Mosses": 0, "count_Gymnosperms": 0, "unique_species_count": 524.0, "countryCode": "KH" }, "geometry": { "type": "MultiPolygon", "coordinates": [ [ [ [ 104.757702869569371, 12.036805616471691 ], [ 105.019020388083348, 11.641490012347992 ], [ 104.74160642113182, 11.24261333684683 ], [ 104.204116053993658, 11.238799263152382 ], [ 103.941392386850893, 11.634223954559468 ], [ 104.21753335972204, 12.033373931352008 ], [ 104.757702869569371, 12.036805616471691 ] ] ] ] } },
{ "type": "Feature", "properties": { "geogrid_id": "811645859106097988", "seqnum": 53034.0, "lat_c": 11.645859410127674, "lon_c": 106.09798836064846, "res": 8.0, "count_Molluscs": 0, "count_Arachnids": 2, "count_Mammals": 1, "count_Insects": 12, "count_Basidiomycota": 0, "count_Birds": 0, "count_Flowering Plants": 2, "count_Sac Fungi": 0, "count_Amphibians": 2, "count_Reptiles": 0, "count_Ferns": 0, "count_Mosses": 0, "count_Gymnosperms": 0, "unique_species_count": 19.0, "countryCode": "KH" }, "geometry": { "type": "MultiPolygon", "coordinates": [ [ [ [ 106.38058077145233, 12.04234045731709 ], [ 106.638164523561628, 11.646803917672935 ], [ 106.3558816522104, 11.249991378566902 ], [ 105.817419267254863, 11.248262753310945 ], [ 105.558300820337337, 11.644065243896845 ], [ 105.83914859894368, 12.041354139597484 ], [ 106.38058077145233, 12.04234045731709 ] ] ] ] } },
{ "type": "Feature", "properties": { "geogrid_id": "812029243103677640", "seqnum": 52790.0, "lat_c": 12.02924296825843, "lon_c": 103.6776404858139, "res": 8.0, "count_Molluscs": 1, "count_Arachnids": 4, "count_Mammals": 3, "count_Insects": 131, "count_Basidiomycota": 4, "count_Birds": 47, "count_Flowering Plants": 13, "count_Sac Fungi": 4, "count_Amphibians": 2, "count_Reptiles": 11, "count_Ferns": 7, "count_Mosses": 0, "count_Gymnosperms": 1, "unique_species_count": 228.0, "countryCode": "KH" }, "geometry": { "type": "MultiPolygon", "coordinates": [ [ [ [ 103.953940294962692, 12.42815866294108 ], [ 104.21753335972204, 12.033373931352008 ], [ 103.941392386850893, 11.634223954559468 ], [ 103.402916420379313, 11.629627960933453 ], [ 103.137962458363688, 12.024458027095918 ], [ 103.412813959966229, 12.423857234061551 ], [ 103.953940294962692, 12.42815866294108 ] ] ] ] } },
{ "type": "Feature", "properties": { "geogrid_id": "812039486105298217", "seqnum": 52953.0, "lat_c": 12.039485815952583, "lon_c": 105.29821656183852, "res": 8.0, "count_Molluscs": 0, "count_Arachnids": 3, "count_Mammals": 3, "count_Insects": 44, "count_Basidiomycota": 2, "count_Birds": 39, "count_Flowering Plants": 40, "count_Sac Fungi": 17, "count_Amphibians": 3, "count_Reptiles": 8, "count_Ferns": 0, "count_Mosses": 0, "count_Gymnosperms": 0, "unique_species_count": 159.0, "countryCode": "KH" }, "geometry": { "type": "MultiPolygon", "coordinates": [ [ [ [ 105.579316217059812, 12.436478685516922 ], [ 105.83914859894368, 12.041354139597484 ], [ 105.558300820337337, 11.644065243896845 ], [ 105.019020388083348, 11.641490012347992 ], [ 104.757702869569371, 12.036805616471691 ], [ 105.037120232303423, 12.434527019975135 ], [ 105.579316217059812, 12.436478685516922 ] ] ] ] } },
{ "type": "Feature", "properties": { "geogrid_id": "812042363106922604", "seqnum": 53116.0, "lat_c": 12.042362985666475, "lon_c": 106.92260369604821, "res": 8.0, "count_Molluscs": 3, "count_Arachnids": 8, "count_Mammals": 26, "count_Insects": 128, "count_Basidiomycota": 4, "count_Birds": 57, "count_Flowering Plants": 25, "count_Sac Fungi": 0, "count_Amphibians": 8, "count_Reptiles": 35, "count_Ferns": 0, "count_Mosses": 0, "count_Gymnosperms": 0, "unique_species_count": 294.0, "countryCode": "KH" }, "geometry": { "type": "MultiPolygon", "coordinates": [ [ [ [ 107.209341771004787, 12.436503873011189 ], [ 107.465318239606603, 12.041325922654929 ], [ 107.178919788681469, 11.646818570541846 ], [ 106.638164523561628, 11.646803917672935 ], [ 106.38058077145233, 12.04234045731709 ], [ 106.665331294332944, 12.437557350809673 ], [ 107.209341771004787, 12.436503873011189 ] ] ] ] } },
{ "type": "Feature", "properties": { "geogrid_id": "812418875102871912", "seqnum": 52709.0, "lat_c": 12.418875329944443, "lon_c": 102.87191185592047, "res": 8.0, "count_Molluscs": 0, "count_Arachnids": 2, "count_Mammals": 0, "count_Insects": 33, "count_Basidiomycota": 0, "count_Birds": 14, "count_Flowering Plants": 18, "count_Sac Fungi": 0, "count_Amphibians": 2, "count_Reptiles": 5, "count_Ferns": 0, "count_Mosses": 0, "count_Gymnosperms": 0, "unique_species_count": 74.0, "countryCode": "KH" }, "geometry": { "type": "MultiPolygon", "coordinates": [ [ [ [ 103.146866661113208, 12.818067451669853 ], [ 103.412813959966229, 12.423857234061551 ], [ 103.137962458363688, 12.024458027095918 ], [ 102.598442513042556, 12.019058549121212 ], [ 102.331176754345393, 12.413253536323106 ], [ 102.604718434935819, 12.812880079458715 ], [ 103.146866661113208, 12.818067451669853 ] ] ] ] } },
{ "type": "Feature", "properties": { "geogrid_id": "812431733104495353", "seqnum": 52872.0, "lat_c": 12.431733093624398, "lon_c": 104.49535307862929, "res": 8.0, "count_Molluscs": 0, "count_Arachnids": 1, "count_Mammals": 0, "count_Insects": 22, "count_Basidiomycota": 1, "count_Birds": 48, "count_Flowering Plants": 12, "count_Sac Fungi": 3, "count_Amphibians": 3, "count_Reptiles": 11, "count_Ferns": 0, "count_Mosses": 0, "count_Gymnosperms": 0, "unique_species_count": 101.0, "countryCode": "KH" }, "geometry": { "type": "MultiPolygon", "coordinates": [ [ [ [ 104.774965916029984, 12.829191106994234 ], [ 105.037120232303423, 12.434527019975135 ], [ 104.757702869569371, 12.036805616471691 ], [ 104.21753335972204, 12.033373931352008 ], [ 103.953940294962692, 12.42815866294108 ], [ 104.231924993355094, 12.826274165639171 ], [ 104.774965916029984, 12.829191106994234 ] ] ] ] } },
{ "type": "Feature", "properties": { "geogrid_id": "812434242107754167", "seqnum": 53198.0, "lat_c": 12.434241967046482, "lon_c": 107.75416685502874, "res": 8.0, "count_Molluscs": 0, "count_Arachnids": 1, "count_Mammals": 5, "count_Insects": 122, "count_Basidiomycota": 1, "count_Birds": 38, "count_Flowering Plants": 12, "count_Sac Fungi": 0, "count_Amphibians": 2, "count_Reptiles": 8, "count_Ferns": 2, "count_Mosses": 0, "count_Gymnosperms": 0, "unique_species_count": 191.0, "countryCode": "KH" }, "geometry": { "type": "MultiPolygon", "coordinates": [ [ [ [ 108.045623833792291, 12.825365043266062 ], [ 108.299932598609658, 12.430636999341829 ], [ 108.008837219855167, 12.039116505508963 ], [ 107.465318239606603, 12.041325922654929 ], [ 107.209341771004787, 12.436503873011189 ], [ 107.498527755538817, 12.82904580720589 ], [ 108.045623833792291, 12.825365043266062 ] ] ] ] } },
{ "type": "Feature", "properties": { "geogrid_id": "812437517106122023", "seqnum": 53035.0, "lat_c": 12.43751654023264, "lon_c": 106.12202301618227, "res": 8.0, "count_Molluscs": 5, "count_Arachnids": 1, "count_Mammals": 8, "count_Insects": 37, "count_Basidiomycota": 0, "count_Birds": 83, "count_Flowering Plants": 14, "count_Sac Fungi": 0, "count_Amphibians": 3, "count_Reptiles": 5, "count_Ferns": 0, "count_Mosses": 0, "count_Gymnosperms": 0, "unique_species_count": 156.0, "countryCode": "KH" }, "geometry": { "type": "MultiPolygon", "coordinates": [ [ [ [ 106.407057237755751, 12.83240553516953 ], [ 106.665331294332944, 12.437557350809673 ], [ 106.38058077145233, 12.04234045731709 ], [ 105.83914859894368, 12.041354139597484 ], [ 105.579316217059812, 12.436478685516922 ], [ 105.862445672122732, 12.832335496469327 ], [ 106.407057237755751, 12.83240553516953 ] ] ] ] } },
{ "type": "Feature", "properties": { "geogrid_id": "812807028102062746", "seqnum": 52628.0, "lat_c": 12.807027594743138, "lon_c": 102.06274566907273, "res": 8.0, "count_Molluscs": 0, "count_Arachnids": 0, "count_Mammals": 0, "count_Insects": 0, "count_Basidiomycota": 0, "count_Birds": 0, "count_Flowering Plants": 1, "count_Sac Fungi": 0, "count_Amphibians": 1, "count_Reptiles": 0, "count_Ferns": 0, "count_Mosses": 0, "count_Gymnosperms": 0, "unique_species_count": 2.0, "countryCode": "KH" }, "geometry": { "type": "MultiPolygon", "coordinates": [ [ [ [ 102.336336165521317, 13.20647225509294 ], [ 102.604718434935819, 12.812880079458715 ], [ 102.331176754345393, 12.413253536323106 ], [ 101.790555803311648, 12.407027369361032 ], [ 101.520895074910996, 12.800546530227678 ], [ 101.793103185388276, 13.200380242569373 ], [ 102.336336165521317, 13.20647225509294 ] ] ] ] } },
{ "type": "Feature", "properties": { "geogrid_id": "812822548103689248", "seqnum": 52791.0, "lat_c": 12.822548039433041, "lon_c": 103.68924798530078, "res": 8.0, "count_Molluscs": 1, "count_Arachnids": 0, "count_Mammals": 1, "count_Insects": 27, "count_Basidiomycota": 0, "count_Birds": 109, "count_Flowering Plants": 29, "count_Sac Fungi": 0, "count_Amphibians": 2, "count_Reptiles": 3, "count_Ferns": 0, "count_Mosses": 0, "count_Gymnosperms": 0, "unique_species_count": 172.0, "countryCode": "KH" }, "geometry": { "type": "MultiPolygon", "coordinates": [ [ [ [ 103.967372829702086, 13.220430268237138 ], [ 104.231924993355094, 12.826274165639171 ], [ 103.953940294962692, 12.42815866294108 ], [ 103.412813959966229, 12.423857234061551 ], [ 103.146866661113208, 12.818067451669853 ], [ 103.423410540796681, 13.216543000194983 ], [ 103.967372829702086, 13.220430268237138 ] ] ] ] } },
{ "type": "Feature", "properties": { "geogrid_id": "812831236105318445", "seqnum": 52954.0, "lat_c": 12.831235836468613, "lon_c": 105.31844544226442, "res": 8.0, "count_Molluscs": 8, "count_Arachnids": 0, "count_Mammals": 1, "count_Insects": 30, "count_Basidiomycota": 0, "count_Birds": 35, "count_Flowering Plants": 19, "count_Sac Fungi": 4, "count_Amphibians": 3, "count_Reptiles": 12, "count_Ferns": 0, "count_Mosses": 0, "count_Gymnosperms": 0, "unique_species_count": 112.0, "countryCode": "KH" }, "geometry": { "type": "MultiPolygon", "coordinates": [ [ [ [ 105.601803479592448, 13.226800285788137 ], [ 105.862445672122732, 12.832335496469327 ], [ 105.579316217059812, 12.436478685516922 ], [ 105.037120232303423, 12.434527019975135 ], [ 104.774965916029984, 12.829191106994234 ], [ 105.056490799297933, 13.225628042283819 ], [ 105.601803479592448, 13.226800285788137 ] ] ] ] } },
{ "type": "Feature", "properties": { "geogrid_id": "812831347106952381", "seqnum": 53117.0, "lat_c": 12.831347418865052, "lon_c": 106.95238062736919, "res": 8.0, "count_Molluscs": 1, "count_Arachnids": 4, "count_Mammals": 10, "count_Insects": 125, "count_Basidiomycota": 1, "count_Birds": 47, "count_Flowering Plants": 25, "count_Sac Fungi": 0, "count_Amphibians": 3, "count_Reptiles": 16, "count_Ferns": 0, "count_Mosses": 0, "count_Gymnosperms": 0, "unique_species_count": 232.0, "countryCode": "KH" }, "geometry": { "type": "MultiPolygon", "coordinates": [ [ [ [ 107.241875652088453, 13.223532443939764 ], [ 107.498527755538817, 12.82904580720589 ], [ 107.209341771004787, 12.436503873011189 ], [ 106.665331294332944, 12.437557350809673 ], [ 106.407057237755751, 12.83240553516953 ], [ 106.694390142239484, 13.225860513805987 ], [ 107.241875652088453, 13.223532443939764 ] ] ] ] } },
{ "type": "Feature", "properties": { "geogrid_id": "813211874102879753", "seqnum": 52710.0, "lat_c": 13.211874074546186, "lon_c": 102.87975261878989, "res": 8.0, "count_Molluscs": 5, "count_Arachnids": 8, "count_Mammals": 8, "count_Insects": 84, "count_Basidiomycota": 4, "count_Birds": 53, "count_Flowering Plants": 94, "count_Sac Fungi": 22, "count_Amphibians": 7, "count_Reptiles": 17, "count_Ferns": 0, "count_Mosses": 0, "count_Gymnosperms": 0, "unique_species_count": 302.0, "countryCode": "KH" }, "geometry": { "type": "MultiPolygon", "coordinates": [ [ [ [ 103.156382214857089, 13.610144206815738 ], [ 103.423410540796681, 13.216543000194983 ], [ 103.146866661113208, 12.818067451669853 ], [ 102.604718434935819, 12.812880079458715 ], [ 102.336336165521317, 13.20647225509294 ], [ 102.611425978933752, 13.60527729555228 ], [ 103.156382214857089, 13.610144206815738 ] ] ] ] } },
{ "type": "Feature", "properties": { "geogrid_id": "813223480104511708", "seqnum": 52873.0, "lat_c": 13.223480017303514, "lon_c": 104.51170796524691, "res": 8.0, "count_Molluscs": 0, "count_Arachnids": 6, "count_Mammals": 3, "count_Insects": 77, "count_Basidiomycota": 0, "count_Birds": 105, "count_Flowering Plants": 34, "count_Sac Fungi": 0, "count_Amphibians": 7, "count_Reptiles": 8, "count_Ferns": 2, "count_Mosses": 1, "count_Gymnosperms": 0, "unique_species_count": 243.0, "countryCode": "KH" }, "geometry": { "type": "MultiPolygon", "coordinates": [ [ [ [ 104.793407036004155, 13.619657406863858 ], [ 105.056490799297933, 13.225628042283819 ], [ 104.774965916029984, 12.829191106994234 ], [ 104.231924993355094, 12.826274165639171 ], [ 103.967372829702086, 13.220430268237138 ], [ 104.247300929236403, 13.617395370905991 ], [ 104.793407036004155, 13.619657406863858 ] ] ] ] } },
{ "type": "Feature", "properties": { "geogrid_id": "813226911106147737", "seqnum": 53036.0, "lat_c": 13.226911002564531, "lon_c": 106.14773653319632, "res": 8.0, "count_Molluscs": 1, "count_Arachnids": 1, "count_Mammals": 0, "count_Insects": 22, "count_Basidiomycota": 0, "count_Birds": 47, "count_Flowering Plants": 10, "count_Sac Fungi": 0, "count_Amphibians": 10, "count_Reptiles": 11, "count_Ferns": 0, "count_Mosses": 0, "count_Gymnosperms": 0, "unique_species_count": 102.0, "countryCode": "KH" }, "geometry": { "type": "MultiPolygon", "coordinates": [ [ [ [ 106.435325940547969, 13.62004667065219 ], [ 106.694390142239484, 13.225860513805987 ], [ 106.407057237755751, 12.83240553516953 ], [ 105.862445672122732, 12.832335496469327 ], [ 105.601803479592448, 13.226800285788137 ], [ 105.88732445853951, 13.621076810533552 ], [ 106.435325940547969, 13.62004667065219 ] ] ] ] } },
{ "type": "Feature", "properties": { "geogrid_id": "813599652102066719", "seqnum": 52629.0, "lat_c": 13.599651590406294, "lon_c": 102.06671910753019, "res": 8.0, "count_Molluscs": 0, "count_Arachnids": 0, "count_Mammals": 0, "count_Insects": 0, "count_Basidiomycota": 0, "count_Birds": 2, "count_Flowering Plants": 0, "count_Sac Fungi": 0, "count_Amphibians": 1, "count_Reptiles": 1, "count_Ferns": 0, "count_Mosses": 0, "count_Gymnosperms": 0, "unique_species_count": 4.0, "countryCode": "KH" }, "geometry": { "type": "MultiPolygon", "coordinates": [ [ [ [ 102.341840945856717, 13.998277034063044 ], [ 102.611425978933752, 13.60527729555228 ], [ 102.336336165521317, 13.20647225509294 ], [ 101.793103185388276, 13.200380242569373 ], [ 101.52220329500075, 13.593310764528574 ], [ 101.795821355066906, 13.992417559151326 ], [ 102.341840945856717, 13.998277034063044 ] ] ] ] } },
{ "type": "Feature", "properties": { "geogrid_id": "813614203103701651", "seqnum": 52792.0, "lat_c": 13.614202539521749, "lon_c": 103.70165097395947, "res": 8.0, "count_Molluscs": 7, "count_Arachnids": 30, "count_Mammals": 19, "count_Insects": 476, "count_Basidiomycota": 4, "count_Birds": 224, "count_Flowering Plants": 258, "count_Sac Fungi": 4, "count_Amphibians": 16, "count_Reptiles": 55, "count_Ferns": 6, "count_Mosses": 3, "count_Gymnosperms": 0, "unique_species_count": 1102.0, "countryCode": "KH" }, "geometry": { "type": "MultiPolygon", "coordinates": [ [ [ [ 103.981699487875474, 14.010938459343164 ], [ 104.247300929236403, 13.617395370905991 ], [ 103.967372829702086, 13.220430268237138 ], [ 103.423410540796681, 13.216543000194983 ], [ 103.156382214857089, 13.610144206815738 ], [ 103.43471391923039, 14.007591809920257 ], [ 103.981699487875474, 14.010938459343164 ] ] ] ] } },
{ "type": "Feature", "properties": { "geogrid_id": "813617706106984167", "seqnum": 53118.0, "lat_c": 13.617705817529824, "lon_c": 106.98416658349934, "res": 8.0, "count_Molluscs": 1, "count_Arachnids": 3, "count_Mammals": 1, "count_Insects": 78, "count_Basidiomycota": 0, "count_Birds": 21, "count_Flowering Plants": 7, "count_Sac Fungi": 0, "count_Amphibians": 0, "count_Reptiles": 6, "count_Ferns": 0, "count_Mosses": 0, "count_Gymnosperms": 0, "unique_species_count": 117.0, "countryCode": "KH" }, "geometry": { "type": "MultiPolygon", "coordinates": [ [ [ [ 107.276537651015815, 14.007749253282068 ], [ 107.533969712318779, 13.613917095787025 ], [ 107.241875652088453, 13.223532443939764 ], [ 106.694390142239484, 13.225860513805987 ], [ 106.435325940547969, 13.62004667065219 ], [ 106.725356814818682, 14.011569398553904 ], [ 107.276537651015815, 14.007749253282068 ] ] ] ] } },
{ "type": "Feature", "properties": { "geogrid_id": "813620913105340051", "seqnum": 52955.0, "lat_c": 13.620913493346084, "lon_c": 105.34005142688051, "res": 8.0, "count_Molluscs": 0, "count_Arachnids": 2, "count_Mammals": 1, "count_Insects": 67, "count_Basidiomycota": 1, "count_Birds": 75, "count_Flowering Plants": 33, "count_Sac Fungi": 0, "count_Amphibians": 2, "count_Reptiles": 6, "count_Ferns": 0, "count_Mosses": 0, "count_Gymnosperms": 0, "unique_species_count": 187.0, "countryCode": "KH" }, "geometry": { "type": "MultiPolygon", "coordinates": [ [ [ [ 105.625776486898388, 14.014905610314715 ], [ 105.88732445853951, 13.621076810533552 ], [ 105.601803479592448, 13.226800285788137 ], [ 105.056490799297933, 13.225628042283819 ], [ 104.793407036004155, 13.619657406863858 ], [ 105.07714467762176, 14.014677326492695 ], [ 105.625776486898388, 14.014905610314715 ] ] ] ] } },
{ "type": "Feature", "properties": { "geogrid_id": "814003352102888117", "seqnum": 52711.0, "lat_c": 14.003352031490884, "lon_c": 102.88811734352879, "res": 8.0, "count_Molluscs": 0, "count_Arachnids": 1, "count_Mammals": 1, "count_Insects": 18, "count_Basidiomycota": 0, "count_Birds": 60, "count_Flowering Plants": 7, "count_Sac Fungi": 0, "count_Amphibians": 1, "count_Reptiles": 5, "count_Ferns": 0, "count_Mosses": 0, "count_Gymnosperms": 0, "unique_species_count": 93.0, "countryCode": "KH" }, "geometry": { "type": "MultiPolygon", "coordinates": [ [ [ [ 103.166516205504564, 14.400598593301035 ], [ 103.43471391923039, 14.007591809920257 ], [ 103.156382214857089, 13.610144206815738 ], [ 102.611425978933752, 13.60527729555228 ], [ 102.341840945856717, 13.998277034063044 ], [ 102.618570288059288, 14.396166546623158 ], [ 103.166516205504564, 14.400598593301035 ] ] ] ] } },
{ "type": "Feature", "properties": { "geogrid_id": "814013326104529149", "seqnum": 52874.0, "lat_c": 14.013325682277062, "lon_c": 104.52914905382661, "res": 8.0, "count_Molluscs": 0, "count_Arachnids": 4, "count_Mammals": 7, "count_Insects": 78, "count_Basidiomycota": 1, "count_Birds": 126, "count_Flowering Plants": 16, "count_Sac Fungi": 0, "count_Amphibians": 5, "count_Reptiles": 8, "count_Ferns": 0, "count_Mosses": 0, "count_Gymnosperms": 0, "unique_species_count": 245.0, "countryCode": "KH" }, "geometry": { "type": "MultiPolygon", "coordinates": [ [ [ [ 104.813038502928052, 14.408093612395033 ], [ 105.07714467762176, 14.014677326492695 ], [ 104.793407036004155, 13.619657406863858 ], [ 104.247300929236403, 13.617395370905991 ], [ 103.981699487875474, 14.010938459343164 ], [ 104.263671842641727, 14.406634263847042 ], [ 104.813038502928052, 14.408093612395033 ] ] ] ] } },
{ "type": "Feature", "properties": { "geogrid_id": "814013909106175144", "seqnum": 53037.0, "lat_c": 14.013908965141269, "lon_c": 106.17514385972308, "res": 8.0, "count_Molluscs": 2, "count_Arachnids": 1, "count_Mammals": 2, "count_Insects": 61, "count_Basidiomycota": 0, "count_Birds": 17, "count_Flowering Plants": 5, "count_Sac Fungi": 0, "count_Amphibians": 1, "count_Reptiles": 2, "count_Ferns": 0, "count_Mosses": 0, "count_Gymnosperms": 0, "unique_species_count": 91.0, "countryCode": "KH" }, "geometry": { "type": "MultiPolygon", "coordinates": [ [ [ [ 106.465402761602576, 14.405126195775026 ], [ 106.725356814818682, 14.011569398553904 ], [ 106.435325940547969, 13.62004667065219 ], [ 105.88732445853951, 13.621076810533552 ], [ 105.625776486898388, 14.014905610314715 ], [ 105.913799876473618, 14.407450039927657 ], [ 106.465402761602576, 14.405126195775026 ] ] ] ] } },
{ "type": "Feature", "properties": { "geogrid_id": "814401290107017978", "seqnum": 53119.0, "lat_c": 14.401290104068323, "lon_c": 107.01797810042613, "res": 8.0, "count_Molluscs": 0, "count_Arachnids": 4, "count_Mammals": 0, "count_Insects": 39, "count_Basidiomycota": 0, "count_Birds": 5, "count_Flowering Plants": 2, "count_Sac Fungi": 0, "count_Amphibians": 14, "count_Reptiles": 22, "count_Ferns": 0, "count_Mosses": 0, "count_Gymnosperms": 0, "unique_species_count": 86.0, "countryCode": "KH" }, "geometry": { "type": "MultiPolygon", "coordinates": [ [ [ [ 107.313345002549482, 14.789002171966672 ], [ 107.571660924437651, 14.395780454276125 ], [ 107.276537651015815, 14.007749253282068 ], [ 106.725356814818682, 14.011569398553904 ], [ 106.465402761602576, 14.405126195775026 ], [ 106.758248068420059, 14.794542500098318 ], [ 107.313345002549482, 14.789002171966672 ] ] ] ] } },
{ "type": "Feature", "properties": { "geogrid_id": "814404110103714858", "seqnum": 52793.0, "lat_c": 14.404110238627981, "lon_c": 103.71485838912614, "res": 8.0, "count_Molluscs": 0, "count_Arachnids": 1, "count_Mammals": 0, "count_Insects": 9, "count_Basidiomycota": 0, "count_Birds": 3, "count_Flowering Plants": 3, "count_Sac Fungi": 0, "count_Amphibians": 0, "count_Reptiles": 2, "count_Ferns": 1, "count_Mosses": 0, "count_Gymnosperms": 0, "unique_species_count": 19.0, "countryCode": "KH" }, "geometry": { "type": "MultiPolygon", "coordinates": [ [ [ [ 103.996930419457215, 14.799584185993941 ], [ 104.263671842641727, 14.406634263847042 ], [ 103.981699487875474, 14.010938459343164 ], [ 103.43471391923039, 14.007591809920257 ], [ 103.166516205504564, 14.400598593301035 ], [ 103.446732390054876, 14.796911323044792 ], [ 103.996930419457215, 14.799584185993941 ] ] ] ] } },
{ "type": "Feature", "properties": { "geogrid_id": "814408400105363048", "seqnum": 52956.0, "lat_c": 14.408399647428718, "lon_c": 105.36304821604207, "res": 8.0, "count_Molluscs": 0, "count_Arachnids": 0, "count_Mammals": 0, "count_Insects": 13, "count_Basidiomycota": 1, "count_Birds": 1, "count_Flowering Plants": 0, "count_Sac Fungi": 0, "count_Amphibians": 1, "count_Reptiles": 0, "count_Ferns": 0, "count_Mosses": 0, "count_Gymnosperms": 0, "unique_species_count": 16.0, "countryCode": "KH" }, "geometry": { "type": "MultiPolygon", "coordinates": [ [ [ [ 105.651250038588614, 14.800672108682743 ], [ 105.913799876473618, 14.407450039927657 ], [ 105.625776486898388, 14.014905610314715 ], [ 105.07714467762176, 14.014677326492695 ], [ 104.813038502928052, 14.408093612395033 ], [ 105.099095302435259, 14.801560762642683 ], [ 105.651250038588614, 14.800672108682743 ] ] ] ] } }
]
}
