{
"type": "FeatureCollection",
"name": "KP",
"crs": { "type": "name", "properties": { "name": "urn:ogc:def:crs:OGC:1.3:CRS84" } },
"features": [
{ "type": "Feature", "properties": { "geogrid_id": "837599090125469251", "seqnum": 28693.0, "lat_c": 37.599090161279477, "lon_c": 125.46925077460082, "res": 8.0, "count_Ferns": 0, "count_Reptiles": 0, "count_Birds": 2, "count_Flowering Plants": 0, "count_Insects": 0, "count_Gymnosperms": 0, "count_Arachnids": 0, "count_Sac Fungi": 0, "count_Mammals": 0, "count_Molluscs": 0, "count_Amphibians": 0, "count_Basidiomycota": 0, "unique_species_count": 2.0, "countryCode": "KP" }, "geometry": { "type": "MultiPolygon", "coordinates": [ [ [ [ 125.617850630070009, 38.065210062444741 ], [ 126.047931103175273, 37.633957575163471 ], [ 125.904502305616703, 37.168028826527156 ], [ 125.330166882810161, 37.132744544820973 ], [ 124.890881110531069, 37.561463066497453 ], [ 125.034950684269276, 38.028037440125452 ], [ 125.617850630070009, 38.065210062444741 ] ] ] ] } },
{ "type": "Feature", "properties": { "geogrid_id": "837695403127206125", "seqnum": 28856.0, "lat_c": 37.695403275892552, "lon_c": 127.20612492238399, "res": 8.0, "count_Ferns": 0, "count_Reptiles": 0, "count_Birds": 2, "count_Flowering Plants": 0, "count_Insects": 0, "count_Gymnosperms": 0, "count_Arachnids": 0, "count_Sac Fungi": 0, "count_Mammals": 0, "count_Molluscs": 0, "count_Amphibians": 0, "count_Basidiomycota": 0, "unique_species_count": 2.0, "countryCode": "KP" }, "geometry": { "type": "MultiPolygon", "coordinates": [ [ [ [ 127.368601540464027, 38.159926167640464 ], [ 127.785590149001195, 37.721976683818113 ], [ 127.628854336212058, 37.257512786616047 ], [ 127.053871749765563, 37.230414364012923 ], [ 126.626897283528379, 37.666062767920764 ], [ 126.784699296741238, 38.131158127368813 ], [ 127.368601540464027, 38.159926167640464 ] ] ] ] } },
{ "type": "Feature", "properties": { "geogrid_id": "837988071124452432", "seqnum": 28612.0, "lat_c": 37.988070675620179, "lon_c": 124.45243222207402, "res": 8.0, "count_Ferns": 0, "count_Reptiles": 0, "count_Birds": 0, "count_Flowering Plants": 1, "count_Insects": 0, "count_Gymnosperms": 0, "count_Arachnids": 0, "count_Sac Fungi": 0, "count_Mammals": 0, "count_Molluscs": 0, "count_Amphibians": 0, "count_Basidiomycota": 0, "unique_species_count": 1.0, "countryCode": "KP" }, "geometry": { "type": "MultiPolygon", "coordinates": [ [ [ [ 124.600553800841155, 38.454809251489245 ], [ 125.034950684269276, 38.028037440125452 ], [ 124.890881110531069, 37.561463066497453 ], [ 124.312847250676668, 37.521078931059115 ], [ 123.870319687129992, 37.945313494713176 ], [ 124.013803922706785, 38.412501050867853 ], [ 124.600553800841155, 38.454809251489245 ] ] ] ] } },
{ "type": "Feature", "properties": { "geogrid_id": "838099585126201108", "seqnum": 28775.0, "lat_c": 38.09958485311077, "lon_c": 126.2011080155675, "res": 8.0, "count_Ferns": 0, "count_Reptiles": 1, "count_Birds": 15, "count_Flowering Plants": 9, "count_Insects": 7, "count_Gymnosperms": 0, "count_Arachnids": 0, "count_Sac Fungi": 0, "count_Mammals": 6, "count_Molluscs": 0, "count_Amphibians": 0, "count_Basidiomycota": 0, "unique_species_count": 38.0, "countryCode": "KP" }, "geometry": { "type": "MultiPolygon", "coordinates": [ [ [ [ 126.363425345133265, 38.564733633786012 ], [ 126.784699296741238, 38.131158127368813 ], [ 126.626897283528379, 37.666062767920764 ], [ 126.047931103175273, 37.633957575163471 ], [ 125.617850630070009, 38.065210062444741 ], [ 125.775387853899474, 38.530930464127323 ], [ 126.363425345133265, 38.564733633786012 ] ] ] ] } },
{ "type": "Feature", "properties": { "geogrid_id": "838185885127952793", "seqnum": 28938.0, "lat_c": 38.185885178938548, "lon_c": 127.95279254802979, "res": 8.0, "count_Ferns": 3, "count_Reptiles": 0, "count_Birds": 1, "count_Flowering Plants": 103, "count_Insects": 0, "count_Gymnosperms": 9, "count_Arachnids": 0, "count_Sac Fungi": 0, "count_Mammals": 1, "count_Molluscs": 0, "count_Amphibians": 0, "count_Basidiomycota": 0, "unique_species_count": 117.0, "countryCode": "KP" }, "geometry": { "type": "MultiPolygon", "coordinates": [ [ [ [ 128.129753251796842, 38.649052002302724 ], [ 128.537250993186916, 38.209031235861978 ], [ 128.365269730669525, 37.745780591007268 ], [ 127.785590149001195, 37.721976683818113 ], [ 127.368601540464027, 38.159926167640464 ], [ 127.540629244720861, 38.6237997390839 ], [ 128.129753251796842, 38.649052002302724 ] ] ] ] } },
{ "type": "Feature", "properties": { "geogrid_id": "838494287125187756", "seqnum": 28694.0, "lat_c": 38.494287352432728, "lon_c": 125.18775631425892, "res": 8.0, "count_Ferns": 0, "count_Reptiles": 0, "count_Birds": 37, "count_Flowering Plants": 11, "count_Insects": 10, "count_Gymnosperms": 3, "count_Arachnids": 1, "count_Sac Fungi": 0, "count_Mammals": 0, "count_Molluscs": 0, "count_Amphibians": 2, "count_Basidiomycota": 0, "unique_species_count": 64.0, "countryCode": "KP" }, "geometry": { "type": "MultiPolygon", "coordinates": [ [ [ [ 125.348805118500152, 38.960067509870044 ], [ 125.775387853899474, 38.530930464127323 ], [ 125.617850630070009, 38.065210062444741 ], [ 125.034950684269276, 38.028037440125452 ], [ 124.600553800841155, 38.454809251489245 ], [ 124.756740733892414, 38.921151426292866 ], [ 125.348805118500152, 38.960067509870044 ] ] ] ] } },
{ "type": "Feature", "properties": { "geogrid_id": "838595692126951846", "seqnum": 28857.0, "lat_c": 38.595691799970048, "lon_c": 126.95184636058863, "res": 8.0, "count_Ferns": 1, "count_Reptiles": 0, "count_Birds": 0, "count_Flowering Plants": 61, "count_Insects": 0, "count_Gymnosperms": 0, "count_Arachnids": 0, "count_Sac Fungi": 0, "count_Mammals": 2, "count_Molluscs": 0, "count_Amphibians": 1, "count_Basidiomycota": 0, "unique_species_count": 65.0, "countryCode": "KP" }, "geometry": { "type": "MultiPolygon", "coordinates": [ [ [ [ 127.127771582806687, 39.059513029582554 ], [ 127.540629244720861, 38.6237997390839 ], [ 127.368601540464027, 38.159926167640464 ], [ 126.784699296741238, 38.131158127368813 ], [ 126.363425345133265, 38.564733633786012 ], [ 126.534342499401575, 39.029254833412267 ], [ 127.127771582806687, 39.059513029582554 ] ] ] ] } },
{ "type": "Feature", "properties": { "geogrid_id": "838671443128719199", "seqnum": 29020.0, "lat_c": 38.67144284110141, "lon_c": 128.71919869925327, "res": 8.0, "count_Ferns": 0, "count_Reptiles": 1, "count_Birds": 0, "count_Flowering Plants": 23, "count_Insects": 0, "count_Gymnosperms": 3, "count_Arachnids": 0, "count_Sac Fungi": 0, "count_Mammals": 0, "count_Molluscs": 0, "count_Amphibians": 0, "count_Basidiomycota": 0, "unique_species_count": 27.0, "countryCode": "KP" }, "geometry": { "type": "MultiPolygon", "coordinates": [ [ [ [ 128.910455787676028, 39.132860972953061 ], [ 129.308947138721095, 38.690966119136235 ], [ 129.121956577037054, 38.229360219477719 ], [ 128.537250993186916, 38.209031235861978 ], [ 128.129753251796842, 38.649052002302724 ], [ 128.315847269607275, 39.111323677581844 ], [ 128.910455787676028, 39.132860972953061 ] ] ] ] } },
{ "type": "Feature", "properties": { "geogrid_id": "838996104125941346", "seqnum": 28776.0, "lat_c": 38.996104113587528, "lon_c": 125.94134648598326, "res": 8.0, "count_Ferns": 0, "count_Reptiles": 0, "count_Birds": 62, "count_Flowering Plants": 6, "count_Insects": 7, "count_Gymnosperms": 2, "count_Arachnids": 1, "count_Sac Fungi": 0, "count_Mammals": 1, "count_Molluscs": 1, "count_Amphibians": 2, "count_Basidiomycota": 0, "unique_species_count": 82.0, "countryCode": "KP" }, "geometry": { "type": "MultiPolygon", "coordinates": [ [ [ [ 126.115267114318598, 39.460606692412895 ], [ 126.534342499401575, 39.029254833412267 ], [ 126.363425345133265, 38.564733633786012 ], [ 125.775387853899474, 38.530930464127323 ], [ 125.348805118500152, 38.960067509870044 ], [ 125.517657221457497, 39.4252545066458 ], [ 126.115267114318598, 39.460606692412895 ] ] ] ] } },
{ "type": "Feature", "properties": { "geogrid_id": "839086872127721613", "seqnum": 28939.0, "lat_c": 39.086871756016464, "lon_c": 127.72161305383489, "res": 8.0, "count_Ferns": 10, "count_Reptiles": 0, "count_Birds": 5, "count_Flowering Plants": 142, "count_Insects": 52, "count_Gymnosperms": 1, "count_Arachnids": 3, "count_Sac Fungi": 0, "count_Mammals": 0, "count_Molluscs": 0, "count_Amphibians": 2, "count_Basidiomycota": 0, "unique_species_count": 215.0, "countryCode": "KP" }, "geometry": { "type": "MultiPolygon", "coordinates": [ [ [ [ 127.911027190500789, 39.549016445641833 ], [ 128.315847269607275, 39.111323677581844 ], [ 128.129753251796842, 38.649052002302724 ], [ 127.540629244720861, 38.6237997390839 ], [ 127.127771582806687, 39.059513029582554 ], [ 127.311972680715016, 39.522496277682151 ], [ 127.911027190500789, 39.549016445641833 ] ] ] ] } },
{ "type": "Feature", "properties": { "geogrid_id": "839151475129505422", "seqnum": 29102.0, "lat_c": 39.151475220274321, "lon_c": 129.50542154400821, "res": 8.0, "count_Ferns": 0, "count_Reptiles": 0, "count_Birds": 0, "count_Flowering Plants": 0, "count_Insects": 0, "count_Gymnosperms": 0, "count_Arachnids": 0, "count_Sac Fungi": 0, "count_Mammals": 1, "count_Molluscs": 0, "count_Amphibians": 0, "count_Basidiomycota": 0, "unique_species_count": 1.0, "countryCode": "KP" }, "geometry": { "type": "MultiPolygon", "coordinates": [ [ [ [ 129.710774248685084, 39.610763115260937 ], [ 130.100729050282695, 39.167157262214772 ], [ 129.8989815474051, 38.707615207702204 ], [ 129.308947138721095, 38.690966119136235 ], [ 128.910455787676028, 39.132860972953061 ], [ 129.110444942132119, 39.593160368061277 ], [ 129.710774248685084, 39.610763115260937 ] ] ] ] } },
{ "type": "Feature", "properties": { "geogrid_id": "839386975124920572", "seqnum": 28695.0, "lat_c": 39.386974867566558, "lon_c": 124.92057151631451, "res": 8.0, "count_Ferns": 0, "count_Reptiles": 0, "count_Birds": 6, "count_Flowering Plants": 0, "count_Insects": 2, "count_Gymnosperms": 0, "count_Arachnids": 0, "count_Sac Fungi": 0, "count_Mammals": 2, "count_Molluscs": 0, "count_Amphibians": 3, "count_Basidiomycota": 0, "unique_species_count": 13.0, "countryCode": "KP" }, "geometry": { "type": "MultiPolygon", "coordinates": [ [ [ [ 125.091669849037501, 39.85217544306802 ], [ 125.517657221457497, 39.4252545066458 ], [ 125.348805118500152, 38.960067509870044 ], [ 124.756740733892414, 38.921151426292866 ], [ 124.3240326166991, 39.345775492286194 ], [ 124.490011199390608, 39.811637586322576 ], [ 125.091669849037501, 39.85217544306802 ] ] ] ] } },
{ "type": "Feature", "properties": { "geogrid_id": "839493023126713379", "seqnum": 28858.0, "lat_c": 39.493023411313963, "lon_c": 126.71337929003695, "res": 8.0, "count_Ferns": 0, "count_Reptiles": 0, "count_Birds": 3, "count_Flowering Plants": 2, "count_Insects": 1, "count_Gymnosperms": 0, "count_Arachnids": 0, "count_Sac Fungi": 0, "count_Mammals": 0, "count_Molluscs": 0, "count_Amphibians": 0, "count_Basidiomycota": 0, "unique_species_count": 6.0, "countryCode": "KP" }, "geometry": { "type": "MultiPolygon", "coordinates": [ [ [ [ 126.900109958683458, 39.955934986618907 ], [ 127.311972680715016, 39.522496277682151 ], [ 127.127771582806687, 39.059513029582554 ], [ 126.534342499401575, 39.029254833412267 ], [ 126.115267114318598, 39.460606692412895 ], [ 126.296741432578941, 39.924333682303967 ], [ 126.900109958683458, 39.955934986618907 ] ] ] ] } },
{ "type": "Feature", "properties": { "geogrid_id": "839572575128510524", "seqnum": 29021.0, "lat_c": 39.57257450637367, "lon_c": 128.51052384296429, "res": 8.0, "count_Ferns": 0, "count_Reptiles": 0, "count_Birds": 1, "count_Flowering Plants": 0, "count_Insects": 0, "count_Gymnosperms": 0, "count_Arachnids": 0, "count_Sac Fungi": 0, "count_Mammals": 1, "count_Molluscs": 0, "count_Amphibians": 0, "count_Basidiomycota": 0, "unique_species_count": 2.0, "countryCode": "KP" }, "geometry": { "type": "MultiPolygon", "coordinates": [ [ [ [ 128.713298447972477, 40.032702279559409 ], [ 129.110444942132119, 39.593160368061277 ], [ 128.910455787676028, 39.132860972953061 ], [ 128.315847269607275, 39.111323677581844 ], [ 127.911027190500789, 39.549016445641833 ], [ 128.108407839888542, 40.010130539026498 ], [ 128.713298447972477, 40.032702279559409 ] ] ] ] } },
{ "type": "Feature", "properties": { "geogrid_id": "839651086132115911", "seqnum": 29347.0, "lat_c": 39.651085698690906, "lon_c": 132.11591108899341, "res": 8.0, "count_Ferns": 0, "count_Reptiles": 0, "count_Birds": 0, "count_Flowering Plants": 0, "count_Insects": 0, "count_Gymnosperms": 0, "count_Arachnids": 0, "count_Sac Fungi": 0, "count_Mammals": 1, "count_Molluscs": 0, "count_Amphibians": 0, "count_Basidiomycota": 0, "unique_species_count": 1.0, "countryCode": "KP" }, "geometry": { "type": "MultiPolygon", "coordinates": [ [ [ [ 132.35202747833128, 40.103901028769023 ], [ 132.718103429541088, 39.653566921972548 ], [ 132.485134956135965, 39.200344645357838 ], [ 131.888575601699387, 39.196503978241502 ], [ 131.514075054360234, 39.645547479996345 ], [ 131.74451715838444, 40.099763648400867 ], [ 132.35202747833128, 40.103901028769023 ] ] ] ] } },
{ "type": "Feature", "properties": { "geogrid_id": "839768139123888968", "seqnum": 28614.0, "lat_c": 39.768139331085116, "lon_c": 123.88896805448255, "res": 8.0, "count_Ferns": 0, "count_Reptiles": 0, "count_Birds": 2, "count_Flowering Plants": 0, "count_Insects": 0, "count_Gymnosperms": 0, "count_Arachnids": 0, "count_Sac Fungi": 0, "count_Mammals": 0, "count_Molluscs": 0, "count_Amphibians": 0, "count_Basidiomycota": 0, "unique_species_count": 2.0, "countryCode": "KP" }, "geometry": { "type": "MultiPolygon", "coordinates": [ [ [ [ 124.056537180073434, 40.23404363584396 ], [ 124.490011199390608, 39.811637586322576 ], [ 124.3240326166991, 39.345775492286194 ], [ 123.728063739323531, 39.301663866553206 ], [ 123.288564162826972, 39.721689384928446 ], [ 123.450968425933524, 40.188226094899889 ], [ 124.056537180073434, 40.23404363584396 ] ] ] ] } },
{ "type": "Feature", "properties": { "geogrid_id": "839889744125693921", "seqnum": 28777.0, "lat_c": 39.88974391764652, "lon_c": 125.69392078659413, "res": 8.0, "count_Ferns": 0, "count_Reptiles": 0, "count_Birds": 12, "count_Flowering Plants": 50, "count_Insects": 1, "count_Gymnosperms": 4, "count_Arachnids": 0, "count_Sac Fungi": 0, "count_Mammals": 0, "count_Molluscs": 1, "count_Amphibians": 0, "count_Basidiomycota": 0, "unique_species_count": 68.0, "countryCode": "KP" }, "geometry": { "type": "MultiPolygon", "coordinates": [ [ [ [ 125.877247568371985, 40.353447756963654 ], [ 126.296741432578941, 39.924333682303967 ], [ 126.115267114318598, 39.460606692412895 ], [ 125.517657221457497, 39.4252545066458 ], [ 125.091669849037501, 39.85217544306802 ], [ 125.269700561183512, 40.316664851508534 ], [ 125.877247568371985, 40.353447756963654 ] ] ] ] } },
{ "type": "Feature", "properties": { "geogrid_id": "839984538127504005", "seqnum": 28940.0, "lat_c": 39.984537566550387, "lon_c": 127.50400541049271, "res": 8.0, "count_Ferns": 2, "count_Reptiles": 0, "count_Birds": 15, "count_Flowering Plants": 10, "count_Insects": 1, "count_Gymnosperms": 0, "count_Arachnids": 0, "count_Sac Fungi": 0, "count_Mammals": 2, "count_Molluscs": 0, "count_Amphibians": 0, "count_Basidiomycota": 0, "unique_species_count": 30.0, "countryCode": "KP" }, "geometry": { "type": "MultiPolygon", "coordinates": [ [ [ [ 127.703477733675413, 40.445551323414129 ], [ 128.108407839888542, 40.010130539026498 ], [ 127.911027190500789, 39.549016445641833 ], [ 127.311972680715016, 39.522496277682151 ], [ 126.900109958683458, 39.955934986618907 ], [ 127.094157857050817, 40.417902905108775 ], [ 127.703477733675413, 40.445551323414129 ] ] ] ] } },
{ "type": "Feature", "properties": { "geogrid_id": "840052240129318660", "seqnum": 29103.0, "lat_c": 40.052240279857351, "lon_c": 129.31865973938164, "res": 8.0, "count_Ferns": 0, "count_Reptiles": 0, "count_Birds": 0, "count_Flowering Plants": 0, "count_Insects": 0, "count_Gymnosperms": 0, "count_Arachnids": 0, "count_Sac Fungi": 0, "count_Mammals": 1, "count_Molluscs": 0, "count_Amphibians": 0, "count_Basidiomycota": 0, "unique_species_count": 1.0, "countryCode": "KP" }, "geometry": { "type": "MultiPolygon", "coordinates": [ [ [ [ 129.534656870933702, 40.510020523941911 ], [ 129.924475688884655, 40.068730981768255 ], [ 129.710774248685084, 39.610763115260937 ], [ 129.110444942132119, 39.593160368061277 ], [ 128.713298447972477, 40.032702279559409 ], [ 128.923745741961, 40.491624612877537 ], [ 129.534656870933702, 40.510020523941911 ] ] ] ] } },
{ "type": "Feature", "properties": { "geogrid_id": "840092510131137416", "seqnum": 29266.0, "lat_c": 40.092509809884021, "lon_c": 131.13741590429424, "res": 8.0, "count_Ferns": 0, "count_Reptiles": 0, "count_Birds": 0, "count_Flowering Plants": 0, "count_Insects": 0, "count_Gymnosperms": 0, "count_Arachnids": 0, "count_Sac Fungi": 0, "count_Mammals": 1, "count_Molluscs": 0, "count_Amphibians": 0, "count_Basidiomycota": 0, "unique_species_count": 1.0, "countryCode": "KP" }, "geometry": { "type": "MultiPolygon", "coordinates": [ [ [ [ 131.370306684160511, 40.546444605005426 ], [ 131.74451715838444, 40.099763648400867 ], [ 131.514075054360234, 39.645547479996345 ], [ 130.912600986559397, 39.636970465712523 ], [ 130.530731921124072, 40.082159583100591 ], [ 130.757951327382955, 40.537449184762295 ], [ 131.370306684160511, 40.546444605005426 ] ] ] ] } },
{ "type": "Feature", "properties": { "geogrid_id": "840104899132959941", "seqnum": 29429.0, "lat_c": 40.104899449894347, "lon_c": 132.95994117195374, "res": 8.0, "count_Ferns": 0, "count_Reptiles": 0, "count_Birds": 0, "count_Flowering Plants": 0, "count_Insects": 0, "count_Gymnosperms": 0, "count_Arachnids": 0, "count_Sac Fungi": 0, "count_Mammals": 1, "count_Molluscs": 0, "count_Amphibians": 0, "count_Basidiomycota": 0, "unique_species_count": 1.0, "countryCode": "KP" }, "geometry": { "type": "MultiPolygon", "coordinates": [ [ [ [ 133.210077898371452, 40.55428772040252 ], [ 133.56825531180337, 40.102733533111753 ], [ 133.320649346241481, 39.65297054875689 ], [ 132.718103429541088, 39.653566921972548 ], [ 132.35202747833128, 40.103901028769023 ], [ 132.596377904663228, 40.554889292620999 ], [ 133.210077898371452, 40.55428772040252 ] ] ] ] } },
{ "type": "Feature", "properties": { "geogrid_id": "840276860124662789", "seqnum": 28696.0, "lat_c": 40.276859953042901, "lon_c": 124.66278925211921, "res": 8.0, "count_Ferns": 0, "count_Reptiles": 0, "count_Birds": 13, "count_Flowering Plants": 3, "count_Insects": 2, "count_Gymnosperms": 1, "count_Arachnids": 0, "count_Sac Fungi": 0, "count_Mammals": 1, "count_Molluscs": 0, "count_Amphibians": 0, "count_Basidiomycota": 0, "unique_species_count": 20.0, "countryCode": "KP" }, "geometry": { "type": "MultiPolygon", "coordinates": [ [ [ [ 124.842079444278397, 40.74136747186639 ], [ 125.269700561183512, 40.316664851508534 ], [ 125.091669849037501, 39.85217544306802 ], [ 124.490011199390608, 39.811637586322576 ], [ 124.056537180073434, 40.23404363584396 ], [ 124.230493608731223, 40.699301273686466 ], [ 124.842079444278397, 40.74136747186639 ] ] ] ] } },
{ "type": "Feature", "properties": { "geogrid_id": "840387198126485407", "seqnum": 28859.0, "lat_c": 40.387197636153559, "lon_c": 126.48540737988712, "res": 8.0, "count_Ferns": 0, "count_Reptiles": 0, "count_Birds": 4, "count_Flowering Plants": 11, "count_Insects": 3, "count_Gymnosperms": 0, "count_Arachnids": 0, "count_Sac Fungi": 0, "count_Mammals": 1, "count_Molluscs": 0, "count_Amphibians": 0, "count_Basidiomycota": 1, "unique_species_count": 20.0, "countryCode": "KP" }, "geometry": { "type": "MultiPolygon", "coordinates": [ [ [ [ 126.680944804772352, 40.849125803207286 ], [ 127.094157857050817, 40.417902905108775 ], [ 126.900109958683458, 39.955934986618907 ], [ 126.296741432578941, 39.924333682303967 ], [ 125.877247568371985, 40.353447756963654 ], [ 126.067328933476546, 40.816292257164122 ], [ 126.680944804772352, 40.849125803207286 ] ] ] ] } },
{ "type": "Feature", "properties": { "geogrid_id": "840525301130146064", "seqnum": 29185.0, "lat_c": 40.525301310785522, "lon_c": 130.14606368608443, "res": 8.0, "count_Ferns": 0, "count_Reptiles": 0, "count_Birds": 0, "count_Flowering Plants": 0, "count_Insects": 0, "count_Gymnosperms": 0, "count_Arachnids": 0, "count_Sac Fungi": 0, "count_Mammals": 1, "count_Molluscs": 0, "count_Amphibians": 0, "count_Basidiomycota": 0, "unique_species_count": 1.0, "countryCode": "KP" }, "geometry": { "type": "MultiPolygon", "coordinates": [ [ [ [ 130.375135928531165, 40.9804142993314 ], [ 130.757951327382955, 40.537449184762295 ], [ 130.530731921124072, 40.082159583100591 ], [ 129.924475688884655, 40.068730981768255 ], [ 129.534656870933702, 40.510020523941911 ], [ 129.758049312843411, 40.966438119238241 ], [ 130.375135928531165, 40.9804142993314 ] ] ] ] } },
{ "type": "Feature", "properties": { "geogrid_id": "840552266131983119", "seqnum": 29348.0, "lat_c": 40.552265976069918, "lon_c": 131.98311857011814, "res": 8.0, "count_Ferns": 0, "count_Reptiles": 1, "count_Birds": 0, "count_Flowering Plants": 0, "count_Insects": 0, "count_Gymnosperms": 0, "count_Arachnids": 0, "count_Sac Fungi": 0, "count_Mammals": 1, "count_Molluscs": 0, "count_Amphibians": 0, "count_Basidiomycota": 0, "unique_species_count": 2.0, "countryCode": "KP" }, "geometry": { "type": "MultiPolygon", "coordinates": [ [ [ [ 132.229427406913715, 41.00300761089408 ], [ 132.596377904663228, 40.554889292620999 ], [ 132.35202747833128, 40.103901028769023 ], [ 131.74451715838444, 40.099763648400867 ], [ 131.370306684160511, 40.546444605005426 ], [ 131.610838560795685, 40.998723046427152 ], [ 132.229427406913715, 41.00300761089408 ] ] ] ] } },
{ "type": "Feature", "properties": { "geogrid_id": "840878856127295191", "seqnum": 28941.0, "lat_c": 40.878855697610661, "lon_c": 127.29519071403314, "res": 8.0, "count_Ferns": 0, "count_Reptiles": 0, "count_Birds": 0, "count_Flowering Plants": 14, "count_Insects": 1, "count_Gymnosperms": 0, "count_Arachnids": 0, "count_Sac Fungi": 0, "count_Mammals": 0, "count_Molluscs": 0, "count_Amphibians": 0, "count_Basidiomycota": 0, "unique_species_count": 15.0, "countryCode": "KP" }, "geometry": { "type": "MultiPolygon", "coordinates": [ [ [ [ 127.502916428325392, 41.33873487836329 ], [ 127.910044642754443, 40.905467658293169 ], [ 127.703477733675413, 40.445551323414129 ], [ 127.094157857050817, 40.417902905108775 ], [ 126.680944804772352, 40.849125803207286 ], [ 126.883071599990402, 41.31005806302462 ], [ 127.502916428325392, 41.33873487836329 ] ] ] ] } },
{ "type": "Feature", "properties": { "geogrid_id": "840949276129141493", "seqnum": 29104.0, "lat_c": 40.949275817473819, "lon_c": 129.14149334766972, "res": 8.0, "count_Ferns": 0, "count_Reptiles": 0, "count_Birds": 4, "count_Flowering Plants": 1, "count_Insects": 0, "count_Gymnosperms": 0, "count_Arachnids": 0, "count_Sac Fungi": 0, "count_Mammals": 0, "count_Molluscs": 0, "count_Amphibians": 0, "count_Basidiomycota": 0, "unique_species_count": 5.0, "countryCode": "KP" }, "geometry": { "type": "MultiPolygon", "coordinates": [ [ [ [ 129.366216378603639, 41.405604228179698 ], [ 129.758049312843411, 40.966438119238241 ], [ 129.534656870933702, 40.510020523941911 ], [ 128.923745741961, 40.491624612877537 ], [ 128.525485521196543, 40.928946468330636 ], [ 128.744510686999803, 41.38652603426852 ], [ 129.366216378603639, 41.405604228179698 ] ] ] ] } },
{ "type": "Feature", "properties": { "geogrid_id": "840991184130992737", "seqnum": 29267.0, "lat_c": 40.991183550325388, "lon_c": 130.99273716005339, "res": 8.0, "count_Ferns": 0, "count_Reptiles": 0, "count_Birds": 0, "count_Flowering Plants": 0, "count_Insects": 0, "count_Gymnosperms": 0, "count_Arachnids": 0, "count_Sac Fungi": 0, "count_Mammals": 1, "count_Molluscs": 0, "count_Amphibians": 0, "count_Basidiomycota": 0, "unique_species_count": 1.0, "countryCode": "KP" }, "geometry": { "type": "MultiPolygon", "coordinates": [ [ [ [ 131.23472770187476, 41.443321527030108 ], [ 131.610838560795685, 40.998723046427152 ], [ 131.370306684160511, 40.546444605005426 ], [ 130.757951327382955, 40.537449184762295 ], [ 130.375135928531165, 40.9804142993314 ], [ 130.611343396834798, 41.43402480546191 ], [ 131.23472770187476, 41.443321527030108 ] ] ] ] } },
{ "type": "Feature", "properties": { "geogrid_id": "841364230128123404", "seqnum": 29023.0, "lat_c": 41.364230016694648, "lon_c": 128.12340357464393, "res": 8.0, "count_Ferns": 0, "count_Reptiles": 0, "count_Birds": 1, "count_Flowering Plants": 3, "count_Insects": 0, "count_Gymnosperms": 1, "count_Arachnids": 0, "count_Sac Fungi": 0, "count_Mammals": 0, "count_Molluscs": 0, "count_Amphibians": 0, "count_Basidiomycota": 0, "unique_species_count": 5.0, "countryCode": "KP" }, "geometry": { "type": "MultiPolygon", "coordinates": [ [ [ [ 128.343290347577494, 41.821793155844752 ], [ 128.744510686999803, 41.38652603426852 ], [ 128.525485521196543, 40.928946468330636 ], [ 127.910044642754443, 40.905467658293169 ], [ 127.502916428325392, 41.33873487836329 ], [ 127.717079330647167, 41.797493038176768 ], [ 128.343290347577494, 41.821793155844752 ] ] ] ] } },
{ "type": "Feature", "properties": { "geogrid_id": "841421444129988500", "seqnum": 29186.0, "lat_c": 41.421444436090717, "lon_c": 129.98850033093106, "res": 8.0, "count_Ferns": 0, "count_Reptiles": 0, "count_Birds": 0, "count_Flowering Plants": 0, "count_Insects": 4, "count_Gymnosperms": 0, "count_Arachnids": 0, "count_Sac Fungi": 0, "count_Mammals": 1, "count_Molluscs": 0, "count_Amphibians": 0, "count_Basidiomycota": 0, "unique_species_count": 5.0, "countryCode": "KP" }, "geometry": { "type": "MultiPolygon", "coordinates": [ [ [ [ 130.225718220859505, 41.875002775190517 ], [ 130.611343396834798, 41.43402480546191 ], [ 130.375135928531165, 40.9804142993314 ], [ 129.758049312843411, 40.966438119238241 ], [ 129.366216378603639, 41.405604228179698 ], [ 129.597632619128234, 41.860569922923439 ], [ 130.225718220859505, 41.875002775190517 ] ] ] ] } },
{ "type": "Feature", "properties": { "geogrid_id": "841842826128970149", "seqnum": 29105.0, "lat_c": 41.84282581199718, "lon_c": 128.97014920360334, "res": 8.0, "count_Ferns": 0, "count_Reptiles": 0, "count_Birds": 0, "count_Flowering Plants": 3, "count_Insects": 0, "count_Gymnosperms": 0, "count_Arachnids": 0, "count_Sac Fungi": 0, "count_Mammals": 0, "count_Molluscs": 0, "count_Amphibians": 0, "count_Basidiomycota": 0, "unique_species_count": 3.0, "countryCode": "KP" }, "geometry": { "type": "MultiPolygon", "coordinates": [ [ [ [ 129.202164589443953, 42.29781273559518 ], [ 129.597632619128234, 41.860569922923439 ], [ 129.366216378603639, 41.405604228179698 ], [ 128.744510686999803, 41.38652603426852 ], [ 128.343290347577494, 41.821793155844752 ], [ 128.569475563506444, 42.278121399876696 ], [ 129.202164589443953, 42.29781273559518 ] ] ] ] } },
{ "type": "Feature", "properties": { "geogrid_id": "841886100130854385", "seqnum": 29268.0, "lat_c": 41.886099778378764, "lon_c": 130.85438461633552, "res": 8.0, "count_Ferns": 0, "count_Reptiles": 0, "count_Birds": 27, "count_Flowering Plants": 0, "count_Insects": 1, "count_Gymnosperms": 0, "count_Arachnids": 0, "count_Sac Fungi": 0, "count_Mammals": 2, "count_Molluscs": 0, "count_Amphibians": 0, "count_Basidiomycota": 0, "unique_species_count": 30.0, "countryCode": "KP" }, "geometry": { "type": "MultiPolygon", "coordinates": [ [ [ [ 131.104000632663684, 42.336616089612669 ], [ 131.483611461225507, 41.893834180611734 ], [ 131.23472770187476, 41.443321527030108 ], [ 130.611343396834798, 41.43402480546191 ], [ 130.225718220859505, 41.875002775190517 ], [ 130.469451693886185, 42.327086312300565 ], [ 131.104000632663684, 42.336616089612669 ] ] ] ] } },
{ "type": "Feature", "properties": { "geogrid_id": "842255092127937457", "seqnum": 29024.0, "lat_c": 42.255092192930427, "lon_c": 127.93745686512742, "res": 8.0, "count_Ferns": 0, "count_Reptiles": 0, "count_Birds": 1, "count_Flowering Plants": 16, "count_Insects": 2, "count_Gymnosperms": 0, "count_Arachnids": 0, "count_Sac Fungi": 1, "count_Mammals": 1, "count_Molluscs": 0, "count_Amphibians": 0, "count_Basidiomycota": 0, "unique_species_count": 21.0, "countryCode": "KP" }, "geometry": { "type": "MultiPolygon", "coordinates": [ [ [ [ 128.16385664454566, 42.711502353044423 ], [ 128.569475563506444, 42.278121399876696 ], [ 128.343290347577494, 41.821793155844752 ], [ 127.717079330647167, 41.797493038176768 ], [ 127.306134814188027, 42.228746982076473 ], [ 127.526668104724038, 42.686431517193618 ], [ 128.16385664454566, 42.711502353044423 ] ] ] ] } },
{ "type": "Feature", "properties": { "geogrid_id": "842314143129835498", "seqnum": 29187.0, "lat_c": 42.314142776042047, "lon_c": 129.83549828228951, "res": 8.0, "count_Ferns": 1, "count_Reptiles": 0, "count_Birds": 44, "count_Flowering Plants": 13, "count_Insects": 7, "count_Gymnosperms": 1, "count_Arachnids": 0, "count_Sac Fungi": 2, "count_Mammals": 1, "count_Molluscs": 2, "count_Amphibians": 3, "count_Basidiomycota": 0, "unique_species_count": 74.0, "countryCode": "KP" }, "geometry": { "type": "MultiPolygon", "coordinates": [ [ [ [ 130.079604277056717, 42.766300796428055 ], [ 130.469451693886185, 42.327086312300565 ], [ 130.225718220859505, 41.875002775190517 ], [ 129.597632619128234, 41.860569922923439 ], [ 129.202164589443953, 42.29781273559518 ], [ 129.440353470586103, 42.751461849562837 ], [ 130.079604277056717, 42.766300796428055 ] ] ] ] } },
{ "type": "Feature", "properties": { "geogrid_id": "842777676130719486", "seqnum": 29269.0, "lat_c": 42.777676353355346, "lon_c": 130.7194858295683, "res": 8.0, "count_Ferns": 0, "count_Reptiles": 1, "count_Birds": 39, "count_Flowering Plants": 0, "count_Insects": 0, "count_Gymnosperms": 0, "count_Arachnids": 0, "count_Sac Fungi": 0, "count_Mammals": 1, "count_Molluscs": 0, "count_Amphibians": 2, "count_Basidiomycota": 0, "unique_species_count": 43.0, "countryCode": "KP" }, "geometry": { "type": "MultiPolygon", "coordinates": [ [ [ [ 130.975638526184412, 43.22676085277854 ], [ 131.359970619519373, 42.785558702578214 ], [ 131.104000632663684, 42.336616089612669 ], [ 130.469451693886185, 42.327086312300565 ], [ 130.079604277056717, 42.766300796428055 ], [ 130.329772924637723, 43.217028708522548 ], [ 130.975638526184412, 43.22676085277854 ] ] ] ] } },
{ "type": "Feature", "properties": { "geogrid_id": "843203755129684543", "seqnum": 29188.0, "lat_c": 43.20375495129349, "lon_c": 129.68454254080183, "res": 8.0, "count_Ferns": 0, "count_Reptiles": 1, "count_Birds": 6, "count_Flowering Plants": 8, "count_Insects": 74, "count_Gymnosperms": 0, "count_Arachnids": 2, "count_Sac Fungi": 0, "count_Mammals": 1, "count_Molluscs": 1, "count_Amphibians": 1, "count_Basidiomycota": 0, "unique_species_count": 94.0, "countryCode": "KP" }, "geometry": { "type": "MultiPolygon", "coordinates": [ [ [ [ 129.934585880894332, 43.654679425494976 ], [ 130.329772924637723, 43.217028708522548 ], [ 130.079604277056717, 42.766300796428055 ], [ 129.440353470586103, 42.751461849562837 ], [ 129.039978914737105, 43.186969513614081 ], [ 129.283985313785109, 43.63945333136823 ], [ 129.934585880894332, 43.654679425494976 ] ] ] ] } }
]
}
