{
"type": "FeatureCollection",
"name": "LK",
"crs": { "type": "name", "properties": { "name": "urn:ogc:def:crs:OGC:1.3:CRS84" } },
"features": [
{ "type": "Feature", "properties": { "geogrid_id": "804000918078030520", "seqnum": 23846.0, "lat_c": 4.0009181245992238, "lon_c": 78.030520287188537, "res": 8.0, "count_Mammals": 0, "count_Insects": 0, "count_Arachnids": 0, "count_Molluscs": 3, "count_Flowering Plants": 0, "count_Reptiles": 0, "count_Mosses": 0, "count_Amphibians": 0, "count_Birds": 0, "count_Basidiomycota": 0, "count_Ferns": 0, "count_Sac Fungi": 0, "count_Gymnosperms": 0, "unique_species_count": 3.0, "countryCode": "LK" }, "geometry": { "type": "MultiPolygon", "coordinates": [ [ [ [ 78.25617134219047, 4.426256579463608 ], [ 78.514315494967875, 3.98146322896092 ], [ 78.288487590815762, 3.556372374935163 ], [ 77.806706821721704, 3.572632434812424 ], [ 77.548415596498884, 4.017266356954165 ], [ 77.772226122341635, 4.445463345816163 ], [ 78.25617134219047, 4.426256579463608 ] ] ] ] } },
{ "type": "Feature", "properties": { "geogrid_id": "804403634078741626", "seqnum": 23928.0, "lat_c": 4.4036338443992769, "lon_c": 78.741626043596256, "res": 8.0, "count_Mammals": 1, "count_Insects": 0, "count_Arachnids": 0, "count_Molluscs": 0, "count_Flowering Plants": 0, "count_Reptiles": 0, "count_Mosses": 0, "count_Amphibians": 0, "count_Birds": 0, "count_Basidiomycota": 0, "count_Ferns": 0, "count_Sac Fungi": 0, "count_Gymnosperms": 0, "unique_species_count": 1.0, "countryCode": "LK" }, "geometry": { "type": "MultiPolygon", "coordinates": [ [ [ [ 78.970026509753737, 4.823245433621732 ], [ 79.22851499491432, 4.376815612813863 ], [ 78.999791568286128, 3.958140862285754 ], [ 78.514315494967875, 3.98146322896092 ], [ 78.25617134219047, 4.426256579463608 ], [ 78.483207704678222, 4.848976991931665 ], [ 78.970026509753737, 4.823245433621732 ] ] ] ] } },
{ "type": "Feature", "properties": { "geogrid_id": "804434259082376055", "seqnum": 24336.0, "lat_c": 4.4342589219528952, "lon_c": 82.376055095780046, "res": 8.0, "count_Mammals": 0, "count_Insects": 0, "count_Arachnids": 0, "count_Molluscs": 2, "count_Flowering Plants": 0, "count_Reptiles": 0, "count_Mosses": 0, "count_Amphibians": 0, "count_Birds": 0, "count_Basidiomycota": 0, "count_Ferns": 0, "count_Sac Fungi": 0, "count_Gymnosperms": 0, "unique_species_count": 2.0, "countryCode": "LK" }, "geometry": { "type": "MultiPolygon", "coordinates": [ [ [ [ 82.604733051532364, 4.827968197872181 ], [ 82.843569061506059, 4.318353989284637 ], [ 82.61553904258966, 3.925777250345049 ], [ 82.14755318831736, 4.040366798592117 ], [ 81.897781976380031, 4.527144151020722 ], [ 82.12729677507015, 4.923433992001982 ], [ 82.604733051532364, 4.827968197872181 ] ] ] ] } },
{ "type": "Feature", "properties": { "geogrid_id": "804461861077289793", "seqnum": 23765.0, "lat_c": 4.4618609275623333, "lon_c": 77.289793260418577, "res": 8.0, "count_Mammals": 1, "count_Insects": 0, "count_Arachnids": 0, "count_Molluscs": 3, "count_Flowering Plants": 0, "count_Reptiles": 0, "count_Mosses": 0, "count_Amphibians": 0, "count_Birds": 0, "count_Basidiomycota": 0, "count_Ferns": 0, "count_Sac Fungi": 0, "count_Gymnosperms": 0, "unique_species_count": 4.0, "countryCode": "LK" }, "geometry": { "type": "MultiPolygon", "coordinates": [ [ [ [ 77.513568154006407, 4.890007841946905 ], [ 77.772226122341635, 4.445463345816163 ], [ 77.548415596498884, 4.017266356954165 ], [ 77.067950563747445, 4.031090376429618 ], [ 76.808831783136938, 4.47592654493516 ], [ 77.030797082296814, 4.906423738455895 ], [ 77.513568154006407, 4.890007841946905 ] ] ] ] } },
{ "type": "Feature", "properties": { "geogrid_id": "804710930083071875", "seqnum": 24418.0, "lat_c": 4.7109302105673709, "lon_c": 83.071874540909661, "res": 8.0, "count_Mammals": 1, "count_Insects": 0, "count_Arachnids": 0, "count_Molluscs": 0, "count_Flowering Plants": 0, "count_Reptiles": 0, "count_Mosses": 0, "count_Amphibians": 0, "count_Birds": 0, "count_Basidiomycota": 0, "count_Ferns": 0, "count_Sac Fungi": 0, "count_Gymnosperms": 0, "unique_species_count": 1.0, "countryCode": "LK" }, "geometry": { "type": "MultiPolygon", "coordinates": [ [ [ [ 83.300481010409058, 5.10350575932333 ], [ 83.634868573166372, 4.758356717424507 ], [ 83.40572518023275, 4.365022498956311 ], [ 82.843569061506059, 4.318353989284637 ], [ 82.604733051532364, 4.827968197872181 ], [ 82.833629513195774, 5.221534855740922 ], [ 83.300481010409058, 5.10350575932333 ] ] ] ] } },
{ "type": "Feature", "properties": { "geogrid_id": "804871024077997705", "seqnum": 23847.0, "lat_c": 4.871024024617773, "lon_c": 77.997704671104614, "res": 8.0, "count_Mammals": 1, "count_Insects": 0, "count_Arachnids": 0, "count_Molluscs": 0, "count_Flowering Plants": 0, "count_Reptiles": 0, "count_Mosses": 0, "count_Amphibians": 0, "count_Birds": 0, "count_Basidiomycota": 0, "count_Ferns": 0, "count_Sac Fungi": 0, "count_Gymnosperms": 0, "unique_species_count": 1.0, "countryCode": "LK" }, "geometry": { "type": "MultiPolygon", "coordinates": [ [ [ [ 78.224485228204685, 5.294216448040327 ], [ 78.483207704678222, 4.848976991931665 ], [ 78.25617134219047, 4.426256579463608 ], [ 77.772226122341635, 4.445463345816163 ], [ 77.513568154006407, 4.890007841946905 ], [ 77.73887449949504, 5.315774231573916 ], [ 78.224485228204685, 5.294216448040327 ] ] ] ] } },
{ "type": "Feature", "properties": { "geogrid_id": "805151574083864263", "seqnum": 24500.0, "lat_c": 5.1515737649672051, "lon_c": 83.864262838240748, "res": 8.0, "count_Mammals": 1, "count_Insects": 0, "count_Arachnids": 0, "count_Molluscs": 0, "count_Flowering Plants": 0, "count_Reptiles": 0, "count_Mosses": 0, "count_Amphibians": 0, "count_Birds": 0, "count_Basidiomycota": 0, "count_Ferns": 0, "count_Sac Fungi": 0, "count_Gymnosperms": 0, "unique_species_count": 1.0, "countryCode": "LK" }, "geometry": { "type": "MultiPolygon", "coordinates": [ [ [ [ 84.093948088530908, 5.544693138194518 ], [ 84.417717629577126, 5.184095870967309 ], [ 84.186966397760003, 4.789574314870104 ], [ 83.634868573166372, 4.758356717424507 ], [ 83.300481010409058, 5.10350575932333 ], [ 83.529414127956073, 5.496080452200314 ], [ 84.093948088530908, 5.544693138194518 ] ] ] ] } },
{ "type": "Feature", "properties": { "geogrid_id": "805269371078711306", "seqnum": 23929.0, "lat_c": 5.2693712923198603, "lon_c": 78.711306479386153, "res": 8.0, "count_Mammals": 1, "count_Insects": 0, "count_Arachnids": 0, "count_Molluscs": 2, "count_Flowering Plants": 0, "count_Reptiles": 0, "count_Mosses": 0, "count_Amphibians": 0, "count_Birds": 0, "count_Basidiomycota": 0, "count_Ferns": 0, "count_Sac Fungi": 0, "count_Gymnosperms": 0, "unique_species_count": 3.0, "countryCode": "LK" }, "geometry": { "type": "MultiPolygon", "coordinates": [ [ [ [ 78.940237035697592, 5.687696618271967 ], [ 79.19924583741934, 5.240610832565567 ], [ 78.970026509753737, 4.823245433621732 ], [ 78.483207704678222, 4.848976991931665 ], [ 78.224485228204685, 5.294216448040327 ], [ 78.452298934449786, 5.715281346368979 ], [ 78.940237035697592, 5.687696618271967 ] ] ] ] } },
{ "type": "Feature", "properties": { "geogrid_id": "805334551077254509", "seqnum": 23766.0, "lat_c": 5.3345513722926157, "lon_c": 77.254509241188543, "res": 8.0, "count_Mammals": 1, "count_Insects": 0, "count_Arachnids": 0, "count_Molluscs": 0, "count_Flowering Plants": 0, "count_Reptiles": 0, "count_Mosses": 0, "count_Amphibians": 0, "count_Birds": 0, "count_Basidiomycota": 0, "count_Ferns": 0, "count_Sac Fungi": 0, "count_Gymnosperms": 0, "unique_species_count": 1.0, "countryCode": "LK" }, "geometry": { "type": "MultiPolygon", "coordinates": [ [ [ [ 77.479640831400815, 5.760512954816549 ], [ 77.73887449949504, 5.315774231573916 ], [ 77.513568154006407, 4.890007841946905 ], [ 77.030797082296814, 4.906423738455895 ], [ 76.771386009482228, 5.350959861556563 ], [ 76.995012023510583, 5.779093647434098 ], [ 77.479640831400815, 5.760512954816549 ] ] ] ] } },
{ "type": "Feature", "properties": { "geogrid_id": "805527490080898371", "seqnum": 24174.0, "lat_c": 5.5274904623778998, "lon_c": 80.898370943740133, "res": 8.0, "count_Mammals": 11, "count_Insects": 28, "count_Arachnids": 3, "count_Molluscs": 6, "count_Flowering Plants": 27, "count_Reptiles": 10, "count_Mosses": 0, "count_Amphibians": 5, "count_Birds": 60, "count_Basidiomycota": 0, "count_Ferns": 1, "count_Sac Fungi": 0, "count_Gymnosperms": 0, "unique_species_count": 151.0, "countryCode": "LK" }, "geometry": { "type": "MultiPolygon", "coordinates": [ [ [ [ 81.129572046449184, 5.931851427609716 ], [ 81.387208043657509, 5.469420383760972 ], [ 81.156351717657358, 5.067279640201605 ], [ 80.667305673144213, 5.121915453205533 ], [ 80.408596213163491, 5.576981961146442 ], [ 80.639779466699338, 5.984528057622344 ], [ 81.129572046449184, 5.931851427609716 ] ] ] ] } },
{ "type": "Feature", "properties": { "geogrid_id": "805614988083062783", "seqnum": 24419.0, "lat_c": 5.6149884163245902, "lon_c": 83.06278295894127, "res": 8.0, "count_Mammals": 1, "count_Insects": 0, "count_Arachnids": 0, "count_Molluscs": 0, "count_Flowering Plants": 0, "count_Reptiles": 0, "count_Mosses": 0, "count_Amphibians": 0, "count_Birds": 0, "count_Basidiomycota": 0, "count_Ferns": 0, "count_Sac Fungi": 0, "count_Gymnosperms": 0, "unique_species_count": 1.0, "countryCode": "LK" }, "geometry": { "type": "MultiPolygon", "coordinates": [ [ [ [ 83.292229058466916, 6.008351001034717 ], [ 83.529414127956073, 5.496080452200314 ], [ 83.300481010409058, 5.10350575932333 ], [ 82.833629513195774, 5.221534855740922 ], [ 82.586698321862158, 5.714743058669714 ], [ 82.816681710911851, 6.109913774711257 ], [ 83.292229058466916, 6.008351001034717 ] ] ] ] } },
{ "type": "Feature", "properties": { "geogrid_id": "805656000079429097", "seqnum": 24011.0, "lat_c": 5.6560000705825253, "lon_c": 79.429097497070131, "res": 8.0, "count_Mammals": 1, "count_Insects": 0, "count_Arachnids": 0, "count_Molluscs": 0, "count_Flowering Plants": 0, "count_Reptiles": 0, "count_Mosses": 0, "count_Amphibians": 0, "count_Birds": 0, "count_Basidiomycota": 0, "count_Ferns": 0, "count_Sac Fungi": 0, "count_Gymnosperms": 0, "unique_species_count": 1.0, "countryCode": "LK" }, "geometry": { "type": "MultiPolygon", "coordinates": [ [ [ [ 79.659454437903634, 6.069646060098902 ], [ 79.918664440795908, 5.619416380022763 ], [ 79.688125612926356, 5.207150817415454 ], [ 79.19924583741934, 5.240610832565567 ], [ 78.940237035697592, 5.687696618271967 ], [ 79.169835291239437, 6.104178702530616 ], [ 79.659454437903634, 6.069646060098902 ] ] ] ] } },
{ "type": "Feature", "properties": { "geogrid_id": "805739383077965411", "seqnum": 23848.0, "lat_c": 5.7393825622750558, "lon_c": 77.965411252521662, "res": 8.0, "count_Mammals": 1, "count_Insects": 0, "count_Arachnids": 0, "count_Molluscs": 0, "count_Flowering Plants": 0, "count_Reptiles": 0, "count_Mosses": 0, "count_Amphibians": 0, "count_Birds": 0, "count_Basidiomycota": 0, "count_Ferns": 0, "count_Sac Fungi": 0, "count_Gymnosperms": 0, "unique_species_count": 1.0, "countryCode": "LK" }, "geometry": { "type": "MultiPolygon", "coordinates": [ [ [ [ 78.192952170669912, 6.161034680966841 ], [ 78.452298934449786, 5.715281346368979 ], [ 78.224485228204685, 5.294216448040327 ], [ 77.73887449949504, 5.315774231573916 ], [ 77.479640831400815, 5.760512954816549 ], [ 77.705940973798235, 6.184496056878385 ], [ 78.192952170669912, 6.161034680966841 ] ] ] ] } },
{ "type": "Feature", "properties": { "geogrid_id": "805870606081618152", "seqnum": 24256.0, "lat_c": 5.8706062867024613, "lon_c": 81.618152120351169, "res": 8.0, "count_Mammals": 21, "count_Insects": 57, "count_Arachnids": 5, "count_Molluscs": 8, "count_Flowering Plants": 57, "count_Reptiles": 22, "count_Mosses": 0, "count_Amphibians": 5, "count_Birds": 149, "count_Basidiomycota": 0, "count_Ferns": 0, "count_Sac Fungi": 0, "count_Gymnosperms": 0, "unique_species_count": 324.0, "countryCode": "LK" }, "geometry": { "type": "MultiPolygon", "coordinates": [ [ [ [ 81.849215695525956, 6.270984708657124 ], [ 82.104395175530087, 5.798992452443939 ], [ 81.873954416177895, 5.400838615818246 ], [ 81.387208043657509, 5.469420383760972 ], [ 81.129572046449184, 5.931851427609716 ], [ 81.360917538771247, 6.335172391409897 ], [ 81.849215695525956, 6.270984708657124 ] ] ] ] } },
{ "type": "Feature", "properties": { "geogrid_id": "805888654083758700", "seqnum": 24501.0, "lat_c": 5.8886540748399314, "lon_c": 83.758699691004281, "res": 8.0, "count_Mammals": 1, "count_Insects": 0, "count_Arachnids": 0, "count_Molluscs": 0, "count_Flowering Plants": 0, "count_Reptiles": 0, "count_Mosses": 0, "count_Amphibians": 0, "count_Birds": 0, "count_Basidiomycota": 0, "count_Ferns": 0, "count_Sac Fungi": 0, "count_Gymnosperms": 0, "unique_species_count": 1.0, "countryCode": "LK" }, "geometry": { "type": "MultiPolygon", "coordinates": [ [ [ [ 83.988363647780105, 6.281226379316881 ], [ 84.323961141153944, 5.937729824708915 ], [ 84.093948088530908, 5.544693138194518 ], [ 83.529414127956073, 5.496080452200314 ], [ 83.292229058466916, 6.008351001034717 ], [ 83.522001476649677, 6.40163948192302 ], [ 83.988363647780105, 6.281226379316881 ] ] ] ] } },
{ "type": "Feature", "properties": { "geogrid_id": "806030074080149559", "seqnum": 24093.0, "lat_c": 6.0300742587120419, "lon_c": 80.149559259675684, "res": 8.0, "count_Mammals": 34, "count_Insects": 391, "count_Arachnids": 67, "count_Molluscs": 186, "count_Flowering Plants": 405, "count_Reptiles": 54, "count_Mosses": 1, "count_Amphibians": 13, "count_Birds": 187, "count_Basidiomycota": 3, "count_Ferns": 6, "count_Sac Fungi": 1, "count_Gymnosperms": 1, "unique_species_count": 1349.0, "countryCode": "LK" }, "geometry": { "type": "MultiPolygon", "coordinates": [ [ [ [ 80.380757570735611, 6.439323731556682 ], [ 80.639779466699338, 5.984528057622344 ], [ 80.408596213163491, 5.576981961146442 ], [ 79.918664440795908, 5.619416380022763 ], [ 79.659454437903634, 6.069646060098902 ], [ 79.890231950720974, 6.481749878824555 ], [ 80.380757570735611, 6.439323731556682 ] ] ] ] } },
{ "type": "Feature", "properties": { "geogrid_id": "806134434078680948", "seqnum": 23930.0, "lat_c": 6.1344336319106496, "lon_c": 78.680948498304303, "res": 8.0, "count_Mammals": 2, "count_Insects": 0, "count_Arachnids": 0, "count_Molluscs": 0, "count_Flowering Plants": 0, "count_Reptiles": 0, "count_Mosses": 0, "count_Amphibians": 0, "count_Birds": 0, "count_Basidiomycota": 0, "count_Ferns": 0, "count_Sac Fungi": 0, "count_Gymnosperms": 0, "unique_species_count": 2.0, "countryCode": "LK" }, "geometry": { "type": "MultiPolygon", "coordinates": [ [ [ [ 78.910289847376433, 6.551864548676119 ], [ 79.169835291239437, 6.104178702530616 ], [ 78.940237035697592, 5.687696618271967 ], [ 78.452298934449786, 5.715281346368979 ], [ 78.192952170669912, 6.161034680966841 ], [ 78.421327609315242, 6.580912772118192 ], [ 78.910289847376433, 6.551864548676119 ] ] ] ] } },
{ "type": "Feature", "properties": { "geogrid_id": "806330696084554336", "seqnum": 24583.0, "lat_c": 6.3306954988043689, "lon_c": 84.554336499949528, "res": 8.0, "count_Mammals": 1, "count_Insects": 0, "count_Arachnids": 0, "count_Molluscs": 0, "count_Flowering Plants": 0, "count_Reptiles": 0, "count_Mosses": 0, "count_Amphibians": 0, "count_Birds": 0, "count_Basidiomycota": 0, "count_Ferns": 0, "count_Sac Fungi": 0, "count_Gymnosperms": 0, "unique_species_count": 1.0, "countryCode": "LK" }, "geometry": { "type": "MultiPolygon", "coordinates": [ [ [ [ 84.785107027055105, 6.723599352453638 ], [ 85.111396685306048, 6.366350362965521 ], [ 84.879881240278792, 5.972454537099703 ], [ 84.323961141153944, 5.937729824708915 ], [ 83.988363647780105, 6.281226379316881 ], [ 84.218432108676055, 6.673797081538305 ], [ 84.785107027055105, 6.723599352453638 ] ] ] ] } },
{ "type": "Feature", "properties": { "geogrid_id": "806390833080871171", "seqnum": 24175.0, "lat_c": 6.3908328601694144, "lon_c": 80.871171277241658, "res": 8.0, "count_Mammals": 53, "count_Insects": 716, "count_Arachnids": 66, "count_Molluscs": 44, "count_Flowering Plants": 689, "count_Reptiles": 94, "count_Mosses": 3, "count_Amphibians": 32, "count_Birds": 344, "count_Basidiomycota": 15, "count_Ferns": 16, "count_Sac Fungi": 3, "count_Gymnosperms": 2, "unique_species_count": 2077.0, "countryCode": "LK" }, "geometry": { "type": "MultiPolygon", "coordinates": [ [ [ [ 81.102768403211371, 6.796056587760971 ], [ 81.360917538771247, 6.335172391409897 ], [ 81.129572046449184, 5.931851427609716 ], [ 80.639779466699338, 5.984528057622344 ], [ 80.380757570735611, 6.439323731556682 ], [ 80.612231144246152, 6.847334679215038 ], [ 81.102768403211371, 6.796056587760971 ] ] ] ] } },
{ "type": "Feature", "properties": { "geogrid_id": "806519015079399986", "seqnum": 24012.0, "lat_c": 6.5190154696606823, "lon_c": 79.399985670580406, "res": 8.0, "count_Mammals": 1, "count_Insects": 0, "count_Arachnids": 0, "count_Molluscs": 3, "count_Flowering Plants": 0, "count_Reptiles": 1, "count_Mosses": 0, "count_Amphibians": 0, "count_Birds": 0, "count_Basidiomycota": 0, "count_Ferns": 0, "count_Sac Fungi": 0, "count_Gymnosperms": 0, "unique_species_count": 5.0, "countryCode": "LK" }, "geometry": { "type": "MultiPolygon", "coordinates": [ [ [ [ 79.630608298858064, 6.932380492322952 ], [ 79.890231950720974, 6.481749878824555 ], [ 79.659454437903634, 6.069646060098902 ], [ 79.169835291239437, 6.104178702530616 ], [ 78.910289847376433, 6.551864548676119 ], [ 79.140218834212178, 6.967744029919892 ], [ 79.630608298858064, 6.932380492322952 ] ] ] ] } },
{ "type": "Feature", "properties": { "geogrid_id": "806606672077933218", "seqnum": 23849.0, "lat_c": 6.6066723151034967, "lon_c": 77.933217602582147, "res": 8.0, "count_Mammals": 0, "count_Insects": 0, "count_Arachnids": 0, "count_Molluscs": 0, "count_Flowering Plants": 0, "count_Reptiles": 1, "count_Mosses": 0, "count_Amphibians": 0, "count_Birds": 0, "count_Basidiomycota": 0, "count_Ferns": 0, "count_Sac Fungi": 0, "count_Gymnosperms": 0, "unique_species_count": 1.0, "countryCode": "LK" }, "geometry": { "type": "MultiPolygon", "coordinates": [ [ [ [ 78.161324164906361, 7.02719805999065 ], [ 78.421327609315242, 6.580912772118192 ], [ 78.192952170669912, 6.161034680966841 ], [ 77.705940973798235, 6.184496056878385 ], [ 77.446031247448516, 6.629571504454551 ], [ 77.673048876804032, 7.052223554334577 ], [ 78.161324164906361, 7.02719805999065 ] ] ] ] } },
{ "type": "Feature", "properties": { "geogrid_id": "806737597081592426", "seqnum": 24257.0, "lat_c": 6.737597094098601, "lon_c": 81.592426180846275, "res": 8.0, "count_Mammals": 22, "count_Insects": 173, "count_Arachnids": 18, "count_Molluscs": 33, "count_Flowering Plants": 161, "count_Reptiles": 44, "count_Mosses": 0, "count_Amphibians": 14, "count_Birds": 232, "count_Basidiomycota": 1, "count_Ferns": 0, "count_Sac Fungi": 0, "count_Gymnosperms": 0, "unique_species_count": 698.0, "countryCode": "LK" }, "geometry": { "type": "MultiPolygon", "coordinates": [ [ [ [ 81.824123144388196, 7.139245135715078 ], [ 82.08043411378533, 6.670675256928692 ], [ 81.849215695525956, 6.270984708657124 ], [ 81.360917538771247, 6.335172391409897 ], [ 81.102768403211371, 6.796056587760971 ], [ 81.33457936252853, 7.200334504271988 ], [ 81.824123144388196, 7.139245135715078 ] ] ] ] } },
{ "type": "Feature", "properties": { "geogrid_id": "806892485080121376", "seqnum": 24094.0, "lat_c": 6.8924854500486106, "lon_c": 80.121375786194534, "res": 8.0, "count_Mammals": 44, "count_Insects": 1032, "count_Arachnids": 99, "count_Molluscs": 133, "count_Flowering Plants": 769, "count_Reptiles": 77, "count_Mosses": 2, "count_Amphibians": 19, "count_Birds": 236, "count_Basidiomycota": 18, "count_Ferns": 9, "count_Sac Fungi": 2, "count_Gymnosperms": 1, "unique_species_count": 2441.0, "countryCode": "LK" }, "geometry": { "type": "MultiPolygon", "coordinates": [ [ [ [ 80.352853816193274, 7.302003586484085 ], [ 80.612231144246152, 6.847334679215038 ], [ 80.380757570735611, 6.439323731556682 ], [ 79.890231950720974, 6.481749878824555 ], [ 79.630608298858064, 6.932380492322952 ], [ 79.861649811871558, 7.344426150914584 ], [ 80.352853816193274, 7.302003586484085 ] ] ] ] } },
{ "type": "Feature", "properties": { "geogrid_id": "806999181078650411", "seqnum": 23931.0, "lat_c": 6.9991807711689686, "lon_c": 78.650411090321342, "res": 8.0, "count_Mammals": 1, "count_Insects": 0, "count_Arachnids": 0, "count_Molluscs": 0, "count_Flowering Plants": 0, "count_Reptiles": 0, "count_Mosses": 0, "count_Amphibians": 0, "count_Birds": 0, "count_Basidiomycota": 0, "count_Ferns": 0, "count_Sac Fungi": 0, "count_Gymnosperms": 0, "unique_species_count": 1.0, "countryCode": "LK" }, "geometry": { "type": "MultiPolygon", "coordinates": [ [ [ [ 78.880109306372646, 7.415985958345614 ], [ 79.140218834212178, 6.967744029919892 ], [ 78.910289847376433, 6.551864548676119 ], [ 78.421327609315242, 6.580912772118192 ], [ 78.161324164906361, 7.02719805999065 ], [ 78.39014957000515, 7.446215273778475 ], [ 78.880109306372646, 7.415985958345614 ] ] ] ] } },
{ "type": "Feature", "properties": { "geogrid_id": "807069776082311844", "seqnum": 24339.0, "lat_c": 7.0697759264442173, "lon_c": 82.311844413755992, "res": 8.0, "count_Mammals": 0, "count_Insects": 0, "count_Arachnids": 0, "count_Molluscs": 0, "count_Flowering Plants": 0, "count_Reptiles": 0, "count_Mosses": 0, "count_Amphibians": 0, "count_Birds": 1, "count_Basidiomycota": 0, "count_Ferns": 0, "count_Sac Fungi": 0, "count_Gymnosperms": 0, "unique_species_count": 1.0, "countryCode": "LK" }, "geometry": { "type": "MultiPolygon", "coordinates": [ [ [ [ 82.543484238991837, 7.468367698245636 ], [ 82.796730709986349, 6.990467040798919 ], [ 82.565740171151404, 6.59372719514452 ], [ 82.08043411378533, 6.670675256928692 ], [ 81.824123144388196, 7.139245135715078 ], [ 82.056037598341305, 7.540216729433324 ], [ 82.543484238991837, 7.468367698245636 ] ] ] ] } },
{ "type": "Feature", "properties": { "geogrid_id": "807254253080843969", "seqnum": 24176.0, "lat_c": 7.2542525054520857, "lon_c": 80.84396887961546, "res": 8.0, "count_Mammals": 65, "count_Insects": 796, "count_Arachnids": 74, "count_Molluscs": 30, "count_Flowering Plants": 1014, "count_Reptiles": 114, "count_Mosses": 11, "count_Amphibians": 39, "count_Birds": 227, "count_Basidiomycota": 174, "count_Ferns": 109, "count_Sac Fungi": 67, "count_Gymnosperms": 6, "unique_species_count": 2726.0, "countryCode": "LK" }, "geometry": { "type": "MultiPolygon", "coordinates": [ [ [ [ 81.075971866937536, 7.660202180199928 ], [ 81.33457936252853, 7.200334504271988 ], [ 81.102768403211371, 6.796056587760971 ], [ 80.612231144246152, 6.847334679215038 ], [ 80.352853816193274, 7.302003586484085 ], [ 80.584650116613815, 7.710435435403977 ], [ 81.075971866937536, 7.660202180199928 ] ] ] ] } },
{ "type": "Feature", "properties": { "geogrid_id": "807382223079370662", "seqnum": 24013.0, "lat_c": 7.3822230301134173, "lon_c": 79.370661510250812, "res": 8.0, "count_Mammals": 3, "count_Insects": 9, "count_Arachnids": 1, "count_Molluscs": 3, "count_Flowering Plants": 9, "count_Reptiles": 1, "count_Mosses": 0, "count_Amphibians": 0, "count_Birds": 18, "count_Basidiomycota": 0, "count_Ferns": 0, "count_Sac Fungi": 0, "count_Gymnosperms": 0, "unique_species_count": 44.0, "countryCode": "LK" }, "geometry": { "type": "MultiPolygon", "coordinates": [ [ [ [ 79.601566945511919, 7.795435713621496 ], [ 79.861649811871558, 7.344426150914584 ], [ 79.630608298858064, 6.932380492322952 ], [ 79.140218834212178, 6.967744029919892 ], [ 78.880109306372646, 7.415985958345614 ], [ 79.110354621379642, 7.831460574595966 ], [ 79.601566945511919, 7.795435713621496 ] ] ] ] } },
{ "type": "Feature", "properties": { "geogrid_id": "807603781081566621", "seqnum": 24258.0, "lat_c": 7.6037814372067176, "lon_c": 81.566620686042782, "res": 8.0, "count_Mammals": 11, "count_Insects": 161, "count_Arachnids": 14, "count_Molluscs": 6, "count_Flowering Plants": 123, "count_Reptiles": 27, "count_Mosses": 0, "count_Amphibians": 14, "count_Birds": 151, "count_Basidiomycota": 1, "count_Ferns": 0, "count_Sac Fungi": 0, "count_Gymnosperms": 0, "unique_species_count": 508.0, "countryCode": "LK" }, "geometry": { "type": "MultiPolygon", "coordinates": [ [ [ [ 81.798914384921915, 8.006495383877891 ], [ 82.056037598341305, 7.540216729433324 ], [ 81.824123144388196, 7.139245135715078 ], [ 81.33457936252853, 7.200334504271988 ], [ 81.075971866937536, 7.660202180199928 ], [ 81.308249935115867, 8.065291556629054 ], [ 81.798914384921915, 8.006495383877891 ] ] ] ] } },
{ "type": "Feature", "properties": { "geogrid_id": "807755286080093077", "seqnum": 24095.0, "lat_c": 7.7552864425219949, "lon_c": 80.09307669477468, "res": 8.0, "count_Mammals": 34, "count_Insects": 577, "count_Arachnids": 57, "count_Molluscs": 10, "count_Flowering Plants": 221, "count_Reptiles": 56, "count_Mosses": 0, "count_Amphibians": 15, "count_Birds": 176, "count_Basidiomycota": 0, "count_Ferns": 2, "count_Sac Fungi": 0, "count_Gymnosperms": 0, "unique_species_count": 1148.0, "countryCode": "LK" }, "geometry": { "type": "MultiPolygon", "coordinates": [ [ [ [ 80.324870408811947, 8.165079437382204 ], [ 80.584650116613815, 7.710435435403977 ], [ 80.352853816193274, 7.302003586484085 ], [ 79.861649811871558, 7.344426150914584 ], [ 79.601566945511919, 7.795435713621496 ], [ 79.832901882834435, 8.207501448005733 ], [ 80.324870408811947, 8.165079437382204 ] ] ] ] } },
{ "type": "Feature", "properties": { "geogrid_id": "808117895080816761", "seqnum": 24177.0, "lat_c": 8.117895391103243, "lon_c": 80.8167607263061, "res": 8.0, "count_Mammals": 37, "count_Insects": 463, "count_Arachnids": 45, "count_Molluscs": 7, "count_Flowering Plants": 371, "count_Reptiles": 54, "count_Mosses": 1, "count_Amphibians": 17, "count_Birds": 202, "count_Basidiomycota": 2, "count_Ferns": 5, "count_Sac Fungi": 1, "count_Gymnosperms": 0, "unique_species_count": 1205.0, "countryCode": "LK" }, "geometry": { "type": "MultiPolygon", "coordinates": [ [ [ [ 81.049190579855193, 8.524483547491682 ], [ 81.308249935115867, 8.065291556629054 ], [ 81.075971866937536, 7.660202180199928 ], [ 80.584650116613815, 7.710435435403977 ], [ 80.324870408811947, 8.165079437382204 ], [ 80.557023795871117, 8.57390940608126 ], [ 81.049190579855193, 8.524483547491682 ] ] ] ] } },
{ "type": "Feature", "properties": { "geogrid_id": "808245723079341099", "seqnum": 24014.0, "lat_c": 8.2457233727319004, "lon_c": 79.341099400500354, "res": 8.0, "count_Mammals": 3, "count_Insects": 26, "count_Arachnids": 3, "count_Molluscs": 6, "count_Flowering Plants": 22, "count_Reptiles": 5, "count_Mosses": 0, "count_Amphibians": 4, "count_Birds": 56, "count_Basidiomycota": 0, "count_Ferns": 0, "count_Sac Fungi": 0, "count_Gymnosperms": 0, "unique_species_count": 125.0, "countryCode": "LK" }, "geometry": { "type": "MultiPolygon", "coordinates": [ [ [ [ 79.572311692669302, 8.658881059682512 ], [ 79.832901882834435, 8.207501448005733 ], [ 79.601566945511919, 7.795435713621496 ], [ 79.110354621379642, 7.831460574595966 ], [ 78.849645737206757, 8.280226974992463 ], [ 79.080211256553156, 8.695443779171677 ], [ 79.572311692669302, 8.658881059682512 ] ] ] ] } },
{ "type": "Feature", "properties": { "geogrid_id": "808469614081540819", "seqnum": 24259.0, "lat_c": 8.4696140943602938, "lon_c": 81.540819216860484, "res": 8.0, "count_Mammals": 13, "count_Insects": 77, "count_Arachnids": 15, "count_Molluscs": 98, "count_Flowering Plants": 58, "count_Reptiles": 14, "count_Mosses": 0, "count_Amphibians": 5, "count_Birds": 105, "count_Basidiomycota": 0, "count_Ferns": 1, "count_Sac Fungi": 0, "count_Gymnosperms": 0, "unique_species_count": 386.0, "countryCode": "LK" }, "geometry": { "type": "MultiPolygon", "coordinates": [ [ [ [ 81.773700417529028, 8.873251099597688 ], [ 82.031486224695172, 8.40856040200841 ], [ 81.798914384921915, 8.006495383877891 ], [ 81.308249935115867, 8.065291556629054 ], [ 81.049190579855193, 8.524483547491682 ], [ 81.281951271471257, 8.930287760421969 ], [ 81.773700417529028, 8.873251099597688 ] ] ] ] } },
{ "type": "Feature", "properties": { "geogrid_id": "808618527080064647", "seqnum": 24096.0, "lat_c": 8.6185265864297946, "lon_c": 80.064646726748137, "res": 8.0, "count_Mammals": 30, "count_Insects": 209, "count_Arachnids": 25, "count_Molluscs": 6, "count_Flowering Plants": 159, "count_Reptiles": 38, "count_Mosses": 0, "count_Amphibians": 20, "count_Birds": 213, "count_Basidiomycota": 2, "count_Ferns": 0, "count_Sac Fungi": 0, "count_Gymnosperms": 1, "unique_species_count": 703.0, "countryCode": "LK" }, "geometry": { "type": "MultiPolygon", "coordinates": [ [ [ [ 80.296792512011038, 9.028606043274362 ], [ 80.557023795871117, 8.57390940608126 ], [ 80.324870408811947, 8.165079437382204 ], [ 79.832901882834435, 8.207501448005733 ], [ 79.572311692669302, 8.658881059682512 ], [ 79.803971921032144, 9.071029611139814 ], [ 80.296792512011038, 9.028606043274362 ] ] ] ] } },
{ "type": "Feature", "properties": { "geogrid_id": "808981869080789538", "seqnum": 24178.0, "lat_c": 8.9818686510675985, "lon_c": 80.789538405302991, "res": 8.0, "count_Mammals": 11, "count_Insects": 58, "count_Arachnids": 14, "count_Molluscs": 4, "count_Flowering Plants": 78, "count_Reptiles": 22, "count_Mosses": 0, "count_Amphibians": 12, "count_Birds": 94, "count_Basidiomycota": 0, "count_Ferns": 0, "count_Sac Fungi": 0, "count_Gymnosperms": 0, "unique_species_count": 293.0, "countryCode": "LK" }, "geometry": { "type": "MultiPolygon", "coordinates": [ [ [ [ 81.02242249257894, 9.389039078674118 ], [ 81.281951271471257, 8.930287760421969 ], [ 81.049190579855193, 8.524483547491682 ], [ 80.557023795871117, 8.57390940608126 ], [ 80.296792512011038, 9.028606043274362 ], [ 80.529338597346637, 9.437824676918146 ], [ 81.02242249257894, 9.389039078674118 ] ] ] ] } },
{ "type": "Feature", "properties": { "geogrid_id": "809109599079311277", "seqnum": 24015.0, "lat_c": 9.1095988697077583, "lon_c": 79.311277096858873, "res": 8.0, "count_Mammals": 0, "count_Insects": 17, "count_Arachnids": 2, "count_Molluscs": 4, "count_Flowering Plants": 6, "count_Reptiles": 4, "count_Mosses": 0, "count_Amphibians": 2, "count_Birds": 22, "count_Basidiomycota": 0, "count_Ferns": 0, "count_Sac Fungi": 0, "count_Gymnosperms": 0, "unique_species_count": 57.0, "countryCode": "LK" }, "geometry": { "type": "MultiPolygon", "coordinates": [ [ [ [ 79.542824427402778, 9.52277907963542 ], [ 79.803971921032144, 9.071029611139814 ], [ 79.572311692669302, 8.658881059682512 ], [ 79.080211256553156, 8.695443779171677 ], [ 78.818862182222347, 9.144713596108106 ], [ 79.049762461365191, 9.559787003185056 ], [ 79.542824427402778, 9.52277907963542 ] ] ] ] } },
{ "type": "Feature", "properties": { "geogrid_id": "809482255080036070", "seqnum": 24097.0, "lat_c": 9.4822554546022477, "lon_c": 80.036070330258681, "res": 8.0, "count_Mammals": 8, "count_Insects": 163, "count_Arachnids": 18, "count_Molluscs": 9, "count_Flowering Plants": 136, "count_Reptiles": 25, "count_Mosses": 0, "count_Amphibians": 8, "count_Birds": 106, "count_Basidiomycota": 1, "count_Ferns": 0, "count_Sac Fungi": 0, "count_Gymnosperms": 0, "unique_species_count": 474.0, "countryCode": "LK" }, "geometry": { "type": "MultiPolygon", "coordinates": [ [ [ [ 80.268605006374202, 9.892636525044546 ], [ 80.529338597346637, 9.437824676918146 ], [ 80.296792512011038, 9.028606043274362 ], [ 79.803971921032144, 9.071029611139814 ], [ 79.542824427402778, 9.52277907963542 ], [ 79.774843434248154, 9.935063214718291 ], [ 80.268605006374202, 9.892636525044546 ] ] ] ] } },
{ "type": "Feature", "properties": { "geogrid_id": "809846259080762291", "seqnum": 24179.0, "lat_c": 9.8462584978976864, "lon_c": 80.762290900296833, "res": 8.0, "count_Mammals": 0, "count_Insects": 2, "count_Arachnids": 0, "count_Molluscs": 0, "count_Flowering Plants": 4, "count_Reptiles": 2, "count_Mosses": 0, "count_Amphibians": 1, "count_Birds": 0, "count_Basidiomycota": 0, "count_Ferns": 0, "count_Sac Fungi": 0, "count_Gymnosperms": 0, "unique_species_count": 9.0, "countryCode": "LK" }, "geometry": { "type": "MultiPolygon", "coordinates": [ [ [ [ 80.995660538869728, 10.253975721788764 ], [ 81.255689511609461, 9.795493546572002 ], [ 81.02242249257894, 9.389039078674118 ], [ 80.529338597346637, 9.437824676918146 ], [ 80.268605006374202, 9.892636525044546 ], [ 80.501580332652267, 10.30224320172443 ], [ 80.995660538869728, 10.253975721788764 ] ] ] ] } },
{ "type": "Feature", "properties": { "geogrid_id": "810346523080007332", "seqnum": 24098.0, "lat_c": 10.34652286818608, "lon_c": 80.007331622796372, "res": 8.0, "count_Mammals": 0, "count_Insects": 0, "count_Arachnids": 0, "count_Molluscs": 10, "count_Flowering Plants": 0, "count_Reptiles": 0, "count_Mosses": 0, "count_Amphibians": 0, "count_Birds": 0, "count_Basidiomycota": 0, "count_Ferns": 0, "count_Sac Fungi": 0, "count_Gymnosperms": 0, "unique_species_count": 10.0, "countryCode": "LK" }, "geometry": { "type": "MultiPolygon", "coordinates": [ [ [ [ 80.240292472776943, 10.75722315370953 ], [ 80.501580332652267, 10.30224320172443 ], [ 80.268605006374202, 9.892636525044546 ], [ 79.774843434248154, 9.935063214718291 ], [ 79.513087121191859, 10.387188381449574 ], [ 79.745499586484911, 10.79965418285448 ], [ 80.240292472776943, 10.75722315370953 ] ] ] ] } }
]
}
