{
"type": "FeatureCollection",
"name": "LR",
"crs": { "type": "name", "properties": { "name": "urn:ogc:def:crs:OGC:1.3:CRS84" } },
"features": [
{ "type": "Feature", "properties": { "geogrid_id": "5204045501007880373", "seqnum": 14277.0, "lat_c": 4.0455012966099622, "lon_c": -7.8803730160018999, "res": 8.0, "count_Birds": 1, "count_Insects": 1, "count_Ferns": 0, "count_Molluscs": 62, "count_Reptiles": 7, "count_Amphibians": 0, "count_Flowering Plants": 0, "count_Arachnids": 0, "count_Mammals": 0, "count_Sac Fungi": 0, "count_Basidiomycota": 0, "unique_species_count": 71.0, "countryCode": "LR" }, "geometry": { "type": "MultiPolygon", "coordinates": [ [ [ [ -7.495284532821333, 4.311207078382455 ], [ -7.491649441555618, 3.768485790283005 ], [ -7.877187555999283, 3.50251053434127 ], [ -8.265368093922799, 3.779277256796754 ], [ -8.267349173639468, 4.324038548159008 ], [ -7.882797986053729, 4.590017068276154 ], [ -7.495284532821333, 4.311207078382455 ] ] ] ] } },
{ "type": "Feature", "properties": { "geogrid_id": "5204057535008651814", "seqnum": 14195.0, "lat_c": 4.0575349746347138, "lon_c": -8.6518141201378267, "res": 8.0, "count_Birds": 0, "count_Insects": 0, "count_Ferns": 0, "count_Molluscs": 8, "count_Reptiles": 0, "count_Amphibians": 0, "count_Flowering Plants": 0, "count_Arachnids": 0, "count_Mammals": 0, "count_Sac Fungi": 0, "count_Basidiomycota": 0, "unique_species_count": 8.0, "countryCode": "LR" }, "geometry": { "type": "MultiPolygon", "coordinates": [ [ [ [ -8.267349173639468, 4.324038548159008 ], [ -8.265368093922799, 3.779277256796754 ], [ -8.650295586952089, 3.512538658518198 ], [ -9.036218308282152, 3.790510481266776 ], [ -9.036335211214741, 4.33739342760992 ], [ -8.652382380682837, 4.604210167959581 ], [ -8.267349173639468, 4.324038548159008 ] ] ] ] } },
{ "type": "Feature", "properties": { "geogrid_id": "5204124900012461783", "seqnum": 13785.0, "lat_c": 4.1248998124415683, "lon_c": -12.461782548878837, "res": 8.0, "count_Birds": 0, "count_Insects": 0, "count_Ferns": 0, "count_Molluscs": 2, "count_Reptiles": 0, "count_Amphibians": 0, "count_Flowering Plants": 0, "count_Arachnids": 0, "count_Mammals": 0, "count_Sac Fungi": 0, "count_Basidiomycota": 0, "unique_species_count": 2.0, "countryCode": "LR" }, "geometry": { "type": "MultiPolygon", "coordinates": [ [ [ [ -12.079497081323868, 4.396019346176285 ], [ -12.089044229807058, 3.839841441076717 ], [ -12.471772111558527, 3.568700673867409 ], [ -12.844154653924724, 3.853268515693339 ], [ -12.831616028036498, 4.411970082978724 ], [ -12.449640362430291, 4.683625153117576 ], [ -12.079497081323868, 4.396019346176285 ] ] ] ] } },
{ "type": "Feature", "properties": { "geogrid_id": "5204855467007498135", "seqnum": 14278.0, "lat_c": 4.8554665153153236, "lon_c": -7.4981350515514356, "res": 8.0, "count_Birds": 3, "count_Insects": 2, "count_Ferns": 0, "count_Molluscs": 0, "count_Reptiles": 2, "count_Amphibians": 0, "count_Flowering Plants": 9, "count_Arachnids": 0, "count_Mammals": 5, "count_Sac Fungi": 0, "count_Basidiomycota": 0, "unique_species_count": 21.0, "countryCode": "LR" }, "geometry": { "type": "MultiPolygon", "coordinates": [ [ [ [ -7.113334825473504, 5.120382993091233 ], [ -7.110076785397228, 4.576391043317353 ], [ -7.495284532821333, 4.311207078382455 ], [ -7.882797986053729, 4.590017068276154 ], [ -7.884214058146154, 5.136245469432084 ], [ -7.499948291056265, 5.401455199084803 ], [ -7.113334825473504, 5.120382993091233 ] ] ] ] } },
{ "type": "Feature", "properties": { "geogrid_id": "5204870496008268350", "seqnum": 14196.0, "lat_c": 4.870495669632513, "lon_c": -8.2683503723121099, "res": 8.0, "count_Birds": 16, "count_Insects": 8, "count_Ferns": 0, "count_Molluscs": 0, "count_Reptiles": 28, "count_Amphibians": 29, "count_Flowering Plants": 19, "count_Arachnids": 1, "count_Mammals": 1, "count_Sac Fungi": 0, "count_Basidiomycota": 0, "unique_species_count": 102.0, "countryCode": "LR" }, "geometry": { "type": "MultiPolygon", "coordinates": [ [ [ [ -7.884214058146154, 5.136245469432084 ], [ -7.882797986053729, 4.590017068276154 ], [ -8.267349173639468, 4.324038548159008 ], [ -8.652382380682837, 4.604210167959581 ], [ -8.651722440503905, 5.152765433739891 ], [ -8.268088254798132, 5.418853847802444 ], [ -7.884214058146154, 5.136245469432084 ] ] ] ] } },
{ "type": "Feature", "properties": { "geogrid_id": "5204886135009035259", "seqnum": 14114.0, "lat_c": 4.8861354507166572, "lon_c": -9.0352594465408291, "res": 8.0, "count_Birds": 0, "count_Insects": 1, "count_Ferns": 0, "count_Molluscs": 0, "count_Reptiles": 3, "count_Amphibians": 2, "count_Flowering Plants": 7, "count_Arachnids": 0, "count_Mammals": 0, "count_Sac Fungi": 0, "count_Basidiomycota": 0, "unique_species_count": 13.0, "countryCode": "LR" }, "geometry": { "type": "MultiPolygon", "coordinates": [ [ [ [ -8.651722440503905, 5.152765433739891 ], [ -8.652382380682837, 4.604210167959581 ], [ -9.036335211214741, 4.33739342760992 ], [ -9.418724008984361, 4.61896878092282 ], [ -9.415748002991721, 5.169940750670485 ], [ -9.03267490363036, 5.436956251188923 ], [ -8.651722440503905, 5.152765433739891 ] ] ] ] } },
{ "type": "Feature", "properties": { "geogrid_id": "5204954763012067728", "seqnum": 13786.0, "lat_c": 4.9547625810735836, "lon_c": -12.067728089555397, "res": 8.0, "count_Birds": 0, "count_Insects": 0, "count_Ferns": 0, "count_Molluscs": 0, "count_Reptiles": 0, "count_Amphibians": 0, "count_Flowering Plants": 0, "count_Arachnids": 0, "count_Mammals": 1, "count_Sac Fungi": 0, "count_Basidiomycota": 0, "unique_species_count": 1.0, "countryCode": "LR" }, "geometry": { "type": "MultiPolygon", "coordinates": [ [ [ [ -11.685855242624068, 5.225376323379805 ], [ -11.697273986263871, 4.666621232644831 ], [ -12.079497081323868, 4.396019346176285 ], [ -12.449640362430291, 4.683625153117576 ], [ -12.434893097597417, 5.245150185426241 ], [ -12.053271464588708, 5.516351649626134 ], [ -11.685855242624068, 5.225376323379805 ] ] ] ] } },
{ "type": "Feature", "properties": { "geogrid_id": "5204973426012816553", "seqnum": 13704.0, "lat_c": 4.9734262340467019, "lon_c": -12.816553370442803, "res": 8.0, "count_Birds": 0, "count_Insects": 0, "count_Ferns": 0, "count_Molluscs": 0, "count_Reptiles": 0, "count_Amphibians": 0, "count_Flowering Plants": 0, "count_Arachnids": 0, "count_Mammals": 1, "count_Sac Fungi": 0, "count_Basidiomycota": 0, "unique_species_count": 1.0, "countryCode": "LR" }, "geometry": { "type": "MultiPolygon", "coordinates": [ [ [ [ -12.434893097597417, 5.245150185426241 ], [ -12.449640362430291, 4.683625153117576 ], [ -12.831616028036498, 4.411970082978724 ], [ -13.198276156829646, 4.701185938086502 ], [ -13.179936182029929, 5.265567599862435 ], [ -12.798458921763951, 5.537933258929654 ], [ -12.434893097597417, 5.245150185426241 ] ] ] ] } },
{ "type": "Feature", "properties": { "geogrid_id": "5205684396007884332", "seqnum": 14197.0, "lat_c": 5.6843958779229951, "lon_c": -7.88433215671889, "res": 8.0, "count_Birds": 17, "count_Insects": 21, "count_Ferns": 8, "count_Molluscs": 0, "count_Reptiles": 3, "count_Amphibians": 1, "count_Flowering Plants": 153, "count_Arachnids": 0, "count_Mammals": 5, "count_Sac Fungi": 0, "count_Basidiomycota": 0, "unique_species_count": 208.0, "countryCode": "LR" }, "geometry": { "type": "MultiPolygon", "coordinates": [ [ [ [ -7.500429402907727, 5.949386782716487 ], [ -7.499948291056265, 5.401455199084803 ], [ -7.884214058146154, 5.136245469432084 ], [ -8.268088254798132, 5.418853847802444 ], [ -8.266232411502957, 5.969342453123049 ], [ -7.882814401513938, 6.234702745027837 ], [ -7.500429402907727, 5.949386782716487 ] ] ] ] } },
{ "type": "Feature", "properties": { "geogrid_id": "5205703425008649511", "seqnum": 14115.0, "lat_c": 5.7034252277928141, "lon_c": -8.6495111452920952, "res": 8.0, "count_Birds": 42, "count_Insects": 30, "count_Ferns": 7, "count_Molluscs": 1, "count_Reptiles": 5, "count_Amphibians": 7, "count_Flowering Plants": 180, "count_Arachnids": 2, "count_Mammals": 3, "count_Sac Fungi": 0, "count_Basidiomycota": 0, "unique_species_count": 277.0, "countryCode": "LR" }, "geometry": { "type": "MultiPolygon", "coordinates": [ [ [ [ -8.266232411502957, 5.969342453123049 ], [ -8.268088254798132, 5.418853847802444 ], [ -8.651722440503905, 5.152765433739891 ], [ -9.03267490363036, 5.436956251188923 ], [ -9.028213412169206, 5.990101269364818 ], [ -8.64537113399933, 6.256440768012981 ], [ -8.266232411502957, 5.969342453123049 ] ] ] ] } },
{ "type": "Feature", "properties": { "geogrid_id": "5205723206009410947", "seqnum": 14033.0, "lat_c": 5.7232057770034492, "lon_c": -9.4109466778256028, "res": 8.0, "count_Birds": 1, "count_Insects": 7, "count_Ferns": 1, "count_Molluscs": 1, "count_Reptiles": 0, "count_Amphibians": 1, "count_Flowering Plants": 63, "count_Arachnids": 0, "count_Mammals": 0, "count_Sac Fungi": 0, "count_Basidiomycota": 0, "unique_species_count": 74.0, "countryCode": "LR" }, "geometry": { "type": "MultiPolygon", "coordinates": [ [ [ [ -9.028213412169206, 5.990101269364818 ], [ -9.03267490363036, 5.436956251188923 ], [ -9.415748002991721, 5.169940750670485 ], [ -9.793594849153907, 5.455759885997248 ], [ -9.786252963773983, 6.011659872145698 ], [ -9.403900870231642, 6.279032179652703 ], [ -9.028213412169206, 5.990101269364818 ] ] ] ] } },
{ "type": "Feature", "properties": { "geogrid_id": "5205743735010168524", "seqnum": 13951.0, "lat_c": 5.7437345588015276, "lon_c": -10.168524151057357, "res": 8.0, "count_Birds": 76, "count_Insects": 104, "count_Ferns": 4, "count_Molluscs": 17, "count_Reptiles": 12, "count_Amphibians": 6, "count_Flowering Plants": 107, "count_Arachnids": 2, "count_Mammals": 5, "count_Sac Fungi": 0, "count_Basidiomycota": 1, "unique_species_count": 334.0, "countryCode": "LR" }, "geometry": { "type": "MultiPolygon", "coordinates": [ [ [ [ -9.786252963773983, 6.011659872145698 ], [ -9.793594849153907, 5.455759885997248 ], [ -10.176181897662014, 5.187769208371365 ], [ -10.550738073061877, 5.475262141911505 ], [ -10.540235483930562, 6.034014789261152 ], [ -10.158283157358831, 6.302473059771405 ], [ -9.786252963773983, 6.011659872145698 ] ] ] ] } },
{ "type": "Feature", "properties": { "geogrid_id": "5205809779012417017", "seqnum": 13705.0, "lat_c": 5.8097791667315821, "lon_c": -12.417017025235499, "res": 8.0, "count_Birds": 0, "count_Insects": 0, "count_Ferns": 0, "count_Molluscs": 0, "count_Reptiles": 0, "count_Amphibians": 0, "count_Flowering Plants": 0, "count_Arachnids": 0, "count_Mammals": 1, "count_Sac Fungi": 0, "count_Basidiomycota": 0, "unique_species_count": 1.0, "countryCode": "LR" }, "geometry": { "type": "MultiPolygon", "coordinates": [ [ [ [ -12.035586737808252, 6.081099126767895 ], [ -12.053271464588708, 5.516351649626134 ], [ -12.434893097597417, 5.245150185426241 ], [ -12.798458921763951, 5.537933258929654 ], [ -12.960156053657421, 5.974799309233505 ], [ -12.578820481636685, 6.247078156558214 ], [ -12.035586737808252, 6.081099126767895 ] ] ] ] } },
{ "type": "Feature", "properties": { "geogrid_id": "5206522219008262396", "seqnum": 14116.0, "lat_c": 6.522218697061585, "lon_c": -8.262395968254534, "res": 8.0, "count_Birds": 4, "count_Insects": 15, "count_Ferns": 1, "count_Molluscs": 1, "count_Reptiles": 1, "count_Amphibians": 1, "count_Flowering Plants": 30, "count_Arachnids": 1, "count_Mammals": 3, "count_Sac Fungi": 0, "count_Basidiomycota": 0, "unique_species_count": 57.0, "countryCode": "LR" }, "geometry": { "type": "MultiPolygon", "coordinates": [ [ [ [ -7.879264072275858, 6.787429502553967 ], [ -7.882814401513938, 6.234702745027837 ], [ -8.266232411502957, 5.969342453123049 ], [ -8.64537113399933, 6.256440768012981 ], [ -8.638859781134805, 6.812094148720867 ], [ -8.256123859694801, 7.077771988080528 ], [ -7.879264072275858, 6.787429502553967 ] ] ] ] } },
{ "type": "Feature", "properties": { "geogrid_id": "5206545846009021444", "seqnum": 14034.0, "lat_c": 6.5458455750895466, "lon_c": -9.0214443072065134, "res": 8.0, "count_Birds": 2, "count_Insects": 3, "count_Ferns": 1, "count_Molluscs": 0, "count_Reptiles": 0, "count_Amphibians": 0, "count_Flowering Plants": 4, "count_Arachnids": 0, "count_Mammals": 17, "count_Sac Fungi": 0, "count_Basidiomycota": 0, "unique_species_count": 27.0, "countryCode": "LR" }, "geometry": { "type": "MultiPolygon", "coordinates": [ [ [ [ -8.638859781134805, 6.812094148720867 ], [ -8.64537113399933, 6.256440768012981 ], [ -9.028213412169206, 5.990101269364818 ], [ -9.403900870231642, 6.279032179652703 ], [ -9.394119431293625, 6.837721041423643 ], [ -9.011861557051374, 7.104498436294846 ], [ -8.638859781134805, 6.812094148720867 ] ] ] ] } },
{ "type": "Feature", "properties": { "geogrid_id": "5206570377009776252", "seqnum": 13952.0, "lat_c": 6.5703771929214616, "lon_c": -9.776252234398541, "res": 8.0, "count_Birds": 0, "count_Insects": 2, "count_Ferns": 0, "count_Molluscs": 10, "count_Reptiles": 15, "count_Amphibians": 5, "count_Flowering Plants": 4, "count_Arachnids": 2, "count_Mammals": 0, "count_Sac Fungi": 0, "count_Basidiomycota": 0, "unique_species_count": 38.0, "countryCode": "LR" }, "geometry": { "type": "MultiPolygon", "coordinates": [ [ [ [ -9.394119431293625, 6.837721041423643 ], [ -9.403900870231642, 6.279032179652703 ], [ -9.786252963773983, 6.011659872145698 ], [ -10.158283157358831, 6.302473059771405 ], [ -10.144916686490863, 6.86430506330913 ], [ -9.763032917129406, 7.132241267184848 ], [ -9.394119431293625, 6.837721041423643 ] ] ] ] } },
{ "type": "Feature", "properties": { "geogrid_id": "5206595809010526699", "seqnum": 13870.0, "lat_c": 6.5958089939310822, "lon_c": -10.526698575641467, "res": 8.0, "count_Birds": 210, "count_Insects": 191, "count_Ferns": 4, "count_Molluscs": 50, "count_Reptiles": 33, "count_Amphibians": 25, "count_Flowering Plants": 127, "count_Arachnids": 7, "count_Mammals": 17, "count_Sac Fungi": 15, "count_Basidiomycota": 23, "unique_species_count": 702.0, "countryCode": "LR" }, "geometry": { "type": "MultiPolygon", "coordinates": [ [ [ [ -10.144916686490863, 6.86430506330913 ], [ -10.158283157358831, 6.302473059771405 ], [ -10.540235483930562, 6.034014789261152 ], [ -10.90840170465305, 6.32675936187932 ], [ -10.891129985874958, 6.891840937171577 ], [ -10.509511227002861, 7.160994566411733 ], [ -10.144916686490863, 6.86430506330913 ] ] ] ] } },
{ "type": "Feature", "properties": { "geogrid_id": "5206622136011272667", "seqnum": 13788.0, "lat_c": 6.6221362806465596, "lon_c": -11.272666643541822, "res": 8.0, "count_Birds": 34, "count_Insects": 26, "count_Ferns": 3, "count_Molluscs": 9, "count_Reptiles": 1, "count_Amphibians": 3, "count_Flowering Plants": 120, "count_Arachnids": 3, "count_Mammals": 1, "count_Sac Fungi": 1, "count_Basidiomycota": 2, "unique_species_count": 203.0, "countryCode": "LR" }, "geometry": { "type": "MultiPolygon", "coordinates": [ [ [ [ -10.891129985874958, 6.891840937171577 ], [ -10.90840170465305, 6.32675936187932 ], [ -11.290049307250213, 6.057162437930148 ], [ -11.654144440111967, 6.351886915655657 ], [ -11.816104401394078, 6.79005538393891 ], [ -11.434676559352724, 7.060741355657225 ], [ -10.891129985874958, 6.891840937171577 ] ] ] ] } },
{ "type": "Feature", "properties": { "geogrid_id": "5207330884011053171", "seqnum": 13789.0, "lat_c": 7.3308839106555528, "lon_c": -11.053170822791635, "res": 8.0, "count_Birds": 69, "count_Insects": 37, "count_Ferns": 1, "count_Molluscs": 2, "count_Reptiles": 28, "count_Amphibians": 35, "count_Flowering Plants": 51, "count_Arachnids": 4, "count_Mammals": 17, "count_Sac Fungi": 0, "count_Basidiomycota": 0, "unique_species_count": 244.0, "countryCode": "LR" }, "geometry": { "type": "MultiPolygon", "coordinates": [ [ [ [ -10.671563811580869, 7.600476766716898 ], [ -10.509511227002861, 7.160994566411733 ], [ -10.891129985874958, 6.891840937171577 ], [ -11.434676559352724, 7.060741355657225 ], [ -11.592826098417589, 7.502403037751964 ], [ -11.211252071593355, 7.773043711060592 ], [ -10.671563811580869, 7.600476766716898 ] ] ] ] } },
{ "type": "Feature", "properties": { "geogrid_id": "5207370703008629456", "seqnum": 14035.0, "lat_c": 7.370703186017689, "lon_c": -8.6294555071822625, "res": 8.0, "count_Birds": 155, "count_Insects": 149, "count_Ferns": 5, "count_Molluscs": 2, "count_Reptiles": 6, "count_Amphibians": 3, "count_Flowering Plants": 103, "count_Arachnids": 1, "count_Mammals": 35, "count_Sac Fungi": 0, "count_Basidiomycota": 0, "unique_species_count": 459.0, "countryCode": "LR" }, "geometry": { "type": "MultiPolygon", "coordinates": [ [ [ [ -8.246878257287843, 7.636329075894837 ], [ -8.256123859694801, 7.077771988080528 ], [ -8.638859781134805, 6.812094148720867 ], [ -9.011861557051374, 7.104498436294846 ], [ -8.998867797936144, 7.666408694896484 ], [ -8.616540734640594, 7.932627135108081 ], [ -8.246878257287843, 7.636329075894837 ] ] ] ] } },
{ "type": "Feature", "properties": { "geogrid_id": "5207399611009381024", "seqnum": 13953.0, "lat_c": 7.3996112686737883, "lon_c": -9.3810242564952731, "res": 8.0, "count_Birds": 36, "count_Insects": 43, "count_Ferns": 1, "count_Molluscs": 20, "count_Reptiles": 26, "count_Amphibians": 1, "count_Flowering Plants": 18, "count_Arachnids": 0, "count_Mammals": 1, "count_Sac Fungi": 0, "count_Basidiomycota": 1, "unique_species_count": 147.0, "countryCode": "LR" }, "geometry": { "type": "MultiPolygon", "coordinates": [ [ [ [ -8.998867797936144, 7.666408694896484 ], [ -9.011861557051374, 7.104498436294846 ], [ -9.394119431293625, 6.837721041423643 ], [ -9.763032917129406, 7.132241267184848 ], [ -9.745935030975627, 7.697623282108706 ], [ -9.363931687363433, 7.96508553815447 ], [ -8.998867797936144, 7.666408694896484 ] ] ] ] } },
{ "type": "Feature", "properties": { "geogrid_id": "5207429591010127787", "seqnum": 13871.0, "lat_c": 7.4295908128936574, "lon_c": -10.127787244778297, "res": 8.0, "count_Birds": 8, "count_Insects": 202, "count_Ferns": 2, "count_Molluscs": 1, "count_Reptiles": 1, "count_Amphibians": 1, "count_Flowering Plants": 56, "count_Arachnids": 10, "count_Mammals": 10, "count_Sac Fungi": 0, "count_Basidiomycota": 1, "unique_species_count": 292.0, "countryCode": "LR" }, "geometry": { "type": "MultiPolygon", "coordinates": [ [ [ [ -9.745935030975627, 7.697623282108706 ], [ -9.763032917129406, 7.132241267184848 ], [ -10.144916686490863, 6.86430506330913 ], [ -10.509511227002861, 7.160994566411733 ], [ -10.671563811580869, 7.600476766716898 ], [ -10.289832251767212, 7.869513606542941 ], [ -9.745935030975627, 7.697623282108706 ] ] ] ] } },
{ "type": "Feature", "properties": { "geogrid_id": "5208043138010829554", "seqnum": 13790.0, "lat_c": 8.0431376561188141, "lon_c": -10.829554075386275, "res": 8.0, "count_Birds": 1, "count_Insects": 2, "count_Ferns": 0, "count_Molluscs": 0, "count_Reptiles": 0, "count_Amphibians": 0, "count_Flowering Plants": 1, "count_Arachnids": 0, "count_Mammals": 0, "count_Sac Fungi": 0, "count_Basidiomycota": 0, "unique_species_count": 4.0, "countryCode": "LR" }, "geometry": { "type": "MultiPolygon", "coordinates": [ [ [ [ -10.447708495853693, 8.312678671669651 ], [ -10.289832251767212, 7.869513606542941 ], [ -10.671563811580869, 7.600476766716898 ], [ -11.211252071593355, 7.773043711060592 ], [ -11.36568017900351, 8.218015389441586 ], [ -10.983797885060465, 8.488661920283363 ], [ -10.447708495853693, 8.312678671669651 ] ] ] ] } },
{ "type": "Feature", "properties": { "geogrid_id": "5208137988009907953", "seqnum": 13872.0, "lat_c": 8.1379880756907514, "lon_c": -9.9079529709111753, "res": 8.0, "count_Birds": 7, "count_Insects": 21, "count_Ferns": 2, "count_Molluscs": 30, "count_Reptiles": 2, "count_Amphibians": 7, "count_Flowering Plants": 80, "count_Arachnids": 0, "count_Mammals": 18, "count_Sac Fungi": 0, "count_Basidiomycota": 0, "unique_species_count": 167.0, "countryCode": "LR" }, "geometry": { "type": "MultiPolygon", "coordinates": [ [ [ [ -9.525902893461321, 8.405893780566297 ], [ -9.363931687363433, 7.96508553815447 ], [ -9.745935030975627, 7.697623282108706 ], [ -10.289832251767212, 7.869513606542941 ], [ -10.447708495853693, 8.312678671669651 ], [ -10.06569179517153, 8.581660526359778 ], [ -9.525902893461321, 8.405893780566297 ] ] ] ] } }
]
}
