{
"type": "FeatureCollection",
"name": "LT",
"crs": { "type": "name", "properties": { "name": "urn:ogc:def:crs:OGC:1.3:CRS84" } },
"features": [
{ "type": "Feature", "properties": { "geogrid_id": "854123313025887865", "seqnum": 20245.0, "lat_c": 54.123313343559559, "lon_c": 25.887864840878606, "res": 8.0, "count_Flowering Plants": 240, "count_Sac Fungi": 48, "count_Arachnids": 11, "count_Reptiles": 3, "count_Basidiomycota": 23, "count_Ferns": 2, "count_Insects": 632, "count_Birds": 31, "count_Gymnosperms": 3, "count_Mosses": 10, "count_Molluscs": 1, "count_Mammals": 4, "count_Amphibians": 1, "unique_species_count": 1009.0, "countryCode": "LT" }, "geometry": { "type": "MultiPolygon", "coordinates": [ [ [ [ 26.092635647822618, 54.572865769831246 ], [ 26.784041666987747, 54.334429872888151 ], [ 26.572465981796054, 53.885707959058031 ], [ 25.694066851669028, 53.670968212662736 ], [ 25.007747943747116, 53.904176388386148 ], [ 25.194700968471786, 54.357207794980468 ], [ 26.092635647822618, 54.572865769831246 ] ] ] ] } },
{ "type": "Feature", "properties": { "geogrid_id": "854123865022742574", "seqnum": 20083.0, "lat_c": 54.123864840739841, "lon_c": 22.742574467066721, "res": 8.0, "count_Flowering Plants": 304, "count_Sac Fungi": 22, "count_Arachnids": 15, "count_Reptiles": 4, "count_Basidiomycota": 47, "count_Ferns": 4, "count_Insects": 966, "count_Birds": 157, "count_Gymnosperms": 3, "count_Mosses": 11, "count_Molluscs": 11, "count_Mammals": 12, "count_Amphibians": 4, "unique_species_count": 1560.0, "countryCode": "LT" }, "geometry": { "type": "MultiPolygon", "coordinates": [ [ [ [ 22.898214433463512, 54.580880168140737 ], [ 23.609870843317317, 54.359219480039933 ], [ 23.446903092002792, 53.902685325619508 ], [ 22.595633606099149, 53.664904120903778 ], [ 21.890344322649835, 53.881737408591597 ], [ 22.029938747104598, 54.341059861495715 ], [ 22.898214433463512, 54.580880168140737 ] ] ] ] } },
{ "type": "Feature", "properties": { "geogrid_id": "854133622024313033", "seqnum": 20164.0, "lat_c": 54.133622284640651, "lon_c": 24.313033331226357, "res": 8.0, "count_Flowering Plants": 686, "count_Sac Fungi": 168, "count_Arachnids": 113, "count_Reptiles": 8, "count_Basidiomycota": 234, "count_Ferns": 10, "count_Insects": 2373, "count_Birds": 170, "count_Gymnosperms": 3, "count_Mosses": 39, "count_Molluscs": 37, "count_Mammals": 35, "count_Amphibians": 11, "unique_species_count": 3887.0, "countryCode": "LT" }, "geometry": { "type": "MultiPolygon", "coordinates": [ [ [ [ 24.492913639503897, 54.587303982119288 ], [ 25.194700968471786, 54.357207794980468 ], [ 25.007747943747116, 53.904176388386148 ], [ 24.142962379494623, 53.677608010682071 ], [ 23.446903092002792, 53.902685325619508 ], [ 23.609870843317317, 54.359219480039933 ], [ 24.492913639503897, 54.587303982119288 ] ] ] ] } },
{ "type": "Feature", "properties": { "geogrid_id": "854798515022178025", "seqnum": 20084.0, "lat_c": 54.798515206014599, "lon_c": 22.178024610981549, "res": 8.0, "count_Flowering Plants": 261, "count_Sac Fungi": 80, "count_Arachnids": 44, "count_Reptiles": 4, "count_Basidiomycota": 72, "count_Ferns": 7, "count_Insects": 1004, "count_Birds": 96, "count_Gymnosperms": 4, "count_Mosses": 28, "count_Molluscs": 10, "count_Mammals": 18, "count_Amphibians": 4, "unique_species_count": 1632.0, "countryCode": "LT" }, "geometry": { "type": "MultiPolygon", "coordinates": [ [ [ [ 22.335295771525281, 55.253907729533722 ], [ 23.063255960504737, 55.035744887204977 ], [ 22.898214433463512, 54.580880168140737 ], [ 22.029938747104598, 54.341059861495715 ], [ 21.308964847005097, 54.5541824515456 ], [ 21.449268882000347, 55.012034168914397 ], [ 22.335295771525281, 55.253907729533722 ] ] ] ] } },
{ "type": "Feature", "properties": { "geogrid_id": "854807555025392435", "seqnum": 20246.0, "lat_c": 54.807554641480642, "lon_c": 25.392434621202796, "res": 8.0, "count_Flowering Plants": 1000, "count_Sac Fungi": 355, "count_Arachnids": 211, "count_Reptiles": 6, "count_Basidiomycota": 460, "count_Ferns": 16, "count_Insects": 2716, "count_Birds": 196, "count_Gymnosperms": 8, "count_Mosses": 95, "count_Molluscs": 56, "count_Mammals": 36, "count_Amphibians": 11, "unique_species_count": 5166.0, "countryCode": "LT" }, "geometry": { "type": "MultiPolygon", "coordinates": [ [ [ [ 25.258317729581481, 55.366870183970477 ], [ 25.970118442629431, 55.133121284094948 ], [ 26.092635647822618, 54.572865769831246 ], [ 25.194700968471786, 54.357207794980468 ], [ 24.492913639503897, 54.587303982119288 ], [ 24.683374652193553, 55.038406822132572 ], [ 25.258317729581481, 55.366870183970477 ] ] ] ] } },
{ "type": "Feature", "properties": { "geogrid_id": "854813513023782448", "seqnum": 20165.0, "lat_c": 54.813513094662326, "lon_c": 23.782448088634819, "res": 8.0, "count_Flowering Plants": 814, "count_Sac Fungi": 225, "count_Arachnids": 132, "count_Reptiles": 6, "count_Basidiomycota": 352, "count_Ferns": 13, "count_Insects": 3022, "count_Birds": 227, "count_Gymnosperms": 9, "count_Mosses": 69, "count_Molluscs": 56, "count_Mammals": 44, "count_Amphibians": 10, "unique_species_count": 4979.0, "countryCode": "LT" }, "geometry": { "type": "MultiPolygon", "coordinates": [ [ [ [ 23.965398040425516, 55.265331106528492 ], [ 24.683374652193553, 55.038406822132572 ], [ 24.492913639503897, 54.587303982119288 ], [ 23.609870843317317, 54.359219480039933 ], [ 22.898214433463512, 54.580880168140737 ], [ 23.063255960504737, 55.035744887204977 ], [ 23.965398040425516, 55.265331106528492 ] ] ] ] } },
{ "type": "Feature", "properties": { "geogrid_id": "854895543026672851", "seqnum": 20327.0, "lat_c": 54.895542503796605, "lon_c": 26.672850868548792, "res": 8.0, "count_Flowering Plants": 430, "count_Sac Fungi": 124, "count_Arachnids": 52, "count_Reptiles": 5, "count_Basidiomycota": 210, "count_Ferns": 9, "count_Insects": 1269, "count_Birds": 107, "count_Gymnosperms": 3, "count_Mosses": 43, "count_Molluscs": 35, "count_Mammals": 19, "count_Amphibians": 6, "unique_species_count": 2312.0, "countryCode": "LT" }, "geometry": { "type": "MultiPolygon", "coordinates": [ [ [ [ 26.564231159144729, 55.453763649743024 ], [ 27.269438794246657, 55.21316259618569 ], [ 27.366585739799373, 54.654224970319881 ], [ 26.784041666987747, 54.334429872888151 ], [ 26.092635647822618, 54.572865769831246 ], [ 25.970118442629431, 55.133121284094948 ], [ 26.564231159144729, 55.453763649743024 ] ] ] ] } },
{ "type": "Feature", "properties": { "geogrid_id": "855426356019965967", "seqnum": 20004.0, "lat_c": 55.426356134467753, "lon_c": 19.965967412017491, "res": 8.0, "count_Flowering Plants": 0, "count_Sac Fungi": 0, "count_Arachnids": 0, "count_Reptiles": 0, "count_Basidiomycota": 0, "count_Ferns": 0, "count_Insects": 0, "count_Birds": 12, "count_Gymnosperms": 0, "count_Mosses": 0, "count_Molluscs": 0, "count_Mammals": 0, "count_Amphibians": 0, "unique_species_count": 12.0, "countryCode": "LT" }, "geometry": { "type": "MultiPolygon", "coordinates": [ [ [ [ 20.098505050095905, 55.883046722686935 ], [ 20.85294247597453, 55.677653466513981 ], [ 20.711922198245976, 55.221345411299559 ], [ 19.841914049312038, 54.967852743385897 ], [ 19.095812143508212, 55.168218922500017 ], [ 19.211395735490701, 55.626972461022561 ], [ 20.098505050095905, 55.883046722686935 ] ] ] ] } },
{ "type": "Feature", "properties": { "geogrid_id": "855467909021598533", "seqnum": 20085.0, "lat_c": 55.467908663463696, "lon_c": 21.59853338185345, "res": 8.0, "count_Flowering Plants": 596, "count_Sac Fungi": 186, "count_Arachnids": 84, "count_Reptiles": 5, "count_Basidiomycota": 117, "count_Ferns": 7, "count_Insects": 1578, "count_Birds": 246, "count_Gymnosperms": 6, "count_Mosses": 25, "count_Molluscs": 34, "count_Mammals": 29, "count_Amphibians": 8, "unique_species_count": 2921.0, "countryCode": "LT" }, "geometry": { "type": "MultiPolygon", "coordinates": [ [ [ [ 21.757495059389107, 55.921602443075081 ], [ 22.502498160843558, 55.707023748606773 ], [ 22.335295771525281, 55.253907729533722 ], [ 21.449268882000347, 55.012034168914397 ], [ 20.711922198245976, 55.221345411299559 ], [ 20.85294247597453, 55.677653466513981 ], [ 21.757495059389107, 55.921602443075081 ] ] ] ] } },
{ "type": "Feature", "properties": { "geogrid_id": "855488235023238454", "seqnum": 20166.0, "lat_c": 55.488234795548166, "lon_c": 23.238453801459659, "res": 8.0, "count_Flowering Plants": 567, "count_Sac Fungi": 75, "count_Arachnids": 53, "count_Reptiles": 5, "count_Basidiomycota": 142, "count_Ferns": 6, "count_Insects": 1354, "count_Birds": 173, "count_Gymnosperms": 5, "count_Mosses": 29, "count_Molluscs": 26, "count_Mammals": 24, "count_Amphibians": 9, "unique_species_count": 2468.0, "countryCode": "LT" }, "geometry": { "type": "MultiPolygon", "coordinates": [ [ [ [ 23.067895607498112, 56.044202103428567 ], [ 23.80726035538164, 55.822505711765835 ], [ 23.965398040425516, 55.265331106528492 ], [ 23.063255960504737, 55.035744887204977 ], [ 22.335295771525281, 55.253907729533722 ], [ 22.502498160843558, 55.707023748606773 ], [ 23.067895607498112, 56.044202103428567 ] ] ] ] } },
{ "type": "Feature", "properties": { "geogrid_id": "855596696024537384", "seqnum": 20247.0, "lat_c": 55.596696442970867, "lon_c": 24.537384264215476, "res": 8.0, "count_Flowering Plants": 567, "count_Sac Fungi": 116, "count_Arachnids": 43, "count_Reptiles": 6, "count_Basidiomycota": 137, "count_Ferns": 10, "count_Insects": 1449, "count_Birds": 147, "count_Gymnosperms": 3, "count_Mosses": 31, "count_Molluscs": 21, "count_Mammals": 25, "count_Amphibians": 7, "unique_species_count": 2562.0, "countryCode": "LT" }, "geometry": { "type": "MultiPolygon", "coordinates": [ [ [ [ 24.392641893687728, 56.152246802519549 ], [ 25.125901088281989, 55.923400830703493 ], [ 25.258317729581481, 55.366870183970477 ], [ 24.683374652193553, 55.038406822132572 ], [ 23.965398040425516, 55.265331106528492 ], [ 23.80726035538164, 55.822505711765835 ], [ 24.392641893687728, 56.152246802519549 ] ] ] ] } },
{ "type": "Feature", "properties": { "geogrid_id": "855690541025849743", "seqnum": 20328.0, "lat_c": 55.690541138111627, "lon_c": 25.849742520069249, "res": 8.0, "count_Flowering Plants": 681, "count_Sac Fungi": 195, "count_Arachnids": 53, "count_Reptiles": 6, "count_Basidiomycota": 204, "count_Ferns": 8, "count_Insects": 1688, "count_Birds": 184, "count_Gymnosperms": 7, "count_Mosses": 44, "count_Molluscs": 22, "count_Mammals": 26, "count_Amphibians": 8, "unique_species_count": 3126.0, "countryCode": "LT" }, "geometry": { "type": "MultiPolygon", "coordinates": [ [ [ [ 25.730689827865547, 56.245376725503576 ], [ 26.457365611695828, 56.009356375826741 ], [ 26.564231159144729, 55.453763649743024 ], [ 25.970118442629431, 55.133121284094948 ], [ 25.258317729581481, 55.366870183970477 ], [ 25.125901088281989, 55.923400830703493 ], [ 25.730689827865547, 56.245376725503576 ] ] ] ] } },
{ "type": "Feature", "properties": { "geogrid_id": "855769423027174464", "seqnum": 20409.0, "lat_c": 55.769423007408385, "lon_c": 27.174464285832549, "res": 8.0, "count_Flowering Plants": 1, "count_Sac Fungi": 0, "count_Arachnids": 0, "count_Reptiles": 0, "count_Basidiomycota": 3, "count_Ferns": 0, "count_Insects": 21, "count_Birds": 3, "count_Gymnosperms": 0, "count_Mosses": 0, "count_Molluscs": 0, "count_Mammals": 1, "count_Amphibians": 0, "unique_species_count": 29.0, "countryCode": "LT" }, "geometry": { "type": "MultiPolygon", "coordinates": [ [ [ [ 27.080922592316202, 56.323252794732603 ], [ 27.800529150936018, 56.080040861001685 ], [ 27.882065516530822, 55.525672247033313 ], [ 27.269438794246657, 55.21316259618569 ], [ 26.564231159144729, 55.453763649743024 ], [ 26.457365611695828, 56.009356375826741 ], [ 27.080922592316202, 56.323252794732603 ] ] ] ] } },
{ "type": "Feature", "properties": { "geogrid_id": "856083992019335212", "seqnum": 20005.0, "lat_c": 56.083991900597681, "lon_c": 19.335211904321049, "res": 8.0, "count_Flowering Plants": 0, "count_Sac Fungi": 0, "count_Arachnids": 0, "count_Reptiles": 0, "count_Basidiomycota": 0, "count_Ferns": 0, "count_Insects": 0, "count_Birds": 8, "count_Gymnosperms": 0, "count_Mosses": 0, "count_Molluscs": 0, "count_Mammals": 0, "count_Amphibians": 0, "unique_species_count": 8.0, "countryCode": "LT" }, "geometry": { "type": "MultiPolygon", "coordinates": [ [ [ [ 19.467966988352611, 56.539102473318223 ], [ 20.240243909834078, 56.337740463618005 ], [ 20.098505050095905, 55.883046722686935 ], [ 19.211395735490701, 55.626972461022561 ], [ 18.448207202272549, 55.823099516383486 ], [ 18.56306313733387, 56.280391439175446 ], [ 19.467966988352611, 56.539102473318223 ] ] ] ] } },
{ "type": "Feature", "properties": { "geogrid_id": "856131874021003417", "seqnum": 20086.0, "lat_c": 56.131874041029072, "lon_c": 21.003416667963339, "res": 8.0, "count_Flowering Plants": 450, "count_Sac Fungi": 84, "count_Arachnids": 40, "count_Reptiles": 4, "count_Basidiomycota": 102, "count_Ferns": 4, "count_Insects": 1210, "count_Birds": 181, "count_Gymnosperms": 5, "count_Mosses": 20, "count_Molluscs": 31, "count_Mammals": 16, "count_Amphibians": 5, "unique_species_count": 2152.0, "countryCode": "LT" }, "geometry": { "type": "MultiPolygon", "coordinates": [ [ [ [ 20.79397311766601, 56.683633366691375 ], [ 21.561281710631171, 56.474865378858738 ], [ 21.757495059389107, 55.921602443075081 ], [ 20.85294247597453, 55.677653466513981 ], [ 20.098505050095905, 55.883046722686935 ], [ 20.240243909834078, 56.337740463618005 ], [ 20.79397311766601, 56.683633366691375 ] ] ] ] } },
{ "type": "Feature", "properties": { "geogrid_id": "856261688022319247", "seqnum": 20167.0, "lat_c": 56.261688252025408, "lon_c": 22.319247455377248, "res": 8.0, "count_Flowering Plants": 503, "count_Sac Fungi": 66, "count_Arachnids": 31, "count_Reptiles": 3, "count_Basidiomycota": 65, "count_Ferns": 9, "count_Insects": 1120, "count_Birds": 129, "count_Gymnosperms": 4, "count_Mosses": 25, "count_Molluscs": 20, "count_Mammals": 14, "count_Amphibians": 6, "unique_species_count": 1995.0, "countryCode": "LT" }, "geometry": { "type": "MultiPolygon", "coordinates": [ [ [ [ 22.135821964521227, 56.813718835087876 ], [ 22.897647743138553, 56.597505720650688 ], [ 23.067895607498112, 56.044202103428567 ], [ 22.502498160843558, 55.707023748606773 ], [ 21.757495059389107, 55.921602443075081 ], [ 21.561281710631171, 56.474865378858738 ], [ 22.135821964521227, 56.813718835087876 ] ] ] ] } },
{ "type": "Feature", "properties": { "geogrid_id": "856376981023649907", "seqnum": 20248.0, "lat_c": 56.376981484368926, "lon_c": 23.649907334601014, "res": 8.0, "count_Flowering Plants": 299, "count_Sac Fungi": 38, "count_Arachnids": 12, "count_Reptiles": 4, "count_Basidiomycota": 30, "count_Ferns": 0, "count_Insects": 924, "count_Birds": 104, "count_Gymnosperms": 3, "count_Mosses": 10, "count_Molluscs": 10, "count_Mammals": 12, "count_Amphibians": 6, "unique_species_count": 1452.0, "countryCode": "LT" }, "geometry": { "type": "MultiPolygon", "coordinates": [ [ [ [ 23.492509323194696, 56.928976554965217 ], [ 24.24832307035776, 56.705286863396722 ], [ 24.392641893687728, 56.152246802519549 ], [ 23.80726035538164, 55.822505711765835 ], [ 23.067895607498112, 56.044202103428567 ], [ 22.897647743138553, 56.597505720650688 ], [ 23.492509323194696, 56.928976554965217 ] ] ] ] } },
{ "type": "Feature", "properties": { "geogrid_id": "856477387024994364", "seqnum": 20329.0, "lat_c": 56.477386620219718, "lon_c": 24.994364113166373, "res": 8.0, "count_Flowering Plants": 201, "count_Sac Fungi": 40, "count_Arachnids": 5, "count_Reptiles": 2, "count_Basidiomycota": 34, "count_Ferns": 3, "count_Insects": 778, "count_Birds": 58, "count_Gymnosperms": 2, "count_Mosses": 9, "count_Molluscs": 14, "count_Mammals": 6, "count_Amphibians": 2, "unique_species_count": 1154.0, "countryCode": "LT" }, "geometry": { "type": "MultiPolygon", "coordinates": [ [ [ [ 24.862949775770986, 57.029043273236802 ], [ 25.612210425021352, 56.79785383484861 ], [ 25.730689827865547, 56.245376725503576 ], [ 25.125901088281989, 55.923400830703493 ], [ 24.392641893687728, 56.152246802519549 ], [ 24.24832307035776, 56.705286863396722 ], [ 24.862949775770986, 57.029043273236802 ] ] ] ] } }
]
}
