{
"type": "FeatureCollection",
"name": "LV",
"crs": { "type": "name", "properties": { "name": "urn:ogc:def:crs:OGC:1.3:CRS84" } },
"features": [
{ "type": "Feature", "properties": { "geogrid_id": "855690541025849743", "seqnum": 20328.0, "lat_c": 55.690541138111627, "lon_c": 25.849742520069249, "res": 8.0, "count_Mammals": 4, "count_Arachnids": 25, "count_Flowering Plants": 150, "count_Molluscs": 6, "count_Ferns": 0, "count_Sac Fungi": 29, "count_Birds": 83, "count_Insects": 176, "count_Basidiomycota": 25, "count_Reptiles": 3, "count_Amphibians": 5, "count_Gymnosperms": 0, "count_Mosses": 17, "unique_species_count": 523.0, "countryCode": "LV" }, "geometry": { "type": "MultiPolygon", "coordinates": [ [ [ [ 25.730689827865547, 56.245376725503576 ], [ 26.457365611695828, 56.009356375826741 ], [ 26.564231159144729, 55.453763649743024 ], [ 25.970118442629431, 55.133121284094948 ], [ 25.258317729581481, 55.366870183970477 ], [ 25.125901088281989, 55.923400830703493 ], [ 25.730689827865547, 56.245376725503576 ] ] ] ] } },
{ "type": "Feature", "properties": { "geogrid_id": "855769423027174464", "seqnum": 20409.0, "lat_c": 55.769423007408385, "lon_c": 27.174464285832549, "res": 8.0, "count_Mammals": 10, "count_Arachnids": 17, "count_Flowering Plants": 395, "count_Molluscs": 10, "count_Ferns": 6, "count_Sac Fungi": 29, "count_Birds": 129, "count_Insects": 380, "count_Basidiomycota": 85, "count_Reptiles": 5, "count_Amphibians": 4, "count_Gymnosperms": 4, "count_Mosses": 15, "unique_species_count": 1089.0, "countryCode": "LV" }, "geometry": { "type": "MultiPolygon", "coordinates": [ [ [ [ 27.080922592316202, 56.323252794732603 ], [ 27.800529150936018, 56.080040861001685 ], [ 27.882065516530822, 55.525672247033313 ], [ 27.269438794246657, 55.21316259618569 ], [ 26.564231159144729, 55.453763649743024 ], [ 26.457365611695828, 56.009356375826741 ], [ 27.080922592316202, 56.323252794732603 ] ] ] ] } },
{ "type": "Feature", "properties": { "geogrid_id": "855833018028510418", "seqnum": 20490.0, "lat_c": 55.833017906920759, "lon_c": 28.510417873991155, "res": 8.0, "count_Mammals": 0, "count_Arachnids": 0, "count_Flowering Plants": 3, "count_Molluscs": 0, "count_Ferns": 0, "count_Sac Fungi": 0, "count_Birds": 4, "count_Insects": 19, "count_Basidiomycota": 0, "count_Reptiles": 0, "count_Amphibians": 0, "count_Gymnosperms": 1, "count_Mosses": 0, "unique_species_count": 27.0, "countryCode": "LV" }, "geometry": { "type": "MultiPolygon", "coordinates": [ [ [ [ 28.442154935522076, 56.385558799556165 ], [ 29.154201409296142, 56.135146128213485 ], [ 29.21068312204293, 55.582278917553424 ], [ 28.580255255873301, 55.27819787032012 ], [ 27.882065516530822, 55.525672247033313 ], [ 27.800529150936018, 56.080040861001685 ], [ 28.442154935522076, 56.385558799556165 ] ] ] ] } },
{ "type": "Feature", "properties": { "geogrid_id": "856083992019335212", "seqnum": 20005.0, "lat_c": 56.083991900597681, "lon_c": 19.335211904321049, "res": 8.0, "count_Mammals": 0, "count_Arachnids": 0, "count_Flowering Plants": 0, "count_Molluscs": 1, "count_Ferns": 0, "count_Sac Fungi": 0, "count_Birds": 10, "count_Insects": 0, "count_Basidiomycota": 0, "count_Reptiles": 0, "count_Amphibians": 0, "count_Gymnosperms": 0, "count_Mosses": 0, "unique_species_count": 11.0, "countryCode": "LV" }, "geometry": { "type": "MultiPolygon", "coordinates": [ [ [ [ 19.467966988352611, 56.539102473318223 ], [ 20.240243909834078, 56.337740463618005 ], [ 20.098505050095905, 55.883046722686935 ], [ 19.211395735490701, 55.626972461022561 ], [ 18.448207202272549, 55.823099516383486 ], [ 18.56306313733387, 56.280391439175446 ], [ 19.467966988352611, 56.539102473318223 ] ] ] ] } },
{ "type": "Feature", "properties": { "geogrid_id": "856131874021003417", "seqnum": 20086.0, "lat_c": 56.131874041029072, "lon_c": 21.003416667963339, "res": 8.0, "count_Mammals": 19, "count_Arachnids": 19, "count_Flowering Plants": 357, "count_Molluscs": 16, "count_Ferns": 2, "count_Sac Fungi": 20, "count_Birds": 187, "count_Insects": 574, "count_Basidiomycota": 26, "count_Reptiles": 5, "count_Amphibians": 4, "count_Gymnosperms": 5, "count_Mosses": 3, "unique_species_count": 1237.0, "countryCode": "LV" }, "geometry": { "type": "MultiPolygon", "coordinates": [ [ [ [ 20.79397311766601, 56.683633366691375 ], [ 21.561281710631171, 56.474865378858738 ], [ 21.757495059389107, 55.921602443075081 ], [ 20.85294247597453, 55.677653466513981 ], [ 20.098505050095905, 55.883046722686935 ], [ 20.240243909834078, 56.337740463618005 ], [ 20.79397311766601, 56.683633366691375 ] ] ] ] } },
{ "type": "Feature", "properties": { "geogrid_id": "856261688022319247", "seqnum": 20167.0, "lat_c": 56.261688252025408, "lon_c": 22.319247455377248, "res": 8.0, "count_Mammals": 1, "count_Arachnids": 1, "count_Flowering Plants": 98, "count_Molluscs": 4, "count_Ferns": 0, "count_Sac Fungi": 7, "count_Birds": 158, "count_Insects": 440, "count_Basidiomycota": 12, "count_Reptiles": 1, "count_Amphibians": 1, "count_Gymnosperms": 1, "count_Mosses": 0, "unique_species_count": 724.0, "countryCode": "LV" }, "geometry": { "type": "MultiPolygon", "coordinates": [ [ [ [ 22.135821964521227, 56.813718835087876 ], [ 22.897647743138553, 56.597505720650688 ], [ 23.067895607498112, 56.044202103428567 ], [ 22.502498160843558, 55.707023748606773 ], [ 21.757495059389107, 55.921602443075081 ], [ 21.561281710631171, 56.474865378858738 ], [ 22.135821964521227, 56.813718835087876 ] ] ] ] } },
{ "type": "Feature", "properties": { "geogrid_id": "856376981023649907", "seqnum": 20248.0, "lat_c": 56.376981484368926, "lon_c": 23.649907334601014, "res": 8.0, "count_Mammals": 8, "count_Arachnids": 13, "count_Flowering Plants": 454, "count_Molluscs": 4, "count_Ferns": 2, "count_Sac Fungi": 38, "count_Birds": 173, "count_Insects": 457, "count_Basidiomycota": 18, "count_Reptiles": 2, "count_Amphibians": 1, "count_Gymnosperms": 3, "count_Mosses": 5, "unique_species_count": 1178.0, "countryCode": "LV" }, "geometry": { "type": "MultiPolygon", "coordinates": [ [ [ [ 23.492509323194696, 56.928976554965217 ], [ 24.24832307035776, 56.705286863396722 ], [ 24.392641893687728, 56.152246802519549 ], [ 23.80726035538164, 55.822505711765835 ], [ 23.067895607498112, 56.044202103428567 ], [ 22.897647743138553, 56.597505720650688 ], [ 23.492509323194696, 56.928976554965217 ] ] ] ] } },
{ "type": "Feature", "properties": { "geogrid_id": "856477387024994364", "seqnum": 20329.0, "lat_c": 56.477386620219718, "lon_c": 24.994364113166373, "res": 8.0, "count_Mammals": 5, "count_Arachnids": 10, "count_Flowering Plants": 283, "count_Molluscs": 5, "count_Ferns": 5, "count_Sac Fungi": 65, "count_Birds": 170, "count_Insects": 353, "count_Basidiomycota": 119, "count_Reptiles": 2, "count_Amphibians": 2, "count_Gymnosperms": 3, "count_Mosses": 5, "unique_species_count": 1027.0, "countryCode": "LV" }, "geometry": { "type": "MultiPolygon", "coordinates": [ [ [ [ 24.862949775770986, 57.029043273236802 ], [ 25.612210425021352, 56.79785383484861 ], [ 25.730689827865547, 56.245376725503576 ], [ 25.125901088281989, 55.923400830703493 ], [ 24.392641893687728, 56.152246802519549 ], [ 24.24832307035776, 56.705286863396722 ], [ 24.862949775770986, 57.029043273236802 ] ] ] ] } },
{ "type": "Feature", "properties": { "geogrid_id": "856562557026351510", "seqnum": 20410.0, "lat_c": 56.562556749797025, "lon_c": 26.351510100061464, "res": 8.0, "count_Mammals": 8, "count_Arachnids": 2, "count_Flowering Plants": 309, "count_Molluscs": 2, "count_Ferns": 3, "count_Sac Fungi": 45, "count_Birds": 173, "count_Insects": 411, "count_Basidiomycota": 38, "count_Reptiles": 5, "count_Amphibians": 3, "count_Gymnosperms": 1, "count_Mosses": 3, "unique_species_count": 1003.0, "countryCode": "LV" }, "geometry": { "type": "MultiPolygon", "coordinates": [ [ [ [ 26.245980214805535, 57.113577078604223 ], [ 26.988138013910294, 56.874873539580527 ], [ 27.080922592316202, 56.323252794732603 ], [ 26.457365611695828, 56.009356375826741 ], [ 25.730689827865547, 56.245376725503576 ], [ 25.612210425021352, 56.79785383484861 ], [ 26.245980214805535, 57.113577078604223 ] ] ] ] } },
{ "type": "Feature", "properties": { "geogrid_id": "856632167027720166", "seqnum": 20491.0, "lat_c": 56.632167347558905, "lon_c": 27.720166166585962, "res": 8.0, "count_Mammals": 11, "count_Arachnids": 13, "count_Flowering Plants": 262, "count_Molluscs": 14, "count_Ferns": 1, "count_Sac Fungi": 101, "count_Birds": 140, "count_Insects": 311, "count_Basidiomycota": 75, "count_Reptiles": 3, "count_Amphibians": 2, "count_Gymnosperms": 3, "count_Mosses": 10, "unique_species_count": 946.0, "countryCode": "LV" }, "geometry": { "type": "MultiPolygon", "coordinates": [ [ [ [ 27.640364407880821, 57.182259604017823 ], [ 28.374864329008179, 56.936036904331253 ], [ 28.442154935522076, 56.385558799556165 ], [ 27.800529150936018, 56.080040861001685 ], [ 27.080922592316202, 56.323252794732603 ], [ 26.988138013910294, 56.874873539580527 ], [ 27.640364407880821, 57.182259604017823 ] ] ] ] } },
{ "type": "Feature", "properties": { "geogrid_id": "856887891020017306", "seqnum": 20087.0, "lat_c": 56.887890842260113, "lon_c": 20.017305916990004, "res": 8.0, "count_Mammals": 0, "count_Arachnids": 0, "count_Flowering Plants": 0, "count_Molluscs": 1, "count_Ferns": 0, "count_Sac Fungi": 0, "count_Birds": 21, "count_Insects": 0, "count_Basidiomycota": 0, "count_Reptiles": 0, "count_Amphibians": 0, "count_Gymnosperms": 0, "count_Mosses": 0, "unique_species_count": 22.0, "countryCode": "LV" }, "geometry": { "type": "MultiPolygon", "coordinates": [ [ [ [ 19.792676134127888, 57.435463490788045 ], [ 20.583353349008888, 57.232801842985282 ], [ 20.79397311766601, 56.683633366691375 ], [ 20.240243909834078, 56.337740463618005 ], [ 19.467966988352611, 56.539102473318223 ], [ 19.231274413266384, 57.087535267359499 ], [ 19.792676134127888, 57.435463490788045 ] ] ] ] } },
{ "type": "Feature", "properties": { "geogrid_id": "857025519021364398", "seqnum": 20168.0, "lat_c": 57.025518704788226, "lon_c": 21.364397948274895, "res": 8.0, "count_Mammals": 7, "count_Arachnids": 112, "count_Flowering Plants": 301, "count_Molluscs": 12, "count_Ferns": 4, "count_Sac Fungi": 19, "count_Birds": 190, "count_Insects": 305, "count_Basidiomycota": 62, "count_Reptiles": 0, "count_Amphibians": 2, "count_Gymnosperms": 3, "count_Mosses": 4, "unique_species_count": 1021.0, "countryCode": "LV" }, "geometry": { "type": "MultiPolygon", "coordinates": [ [ [ [ 21.165991392174725, 57.573749195121565 ], [ 21.951378011725268, 57.363312564814869 ], [ 22.135821964521227, 56.813718835087876 ], [ 21.561281710631171, 56.474865378858738 ], [ 20.79397311766601, 56.683633366691375 ], [ 20.583353349008888, 57.232801842985282 ], [ 21.165991392174725, 57.573749195121565 ] ] ] ] } },
{ "type": "Feature", "properties": { "geogrid_id": "857148353022726874", "seqnum": 20249.0, "lat_c": 57.14835315646674, "lon_c": 22.726874129998752, "res": 8.0, "count_Mammals": 14, "count_Arachnids": 18, "count_Flowering Plants": 426, "count_Molluscs": 17, "count_Ferns": 8, "count_Sac Fungi": 73, "count_Birds": 201, "count_Insects": 553, "count_Basidiomycota": 132, "count_Reptiles": 4, "count_Amphibians": 5, "count_Gymnosperms": 4, "count_Mosses": 16, "unique_species_count": 1471.0, "countryCode": "LV" }, "geometry": { "type": "MultiPolygon", "coordinates": [ [ [ [ 22.554789294989963, 57.696930892710732 ], [ 23.334291476059558, 57.478687019791614 ], [ 23.492509323194696, 56.928976554965217 ], [ 22.897647743138553, 56.597505720650688 ], [ 22.135821964521227, 56.813718835087876 ], [ 21.951378011725268, 57.363312564814869 ], [ 22.554789294989963, 57.696930892710732 ] ] ] ] } },
{ "type": "Feature", "properties": { "geogrid_id": "857256022024103662", "seqnum": 20330.0, "lat_c": 57.256022458738585, "lon_c": 24.103662448461019, "res": 8.0, "count_Mammals": 30, "count_Arachnids": 75, "count_Flowering Plants": 717, "count_Molluscs": 108, "count_Ferns": 9, "count_Sac Fungi": 145, "count_Birds": 223, "count_Insects": 1089, "count_Basidiomycota": 299, "count_Reptiles": 6, "count_Amphibians": 4, "count_Gymnosperms": 6, "count_Mosses": 46, "unique_species_count": 2757.0, "countryCode": "LV" }, "geometry": { "type": "MultiPolygon", "coordinates": [ [ [ [ 23.957942298696153, 57.804638867110448 ], [ 24.730952617536769, 57.578564972271089 ], [ 24.862949775770986, 57.029043273236802 ], [ 24.24832307035776, 56.705286863396722 ], [ 23.492509323194696, 56.928976554965217 ], [ 23.334291476059558, 57.478687019791614 ], [ 23.957942298696153, 57.804638867110448 ] ] ] ] } },
{ "type": "Feature", "properties": { "geogrid_id": "857348176025493610", "seqnum": 20411.0, "lat_c": 57.348175649296572, "lon_c": 25.493609972036161, "res": 8.0, "count_Mammals": 21, "count_Arachnids": 51, "count_Flowering Plants": 511, "count_Molluscs": 24, "count_Ferns": 13, "count_Sac Fungi": 152, "count_Birds": 167, "count_Insects": 903, "count_Basidiomycota": 417, "count_Reptiles": 6, "count_Amphibians": 4, "count_Gymnosperms": 5, "count_Mosses": 69, "unique_species_count": 2343.0, "countryCode": "LV" }, "geometry": { "type": "MultiPolygon", "coordinates": [ [ [ [ 25.374238992405992, 57.896525321631529 ], [ 26.140140099512742, 57.662608682797355 ], [ 26.245980214805535, 57.113577078604223 ], [ 25.612210425021352, 56.79785383484861 ], [ 24.862949775770986, 57.029043273236802 ], [ 24.730952617536769, 57.578564972271089 ], [ 25.374238992405992, 57.896525321631529 ] ] ] ] } },
{ "type": "Feature", "properties": { "geogrid_id": "857424485026895487", "seqnum": 20492.0, "lat_c": 57.424484802483839, "lon_c": 26.89548714158942, "res": 8.0, "count_Mammals": 6, "count_Arachnids": 5, "count_Flowering Plants": 403, "count_Molluscs": 18, "count_Ferns": 3, "count_Sac Fungi": 56, "count_Birds": 53, "count_Insects": 202, "count_Basidiomycota": 84, "count_Reptiles": 3, "count_Amphibians": 2, "count_Gymnosperms": 3, "count_Mosses": 13, "unique_species_count": 851.0, "countryCode": "LV" }, "geometry": { "type": "MultiPolygon", "coordinates": [ [ [ [ 26.802388903864383, 57.97226668761148 ], [ 27.560557472142545, 57.730505147235093 ], [ 27.640364407880821, 57.182259604017823 ], [ 26.988138013910294, 56.874873539580527 ], [ 26.245980214805535, 57.113577078604223 ], [ 26.140140099512742, 57.662608682797355 ], [ 26.802388903864383, 57.97226668761148 ] ] ] ] } },
{ "type": "Feature", "properties": { "geogrid_id": "857484647028307993", "seqnum": 20573.0, "lat_c": 57.484647200055676, "lon_c": 28.307993130651816, "res": 8.0, "count_Mammals": 2, "count_Arachnids": 0, "count_Flowering Plants": 22, "count_Molluscs": 4, "count_Ferns": 2, "count_Sac Fungi": 16, "count_Birds": 3, "count_Insects": 7, "count_Basidiomycota": 30, "count_Reptiles": 0, "count_Amphibians": 2, "count_Gymnosperms": 0, "count_Mosses": 6, "unique_species_count": 94.0, "countryCode": "LV" }, "geometry": { "type": "MultiPolygon", "coordinates": [ [ [ [ 28.241028447387901, 58.03156582921833 ], [ 28.990839362506428, 57.781968222528185 ], [ 29.044798589016214, 57.234798130224007 ], [ 28.374864329008179, 56.936036904331253 ], [ 27.640364407880821, 57.182259604017823 ], [ 27.560557472142545, 57.730505147235093 ], [ 28.241028447387901, 58.03156582921833 ] ] ] ] } },
{ "type": "Feature", "properties": { "geogrid_id": "857779556020370695", "seqnum": 20169.0, "lat_c": 57.779556072969655, "lon_c": 20.370695247642079, "res": 8.0, "count_Mammals": 0, "count_Arachnids": 0, "count_Flowering Plants": 0, "count_Molluscs": 1, "count_Ferns": 0, "count_Sac Fungi": 0, "count_Birds": 15, "count_Insects": 0, "count_Basidiomycota": 0, "count_Reptiles": 0, "count_Amphibians": 0, "count_Gymnosperms": 0, "count_Mosses": 0, "unique_species_count": 16.0, "countryCode": "LV" }, "geometry": { "type": "MultiPolygon", "coordinates": [ [ [ [ 20.155175313752519, 58.324054169519485 ], [ 20.965252172125325, 58.119724364660797 ], [ 21.165991392174725, 57.573749195121565 ], [ 20.583353349008888, 57.232801842985282 ], [ 19.792676134127888, 57.435463490788045 ], [ 19.565481762929352, 57.980624936480297 ], [ 20.155175313752519, 58.324054169519485 ] ] ] ] } },
{ "type": "Feature", "properties": { "geogrid_id": "857910646021765118", "seqnum": 20250.0, "lat_c": 57.910646404351652, "lon_c": 21.765118426801859, "res": 8.0, "count_Mammals": 5, "count_Arachnids": 4, "count_Flowering Plants": 111, "count_Molluscs": 11, "count_Ferns": 5, "count_Sac Fungi": 58, "count_Birds": 114, "count_Insects": 196, "count_Basidiomycota": 177, "count_Reptiles": 2, "count_Amphibians": 2, "count_Gymnosperms": 3, "count_Mosses": 1, "unique_species_count": 689.0, "countryCode": "LV" }, "geometry": { "type": "MultiPolygon", "coordinates": [ [ [ [ 21.576282231841372, 58.455879251278894 ], [ 22.380647694487816, 58.243406589330711 ], [ 22.554789294989963, 57.696930892710732 ], [ 21.951378011725268, 57.363312564814869 ], [ 21.165991392174725, 57.573749195121565 ], [ 20.965252172125325, 58.119724364660797 ], [ 21.576282231841372, 58.455879251278894 ] ] ] ] } },
{ "type": "Feature", "properties": { "geogrid_id": "858026289023174523", "seqnum": 20331.0, "lat_c": 58.026289324690268, "lon_c": 23.174522685257713, "res": 8.0, "count_Mammals": 3, "count_Arachnids": 11, "count_Flowering Plants": 47, "count_Molluscs": 7, "count_Ferns": 0, "count_Sac Fungi": 1, "count_Birds": 133, "count_Insects": 197, "count_Basidiomycota": 17, "count_Reptiles": 0, "count_Amphibians": 1, "count_Gymnosperms": 2, "count_Mosses": 0, "unique_species_count": 419.0, "countryCode": "LV" }, "geometry": { "type": "MultiPolygon", "coordinates": [ [ [ [ 23.01250589281457, 58.571942316738884 ], [ 23.810482504831729, 58.351303027416847 ], [ 23.957942298696153, 57.804638867110448 ], [ 23.334291476059558, 57.478687019791614 ], [ 22.554789294989963, 57.696930892710732 ], [ 22.380647694487816, 58.243406589330711 ], [ 23.01250589281457, 58.571942316738884 ] ] ] ] } },
{ "type": "Feature", "properties": { "geogrid_id": "858126127024597708", "seqnum": 20412.0, "lat_c": 58.126126750635031, "lon_c": 24.597708397008937, "res": 8.0, "count_Mammals": 21, "count_Arachnids": 90, "count_Flowering Plants": 278, "count_Molluscs": 25, "count_Ferns": 7, "count_Sac Fungi": 59, "count_Birds": 212, "count_Insects": 469, "count_Basidiomycota": 88, "count_Reptiles": 4, "count_Amphibians": 8, "count_Gymnosperms": 4, "count_Mosses": 32, "unique_species_count": 1297.0, "countryCode": "LV" }, "geometry": { "type": "MultiPolygon", "coordinates": [ [ [ [ 24.462585052374251, 58.671886549775451 ], [ 25.253483562138776, 58.443068189980117 ], [ 25.374238992405992, 57.896525321631529 ], [ 24.730952617536769, 57.578564972271089 ], [ 23.957942298696153, 57.804638867110448 ], [ 23.810482504831729, 58.351303027416847 ], [ 24.462585052374251, 58.671886549775451 ] ] ] ] } },
{ "type": "Feature", "properties": { "geogrid_id": "858209824026033393", "seqnum": 20493.0, "lat_c": 58.209824280922632, "lon_c": 26.033392835906906, "res": 8.0, "count_Mammals": 5, "count_Arachnids": 7, "count_Flowering Plants": 169, "count_Molluscs": 7, "count_Ferns": 1, "count_Sac Fungi": 49, "count_Birds": 85, "count_Insects": 389, "count_Basidiomycota": 169, "count_Reptiles": 3, "count_Amphibians": 2, "count_Gymnosperms": 1, "count_Mosses": 10, "unique_species_count": 897.0, "countryCode": "LV" }, "geometry": { "type": "MultiPolygon", "coordinates": [ [ [ [ 25.925172075775354, 58.755380042450156 ], [ 26.708295965945201, 58.518382048243851 ], [ 26.802388903864383, 57.97226668761148 ], [ 26.140140099512742, 57.662608682797355 ], [ 25.374238992405992, 57.896525321631529 ], [ 25.253483562138776, 58.443068189980117 ], [ 25.925172075775354, 58.755380042450156 ] ] ] ] } }
]
}
