{
"type": "FeatureCollection",
"name": "LY",
"crs": { "type": "name", "properties": { "name": "urn:ogc:def:crs:OGC:1.3:CRS84" } },
"features": [
{ "type": "Feature", "properties": { "geogrid_id": "722201087025374313", "seqnum": 5506.0, "lat_c": 22.201087041726527, "lon_c": 25.374313031914529, "res": 7.0, "count_Birds": 1, "count_Mammals": 0, "count_Insects": 4, "count_Reptiles": 2, "count_Flowering Plants": 0, "count_Amphibians": 0, "count_Molluscs": 0, "count_Gymnosperms": 0, "count_Sac Fungi": 0, "count_Basidiomycota": 0, "count_Arachnids": 1, "count_Ferns": 0, "unique_species_count": 8.0, "countryCode": "LY" }, "geometry": { "type": "MultiPolygon", "coordinates": [ [ [ [ 25.973773344418316, 22.893553537441168 ], [ 26.310103416722548, 22.148905146973064 ], [ 25.708578737532125, 21.457246641850254 ], [ 24.778012119463508, 21.505522544976358 ], [ 24.438597419249593, 22.248123505807122 ], [ 25.032405602835031, 22.944452166145432 ], [ 25.973773344418316, 22.893553537441168 ] ] ] ] } },
{ "type": "Feature", "properties": { "geogrid_id": "723095493021265982", "seqnum": 5370.0, "lat_c": 23.095493097030793, "lon_c": 21.265982403559445, "res": 7.0, "count_Birds": 1, "count_Mammals": 0, "count_Insects": 0, "count_Reptiles": 0, "count_Flowering Plants": 0, "count_Amphibians": 0, "count_Molluscs": 0, "count_Gymnosperms": 0, "count_Sac Fungi": 0, "count_Basidiomycota": 0, "count_Arachnids": 0, "count_Ferns": 0, "unique_species_count": 1.0, "countryCode": "LY" }, "geometry": { "type": "MultiPolygon", "coordinates": [ [ [ [ 21.838716709395708, 23.803076472253512 ], [ 22.207816248204278, 23.06564767080706 ], [ 21.631780379412653, 22.358319509637436 ], [ 20.696208018979771, 22.384726081986095 ], [ 20.323877817015269, 23.120017877573588 ], [ 20.88989948473688, 23.83087277899849 ], [ 21.838716709395708, 23.803076472253512 ] ] ] ] } },
{ "type": "Feature", "properties": { "geogrid_id": "723769804022787062", "seqnum": 5397.0, "lat_c": 23.769803631709884, "lon_c": 22.787062220965542, "res": 7.0, "count_Birds": 0, "count_Mammals": 0, "count_Insects": 0, "count_Reptiles": 0, "count_Flowering Plants": 1, "count_Amphibians": 0, "count_Molluscs": 0, "count_Gymnosperms": 0, "count_Sac Fungi": 0, "count_Basidiomycota": 0, "count_Arachnids": 0, "count_Ferns": 0, "unique_species_count": 1.0, "countryCode": "LY" }, "geometry": { "type": "MultiPolygon", "coordinates": [ [ [ [ 23.37067609580771, 24.470732201613036 ], [ 23.735041899002205, 23.731104629723408 ], [ 23.149462171997673, 23.030512541189395 ], [ 22.207816248204278, 23.06564767080706 ], [ 21.838716709395708, 23.803076472253512 ], [ 22.415653230576851, 24.507448247416068 ], [ 23.37067609580771, 24.470732201613036 ] ] ] ] } },
{ "type": "Feature", "properties": { "geogrid_id": "724492745009740680", "seqnum": 5015.0, "lat_c": 24.492745344673118, "lon_c": 9.7406796386792767, "res": 7.0, "count_Birds": 0, "count_Mammals": 0, "count_Insects": 1, "count_Reptiles": 0, "count_Flowering Plants": 1, "count_Amphibians": 0, "count_Molluscs": 0, "count_Gymnosperms": 0, "count_Sac Fungi": 0, "count_Basidiomycota": 0, "count_Arachnids": 0, "count_Ferns": 0, "unique_species_count": 2.0, "countryCode": "LY" }, "geometry": { "type": "MultiPolygon", "coordinates": [ [ [ [ 10.233380052059825, 25.139897460157034 ], [ 10.743474311356197, 24.393071643369911 ], [ 10.247357514785042, 23.760652598982269 ], [ 9.262851372174023, 23.821021565869177 ], [ 8.752248671162759, 24.54632468730183 ], [ 9.228738580683419, 25.221807442698189 ], [ 10.233380052059825, 25.139897460157034 ] ] ] ] } },
{ "type": "Feature", "properties": { "geogrid_id": "724538525021459981", "seqnum": 5343.0, "lat_c": 24.538524681366084, "lon_c": 21.459980927069005, "res": 7.0, "count_Birds": 0, "count_Mammals": 0, "count_Insects": 1, "count_Reptiles": 0, "count_Flowering Plants": 0, "count_Amphibians": 0, "count_Molluscs": 0, "count_Gymnosperms": 0, "count_Sac Fungi": 0, "count_Basidiomycota": 0, "count_Arachnids": 0, "count_Ferns": 0, "unique_species_count": 1.0, "countryCode": "LY" }, "geometry": { "type": "MultiPolygon", "coordinates": [ [ [ [ 22.035143949700885, 25.243007145381238 ], [ 22.415653230576851, 24.507448247416068 ], [ 21.838716709395708, 23.803076472253512 ], [ 20.88989948473688, 23.83087277899849 ], [ 20.503496753511989, 24.563863870478063 ], [ 21.071545716491759, 25.271482625897132 ], [ 22.035143949700885, 25.243007145381238 ] ] ] ] } },
{ "type": "Feature", "properties": { "geogrid_id": "724595517015697031", "seqnum": 5179.0, "lat_c": 24.59551689911029, "lon_c": 15.69703110588279, "res": 7.0, "count_Birds": 0, "count_Mammals": 0, "count_Insects": 0, "count_Reptiles": 0, "count_Flowering Plants": 1, "count_Amphibians": 0, "count_Molluscs": 0, "count_Gymnosperms": 0, "count_Sac Fungi": 0, "count_Basidiomycota": 0, "count_Arachnids": 0, "count_Ferns": 0, "unique_species_count": 1.0, "countryCode": "LY" }, "geometry": { "type": "MultiPolygon", "coordinates": [ [ [ [ 16.227536093191492, 25.315178860045709 ], [ 16.663426199624844, 24.603550776015371 ], [ 16.130660758697093, 23.88306294266518 ], [ 15.172172405343892, 23.873466443905802 ], [ 14.725872250104349, 24.577689243485477 ], [ 15.249061614087273, 25.29912348275419 ], [ 16.227536093191492, 25.315178860045709 ] ] ] ] } },
{ "type": "Feature", "properties": { "geogrid_id": "724596687018587117", "seqnum": 5261.0, "lat_c": 24.596686909531577, "lon_c": 18.587117349344119, "res": 7.0, "count_Birds": 0, "count_Mammals": 1, "count_Insects": 0, "count_Reptiles": 0, "count_Flowering Plants": 0, "count_Amphibians": 0, "count_Molluscs": 0, "count_Gymnosperms": 0, "count_Sac Fungi": 0, "count_Basidiomycota": 0, "count_Arachnids": 0, "count_Ferns": 0, "unique_species_count": 1.0, "countryCode": "LY" }, "geometry": { "type": "MultiPolygon", "coordinates": [ [ [ [ 19.140454085152776, 25.309922850579341 ], [ 19.545978454867011, 24.583323176727021 ], [ 18.99020028052302, 23.869703955089889 ], [ 18.038811218829533, 23.880452205816901 ], [ 17.626476876786334, 24.603615800737554 ], [ 18.172243049511511, 25.319274200494725 ], [ 19.140454085152776, 25.309922850579341 ] ] ] ] } },
{ "type": "Feature", "properties": { "geogrid_id": "725270093014264432", "seqnum": 5125.0, "lat_c": 25.270092878998081, "lon_c": 14.264432470326257, "res": 7.0, "count_Birds": 1, "count_Mammals": 1, "count_Insects": 1, "count_Reptiles": 0, "count_Flowering Plants": 1, "count_Amphibians": 0, "count_Molluscs": 0, "count_Gymnosperms": 0, "count_Sac Fungi": 0, "count_Basidiomycota": 0, "count_Arachnids": 0, "count_Ferns": 0, "unique_species_count": 4.0, "countryCode": "LY" }, "geometry": { "type": "MultiPolygon", "coordinates": [ [ [ [ 14.787483837421085, 25.992285907550539 ], [ 15.249061614087273, 25.29912348275419 ], [ 14.725872250104349, 24.577689243485477 ], [ 13.747751328590843, 24.546324687661286 ], [ 13.271261419058433, 25.221807443053834 ], [ 13.789043217553441, 25.948618738706919 ], [ 14.787483837421085, 25.992285907550539 ] ] ] ] } },
{ "type": "Feature", "properties": { "geogrid_id": "725321344017201541", "seqnum": 5207.0, "lat_c": 25.321343787107963, "lon_c": 17.201541333554502, "res": 7.0, "count_Birds": 1, "count_Mammals": 0, "count_Insects": 0, "count_Reptiles": 1, "count_Flowering Plants": 0, "count_Amphibians": 0, "count_Molluscs": 0, "count_Gymnosperms": 0, "count_Sac Fungi": 0, "count_Basidiomycota": 0, "count_Arachnids": 0, "count_Ferns": 0, "unique_species_count": 2.0, "countryCode": "LY" }, "geometry": { "type": "MultiPolygon", "coordinates": [ [ [ [ 17.745712206429381, 26.036621750340771 ], [ 18.172243049511511, 25.319274200494725 ], [ 17.626476876786334, 24.603615800737554 ], [ 16.663426199624844, 24.603550776015371 ], [ 16.227536093191492, 25.315178860045709 ], [ 16.764264522033432, 26.032611352646683 ], [ 17.745712206429381, 26.036621750340771 ] ] ] ] } },
{ "type": "Feature", "properties": { "geogrid_id": "725878062009718850", "seqnum": 4988.0, "lat_c": 25.878061672952807, "lon_c": 9.7188498774211194, "res": 7.0, "count_Birds": 0, "count_Mammals": 0, "count_Insects": 0, "count_Reptiles": 0, "count_Flowering Plants": 1, "count_Amphibians": 0, "count_Molluscs": 0, "count_Gymnosperms": 0, "count_Sac Fungi": 0, "count_Basidiomycota": 0, "count_Arachnids": 0, "count_Ferns": 0, "unique_species_count": 1.0, "countryCode": "LY" }, "geometry": { "type": "MultiPolygon", "coordinates": [ [ [ [ 10.220517232563161, 26.512661631160416 ], [ 10.737609944662063, 25.758927284364479 ], [ 10.233380052059825, 25.139897460157034 ], [ 9.228738580683419, 25.221807442698189 ], [ 8.710956782138785, 25.948618738278451 ], [ 9.199013294463366, 26.611342587524412 ], [ 10.220517232563161, 26.512661631160416 ] ] ] ] } },
{ "type": "Feature", "properties": { "geogrid_id": "725878062012781150", "seqnum": 5070.0, "lat_c": 25.878061673304614, "lon_c": 12.781150122308549, "res": 7.0, "count_Birds": 1, "count_Mammals": 0, "count_Insects": 0, "count_Reptiles": 1, "count_Flowering Plants": 1, "count_Amphibians": 0, "count_Molluscs": 0, "count_Gymnosperms": 0, "count_Sac Fungi": 0, "count_Basidiomycota": 0, "count_Arachnids": 0, "count_Ferns": 0, "unique_species_count": 3.0, "countryCode": "LY" }, "geometry": { "type": "MultiPolygon", "coordinates": [ [ [ [ 13.300986705216076, 26.611342587948986 ], [ 13.789043217553441, 25.948618738706919 ], [ 13.271261419058433, 25.221807443053834 ], [ 12.266619947720134, 25.139897460436426 ], [ 11.762390055106019, 25.758927284639729 ], [ 12.279482767153993, 26.512661631508177 ], [ 13.300986705216076, 26.611342587948986 ] ] ] ] } },
{ "type": "Feature", "properties": { "geogrid_id": "725976039021645447", "seqnum": 5316.0, "lat_c": 25.976038797676406, "lon_c": 21.645446737983484, "res": 7.0, "count_Birds": 1, "count_Mammals": 0, "count_Insects": 0, "count_Reptiles": 0, "count_Flowering Plants": 0, "count_Amphibians": 0, "count_Molluscs": 0, "count_Gymnosperms": 0, "count_Sac Fungi": 0, "count_Basidiomycota": 0, "count_Arachnids": 0, "count_Ferns": 0, "unique_species_count": 1.0, "countryCode": "LY" }, "geometry": { "type": "MultiPolygon", "coordinates": [ [ [ [ 22.225893953448736, 26.677577917134712 ], [ 22.616211683653198, 25.944354012490091 ], [ 22.035143949700885, 25.243007145381238 ], [ 21.071545716491759, 25.271482625897132 ], [ 20.673354838422519, 26.001439009314492 ], [ 21.246478007897881, 26.706100394413053 ], [ 22.225893953448736, 26.677577917134712 ] ] ] ] } },
{ "type": "Feature", "properties": { "geogrid_id": "726018692015778630", "seqnum": 5152.0, "lat_c": 26.018692052930536, "lon_c": 15.7786303573367, "res": 7.0, "count_Birds": 0, "count_Mammals": 0, "count_Insects": 0, "count_Reptiles": 1, "count_Flowering Plants": 0, "count_Amphibians": 0, "count_Molluscs": 0, "count_Gymnosperms": 0, "count_Sac Fungi": 0, "count_Basidiomycota": 0, "count_Arachnids": 0, "count_Ferns": 0, "unique_species_count": 1.0, "countryCode": "LY" }, "geometry": { "type": "MultiPolygon", "coordinates": [ [ [ [ 16.314943843482528, 26.736412948114701 ], [ 16.764264522033432, 26.032611352646683 ], [ 16.227536093191492, 25.315178860045709 ], [ 15.249061614087273, 25.29912348275419 ], [ 14.787483837421085, 25.992285907550539 ], [ 15.317206996455367, 26.712860193438196 ], [ 16.314943843482528, 26.736412948114701 ] ] ] ] } },
{ "type": "Feature", "properties": { "geogrid_id": "726346922011250000", "seqnum": 5016.0, "lat_c": 26.346921744910993, "lon_c": 11.249999999756172, "res": 7.0, "count_Birds": 1, "count_Mammals": 1, "count_Insects": 0, "count_Reptiles": 0, "count_Flowering Plants": 0, "count_Amphibians": 0, "count_Molluscs": 0, "count_Gymnosperms": 0, "count_Sac Fungi": 0, "count_Basidiomycota": 0, "count_Arachnids": 0, "count_Ferns": 0, "unique_species_count": 2.0, "countryCode": "LY" }, "geometry": { "type": "MultiPolygon", "coordinates": [ [ [ [ 11.768384626784288, 27.123498252362413 ], [ 12.279482767153993, 26.512661631508177 ], [ 11.762390055106019, 25.758927284639729 ], [ 10.737609944662063, 25.758927284364479 ], [ 10.220517232563161, 26.512661631160416 ], [ 10.731615372920151, 27.12349825201909 ], [ 11.768384626784288, 27.123498252362413 ] ] ] ] } },
{ "type": "Feature", "properties": { "geogrid_id": "726673476014313100", "seqnum": 5098.0, "lat_c": 26.673475817671058, "lon_c": 14.313100449922516, "res": 7.0, "count_Birds": 4, "count_Mammals": 0, "count_Insects": 0, "count_Reptiles": 1, "count_Flowering Plants": 2, "count_Amphibians": 0, "count_Molluscs": 0, "count_Gymnosperms": 0, "count_Sac Fungi": 0, "count_Basidiomycota": 0, "count_Arachnids": 0, "count_Ferns": 0, "unique_species_count": 7.0, "countryCode": "LY" }, "geometry": { "type": "MultiPolygon", "coordinates": [ [ [ [ 14.843814105153058, 27.39649892480778 ], [ 15.317206996455367, 26.712860193438196 ], [ 14.787483837421085, 25.992285907550539 ], [ 13.789043217553441, 25.948618738706919 ], [ 13.300986705216076, 26.611342587948986 ], [ 13.826778874320421, 27.341248394251263 ], [ 14.843814105153058, 27.39649892480778 ] ] ] ] } },
{ "type": "Feature", "properties": { "geogrid_id": "726727882020265360", "seqnum": 5262.0, "lat_c": 26.72788232231602, "lon_c": 20.265359555534705, "res": 7.0, "count_Birds": 1, "count_Mammals": 0, "count_Insects": 0, "count_Reptiles": 0, "count_Flowering Plants": 0, "count_Amphibians": 0, "count_Molluscs": 0, "count_Gymnosperms": 0, "count_Sac Fungi": 0, "count_Basidiomycota": 0, "count_Arachnids": 0, "count_Ferns": 0, "unique_species_count": 1.0, "countryCode": "LY" }, "geometry": { "type": "MultiPolygon", "coordinates": [ [ [ [ 20.838158691850161, 27.432748859724288 ], [ 21.246478007897881, 26.706100394413053 ], [ 20.673354838422519, 26.001439009314492 ], [ 19.699646969168757, 26.020291585319608 ], [ 19.282186711299978, 26.742534868057902 ], [ 19.847519206767199, 27.450302267223098 ], [ 20.838158691850161, 27.432748859724288 ] ] ] ] } },
{ "type": "Feature", "properties": { "geogrid_id": "727256498012801621", "seqnum": 5044.0, "lat_c": 27.256498439893079, "lon_c": 12.801620770797053, "res": 7.0, "count_Birds": 2, "count_Mammals": 0, "count_Insects": 0, "count_Reptiles": 1, "count_Flowering Plants": 0, "count_Amphibians": 0, "count_Molluscs": 0, "count_Gymnosperms": 0, "count_Sac Fungi": 0, "count_Basidiomycota": 0, "count_Arachnids": 0, "count_Ferns": 0, "unique_species_count": 3.0, "countryCode": "LY" }, "geometry": { "type": "MultiPolygon", "coordinates": [ [ [ [ 13.329443930175827, 27.994255772738736 ], [ 13.826778874320421, 27.341248394251263 ], [ 13.300986705216076, 26.611342587948986 ], [ 12.279482767153993, 26.512661631508177 ], [ 11.768384626784288, 27.123498252362413 ], [ 12.292361069473731, 27.882498040413694 ], [ 13.329443930175827, 27.994255772738736 ] ] ] ] } },
{ "type": "Feature", "properties": { "geogrid_id": "727431769015853914", "seqnum": 5126.0, "lat_c": 27.431768610103454, "lon_c": 15.853913843065163, "res": 7.0, "count_Birds": 0, "count_Mammals": 0, "count_Insects": 0, "count_Reptiles": 0, "count_Flowering Plants": 15, "count_Amphibians": 0, "count_Molluscs": 0, "count_Gymnosperms": 0, "count_Sac Fungi": 0, "count_Basidiomycota": 0, "count_Arachnids": 0, "count_Ferns": 0, "unique_species_count": 15.0, "countryCode": "LY" }, "geometry": { "type": "MultiPolygon", "coordinates": [ [ [ [ 16.397927170613592, 28.148960271871832 ], [ 16.858352678129361, 27.452275481543204 ], [ 16.314943843482528, 26.736412948114701 ], [ 15.317206996455367, 26.712860193438196 ], [ 14.843814105153058, 27.39649892480778 ], [ 15.38154559013724, 28.117730006624967 ], [ 16.397927170613592, 28.148960271871832 ] ] ] ] } },
{ "type": "Feature", "properties": { "geogrid_id": "727460007018854382", "seqnum": 5208.0, "lat_c": 27.460006907050591, "lon_c": 18.854381527784064, "res": 7.0, "count_Birds": 0, "count_Mammals": 0, "count_Insects": 0, "count_Reptiles": 0, "count_Flowering Plants": 1, "count_Amphibians": 0, "count_Molluscs": 0, "count_Gymnosperms": 0, "count_Sac Fungi": 0, "count_Basidiomycota": 0, "count_Arachnids": 0, "count_Ferns": 0, "unique_species_count": 1.0, "countryCode": "LY" }, "geometry": { "type": "MultiPolygon", "coordinates": [ [ [ [ 19.419801797556083, 28.168191186564343 ], [ 19.847519206767199, 27.450302267223098 ], [ 19.282186711299978, 26.742534868057902 ], [ 18.296498341693582, 26.74949075805484 ], [ 17.858218888584158, 27.461064621845242 ], [ 18.416256963238617, 28.172121100686525 ], [ 19.419801797556083, 28.168191186564343 ] ] ] ] } },
{ "type": "Feature", "properties": { "geogrid_id": "728068479014359047", "seqnum": 5071.0, "lat_c": 28.068478677387201, "lon_c": 14.359047183716603, "res": 7.0, "count_Birds": 0, "count_Mammals": 0, "count_Insects": 0, "count_Reptiles": 0, "count_Flowering Plants": 5, "count_Amphibians": 0, "count_Molluscs": 0, "count_Gymnosperms": 0, "count_Sac Fungi": 0, "count_Basidiomycota": 0, "count_Arachnids": 0, "count_Ferns": 0, "unique_species_count": 5.0, "countryCode": "LY" }, "geometry": { "type": "MultiPolygon", "coordinates": [ [ [ [ 14.898245757528311, 28.793386121325842 ], [ 15.38154559013724, 28.117730006624967 ], [ 14.843814105153058, 27.39649892480778 ], [ 13.826778874320421, 27.341248394251263 ], [ 13.329443930175827, 27.994255772738736 ], [ 13.863545913169723, 28.727732818135014 ], [ 14.898245757528311, 28.793386121325842 ] ] ] ] } },
{ "type": "Feature", "properties": { "geogrid_id": "728155542020420415", "seqnum": 5235.0, "lat_c": 28.155541875572851, "lon_c": 20.42041473398795, "res": 7.0, "count_Birds": 1, "count_Mammals": 0, "count_Insects": 0, "count_Reptiles": 0, "count_Flowering Plants": 0, "count_Amphibians": 0, "count_Molluscs": 0, "count_Gymnosperms": 0, "count_Sac Fungi": 0, "count_Basidiomycota": 0, "count_Arachnids": 0, "count_Ferns": 0, "unique_species_count": 1.0, "countryCode": "LY" }, "geometry": { "type": "MultiPolygon", "coordinates": [ [ [ [ 21.001321935696325, 28.858255280522759 ], [ 21.41855264269504, 28.134916090288904 ], [ 20.838158691850161, 27.432748859724288 ], [ 19.847519206767199, 27.450302267223098 ], [ 19.419801797556083, 28.168191186564343 ], [ 19.993177606117985, 28.874038908246039 ], [ 21.001321935696325, 28.858255280522759 ] ] ] ] } },
{ "type": "Feature", "properties": { "geogrid_id": "728166251017409205", "seqnum": 5153.0, "lat_c": 28.166251031526141, "lon_c": 17.409204958287834, "res": 7.0, "count_Birds": 0, "count_Mammals": 0, "count_Insects": 0, "count_Reptiles": 0, "count_Flowering Plants": 27, "count_Amphibians": 0, "count_Molluscs": 0, "count_Gymnosperms": 0, "count_Sac Fungi": 0, "count_Basidiomycota": 0, "count_Arachnids": 0, "count_Ferns": 0, "unique_species_count": 27.0, "countryCode": "LY" }, "geometry": { "type": "MultiPolygon", "coordinates": [ [ [ [ 17.967852565479305, 28.878298472039884 ], [ 18.416256963238617, 28.172121100686525 ], [ 17.858218888584158, 27.461064621845242 ], [ 16.858352678129361, 27.452275481543204 ], [ 16.397927170613592, 28.148960271871832 ], [ 16.94958126111516, 28.864380307562218 ], [ 17.967852565479305, 28.878298472039884 ] ] ] ] } },
{ "type": "Feature", "properties": { "geogrid_id": "728631258012822070", "seqnum": 5017.0, "lat_c": 28.631258498113414, "lon_c": 12.822069645633643, "res": 7.0, "count_Birds": 0, "count_Mammals": 0, "count_Insects": 0, "count_Reptiles": 2, "count_Flowering Plants": 8, "count_Amphibians": 0, "count_Molluscs": 0, "count_Gymnosperms": 0, "count_Sac Fungi": 0, "count_Basidiomycota": 0, "count_Arachnids": 0, "count_Ferns": 0, "unique_species_count": 10.0, "countryCode": "LY" }, "geometry": { "type": "MultiPolygon", "coordinates": [ [ [ [ 13.357990427034091, 29.373264837889252 ], [ 13.863545913169723, 28.727732818135014 ], [ 13.329443930175827, 27.994255772738736 ], [ 12.292361069473731, 27.882498040413694 ], [ 11.774662439685658, 28.487945548277846 ], [ 12.305670401055957, 29.25113481895773 ], [ 13.357990427034091, 29.373264837889252 ] ] ] ] } },
{ "type": "Feature", "properties": { "geogrid_id": "728834385022007014", "seqnum": 5263.0, "lat_c": 28.834385249501249, "lon_c": 22.007014429654717, "res": 7.0, "count_Birds": 1, "count_Mammals": 0, "count_Insects": 0, "count_Reptiles": 0, "count_Flowering Plants": 0, "count_Amphibians": 0, "count_Molluscs": 0, "count_Gymnosperms": 0, "count_Sac Fungi": 0, "count_Basidiomycota": 0, "count_Arachnids": 0, "count_Ferns": 0, "unique_species_count": 1.0, "countryCode": "LY" }, "geometry": { "type": "MultiPolygon", "coordinates": [ [ [ [ 22.603996732185216, 29.531137916271106 ], [ 23.010575084537074, 28.802928788237004 ], [ 22.414577756729759, 28.106838505985831 ], [ 21.41855264269504, 28.134916090288904 ], [ 21.001321935696325, 28.858255280522759 ], [ 21.590673486006185, 29.558423612569005 ], [ 22.603996732185216, 29.531137916271106 ] ] ] ] } },
{ "type": "Feature", "properties": { "geogrid_id": "728837171015926652", "seqnum": 5099.0, "lat_c": 28.837170636801169, "lon_c": 15.926651836429345, "res": 7.0, "count_Birds": 1, "count_Mammals": 0, "count_Insects": 0, "count_Reptiles": 0, "count_Flowering Plants": 15, "count_Amphibians": 0, "count_Molluscs": 0, "count_Gymnosperms": 0, "count_Sac Fungi": 0, "count_Basidiomycota": 0, "count_Arachnids": 0, "count_Ferns": 0, "unique_species_count": 16.0, "countryCode": "LY" }, "geometry": { "type": "MultiPolygon", "coordinates": [ [ [ [ 16.479492881176487, 29.554798729949656 ], [ 16.94958126111516, 28.864380307562218 ], [ 16.397927170613592, 28.148960271871832 ], [ 15.38154559013724, 28.117730006624967 ], [ 14.898245757528311, 28.793386121325842 ], [ 15.444796091400896, 29.516153465810721 ], [ 16.479492881176487, 29.554798729949656 ] ] ] ] } },
{ "type": "Feature", "properties": { "geogrid_id": "729071647011250000", "seqnum": 4963.0, "lat_c": 29.071647225301817, "lon_c": 11.249999999625535, "res": 7.0, "count_Birds": 0, "count_Mammals": 0, "count_Insects": 0, "count_Reptiles": 2, "count_Flowering Plants": 0, "count_Amphibians": 0, "count_Molluscs": 0, "count_Gymnosperms": 0, "count_Sac Fungi": 0, "count_Basidiomycota": 0, "count_Arachnids": 0, "count_Ferns": 0, "unique_species_count": 2.0, "countryCode": "LY" }, "geometry": { "type": "MultiPolygon", "coordinates": [ [ [ [ 11.781291590745512, 29.85288769980933 ], [ 12.305670401055957, 29.25113481895773 ], [ 11.774662439685658, 28.487945548277846 ], [ 10.725337559953557, 28.487945547866325 ], [ 10.194329598530933, 29.251134818472881 ], [ 10.71870840882675, 29.85288769932944 ], [ 11.781291590745512, 29.85288769980933 ] ] ] ] } },
{ "type": "Feature", "properties": { "geogrid_id": "729457868014404455", "seqnum": 5045.0, "lat_c": 29.45786850027843, "lon_c": 14.404455398378067, "res": 7.0, "count_Birds": 1, "count_Mammals": 0, "count_Insects": 0, "count_Reptiles": 0, "count_Flowering Plants": 4, "count_Amphibians": 0, "count_Molluscs": 0, "count_Gymnosperms": 0, "count_Sac Fungi": 0, "count_Basidiomycota": 0, "count_Arachnids": 0, "count_Ferns": 0, "unique_species_count": 5.0, "countryCode": "LY" }, "geometry": { "type": "MultiPolygon", "coordinates": [ [ [ [ 14.952656254224658, 30.185185270733587 ], [ 15.444796091400896, 29.516153465810721 ], [ 14.898245757528311, 28.793386121325842 ], [ 13.863545913169723, 28.727732818135014 ], [ 13.357990427034091, 29.373264837889252 ], [ 13.90064842369463, 30.110355995176171 ], [ 14.952656254224658, 30.185185270733587 ] ] ] ] } },
{ "type": "Feature", "properties": { "geogrid_id": "730004154009656903", "seqnum": 4908.0, "lat_c": 30.004154474272163, "lon_c": 9.656902871531166, "res": 7.0, "count_Birds": 1, "count_Mammals": 1, "count_Insects": 0, "count_Reptiles": 1, "count_Flowering Plants": 0, "count_Amphibians": 0, "count_Molluscs": 0, "count_Gymnosperms": 0, "count_Sac Fungi": 0, "count_Basidiomycota": 0, "count_Arachnids": 0, "count_Ferns": 0, "unique_species_count": 3.0, "countryCode": "LY" }, "geometry": { "type": "MultiPolygon", "coordinates": [ [ [ [ 10.180385891714634, 30.619562701681904 ], [ 10.71870840882675, 29.85288769932944 ], [ 10.194329598530933, 29.251134818472881 ], [ 9.142009572515846, 29.373264837326303 ], [ 8.599351575804064, 30.110355994539272 ], [ 9.112670210891274, 30.750078947384221 ], [ 10.180385891714634, 30.619562701681904 ] ] ] ] } },
{ "type": "Feature", "properties": { "geogrid_id": "730004154012843097", "seqnum": 4990.0, "lat_c": 30.004154474830624, "lon_c": 12.843097128003524, "res": 7.0, "count_Birds": 1, "count_Mammals": 0, "count_Insects": 0, "count_Reptiles": 0, "count_Flowering Plants": 0, "count_Amphibians": 0, "count_Molluscs": 0, "count_Gymnosperms": 0, "count_Sac Fungi": 0, "count_Basidiomycota": 0, "count_Arachnids": 0, "count_Ferns": 0, "unique_species_count": 1.0, "countryCode": "LY" }, "geometry": { "type": "MultiPolygon", "coordinates": [ [ [ [ 13.387329788591355, 30.750078948016672 ], [ 13.90064842369463, 30.110355995176171 ], [ 13.357990427034091, 29.373264837889252 ], [ 12.305670401055957, 29.25113481895773 ], [ 11.781291590745512, 29.85288769980933 ], [ 12.319614107804526, 30.619562702235559 ], [ 13.387329788591355, 30.750078948016672 ] ] ] ] } },
{ "type": "Feature", "properties": { "geogrid_id": "730140277025245726", "seqnum": 5318.0, "lat_c": 30.140277405567602, "lon_c": 25.245726418930044, "res": 7.0, "count_Birds": 1, "count_Mammals": 1, "count_Insects": 2, "count_Reptiles": 0, "count_Flowering Plants": 0, "count_Amphibians": 0, "count_Molluscs": 0, "count_Gymnosperms": 0, "count_Sac Fungi": 0, "count_Basidiomycota": 0, "count_Arachnids": 0, "count_Ferns": 0, "unique_species_count": 4.0, "countryCode": "LY" }, "geometry": { "type": "MultiPolygon", "coordinates": [ [ [ [ 25.876631714302391, 30.823634937633496 ], [ 26.260837383046812, 30.086903016576002 ], [ 25.631943176009017, 29.404378658216977 ], [ 24.624422663559468, 29.453799107054255 ], [ 24.228817313010179, 30.186445827180695 ], [ 24.851967634966517, 30.873783435525819 ], [ 25.876631714302391, 30.823634937633496 ] ] ] ] } },
{ "type": "Feature", "properties": { "geogrid_id": "730236871015999106", "seqnum": 5072.0, "lat_c": 30.236871132411466, "lon_c": 15.999105648074369, "res": 7.0, "count_Birds": 1, "count_Mammals": 0, "count_Insects": 0, "count_Reptiles": 0, "count_Flowering Plants": 0, "count_Amphibians": 0, "count_Molluscs": 0, "count_Gymnosperms": 0, "count_Sac Fungi": 0, "count_Basidiomycota": 0, "count_Arachnids": 0, "count_Ferns": 0, "unique_species_count": 1.0, "countryCode": "LY" }, "geometry": { "type": "MultiPolygon", "coordinates": [ [ [ [ 16.561578616812607, 30.955574835546155 ], [ 17.040436135602491, 30.270576613890828 ], [ 16.479492881176487, 29.554798729949656 ], [ 15.444796091400896, 29.516153465810721 ], [ 14.952656254224658, 30.185185270733587 ], [ 15.508606423524041, 30.909983361114943 ], [ 16.561578616812607, 30.955574835546155 ] ] ] ] } },
{ "type": "Feature", "properties": { "geogrid_id": "730296398019109981", "seqnum": 5154.0, "lat_c": 30.296397947749551, "lon_c": 19.109980622982008, "res": 7.0, "count_Birds": 5, "count_Mammals": 0, "count_Insects": 0, "count_Reptiles": 0, "count_Flowering Plants": 2, "count_Amphibians": 0, "count_Molluscs": 0, "count_Gymnosperms": 0, "count_Sac Fungi": 0, "count_Basidiomycota": 0, "count_Arachnids": 0, "count_Ferns": 0, "unique_species_count": 7.0, "countryCode": "LY" }, "geometry": { "type": "MultiPolygon", "coordinates": [ [ [ [ 19.694210453112735, 31.002325102759009 ], [ 20.139244626637542, 30.29234302582892 ], [ 19.556384846873026, 29.587802232420117 ], [ 18.53465478481229, 29.588367050959288 ], [ 18.077210007840613, 30.289664624544585 ], [ 18.653916311189707, 30.999396983056652 ], [ 19.694210453112735, 31.002325102759009 ] ] ] ] } },
{ "type": "Feature", "properties": { "geogrid_id": "730435650011250000", "seqnum": 4936.0, "lat_c": 30.435649509574858, "lon_c": 11.249999999557547, "res": 7.0, "count_Birds": 1, "count_Mammals": 0, "count_Insects": 0, "count_Reptiles": 1, "count_Flowering Plants": 0, "count_Amphibians": 0, "count_Molluscs": 0, "count_Gymnosperms": 0, "count_Sac Fungi": 0, "count_Basidiomycota": 0, "count_Arachnids": 0, "count_Ferns": 0, "unique_species_count": 2.0, "countryCode": "LY" }, "geometry": { "type": "MultiPolygon", "coordinates": [ [ [ [ 11.788316237192445, 31.218735539143786 ], [ 12.319614107804526, 30.619562702235559 ], [ 11.781291590745512, 29.85288769980933 ], [ 10.71870840882675, 29.85288769932944 ], [ 10.180385891714634, 30.619562701681904 ], [ 10.711683762310974, 31.218735538595332 ], [ 11.788316237192445, 31.218735539143786 ] ] ] ] } },
{ "type": "Feature", "properties": { "geogrid_id": "730843575014450555", "seqnum": 5018.0, "lat_c": 30.843575441276315, "lon_c": 14.450555155558451, "res": 7.0, "count_Birds": 0, "count_Mammals": 0, "count_Insects": 0, "count_Reptiles": 0, "count_Flowering Plants": 1, "count_Amphibians": 0, "count_Molluscs": 6, "count_Gymnosperms": 0, "count_Sac Fungi": 0, "count_Basidiomycota": 0, "count_Arachnids": 0, "count_Ferns": 0, "unique_species_count": 7.0, "countryCode": "LY" }, "geometry": { "type": "MultiPolygon", "coordinates": [ [ [ [ 15.008203294862151, 31.57354457759844 ], [ 15.508606423524041, 30.909983361114943 ], [ 14.952656254224658, 30.185185270733587 ], [ 13.90064842369463, 30.110355995176171 ], [ 13.387329788591355, 30.750078948016672 ], [ 13.938841569505758, 31.490669193671003 ], [ 15.008203294862151, 31.57354457759844 ] ] ] ] } },
{ "type": "Feature", "properties": { "geogrid_id": "730984455017609859", "seqnum": 5100.0, "lat_c": 30.984455178512672, "lon_c": 17.609859070873643, "res": 7.0, "count_Birds": 1, "count_Mammals": 0, "count_Insects": 0, "count_Reptiles": 1, "count_Flowering Plants": 1, "count_Amphibians": 0, "count_Molluscs": 0, "count_Gymnosperms": 0, "count_Sac Fungi": 0, "count_Basidiomycota": 0, "count_Arachnids": 0, "count_Ferns": 0, "unique_species_count": 3.0, "countryCode": "LY" }, "geometry": { "type": "MultiPolygon", "coordinates": [ [ [ [ 18.188151099044884, 31.696376083362853 ], [ 18.653916311189707, 30.999396983056652 ], [ 18.077210007840613, 30.289664624544585 ], [ 17.040436135602491, 30.270576613890828 ], [ 16.561578616812607, 30.955574835546155 ], [ 17.132622529370156, 31.672265229509115 ], [ 18.188151099044884, 31.696376083362853 ] ] ] ] } },
{ "type": "Feature", "properties": { "geogrid_id": "730994609020731158", "seqnum": 5182.0, "lat_c": 30.994608859327954, "lon_c": 20.731158193362663, "res": 7.0, "count_Birds": 4, "count_Mammals": 0, "count_Insects": 0, "count_Reptiles": 0, "count_Flowering Plants": 21, "count_Amphibians": 0, "count_Molluscs": 3, "count_Gymnosperms": 0, "count_Sac Fungi": 0, "count_Basidiomycota": 0, "count_Arachnids": 0, "count_Ferns": 0, "unique_species_count": 28.0, "countryCode": "LY" }, "geometry": { "type": "MultiPolygon", "coordinates": [ [ [ [ 21.332529531766635, 31.694531285761968 ], [ 21.76512235516363, 30.977243809351119 ], [ 21.165429454534085, 30.278611759771731 ], [ 20.139244626637542, 30.29234302582892 ], [ 19.694210453112735, 31.002325102759009 ], [ 20.287737294926142, 31.706075620875943 ], [ 21.332529531766635, 31.694531285761968 ] ] ] ] } },
{ "type": "Feature", "properties": { "geogrid_id": "731376323009634967", "seqnum": 4882.0, "lat_c": 31.37632277396877, "lon_c": 9.6349665994485498, "res": 7.0, "count_Birds": 0, "count_Mammals": 0, "count_Insects": 0, "count_Reptiles": 2, "count_Flowering Plants": 0, "count_Amphibians": 0, "count_Molluscs": 0, "count_Gymnosperms": 0, "count_Sac Fungi": 0, "count_Basidiomycota": 0, "count_Arachnids": 0, "count_Ferns": 0, "unique_species_count": 2.0, "countryCode": "LY" }, "geometry": { "type": "MultiPolygon", "coordinates": [ [ [ [ 10.165680235849877, 31.988430916324145 ], [ 10.711683762310974, 31.218735538595332 ], [ 10.180385891714634, 30.619562701681904 ], [ 9.112670210891274, 30.750078947384221 ], [ 8.561158429924994, 31.490669192964141 ], [ 9.082110534663363, 32.125850186133505 ], [ 10.165680235849877, 31.988430916324145 ] ] ] ] } },
{ "type": "Feature", "properties": { "geogrid_id": "731376323012865033", "seqnum": 4964.0, "lat_c": 31.376322774596506, "lon_c": 12.865033400017658, "res": 7.0, "count_Birds": 3, "count_Mammals": 0, "count_Insects": 0, "count_Reptiles": 0, "count_Flowering Plants": 0, "count_Amphibians": 0, "count_Molluscs": 1, "count_Gymnosperms": 0, "count_Sac Fungi": 0, "count_Basidiomycota": 0, "count_Arachnids": 0, "count_Ferns": 0, "unique_species_count": 4.0, "countryCode": "LY" }, "geometry": { "type": "MultiPolygon", "coordinates": [ [ [ [ 13.417889464750068, 32.125850186835713 ], [ 13.938841569505758, 31.490669193671003 ], [ 13.387329788591355, 30.750078948016672 ], [ 12.319614107804526, 30.619562702235559 ], [ 11.788316237192445, 31.218735539143786 ], [ 12.334319763599609, 31.988430916946832 ], [ 13.417889464750068, 32.125850186835713 ] ] ] ] } },
{ "type": "Feature", "properties": { "geogrid_id": "731558092025485070", "seqnum": 5292.0, "lat_c": 31.558091976687873, "lon_c": 25.485069744884502, "res": 7.0, "count_Birds": 3, "count_Mammals": 1, "count_Insects": 1, "count_Reptiles": 0, "count_Flowering Plants": 0, "count_Amphibians": 0, "count_Molluscs": 0, "count_Gymnosperms": 0, "count_Sac Fungi": 0, "count_Basidiomycota": 0, "count_Arachnids": 0, "count_Ferns": 0, "unique_species_count": 5.0, "countryCode": "LY" }, "geometry": { "type": "MultiPolygon", "coordinates": [ [ [ [ 26.128575727784746, 32.23929488287537 ], [ 26.517595090045468, 31.503803667307761 ], [ 25.876631714302391, 30.823634937633496 ], [ 24.851967634966517, 30.873783435525819 ], [ 24.450475449435086, 31.604674828111026 ], [ 25.085948250241977, 32.29007255412121 ], [ 26.128575727784746, 32.23929488287537 ] ] ] ] } },
{ "type": "Feature", "properties": { "geogrid_id": "731632435016072751", "seqnum": 5046.0, "lat_c": 31.632434726872052, "lon_c": 16.072751380059387, "res": 7.0, "count_Birds": 1, "count_Mammals": 0, "count_Insects": 0, "count_Reptiles": 1, "count_Flowering Plants": 0, "count_Amphibians": 0, "count_Molluscs": 0, "count_Gymnosperms": 0, "count_Sac Fungi": 0, "count_Basidiomycota": 0, "count_Arachnids": 0, "count_Ferns": 0, "unique_species_count": 2.0, "countryCode": "LY" }, "geometry": { "type": "MultiPolygon", "coordinates": [ [ [ [ 16.645533316692589, 32.352632117150414 ], [ 17.132622529370156, 31.672265229509115 ], [ 16.561578616812607, 30.955574835546155 ], [ 15.508606423524041, 30.909983361114943 ], [ 15.008203294862151, 31.57354457759844 ], [ 15.574072643321674, 32.300643460343345 ], [ 16.645533316692589, 32.352632117150414 ] ] ] ] } },
{ "type": "Feature", "properties": { "geogrid_id": "731673357022374413", "seqnum": 5210.0, "lat_c": 31.673357412130603, "lon_c": 22.374413032992898, "res": 7.0, "count_Birds": 0, "count_Mammals": 0, "count_Insects": 0, "count_Reptiles": 0, "count_Flowering Plants": 2, "count_Amphibians": 0, "count_Molluscs": 35, "count_Gymnosperms": 0, "count_Sac Fungi": 0, "count_Basidiomycota": 1, "count_Arachnids": 0, "count_Ferns": 0, "unique_species_count": 38.0, "countryCode": "LY" }, "geometry": { "type": "MultiPolygon", "coordinates": [ [ [ [ 22.99372705715561, 32.366877747439986 ], [ 23.413653183967693, 31.643231803109344 ], [ 22.796412199704541, 30.950968089063785 ], [ 21.76512235516363, 30.977243809351119 ], [ 21.332529531766635, 31.694531285761968 ], [ 21.943774180222597, 32.392033160352177 ], [ 22.99372705715561, 32.366877747439986 ] ] ] ] } },
{ "type": "Feature", "properties": { "geogrid_id": "731707093019239728", "seqnum": 5128.0, "lat_c": 31.707093302906706, "lon_c": 19.239728016118516, "res": 7.0, "count_Birds": 3, "count_Mammals": 1, "count_Insects": 1, "count_Reptiles": 1, "count_Flowering Plants": 6, "count_Amphibians": 0, "count_Molluscs": 2, "count_Gymnosperms": 0, "count_Sac Fungi": 0, "count_Basidiomycota": 0, "count_Arachnids": 0, "count_Ferns": 0, "unique_species_count": 14.0, "countryCode": "LY" }, "geometry": { "type": "MultiPolygon", "coordinates": [ [ [ [ 19.835046520766223, 32.412674829003706 ], [ 20.287737294926142, 31.706075620875943 ], [ 19.694210453112735, 31.002325102759009 ], [ 18.653916311189707, 30.999396983056652 ], [ 18.188151099044884, 31.696376083362853 ], [ 18.775715025546539, 32.406272933424624 ], [ 19.835046520766223, 32.412674829003706 ] ] ] ] } },
{ "type": "Feature", "properties": { "geogrid_id": "731801007011250000", "seqnum": 4909.0, "lat_c": 31.80100667216503, "lon_c": 11.249999999487558, "res": 7.0, "count_Birds": 2, "count_Mammals": 1, "count_Insects": 1, "count_Reptiles": 1, "count_Flowering Plants": 1, "count_Amphibians": 0, "count_Molluscs": 0, "count_Gymnosperms": 1, "count_Sac Fungi": 0, "count_Basidiomycota": 0, "count_Arachnids": 0, "count_Ferns": 0, "unique_species_count": 7.0, "countryCode": "LY" }, "geometry": { "type": "MultiPolygon", "coordinates": [ [ [ [ 11.795773391813805, 32.585807147789914 ], [ 12.334319763599609, 31.988430916946832 ], [ 11.788316237192445, 31.218735539143786 ], [ 10.711683762310974, 31.218735538595332 ], [ 10.165680235849877, 31.988430916324145 ], [ 10.704226607618713, 32.585807147172659 ], [ 11.795773391813805, 32.585807147789914 ] ] ] ] } },
{ "type": "Feature", "properties": { "geogrid_id": "732226989014498126", "seqnum": 4991.0, "lat_c": 32.226989387863988, "lon_c": 14.498125667840709, "res": 7.0, "count_Birds": 10, "count_Mammals": 0, "count_Insects": 10, "count_Reptiles": 4, "count_Flowering Plants": 16, "count_Amphibians": 1, "count_Molluscs": 0, "count_Gymnosperms": 0, "count_Sac Fungi": 0, "count_Basidiomycota": 0, "count_Arachnids": 3, "count_Ferns": 0, "unique_species_count": 44.0, "countryCode": "LY" }, "geometry": { "type": "MultiPolygon", "coordinates": [ [ [ [ 15.065677840425947, 32.959706504219071 ], [ 15.574072643321674, 32.300643460343345 ], [ 15.008203294862151, 31.57354457759844 ], [ 13.938841569505758, 31.490669193671003 ], [ 13.417889464750068, 32.125850186835713 ], [ 13.978624251701003, 32.869779782080123 ], [ 15.065677840425947, 32.959706504219071 ] ] ] ] } },
{ "type": "Feature", "properties": { "geogrid_id": "732332729024041054", "seqnum": 5237.0, "lat_c": 32.332728502606535, "lon_c": 24.041053621699081, "res": 7.0, "count_Birds": 9, "count_Mammals": 1, "count_Insects": 0, "count_Reptiles": 1, "count_Flowering Plants": 2, "count_Amphibians": 0, "count_Molluscs": 1, "count_Gymnosperms": 0, "count_Sac Fungi": 0, "count_Basidiomycota": 0, "count_Arachnids": 0, "count_Ferns": 0, "unique_species_count": 14.0, "countryCode": "LY" }, "geometry": { "type": "MultiPolygon", "coordinates": [ [ [ [ 24.679058118855629, 33.019373767346217 ], [ 25.085948250241977, 32.29007255412121 ], [ 24.450475449435086, 31.604674828111026 ], [ 23.413653183967693, 31.643231803109344 ], [ 22.99372705715561, 32.366877747439986 ], [ 23.623501053353536, 33.057720346021817 ], [ 24.679058118855629, 33.019373767346217 ] ] ] ] } },
{ "type": "Feature", "properties": { "geogrid_id": "732386919017712653", "seqnum": 5073.0, "lat_c": 32.386918775209502, "lon_c": 17.712652602430325, "res": 7.0, "count_Birds": 0, "count_Mammals": 0, "count_Insects": 0, "count_Reptiles": 1, "count_Flowering Plants": 0, "count_Amphibians": 0, "count_Molluscs": 0, "count_Gymnosperms": 0, "count_Sac Fungi": 0, "count_Basidiomycota": 0, "count_Arachnids": 0, "count_Ferns": 0, "unique_species_count": 1.0, "countryCode": "LY" }, "geometry": { "type": "MultiPolygon", "coordinates": [ [ [ [ 18.302094787077198, 33.099494008516103 ], [ 18.775715025546539, 32.406272933424624 ], [ 18.188151099044884, 31.696376083362853 ], [ 17.132622529370156, 31.672265229509115 ], [ 16.645533316692589, 32.352632117150414 ], [ 17.227397497346722, 33.070616305960009 ], [ 18.302094787077198, 33.099494008516103 ] ] ] ] } },
{ "type": "Feature", "properties": { "geogrid_id": "732407570020890968", "seqnum": 5155.0, "lat_c": 32.407569912449176, "lon_c": 20.890967890821429, "res": 7.0, "count_Birds": 3, "count_Mammals": 2, "count_Insects": 25, "count_Reptiles": 2, "count_Flowering Plants": 116, "count_Amphibians": 0, "count_Molluscs": 11, "count_Gymnosperms": 2, "count_Sac Fungi": 1, "count_Basidiomycota": 0, "count_Arachnids": 0, "count_Ferns": 0, "unique_species_count": 162.0, "countryCode": "LY" }, "geometry": { "type": "MultiPolygon", "coordinates": [ [ [ [ 21.504323665405362, 33.10672166288419 ], [ 21.943774180222597, 32.392033160352177 ], [ 21.332529531766635, 31.694531285761968 ], [ 20.287737294926142, 31.706075620875943 ], [ 19.835046520766223, 32.412674829003706 ], [ 20.440288744558782, 33.116057109995303 ], [ 21.504323665405362, 33.10672166288419 ] ] ] ] } },
{ "type": "Feature", "properties": { "geogrid_id": "732748543012888097", "seqnum": 4937.0, "lat_c": 32.748542786115642, "lon_c": 12.888097074806701, "res": 7.0, "count_Birds": 14, "count_Mammals": 6, "count_Insects": 28, "count_Reptiles": 9, "count_Flowering Plants": 27, "count_Amphibians": 0, "count_Molluscs": 6, "count_Gymnosperms": 0, "count_Sac Fungi": 0, "count_Basidiomycota": 0, "count_Arachnids": 4, "count_Ferns": 0, "unique_species_count": 94.0, "countryCode": "LY" }, "geometry": { "type": "MultiPolygon", "coordinates": [ [ [ [ 13.449970930283298, 33.501406871987939 ], [ 13.978624251701003, 32.869779782080123 ], [ 13.417889464750068, 32.125850186835713 ], [ 12.334319763599609, 31.988430916946832 ], [ 11.795773391813805, 32.585807147789914 ], [ 12.34988578921863, 33.358213960534329 ], [ 13.449970930283298, 33.501406871987939 ] ] ] ] } },
{ "type": "Feature", "properties": { "geogrid_id": "732972446025732158", "seqnum": 5265.0, "lat_c": 32.972446409945604, "lon_c": 25.732158351587319, "res": 7.0, "count_Birds": 1, "count_Mammals": 0, "count_Insects": 0, "count_Reptiles": 0, "count_Flowering Plants": 0, "count_Amphibians": 0, "count_Molluscs": 0, "count_Gymnosperms": 0, "count_Sac Fungi": 0, "count_Basidiomycota": 0, "count_Arachnids": 0, "count_Ferns": 0, "unique_species_count": 1.0, "countryCode": "LY" }, "geometry": { "type": "MultiPolygon", "coordinates": [ [ [ [ 26.389567109298234, 33.651700162519965 ], [ 26.782943576982358, 32.917304230407431 ], [ 26.128575727784746, 32.23929488287537 ], [ 25.085948250241977, 32.29007255412121 ], [ 24.679058118855629, 33.019373767346217 ], [ 25.328122300961432, 33.703073068319114 ], [ 26.389567109298234, 33.651700162519965 ] ] ] ] } },
{ "type": "Feature", "properties": { "geogrid_id": "733025105016148637", "seqnum": 5019.0, "lat_c": 33.02510522905154, "lon_c": 16.148637355371211, "res": 7.0, "count_Birds": 0, "count_Mammals": 0, "count_Insects": 0, "count_Reptiles": 1, "count_Flowering Plants": 0, "count_Amphibians": 0, "count_Molluscs": 0, "count_Gymnosperms": 0, "count_Sac Fungi": 0, "count_Basidiomycota": 0, "count_Arachnids": 0, "count_Ferns": 0, "unique_species_count": 1.0, "countryCode": "LY" }, "geometry": { "type": "MultiPolygon", "coordinates": [ [ [ [ 16.73237216308738, 33.747068553051207 ], [ 17.227397497346722, 33.070616305960009 ], [ 16.645533316692589, 32.352632117150414 ], [ 15.574072643321674, 32.300643460343345 ], [ 15.065677840425947, 32.959706504219071 ], [ 15.641994153754229, 33.689247167593869 ], [ 16.73237216308738, 33.747068553051207 ] ] ] ] } },
{ "type": "Feature", "properties": { "geogrid_id": "733087029022565321", "seqnum": 5183.0, "lat_c": 33.087029038829435, "lon_c": 22.565320683284078, "res": 7.0, "count_Birds": 10, "count_Mammals": 1, "count_Insects": 17, "count_Reptiles": 1, "count_Flowering Plants": 128, "count_Amphibians": 1, "count_Molluscs": 4, "count_Gymnosperms": 5, "count_Sac Fungi": 2, "count_Basidiomycota": 0, "count_Arachnids": 0, "count_Ferns": 3, "unique_species_count": 172.0, "countryCode": "LY" }, "geometry": { "type": "MultiPolygon", "coordinates": [ [ [ [ 23.197611812408713, 33.779425338974832 ], [ 23.623501053353536, 33.057720346021817 ], [ 22.99372705715561, 32.366877747439986 ], [ 21.943774180222597, 32.392033160352177 ], [ 21.504323665405362, 33.10672166288419 ], [ 22.128241617837816, 33.803437683991568 ], [ 23.197611812408713, 33.779425338974832 ] ] ] ] } },
{ "type": "Feature", "properties": { "geogrid_id": "733114072019372968", "seqnum": 5101.0, "lat_c": 33.114071870936172, "lon_c": 19.372968266849835, "res": 7.0, "count_Birds": 0, "count_Mammals": 1, "count_Insects": 0, "count_Reptiles": 1, "count_Flowering Plants": 0, "count_Amphibians": 0, "count_Molluscs": 0, "count_Gymnosperms": 0, "count_Sac Fungi": 0, "count_Basidiomycota": 0, "count_Arachnids": 0, "count_Ferns": 0, "unique_species_count": 2.0, "countryCode": "LY" }, "geometry": { "type": "MultiPolygon", "coordinates": [ [ [ [ 19.980343937972105, 33.819691816890845 ], [ 20.440288744558782, 33.116057109995303 ], [ 19.835046520766223, 32.412674829003706 ], [ 18.775715025546539, 32.406272933424624 ], [ 18.302094787077198, 33.099494008516103 ], [ 18.901388059925655, 33.809935256891542 ], [ 19.980343937972105, 33.819691816890845 ] ] ] ] } },
{ "type": "Feature", "properties": { "geogrid_id": "733167917011250000", "seqnum": 4883.0, "lat_c": 33.167917222182695, "lon_c": 11.249999999415385, "res": 7.0, "count_Birds": 1, "count_Mammals": 0, "count_Insects": 0, "count_Reptiles": 1, "count_Flowering Plants": 0, "count_Amphibians": 0, "count_Molluscs": 1, "count_Gymnosperms": 0, "count_Sac Fungi": 0, "count_Basidiomycota": 0, "count_Arachnids": 0, "count_Ferns": 0, "unique_species_count": 3.0, "countryCode": "LY" }, "geometry": { "type": "MultiPolygon", "coordinates": [ [ [ [ 11.803698869982593, 33.954374805353012 ], [ 12.34988578921863, 33.358213960534329 ], [ 11.795773391813805, 32.585807147789914 ], [ 10.704226607618713, 32.585807147172659 ], [ 10.15011421015906, 33.358213959842345 ], [ 10.696301129376776, 33.954374804666692 ], [ 11.803698869982593, 33.954374805353012 ] ] ] ] } },
{ "type": "Feature", "properties": { "geogrid_id": "733609149014547720", "seqnum": 4965.0, "lat_c": 33.609149078838485, "lon_c": 14.547720000292827, "res": 7.0, "count_Birds": 1, "count_Mammals": 0, "count_Insects": 0, "count_Reptiles": 1, "count_Flowering Plants": 0, "count_Amphibians": 0, "count_Molluscs": 0, "count_Gymnosperms": 0, "count_Sac Fungi": 0, "count_Basidiomycota": 0, "count_Arachnids": 0, "count_Ferns": 0, "unique_species_count": 2.0, "countryCode": "LY" }, "geometry": { "type": "MultiPolygon", "coordinates": [ [ [ [ 15.125677382540632, 34.344634852689666 ], [ 15.641994153754229, 33.689247167593869 ], [ 15.065677840425947, 32.959706504219071 ], [ 13.978624251701003, 32.869779782080123 ], [ 13.449970930283298, 33.501406871987939 ], [ 14.02037006311749, 34.248517494957042 ], [ 15.125677382540632, 34.344634852689666 ] ] ] ] } },
{ "type": "Feature", "properties": { "geogrid_id": "733745791024264184", "seqnum": 5211.0, "lat_c": 33.745791467522309, "lon_c": 24.264184278940355, "res": 7.0, "count_Birds": 0, "count_Mammals": 0, "count_Insects": 0, "count_Reptiles": 1, "count_Flowering Plants": 0, "count_Amphibians": 0, "count_Molluscs": 0, "count_Gymnosperms": 0, "count_Sac Fungi": 0, "count_Basidiomycota": 0, "count_Arachnids": 0, "count_Ferns": 0, "unique_species_count": 1.0, "countryCode": "LY" }, "geometry": { "type": "MultiPolygon", "coordinates": [ [ [ [ 24.916239936003155, 34.430988262521382 ], [ 25.328122300961432, 33.703073068319114 ], [ 24.679058118855629, 33.019373767346217 ], [ 23.623501053353536, 33.057720346021817 ], [ 23.197611812408713, 33.779425338974832 ], [ 23.84110563616154, 34.469120332899628 ], [ 24.916239936003155, 34.430988262521382 ] ] ] ] } },
{ "type": "Feature", "properties": { "geogrid_id": "733786392017818797", "seqnum": 5047.0, "lat_c": 33.786391943642712, "lon_c": 17.818796796488503, "res": 7.0, "count_Birds": 0, "count_Mammals": 0, "count_Insects": 0, "count_Reptiles": 1, "count_Flowering Plants": 0, "count_Amphibians": 0, "count_Molluscs": 0, "count_Gymnosperms": 0, "count_Sac Fungi": 0, "count_Basidiomycota": 0, "count_Arachnids": 0, "count_Ferns": 0, "unique_species_count": 1.0, "countryCode": "LY" }, "geometry": { "type": "MultiPolygon", "coordinates": [ [ [ [ 18.420195085273974, 34.499937131729574 ], [ 18.901388059925655, 33.809935256891542 ], [ 18.302094787077198, 33.099494008516103 ], [ 17.227397497346722, 33.070616305960009 ], [ 16.73237216308738, 33.747068553051207 ], [ 17.325757358206424, 34.466608232430993 ], [ 18.420195085273974, 34.499937131729574 ] ] ] ] } },
{ "type": "Feature", "properties": { "geogrid_id": "733817150021055888", "seqnum": 5129.0, "lat_c": 33.817149643098581, "lon_c": 21.055887880593257, "res": 7.0, "count_Birds": 1, "count_Mammals": 0, "count_Insects": 0, "count_Reptiles": 0, "count_Flowering Plants": 0, "count_Amphibians": 0, "count_Molluscs": 0, "count_Gymnosperms": 0, "count_Sac Fungi": 0, "count_Basidiomycota": 0, "count_Arachnids": 0, "count_Ferns": 0, "unique_species_count": 1.0, "countryCode": "LY" }, "geometry": { "type": "MultiPolygon", "coordinates": [ [ [ [ 21.682294168932362, 34.515855495269491 ], [ 22.128241617837816, 33.803437683991568 ], [ 21.504323665405362, 33.10672166288419 ], [ 20.440288744558782, 33.116057109995303 ], [ 19.980343937972105, 33.819691816890845 ], [ 20.598291868622567, 34.523044489991754 ], [ 21.682294168932362, 34.515855495269491 ] ] ] ] } },
{ "type": "Feature", "properties": { "geogrid_id": "734121392012912459", "seqnum": 4910.0, "lat_c": 34.121392415854821, "lon_c": 12.912458513850325, "res": 7.0, "count_Birds": 0, "count_Mammals": 0, "count_Insects": 0, "count_Reptiles": 1, "count_Flowering Plants": 0, "count_Amphibians": 0, "count_Molluscs": 0, "count_Gymnosperms": 0, "count_Sac Fungi": 0, "count_Basidiomycota": 0, "count_Arachnids": 0, "count_Ferns": 0, "unique_species_count": 1.0, "countryCode": "LY" }, "geometry": { "type": "MultiPolygon", "coordinates": [ [ [ [ 13.483817126640288, 34.877380367249245 ], [ 14.02037006311749, 34.248517494957042 ], [ 13.449970930283298, 33.501406871987939 ], [ 12.34988578921863, 33.358213960534329 ], [ 11.803698869982593, 33.954374805353012 ], [ 12.366400367379514, 34.72929012361616 ], [ 13.483817126640288, 34.877380367249245 ] ] ] ] } },
{ "type": "Feature", "properties": { "geogrid_id": "734415885016227573", "seqnum": 4992.0, "lat_c": 34.415884899464778, "lon_c": 16.227573333555803, "res": 7.0, "count_Birds": 0, "count_Mammals": 0, "count_Insects": 0, "count_Reptiles": 1, "count_Flowering Plants": 0, "count_Amphibians": 0, "count_Molluscs": 0, "count_Gymnosperms": 0, "count_Sac Fungi": 0, "count_Basidiomycota": 0, "count_Arachnids": 0, "count_Ferns": 0, "unique_species_count": 1.0, "countryCode": "LY" }, "geometry": { "type": "MultiPolygon", "coordinates": [ [ [ [ 16.822920226590103, 35.139791104156934 ], [ 17.325757358206424, 34.466608232430993 ], [ 16.73237216308738, 33.747068553051207 ], [ 15.641994153754229, 33.689247167593869 ], [ 15.125677382540632, 34.344634852689666 ], [ 15.713008753087133, 35.076685072014044 ], [ 16.822920226590103, 35.139791104156934 ] ] ] ] } },
{ "type": "Feature", "properties": { "geogrid_id": "734497618022763175", "seqnum": 5156.0, "lat_c": 34.497617678731764, "lon_c": 22.763175175349115, "res": 7.0, "count_Birds": 1, "count_Mammals": 0, "count_Insects": 0, "count_Reptiles": 0, "count_Flowering Plants": 0, "count_Amphibians": 0, "count_Molluscs": 0, "count_Gymnosperms": 0, "count_Sac Fungi": 0, "count_Basidiomycota": 0, "count_Arachnids": 0, "count_Ferns": 0, "unique_species_count": 1.0, "countryCode": "LY" }, "geometry": { "type": "MultiPolygon", "coordinates": [ [ [ [ 23.409595024115365, 35.189153938570406 ], [ 23.84110563616154, 34.469120332899628 ], [ 23.197611812408713, 33.779425338974832 ], [ 22.128241617837816, 33.803437683991568 ], [ 21.682294168932362, 34.515855495269491 ], [ 22.31997568910284, 35.212070899184653 ], [ 23.409595024115365, 35.189153938570406 ] ] ] ] } },
{ "type": "Feature", "properties": { "geogrid_id": "734518175019510986", "seqnum": 5074.0, "lat_c": 34.518174867375969, "lon_c": 19.51098625842523, "res": 7.0, "count_Birds": 0, "count_Mammals": 0, "count_Insects": 0, "count_Reptiles": 1, "count_Flowering Plants": 0, "count_Amphibians": 0, "count_Molluscs": 0, "count_Gymnosperms": 0, "count_Sac Fungi": 0, "count_Basidiomycota": 0, "count_Arachnids": 0, "count_Ferns": 0, "unique_species_count": 1.0, "countryCode": "LY" }, "geometry": { "type": "MultiPolygon", "coordinates": [ [ [ [ 20.131359637286327, 35.224134526252342 ], [ 20.598291868622567, 34.523044489991754 ], [ 19.980343937972105, 33.819691816890845 ], [ 18.901388059925655, 33.809935256891542 ], [ 18.420195085273974, 34.499937131729574 ], [ 19.032069878968368, 35.211209363979656 ], [ 20.131359637286327, 35.224134526252342 ] ] ] ] } },
{ "type": "Feature", "properties": { "geogrid_id": "734990861014599775", "seqnum": 4938.0, "lat_c": 34.990860555439625, "lon_c": 14.599775425395096, "res": 7.0, "count_Birds": 0, "count_Mammals": 0, "count_Insects": 0, "count_Reptiles": 1, "count_Flowering Plants": 0, "count_Amphibians": 0, "count_Molluscs": 0, "count_Gymnosperms": 0, "count_Sac Fungi": 0, "count_Basidiomycota": 0, "count_Arachnids": 0, "count_Ferns": 0, "unique_species_count": 1.0, "countryCode": "LY" }, "geometry": { "type": "MultiPolygon", "coordinates": [ [ [ [ 15.188697832741806, 35.7290999393813 ], [ 15.713008753087133, 35.076685072014044 ], [ 15.125677382540632, 34.344634852689666 ], [ 14.02037006311749, 34.248517494957042 ], [ 13.483817126640288, 34.877380367249245 ], [ 14.064391897592015, 35.627532858246283 ], [ 15.188697832741806, 35.7290999393813 ] ] ] ] } },
{ "type": "Feature", "properties": { "geogrid_id": "735183754017929283", "seqnum": 5020.0, "lat_c": 35.183753776634475, "lon_c": 17.929282746014803, "res": 7.0, "count_Birds": 0, "count_Mammals": 1, "count_Insects": 0, "count_Reptiles": 1, "count_Flowering Plants": 0, "count_Amphibians": 0, "count_Molluscs": 0, "count_Gymnosperms": 0, "count_Sac Fungi": 0, "count_Basidiomycota": 0, "count_Arachnids": 0, "count_Ferns": 0, "unique_species_count": 2.0, "countryCode": "LY" }, "geometry": { "type": "MultiPolygon", "coordinates": [ [ [ [ 18.543450836565778, 35.898501044127485 ], [ 19.032069878968368, 35.211209363979656 ], [ 18.420195085273974, 34.499937131729574 ], [ 17.325757358206424, 34.466608232430993 ], [ 16.822920226590103, 35.139791104156934 ], [ 17.428549253922029, 35.861066099700864 ], [ 18.543450836565778, 35.898501044127485 ] ] ] ] } },
{ "type": "Feature", "properties": { "geogrid_id": "735224034021227280", "seqnum": 5102.0, "lat_c": 35.224034275660337, "lon_c": 21.227279581886894, "res": 7.0, "count_Birds": 0, "count_Mammals": 0, "count_Insects": 0, "count_Reptiles": 1, "count_Flowering Plants": 0, "count_Amphibians": 0, "count_Molluscs": 0, "count_Gymnosperms": 0, "count_Sac Fungi": 0, "count_Basidiomycota": 0, "count_Arachnids": 0, "count_Ferns": 0, "unique_species_count": 1.0, "countryCode": "LY" }, "geometry": { "type": "MultiPolygon", "coordinates": [ [ [ [ 21.867793255121715, 35.922557987595496 ], [ 22.31997568910284, 35.212070899184653 ], [ 21.682294168932362, 34.515855495269491 ], [ 20.598291868622567, 34.523044489991754 ], [ 20.131359637286327, 35.224134526252342 ], [ 20.76299625245035, 35.927726000791665 ], [ 21.867793255121715, 35.922557987595496 ] ] ] ] } },
{ "type": "Feature", "properties": { "geogrid_id": "735495330012938269", "seqnum": 4884.0, "lat_c": 35.495329697468222, "lon_c": 12.938268615903388, "res": 7.0, "count_Birds": 0, "count_Mammals": 0, "count_Insects": 0, "count_Reptiles": 1, "count_Flowering Plants": 0, "count_Amphibians": 0, "count_Molluscs": 0, "count_Gymnosperms": 0, "count_Sac Fungi": 0, "count_Basidiomycota": 0, "count_Arachnids": 0, "count_Ferns": 0, "unique_species_count": 1.0, "countryCode": "LY" }, "geometry": { "type": "MultiPolygon", "coordinates": [ [ [ [ 13.519646126437459, 36.254277537626976 ], [ 14.064391897592015, 35.627532858246283 ], [ 13.483817126640288, 34.877380367249245 ], [ 12.366400367379514, 34.72929012361616 ], [ 11.812129912300005, 35.324686737630529 ], [ 12.383950370244291, 36.101981823123332 ], [ 13.519646126437459, 36.254277537626976 ] ] ] ] } }
]
}
