{
"type": "FeatureCollection",
"name": "ML",
"crs": { "type": "name", "properties": { "name": "urn:ogc:def:crs:OGC:1.3:CRS84" } },
"features": [
{ "type": "Feature", "properties": { "geogrid_id": "5110367484008304409", "seqnum": 4653.0, "lat_c": 10.367484121688268, "lon_c": -8.3044094043199195, "res": 7.0, "count_Flowering Plants": 1, "count_Mammals": 0, "count_Insects": 0, "count_Birds": 2, "count_Basidiomycota": 0, "count_Molluscs": 0, "count_Reptiles": 0, "count_Amphibians": 0, "count_Arachnids": 0, "count_Sac Fungi": 0, "unique_species_count": 3.0, "countryCode": "ML" }, "geometry": { "type": "MultiPolygon", "coordinates": [ [ [ [ -8.0680029505424, 11.086626894583766 ], [ -7.384819206168271, 10.448346756194052 ], [ -7.612289116321744, 9.736664084916661 ], [ -8.535445319531679, 9.651870591560266 ], [ -9.220299850168745, 10.284696385416604 ], [ -8.981424775831805, 11.006894955385803 ], [ -8.0680029505424, 11.086626894583766 ] ] ] ] } },
{ "type": "Feature", "properties": { "geogrid_id": "5110606896005530620", "seqnum": 4735.0, "lat_c": 10.606896256996409, "lon_c": -5.530619836151649, "res": 7.0, "count_Flowering Plants": 21, "count_Mammals": 14, "count_Insects": 0, "count_Birds": 33, "count_Basidiomycota": 8, "count_Molluscs": 0, "count_Reptiles": 0, "count_Amphibians": 1, "count_Arachnids": 0, "count_Sac Fungi": 12, "unique_species_count": 89.0, "countryCode": "ML" }, "geometry": { "type": "MultiPolygon", "coordinates": [ [ [ [ -5.30556299595769, 11.313444855421297 ], [ -4.778931582940069, 10.561526547278735 ], [ -5.177355080283644, 9.739743736361845 ], [ -5.933577449687045, 9.779397364265117 ], [ -6.460612861489215, 10.527882277824155 ], [ -6.2309755126063, 11.239330843108377 ], [ -5.30556299595769, 11.313444855421297 ] ] ] ] } },
{ "type": "Feature", "properties": { "geogrid_id": "5111163944007151451", "seqnum": 4681.0, "lat_c": 11.163943535460334, "lon_c": -7.1514509089437759, "res": 7.0, "count_Flowering Plants": 11, "count_Mammals": 5, "count_Insects": 0, "count_Birds": 2, "count_Basidiomycota": 0, "count_Molluscs": 0, "count_Reptiles": 0, "count_Amphibians": 0, "count_Arachnids": 0, "count_Sac Fungi": 0, "unique_species_count": 18.0, "countryCode": "ML" }, "geometry": { "type": "MultiPolygon", "coordinates": [ [ [ [ -6.912090160945855, 11.883238858484813 ], [ -6.2309755126063, 11.239330843108377 ], [ -6.460612861489215, 10.527882277824155 ], [ -7.384819206168271, 10.448346756194052 ], [ -8.0680029505424, 11.086626894583766 ], [ -7.826135761268245, 11.809104764475336 ], [ -6.912090160945855, 11.883238858484813 ] ] ] ] } },
{ "type": "Feature", "properties": { "geogrid_id": "5111732121008737578", "seqnum": 4627.0, "lat_c": 11.73212129966856, "lon_c": -8.7375776105513374, "res": 7.0, "count_Flowering Plants": 19, "count_Mammals": 9, "count_Insects": 3, "count_Birds": 23, "count_Basidiomycota": 0, "count_Molluscs": 0, "count_Reptiles": 0, "count_Amphibians": 0, "count_Arachnids": 0, "count_Sac Fungi": 0, "unique_species_count": 54.0, "countryCode": "ML" }, "geometry": { "type": "MultiPolygon", "coordinates": [ [ [ [ -8.488668312388562, 12.460194315123774 ], [ -7.826135761268245, 11.809104764475336 ], [ -8.0680029505424, 11.086626894583766 ], [ -8.981424775831805, 11.006894955385803 ], [ -9.646954615453218, 11.651997284380895 ], [ -9.396954028924645, 12.382215634484135 ], [ -8.488668312388562, 12.460194315123774 ] ] ] ] } },
{ "type": "Feature", "properties": { "geogrid_id": "5111954911005994763", "seqnum": 4709.0, "lat_c": 11.954911051513555, "lon_c": -5.9947631077098347, "res": 7.0, "count_Flowering Plants": 33, "count_Mammals": 15, "count_Insects": 0, "count_Birds": 9, "count_Basidiomycota": 0, "count_Molluscs": 0, "count_Reptiles": 0, "count_Amphibians": 0, "count_Arachnids": 0, "count_Sac Fungi": 0, "unique_species_count": 57.0, "countryCode": "ML" }, "geometry": { "type": "MultiPolygon", "coordinates": [ [ [ [ -5.751874781834755, 12.67437235531278 ], [ -5.073288041273404, 12.024645497839446 ], [ -5.30556299595769, 11.313444855421297 ], [ -6.2309755126063, 11.239330843108377 ], [ -6.912090160945855, 11.883238858484813 ], [ -6.666640864920113, 12.606008313412012 ], [ -5.751874781834755, 12.67437235531278 ] ] ] ] } },
{ "type": "Feature", "properties": { "geogrid_id": "5112300608010303939", "seqnum": 4572.0, "lat_c": 12.300607828900283, "lon_c": -10.303939221307783, "res": 7.0, "count_Flowering Plants": 2, "count_Mammals": 11, "count_Insects": 0, "count_Birds": 1, "count_Basidiomycota": 0, "count_Molluscs": 0, "count_Reptiles": 0, "count_Amphibians": 0, "count_Arachnids": 0, "count_Sac Fungi": 0, "unique_species_count": 14.0, "countryCode": "ML" }, "geometry": { "type": "MultiPolygon", "coordinates": [ [ [ [ -10.048901032405672, 13.034947990362106 ], [ -9.396954028924645, 12.382215634484135 ], [ -9.646954615453218, 11.651997284380895 ], [ -10.554702039574506, 11.568510683650009 ], [ -11.20992500204529, 12.215237927858011 ], [ -10.954794214281666, 12.951064340774089 ], [ -10.048901032405672, 13.034947990362106 ] ] ] ] } },
{ "type": "Feature", "properties": { "geogrid_id": "5112534716007578715", "seqnum": 4654.0, "lat_c": 12.534716339923381, "lon_c": -7.5787152043010577, "res": 7.0, "count_Flowering Plants": 117, "count_Mammals": 15, "count_Insects": 99, "count_Birds": 117, "count_Basidiomycota": 0, "count_Molluscs": 2, "count_Reptiles": 13, "count_Amphibians": 6, "count_Arachnids": 3, "count_Sac Fungi": 0, "unique_species_count": 372.0, "countryCode": "ML" }, "geometry": { "type": "MultiPolygon", "coordinates": [ [ [ [ -7.325646169705439, 13.263253090885776 ], [ -6.666640864920113, 12.606008313412012 ], [ -6.912090160945855, 11.883238858484813 ], [ -7.826135761268245, 11.809104764475336 ], [ -8.488668312388562, 12.460194315123774 ], [ -8.234604087480385, 13.190926994914179 ], [ -7.325646169705439, 13.263253090885776 ] ] ] ] } },
{ "type": "Feature", "properties": { "geogrid_id": "5112740218004833687", "seqnum": 4736.0, "lat_c": 12.740218002062907, "lon_c": -4.8336873855453284, "res": 7.0, "count_Flowering Plants": 20, "count_Mammals": 8, "count_Insects": 13, "count_Birds": 32, "count_Basidiomycota": 0, "count_Molluscs": 1, "count_Reptiles": 0, "count_Amphibians": 0, "count_Arachnids": 0, "count_Sac Fungi": 0, "unique_species_count": 74.0, "countryCode": "ML" }, "geometry": { "type": "MultiPolygon", "coordinates": [ [ [ [ -4.586652951535385, 13.459868722871004 ], [ -3.911128256234294, 12.804110951937632 ], [ -4.14653674177746, 12.093164559054458 ], [ -5.073288041273404, 12.024645497839446 ], [ -5.751874781834755, 12.67437235531278 ], [ -5.502208259926588, 13.397453443076493 ], [ -4.586652951535385, 13.459868722871004 ] ] ] ] } },
{ "type": "Feature", "properties": { "geogrid_id": "5112863140011860143", "seqnum": 4518.0, "lat_c": 12.863139794916425, "lon_c": -11.860142652656709, "res": 7.0, "count_Flowering Plants": 12, "count_Mammals": 2, "count_Insects": 2, "count_Birds": 9, "count_Basidiomycota": 0, "count_Molluscs": 0, "count_Reptiles": 4, "count_Amphibians": 0, "count_Arachnids": 0, "count_Sac Fungi": 0, "unique_species_count": 29.0, "countryCode": "ML" }, "geometry": { "type": "MultiPolygon", "coordinates": [ [ [ [ -11.601526623376198, 13.602087113922201 ], [ -10.954794214281666, 12.951064340774089 ], [ -11.20992500204529, 12.215237927858011 ], [ -12.115162153692424, 12.126002244396332 ], [ -12.765123242636099, 12.771113094538672 ], [ -12.507140601115303, 13.511105638348548 ], [ -11.601526623376198, 13.602087113922201 ] ] ] ] } },
{ "type": "Feature", "properties": { "geogrid_id": "5113114869009142254", "seqnum": 4600.0, "lat_c": 13.114868767919258, "lon_c": -9.142254341504243, "res": 7.0, "count_Flowering Plants": 42, "count_Mammals": 12, "count_Insects": 1, "count_Birds": 1, "count_Basidiomycota": 0, "count_Molluscs": 0, "count_Reptiles": 0, "count_Amphibians": 0, "count_Arachnids": 0, "count_Sac Fungi": 0, "unique_species_count": 56.0, "countryCode": "ML" }, "geometry": { "type": "MultiPolygon", "coordinates": [ [ [ [ -8.882761617533061, 13.849783722834333 ], [ -8.234604087480385, 13.190926994914179 ], [ -8.488668312388562, 12.460194315123774 ], [ -9.396954028924645, 12.382215634484135 ], [ -10.048901032405672, 13.034947990362106 ], [ -9.789494988680907, 13.771375611831115 ], [ -8.882761617533061, 13.849783722834333 ] ] ] ] } },
{ "type": "Feature", "properties": { "geogrid_id": "5113332019006415005", "seqnum": 4682.0, "lat_c": 13.332018771812796, "lon_c": -6.4150048754816877, "res": 7.0, "count_Flowering Plants": 12, "count_Mammals": 9, "count_Insects": 48, "count_Birds": 97, "count_Basidiomycota": 0, "count_Molluscs": 0, "count_Reptiles": 5, "count_Amphibians": 2, "count_Arachnids": 0, "count_Sac Fungi": 0, "unique_species_count": 173.0, "countryCode": "ML" }, "geometry": { "type": "MultiPolygon", "coordinates": [ [ [ [ -6.157081990405016, 14.061028546338386 ], [ -5.502208259926588, 13.397453443076493 ], [ -5.751874781834755, 12.67437235531278 ], [ -6.666640864920113, 12.606008313412012 ], [ -7.325646169705439, 13.263253090885776 ], [ -7.066831030905925, 13.994499474415777 ], [ -6.157081990405016, 14.061028546338386 ] ] ] ] } },
{ "type": "Feature", "properties": { "geogrid_id": "5113519696003667553", "seqnum": 4764.0, "lat_c": 13.519696027901748, "lon_c": -3.6675527280942921, "res": 7.0, "count_Flowering Plants": 8, "count_Mammals": 5, "count_Insects": 2, "count_Birds": 18, "count_Basidiomycota": 0, "count_Molluscs": 0, "count_Reptiles": 1, "count_Amphibians": 0, "count_Arachnids": 0, "count_Sac Fungi": 0, "unique_species_count": 34.0, "countryCode": "ML" }, "geometry": { "type": "MultiPolygon", "coordinates": [ [ [ [ -3.415694711338572, 14.239572270333161 ], [ -2.743861515617255, 13.57754576824002 ], [ -2.982933859102528, 12.866849555932969 ], [ -3.911128256234294, 12.804110951937632 ], [ -4.586652951535385, 13.459868722871004 ], [ -4.332076271996192, 14.183290790425239 ], [ -3.415694711338572, 14.239572270333161 ] ] ] ] } },
{ "type": "Feature", "properties": { "geogrid_id": "5113688829010695693", "seqnum": 4546.0, "lat_c": 13.688828987814729, "lon_c": -10.695693126296918, "res": 7.0, "count_Flowering Plants": 9, "count_Mammals": 9, "count_Insects": 0, "count_Birds": 10, "count_Basidiomycota": 0, "count_Molluscs": 0, "count_Reptiles": 1, "count_Amphibians": 1, "count_Arachnids": 0, "count_Sac Fungi": 0, "unique_species_count": 30.0, "countryCode": "ML" }, "geometry": { "type": "MultiPolygon", "coordinates": [ [ [ [ -10.43252740344499, 14.428388244294844 ], [ -9.789494988680907, 13.771375611831115 ], [ -10.048901032405672, 13.034947990362106 ], [ -10.954794214281666, 12.951064340774089 ], [ -11.601526623376198, 13.602087113922201 ], [ -11.339221009258001, 14.342714627844469 ], [ -10.43252740344499, 14.428388244294844 ] ] ] ] } },
{ "type": "Feature", "properties": { "geogrid_id": "5113924127007975289", "seqnum": 4628.0, "lat_c": 13.924126527967486, "lon_c": -7.9752893300666594, "res": 7.0, "count_Flowering Plants": 3, "count_Mammals": 4, "count_Insects": 0, "count_Birds": 0, "count_Basidiomycota": 0, "count_Molluscs": 0, "count_Reptiles": 1, "count_Amphibians": 0, "count_Arachnids": 0, "count_Sac Fungi": 0, "unique_species_count": 8.0, "countryCode": "ML" }, "geometry": { "type": "MultiPolygon", "coordinates": [ [ [ [ -7.710625564488429, 14.65959441150194 ], [ -7.066831030905925, 13.994499474415777 ], [ -7.325646169705439, 13.263253090885776 ], [ -8.234604087480385, 13.190926994914179 ], [ -8.882761617533061, 13.849783722834333 ], [ -8.618378862499622, 14.586782779478359 ], [ -7.710625564488429, 14.65959441150194 ] ] ] ] } },
{ "type": "Feature", "properties": { "geogrid_id": "5114123882005245660", "seqnum": 4710.0, "lat_c": 14.123882435248644, "lon_c": -5.2456598921010524, "res": 7.0, "count_Flowering Plants": 79, "count_Mammals": 4, "count_Insects": 1, "count_Birds": 41, "count_Basidiomycota": 0, "count_Molluscs": 1, "count_Reptiles": 2, "count_Amphibians": 0, "count_Arachnids": 0, "count_Sac Fungi": 0, "unique_species_count": 128.0, "countryCode": "ML" }, "geometry": { "type": "MultiPolygon", "coordinates": [ [ [ [ -4.982124698289925, 14.853377118441012 ], [ -4.332076271996192, 14.183290790425239 ], [ -4.586652951535385, 13.459868722871004 ], [ -5.502208259926588, 13.397453443076493 ], [ -6.157081990405016, 14.061028546338386 ], [ -5.892769948443711, 14.792787575144361 ], [ -4.982124698289925, 14.853377118441012 ] ] ] ] } },
{ "type": "Feature", "properties": { "geogrid_id": "5114252680012245823", "seqnum": 4491.0, "lat_c": 14.252679615746844, "lon_c": -12.245822819601321, "res": 7.0, "count_Flowering Plants": 5, "count_Mammals": 4, "count_Insects": 5, "count_Birds": 38, "count_Basidiomycota": 0, "count_Molluscs": 0, "count_Reptiles": 5, "count_Amphibians": 1, "count_Arachnids": 0, "count_Sac Fungi": 0, "unique_species_count": 58.0, "countryCode": "ML" }, "geometry": { "type": "MultiPolygon", "coordinates": [ [ [ [ -11.981074959981331, 14.995715456348373 ], [ -11.339221009258001, 14.342714627844469 ], [ -11.601526623376198, 13.602087113922201 ], [ -12.507140601115303, 13.511105638348548 ], [ -13.152434124985165, 14.158259282923302 ], [ -12.889115651261685, 14.902056474222343 ], [ -11.981074959981331, 14.995715456348373 ] ] ] ] } },
{ "type": "Feature", "properties": { "geogrid_id": "5114293179002495668", "seqnum": 4792.0, "lat_c": 14.293178872949238, "lon_c": -2.4956680849700148, "res": 7.0, "count_Flowering Plants": 3, "count_Mammals": 3, "count_Insects": 0, "count_Birds": 6, "count_Basidiomycota": 0, "count_Molluscs": 0, "count_Reptiles": 2, "count_Amphibians": 0, "count_Arachnids": 0, "count_Sac Fungi": 0, "unique_species_count": 14.0, "countryCode": "ML" }, "geometry": { "type": "MultiPolygon", "coordinates": [ [ [ [ -2.23823106571936, 15.0133328532312 ], [ -1.570841665091092, 14.34476823502963 ], [ -1.81415486468749, 13.634303490448143 ], [ -2.743861515617255, 13.57754576824002 ], [ -3.415694711338572, 14.239572270333161 ], [ -3.155439987689875, 14.963375725533655 ], [ -2.23823106571936, 15.0133328532312 ] ] ] ] } },
{ "type": "Feature", "properties": { "geogrid_id": "5114509731009525625", "seqnum": 4573.0, "lat_c": 14.509731130685003, "lon_c": -9.5256254553386608, "res": 7.0, "count_Flowering Plants": 4, "count_Mammals": 14, "count_Insects": 0, "count_Birds": 24, "count_Basidiomycota": 0, "count_Molluscs": 0, "count_Reptiles": 5, "count_Amphibians": 1, "count_Arachnids": 0, "count_Sac Fungi": 0, "unique_species_count": 48.0, "countryCode": "ML" }, "geometry": { "type": "MultiPolygon", "coordinates": [ [ [ [ -9.257193559374075, 15.249851051779814 ], [ -8.618378862499622, 14.586782779478359 ], [ -8.882761617533061, 13.849783722834333 ], [ -9.789494988680907, 13.771375611831115 ], [ -10.43252740344499, 14.428388244294844 ], [ -10.165199444927083, 15.16959514818909 ], [ -9.257193559374075, 15.249851051779814 ] ] ] ] } },
{ "type": "Feature", "properties": { "geogrid_id": "5114728233006802170", "seqnum": 4655.0, "lat_c": 14.728233079016569, "lon_c": -6.8021696098464357, "res": 7.0, "count_Flowering Plants": 10, "count_Mammals": 0, "count_Insects": 9, "count_Birds": 1, "count_Basidiomycota": 0, "count_Molluscs": 0, "count_Reptiles": 0, "count_Amphibians": 0, "count_Arachnids": 0, "count_Sac Fungi": 0, "unique_species_count": 20.0, "countryCode": "ML" }, "geometry": { "type": "MultiPolygon", "coordinates": [ [ [ [ -6.531559146732382, 15.464224787585763 ], [ -5.892769948443711, 14.792787575144361 ], [ -6.157081990405016, 14.061028546338386 ], [ -7.066831030905925, 13.994499474415777 ], [ -7.710625564488429, 14.65959441150194 ], [ -7.44051138951855, 15.397126576508256 ], [ -6.531559146732382, 15.464224787585763 ] ] ] ] } },
{ "type": "Feature", "properties": { "geogrid_id": "5114910164004069849", "seqnum": 4737.0, "lat_c": 14.910164405302574, "lon_c": -4.069848602951958, "res": 7.0, "count_Flowering Plants": 48, "count_Mammals": 14, "count_Insects": 2, "count_Birds": 45, "count_Basidiomycota": 0, "count_Molluscs": 0, "count_Reptiles": 9, "count_Amphibians": 1, "count_Arachnids": 0, "count_Sac Fungi": 0, "unique_species_count": 119.0, "countryCode": "ML" }, "geometry": { "type": "MultiPolygon", "coordinates": [ [ [ [ -3.799861050592646, 15.640157190762521 ], [ -3.155439987689875, 14.963375725533655 ], [ -3.415694711338572, 14.239572270333161 ], [ -4.332076271996192, 14.183290790425239 ], [ -4.982124698289925, 14.853377118441012 ], [ -4.711496423148853, 15.585645218662503 ], [ -3.799861050592646, 15.640157190762521 ] ] ] ] } },
{ "type": "Feature", "properties": { "geogrid_id": "5115060505001317311", "seqnum": 4819.0, "lat_c": 15.060505259837292, "lon_c": -1.317311004332743, "res": 7.0, "count_Flowering Plants": 7, "count_Mammals": 1, "count_Insects": 3, "count_Birds": 8, "count_Basidiomycota": 0, "count_Molluscs": 0, "count_Reptiles": 2, "count_Amphibians": 1, "count_Arachnids": 0, "count_Sac Fungi": 0, "unique_species_count": 22.0, "countryCode": "ML" }, "geometry": { "type": "MultiPolygon", "coordinates": [ [ [ [ -1.053434501945222, 15.781009662742839 ], [ -0.391402800378309, 15.105598815424221 ], [ -0.639598594457398, 14.395325874614993 ], [ -1.570841665091092, 14.34476823502963 ], [ -2.23823106571936, 15.0133328532312 ], [ -1.97143172036971, 15.737570983084476 ], [ -1.053434501945222, 15.781009662742839 ] ] ] ] } },
{ "type": "Feature", "properties": { "geogrid_id": "5115084890011073130", "seqnum": 4519.0, "lat_c": 15.084889917747203, "lon_c": -11.073129518489312, "res": 7.0, "count_Flowering Plants": 10, "count_Mammals": 10, "count_Insects": 3, "count_Birds": 16, "count_Basidiomycota": 0, "count_Molluscs": 0, "count_Reptiles": 7, "count_Amphibians": 2, "count_Arachnids": 0, "count_Sac Fungi": 0, "unique_species_count": 48.0, "countryCode": "ML" }, "geometry": { "type": "MultiPolygon", "coordinates": [ [ [ [ -10.803152516400374, 15.82847776493081 ], [ -10.165199444927083, 15.16959514818909 ], [ -10.43252740344499, 14.428388244294844 ], [ -11.339221009258001, 14.342714627844469 ], [ -11.981074959981331, 14.995715456348373 ], [ -11.712798811766037, 15.740091189743167 ], [ -10.803152516400374, 15.82847776493081 ] ] ] ] } },
{ "type": "Feature", "properties": { "geogrid_id": "5115325684008349006", "seqnum": 4601.0, "lat_c": 15.325683556633157, "lon_c": -8.3490059489001567, "res": 7.0, "count_Flowering Plants": 0, "count_Mammals": 3, "count_Insects": 0, "count_Birds": 1, "count_Basidiomycota": 0, "count_Molluscs": 0, "count_Reptiles": 0, "count_Amphibians": 0, "count_Arachnids": 0, "count_Sac Fungi": 0, "unique_species_count": 4.0, "countryCode": "ML" }, "geometry": { "type": "MultiPolygon", "coordinates": [ [ [ [ -8.074539542804569, 16.066299116917008 ], [ -7.44051138951855, 15.397126576508256 ], [ -7.710625564488429, 14.65959441150194 ], [ -8.618378862499622, 14.586782779478359 ], [ -9.257193559374075, 15.249851051779814 ], [ -8.984097101021513, 15.991568027471024 ], [ -8.074539542804569, 16.066299116917008 ] ] ] ] } },
{ "type": "Feature", "properties": { "geogrid_id": "5115527038005621964", "seqnum": 4683.0, "lat_c": 15.527037633109302, "lon_c": -5.6219644343798576, "res": 7.0, "count_Flowering Plants": 6, "count_Mammals": 1, "count_Insects": 0, "count_Birds": 1, "count_Basidiomycota": 0, "count_Molluscs": 0, "count_Reptiles": 0, "count_Amphibians": 0, "count_Arachnids": 0, "count_Sac Fungi": 0, "unique_species_count": 8.0, "countryCode": "ML" }, "geometry": { "type": "MultiPolygon", "coordinates": [ [ [ [ -5.344559092039831, 16.263512569725705 ], [ -4.711496423148853, 15.585645218662503 ], [ -4.982124698289925, 14.853377118441012 ], [ -5.892769948443711, 14.792787575144361 ], [ -6.531559146732382, 15.464224787585763 ], [ -6.254894274913261, 16.20223895878997 ], [ -5.344559092039831, 16.263512569725705 ] ] ] ] } },
{ "type": "Feature", "properties": { "geogrid_id": "5115690726002886676", "seqnum": 4765.0, "lat_c": 15.690726454030631, "lon_c": -2.8866758003805222, "res": 7.0, "count_Flowering Plants": 17, "count_Mammals": 6, "count_Insects": 0, "count_Birds": 11, "count_Basidiomycota": 0, "count_Molluscs": 0, "count_Reptiles": 1, "count_Amphibians": 0, "count_Arachnids": 0, "count_Sac Fungi": 0, "unique_species_count": 35.0, "countryCode": "ML" }, "geometry": { "type": "MultiPolygon", "coordinates": [ [ [ [ -2.609291106022855, 16.421229068069053 ], [ -1.97143172036971, 15.737570983084476 ], [ -2.23823106571936, 15.0133328532312 ], [ -3.155439987689875, 14.963375725533655 ], [ -3.799861050592646, 15.640157190762521 ], [ -3.52200471280911, 16.372924602469066 ], [ -2.609291106022855, 16.421229068069053 ] ] ] ] } },
{ "type": "Feature", "properties": { "geogrid_id": "5115821523000131710", "seqnum": 4847.0, "lat_c": 15.821523443788788, "lon_c": -0.13170991741836099, "res": 7.0, "count_Flowering Plants": 19, "count_Mammals": 4, "count_Insects": 15, "count_Birds": 21, "count_Basidiomycota": 0, "count_Molluscs": 0, "count_Reptiles": 5, "count_Amphibians": 2, "count_Arachnids": 4, "count_Sac Fungi": 0, "unique_species_count": 70.0, "countryCode": "ML" }, "geometry": { "type": "MultiPolygon", "coordinates": [ [ [ [ 0.139611533274036, 16.542476685179516 ], [ 0.795154043137213, 15.859864377169282 ], [ 0.541341458598478, 15.149713065633023 ], [ -0.391402800378309, 15.105598815424221 ], [ -1.053434501945222, 15.781009662742839 ], [ -0.779091523741105, 16.505750028803266 ], [ 0.139611533274036, 16.542476685179516 ] ] ] ] } },
{ "type": "Feature", "properties": { "geogrid_id": "5115912299009893608", "seqnum": 4547.0, "lat_c": 15.912299460713555, "lon_c": -9.8936082841541921, "res": 7.0, "count_Flowering Plants": 5, "count_Mammals": 1, "count_Insects": 0, "count_Birds": 52, "count_Basidiomycota": 0, "count_Molluscs": 0, "count_Reptiles": 1, "count_Amphibians": 0, "count_Arachnids": 0, "count_Sac Fungi": 0, "unique_species_count": 59.0, "countryCode": "ML" }, "geometry": { "type": "MultiPolygon", "coordinates": [ [ [ [ -9.617649486864204, 16.656347730924672 ], [ -8.984097101021513, 15.991568027471024 ], [ -9.257193559374075, 15.249851051779814 ], [ -10.165199444927083, 15.16959514818909 ], [ -10.803152516400374, 15.82847776493081 ], [ -10.529186914445411, 16.573340199190159 ], [ -9.617649486864204, 16.656347730924672 ] ] ] ] } },
{ "type": "Feature", "properties": { "geogrid_id": "5116320385004433668", "seqnum": 4711.0, "lat_c": 16.320384713462175, "lon_c": -4.4336676021370627, "res": 7.0, "count_Flowering Plants": 7, "count_Mammals": 2, "count_Insects": 0, "count_Birds": 5, "count_Basidiomycota": 0, "count_Molluscs": 0, "count_Reptiles": 0, "count_Amphibians": 0, "count_Arachnids": 0, "count_Sac Fungi": 0, "unique_species_count": 14.0, "countryCode": "ML" }, "geometry": { "type": "MultiPolygon", "coordinates": [ [ [ [ -4.148529639710679, 17.057284182718213 ], [ -3.52200471280911, 16.372924602469066 ], [ -3.799861050592646, 15.640157190762521 ], [ -4.711496423148853, 15.585645218662503 ], [ -5.344559092039831, 16.263512569725705 ], [ -5.060445546051845, 17.001938573390127 ], [ -4.148529639710679, 17.057284182718213 ] ] ] ] } },
{ "type": "Feature", "properties": { "geogrid_id": "5116465437001695155", "seqnum": 4793.0, "lat_c": 16.465436530171999, "lon_c": -1.695155494209035, "res": 7.0, "count_Flowering Plants": 5, "count_Mammals": 2, "count_Insects": 0, "count_Birds": 4, "count_Basidiomycota": 0, "count_Molluscs": 0, "count_Reptiles": 0, "count_Amphibians": 0, "count_Arachnids": 0, "count_Sac Fungi": 0, "unique_species_count": 11.0, "countryCode": "ML" }, "geometry": { "type": "MultiPolygon", "coordinates": [ [ [ [ -1.409292455557722, 17.196453591316835 ], [ -0.779091523741105, 16.505750028803266 ], [ -1.053434501945222, 15.781009662742839 ], [ -1.97143172036971, 15.737570983084476 ], [ -2.609291106022855, 16.421229068069053 ], [ -2.323176845531457, 17.154473355353421 ], [ -1.409292455557722, 17.196453591316835 ] ] ] ] } },
{ "type": "Feature", "properties": { "geogrid_id": "5116942034005972067", "seqnum": 4656.0, "lat_c": 16.942033626615078, "lon_c": -5.9720670015009221, "res": 7.0, "count_Flowering Plants": 0, "count_Mammals": 0, "count_Insects": 0, "count_Birds": 1, "count_Basidiomycota": 0, "count_Molluscs": 0, "count_Reptiles": 0, "count_Amphibians": 0, "count_Arachnids": 0, "count_Sac Fungi": 0, "unique_species_count": 1.0, "countryCode": "ML" }, "geometry": { "type": "MultiPolygon", "coordinates": [ [ [ [ -5.682966694357623, 17.683360717743014 ], [ -5.060445546051845, 17.001938573390127 ], [ -5.344559092039831, 16.263512569725705 ], [ -6.254894274913261, 16.20223895878997 ], [ -6.883511264134125, 16.8775404859371 ], [ -6.596407423126327, 17.619987568128479 ], [ -5.682966694357623, 17.683360717743014 ] ] ] ] } },
{ "type": "Feature", "properties": { "geogrid_id": "5117108110003236171", "seqnum": 4738.0, "lat_c": 17.108110395474966, "lon_c": -3.2361708364098041, "res": 7.0, "count_Flowering Plants": 24, "count_Mammals": 2, "count_Insects": 5, "count_Birds": 27, "count_Basidiomycota": 0, "count_Molluscs": 0, "count_Reptiles": 0, "count_Amphibians": 0, "count_Arachnids": 0, "count_Sac Fungi": 0, "unique_species_count": 58.0, "countryCode": "ML" }, "geometry": { "type": "MultiPolygon", "coordinates": [ [ [ [ -2.942250991064373, 17.845347147848202 ], [ -2.323176845531457, 17.154473355353421 ], [ -2.609291106022855, 16.421229068069053 ], [ -3.52200471280911, 16.372924602469066 ], [ -4.148529639710679, 17.057284182718213 ], [ -3.855972900600203, 17.796023197553033 ], [ -2.942250991064373, 17.845347147848202 ] ] ] ] } },
{ "type": "Feature", "properties": { "geogrid_id": "5117234170000494170", "seqnum": 4820.0, "lat_c": 17.234169550189364, "lon_c": -0.49416988499964798, "res": 7.0, "count_Flowering Plants": 4, "count_Mammals": 1, "count_Insects": 0, "count_Birds": 1, "count_Basidiomycota": 0, "count_Molluscs": 0, "count_Reptiles": 0, "count_Amphibians": 0, "count_Arachnids": 0, "count_Sac Fungi": 0, "unique_species_count": 6.0, "countryCode": "ML" }, "geometry": { "type": "MultiPolygon", "coordinates": [ [ [ [ -0.198566573254113, 17.965687355761421 ], [ 0.422678955587651, 17.267800871588769 ], [ 0.139611533274036, 16.542476685179516 ], [ -0.779091523741105, 16.505750028803266 ], [ -1.409292455557722, 17.196453591316835 ], [ -1.113737757679305, 17.930128060124687 ], [ -0.198566573254113, 17.965687355761421 ] ] ] ] } },
{ "type": "Feature", "properties": { "geogrid_id": "5117742034004769513", "seqnum": 4684.0, "lat_c": 17.742034461667011, "lon_c": -4.7695134331585347, "res": 7.0, "count_Flowering Plants": 0, "count_Mammals": 0, "count_Insects": 0, "count_Birds": 1, "count_Basidiomycota": 0, "count_Molluscs": 0, "count_Reptiles": 0, "count_Amphibians": 0, "count_Arachnids": 0, "count_Sac Fungi": 0, "unique_species_count": 1.0, "countryCode": "ML" }, "geometry": { "type": "MultiPolygon", "coordinates": [ [ [ [ -4.471650443935781, 18.483511996947559 ], [ -3.855972900600203, 17.796023197553033 ], [ -4.148529639710679, 17.057284182718213 ], [ -5.060445546051845, 17.001938573390127 ], [ -5.682966694357623, 17.683360717743014 ], [ -5.387480076128513, 18.425966286311272 ], [ -4.471650443935781, 18.483511996947559 ] ] ] ] } },
{ "type": "Feature", "properties": { "geogrid_id": "5118536273003555887", "seqnum": 4712.0, "lat_c": 18.536272746599359, "lon_c": -3.5558868151678888, "res": 7.0, "count_Flowering Plants": 0, "count_Mammals": 0, "count_Insects": 0, "count_Birds": 2, "count_Basidiomycota": 0, "count_Molluscs": 0, "count_Reptiles": 0, "count_Amphibians": 0, "count_Arachnids": 0, "count_Sac Fungi": 0, "unique_species_count": 2.0, "countryCode": "ML" }, "geometry": { "type": "MultiPolygon", "coordinates": [ [ [ [ -3.248159999861855, 19.277695698586655 ], [ -2.640137261014979, 18.58425683988299 ], [ -2.942250991064373, 17.845347147848202 ], [ -3.855972900600203, 17.796023197553033 ], [ -4.471650443935781, 18.483511996947559 ], [ -4.16674237580644, 19.22607622677301 ], [ -3.248159999861855, 19.277695698586655 ] ] ] ] } },
{ "type": "Feature", "properties": { "geogrid_id": "5119169591005085491", "seqnum": 4657.0, "lat_c": 19.169590765518496, "lon_c": -5.0854912260353373, "res": 7.0, "count_Flowering Plants": 0, "count_Mammals": 0, "count_Insects": 0, "count_Birds": 1, "count_Basidiomycota": 0, "count_Molluscs": 0, "count_Reptiles": 0, "count_Amphibians": 0, "count_Arachnids": 0, "count_Sac Fungi": 0, "unique_species_count": 1.0, "countryCode": "ML" }, "geometry": { "type": "MultiPolygon", "coordinates": [ [ [ [ -4.77688159019174, 19.913969235448697 ], [ -4.16674237580644, 19.22607622677301 ], [ -4.471650443935781, 18.483511996947559 ], [ -5.387480076128513, 18.425966286311272 ], [ -6.004424151445523, 19.10823803819331 ], [ -5.699308028285948, 19.853577711789395 ], [ -4.77688159019174, 19.913969235448697 ] ] ] ] } },
{ "type": "Feature", "properties": { "geogrid_id": "5119324451002329722", "seqnum": 4739.0, "lat_c": 19.324451487396306, "lon_c": -2.3297224555814968, "res": 7.0, "count_Flowering Plants": 0, "count_Mammals": 0, "count_Insects": 0, "count_Birds": 1, "count_Basidiomycota": 0, "count_Molluscs": 0, "count_Reptiles": 0, "count_Amphibians": 0, "count_Arachnids": 0, "count_Sac Fungi": 0, "unique_species_count": 1.0, "countryCode": "ML" }, "geometry": { "type": "MultiPolygon", "coordinates": [ [ [ [ -2.010900339460564, 20.065533827170768 ], [ -1.411402095720374, 19.366347247873925 ], [ -1.724335077384139, 18.627476317789423 ], [ -2.640137261014979, 18.58425683988299 ], [ -3.248159999861855, 19.277695698586655 ], [ -2.932680393799857, 20.019947299964567 ], [ -2.010900339460564, 20.065533827170768 ] ] ] ] } },
{ "type": "Feature", "properties": { "geogrid_id": "5119969426003854673", "seqnum": 4685.0, "lat_c": 19.969425847942549, "lon_c": -3.8546731982742619, "res": 7.0, "count_Flowering Plants": 0, "count_Mammals": 0, "count_Insects": 0, "count_Birds": 1, "count_Basidiomycota": 0, "count_Molluscs": 0, "count_Reptiles": 0, "count_Amphibians": 0, "count_Arachnids": 0, "count_Sac Fungi": 0, "unique_species_count": 1.0, "countryCode": "ML" }, "geometry": { "type": "MultiPolygon", "coordinates": [ [ [ [ -3.535325131338744, 20.713253593381197 ], [ -2.932680393799857, 20.019947299964567 ], [ -3.248159999861855, 19.277695698586655 ], [ -4.16674237580644, 19.22607622677301 ], [ -4.77688159019174, 19.913969235448697 ], [ -4.461530001245601, 20.658831706399258 ], [ -3.535325131338744, 20.713253593381197 ] ] ] ] } },
{ "type": "Feature", "properties": { "geogrid_id": "5120599410005387946", "seqnum": 4631.0, "lat_c": 20.59941048473927, "lon_c": -5.3879457818513066, "res": 7.0, "count_Flowering Plants": 0, "count_Mammals": 0, "count_Insects": 0, "count_Birds": 1, "count_Basidiomycota": 0, "count_Molluscs": 0, "count_Reptiles": 0, "count_Amphibians": 0, "count_Arachnids": 0, "count_Sac Fungi": 0, "unique_species_count": 1.0, "countryCode": "ML" }, "geometry": { "type": "MultiPolygon", "coordinates": [ [ [ [ -5.070211027767097, 21.345493746709874 ], [ -4.461530001245601, 20.658831706399258 ], [ -4.77688159019174, 19.913969235448697 ], [ -5.699308028285948, 19.853577711789395 ], [ -6.314569105748219, 20.534990806799183 ], [ -6.001270743606126, 21.282018875320478 ], [ -5.070211027767097, 21.345493746709874 ] ] ] ] } },
{ "type": "Feature", "properties": { "geogrid_id": "5121403903004139313", "seqnum": 4658.0, "lat_c": 21.403903416914922, "lon_c": -4.1393127082001104, "res": 7.0, "count_Flowering Plants": 0, "count_Mammals": 0, "count_Insects": 0, "count_Birds": 1, "count_Basidiomycota": 0, "count_Molluscs": 0, "count_Reptiles": 0, "count_Amphibians": 0, "count_Arachnids": 0, "count_Sac Fungi": 0, "unique_species_count": 1.0, "countryCode": "ML" }, "geometry": { "type": "MultiPolygon", "coordinates": [ [ [ [ -3.810103417312742, 22.148905145651884 ], [ -3.208578738085523, 21.457246640604474 ], [ -3.535325131338744, 20.713253593381197 ], [ -4.461530001245601, 20.658831706399258 ], [ -5.070211027767097, 21.345493746709874 ], [ -4.745974136631489, 22.09158098586725 ], [ -3.810103417312742, 22.148905145651884 ] ] ] ] } },
{ "type": "Feature", "properties": { "geogrid_id": "5122029118005681928", "seqnum": 4604.0, "lat_c": 22.029117570504241, "lon_c": -5.681928451926356, "res": 7.0, "count_Flowering Plants": 0, "count_Mammals": 0, "count_Insects": 0, "count_Birds": 1, "count_Basidiomycota": 0, "count_Molluscs": 0, "count_Reptiles": 0, "count_Amphibians": 0, "count_Arachnids": 0, "count_Sac Fungi": 0, "unique_species_count": 1.0, "countryCode": "ML" }, "geometry": { "type": "MultiPolygon", "coordinates": [ [ [ [ -5.35640701129482, 22.776065019002775 ], [ -4.745974136631489, 22.09158098586725 ], [ -5.070211027767097, 21.345493746709874 ], [ -6.001270743606126, 21.282018875320478 ], [ -6.617968183479423, 21.96151792723736 ], [ -6.297698213909661, 22.709488932998656 ], [ -5.35640701129482, 22.776065019002775 ] ] ] ] } },
{ "type": "Feature", "properties": { "geogrid_id": "5122201087002874313", "seqnum": 4686.0, "lat_c": 22.201087040485564, "lon_c": -2.874313032478669, "res": 7.0, "count_Flowering Plants": 0, "count_Mammals": 0, "count_Insects": 0, "count_Birds": 1, "count_Basidiomycota": 0, "count_Molluscs": 0, "count_Reptiles": 0, "count_Amphibians": 0, "count_Arachnids": 0, "count_Sac Fungi": 0, "unique_species_count": 1.0, "countryCode": "ML" }, "geometry": { "type": "MultiPolygon", "coordinates": [ [ [ [ -2.532405603410329, 22.94445216490918 ], [ -1.938597419786745, 22.248123504646248 ], [ -2.278012119989824, 21.505522543810589 ], [ -3.208578738085523, 21.457246640604474 ], [ -3.810103417312742, 22.148905145651884 ], [ -3.473773345019545, 22.893553536124614 ], [ -2.532405603410329, 22.94445216490918 ] ] ] ] } },
{ "type": "Feature", "properties": { "geogrid_id": "5123457193005971539", "seqnum": 4577.0, "lat_c": 23.45719316249048, "lon_c": -5.9715389111667196, "res": 7.0, "count_Flowering Plants": 0, "count_Mammals": 0, "count_Insects": 0, "count_Birds": 1, "count_Basidiomycota": 0, "count_Molluscs": 0, "count_Reptiles": 0, "count_Amphibians": 0, "count_Arachnids": 0, "count_Sac Fungi": 0, "unique_species_count": 1.0, "countryCode": "ML" }, "geometry": { "type": "MultiPolygon", "coordinates": [ [ [ [ -5.639345558670048, 24.204427685339237 ], [ -5.024567376844311, 23.522636267849609 ], [ -5.35640701129482, 22.776065019002775 ], [ -6.297698213909661, 22.709488932998656 ], [ -6.918391059321207, 23.386444713776758 ], [ -6.592172129593671, 24.134839258737571 ], [ -5.639345558670048, 24.204427685339237 ] ] ] ] } },
{ "type": "Feature", "properties": { "geogrid_id": "5123637561003130191", "seqnum": 4659.0, "lat_c": 23.637561433323178, "lon_c": -3.1301912838811239, "res": 7.0, "count_Flowering Plants": 0, "count_Mammals": 0, "count_Insects": 0, "count_Birds": 1, "count_Basidiomycota": 0, "count_Molluscs": 0, "count_Reptiles": 0, "count_Amphibians": 0, "count_Arachnids": 0, "count_Sac Fungi": 0, "unique_species_count": 1.0, "countryCode": "ML" }, "geometry": { "type": "MultiPolygon", "coordinates": [ [ [ [ -2.779223682595854, 24.380638231132085 ], [ -2.182732756089022, 23.687015171785557 ], [ -2.532405603410329, 22.94445216490918 ], [ -3.473773345019545, 22.893553536124614 ], [ -4.077459181880376, 23.582763264906678 ], [ -3.732905638347665, 24.327347936732917 ], [ -2.779223682595854, 24.380638231132085 ] ] ] ] } },
{ "type": "Feature", "properties": { "geogrid_id": "5124882700006260177", "seqnum": 4551.0, "lat_c": 24.882699640375119, "lon_c": -6.2601767663815018, "res": 7.0, "count_Flowering Plants": 0, "count_Mammals": 0, "count_Insects": 0, "count_Birds": 1, "count_Basidiomycota": 0, "count_Molluscs": 0, "count_Reptiles": 0, "count_Amphibians": 0, "count_Arachnids": 0, "count_Sac Fungi": 0, "unique_species_count": 1.0, "countryCode": "ML" }, "geometry": { "type": "MultiPolygon", "coordinates": [ [ [ [ -5.922250281652933, 25.629840052213307 ], [ -5.300969055104388, 24.950987063216662 ], [ -5.639345558670048, 24.204427685339237 ], [ -6.592172129593671, 24.134839258737571 ], [ -7.219015792316666, 24.808898593031699 ], [ -6.887722112268627, 25.557367985521651 ], [ -5.922250281652933, 25.629840052213307 ] ] ] ] } },
{ "type": "Feature", "properties": { "geogrid_id": "714446381000300396", "seqnum": 4874.0, "lat_c": 14.446380655723649, "lon_c": 0.30039584477988601, "res": 7.0, "count_Flowering Plants": 3, "count_Mammals": 0, "count_Insects": 0, "count_Birds": 0, "count_Basidiomycota": 0, "count_Molluscs": 0, "count_Reptiles": 0, "count_Amphibians": 0, "count_Arachnids": 0, "count_Sac Fungi": 0, "unique_species_count": 3.0, "countryCode": "ML" }, "geometry": { "type": "MultiPolygon", "coordinates": [ [ [ [ 0.541341458598478, 15.149713065633023 ], [ 1.062326610427535, 14.380239607834925 ], [ 0.652076685617541, 13.571401512242657 ], [ -0.11697084278464, 13.629404318784211 ], [ -0.639598594457398, 14.395325874614993 ], [ -0.391402800378309, 15.105598815424221 ], [ 0.541341458598478, 15.149713065633023 ] ] ] ] } },
{ "type": "Feature", "properties": { "geogrid_id": "715000162003813350", "seqnum": 4983.0, "lat_c": 15.000162409297268, "lon_c": 3.8133496301472891, "res": 7.0, "count_Flowering Plants": 0, "count_Mammals": 1, "count_Insects": 0, "count_Birds": 0, "count_Basidiomycota": 0, "count_Molluscs": 0, "count_Reptiles": 0, "count_Amphibians": 0, "count_Arachnids": 0, "count_Sac Fungi": 0, "unique_species_count": 1.0, "countryCode": "ML" }, "geometry": { "type": "MultiPolygon", "coordinates": [ [ [ [ 4.223396210669107, 15.793250761172876 ], [ 4.611991797960245, 14.946799788617767 ], [ 4.210889520330409, 14.162847139641251 ], [ 3.409980896869035, 14.209918413810295 ], [ 3.025170629084537, 15.059351122881605 ], [ 3.441715384596957, 15.861169733287008 ], [ 4.223396210669107, 15.793250761172876 ] ] ] ] } },
{ "type": "Feature", "properties": { "geogrid_id": "715194634001483697", "seqnum": 4901.0, "lat_c": 15.194634436308121, "lon_c": 1.483696577127555, "res": 7.0, "count_Flowering Plants": 7, "count_Mammals": 2, "count_Insects": 1, "count_Birds": 1, "count_Basidiomycota": 0, "count_Molluscs": 0, "count_Reptiles": 0, "count_Amphibians": 0, "count_Arachnids": 0, "count_Sac Fungi": 0, "unique_species_count": 11.0, "countryCode": "ML" }, "geometry": { "type": "MultiPolygon", "coordinates": [ [ [ [ 1.729283167717336, 15.897260315717041 ], [ 2.248346930976536, 15.124225310134644 ], [ 1.834995031170398, 14.318711992713425 ], [ 1.062326610427535, 14.380239607834925 ], [ 0.541341458598478, 15.149713065633023 ], [ 0.795154043137213, 15.859864377169282 ], [ 1.729283167717336, 15.897260315717041 ] ] ] ] } },
{ "type": "Feature", "properties": { "geogrid_id": "715935824002674027", "seqnum": 4929.0, "lat_c": 15.935823660455291, "lon_c": 2.6740267462438032, "res": 7.0, "count_Flowering Plants": 0, "count_Mammals": 2, "count_Insects": 0, "count_Birds": 1, "count_Basidiomycota": 0, "count_Molluscs": 0, "count_Reptiles": 1, "count_Amphibians": 1, "count_Arachnids": 0, "count_Sac Fungi": 0, "unique_species_count": 5.0, "countryCode": "ML" }, "geometry": { "type": "MultiPolygon", "coordinates": [ [ [ [ 2.924866588511175, 16.637765903212649 ], [ 3.441715384596957, 15.861169733287008 ], [ 3.025170629084537, 15.059351122881605 ], [ 2.248346930976536, 15.124225310134644 ], [ 1.729283167717336, 15.897260315717041 ], [ 1.989583732568871, 16.607405548613439 ], [ 2.924866588511175, 16.637765903212649 ] ] ] ] } },
{ "type": "Feature", "properties": { "geogrid_id": "716576098001061985", "seqnum": 4875.0, "lat_c": 16.576098415282232, "lon_c": 1.0619848307443529, "res": 7.0, "count_Flowering Plants": 0, "count_Mammals": 0, "count_Insects": 0, "count_Birds": 1, "count_Basidiomycota": 0, "count_Molluscs": 0, "count_Reptiles": 0, "count_Amphibians": 0, "count_Arachnids": 0, "count_Sac Fungi": 0, "unique_species_count": 1.0, "countryCode": "ML" }, "geometry": { "type": "MultiPolygon", "coordinates": [ [ [ [ 1.341962556317681, 17.297630293386007 ], [ 1.989583732568871, 16.607405548613439 ], [ 1.729283167717336, 15.897260315717041 ], [ 0.795154043137213, 15.859864377169282 ], [ 0.139611533274036, 16.542476685179516 ], [ 0.422678955587651, 17.267800871588769 ], [ 1.341962556317681, 17.297630293386007 ] ] ] ] } },
{ "type": "Feature", "properties": { "geogrid_id": "716669710003871949", "seqnum": 4957.0, "lat_c": 16.669710463771114, "lon_c": 3.8719491427705659, "res": 7.0, "count_Flowering Plants": 0, "count_Mammals": 0, "count_Insects": 0, "count_Birds": 1, "count_Basidiomycota": 0, "count_Molluscs": 0, "count_Reptiles": 0, "count_Amphibians": 0, "count_Arachnids": 0, "count_Sac Fungi": 0, "unique_species_count": 1.0, "countryCode": "ML" }, "geometry": { "type": "MultiPolygon", "coordinates": [ [ [ [ 4.12877522735309, 17.371039606900361 ], [ 4.643095845241637, 16.590899487576102 ], [ 4.223396210669107, 15.793250761172876 ], [ 3.441715384596957, 15.861169733287008 ], [ 2.924866588511175, 16.637765903212649 ], [ 3.192738893799186, 17.348089804813611 ], [ 4.12877522735309, 17.371039606900361 ] ] ] ] } },
{ "type": "Feature", "properties": { "geogrid_id": "717324123002264751", "seqnum": 4902.0, "lat_c": 17.324123307032409, "lon_c": 2.2647508880418781, "res": 7.0, "count_Flowering Plants": 1, "count_Mammals": 6, "count_Insects": 0, "count_Birds": 1, "count_Basidiomycota": 0, "count_Molluscs": 0, "count_Reptiles": 0, "count_Amphibians": 0, "count_Arachnids": 0, "count_Sac Fungi": 0, "unique_species_count": 8.0, "countryCode": "ML" }, "geometry": { "type": "MultiPolygon", "coordinates": [ [ [ [ 2.554898696218089, 18.046398919075177 ], [ 3.192738893799186, 17.348089804813611 ], [ 2.924866588511175, 16.637765903212649 ], [ 1.989583732568871, 16.607405548613439 ], [ 1.341962556317681, 17.297630293386007 ], [ 1.635191600385903, 18.023628955764408 ], [ 2.554898696218089, 18.046398919075177 ] ] ] ] } },
{ "type": "Feature", "properties": { "geogrid_id": "717996806000717595", "seqnum": 4848.0, "lat_c": 17.996805579231598, "lon_c": 0.71759453678460905, "res": 7.0, "count_Flowering Plants": 1, "count_Mammals": 0, "count_Insects": 0, "count_Birds": 0, "count_Basidiomycota": 0, "count_Molluscs": 0, "count_Reptiles": 0, "count_Amphibians": 0, "count_Arachnids": 0, "count_Sac Fungi": 0, "unique_species_count": 1.0, "countryCode": "ML" }, "geometry": { "type": "MultiPolygon", "coordinates": [ [ [ [ 1.024444103437602, 18.728769808191888 ], [ 1.635191600385903, 18.023628955764408 ], [ 1.341962556317681, 17.297630293386007 ], [ 0.422678955587651, 17.267800871588769 ], [ -0.198566573254113, 17.965687355761421 ], [ 0.107811511275331, 18.699700047945949 ], [ 1.024444103437602, 18.728769808191888 ] ] ] ] } },
{ "type": "Feature", "properties": { "geogrid_id": "718753220001941750", "seqnum": 4876.0, "lat_c": 18.753220309028109, "lon_c": 1.9417501688261749, "res": 7.0, "count_Flowering Plants": 3, "count_Mammals": 6, "count_Insects": 0, "count_Birds": 1, "count_Basidiomycota": 0, "count_Molluscs": 0, "count_Reptiles": 0, "count_Amphibians": 0, "count_Arachnids": 0, "count_Sac Fungi": 0, "unique_species_count": 10.0, "countryCode": "ML" }, "geometry": { "type": "MultiPolygon", "coordinates": [ [ [ [ 2.261688529683965, 19.485490932912001 ], [ 2.86009962027798, 18.773154410204342 ], [ 2.554898696218089, 18.046398919075177 ], [ 1.635191600385903, 18.023628955764408 ], [ 1.024444103437602, 18.728769808191888 ], [ 1.343295982659704, 19.46294449657244 ], [ 2.261688529683965, 19.485490932912001 ] ] ] ] } },
{ "type": "Feature", "properties": { "geogrid_id": "719503254003180382", "seqnum": 4903.0, "lat_c": 19.503254106772552, "lon_c": 3.1803816577742832, "res": 7.0, "count_Flowering Plants": 0, "count_Mammals": 0, "count_Insects": 1, "count_Birds": 0, "count_Basidiomycota": 0, "count_Molluscs": 0, "count_Reptiles": 0, "count_Amphibians": 0, "count_Arachnids": 0, "count_Sac Fungi": 0, "unique_species_count": 1.0, "countryCode": "ML" }, "geometry": { "type": "MultiPolygon", "coordinates": [ [ [ [ 3.515725705910417, 20.235511267007869 ], [ 4.099626167836988, 19.516288245227038 ], [ 3.78007996058047, 18.788752098513857 ], [ 2.86009962027798, 18.773154410204342 ], [ 2.261688529683965, 19.485490932912001 ], [ 2.595027328736149, 20.219492348704989 ], [ 3.515725705910417, 20.235511267007869 ] ] ] ] } },
{ "type": "Feature", "properties": { "geogrid_id": "720198555001674200", "seqnum": 4849.0, "lat_c": 20.198555356068237, "lon_c": 1.6741998770616571, "res": 7.0, "count_Flowering Plants": 1, "count_Mammals": 0, "count_Insects": 0, "count_Birds": 1, "count_Basidiomycota": 0, "count_Molluscs": 0, "count_Reptiles": 0, "count_Amphibians": 0, "count_Arachnids": 0, "count_Sac Fungi": 0, "unique_species_count": 2.0, "countryCode": "ML" }, "geometry": { "type": "MultiPolygon", "coordinates": [ [ [ [ 2.017185762603784, 20.934806010184374 ], [ 2.595027328736149, 20.219492348704989 ], [ 2.261688529683965, 19.485490932912001 ], [ 1.343295982659704, 19.46294449657244 ], [ 0.753210287529842, 20.17269449855138 ], [ 1.092360754629076, 20.910373442377043 ], [ 2.017185762603784, 20.934806010184374 ] ] ] ] } }
]
}
