{
"type": "FeatureCollection",
"name": "MN",
"crs": { "type": "name", "properties": { "name": "urn:ogc:def:crs:OGC:1.3:CRS84" } },
"features": [
{ "type": "Feature", "properties": { "geogrid_id": "742005208103064341", "seqnum": 8998.0, "lat_c": 42.005208472515925, "lon_c": 103.06434066140892, "res": 7.0, "count_Insects": 0, "count_Mammals": 0, "count_Amphibians": 0, "count_Flowering Plants": 2, "count_Birds": 0, "count_Ferns": 0, "count_Basidiomycota": 0, "count_Reptiles": 0, "count_Arachnids": 0, "count_Gymnosperms": 0, "count_Sac Fungi": 0, "count_Mosses": 0, "count_Molluscs": 0, "unique_species_count": 2.0, "countryCode": "MN" }, "geometry": { "type": "MultiPolygon", "coordinates": [ [ [ [ 102.477387756128905, 42.812277211433369 ], [ 103.694639040469823, 42.597530356172435 ], [ 104.261592880294714, 41.790843984850596 ], [ 103.63464362771667, 41.19714774096515 ], [ 102.447094995892243, 41.413381756057646 ], [ 101.857236069069131, 42.222647207230906 ], [ 102.477387756128905, 42.812277211433369 ] ] ] ] } },
{ "type": "Feature", "properties": { "geogrid_id": "742087214110317074", "seqnum": 9187.0, "lat_c": 42.087214410248436, "lon_c": 110.31707360741011, "res": 7.0, "count_Insects": 1, "count_Mammals": 0, "count_Amphibians": 0, "count_Flowering Plants": 2, "count_Birds": 0, "count_Ferns": 0, "count_Basidiomycota": 0, "count_Reptiles": 0, "count_Arachnids": 0, "count_Gymnosperms": 0, "count_Sac Fungi": 0, "count_Mosses": 0, "count_Molluscs": 0, "unique_species_count": 3.0, "countryCode": "MN" }, "geometry": { "type": "MultiPolygon", "coordinates": [ [ [ [ 109.838550273887947, 42.905702073111847 ], [ 111.021316750214382, 42.670052696653414 ], [ 111.480400479231363, 41.847059258060774 ], [ 110.782385787399647, 41.265491407704957 ], [ 109.627151006426459, 41.50175026513314 ], [ 109.142810900215935, 42.319184358461612 ], [ 109.838550273887947, 42.905702073111847 ] ] ] ] } },
{ "type": "Feature", "properties": { "geogrid_id": "742384427097598284", "seqnum": 8890.0, "lat_c": 42.384426761905395, "lon_c": 97.598284444762882, "res": 7.0, "count_Insects": 0, "count_Mammals": 1, "count_Amphibians": 0, "count_Flowering Plants": 2, "count_Birds": 0, "count_Ferns": 0, "count_Basidiomycota": 0, "count_Reptiles": 0, "count_Arachnids": 0, "count_Gymnosperms": 0, "count_Sac Fungi": 0, "count_Mosses": 0, "count_Molluscs": 0, "unique_species_count": 3.0, "countryCode": "MN" }, "geometry": { "type": "MultiPolygon", "coordinates": [ [ [ [ 96.944532392423952, 42.97766183959294 ], [ 98.161548778853884, 43.190113543014476 ], [ 98.805360959487174, 42.597530354100016 ], [ 98.238407119711425, 41.790843982743269 ], [ 97.05104616368827, 41.576649882905194 ], [ 96.401428315692371, 42.170261493102565 ], [ 96.944532392423952, 42.97766183959294 ] ] ] ] } },
{ "type": "Feature", "properties": { "geogrid_id": "742384427104901716", "seqnum": 9052.0, "lat_c": 42.384426763966765, "lon_c": 104.90171555528636, "res": 7.0, "count_Insects": 4, "count_Mammals": 23, "count_Amphibians": 0, "count_Flowering Plants": 16, "count_Birds": 3, "count_Ferns": 0, "count_Basidiomycota": 0, "count_Reptiles": 1, "count_Arachnids": 0, "count_Gymnosperms": 0, "count_Sac Fungi": 0, "count_Mosses": 0, "count_Molluscs": 0, "unique_species_count": 47.0, "countryCode": "MN" }, "geometry": { "type": "MultiPolygon", "coordinates": [ [ [ [ 104.338451221145448, 43.190113545038948 ], [ 105.555467607669627, 42.977661841609482 ], [ 106.098571684449951, 42.170261495160105 ], [ 105.448953836409075, 41.576649885006013 ], [ 104.261592880294714, 41.790843984850596 ], [ 103.694639040469823, 42.597530356172435 ], [ 104.338451221145448, 43.190113545038948 ] ] ] ] } },
{ "type": "Feature", "properties": { "geogrid_id": "742762960095738085", "seqnum": 8863.0, "lat_c": 42.762960338932743, "lon_c": 95.738084850411653, "res": 7.0, "count_Insects": 0, "count_Mammals": 2, "count_Amphibians": 0, "count_Flowering Plants": 12, "count_Birds": 1, "count_Ferns": 0, "count_Basidiomycota": 0, "count_Reptiles": 0, "count_Arachnids": 0, "count_Gymnosperms": 0, "count_Sac Fungi": 0, "count_Mosses": 0, "count_Molluscs": 0, "unique_species_count": 15.0, "countryCode": "MN" }, "geometry": { "type": "MultiPolygon", "coordinates": [ [ [ [ 95.060551896502048, 43.354503630014911 ], [ 96.276679196469743, 43.570305883118692 ], [ 96.944532392423952, 42.97766183959294 ], [ 96.401428315692371, 42.170261493102565 ], [ 95.214851624697829, 41.952866253867001 ], [ 94.542275302323418, 42.544003365285079 ], [ 95.060551896502048, 43.354503630014911 ] ] ] ] } },
{ "type": "Feature", "properties": { "geogrid_id": "742762960106761915", "seqnum": 9106.0, "lat_c": 42.762960340947963, "lon_c": 106.76191514977688, "res": 7.0, "count_Insects": 13, "count_Mammals": 21, "count_Amphibians": 1, "count_Flowering Plants": 78, "count_Birds": 17, "count_Ferns": 0, "count_Basidiomycota": 0, "count_Reptiles": 3, "count_Arachnids": 3, "count_Gymnosperms": 2, "count_Sac Fungi": 0, "count_Mosses": 0, "count_Molluscs": 0, "unique_species_count": 138.0, "countryCode": "MN" }, "geometry": { "type": "MultiPolygon", "coordinates": [ [ [ [ 106.223320803669395, 43.5703058850915 ], [ 107.439448103733923, 43.35450363198877 ], [ 107.957724697960543, 42.544003367304057 ], [ 107.285148375538171, 41.952866255926281 ], [ 106.098571684449951, 42.170261495160105 ], [ 105.555467607669627, 42.977661841609482 ], [ 106.223320803669395, 43.5703058850915 ] ] ] ] } },
{ "type": "Feature", "properties": { "geogrid_id": "743032055101250000", "seqnum": 8971.0, "lat_c": 43.032055276468917, "lon_c": 101.24999999919577, "res": 7.0, "count_Insects": 2, "count_Mammals": 3, "count_Amphibians": 0, "count_Flowering Plants": 80, "count_Birds": 13, "count_Ferns": 0, "count_Basidiomycota": 0, "count_Reptiles": 1, "count_Arachnids": 0, "count_Gymnosperms": 2, "count_Sac Fungi": 0, "count_Mosses": 0, "count_Molluscs": 0, "unique_species_count": 101.0, "countryCode": "MN" }, "geometry": { "type": "MultiPolygon", "coordinates": [ [ [ [ 100.627083983157064, 43.618955466538374 ], [ 101.8729160166572, 43.618955468606934 ], [ 102.477387756128905, 42.812277211433369 ], [ 101.857236069069131, 42.222647207230906 ], [ 100.642763930757809, 42.222647205084883 ], [ 100.022612243737001, 42.8122772093406 ], [ 100.627083983157064, 43.618955466538374 ] ] ] ] } },
{ "type": "Feature", "properties": { "geogrid_id": "743133460108644557", "seqnum": 9161.0, "lat_c": 43.133460244474662, "lon_c": 108.64455690829894, "res": 7.0, "count_Insects": 8, "count_Mammals": 3, "count_Amphibians": 0, "count_Flowering Plants": 39, "count_Birds": 9, "count_Ferns": 0, "count_Basidiomycota": 0, "count_Reptiles": 4, "count_Arachnids": 2, "count_Gymnosperms": 1, "count_Sac Fungi": 0, "count_Mosses": 0, "count_Molluscs": 0, "unique_species_count": 66.0, "countryCode": "MN" }, "geometry": { "type": "MultiPolygon", "coordinates": [ [ [ [ 108.131649074565928, 43.944639560455556 ], [ 109.346112666779689, 43.720986241009115 ], [ 109.838550273887947, 42.905702073111847 ], [ 109.142810900215935, 42.319184358461612 ], [ 107.957724697960543, 42.544003367304057 ], [ 107.439448103733923, 43.35450363198877 ], [ 108.131649074565928, 43.944639560455556 ] ] ] ] } },
{ "type": "Feature", "properties": { "geogrid_id": "743402826099389080", "seqnum": 8944.0, "lat_c": 43.402826326810384, "lon_c": 99.389080272710757, "res": 7.0, "count_Insects": 4, "count_Mammals": 21, "count_Amphibians": 0, "count_Flowering Plants": 29, "count_Birds": 10, "count_Ferns": 0, "count_Basidiomycota": 0, "count_Reptiles": 4, "count_Arachnids": 0, "count_Gymnosperms": 1, "count_Sac Fungi": 0, "count_Mosses": 0, "count_Molluscs": 0, "unique_species_count": 69.0, "countryCode": "MN" }, "geometry": { "type": "MultiPolygon", "coordinates": [ [ [ [ 98.741685354099218, 43.994051921613988 ], [ 99.990451765347657, 44.207245814244281 ], [ 100.627083983157064, 43.618955466538374 ], [ 100.022612243737001, 42.8122772093406 ], [ 98.805360959487174, 42.597530354100016 ], [ 98.161548778853884, 43.190113543014476 ], [ 98.741685354099218, 43.994051921613988 ] ] ] ] } },
{ "type": "Feature", "properties": { "geogrid_id": "743402826103110920", "seqnum": 9025.0, "lat_c": 43.402826328851354, "lon_c": 103.11091972719535, "res": 7.0, "count_Insects": 42, "count_Mammals": 41, "count_Amphibians": 1, "count_Flowering Plants": 249, "count_Birds": 95, "count_Ferns": 0, "count_Basidiomycota": 0, "count_Reptiles": 5, "count_Arachnids": 2, "count_Gymnosperms": 6, "count_Sac Fungi": 1, "count_Mosses": 0, "count_Molluscs": 0, "unique_species_count": 442.0, "countryCode": "MN" }, "geometry": { "type": "MultiPolygon", "coordinates": [ [ [ [ 102.509548234505772, 44.207245816258002 ], [ 103.75831464584833, 43.994051923604616 ], [ 104.338451221145448, 43.190113545038948 ], [ 103.694639040469823, 42.597530356172435 ], [ 102.477387756128905, 42.812277211433369 ], [ 101.8729160166572, 43.618955468606934 ], [ 102.509548234505772, 44.207245816258002 ] ] ] ] } },
{ "type": "Feature", "properties": { "geogrid_id": "743489801110549045", "seqnum": 9215.0, "lat_c": 43.489801335257049, "lon_c": 110.54904461037582, "res": 7.0, "count_Insects": 7, "count_Mammals": 10, "count_Amphibians": 0, "count_Flowering Plants": 16, "count_Birds": 1, "count_Ferns": 0, "count_Basidiomycota": 0, "count_Reptiles": 2, "count_Arachnids": 0, "count_Gymnosperms": 0, "count_Sac Fungi": 0, "count_Mosses": 0, "count_Molluscs": 0, "unique_species_count": 36.0, "countryCode": "MN" }, "geometry": { "type": "MultiPolygon", "coordinates": [ [ [ [ 110.062872738795193, 44.306321728842896 ], [ 111.274760692794416, 44.071224124265235 ], [ 111.740321926284963, 43.250017285384729 ], [ 111.021316750214382, 42.670052696653414 ], [ 109.838550273887947, 42.905702073111847 ], [ 109.346112666779689, 43.720986241009115 ], [ 110.062872738795193, 44.306321728842896 ] ] ] ] } },
{ "type": "Feature", "properties": { "geogrid_id": "743782715097503745", "seqnum": 8918.0, "lat_c": 43.782714666473282, "lon_c": 97.503744754247251, "res": 7.0, "count_Insects": 0, "count_Mammals": 6, "count_Amphibians": 0, "count_Flowering Plants": 40, "count_Birds": 9, "count_Ferns": 0, "count_Basidiomycota": 0, "count_Reptiles": 6, "count_Arachnids": 0, "count_Gymnosperms": 1, "count_Sac Fungi": 0, "count_Mosses": 0, "count_Molluscs": 0, "unique_species_count": 62.0, "countryCode": "MN" }, "geometry": { "type": "MultiPolygon", "coordinates": [ [ [ [ 96.831453565754003, 44.375080574883029 ], [ 98.079926379460019, 44.585701063862743 ], [ 98.741685354099218, 43.994051921613988 ], [ 98.161548778853884, 43.190113543014476 ], [ 96.944532392423952, 42.97766183959294 ], [ 96.276679196469743, 43.570305883118692 ], [ 96.831453565754003, 44.375080574883029 ] ] ] ] } },
{ "type": "Feature", "properties": { "geogrid_id": "743782715104996255", "seqnum": 9080.0, "lat_c": 43.782714668451064, "lon_c": 104.99625524579565, "res": 7.0, "count_Insects": 28, "count_Mammals": 17, "count_Amphibians": 0, "count_Flowering Plants": 102, "count_Birds": 104, "count_Ferns": 0, "count_Basidiomycota": 1, "count_Reptiles": 4, "count_Arachnids": 1, "count_Gymnosperms": 0, "count_Sac Fungi": 0, "count_Mosses": 0, "count_Molluscs": 0, "unique_species_count": 257.0, "countryCode": "MN" }, "geometry": { "type": "MultiPolygon", "coordinates": [ [ [ [ 104.420073620530303, 44.58570106580445 ], [ 105.668546434333791, 44.375080576815364 ], [ 106.223320803669395, 43.5703058850915 ], [ 105.555467607669627, 42.977661841609482 ], [ 104.338451221145448, 43.190113545038948 ], [ 103.75831464584833, 43.994051923604616 ], [ 104.420073620530303, 44.58570106580445 ] ] ] ] } },
{ "type": "Feature", "properties": { "geogrid_id": "743826852112474541", "seqnum": 9269.0, "lat_c": 43.826851868077199, "lon_c": 112.47454051136553, "res": 7.0, "count_Insects": 1, "count_Mammals": 0, "count_Amphibians": 0, "count_Flowering Plants": 1, "count_Birds": 1, "count_Ferns": 0, "count_Basidiomycota": 0, "count_Reptiles": 1, "count_Arachnids": 0, "count_Gymnosperms": 0, "count_Sac Fungi": 0, "count_Mosses": 0, "count_Molluscs": 0, "unique_species_count": 4.0, "countryCode": "MN" }, "geometry": { "type": "MultiPolygon", "coordinates": [ [ [ [ 112.016176450065032, 44.649703460272129 ], [ 113.224433275122706, 44.400291439153293 ], [ 113.66206883167132, 43.572448673943953 ], [ 112.91981143467909, 43.000788281442915 ], [ 111.740321926284963, 43.250017285384729 ], [ 111.274760692794416, 44.071224124265235 ], [ 112.016176450065032, 44.649703460272129 ] ] ] ] } },
{ "type": "Feature", "properties": { "geogrid_id": "744162106095594237", "seqnum": 8891.0, "lat_c": 44.162106198208853, "lon_c": 95.594237081484565, "res": 7.0, "count_Insects": 0, "count_Mammals": 2, "count_Amphibians": 0, "count_Flowering Plants": 12, "count_Birds": 1, "count_Ferns": 0, "count_Basidiomycota": 0, "count_Reptiles": 4, "count_Arachnids": 0, "count_Gymnosperms": 0, "count_Sac Fungi": 0, "count_Mosses": 0, "count_Molluscs": 0, "unique_species_count": 19.0, "countryCode": "MN" }, "geometry": { "type": "MultiPolygon", "coordinates": [ [ [ [ 94.896702127794953, 44.752800457682163 ], [ 96.144162344675124, 44.96694806327983 ], [ 96.831453565754003, 44.375080574883029 ], [ 96.276679196469743, 43.570305883118692 ], [ 95.060551896502048, 43.354503630014911 ], [ 94.368350925718772, 43.944639558522148 ], [ 94.896702127794953, 44.752800457682163 ] ] ] ] } },
{ "type": "Feature", "properties": { "geogrid_id": "744162106106905763", "seqnum": 9134.0, "lat_c": 44.162106200139, "lon_c": 106.90576291870144, "res": 7.0, "count_Insects": 1, "count_Mammals": 6, "count_Amphibians": 0, "count_Flowering Plants": 38, "count_Birds": 20, "count_Ferns": 0, "count_Basidiomycota": 0, "count_Reptiles": 2, "count_Arachnids": 0, "count_Gymnosperms": 0, "count_Sac Fungi": 1, "count_Mosses": 0, "count_Molluscs": 0, "unique_species_count": 68.0, "countryCode": "MN" }, "geometry": { "type": "MultiPolygon", "coordinates": [ [ [ [ 106.355837655458885, 44.966948065167927 ], [ 107.603297872439256, 44.752800459570679 ], [ 108.131649074565928, 43.944639560455556 ], [ 107.439448103733923, 43.35450363198877 ], [ 106.223320803669395, 43.5703058850915 ], [ 105.668546434333791, 44.375080576815364 ], [ 106.355837655458885, 44.966948065167927 ] ] ] ] } },
{ "type": "Feature", "properties": { "geogrid_id": "744426006101250000", "seqnum": 8999.0, "lat_c": 44.426005725288086, "lon_c": 101.24999999920723, "res": 7.0, "count_Insects": 9, "count_Mammals": 18, "count_Amphibians": 1, "count_Flowering Plants": 42, "count_Birds": 47, "count_Ferns": 0, "count_Basidiomycota": 0, "count_Reptiles": 1, "count_Arachnids": 0, "count_Gymnosperms": 1, "count_Sac Fungi": 0, "count_Mosses": 0, "count_Molluscs": 0, "unique_species_count": 119.0, "countryCode": "MN" }, "geometry": { "type": "MultiPolygon", "coordinates": [ [ [ [ 100.610421824007659, 45.011442829603183 ], [ 101.889578175791343, 45.011442831594792 ], [ 102.509548234505772, 44.207245816258002 ], [ 101.8729160166572, 43.618955468606934 ], [ 100.627083983157064, 43.618955466538374 ], [ 99.990451765347657, 44.207245814244281 ], [ 100.610421824007659, 45.011442829603183 ] ] ] ] } },
{ "type": "Feature", "properties": { "geogrid_id": "744533107093660989", "seqnum": 8864.0, "lat_c": 44.533107034644793, "lon_c": 93.660988753119184, "res": 7.0, "count_Insects": 0, "count_Mammals": 2, "count_Amphibians": 0, "count_Flowering Plants": 14, "count_Birds": 0, "count_Ferns": 0, "count_Basidiomycota": 0, "count_Reptiles": 4, "count_Arachnids": 0, "count_Gymnosperms": 0, "count_Sac Fungi": 0, "count_Mosses": 0, "count_Molluscs": 0, "unique_species_count": 20.0, "countryCode": "MN" }, "geometry": { "type": "MultiPolygon", "coordinates": [ [ [ [ 92.937957622635565, 45.119635418257992 ], [ 94.183554211466259, 45.34211642510418 ], [ 94.896702127794953, 44.752800457682163 ], [ 94.368350925718772, 43.944639558522148 ], [ 93.153887333603947, 43.720986239068345 ], [ 92.437127261640228, 44.306321726940105 ], [ 92.937957622635565, 45.119635418257992 ] ] ] ] } },
{ "type": "Feature", "properties": { "geogrid_id": "744533107108839011", "seqnum": 9188.0, "lat_c": 44.533107036538631, "lon_c": 108.83901124721555, "res": 7.0, "count_Insects": 1, "count_Mammals": 0, "count_Amphibians": 0, "count_Flowering Plants": 46, "count_Birds": 0, "count_Ferns": 0, "count_Basidiomycota": 0, "count_Reptiles": 2, "count_Arachnids": 0, "count_Gymnosperms": 0, "count_Sac Fungi": 0, "count_Mosses": 0, "count_Molluscs": 0, "unique_species_count": 49.0, "countryCode": "MN" }, "geometry": { "type": "MultiPolygon", "coordinates": [ [ [ [ 108.316445788817504, 45.342116426952082 ], [ 109.562042377750572, 45.119635420113113 ], [ 110.062872738795193, 44.306321728842896 ], [ 109.346112666779689, 43.720986241009115 ], [ 108.131649074565928, 43.944639560455556 ], [ 107.603297872439256, 44.752800459570679 ], [ 108.316445788817504, 45.342116426952082 ] ] ] ] } },
{ "type": "Feature", "properties": { "geogrid_id": "744796675099339598", "seqnum": 8972.0, "lat_c": 44.796674653442672, "lon_c": 99.339598220422346, "res": 7.0, "count_Insects": 1, "count_Mammals": 17, "count_Amphibians": 1, "count_Flowering Plants": 67, "count_Birds": 28, "count_Ferns": 0, "count_Basidiomycota": 0, "count_Reptiles": 0, "count_Arachnids": 0, "count_Gymnosperms": 1, "count_Sac Fungi": 0, "count_Mosses": 0, "count_Molluscs": 0, "unique_species_count": 115.0, "countryCode": "MN" }, "geometry": { "type": "MultiPolygon", "coordinates": [ [ [ [ 98.673998190968717, 45.386979095165771 ], [ 99.956254014205513, 45.598535050856931 ], [ 100.610421824007659, 45.011442829603183 ], [ 99.990451765347657, 44.207245814244281 ], [ 98.741685354099218, 43.994051921613988 ], [ 98.079926379460019, 44.585701063862743 ], [ 98.673998190968717, 45.386979095165771 ] ] ] ] } },
{ "type": "Feature", "properties": { "geogrid_id": "744796675103160402", "seqnum": 9053.0, "lat_c": 44.79667465540318, "lon_c": 103.16040177947156, "res": 7.0, "count_Insects": 14, "count_Mammals": 11, "count_Amphibians": 0, "count_Flowering Plants": 102, "count_Birds": 49, "count_Ferns": 0, "count_Basidiomycota": 0, "count_Reptiles": 3, "count_Arachnids": 1, "count_Gymnosperms": 2, "count_Sac Fungi": 0, "count_Mosses": 0, "count_Molluscs": 0, "unique_species_count": 182.0, "countryCode": "MN" }, "geometry": { "type": "MultiPolygon", "coordinates": [ [ [ [ 102.543745985632839, 45.598535052791888 ], [ 103.826001808967021, 45.386979097074686 ], [ 104.420073620530303, 44.58570106580445 ], [ 103.75831464584833, 43.994051923604616 ], [ 102.509548234505772, 44.207245816258002 ], [ 101.889578175791343, 45.011442831594792 ], [ 102.543745985632839, 45.598535052791888 ] ] ] ] } },
{ "type": "Feature", "properties": { "geogrid_id": "744889198091704669", "seqnum": 8838.0, "lat_c": 44.889197838782103, "lon_c": 91.704669232632099, "res": 7.0, "count_Insects": 0, "count_Mammals": 25, "count_Amphibians": 0, "count_Flowering Plants": 72, "count_Birds": 0, "count_Ferns": 0, "count_Basidiomycota": 0, "count_Reptiles": 3, "count_Arachnids": 0, "count_Gymnosperms": 2, "count_Sac Fungi": 0, "count_Mosses": 0, "count_Molluscs": 0, "unique_species_count": 102.0, "countryCode": "MN" }, "geometry": { "type": "MultiPolygon", "coordinates": [ [ [ [ 90.956007060494088, 45.469336209652887 ], [ 92.198735392069608, 45.703944247976111 ], [ 92.937957622635565, 45.119635418257992 ], [ 92.437127261640228, 44.306321726940105 ], [ 91.225239307741646, 44.071224122350863 ], [ 90.483823550525742, 44.649703458393951 ], [ 90.956007060494088, 45.469336209652887 ] ] ] ] } },
{ "type": "Feature", "properties": { "geogrid_id": "744889198110795331", "seqnum": 9243.0, "lat_c": 44.889197840647618, "lon_c": 110.79533076785643, "res": 7.0, "count_Insects": 1, "count_Mammals": 5, "count_Amphibians": 0, "count_Flowering Plants": 29, "count_Birds": 5, "count_Ferns": 0, "count_Basidiomycota": 0, "count_Reptiles": 2, "count_Arachnids": 0, "count_Gymnosperms": 1, "count_Sac Fungi": 0, "count_Mosses": 0, "count_Molluscs": 0, "unique_species_count": 43.0, "countryCode": "MN" }, "geometry": { "type": "MultiPolygon", "coordinates": [ [ [ [ 110.301264608369308, 45.703944249793317 ], [ 111.543992940048923, 45.46933621148181 ], [ 112.016176450065032, 44.649703460272129 ], [ 111.274760692794416, 44.071224124265235 ], [ 110.062872738795193, 44.306321728842896 ], [ 109.562042377750572, 45.119635420113113 ], [ 110.301264608369308, 45.703944249793317 ] ] ] ] } },
{ "type": "Feature", "properties": { "geogrid_id": "745177510097403283", "seqnum": 8945.0, "lat_c": 45.177510248571828, "lon_c": 97.403283389272687, "res": 7.0, "count_Insects": 3, "count_Mammals": 15, "count_Amphibians": 1, "count_Flowering Plants": 65, "count_Birds": 12, "count_Ferns": 0, "count_Basidiomycota": 0, "count_Reptiles": 4, "count_Arachnids": 1, "count_Gymnosperms": 3, "count_Sac Fungi": 0, "count_Mosses": 0, "count_Molluscs": 0, "unique_species_count": 104.0, "countryCode": "MN" }, "geometry": { "type": "MultiPolygon", "coordinates": [ [ [ [ 96.711217218058181, 45.769205108833049 ], [ 97.993105988079094, 45.977884735411322 ], [ 98.673998190968717, 45.386979095165771 ], [ 98.079926379460019, 44.585701063862743 ], [ 96.831453565754003, 44.375080574883029 ], [ 96.144162344675124, 44.96694806327983 ], [ 96.711217218058181, 45.769205108833049 ] ] ] ] } },
{ "type": "Feature", "properties": { "geogrid_id": "745177510105096717", "seqnum": 9107.0, "lat_c": 45.177510250466028, "lon_c": 105.09671661076173, "res": 7.0, "count_Insects": 13, "count_Mammals": 8, "count_Amphibians": 1, "count_Flowering Plants": 86, "count_Birds": 65, "count_Ferns": 0, "count_Basidiomycota": 1, "count_Reptiles": 8, "count_Arachnids": 1, "count_Gymnosperms": 1, "count_Sac Fungi": 1, "count_Mosses": 0, "count_Molluscs": 0, "unique_species_count": 185.0, "countryCode": "MN" }, "geometry": { "type": "MultiPolygon", "coordinates": [ [ [ [ 104.50689401189986, 45.977884737270237 ], [ 105.788782782021741, 45.769205110681114 ], [ 106.355837655458885, 44.966948065167927 ], [ 105.668546434333791, 44.375080576815364 ], [ 104.420073620530303, 44.58570106580445 ], [ 103.826001808967021, 45.386979097074686 ], [ 104.50689401189986, 45.977884737270237 ] ] ] ] } },
{ "type": "Feature", "properties": { "geogrid_id": "745224963089726220", "seqnum": 8811.0, "lat_c": 45.224963159695392, "lon_c": 89.726219522201504, "res": 7.0, "count_Insects": 0, "count_Mammals": 0, "count_Amphibians": 0, "count_Flowering Plants": 2, "count_Birds": 0, "count_Ferns": 0, "count_Basidiomycota": 0, "count_Reptiles": 0, "count_Arachnids": 0, "count_Gymnosperms": 0, "count_Sac Fungi": 0, "count_Mosses": 0, "count_Molluscs": 0, "unique_species_count": 2.0, "countryCode": "MN" }, "geometry": { "type": "MultiPolygon", "coordinates": [ [ [ [ 88.951928568796149, 45.796717603458617 ], [ 90.190622476171342, 46.04644871968042 ], [ 90.956007060494088, 45.469336209652887 ], [ 90.483823550525742, 44.649703458393951 ], [ 89.275566725570002, 44.400291437260918 ], [ 88.509530231646366, 44.970062069948384 ], [ 88.951928568796149, 45.796717603458617 ] ] ] ] } },
{ "type": "Feature", "properties": { "geogrid_id": "745224963112773780", "seqnum": 9297.0, "lat_c": 45.224963161537914, "lon_c": 112.77378047844533, "res": 7.0, "count_Insects": 4, "count_Mammals": 4, "count_Amphibians": 0, "count_Flowering Plants": 17, "count_Birds": 10, "count_Ferns": 0, "count_Basidiomycota": 0, "count_Reptiles": 0, "count_Arachnids": 0, "count_Gymnosperms": 0, "count_Sac Fungi": 0, "count_Mosses": 0, "count_Molluscs": 0, "unique_species_count": 35.0, "countryCode": "MN" }, "geometry": { "type": "MultiPolygon", "coordinates": [ [ [ [ 112.309377524427561, 46.046448721473368 ], [ 113.548071431908127, 45.796717605265997 ], [ 113.990469769103882, 44.970062071805742 ], [ 113.224433275122706, 44.400291439153293 ], [ 112.016176450065032, 44.649703460272129 ], [ 111.543992940048923, 45.46933621148181 ], [ 112.309377524427561, 46.046448721473368 ] ] ] ] } },
{ "type": "Feature", "properties": { "geogrid_id": "745535881114773128", "seqnum": 9351.0, "lat_c": 45.535880700020456, "lon_c": 114.77312757839428, "res": 7.0, "count_Insects": 11, "count_Mammals": 2, "count_Amphibians": 0, "count_Flowering Plants": 74, "count_Birds": 7, "count_Ferns": 0, "count_Basidiomycota": 0, "count_Reptiles": 0, "count_Arachnids": 0, "count_Gymnosperms": 0, "count_Sac Fungi": 0, "count_Mosses": 0, "count_Molluscs": 0, "unique_species_count": 94.0, "countryCode": "MN" }, "geometry": { "type": "MultiPolygon", "coordinates": [ [ [ [ 114.339557264826752, 46.364671494258694 ], [ 115.572891421236179, 46.097454909251638 ], [ 115.984375070734103, 45.263431426448719 ], [ 115.193898394368745, 44.704046263603523 ], [ 113.990469769103882, 44.970062071805742 ], [ 113.548071431908127, 45.796717605265997 ], [ 114.339557264826752, 46.364671494258694 ] ] ] ] } },
{ "type": "Feature", "properties": { "geogrid_id": "745558044095441340", "seqnum": 8919.0, "lat_c": 45.558043589165642, "lon_c": 95.441340465941892, "res": 7.0, "count_Insects": 0, "count_Mammals": 21, "count_Amphibians": 0, "count_Flowering Plants": 43, "count_Birds": 4, "count_Ferns": 0, "count_Basidiomycota": 0, "count_Reptiles": 5, "count_Arachnids": 1, "count_Gymnosperms": 0, "count_Sac Fungi": 0, "count_Mosses": 0, "count_Molluscs": 0, "unique_species_count": 74.0, "countryCode": "MN" }, "geometry": { "type": "MultiPolygon", "coordinates": [ [ [ [ 94.7224394174374, 46.148082985284816 ], [ 96.003169203355895, 46.36050012368149 ], [ 96.711217218058181, 45.769205108833049 ], [ 96.144162344675124, 44.96694806327983 ], [ 94.896702127794953, 44.752800457682163 ], [ 94.183554211466259, 45.34211642510418 ], [ 94.7224394174374, 46.148082985284816 ] ] ] ] } },
{ "type": "Feature", "properties": { "geogrid_id": "745558044107058660", "seqnum": 9162.0, "lat_c": 45.558043591010687, "lon_c": 107.05865953423971, "res": 7.0, "count_Insects": 6, "count_Mammals": 7, "count_Amphibians": 0, "count_Flowering Plants": 26, "count_Birds": 18, "count_Ferns": 0, "count_Basidiomycota": 1, "count_Reptiles": 1, "count_Arachnids": 1, "count_Gymnosperms": 1, "count_Sac Fungi": 1, "count_Mosses": 0, "count_Molluscs": 0, "unique_species_count": 62.0, "countryCode": "MN" }, "geometry": { "type": "MultiPolygon", "coordinates": [ [ [ [ 106.496830796770936, 46.360500125484769 ], [ 107.777560582793228, 46.148082987087953 ], [ 108.316445788817504, 45.342116426952082 ], [ 107.603297872439256, 44.752800459570679 ], [ 106.355837655458885, 44.966948065167927 ], [ 105.788782782021741, 45.769205110681114 ], [ 106.496830796770936, 46.360500125484769 ] ] ] ] } },
{ "type": "Feature", "properties": { "geogrid_id": "745816258101250000", "seqnum": 9026.0, "lat_c": 45.816257934450519, "lon_c": 101.2499999992182, "res": 7.0, "count_Insects": 12, "count_Mammals": 25, "count_Amphibians": 1, "count_Flowering Plants": 105, "count_Birds": 115, "count_Ferns": 0, "count_Basidiomycota": 0, "count_Reptiles": 1, "count_Arachnids": 0, "count_Gymnosperms": 0, "count_Sac Fungi": 0, "count_Mosses": 0, "count_Molluscs": 0, "unique_species_count": 259.0, "countryCode": "MN" }, "geometry": { "type": "MultiPolygon", "coordinates": [ [ [ [ 100.592686464801133, 46.400347541657617 ], [ 101.907313534979792, 46.400347543572686 ], [ 102.543745985632839, 45.598535052791888 ], [ 101.889578175791343, 45.011442831594792 ], [ 100.610421824007659, 45.011442829603183 ], [ 99.956254014205513, 45.598535050856931 ], [ 100.592686464801133, 46.400347541657617 ] ] ] ] } },
{ "type": "Feature", "properties": { "geogrid_id": "745818158116791838", "seqnum": 9406.0, "lat_c": 45.818157895308453, "lon_c": 116.79183837565844, "res": 7.0, "count_Insects": 0, "count_Mammals": 0, "count_Amphibians": 0, "count_Flowering Plants": 13, "count_Birds": 0, "count_Ferns": 0, "count_Basidiomycota": 0, "count_Reptiles": 0, "count_Arachnids": 0, "count_Gymnosperms": 0, "count_Sac Fungi": 0, "count_Mosses": 0, "count_Molluscs": 0, "unique_species_count": 13.0, "countryCode": "MN" }, "geometry": { "type": "MultiPolygon", "coordinates": [ [ [ [ 116.390252079797435, 46.654482738764273 ], [ 117.61675238905228, 46.367927019085563 ], [ 117.974242038125936, 45.51189653327728 ], [ 117.160404210731045, 44.964295405557131 ], [ 115.984375070734103, 45.263431426448719 ], [ 115.572891421236179, 46.097454909251638 ], [ 116.390252079797435, 46.654482738764273 ] ] ] ] } },
{ "type": "Feature", "properties": { "geogrid_id": "745929772093454257", "seqnum": 8892.0, "lat_c": 45.929771674334731, "lon_c": 93.454257033133061, "res": 7.0, "count_Insects": 4, "count_Mammals": 36, "count_Amphibians": 0, "count_Flowering Plants": 165, "count_Birds": 3, "count_Ferns": 0, "count_Basidiomycota": 0, "count_Reptiles": 6, "count_Arachnids": 0, "count_Gymnosperms": 2, "count_Sac Fungi": 0, "count_Mosses": 0, "count_Molluscs": 0, "unique_species_count": 216.0, "countryCode": "MN" }, "geometry": { "type": "MultiPolygon", "coordinates": [ [ [ [ 92.708258251162903, 46.515473306152145 ], [ 93.986892761294314, 46.73677116823864 ], [ 94.7224394174374, 46.148082985284816 ], [ 94.183554211466259, 45.34211642510418 ], [ 92.937957622635565, 45.119635418257992 ], [ 92.198735392069608, 45.703944247976111 ], [ 92.708258251162903, 46.515473306152145 ] ] ] ] } },
{ "type": "Feature", "properties": { "geogrid_id": "745929772109045743", "seqnum": 9216.0, "lat_c": 45.929771676142984, "lon_c": 109.04574296720166, "res": 7.0, "count_Insects": 8, "count_Mammals": 14, "count_Amphibians": 0, "count_Flowering Plants": 38, "count_Birds": 33, "count_Ferns": 0, "count_Basidiomycota": 1, "count_Reptiles": 2, "count_Arachnids": 0, "count_Gymnosperms": 1, "count_Sac Fungi": 0, "count_Mosses": 0, "count_Molluscs": 0, "unique_species_count": 97.0, "countryCode": "MN" }, "geometry": { "type": "MultiPolygon", "coordinates": [ [ [ [ 108.513107238986791, 46.736771170000992 ], [ 109.791741749224229, 46.515473307921688 ], [ 110.301264608369308, 45.703944249793317 ], [ 109.562042377750572, 45.119635420113113 ], [ 108.316445788817504, 45.342116426952082 ], [ 107.777560582793228, 46.148082987087953 ], [ 108.513107238986791, 46.736771170000992 ] ] ] ] } },
{ "type": "Feature", "properties": { "geogrid_id": "746054334118805612", "seqnum": 9460.0, "lat_c": 46.054334354286041, "lon_c": 118.80561206532815, "res": 7.0, "count_Insects": 0, "count_Mammals": 0, "count_Amphibians": 0, "count_Flowering Plants": 2, "count_Birds": 0, "count_Ferns": 0, "count_Basidiomycota": 0, "count_Reptiles": 0, "count_Arachnids": 0, "count_Gymnosperms": 0, "count_Sac Fungi": 0, "count_Mosses": 0, "count_Molluscs": 0, "unique_species_count": 2.0, "countryCode": "MN" }, "geometry": { "type": "MultiPolygon", "coordinates": [ [ [ [ 118.459583611687421, 46.912430806191402 ], [ 119.654950960915485, 46.591288959473872 ], [ 119.978837627342244, 45.728839430633947 ], [ 119.141601884174477, 45.193723684444876 ], [ 117.974242038125936, 45.51189653327728 ], [ 117.61675238905228, 46.367927019085563 ], [ 118.459583611687421, 46.912430806191402 ] ] ] ] } },
{ "type": "Feature", "properties": { "geogrid_id": "746187009099286946", "seqnum": 9000.0, "lat_c": 46.187009206962941, "lon_c": 99.286946379981273, "res": 7.0, "count_Insects": 9, "count_Mammals": 13, "count_Amphibians": 1, "count_Flowering Plants": 52, "count_Birds": 123, "count_Ferns": 0, "count_Basidiomycota": 0, "count_Reptiles": 2, "count_Arachnids": 0, "count_Gymnosperms": 1, "count_Sac Fungi": 0, "count_Mosses": 0, "count_Molluscs": 0, "unique_species_count": 201.0, "countryCode": "MN" }, "geometry": { "type": "MultiPolygon", "coordinates": [ [ [ [ 98.601926416658998, 46.776579476139027 ], [ 99.919827819523547, 46.986389251451833 ], [ 100.592686464801133, 46.400347541657617 ], [ 99.956254014205513, 45.598535050856931 ], [ 98.673998190968717, 45.386979095165771 ], [ 97.993105988079094, 45.977884735411322 ], [ 98.601926416658998, 46.776579476139027 ] ] ] ] } },
{ "type": "Feature", "properties": { "geogrid_id": "746187009103213054", "seqnum": 9081.0, "lat_c": 46.187009208843072, "lon_c": 103.21305361989785, "res": 7.0, "count_Insects": 9, "count_Mammals": 20, "count_Amphibians": 1, "count_Flowering Plants": 97, "count_Birds": 81, "count_Ferns": 0, "count_Basidiomycota": 0, "count_Reptiles": 3, "count_Arachnids": 0, "count_Gymnosperms": 1, "count_Sac Fungi": 1, "count_Mosses": 0, "count_Molluscs": 0, "unique_species_count": 213.0, "countryCode": "MN" }, "geometry": { "type": "MultiPolygon", "coordinates": [ [ [ [ 102.580172180296941, 46.986389253308189 ], [ 103.898073583262359, 46.776579477966159 ], [ 104.50689401189986, 45.977884737270237 ], [ 103.826001808967021, 45.386979097074686 ], [ 102.543745985632839, 45.598535052791888 ], [ 101.907313534979792, 46.400347543572686 ], [ 102.580172180296941, 46.986389253308189 ] ] ] ] } },
{ "type": "Feature", "properties": { "geogrid_id": "746285743091442786", "seqnum": 8865.0, "lat_c": 46.285742969066803, "lon_c": 91.442785833171627, "res": 7.0, "count_Insects": 8, "count_Mammals": 30, "count_Amphibians": 1, "count_Flowering Plants": 300, "count_Birds": 4, "count_Ferns": 2, "count_Basidiomycota": 0, "count_Reptiles": 6, "count_Arachnids": 3, "count_Gymnosperms": 2, "count_Sac Fungi": 2, "count_Mosses": 0, "count_Molluscs": 0, "unique_species_count": 358.0, "countryCode": "MN" }, "geometry": { "type": "MultiPolygon", "coordinates": [ [ [ [ 90.669559064186316, 46.864730662032528 ], [ 91.944989736525343, 47.098917663448603 ], [ 92.708258251162903, 46.515473306152145 ], [ 92.198735392069608, 45.703944247976111 ], [ 90.956007060494088, 45.469336209652887 ], [ 90.190622476171342, 46.04644871968042 ], [ 90.669559064186316, 46.864730662032528 ] ] ] ] } },
{ "type": "Feature", "properties": { "geogrid_id": "746285743111057214", "seqnum": 9270.0, "lat_c": 46.285742970846876, "lon_c": 111.05721416732149, "res": 7.0, "count_Insects": 2, "count_Mammals": 0, "count_Amphibians": 0, "count_Flowering Plants": 7, "count_Birds": 0, "count_Ferns": 0, "count_Basidiomycota": 0, "count_Reptiles": 2, "count_Arachnids": 0, "count_Gymnosperms": 0, "count_Sac Fungi": 0, "count_Mosses": 0, "count_Molluscs": 0, "unique_species_count": 11.0, "countryCode": "MN" }, "geometry": { "type": "MultiPolygon", "coordinates": [ [ [ [ 110.555010263915662, 47.098917665180331 ], [ 111.830440936362464, 46.864730663776207 ], [ 112.309377524427561, 46.046448721473368 ], [ 111.543992940048923, 45.46933621148181 ], [ 110.301264608369308, 45.703944249793317 ], [ 109.791741749224229, 46.515473307921688 ], [ 110.555010263915662, 47.098917665180331 ] ] ] ] } },
{ "type": "Feature", "properties": { "geogrid_id": "746569105097296355", "seqnum": 8973.0, "lat_c": 46.569105358275223, "lon_c": 97.296354941879585, "res": 7.0, "count_Insects": 3, "count_Mammals": 17, "count_Amphibians": 0, "count_Flowering Plants": 44, "count_Birds": 83, "count_Ferns": 0, "count_Basidiomycota": 0, "count_Reptiles": 0, "count_Arachnids": 0, "count_Gymnosperms": 0, "count_Sac Fungi": 0, "count_Mosses": 0, "count_Molluscs": 0, "unique_species_count": 147.0, "countryCode": "MN" }, "geometry": { "type": "MultiPolygon", "coordinates": [ [ [ [ 96.583157015473219, 47.16034263484115 ], [ 97.900598749464152, 47.366947089919449 ], [ 98.601926416658998, 46.776579476139027 ], [ 97.993105988079094, 45.977884735411322 ], [ 96.711217218058181, 45.769205108833049 ], [ 96.003169203355895, 46.36050012368149 ], [ 96.583157015473219, 47.16034263484115 ] ] ] ] } },
{ "type": "Feature", "properties": { "geogrid_id": "746569105105203645", "seqnum": 9135.0, "lat_c": 46.569105360085707, "lon_c": 105.20364505814403, "res": 7.0, "count_Insects": 17, "count_Mammals": 11, "count_Amphibians": 3, "count_Flowering Plants": 141, "count_Birds": 99, "count_Ferns": 0, "count_Basidiomycota": 0, "count_Reptiles": 1, "count_Arachnids": 0, "count_Gymnosperms": 2, "count_Sac Fungi": 0, "count_Mosses": 0, "count_Molluscs": 0, "unique_species_count": 274.0, "countryCode": "MN" }, "geometry": { "type": "MultiPolygon", "coordinates": [ [ [ [ 104.599401250500947, 47.36694709169538 ], [ 105.91684298459657, 47.160342636604746 ], [ 106.496830796770936, 46.360500125484769 ], [ 105.788782782021741, 45.769205110681114 ], [ 104.50689401189986, 45.977884737270237 ], [ 103.898073583262359, 46.776579477966159 ], [ 104.599401250500947, 47.36694709169538 ] ] ] ] } },
{ "type": "Feature", "properties": { "geogrid_id": "746620237113092014", "seqnum": 9325.0, "lat_c": 46.620237241638222, "lon_c": 113.09201427225116, "res": 7.0, "count_Insects": 4, "count_Mammals": 7, "count_Amphibians": 0, "count_Flowering Plants": 32, "count_Birds": 13, "count_Ferns": 0, "count_Basidiomycota": 0, "count_Reptiles": 1, "count_Arachnids": 0, "count_Gymnosperms": 0, "count_Sac Fungi": 0, "count_Mosses": 0, "count_Molluscs": 0, "unique_species_count": 57.0, "countryCode": "MN" }, "geometry": { "type": "MultiPolygon", "coordinates": [ [ [ [ 112.621507866541592, 47.440595775758503 ], [ 113.892443656367846, 47.190393385337522 ], [ 114.339557264826752, 46.364671494258694 ], [ 113.548071431908127, 45.796717605265997 ], [ 112.309377524427561, 46.046448721473368 ], [ 111.830440936362464, 46.864730663776207 ], [ 112.621507866541592, 47.440595775758503 ] ] ] ] } },
{ "type": "Feature", "properties": { "geogrid_id": "746928520115148754", "seqnum": 9379.0, "lat_c": 46.9285196321893, "lon_c": 115.14875430908472, "res": 7.0, "count_Insects": 5, "count_Mammals": 1, "count_Amphibians": 0, "count_Flowering Plants": 29, "count_Birds": 3, "count_Ferns": 0, "count_Basidiomycota": 0, "count_Reptiles": 1, "count_Arachnids": 0, "count_Gymnosperms": 1, "count_Sac Fungi": 0, "count_Mosses": 0, "count_Molluscs": 0, "unique_species_count": 40.0, "countryCode": "MN" }, "geometry": { "type": "MultiPolygon", "coordinates": [ [ [ [ 114.711215930441213, 47.756598268323714 ], [ 115.976186166404958, 47.487946710719577 ], [ 116.390252079797435, 46.654482738764273 ], [ 115.572891421236179, 46.097454909251638 ], [ 114.339557264826752, 46.364671494258694 ], [ 113.892443656367846, 47.190393385337522 ], [ 114.711215930441213, 47.756598268323714 ] ] ] ] } },
{ "type": "Feature", "properties": { "geogrid_id": "746951098095278561", "seqnum": 8946.0, "lat_c": 46.95109832128874, "lon_c": 95.2785609729426, "res": 7.0, "count_Insects": 7, "count_Mammals": 15, "count_Amphibians": 0, "count_Flowering Plants": 78, "count_Birds": 17, "count_Ferns": 1, "count_Basidiomycota": 0, "count_Reptiles": 3, "count_Arachnids": 0, "count_Gymnosperms": 1, "count_Sac Fungi": 2, "count_Mosses": 0, "count_Molluscs": 0, "unique_species_count": 124.0, "countryCode": "MN" }, "geometry": { "type": "MultiPolygon", "coordinates": [ [ [ [ 94.53679432674609, 47.540690978357716 ], [ 95.852902497858125, 47.751285818439797 ], [ 96.583157015473219, 47.16034263484115 ], [ 96.003169203355895, 46.36050012368149 ], [ 94.7224394174374, 46.148082985284816 ], [ 93.986892761294314, 46.73677116823864 ], [ 94.53679432674609, 47.540690978357716 ] ] ] ] } },
{ "type": "Feature", "properties": { "geogrid_id": "746951098107221439", "seqnum": 9189.0, "lat_c": 46.951098323048548, "lon_c": 107.22143902723263, "res": 7.0, "count_Insects": 9, "count_Mammals": 16, "count_Amphibians": 0, "count_Flowering Plants": 68, "count_Birds": 32, "count_Ferns": 0, "count_Basidiomycota": 2, "count_Reptiles": 1, "count_Arachnids": 0, "count_Gymnosperms": 0, "count_Sac Fungi": 0, "count_Mosses": 0, "count_Molluscs": 0, "unique_species_count": 128.0, "countryCode": "MN" }, "geometry": { "type": "MultiPolygon", "coordinates": [ [ [ [ 106.647097502259371, 47.75128582015801 ], [ 107.963205673479052, 47.54069098007534 ], [ 108.513107238986791, 46.736771170000992 ], [ 107.777560582793228, 46.148082987087953 ], [ 106.496830796770936, 46.360500125484769 ], [ 105.91684298459657, 47.160342636604746 ], [ 106.647097502259371, 47.75128582015801 ] ] ] ] } },
{ "type": "Feature", "properties": { "geogrid_id": "747203044101250000", "seqnum": 9054.0, "lat_c": 47.203044254533779, "lon_c": 101.24999999922863, "res": 7.0, "count_Insects": 43, "count_Mammals": 33, "count_Amphibians": 0, "count_Flowering Plants": 345, "count_Birds": 61, "count_Ferns": 3, "count_Basidiomycota": 0, "count_Reptiles": 0, "count_Arachnids": 0, "count_Gymnosperms": 5, "count_Sac Fungi": 2, "count_Mosses": 0, "count_Molluscs": 0, "unique_species_count": 492.0, "countryCode": "MN" }, "geometry": { "type": "MultiPolygon", "coordinates": [ [ [ [ 100.573775074720729, 47.785903470664131 ], [ 101.926224925039108, 47.785903472502994 ], [ 102.580172180296941, 46.986389253308189 ], [ 101.907313534979792, 46.400347543572686 ], [ 100.592686464801133, 46.400347541657617 ], [ 99.919827819523547, 46.986389251451833 ], [ 100.573775074720729, 47.785903470664131 ] ] ] ] } },
{ "type": "Feature", "properties": { "geogrid_id": "747206652117225705", "seqnum": 9433.0, "lat_c": 47.206652499101956, "lon_c": 117.22570514426135, "res": 7.0, "count_Insects": 4, "count_Mammals": 6, "count_Amphibians": 1, "count_Flowering Plants": 52, "count_Birds": 21, "count_Ferns": 0, "count_Basidiomycota": 0, "count_Reptiles": 1, "count_Arachnids": 0, "count_Gymnosperms": 1, "count_Sac Fungi": 0, "count_Mosses": 0, "count_Molluscs": 0, "unique_species_count": 86.0, "countryCode": "MN" }, "geometry": { "type": "MultiPolygon", "coordinates": [ [ [ [ 116.822382395423062, 48.042627112188036 ], [ 118.079749551495183, 47.753642608620375 ], [ 118.459583611687421, 46.912430806191402 ], [ 117.61675238905228, 46.367927019085563 ], [ 116.390252079797435, 46.654482738764273 ], [ 115.976186166404958, 47.487946710719577 ], [ 116.822382395423062, 48.042627112188036 ] ] ] ] } },
{ "type": "Feature", "properties": { "geogrid_id": "747323802093234116", "seqnum": 8920.0, "lat_c": 47.323801844115209, "lon_c": 93.234116204230844, "res": 7.0, "count_Insects": 52, "count_Mammals": 29, "count_Amphibians": 0, "count_Flowering Plants": 312, "count_Birds": 110, "count_Ferns": 1, "count_Basidiomycota": 0, "count_Reptiles": 4, "count_Arachnids": 3, "count_Gymnosperms": 4, "count_Sac Fungi": 4, "count_Mosses": 0, "count_Molluscs": 0, "unique_species_count": 519.0, "countryCode": "MN" }, "geometry": { "type": "MultiPolygon", "coordinates": [ [ [ [ 92.463507796159746, 47.90885721264204 ], [ 93.777251232195184, 48.128957316885462 ], [ 94.53679432674609, 47.540690978357716 ], [ 93.986892761294314, 46.73677116823864 ], [ 92.708258251162903, 46.515473306152145 ], [ 91.944989736525343, 47.098917663448603 ], [ 92.463507796159746, 47.90885721264204 ] ] ] ] } },
{ "type": "Feature", "properties": { "geogrid_id": "747323802109265884", "seqnum": 9244.0, "lat_c": 47.323801845837849, "lon_c": 109.26588379610222, "res": 7.0, "count_Insects": 52, "count_Mammals": 19, "count_Amphibians": 2, "count_Flowering Plants": 161, "count_Birds": 97, "count_Ferns": 1, "count_Basidiomycota": 0, "count_Reptiles": 1, "count_Arachnids": 0, "count_Gymnosperms": 2, "count_Sac Fungi": 1, "count_Mosses": 0, "count_Molluscs": 0, "unique_species_count": 336.0, "countryCode": "MN" }, "geometry": { "type": "MultiPolygon", "coordinates": [ [ [ [ 108.722748768081416, 48.128957318562122 ], [ 110.036492204226818, 47.908857214326005 ], [ 110.555010263915662, 47.098917665180331 ], [ 109.791741749224229, 46.515473307921688 ], [ 108.513107238986791, 46.736771170000992 ], [ 107.963205673479052, 47.54069098007534 ], [ 108.722748768081416, 48.128957318562122 ] ] ] ] } },
{ "type": "Feature", "properties": { "geogrid_id": "747451352119320799", "seqnum": 9488.0, "lat_c": 47.451351797337807, "lon_c": 119.3207993781499, "res": 7.0, "count_Insects": 5, "count_Mammals": 21, "count_Amphibians": 3, "count_Flowering Plants": 134, "count_Birds": 24, "count_Ferns": 0, "count_Basidiomycota": 3, "count_Reptiles": 3, "count_Arachnids": 0, "count_Gymnosperms": 1, "count_Sac Fungi": 0, "count_Mosses": 0, "count_Molluscs": 1, "unique_species_count": 195.0, "countryCode": "MN" }, "geometry": { "type": "MultiPolygon", "coordinates": [ [ [ [ 118.952885898789688, 48.295121453548788 ], [ 120.200866049856103, 47.984362965326753 ], [ 120.522693234969381, 47.122431259187074 ], [ 119.654950960915485, 46.591288959473872 ], [ 118.459583611687421, 46.912430806191402 ], [ 118.079749551495183, 47.753642608620375 ], [ 118.952885898789688, 48.295121453548788 ] ] ] ] } },
{ "type": "Feature", "properties": { "geogrid_id": "747574085099230824", "seqnum": 9027.0, "lat_c": 47.574085383069303, "lon_c": 99.230823665007406, "res": 7.0, "count_Insects": 24, "count_Mammals": 13, "count_Amphibians": 3, "count_Flowering Plants": 210, "count_Birds": 46, "count_Ferns": 1, "count_Basidiomycota": 5, "count_Reptiles": 0, "count_Arachnids": 1, "count_Gymnosperms": 4, "count_Sac Fungi": 2, "count_Mosses": 2, "count_Molluscs": 0, "unique_species_count": 311.0, "countryCode": "MN" }, "geometry": { "type": "MultiPolygon", "coordinates": [ [ [ [ 98.525048739105202, 48.163123933098824 ], [ 99.880956897757855, 48.37105071318927 ], [ 100.573775074720729, 47.785903470664131 ], [ 99.919827819523547, 46.986389251451833 ], [ 98.601926416658998, 46.776579476139027 ], [ 97.900598749464152, 47.366947089919449 ], [ 98.525048739105202, 48.163123933098824 ] ] ] ] } },
{ "type": "Feature", "properties": { "geogrid_id": "747574085103269176", "seqnum": 9108.0, "lat_c": 47.574085384869022, "lon_c": 103.26917633485417, "res": 7.0, "count_Insects": 51, "count_Mammals": 22, "count_Amphibians": 2, "count_Flowering Plants": 273, "count_Birds": 166, "count_Ferns": 7, "count_Basidiomycota": 2, "count_Reptiles": 3, "count_Arachnids": 1, "count_Gymnosperms": 5, "count_Sac Fungi": 0, "count_Mosses": 0, "count_Molluscs": 0, "unique_species_count": 532.0, "countryCode": "MN" }, "geometry": { "type": "MultiPolygon", "coordinates": [ [ [ [ 102.619043102041758, 48.371050714967055 ], [ 103.974951260799045, 48.163123934843952 ], [ 104.599401250500947, 47.36694709169538 ], [ 103.898073583262359, 46.776579477966159 ], [ 102.580172180296941, 46.986389253308189 ], [ 101.926224925039108, 47.785903472502994 ], [ 102.619043102041758, 48.371050714967055 ] ] ] ] } },
{ "type": "Feature", "properties": { "geogrid_id": "747679790091163868", "seqnum": 8893.0, "lat_c": 47.679790046851529, "lon_c": 91.163867968753223, "res": 7.0, "count_Insects": 7, "count_Mammals": 18, "count_Amphibians": 0, "count_Flowering Plants": 161, "count_Birds": 59, "count_Ferns": 0, "count_Basidiomycota": 0, "count_Reptiles": 2, "count_Arachnids": 0, "count_Gymnosperms": 0, "count_Sac Fungi": 0, "count_Mosses": 0, "count_Molluscs": 0, "unique_species_count": 247.0, "countryCode": "MN" }, "geometry": { "type": "MultiPolygon", "coordinates": [ [ [ [ 90.364294594527678, 48.257764433042645 ], [ 91.67444827865873, 48.491607671755567 ], [ 92.463507796159746, 47.90885721264204 ], [ 91.944989736525343, 47.098917663448603 ], [ 90.669559064186316, 46.864730662032528 ], [ 89.878492134064317, 47.440595774050529 ], [ 90.364294594527678, 48.257764433042645 ] ] ] ] } },
{ "type": "Feature", "properties": { "geogrid_id": "747679790111336132", "seqnum": 9298.0, "lat_c": 47.679790048546295, "lon_c": 111.33613203174318, "res": 7.0, "count_Insects": 6, "count_Mammals": 4, "count_Amphibians": 0, "count_Flowering Plants": 121, "count_Birds": 11, "count_Ferns": 0, "count_Basidiomycota": 0, "count_Reptiles": 0, "count_Arachnids": 0, "count_Gymnosperms": 3, "count_Sac Fungi": 0, "count_Mosses": 0, "count_Molluscs": 0, "unique_species_count": 145.0, "countryCode": "MN" }, "geometry": { "type": "MultiPolygon", "coordinates": [ [ [ [ 110.825551721782901, 48.491607673401838 ], [ 112.135705406025636, 48.257764434701258 ], [ 112.621507866541592, 47.440595775758503 ], [ 111.830440936362464, 46.864730663776207 ], [ 110.555010263915662, 47.098917665180331 ], [ 110.036492204226818, 47.908857214326005 ], [ 110.825551721782901, 48.491607673401838 ] ] ] ] } },
{ "type": "Feature", "properties": { "geogrid_id": "747957800097182345", "seqnum": 9001.0, "lat_c": 47.957800023965376, "lon_c": 97.182344640525343, "res": 7.0, "count_Insects": 9, "count_Mammals": 0, "count_Amphibians": 0, "count_Flowering Plants": 111, "count_Birds": 11, "count_Ferns": 0, "count_Basidiomycota": 3, "count_Reptiles": 0, "count_Arachnids": 0, "count_Gymnosperms": 0, "count_Sac Fungi": 0, "count_Mosses": 0, "count_Molluscs": 0, "unique_species_count": 134.0, "countryCode": "MN" }, "geometry": { "type": "MultiPolygon", "coordinates": [ [ [ [ 96.446521574903812, 48.548812687292276 ], [ 97.801852304383019, 48.753178258550442 ], [ 98.525048739105202, 48.163123933098824 ], [ 97.900598749464152, 47.366947089919449 ], [ 96.583157015473219, 47.16034263484115 ], [ 95.852902497858125, 47.751285818439797 ], [ 96.446521574903812, 48.548812687292276 ] ] ] ] } },
{ "type": "Feature", "properties": { "geogrid_id": "747957800105317655", "seqnum": 9163.0, "lat_c": 47.957800025691853, "lon_c": 105.31765535948504, "res": 7.0, "count_Insects": 96, "count_Mammals": 35, "count_Amphibians": 3, "count_Flowering Plants": 274, "count_Birds": 151, "count_Ferns": 1, "count_Basidiomycota": 3, "count_Reptiles": 5, "count_Arachnids": 3, "count_Gymnosperms": 3, "count_Sac Fungi": 2, "count_Mosses": 0, "count_Molluscs": 0, "unique_species_count": 576.0, "countryCode": "MN" }, "geometry": { "type": "MultiPolygon", "coordinates": [ [ [ [ 104.698147695565524, 48.753178260243004 ], [ 106.053478425153472, 48.548812688971047 ], [ 106.647097502259371, 47.75128582015801 ], [ 105.91684298459657, 47.160342636604746 ], [ 104.599401250500947, 47.36694709169538 ], [ 103.974951260799045, 48.163123934843952 ], [ 104.698147695565524, 48.753178260243004 ] ] ] ] } },
{ "type": "Feature", "properties": { "geogrid_id": "748013016089069010", "seqnum": 8866.0, "lat_c": 48.013015855899184, "lon_c": 89.06900977943701, "res": 7.0, "count_Insects": 1, "count_Mammals": 21, "count_Amphibians": 0, "count_Flowering Plants": 214, "count_Birds": 11, "count_Ferns": 3, "count_Basidiomycota": 0, "count_Reptiles": 1, "count_Arachnids": 0, "count_Gymnosperms": 4, "count_Sac Fungi": 4, "count_Mosses": 0, "count_Molluscs": 0, "unique_species_count": 259.0, "countryCode": "MN" }, "geometry": { "type": "MultiPolygon", "coordinates": [ [ [ [ 88.240525377406627, 48.581657307493309 ], [ 89.545657172679626, 48.832503198523945 ], [ 90.364294594527678, 48.257764433042645 ], [ 89.878492134064317, 47.440595774050529 ], [ 88.607556344347103, 47.190393383614776 ], [ 87.788784070333961, 47.756598266635287 ], [ 88.240525377406627, 48.581657307493309 ] ] ] ] } },
{ "type": "Feature", "properties": { "geogrid_id": "748013016113430990", "seqnum": 9352.0, "lat_c": 48.0130158575721, "lon_c": 113.43099022122755, "res": 7.0, "count_Insects": 3, "count_Mammals": 8, "count_Amphibians": 1, "count_Flowering Plants": 39, "count_Birds": 7, "count_Ferns": 0, "count_Basidiomycota": 0, "count_Reptiles": 1, "count_Arachnids": 0, "count_Gymnosperms": 0, "count_Sac Fungi": 0, "count_Mosses": 0, "count_Molluscs": 0, "unique_species_count": 59.0, "countryCode": "MN" }, "geometry": { "type": "MultiPolygon", "coordinates": [ [ [ [ 112.954342827932194, 48.832503200147151 ], [ 114.259474623318113, 48.581657309131764 ], [ 114.711215930441213, 47.756598268323714 ], [ 113.892443656367846, 47.190393385337522 ], [ 112.621507866541592, 47.440595775758503 ], [ 112.135705406025636, 48.257764434701258 ], [ 112.954342827932194, 48.832503200147151 ] ] ] ] } },
{ "type": "Feature", "properties": { "geogrid_id": "748318522086951110", "seqnum": 8840.0, "lat_c": 48.318522279171702, "lon_c": 86.951110014749545, "res": 7.0, "count_Insects": 0, "count_Mammals": 0, "count_Amphibians": 0, "count_Flowering Plants": 1, "count_Birds": 0, "count_Ferns": 0, "count_Basidiomycota": 0, "count_Reptiles": 0, "count_Arachnids": 0, "count_Gymnosperms": 0, "count_Sac Fungi": 0, "count_Mosses": 0, "count_Molluscs": 0, "unique_species_count": 1.0, "countryCode": "MN" }, "geometry": { "type": "MultiPolygon", "coordinates": [ [ [ [ 86.09396801648775, 48.875824874062516 ], [ 87.392442119181382, 49.146175135706912 ], [ 88.240525377406627, 48.581657307493309 ], [ 87.788784070333961, 47.756598266635287 ], [ 86.523813834480066, 47.487946709015041 ], [ 85.677617605525086, 48.04262711051706 ], [ 86.09396801648775, 48.875824874062516 ] ] ] ] } },
{ "type": "Feature", "properties": { "geogrid_id": "748318522115548890", "seqnum": 9407.0, "lat_c": 48.318522280826258, "lon_c": 115.54888998608736, "res": 7.0, "count_Insects": 6, "count_Mammals": 2, "count_Amphibians": 0, "count_Flowering Plants": 22, "count_Birds": 3, "count_Ferns": 0, "count_Basidiomycota": 0, "count_Reptiles": 0, "count_Arachnids": 0, "count_Gymnosperms": 0, "count_Sac Fungi": 0, "count_Mosses": 0, "count_Molluscs": 0, "unique_species_count": 33.0, "countryCode": "MN" }, "geometry": { "type": "MultiPolygon", "coordinates": [ [ [ [ 115.107557881605103, 49.146175137311467 ], [ 116.406031984412394, 48.87582487568362 ], [ 116.822382395423062, 48.042627112188036 ], [ 115.976186166404958, 47.487946710719577 ], [ 114.711215930441213, 47.756598268323714 ], [ 114.259474623318113, 48.581657309131764 ], [ 115.107557881605103, 49.146175137311467 ] ] ] ] } },
{ "type": "Feature", "properties": { "geogrid_id": "748341611095104960", "seqnum": 8974.0, "lat_c": 48.341611437135043, "lon_c": 95.104959793736569, "res": 7.0, "count_Insects": 3, "count_Mammals": 7, "count_Amphibians": 0, "count_Flowering Plants": 61, "count_Birds": 24, "count_Ferns": 0, "count_Basidiomycota": 1, "count_Reptiles": 1, "count_Arachnids": 0, "count_Gymnosperms": 1, "count_Sac Fungi": 0, "count_Mosses": 0, "count_Molluscs": 0, "unique_species_count": 98.0, "countryCode": "MN" }, "geometry": { "type": "MultiPolygon", "coordinates": [ [ [ [ 94.338675330751414, 48.930982984593882 ], [ 95.692462945105433, 49.139645610774977 ], [ 96.446521574903812, 48.548812687292276 ], [ 95.852902497858125, 47.751285818439797 ], [ 94.53679432674609, 47.540690978357716 ], [ 93.777251232195184, 48.128957316885462 ], [ 94.338675330751414, 48.930982984593882 ] ] ] ] } },
{ "type": "Feature", "properties": { "geogrid_id": "748341611107395040", "seqnum": 9217.0, "lat_c": 48.341611438809345, "lon_c": 107.3950402064302, "res": 7.0, "count_Insects": 203, "count_Mammals": 48, "count_Amphibians": 1, "count_Flowering Plants": 755, "count_Birds": 171, "count_Ferns": 6, "count_Basidiomycota": 26, "count_Reptiles": 4, "count_Arachnids": 5, "count_Gymnosperms": 13, "count_Sac Fungi": 4, "count_Mosses": 1, "count_Molluscs": 0, "unique_species_count": 1237.0, "countryCode": "MN" }, "geometry": { "type": "MultiPolygon", "coordinates": [ [ [ [ 106.807537055000395, 49.139645612407719 ], [ 108.161324669466239, 48.930982986225693 ], [ 108.722748768081416, 48.128957318562122 ], [ 107.963205673479052, 47.54069098007534 ], [ 106.647097502259371, 47.75128582015801 ], [ 106.053478425153472, 48.548812688971047 ], [ 106.807537055000395, 49.139645612407719 ] ] ] ] } },
{ "type": "Feature", "properties": { "geogrid_id": "748586592101250000", "seqnum": 9082.0, "lat_c": 48.586592129813049, "lon_c": 101.24999999923851, "res": 7.0, "count_Insects": 6, "count_Mammals": 6, "count_Amphibians": 0, "count_Flowering Plants": 103, "count_Birds": 48, "count_Ferns": 0, "count_Basidiomycota": 0, "count_Reptiles": 0, "count_Arachnids": 0, "count_Gymnosperms": 1, "count_Sac Fungi": 0, "count_Mosses": 0, "count_Molluscs": 0, "unique_species_count": 164.0, "countryCode": "MN" }, "geometry": { "type": "MultiPolygon", "coordinates": [ [ [ [ 100.553571011423756, 49.168340754926191 ], [ 101.946428988311723, 49.168340756689062 ], [ 102.619043102041758, 48.371050714967055 ], [ 101.926224925039108, 47.785903472502994 ], [ 100.573775074720729, 47.785903470664131 ], [ 99.880956897757855, 48.37105071318927 ], [ 100.553571011423756, 49.168340754926191 ] ] ] ] } },
{ "type": "Feature", "properties": { "geogrid_id": "748592225117687877", "seqnum": 9461.0, "lat_c": 48.59222473213854, "lon_c": 117.68787697185897, "res": 7.0, "count_Insects": 0, "count_Mammals": 1, "count_Amphibians": 0, "count_Flowering Plants": 13, "count_Birds": 4, "count_Ferns": 0, "count_Basidiomycota": 0, "count_Reptiles": 0, "count_Arachnids": 0, "count_Gymnosperms": 0, "count_Sac Fungi": 0, "count_Mosses": 0, "count_Molluscs": 0, "unique_species_count": 18.0, "countryCode": "MN" }, "geometry": { "type": "MultiPolygon", "coordinates": [ [ [ [ 117.283213736954011, 49.428154377140565 ], [ 118.573206499124424, 49.136392826549702 ], [ 118.952885898789688, 48.295121453548788 ], [ 118.079749551495183, 47.753642608620375 ], [ 116.822382395423062, 48.042627112188036 ], [ 116.406031984412394, 48.87582487568362 ], [ 117.283213736954011, 49.428154377140565 ] ] ] ] } },
{ "type": "Feature", "properties": { "geogrid_id": "748715564092999294", "seqnum": 8947.0, "lat_c": 48.715564199807638, "lon_c": 92.999293954260978, "res": 7.0, "count_Insects": 3, "count_Mammals": 11, "count_Amphibians": 0, "count_Flowering Plants": 31, "count_Birds": 24, "count_Ferns": 0, "count_Basidiomycota": 0, "count_Reptiles": 3, "count_Arachnids": 0, "count_Gymnosperms": 1, "count_Sac Fungi": 0, "count_Mosses": 0, "count_Molluscs": 0, "unique_species_count": 73.0, "countryCode": "MN" }, "geometry": { "type": "MultiPolygon", "coordinates": [ [ [ [ 92.202265344186912, 49.300165827449923 ], [ 93.553373607586252, 49.519050610857882 ], [ 94.338675330751414, 48.930982984593882 ], [ 93.777251232195184, 48.128957316885462 ], [ 92.463507796159746, 47.90885721264204 ], [ 91.67444827865873, 48.491607671755567 ], [ 92.202265344186912, 49.300165827449923 ] ] ] ] } },
{ "type": "Feature", "properties": { "geogrid_id": "748715564109500706", "seqnum": 9271.0, "lat_c": 48.715564201444536, "lon_c": 109.50070604606869, "res": 7.0, "count_Insects": 69, "count_Mammals": 32, "count_Amphibians": 3, "count_Flowering Plants": 269, "count_Birds": 145, "count_Ferns": 1, "count_Basidiomycota": 3, "count_Reptiles": 0, "count_Arachnids": 1, "count_Gymnosperms": 3, "count_Sac Fungi": 2, "count_Mosses": 1, "count_Molluscs": 0, "unique_species_count": 529.0, "countryCode": "MN" }, "geometry": { "type": "MultiPolygon", "coordinates": [ [ [ [ 108.946626392683967, 49.519050612448588 ], [ 110.297734656197463, 49.300165829048204 ], [ 110.825551721782901, 48.491607673401838 ], [ 110.036492204226818, 47.908857214326005 ], [ 108.722748768081416, 48.128957318562122 ], [ 108.161324669466239, 48.930982986225693 ], [ 108.946626392683967, 49.519050612448588 ] ] ] ] } },
{ "type": "Feature", "properties": { "geogrid_id": "748958160099170889", "seqnum": 9055.0, "lat_c": 48.958160151997852, "lon_c": 99.170889162034769, "res": 7.0, "count_Insects": 13, "count_Mammals": 3, "count_Amphibians": 0, "count_Flowering Plants": 180, "count_Birds": 16, "count_Ferns": 0, "count_Basidiomycota": 10, "count_Reptiles": 0, "count_Arachnids": 0, "count_Gymnosperms": 4, "count_Sac Fungi": 5, "count_Mosses": 0, "count_Molluscs": 0, "unique_species_count": 231.0, "countryCode": "MN" }, "geometry": { "type": "MultiPolygon", "coordinates": [ [ [ [ 98.442887877279887, 49.546889613831283 ], [ 99.839395667147656, 49.752761078539997 ], [ 100.553571011423756, 49.168340754926191 ], [ 99.880956897757855, 48.37105071318927 ], [ 98.525048739105202, 48.163123933098824 ], [ 97.801852304383019, 48.753178258550442 ], [ 98.442887877279887, 49.546889613831283 ] ] ] ] } },
{ "type": "Feature", "properties": { "geogrid_id": "748958160103329111", "seqnum": 9136.0, "lat_c": 48.958160153716925, "lon_c": 103.32911083780625, "res": 7.0, "count_Insects": 10, "count_Mammals": 5, "count_Amphibians": 1, "count_Flowering Plants": 136, "count_Birds": 35, "count_Ferns": 0, "count_Basidiomycota": 1, "count_Reptiles": 0, "count_Arachnids": 0, "count_Gymnosperms": 2, "count_Sac Fungi": 0, "count_Mosses": 0, "count_Molluscs": 0, "unique_species_count": 190.0, "countryCode": "MN" }, "geometry": { "type": "MultiPolygon", "coordinates": [ [ [ [ 102.660604332627798, 49.752761080239083 ], [ 104.057112122604295, 49.546889615493981 ], [ 104.698147695565524, 48.753178260243004 ], [ 103.974951260799045, 48.163123934843952 ], [ 102.619043102041758, 48.371050714967055 ], [ 101.946428988311723, 49.168340756689062 ], [ 102.660604332627798, 49.752761080239083 ] ] ] ] } },
{ "type": "Feature", "properties": { "geogrid_id": "749071712090866302", "seqnum": 8921.0, "lat_c": 49.071711524931558, "lon_c": 90.866301607417313, "res": 7.0, "count_Insects": 8, "count_Mammals": 12, "count_Amphibians": 0, "count_Flowering Plants": 242, "count_Birds": 131, "count_Ferns": 3, "count_Basidiomycota": 1, "count_Reptiles": 1, "count_Arachnids": 0, "count_Gymnosperms": 2, "count_Sac Fungi": 8, "count_Mosses": 0, "count_Molluscs": 0, "unique_species_count": 408.0, "countryCode": "MN" }, "geometry": { "type": "MultiPolygon", "coordinates": [ [ [ [ 90.038415675459163, 49.648814694140668 ], [ 91.385489313871844, 49.88240343719405 ], [ 92.202265344186912, 49.300165827449923 ], [ 91.67444827865873, 48.491607671755567 ], [ 90.364294594527678, 48.257764433042645 ], [ 89.545657172679626, 48.832503198523945 ], [ 90.038415675459163, 49.648814694140668 ] ] ] ] } },
{ "type": "Feature", "properties": { "geogrid_id": "749071712111633698", "seqnum": 9326.0, "lat_c": 49.071711526541073, "lon_c": 111.633698393081, "res": 7.0, "count_Insects": 13, "count_Mammals": 15, "count_Amphibians": 1, "count_Flowering Plants": 86, "count_Birds": 14, "count_Ferns": 1, "count_Basidiomycota": 0, "count_Reptiles": 0, "count_Arachnids": 0, "count_Gymnosperms": 1, "count_Sac Fungi": 0, "count_Mosses": 0, "count_Molluscs": 0, "unique_species_count": 131.0, "countryCode": "MN" }, "geometry": { "type": "MultiPolygon", "coordinates": [ [ [ [ 111.11451068656892, 49.882403438754807 ], [ 112.461584325097462, 49.648814695714314 ], [ 112.954342827932194, 48.832503200147151 ], [ 112.135705406025636, 48.257764434701258 ], [ 110.825551721782901, 48.491607673401838 ], [ 110.297734656197463, 49.300165829048204 ], [ 111.11451068656892, 49.882403438754807 ] ] ] ] } },
{ "type": "Feature", "properties": { "geogrid_id": "749343907097060558", "seqnum": 9028.0, "lat_c": 49.343906761910361, "lon_c": 97.060557614970307, "res": 7.0, "count_Insects": 3, "count_Mammals": 2, "count_Amphibians": 0, "count_Flowering Plants": 95, "count_Birds": 12, "count_Ferns": 0, "count_Basidiomycota": 0, "count_Reptiles": 0, "count_Arachnids": 0, "count_Gymnosperms": 1, "count_Sac Fungi": 0, "count_Mosses": 1, "count_Molluscs": 0, "unique_species_count": 114.0, "countryCode": "MN" }, "geometry": { "type": "MultiPolygon", "coordinates": [ [ [ [ 96.300461482844469, 49.934952579094798 ], [ 97.696240706116825, 50.136880264296259 ], [ 98.442887877279887, 49.546889613831283 ], [ 97.801852304383019, 48.753178258550442 ], [ 96.446521574903812, 48.548812687292276 ], [ 95.692462945105433, 49.139645610774977 ], [ 96.300461482844469, 49.934952579094798 ] ] ] ] } },
{ "type": "Feature", "properties": { "geogrid_id": "749343907105439442", "seqnum": 9190.0, "lat_c": 49.343906763552354, "lon_c": 105.43944238502422, "res": 7.0, "count_Insects": 20, "count_Mammals": 9, "count_Amphibians": 0, "count_Flowering Plants": 136, "count_Birds": 13, "count_Ferns": 0, "count_Basidiomycota": 2, "count_Reptiles": 2, "count_Arachnids": 1, "count_Gymnosperms": 0, "count_Sac Fungi": 0, "count_Mosses": 0, "count_Molluscs": 0, "unique_species_count": 183.0, "countryCode": "MN" }, "geometry": { "type": "MultiPolygon", "coordinates": [ [ [ [ 104.803759293812277, 50.136880265904885 ], [ 106.19953851719778, 49.93495258068819 ], [ 106.807537055000395, 49.139645612407719 ], [ 106.053478425153472, 48.548812688971047 ], [ 104.698147695565524, 48.753178260243004 ], [ 104.057112122604295, 49.546889615493981 ], [ 104.803759293812277, 50.136880265904885 ] ] ] ] } },
{ "type": "Feature", "properties": { "geogrid_id": "749403657088707330", "seqnum": 8894.0, "lat_c": 49.403656852124193, "lon_c": 88.707330131750567, "res": 7.0, "count_Insects": 20, "count_Mammals": 14, "count_Amphibians": 0, "count_Flowering Plants": 499, "count_Birds": 43, "count_Ferns": 3, "count_Basidiomycota": 0, "count_Reptiles": 1, "count_Arachnids": 0, "count_Gymnosperms": 5, "count_Sac Fungi": 0, "count_Mosses": 1, "count_Molluscs": 0, "unique_species_count": 586.0, "countryCode": "MN" }, "geometry": { "type": "MultiPolygon", "coordinates": [ [ [ [ 87.848675968659492, 49.970863780156165 ], [ 89.190123266756657, 50.222550441890306 ], [ 90.038415675459163, 49.648814694140668 ], [ 89.545657172679626, 48.832503198523945 ], [ 88.240525377406627, 48.581657307493309 ], [ 87.392442119181382, 49.146175135706912 ], [ 87.848675968659492, 49.970863780156165 ] ] ] ] } },
{ "type": "Feature", "properties": { "geogrid_id": "749403657113792670", "seqnum": 9380.0, "lat_c": 49.403656853712718, "lon_c": 113.79266986892137, "res": 7.0, "count_Insects": 1, "count_Mammals": 1, "count_Amphibians": 0, "count_Flowering Plants": 21, "count_Birds": 9, "count_Ferns": 0, "count_Basidiomycota": 0, "count_Reptiles": 0, "count_Arachnids": 0, "count_Gymnosperms": 0, "count_Sac Fungi": 0, "count_Mosses": 0, "count_Molluscs": 0, "unique_species_count": 32.0, "countryCode": "MN" }, "geometry": { "type": "MultiPolygon", "coordinates": [ [ [ [ 113.30987673385998, 50.222550443428929 ], [ 114.651324032074186, 49.970863781710655 ], [ 115.107557881605103, 49.146175137311467 ], [ 114.259474623318113, 48.581657309131764 ], [ 112.954342827932194, 48.832503200147151 ], [ 112.461584325097462, 49.648814695714314 ], [ 113.30987673385998, 50.222550443428929 ] ] ] ] } },
{ "type": "Feature", "properties": { "geogrid_id": "749706213115975846", "seqnum": 9434.0, "lat_c": 49.706212730354487, "lon_c": 115.97584556930991, "res": 7.0, "count_Insects": 0, "count_Mammals": 2, "count_Amphibians": 0, "count_Flowering Plants": 8, "count_Birds": 3, "count_Ferns": 0, "count_Basidiomycota": 0, "count_Reptiles": 0, "count_Arachnids": 0, "count_Gymnosperms": 0, "count_Sac Fungi": 0, "count_Mosses": 0, "count_Molluscs": 0, "unique_species_count": 13.0, "countryCode": "MN" }, "geometry": { "type": "MultiPolygon", "coordinates": [ [ [ [ 115.530953281367374, 50.533750010348193 ], [ 116.864950325932142, 50.261401653859423 ], [ 117.283213736954011, 49.428154377140565 ], [ 116.406031984412394, 48.87582487568362 ], [ 115.107557881605103, 49.146175137311467 ], [ 114.651324032074186, 49.970863781710655 ], [ 115.530953281367374, 50.533750010348193 ] ] ] ] } },
{ "type": "Feature", "properties": { "geogrid_id": "749729945094919478", "seqnum": 9002.0, "lat_c": 49.729945136091047, "lon_c": 94.919477856522349, "res": 7.0, "count_Insects": 3, "count_Mammals": 14, "count_Amphibians": 0, "count_Flowering Plants": 144, "count_Birds": 64, "count_Ferns": 0, "count_Basidiomycota": 0, "count_Reptiles": 1, "count_Arachnids": 0, "count_Gymnosperms": 2, "count_Sac Fungi": 0, "count_Mosses": 0, "count_Molluscs": 0, "unique_species_count": 228.0, "countryCode": "MN" }, "geometry": { "type": "MultiPolygon", "coordinates": [ [ [ [ 94.12685107958437, 50.319343106632331 ], [ 95.520833968022956, 50.525943271506712 ], [ 96.300461482844469, 49.934952579094798 ], [ 95.692462945105433, 49.139645610774977 ], [ 94.338675330751414, 48.930982984593882 ], [ 93.553373607586252, 49.519050610857882 ], [ 94.12685107958437, 50.319343106632331 ] ] ] ] } },
{ "type": "Feature", "properties": { "geogrid_id": "749729945107580522", "seqnum": 9245.0, "lat_c": 49.729945137679415, "lon_c": 107.58052214363374, "res": 7.0, "count_Insects": 11, "count_Mammals": 0, "count_Amphibians": 0, "count_Flowering Plants": 213, "count_Birds": 1, "count_Ferns": 3, "count_Basidiomycota": 1, "count_Reptiles": 0, "count_Arachnids": 2, "count_Gymnosperms": 1, "count_Sac Fungi": 1, "count_Mosses": 0, "count_Molluscs": 0, "unique_species_count": 233.0, "countryCode": "MN" }, "geometry": { "type": "MultiPolygon", "coordinates": [ [ [ [ 106.979166032068804, 50.525943273053407 ], [ 108.37314892062372, 50.319343108177925 ], [ 108.946626392683967, 49.519050612448588 ], [ 108.161324669466239, 48.930982986225693 ], [ 106.807537055000395, 49.139645612407719 ], [ 106.19953851719778, 49.93495258068819 ], [ 106.979166032068804, 50.525943273053407 ] ] ] ] } },
{ "type": "Feature", "properties": { "geogrid_id": "749967124101250000", "seqnum": 9109.0, "lat_c": 49.967124478076833, "lon_c": 101.24999999924781, "res": 7.0, "count_Insects": 16, "count_Mammals": 20, "count_Amphibians": 1, "count_Flowering Plants": 126, "count_Birds": 29, "count_Ferns": 0, "count_Basidiomycota": 8, "count_Reptiles": 1, "count_Arachnids": 0, "count_Gymnosperms": 1, "count_Sac Fungi": 0, "count_Mosses": 0, "count_Molluscs": 0, "unique_species_count": 202.0, "countryCode": "MN" }, "geometry": { "type": "MultiPolygon", "coordinates": [ [ [ [ 100.531941447081294, 50.547886545122026 ], [ 101.968058552626246, 50.547886546808996 ], [ 102.660604332627798, 49.752761080239083 ], [ 101.946428988311723, 49.168340756689062 ], [ 100.553571011423756, 49.168340754926191 ], [ 99.839395667147656, 49.752761078539997 ], [ 100.531941447081294, 50.547886545122026 ] ] ] ] } },
{ "type": "Feature", "properties": { "geogrid_id": "750105451092748357", "seqnum": 8975.0, "lat_c": 50.105450814966687, "lon_c": 92.748357409551161, "res": 7.0, "count_Insects": 4, "count_Mammals": 19, "count_Amphibians": 0, "count_Flowering Plants": 160, "count_Birds": 120, "count_Ferns": 0, "count_Basidiomycota": 0, "count_Reptiles": 0, "count_Arachnids": 1, "count_Gymnosperms": 1, "count_Sac Fungi": 1, "count_Mosses": 0, "count_Molluscs": 0, "unique_species_count": 306.0, "countryCode": "MN" }, "geometry": { "type": "MultiPolygon", "coordinates": [ [ [ [ 91.922908221747932, 50.689806141896817 ], [ 93.313843178088234, 50.907456562361546 ], [ 94.12685107958437, 50.319343106632331 ], [ 93.553373607586252, 49.519050610857882 ], [ 92.202265344186912, 49.300165827449923 ], [ 91.385489313871844, 49.88240343719405 ], [ 91.922908221747932, 50.689806141896817 ] ] ] ] } },
{ "type": "Feature", "properties": { "geogrid_id": "750339495099106756", "seqnum": 9083.0, "lat_c": 50.339494589612102, "lon_c": 99.106755528050854, "res": 7.0, "count_Insects": 52, "count_Mammals": 23, "count_Amphibians": 0, "count_Flowering Plants": 289, "count_Birds": 57, "count_Ferns": 5, "count_Basidiomycota": 4, "count_Reptiles": 1, "count_Arachnids": 3, "count_Gymnosperms": 4, "count_Sac Fungi": 3, "count_Mosses": 0, "count_Molluscs": 0, "unique_species_count": 441.0, "countryCode": "MN" }, "geometry": { "type": "MultiPolygon", "coordinates": [ [ [ [ 98.354901400196837, 50.928163977635251 ], [ 99.794864220596381, 51.131763125576683 ], [ 100.531941447081294, 50.547886545122026 ], [ 99.839395667147656, 49.752761078539997 ], [ 98.442887877279887, 49.546889613831283 ], [ 97.696240706116825, 50.136880264296259 ], [ 98.354901400196837, 50.928163977635251 ] ] ] ] } },
{ "type": "Feature", "properties": { "geogrid_id": "750339495103393244", "seqnum": 9164.0, "lat_c": 50.339494591250116, "lon_c": 103.39324447176638, "res": 7.0, "count_Insects": 3, "count_Mammals": 17, "count_Amphibians": 0, "count_Flowering Plants": 18, "count_Birds": 18, "count_Ferns": 0, "count_Basidiomycota": 0, "count_Reptiles": 0, "count_Arachnids": 0, "count_Gymnosperms": 0, "count_Sac Fungi": 0, "count_Mosses": 1, "count_Molluscs": 1, "unique_species_count": 58.0, "countryCode": "MN" }, "geometry": { "type": "MultiPolygon", "coordinates": [ [ [ [ 102.705135779151334, 51.131763127196741 ], [ 104.145098599664095, 50.928163979214872 ], [ 104.803759293812277, 50.136880265904885 ], [ 104.057112122604295, 49.546889615493981 ], [ 102.660604332627798, 49.752761080239083 ], [ 101.968058552626246, 50.547886546808996 ], [ 102.705135779151334, 51.131763127196741 ] ] ] ] } },
{ "type": "Feature", "properties": { "geogrid_id": "750461905090548272", "seqnum": 8948.0, "lat_c": 50.461905009329087, "lon_c": 90.548271526048069, "res": 7.0, "count_Insects": 1, "count_Mammals": 14, "count_Amphibians": 0, "count_Flowering Plants": 23, "count_Birds": 39, "count_Ferns": 0, "count_Basidiomycota": 0, "count_Reptiles": 0, "count_Arachnids": 0, "count_Gymnosperms": 0, "count_Sac Fungi": 0, "count_Mosses": 0, "count_Molluscs": 0, "unique_species_count": 77.0, "countryCode": "MN" }, "geometry": { "type": "MultiPolygon", "coordinates": [ [ [ [ 89.689900333761159, 51.03828498270979 ], [ 91.076286873658447, 51.27172488688317 ], [ 91.922908221747932, 50.689806141896817 ], [ 91.385489313871844, 49.88240343719405 ], [ 90.038415675459163, 49.648814694140668 ], [ 89.190123266756657, 50.222550441890306 ], [ 89.689900333761159, 51.03828498270979 ] ] ] ] } },
{ "type": "Feature", "properties": { "geogrid_id": "750727756105569794", "seqnum": 9218.0, "lat_c": 50.727756300351317, "lon_c": 105.56979359924196, "res": 7.0, "count_Insects": 3, "count_Mammals": 3, "count_Amphibians": 0, "count_Flowering Plants": 88, "count_Birds": 4, "count_Ferns": 3, "count_Basidiomycota": 0, "count_Reptiles": 0, "count_Arachnids": 0, "count_Gymnosperms": 1, "count_Sac Fungi": 0, "count_Mosses": 0, "count_Molluscs": 0, "unique_species_count": 102.0, "countryCode": "MN" }, "geometry": { "type": "MultiPolygon", "coordinates": [ [ [ [ 104.916947366443509, 51.518372830668191 ], [ 106.355985634046903, 51.319124645210273 ], [ 106.979166032068804, 50.525943273053407 ], [ 106.19953851719778, 49.93495258068819 ], [ 104.803759293812277, 50.136880265904885 ], [ 104.145098599664095, 50.928163979214872 ], [ 104.916947366443509, 51.518372830668191 ] ] ] ] } },
{ "type": "Feature", "properties": { "geogrid_id": "750792539114179257", "seqnum": 9408.0, "lat_c": 50.792539107998941, "lon_c": 114.17925672791371, "res": 7.0, "count_Insects": 0, "count_Mammals": 0, "count_Amphibians": 0, "count_Flowering Plants": 1, "count_Birds": 0, "count_Ferns": 0, "count_Basidiomycota": 0, "count_Reptiles": 0, "count_Arachnids": 0, "count_Gymnosperms": 0, "count_Sac Fungi": 0, "count_Mosses": 0, "count_Molluscs": 0, "unique_species_count": 1.0, "countryCode": "MN" }, "geometry": { "type": "MultiPolygon", "coordinates": [ [ [ [ 113.690351994450481, 51.611143986045882 ], [ 115.070417793390035, 51.35838785695487 ], [ 115.530953281367374, 50.533750010348193 ], [ 114.651324032074186, 49.970863781710655 ], [ 113.30987673385998, 50.222550443428929 ], [ 112.810099666797569, 51.038284984198569 ], [ 113.690351994450481, 51.611143986045882 ] ] ] ] } },
{ "type": "Feature", "properties": { "geogrid_id": "751116491094720918", "seqnum": 9029.0, "lat_c": 51.116490523764689, "lon_c": 94.720918220951845, "res": 7.0, "count_Insects": 0, "count_Mammals": 0, "count_Amphibians": 0, "count_Flowering Plants": 0, "count_Birds": 13, "count_Ferns": 0, "count_Basidiomycota": 0, "count_Reptiles": 0, "count_Arachnids": 0, "count_Gymnosperms": 0, "count_Sac Fungi": 0, "count_Mosses": 0, "count_Molluscs": 0, "unique_species_count": 13.0, "countryCode": "MN" }, "geometry": { "type": "MultiPolygon", "coordinates": [ [ [ [ 93.899930509632611, 51.706189849124918 ], [ 95.336864379839213, 51.910574669482649 ], [ 96.14401436597764, 51.319124643703013 ], [ 95.520833968022956, 50.525943271506712 ], [ 94.12685107958437, 50.319343106632331 ], [ 93.313843178088234, 50.907456562361546 ], [ 93.899930509632611, 51.706189849124918 ] ] ] ] } },
{ "type": "Feature", "properties": { "geogrid_id": "751344860101250000", "seqnum": 9137.0, "lat_c": 51.344860052045107, "lon_c": 101.24999999925649, "res": 7.0, "count_Insects": 9, "count_Mammals": 2, "count_Amphibians": 0, "count_Flowering Plants": 169, "count_Birds": 29, "count_Ferns": 4, "count_Basidiomycota": 1, "count_Reptiles": 0, "count_Arachnids": 0, "count_Gymnosperms": 2, "count_Sac Fungi": 1, "count_Mosses": 0, "count_Molluscs": 0, "unique_species_count": 217.0, "countryCode": "MN" }, "geometry": { "type": "MultiPolygon", "coordinates": [ [ [ [ 100.508734491674943, 51.924765900679027 ], [ 101.991265508000751, 51.924765902290055 ], [ 102.705135779151334, 51.131763127196741 ], [ 101.968058552626246, 50.547886546808996 ], [ 100.531941447081294, 50.547886545122026 ], [ 99.794864220596381, 51.131763125576683 ], [ 100.508734491674943, 51.924765900679027 ] ] ] ] } },
{ "type": "Feature", "properties": { "geogrid_id": "751718357099037981", "seqnum": 9110.0, "lat_c": 51.718357309149489, "lon_c": 99.037981122669478, "res": 7.0, "count_Insects": 40, "count_Mammals": 4, "count_Amphibians": 0, "count_Flowering Plants": 74, "count_Birds": 22, "count_Ferns": 0, "count_Basidiomycota": 0, "count_Reptiles": 0, "count_Arachnids": 0, "count_Gymnosperms": 5, "count_Sac Fungi": 0, "count_Mosses": 0, "count_Molluscs": 0, "unique_species_count": 145.0, "countryCode": "MN" }, "geometry": { "type": "MultiPolygon", "coordinates": [ [ [ [ 98.260470946333157, 52.307250355479901 ], [ 99.747042273062746, 52.508303198883013 ], [ 100.508734491674943, 51.924765900679027 ], [ 99.794864220596381, 51.131763125576683 ], [ 98.354901400196837, 50.928163977635251 ], [ 97.583052633463083, 51.518372829144319 ], [ 98.260470946333157, 52.307250355479901 ] ] ] ] } }
]
}
