{
"type": "FeatureCollection",
"name": "MR",
"crs": { "type": "name", "properties": { "name": "urn:ogc:def:crs:OGC:1.3:CRS84" } },
"features": [
{ "type": "Feature", "properties": { "geogrid_id": "5114252680012245823", "seqnum": 4491.0, "lat_c": 14.252679615746844, "lon_c": -12.245822819601321, "res": 7.0, "count_Mammals": 2, "count_Flowering Plants": 0, "count_Birds": 2, "count_Reptiles": 1, "count_Molluscs": 0, "count_Insects": 0, "count_Amphibians": 1, "count_Basidiomycota": 0, "count_Arachnids": 0, "count_Sac Fungi": 0, "unique_species_count": 6.0, "countryCode": "MR" }, "geometry": { "type": "MultiPolygon", "coordinates": [ [ [ [ -11.981074959981331, 14.995715456348373 ], [ -11.339221009258001, 14.342714627844469 ], [ -11.601526623376198, 13.602087113922201 ], [ -12.507140601115303, 13.511105638348548 ], [ -13.152434124985165, 14.158259282923302 ], [ -12.889115651261685, 14.902056474222343 ], [ -11.981074959981331, 14.995715456348373 ] ] ] ] } },
{ "type": "Feature", "properties": { "geogrid_id": "5115084890011073130", "seqnum": 4519.0, "lat_c": 15.084889917747203, "lon_c": -11.073129518489312, "res": 7.0, "count_Mammals": 10, "count_Flowering Plants": 0, "count_Birds": 1, "count_Reptiles": 3, "count_Molluscs": 0, "count_Insects": 0, "count_Amphibians": 1, "count_Basidiomycota": 0, "count_Arachnids": 0, "count_Sac Fungi": 0, "unique_species_count": 15.0, "countryCode": "MR" }, "geometry": { "type": "MultiPolygon", "coordinates": [ [ [ [ -10.803152516400374, 15.82847776493081 ], [ -10.165199444927083, 15.16959514818909 ], [ -10.43252740344499, 14.428388244294844 ], [ -11.339221009258001, 14.342714627844469 ], [ -11.981074959981331, 14.995715456348373 ], [ -11.712798811766037, 15.740091189743167 ], [ -10.803152516400374, 15.82847776493081 ] ] ] ] } },
{ "type": "Feature", "properties": { "geogrid_id": "5115325684008349006", "seqnum": 4601.0, "lat_c": 15.325683556633157, "lon_c": -8.3490059489001567, "res": 7.0, "count_Mammals": 0, "count_Flowering Plants": 0, "count_Birds": 1, "count_Reptiles": 0, "count_Molluscs": 0, "count_Insects": 0, "count_Amphibians": 0, "count_Basidiomycota": 0, "count_Arachnids": 0, "count_Sac Fungi": 0, "unique_species_count": 1.0, "countryCode": "MR" }, "geometry": { "type": "MultiPolygon", "coordinates": [ [ [ [ -8.074539542804569, 16.066299116917008 ], [ -7.44051138951855, 15.397126576508256 ], [ -7.710625564488429, 14.65959441150194 ], [ -8.618378862499622, 14.586782779478359 ], [ -9.257193559374075, 15.249851051779814 ], [ -8.984097101021513, 15.991568027471024 ], [ -8.074539542804569, 16.066299116917008 ] ] ] ] } },
{ "type": "Feature", "properties": { "geogrid_id": "5115527038005621964", "seqnum": 4683.0, "lat_c": 15.527037633109302, "lon_c": -5.6219644343798576, "res": 7.0, "count_Mammals": 1, "count_Flowering Plants": 1, "count_Birds": 1, "count_Reptiles": 0, "count_Molluscs": 0, "count_Insects": 0, "count_Amphibians": 0, "count_Basidiomycota": 0, "count_Arachnids": 0, "count_Sac Fungi": 0, "unique_species_count": 3.0, "countryCode": "MR" }, "geometry": { "type": "MultiPolygon", "coordinates": [ [ [ [ -5.344559092039831, 16.263512569725705 ], [ -4.711496423148853, 15.585645218662503 ], [ -4.982124698289925, 14.853377118441012 ], [ -5.892769948443711, 14.792787575144361 ], [ -6.531559146732382, 15.464224787585763 ], [ -6.254894274913261, 16.20223895878997 ], [ -5.344559092039831, 16.263512569725705 ] ] ] ] } },
{ "type": "Feature", "properties": { "geogrid_id": "5115647131012622608", "seqnum": 4465.0, "lat_c": 15.6471309922043, "lon_c": -12.622608291989691, "res": 7.0, "count_Mammals": 17, "count_Flowering Plants": 2, "count_Birds": 2, "count_Reptiles": 11, "count_Molluscs": 0, "count_Insects": 1, "count_Amphibians": 4, "count_Basidiomycota": 0, "count_Arachnids": 0, "count_Sac Fungi": 0, "unique_species_count": 37.0, "countryCode": "MR" }, "geometry": { "type": "MultiPolygon", "coordinates": [ [ [ [ -12.352812056232169, 16.393370565834182 ], [ -11.712798811766037, 15.740091189743167 ], [ -11.981074959981331, 14.995715456348373 ], [ -12.889115651261685, 14.902056474222343 ], [ -13.532636108593879, 15.549590783773439 ], [ -13.264986050739292, 16.296401916499605 ], [ -12.352812056232169, 16.393370565834182 ] ] ] ] } },
{ "type": "Feature", "properties": { "geogrid_id": "5115826197016931629", "seqnum": 3808.0, "lat_c": 15.826197027672452, "lon_c": -16.931628908199723, "res": 7.0, "count_Mammals": 6, "count_Flowering Plants": 1, "count_Birds": 67, "count_Reptiles": 21, "count_Molluscs": 1, "count_Insects": 2, "count_Amphibians": 5, "count_Basidiomycota": 0, "count_Arachnids": 1, "count_Sac Fungi": 0, "unique_species_count": 104.0, "countryCode": "MR" }, "geometry": { "type": "MultiPolygon", "coordinates": [ [ [ [ -16.010416954720629, 15.958891174016157 ], [ -16.271291370318934, 15.211820035154572 ], [ -17.190310637396799, 15.080303349036596 ], [ -17.854286482620054, 15.691213952619973 ], [ -17.595722392165989, 16.437183269143596 ], [ -16.670911360229429, 16.573610756692879 ], [ -16.010416954720629, 15.958891174016157 ] ] ] ] } },
{ "type": "Feature", "properties": { "geogrid_id": "5115912299009893608", "seqnum": 4547.0, "lat_c": 15.912299460713555, "lon_c": -9.8936082841541921, "res": 7.0, "count_Mammals": 11, "count_Flowering Plants": 1, "count_Birds": 2, "count_Reptiles": 5, "count_Molluscs": 0, "count_Insects": 0, "count_Amphibians": 5, "count_Basidiomycota": 0, "count_Arachnids": 0, "count_Sac Fungi": 0, "unique_species_count": 24.0, "countryCode": "MR" }, "geometry": { "type": "MultiPolygon", "coordinates": [ [ [ [ -9.617649486864204, 16.656347730924672 ], [ -8.984097101021513, 15.991568027471024 ], [ -9.257193559374075, 15.249851051779814 ], [ -10.165199444927083, 15.16959514818909 ], [ -10.803152516400374, 15.82847776493081 ], [ -10.529186914445411, 16.573340199190159 ], [ -9.617649486864204, 16.656347730924672 ] ] ] ] } },
{ "type": "Feature", "properties": { "geogrid_id": "5116136514007164842", "seqnum": 4629.0, "lat_c": 16.136513526019211, "lon_c": -7.1648424254167802, "res": 7.0, "count_Mammals": 1, "count_Flowering Plants": 0, "count_Birds": 1, "count_Reptiles": 3, "count_Molluscs": 0, "count_Insects": 0, "count_Amphibians": 1, "count_Basidiomycota": 0, "count_Arachnids": 0, "count_Sac Fungi": 0, "unique_species_count": 6.0, "countryCode": "MR" }, "geometry": { "type": "MultiPolygon", "coordinates": [ [ [ [ -6.883511264134125, 16.8775404859371 ], [ -6.254894274913261, 16.20223895878997 ], [ -6.531559146732382, 15.464224787585763 ], [ -7.44051138951855, 15.397126576508256 ], [ -8.074539542804569, 16.066299116917008 ], [ -7.794873031401186, 16.808438080754289 ], [ -6.883511264134125, 16.8775404859371 ] ] ] ] } },
{ "type": "Feature", "properties": { "geogrid_id": "5116194775014177453", "seqnum": 4410.0, "lat_c": 16.194775187427012, "lon_c": -14.177453396114343, "res": 7.0, "count_Mammals": 8, "count_Flowering Plants": 4, "count_Birds": 4, "count_Reptiles": 3, "count_Molluscs": 0, "count_Insects": 0, "count_Amphibians": 1, "count_Basidiomycota": 0, "count_Arachnids": 0, "count_Sac Fungi": 0, "unique_species_count": 20.0, "countryCode": "MR" }, "geometry": { "type": "MultiPolygon", "coordinates": [ [ [ [ -13.909222695451991, 16.943074876045728 ], [ -13.264986050739292, 16.296401916499605 ], [ -13.532636108593879, 15.549590783773439 ], [ -14.442932931663174, 15.447466045782011 ], [ -15.090250902096374, 16.088490008404648 ], [ -14.824506252334514, 16.837192875926128 ], [ -13.909222695451991, 16.943074876045728 ] ] ] ] } },
{ "type": "Feature", "properties": { "geogrid_id": "5116298801018522173", "seqnum": 3780.0, "lat_c": 16.298801428688915, "lon_c": -18.522173075693399, "res": 7.0, "count_Mammals": 1, "count_Flowering Plants": 0, "count_Birds": 0, "count_Reptiles": 0, "count_Molluscs": 4, "count_Insects": 0, "count_Amphibians": 0, "count_Basidiomycota": 0, "count_Arachnids": 0, "count_Sac Fungi": 0, "unique_species_count": 5.0, "countryCode": "MR" }, "geometry": { "type": "MultiPolygon", "coordinates": [ [ [ [ -17.595722392165989, 16.437183269143596 ], [ -17.854286482620054, 15.691213952619973 ], [ -18.778850362492658, 15.554915661331888 ], [ -19.450773286151819, 16.159549927032167 ], [ -19.194207569155047, 16.903072303261347 ], [ -18.263796705907069, 17.044765168717333 ], [ -17.595722392165989, 16.437183269143596 ] ] ] ] } },
{ "type": "Feature", "properties": { "geogrid_id": "5116485682011440893", "seqnum": 4492.0, "lat_c": 16.485682481229343, "lon_c": -11.440892774604059, "res": 7.0, "count_Mammals": 20, "count_Flowering Plants": 2, "count_Birds": 3, "count_Reptiles": 14, "count_Molluscs": 0, "count_Insects": 0, "count_Amphibians": 5, "count_Basidiomycota": 0, "count_Arachnids": 0, "count_Sac Fungi": 0, "unique_species_count": 44.0, "countryCode": "MR" }, "geometry": { "type": "MultiPolygon", "coordinates": [ [ [ [ -11.165251736406359, 17.232362669087863 ], [ -10.529186914445411, 16.573340199190159 ], [ -10.803152516400374, 15.82847776493081 ], [ -11.712798811766037, 15.740091189743167 ], [ -12.352812056232169, 16.393370565834182 ], [ -12.079623539088587, 17.140660915706231 ], [ -11.165251736406359, 17.232362669087863 ] ] ] ] } },
{ "type": "Feature", "properties": { "geogrid_id": "5116707193015747300", "seqnum": 3781.0, "lat_c": 16.707193210110646, "lon_c": -15.747299539110575, "res": 7.0, "count_Mammals": 21, "count_Flowering Plants": 6, "count_Birds": 162, "count_Reptiles": 25, "count_Molluscs": 1, "count_Insects": 7, "count_Amphibians": 5, "count_Basidiomycota": 0, "count_Arachnids": 0, "count_Sac Fungi": 0, "unique_species_count": 227.0, "countryCode": "MR" }, "geometry": { "type": "MultiPolygon", "coordinates": [ [ [ [ -14.824506251088263, 16.837192877918806 ], [ -15.09025090085049, 16.088490010400278 ], [ -16.010416954720629, 15.958891174016157 ], [ -16.670911360229429, 16.573610756692879 ], [ -16.408068256915445, 17.322447030400436 ], [ -15.481843733503718, 17.456634675780986 ], [ -14.824506251088263, 16.837192877918806 ] ] ] ] } },
{ "type": "Feature", "properties": { "geogrid_id": "5116734711008706230", "seqnum": 4574.0, "lat_c": 16.734710943575063, "lon_c": -8.7062304643978425, "res": 7.0, "count_Mammals": 7, "count_Flowering Plants": 2, "count_Birds": 5, "count_Reptiles": 2, "count_Molluscs": 0, "count_Insects": 0, "count_Amphibians": 0, "count_Basidiomycota": 0, "count_Arachnids": 0, "count_Sac Fungi": 0, "unique_species_count": 16.0, "countryCode": "MR" }, "geometry": { "type": "MultiPolygon", "coordinates": [ [ [ [ -8.423484527503467, 17.479105011058959 ], [ -7.794873031401186, 16.808438080754289 ], [ -8.074539542804569, 16.066299116917008 ], [ -8.984097101021513, 15.991568027471024 ], [ -9.617649486864204, 16.656347730924672 ], [ -9.337215047039528, 17.401583364149374 ], [ -8.423484527503467, 17.479105011058959 ] ] ] ] } },
{ "type": "Feature", "properties": { "geogrid_id": "5116942034005972067", "seqnum": 4656.0, "lat_c": 16.942033626615078, "lon_c": -5.9720670015009221, "res": 7.0, "count_Mammals": 0, "count_Flowering Plants": 0, "count_Birds": 1, "count_Reptiles": 0, "count_Molluscs": 0, "count_Insects": 0, "count_Amphibians": 0, "count_Basidiomycota": 0, "count_Arachnids": 0, "count_Sac Fungi": 0, "unique_species_count": 1.0, "countryCode": "MR" }, "geometry": { "type": "MultiPolygon", "coordinates": [ [ [ [ -5.682966694357623, 17.683360717743014 ], [ -5.060445546051845, 17.001938573390127 ], [ -5.344559092039831, 16.263512569725705 ], [ -6.254894274913261, 16.20223895878997 ], [ -6.883511264134125, 16.8775404859371 ], [ -6.596407423126327, 17.619987568128479 ], [ -5.682966694357623, 17.683360717743014 ] ] ] ] } },
{ "type": "Feature", "properties": { "geogrid_id": "5117044231012994271", "seqnum": 4438.0, "lat_c": 17.044231375067202, "lon_c": -12.994271053708712, "res": 7.0, "count_Mammals": 16, "count_Flowering Plants": 0, "count_Birds": 1, "count_Reptiles": 13, "count_Molluscs": 0, "count_Insects": 1, "count_Amphibians": 2, "count_Basidiomycota": 0, "count_Arachnids": 0, "count_Sac Fungi": 0, "unique_species_count": 33.0, "countryCode": "MR" }, "geometry": { "type": "MultiPolygon", "coordinates": [ [ [ [ -12.720386132778835, 17.792974154912073 ], [ -12.079623539088587, 17.140660915706231 ], [ -12.352812056232169, 16.393370565834182 ], [ -13.264986050739292, 16.296401916499605 ], [ -13.909222695451991, 16.943074876045728 ], [ -13.638137945268914, 17.692270127769159 ], [ -12.720386132778835, 17.792974154912073 ] ] ] ] } },
{ "type": "Feature", "properties": { "geogrid_id": "5117184886017335246", "seqnum": 3754.0, "lat_c": 17.184886446468468, "lon_c": -17.335246102330171, "res": 7.0, "count_Mammals": 3, "count_Flowering Plants": 0, "count_Birds": 3, "count_Reptiles": 0, "count_Molluscs": 1, "count_Insects": 0, "count_Amphibians": 0, "count_Basidiomycota": 0, "count_Arachnids": 0, "count_Sac Fungi": 0, "unique_species_count": 7.0, "countryCode": "MR" }, "geometry": { "type": "MultiPolygon", "coordinates": [ [ [ [ -16.408068256915445, 17.322447030400436 ], [ -16.670911360229429, 16.573610756692879 ], [ -17.595722392165989, 16.437183269143596 ], [ -18.263796705907069, 17.044765168717333 ], [ -18.003641670719539, 17.792693515419753 ], [ -17.072771282698032, 17.934217640130406 ], [ -16.408068256915445, 17.322447030400436 ] ] ] ] } },
{ "type": "Feature", "properties": { "geogrid_id": "5117319337010251126", "seqnum": 4520.0, "lat_c": 17.319336549562383, "lon_c": -10.251126055748923, "res": 7.0, "count_Mammals": 10, "count_Flowering Plants": 0, "count_Birds": 1, "count_Reptiles": 6, "count_Molluscs": 0, "count_Insects": 0, "count_Amphibians": 3, "count_Basidiomycota": 0, "count_Arachnids": 0, "count_Sac Fungi": 0, "unique_species_count": 20.0, "countryCode": "MR" }, "geometry": { "type": "MultiPolygon", "coordinates": [ [ [ [ -9.968859597172914, 18.066323497384154 ], [ -9.337215047039528, 17.401583364149374 ], [ -9.617649486864204, 16.656347730924672 ], [ -10.529186914445411, 16.573340199190159 ], [ -11.165251736406359, 17.232362669087863 ], [ -10.885766946947985, 17.980002803239234 ], [ -9.968859597172914, 18.066323497384154 ] ] ] ] } },
{ "type": "Feature", "properties": { "geogrid_id": "5117551905007509896", "seqnum": 4602.0, "lat_c": 17.551904748764898, "lon_c": -7.5098964518221099, "res": 7.0, "count_Mammals": 8, "count_Flowering Plants": 0, "count_Birds": 2, "count_Reptiles": 3, "count_Molluscs": 0, "count_Insects": 0, "count_Amphibians": 0, "count_Basidiomycota": 0, "count_Arachnids": 0, "count_Sac Fungi": 0, "unique_species_count": 13.0, "countryCode": "MR" }, "geometry": { "type": "MultiPolygon", "coordinates": [ [ [ [ -7.219496421582301, 18.296499232287452 ], [ -6.596407423126327, 17.619987568128479 ], [ -6.883511264134125, 16.8775404859371 ], [ -7.794873031401186, 16.808438080754289 ], [ -8.423484527503467, 17.479105011058959 ], [ -8.135746571768633, 18.224571863218177 ], [ -7.219496421582301, 18.296499232287452 ] ] ] ] } },
{ "type": "Feature", "properties": { "geogrid_id": "5117586776014556211", "seqnum": 4384.0, "lat_c": 17.586776333958259, "lon_c": -14.55621149120182, "res": 7.0, "count_Mammals": 8, "count_Flowering Plants": 7, "count_Birds": 5, "count_Reptiles": 3, "count_Molluscs": 0, "count_Insects": 3, "count_Amphibians": 1, "count_Basidiomycota": 0, "count_Arachnids": 0, "count_Sac Fungi": 0, "unique_species_count": 27.0, "countryCode": "MR" }, "geometry": { "type": "MultiPolygon", "coordinates": [ [ [ [ -14.285262701394373, 18.337153078150564 ], [ -13.638137945268914, 17.692270127769159 ], [ -13.909222695451991, 16.943074876045728 ], [ -14.824506252334514, 16.837192875926128 ], [ -15.481843733503718, 17.456634675780986 ], [ -15.213951097076951, 18.207122742855969 ], [ -14.285262701394373, 18.337153078150564 ] ] ] ] } },
{ "type": "Feature", "properties": { "geogrid_id": "5117648933018936082", "seqnum": 3726.0, "lat_c": 17.648933393294833, "lon_c": -18.936082385547621, "res": 7.0, "count_Mammals": 4, "count_Flowering Plants": 0, "count_Birds": 0, "count_Reptiles": 0, "count_Molluscs": 0, "count_Insects": 0, "count_Amphibians": 0, "count_Basidiomycota": 0, "count_Arachnids": 0, "count_Sac Fungi": 0, "unique_species_count": 4.0, "countryCode": "MR" }, "geometry": { "type": "MultiPolygon", "coordinates": [ [ [ [ -18.003641670719539, 17.792693515419753 ], [ -18.263796705907069, 17.044765168717333 ], [ -19.194207569155047, 16.903072303261347 ], [ -19.870635609043926, 17.504042184699507 ], [ -19.612816932340454, 18.24968450926206 ], [ -18.676323109110424, 18.397009411272027 ], [ -18.003641670719539, 17.792693515419753 ] ] ] ] } },
{ "type": "Feature", "properties": { "geogrid_id": "5117888886011802936", "seqnum": 4466.0, "lat_c": 17.888885781773613, "lon_c": -11.802935789460001, "res": 7.0, "count_Mammals": 21, "count_Flowering Plants": 2, "count_Birds": 3, "count_Reptiles": 13, "count_Molluscs": 0, "count_Insects": 2, "count_Amphibians": 3, "count_Basidiomycota": 0, "count_Arachnids": 0, "count_Sac Fungi": 0, "unique_species_count": 44.0, "countryCode": "MR" }, "geometry": { "type": "MultiPolygon", "coordinates": [ [ [ [ -11.522638172295867, 18.637926951657445 ], [ -10.885766946947985, 17.980002803239234 ], [ -11.165251736406359, 17.232362669087863 ], [ -12.079623539088587, 17.140660915706231 ], [ -12.720386132778835, 17.792974154912073 ], [ -12.443222741081104, 18.542523556388549 ], [ -11.522638172295867, 18.637926951657445 ] ] ] ] } },
{ "type": "Feature", "properties": { "geogrid_id": "5118072607016143007", "seqnum": 3727.0, "lat_c": 18.072606848007279, "lon_c": -16.143007002835617, "res": 7.0, "count_Mammals": 20, "count_Flowering Plants": 15, "count_Birds": 88, "count_Reptiles": 18, "count_Molluscs": 12, "count_Insects": 18, "count_Amphibians": 1, "count_Basidiomycota": 0, "count_Arachnids": 0, "count_Sac Fungi": 0, "unique_species_count": 172.0, "countryCode": "MR" }, "geometry": { "type": "MultiPolygon", "coordinates": [ [ [ [ -15.213951097076951, 18.207122742855969 ], [ -15.481843733503718, 17.456634675780986 ], [ -16.408068256915445, 17.322447030400436 ], [ -17.072771282698032, 17.934217640130406 ], [ -16.808208820713521, 18.685069358237435 ], [ -15.875632012612732, 18.823989741304803 ], [ -15.213951097076951, 18.207122742855969 ] ] ] ] } },
{ "type": "Feature", "properties": { "geogrid_id": "5118147847009052193", "seqnum": 4548.0, "lat_c": 18.14784669404046, "lon_c": -9.0521932806871188, "res": 7.0, "count_Mammals": 7, "count_Flowering Plants": 0, "count_Birds": 1, "count_Reptiles": 6, "count_Molluscs": 0, "count_Insects": 0, "count_Amphibians": 0, "count_Basidiomycota": 1, "count_Arachnids": 0, "count_Sac Fungi": 0, "unique_species_count": 15.0, "countryCode": "MR" }, "geometry": { "type": "MultiPolygon", "coordinates": [ [ [ [ -8.762468717560623, 18.894975058031665 ], [ -8.135746571768633, 18.224571863218177 ], [ -8.423484527503467, 17.479105011058959 ], [ -9.337215047039528, 17.401583364149374 ], [ -9.968859597172914, 18.066323497384154 ], [ -9.682273387870389, 18.814155131463153 ], [ -8.762468717560623, 18.894975058031665 ] ] ] ] } },
{ "type": "Feature", "properties": { "geogrid_id": "5118442264013364093", "seqnum": 4411.0, "lat_c": 18.442264488891183, "lon_c": -13.364092849542399, "res": 7.0, "count_Mammals": 2, "count_Flowering Plants": 1, "count_Birds": 1, "count_Reptiles": 2, "count_Molluscs": 0, "count_Insects": 0, "count_Amphibians": 0, "count_Basidiomycota": 0, "count_Arachnids": 0, "count_Sac Fungi": 0, "unique_species_count": 6.0, "countryCode": "MR" }, "geometry": { "type": "MultiPolygon", "coordinates": [ [ [ [ -13.086977549295336, 19.192960048619035 ], [ -12.443222741081104, 18.542523556388549 ], [ -12.720386132778835, 17.792974154912073 ], [ -13.638137945268914, 17.692270127769159 ], [ -14.285262701394373, 18.337153078150564 ], [ -14.011552574747585, 19.088234540597412 ], [ -13.086977549295336, 19.192960048619035 ] ] ] ] } },
{ "type": "Feature", "properties": { "geogrid_id": "5118542471017741626", "seqnum": 3699.0, "lat_c": 18.542471204558822, "lon_c": -17.741625817706176, "res": 7.0, "count_Mammals": 9, "count_Flowering Plants": 0, "count_Birds": 3, "count_Reptiles": 0, "count_Molluscs": 2, "count_Insects": 0, "count_Amphibians": 0, "count_Basidiomycota": 0, "count_Arachnids": 0, "count_Sac Fungi": 0, "unique_species_count": 14.0, "countryCode": "MR" }, "geometry": { "type": "MultiPolygon", "coordinates": [ [ [ [ -16.808208820713521, 18.685069358237435 ], [ -17.072771282698032, 17.934217640130406 ], [ -18.003641670719539, 17.792693515419753 ], [ -18.676323109110424, 18.397009411272027 ], [ -18.414852663071347, 19.147174400992856 ], [ -17.477664312821414, 19.293981127575215 ], [ -16.808208820713521, 18.685069358237435 ] ] ] ] } },
{ "type": "Feature", "properties": { "geogrid_id": "5118728472010602326", "seqnum": 4493.0, "lat_c": 18.728471685109955, "lon_c": -10.602325886816574, "res": 7.0, "count_Mammals": 7, "count_Flowering Plants": 1, "count_Birds": 2, "count_Reptiles": 3, "count_Molluscs": 0, "count_Insects": 0, "count_Amphibians": 0, "count_Basidiomycota": 0, "count_Arachnids": 0, "count_Sac Fungi": 0, "unique_species_count": 13.0, "countryCode": "MR" }, "geometry": { "type": "MultiPolygon", "coordinates": [ [ [ [ -10.314812131580291, 19.477635908524459 ], [ -9.682273387870389, 18.814155131463153 ], [ -9.968859597172914, 18.066323497384154 ], [ -10.885766946947985, 17.980002803239234 ], [ -11.522638172295867, 18.637926951657445 ], [ -11.238616225108967, 19.387664289371138 ], [ -10.314812131580291, 19.477635908524459 ] ] ] ] } },
{ "type": "Feature", "properties": { "geogrid_id": "5118958563014943520", "seqnum": 3700.0, "lat_c": 18.958563239837751, "lon_c": -14.943519995926385, "res": 7.0, "count_Mammals": 7, "count_Flowering Plants": 9, "count_Birds": 12, "count_Reptiles": 6, "count_Molluscs": 0, "count_Insects": 9, "count_Amphibians": 0, "count_Basidiomycota": 0, "count_Arachnids": 0, "count_Sac Fungi": 0, "unique_species_count": 43.0, "countryCode": "MR" }, "geometry": { "type": "MultiPolygon", "coordinates": [ [ [ [ -14.011552573495868, 19.088234542581155 ], [ -14.285262700145223, 18.337153080137295 ], [ -15.213951097076951, 18.207122742855969 ], [ -15.875632012612732, 18.823989741304803 ], [ -15.605844573045866, 19.576493802835582 ], [ -14.670445453603438, 19.71086066900876 ], [ -14.011552573495868, 19.088234542581155 ] ] ] ] } },
{ "type": "Feature", "properties": { "geogrid_id": "5118970930007842900", "seqnum": 4575.0, "lat_c": 18.970929658076113, "lon_c": -7.8429001913587362, "res": 7.0, "count_Mammals": 2, "count_Flowering Plants": 0, "count_Birds": 1, "count_Reptiles": 0, "count_Molluscs": 0, "count_Insects": 0, "count_Amphibians": 0, "count_Basidiomycota": 0, "count_Arachnids": 0, "count_Sac Fungi": 0, "unique_species_count": 3.0, "countryCode": "MR" }, "geometry": { "type": "MultiPolygon", "coordinates": [ [ [ [ -7.544825202481507, 19.717993185712707 ], [ -6.923556070999505, 19.04201759171146 ], [ -7.219496421582301, 18.296499232287452 ], [ -8.135746571768633, 18.224571863218177 ], [ -8.762468717560623, 18.894975058031665 ], [ -8.467921990924779, 19.642802875948039 ], [ -7.544825202481507, 19.717993185712707 ] ] ] ] } },
{ "type": "Feature", "properties": { "geogrid_id": "5118997815019353521", "seqnum": 3672.0, "lat_c": 18.99781486994528, "lon_c": -19.353521040774407, "res": 7.0, "count_Mammals": 3, "count_Flowering Plants": 0, "count_Birds": 0, "count_Reptiles": 0, "count_Molluscs": 0, "count_Insects": 0, "count_Amphibians": 0, "count_Basidiomycota": 0, "count_Arachnids": 0, "count_Sac Fungi": 0, "unique_species_count": 3.0, "countryCode": "MR" }, "geometry": { "type": "MultiPolygon", "coordinates": [ [ [ [ -18.414852663071347, 19.147174400992856 ], [ -18.676323109110424, 18.397009411272027 ], [ -19.612816932340454, 18.24968450926206 ], [ -20.294246466076384, 18.8470231767221 ], [ -20.035472955449137, 19.595095409128273 ], [ -19.092676985008634, 19.748295113466042 ], [ -18.414852663071347, 19.147174400992856 ] ] ] ] } },
{ "type": "Feature", "properties": { "geogrid_id": "5119292771012162669", "seqnum": 4439.0, "lat_c": 19.292771204357901, "lon_c": -12.162668621098605, "res": 7.0, "count_Mammals": 7, "count_Flowering Plants": 2, "count_Birds": 3, "count_Reptiles": 4, "count_Molluscs": 1, "count_Insects": 0, "count_Amphibians": 2, "count_Basidiomycota": 0, "count_Arachnids": 0, "count_Sac Fungi": 0, "unique_species_count": 19.0, "countryCode": "MR" }, "geometry": { "type": "MultiPolygon", "coordinates": [ [ [ [ -11.878607649438324, 20.043607067620449 ], [ -11.238616225108967, 19.387664289371138 ], [ -11.522638172295867, 18.637926951657445 ], [ -12.443222741081104, 18.542523556388549 ], [ -13.086977549295336, 19.192960048619035 ], [ -12.806678463990663, 19.944257451410618 ], [ -11.878607649438324, 20.043607067620449 ] ] ] ] } },
{ "type": "Feature", "properties": { "geogrid_id": "5119437332016541467", "seqnum": 3673.0, "lat_c": 19.437332501881485, "lon_c": -16.541466696451188, "res": 7.0, "count_Mammals": 26, "count_Flowering Plants": 20, "count_Birds": 121, "count_Reptiles": 18, "count_Molluscs": 57, "count_Insects": 31, "count_Amphibians": 0, "count_Basidiomycota": 0, "count_Arachnids": 0, "count_Sac Fungi": 0, "unique_species_count": 273.0, "countryCode": "MR" }, "geometry": { "type": "MultiPolygon", "coordinates": [ [ [ [ -15.605844573045866, 19.576493802835582 ], [ -15.875632012612732, 18.823989741304803 ], [ -16.808208820713521, 18.685069358237435 ], [ -17.477664312821414, 19.293981127575215 ], [ -17.211669522823986, 20.047104387493174 ], [ -16.272449850791105, 20.190896406634316 ], [ -15.605844573045866, 19.576493802835582 ] ] ] ] } },
{ "type": "Feature", "properties": { "geogrid_id": "5119562683009391249", "seqnum": 4521.0, "lat_c": 19.562683005153684, "lon_c": -9.3912493443019578, "res": 7.0, "count_Mammals": 0, "count_Flowering Plants": 0, "count_Birds": 1, "count_Reptiles": 0, "count_Molluscs": 0, "count_Insects": 0, "count_Amphibians": 0, "count_Basidiomycota": 0, "count_Arachnids": 0, "count_Sac Fungi": 0, "unique_species_count": 1.0, "countryCode": "MR" }, "geometry": { "type": "MultiPolygon", "coordinates": [ [ [ [ -9.095665321705892, 20.311756195112189 ], [ -8.467921990924779, 19.642802875948039 ], [ -8.762468717560623, 18.894975058031665 ], [ -9.682273387870389, 18.814155131463153 ], [ -10.314812131580291, 19.477635908524459 ], [ -10.023105211052483, 20.227359901426443 ], [ -9.095665321705892, 20.311756195112189 ] ] ] ] } },
{ "type": "Feature", "properties": { "geogrid_id": "5119839931013734970", "seqnum": 4385.0, "lat_c": 19.839930896929506, "lon_c": -13.734970252265896, "res": 7.0, "count_Mammals": 15, "count_Flowering Plants": 19, "count_Birds": 18, "count_Reptiles": 15, "count_Molluscs": 0, "count_Insects": 9, "count_Amphibians": 2, "count_Basidiomycota": 0, "count_Arachnids": 1, "count_Sac Fungi": 0, "unique_species_count": 79.0, "countryCode": "MR" }, "geometry": { "type": "MultiPolygon", "coordinates": [ [ [ [ -13.455401156119013, 20.592151072701888 ], [ -12.806678463990663, 19.944257451410618 ], [ -13.086977549295336, 19.192960048619035 ], [ -14.011552574747585, 19.088234540597412 ], [ -14.670445453603438, 19.71086066900876 ], [ -14.394618994020812, 20.463918223323645 ], [ -13.455401156119013, 20.592151072701888 ] ] ] ] } },
{ "type": "Feature", "properties": { "geogrid_id": "5119899300018151591", "seqnum": 3645.0, "lat_c": 19.899300307776237, "lon_c": -18.151591417732785, "res": 7.0, "count_Mammals": 12, "count_Flowering Plants": 0, "count_Birds": 24, "count_Reptiles": 3, "count_Molluscs": 18, "count_Insects": 0, "count_Amphibians": 0, "count_Basidiomycota": 0, "count_Arachnids": 0, "count_Sac Fungi": 0, "unique_species_count": 57.0, "countryCode": "MR" }, "geometry": { "type": "MultiPolygon", "coordinates": [ [ [ [ -17.211669522823986, 20.047104387493174 ], [ -17.477664312821414, 19.293981127575215 ], [ -18.414852663071347, 19.147174400992856 ], [ -19.092676985008634, 19.748295113466042 ], [ -18.830211424884375, 20.50098465973111 ], [ -17.886457082540907, 20.653257053311872 ], [ -17.211669522823986, 20.047104387493174 ] ] ] ] } },
{ "type": "Feature", "properties": { "geogrid_id": "5120137976010950752", "seqnum": 4467.0, "lat_c": 20.137975764285645, "lon_c": -10.95075150854124, "res": 7.0, "count_Mammals": 0, "count_Flowering Plants": 0, "count_Birds": 1, "count_Reptiles": 0, "count_Molluscs": 0, "count_Insects": 0, "count_Amphibians": 0, "count_Basidiomycota": 0, "count_Arachnids": 0, "count_Sac Fungi": 0, "unique_species_count": 1.0, "countryCode": "MR" }, "geometry": { "type": "MultiPolygon", "coordinates": [ [ [ [ -10.658921450760598, 20.888737480150873 ], [ -10.023105211052483, 20.227359901426443 ], [ -10.314812131580291, 19.477635908524459 ], [ -11.238616225108967, 19.387664289371138 ], [ -11.878607649438324, 20.043607067620449 ], [ -11.590919674573854, 20.794919478025051 ], [ -10.658921450760598, 20.888737480150873 ] ] ] ] } },
{ "type": "Feature", "properties": { "geogrid_id": "5120330016015333543", "seqnum": 3646.0, "lat_c": 20.330015714433522, "lon_c": -15.333542698090053, "res": 7.0, "count_Mammals": 7, "count_Flowering Plants": 13, "count_Birds": 19, "count_Reptiles": 12, "count_Molluscs": 1, "count_Insects": 4, "count_Amphibians": 0, "count_Basidiomycota": 0, "count_Arachnids": 0, "count_Sac Fungi": 0, "unique_species_count": 56.0, "countryCode": "MR" }, "geometry": { "type": "MultiPolygon", "coordinates": [ [ [ [ -14.394618994020812, 20.463918223323645 ], [ -14.670445453603438, 19.71086066900876 ], [ -15.605844573045866, 19.576493802835582 ], [ -16.272449850791105, 20.190896406634316 ], [ -16.001060046615695, 20.945648884981036 ], [ -15.058620976274337, 21.084450775989094 ], [ -14.394618994020812, 20.463918223323645 ] ] ] ] } },
{ "type": "Feature", "properties": { "geogrid_id": "5120391162008168430", "seqnum": 4549.0, "lat_c": 20.391161731509047, "lon_c": -8.1684297254849572, "res": 7.0, "count_Mammals": 0, "count_Flowering Plants": 0, "count_Birds": 1, "count_Reptiles": 0, "count_Molluscs": 0, "count_Insects": 0, "count_Amphibians": 0, "count_Basidiomycota": 0, "count_Arachnids": 0, "count_Sac Fungi": 0, "unique_species_count": 1.0, "countryCode": "MR" }, "geometry": { "type": "MultiPolygon", "coordinates": [ [ [ [ -7.863864423630555, 21.139880456444715 ], [ -7.241397552970958, 20.465573980205139 ], [ -7.544825202481507, 19.717993185712707 ], [ -8.467921990924779, 19.642802875948039 ], [ -9.095665321705892, 20.311756195112189 ], [ -8.79539498202772, 21.061221361494677 ], [ -7.863864423630555, 21.139880456444715 ] ] ] ] } },
{ "type": "Feature", "properties": { "geogrid_id": "5120696056012523078", "seqnum": 4412.0, "lat_c": 20.696055908747955, "lon_c": -12.523078125286126, "res": 7.0, "count_Mammals": 18, "count_Flowering Plants": 26, "count_Birds": 38, "count_Reptiles": 13, "count_Molluscs": 0, "count_Insects": 10, "count_Amphibians": 3, "count_Basidiomycota": 0, "count_Arachnids": 5, "count_Sac Fungi": 0, "unique_species_count": 113.0, "countryCode": "MR" }, "geometry": { "type": "MultiPolygon", "coordinates": [ [ [ [ -12.236055002758603, 21.448253210187243 ], [ -11.590919674573854, 20.794919478025051 ], [ -11.878607649438324, 20.043607067620449 ], [ -12.806678463990663, 19.944257451410618 ], [ -13.455401156119013, 20.592151072701888 ], [ -13.172726813154924, 21.344802748933123 ], [ -12.236055002758603, 21.448253210187243 ] ] ] ] } },
{ "type": "Feature", "properties": { "geogrid_id": "5120801720016943551", "seqnum": 3618.0, "lat_c": 20.801720356660276, "lon_c": -16.943550891390956, "res": 7.0, "count_Mammals": 8, "count_Flowering Plants": 18, "count_Birds": 115, "count_Reptiles": 16, "count_Molluscs": 39, "count_Insects": 10, "count_Amphibians": 0, "count_Basidiomycota": 0, "count_Arachnids": 0, "count_Sac Fungi": 1, "unique_species_count": 207.0, "countryCode": "MR" }, "geometry": { "type": "MultiPolygon", "coordinates": [ [ [ [ -16.001060046615695, 20.945648884981036 ], [ -16.272449850791105, 20.190896406634316 ], [ -17.211669522823986, 20.047104387493174 ], [ -17.886457082540907, 20.653257053311872 ], [ -17.619364592268326, 21.408912613326102 ], [ -16.673214808551407, 21.557706736155474 ], [ -16.001060046615695, 20.945648884981036 ] ] ] ] } },
{ "type": "Feature", "properties": { "geogrid_id": "5120977506009727080", "seqnum": 4494.0, "lat_c": 20.977505968221742, "lon_c": -9.7270804635363532, "res": 7.0, "count_Mammals": 0, "count_Flowering Plants": 0, "count_Birds": 1, "count_Reptiles": 0, "count_Molluscs": 0, "count_Insects": 0, "count_Amphibians": 0, "count_Basidiomycota": 0, "count_Arachnids": 0, "count_Sac Fungi": 0, "unique_species_count": 1.0, "countryCode": "MR" }, "geometry": { "type": "MultiPolygon", "coordinates": [ [ [ [ -9.426608884940878, 21.727934332523688 ], [ -8.79539498202772, 21.061221361494677 ], [ -9.095665321705892, 20.311756195112189 ], [ -10.023105211052483, 20.227359901426443 ], [ -10.658921450760598, 20.888737480150873 ], [ -10.362999185466947, 21.639823703978116 ], [ -9.426608884940878, 21.727934332523688 ] ] ] ] } },
{ "type": "Feature", "properties": { "geogrid_id": "5121217638014115928", "seqnum": 3619.0, "lat_c": 21.217637802943283, "lon_c": -14.115928476295261, "res": 7.0, "count_Mammals": 3, "count_Flowering Plants": 1, "count_Birds": 10, "count_Reptiles": 7, "count_Molluscs": 0, "count_Insects": 1, "count_Amphibians": 0, "count_Basidiomycota": 0, "count_Arachnids": 0, "count_Sac Fungi": 0, "unique_species_count": 22.0, "countryCode": "MR" }, "geometry": { "type": "MultiPolygon", "coordinates": [ [ [ [ -13.172726811890842, 21.344802750907853 ], [ -13.455401154859848, 20.592151074679631 ], [ -14.394618994020812, 20.463918223323645 ], [ -15.058620976274337, 21.084450775989094 ], [ -14.780970410123178, 21.839692934286905 ], [ -13.834257921068618, 21.97192003125884 ], [ -13.172726811890842, 21.344802750907853 ] ] ] ] } },
{ "type": "Feature", "properties": { "geogrid_id": "5121546595011299480", "seqnum": 4440.0, "lat_c": 21.546595149080218, "lon_c": -11.299480347243261, "res": 7.0, "count_Mammals": 6, "count_Flowering Plants": 4, "count_Birds": 24, "count_Reptiles": 11, "count_Molluscs": 0, "count_Insects": 7, "count_Amphibians": 1, "count_Basidiomycota": 0, "count_Arachnids": 0, "count_Sac Fungi": 0, "unique_species_count": 53.0, "countryCode": "MR" }, "geometry": { "type": "MultiPolygon", "coordinates": [ [ [ [ -11.004160943176604, 22.29851919388117 ], [ -10.362999185466947, 21.639823703978116 ], [ -10.658921450760598, 20.888737480150873 ], [ -11.590919674573854, 20.794919478025051 ], [ -12.236055002758603, 21.448253210187243 ], [ -11.945483321188799, 22.200745733516502 ], [ -11.004160943176604, 22.29851919388117 ] ] ] ] } },
{ "type": "Feature", "properties": { "geogrid_id": "5121701476015727196", "seqnum": 3592.0, "lat_c": 21.701476269534201, "lon_c": -15.727195722623485, "res": 7.0, "count_Mammals": 0, "count_Flowering Plants": 1, "count_Birds": 10, "count_Reptiles": 8, "count_Molluscs": 0, "count_Insects": 0, "count_Amphibians": 0, "count_Basidiomycota": 0, "count_Arachnids": 0, "count_Sac Fungi": 0, "unique_species_count": 19.0, "countryCode": "MR" }, "geometry": { "type": "MultiPolygon", "coordinates": [ [ [ [ -14.780970410123178, 21.839692934286905 ], [ -15.058620976274337, 21.084450775989094 ], [ -16.001060046615695, 20.945648884981036 ], [ -16.673214808551407, 21.557706736155474 ], [ -16.40056447304714, 22.314939616687173 ], [ -15.450751839329563, 22.458263456860745 ], [ -14.780970410123178, 21.839692934286905 ] ] ] ] } },
{ "type": "Feature", "properties": { "geogrid_id": "5121810923008490308", "seqnum": 4522.0, "lat_c": 21.810922809345008, "lon_c": -8.4903076583336663, "res": 7.0, "count_Mammals": 0, "count_Flowering Plants": 0, "count_Birds": 1, "count_Reptiles": 0, "count_Molluscs": 0, "count_Insects": 0, "count_Amphibians": 0, "count_Basidiomycota": 0, "count_Arachnids": 0, "count_Sac Fungi": 0, "unique_species_count": 1.0, "countryCode": "MR" }, "geometry": { "type": "MultiPolygon", "coordinates": [ [ [ [ -8.180268215753351, 22.560702550910602 ], [ -7.554094350169827, 21.888785216928877 ], [ -7.863864423630555, 21.139880456444715 ], [ -8.79539498202772, 21.061221361494677 ], [ -9.426608884940878, 21.727934332523688 ], [ -9.121556972668948, 22.478503180070756 ], [ -8.180268215753351, 22.560702550910602 ] ] ] ] } },
{ "type": "Feature", "properties": { "geogrid_id": "5122097792012886825", "seqnum": 4386.0, "lat_c": 22.097792366641336, "lon_c": -12.886824669454739, "res": 7.0, "count_Mammals": 7, "count_Flowering Plants": 3, "count_Birds": 1, "count_Reptiles": 4, "count_Molluscs": 0, "count_Insects": 0, "count_Amphibians": 0, "count_Basidiomycota": 0, "count_Arachnids": 0, "count_Sac Fungi": 0, "unique_species_count": 15.0, "countryCode": "MR" }, "geometry": { "type": "MultiPolygon", "coordinates": [ [ [ [ -12.597567895427975, 22.85102513021355 ], [ -11.945483321188799, 22.200745733516502 ], [ -12.236055002758603, 21.448253210187243 ], [ -13.172726813154924, 21.344802748933123 ], [ -13.834257921068618, 21.97192003125884 ], [ -13.549487327821621, 22.726664270244573 ], [ -12.597567895427975, 22.85102513021355 ] ] ] ] } },
{ "type": "Feature", "properties": { "geogrid_id": "5122391107010062853", "seqnum": 4468.0, "lat_c": 22.391106894578307, "lon_c": -10.062853383284988, "res": 7.0, "count_Mammals": 0, "count_Flowering Plants": 0, "count_Birds": 1, "count_Reptiles": 0, "count_Molluscs": 0, "count_Insects": 0, "count_Amphibians": 0, "count_Basidiomycota": 0, "count_Arachnids": 0, "count_Sac Fungi": 0, "unique_species_count": 1.0, "countryCode": "MR" }, "geometry": { "type": "MultiPolygon", "coordinates": [ [ [ [ -9.758348076322051, 23.142457730540613 ], [ -9.121556972668948, 22.478503180070756 ], [ -9.426608884940878, 21.727934332523688 ], [ -10.362999185466947, 21.639823703978116 ], [ -11.004160943176604, 22.29851919388117 ], [ -10.704828177818007, 23.050575142157459 ], [ -9.758348076322051, 23.142457730540613 ] ] ] ] } },
{ "type": "Feature", "properties": { "geogrid_id": "5122637700007238983", "seqnum": 4550.0, "lat_c": 22.637699602018788, "lon_c": -7.2389834157660511, "res": 7.0, "count_Mammals": 0, "count_Flowering Plants": 0, "count_Birds": 1, "count_Reptiles": 0, "count_Molluscs": 0, "count_Insects": 0, "count_Amphibians": 0, "count_Basidiomycota": 0, "count_Arachnids": 0, "count_Sac Fungi": 0, "unique_species_count": 1.0, "countryCode": "MR" }, "geometry": { "type": "MultiPolygon", "coordinates": [ [ [ [ -6.918391059321207, 23.386444713776758 ], [ -6.297698213909661, 22.709488932998656 ], [ -6.617968183479423, 21.96151792723736 ], [ -7.554094350169827, 21.888785216928877 ], [ -8.180268215753351, 22.560702550910602 ], [ -7.86513690902133, 23.310400368610608 ], [ -6.918391059321207, 23.386444713776758 ] ] ] ] } },
{ "type": "Feature", "properties": { "geogrid_id": "5122953428011651233", "seqnum": 4413.0, "lat_c": 22.953428453842175, "lon_c": -11.651232868978443, "res": 7.0, "count_Mammals": 2, "count_Flowering Plants": 0, "count_Birds": 1, "count_Reptiles": 1, "count_Molluscs": 0, "count_Insects": 0, "count_Amphibians": 0, "count_Basidiomycota": 0, "count_Arachnids": 0, "count_Sac Fungi": 0, "unique_species_count": 4.0, "countryCode": "MR" }, "geometry": { "type": "MultiPolygon", "coordinates": [ [ [ [ -11.353168797252952, 23.706194951416251 ], [ -10.704828177818007, 23.050575142157459 ], [ -11.004160943176604, 22.29851919388117 ], [ -11.945483321188799, 22.200745733516502 ], [ -12.597567895427975, 22.85102513021355 ], [ -12.304825180919213, 23.604405009434867 ], [ -11.353168797252952, 23.706194951416251 ] ] ] ] } },
{ "type": "Feature", "properties": { "geogrid_id": "5123229069008811787", "seqnum": 4495.0, "lat_c": 23.229068701575866, "lon_c": -8.8117865641909496, "res": 7.0, "count_Mammals": 0, "count_Flowering Plants": 0, "count_Birds": 1, "count_Reptiles": 2, "count_Molluscs": 0, "count_Insects": 0, "count_Amphibians": 0, "count_Basidiomycota": 0, "count_Arachnids": 0, "count_Sac Fungi": 0, "unique_species_count": 3.0, "countryCode": "MR" }, "geometry": { "type": "MultiPolygon", "coordinates": [ [ [ [ -8.497154670231659, 23.979485135256542 ], [ -7.86513690902133, 23.310400368610608 ], [ -8.180268215753351, 22.560702550910602 ], [ -9.121556972668948, 22.478503180070756 ], [ -9.758348076322051, 23.142457730540613 ], [ -9.449342475671545, 23.893745137426023 ], [ -8.497154670231659, 23.979485135256542 ] ] ] ] } },
{ "type": "Feature", "properties": { "geogrid_id": "5123457193005971539", "seqnum": 4577.0, "lat_c": 23.45719316249048, "lon_c": -5.9715389111667196, "res": 7.0, "count_Mammals": 0, "count_Flowering Plants": 0, "count_Birds": 1, "count_Reptiles": 0, "count_Molluscs": 0, "count_Insects": 0, "count_Amphibians": 0, "count_Basidiomycota": 0, "count_Arachnids": 0, "count_Sac Fungi": 0, "unique_species_count": 1.0, "countryCode": "MR" }, "geometry": { "type": "MultiPolygon", "coordinates": [ [ [ [ -5.639345558670048, 24.204427685339237 ], [ -5.024567376844311, 23.522636267849609 ], [ -5.35640701129482, 22.776065019002775 ], [ -6.297698213909661, 22.709488932998656 ], [ -6.918391059321207, 23.386444713776758 ], [ -6.592172129593671, 24.134839258737571 ], [ -5.639345558670048, 24.204427685339237 ] ] ] ] } },
{ "type": "Feature", "properties": { "geogrid_id": "5123481769013261492", "seqnum": 3538.0, "lat_c": 23.481768634968439, "lon_c": -13.261492482666915, "res": 7.0, "count_Mammals": 0, "count_Flowering Plants": 0, "count_Birds": 1, "count_Reptiles": 0, "count_Molluscs": 0, "count_Insects": 0, "count_Amphibians": 0, "count_Basidiomycota": 0, "count_Arachnids": 0, "count_Sac Fungi": 0, "unique_species_count": 1.0, "countryCode": "MR" }, "geometry": { "type": "MultiPolygon", "coordinates": [ [ [ [ -12.304825179635356, 23.604405011400516 ], [ -12.597567894151569, 22.851025132182233 ], [ -13.549487327821621, 22.726664270244573 ], [ -14.217027801721647, 23.352167734941737 ], [ -13.930498267909641, 24.109181762573627 ], [ -12.970144756077726, 24.237130007079514 ], [ -12.304825179635356, 23.604405011400516 ] ] ] ] } },
{ "type": "Feature", "properties": { "geogrid_id": "5123802645010401344", "seqnum": 4441.0, "lat_c": 23.802644956235739, "lon_c": -10.401344012698068, "res": 7.0, "count_Mammals": 0, "count_Flowering Plants": 0, "count_Birds": 1, "count_Reptiles": 0, "count_Molluscs": 0, "count_Insects": 0, "count_Amphibians": 0, "count_Basidiomycota": 0, "count_Arachnids": 0, "count_Sac Fungi": 0, "unique_species_count": 1.0, "countryCode": "MR" }, "geometry": { "type": "MultiPolygon", "coordinates": [ [ [ [ -10.093565453104201, 24.554609045702225 ], [ -9.449342475671545, 23.893745137426023 ], [ -9.758348076322051, 23.142457730540613 ], [ -10.704828177818007, 23.050575142157459 ], [ -11.353168797252952, 23.706194951416251 ], [ -11.051151409183253, 24.458937418005121 ], [ -10.093565453104201, 24.554609045702225 ] ] ] ] } },
{ "type": "Feature", "properties": { "geogrid_id": "5124059854007544769", "seqnum": 4523.0, "lat_c": 24.05985387837103, "lon_c": -7.5447692367148198, "res": 7.0, "count_Mammals": 0, "count_Flowering Plants": 0, "count_Birds": 1, "count_Reptiles": 0, "count_Molluscs": 0, "count_Insects": 0, "count_Amphibians": 0, "count_Basidiomycota": 0, "count_Arachnids": 0, "count_Sac Fungi": 0, "unique_species_count": 1.0, "countryCode": "MR" }, "geometry": { "type": "MultiPolygon", "coordinates": [ [ [ [ -7.219015792316666, 24.808898593031699 ], [ -6.592172129593671, 24.134839258737571 ], [ -6.918391059321207, 23.386444713776758 ], [ -7.86513690902133, 23.310400368610608 ], [ -8.497154670231659, 23.979485135256542 ], [ -8.177513302516219, 24.729604808785631 ], [ -7.219015792316666, 24.808898593031699 ] ] ] ] } },
{ "type": "Feature", "properties": { "geogrid_id": "5124357835012008461", "seqnum": 4387.0, "lat_c": 24.357834739993994, "lon_c": -12.008460519768278, "res": 7.0, "count_Mammals": 0, "count_Flowering Plants": 0, "count_Birds": 1, "count_Reptiles": 0, "count_Molluscs": 0, "count_Insects": 0, "count_Amphibians": 0, "count_Basidiomycota": 0, "count_Arachnids": 0, "count_Sac Fungi": 0, "unique_species_count": 1.0, "countryCode": "MR" }, "geometry": { "type": "MultiPolygon", "coordinates": [ [ [ [ -11.708332983235966, 25.111215822270751 ], [ -11.051151409183253, 24.458937418005121 ], [ -11.353168797252952, 23.706194951416251 ], [ -12.304825180919213, 23.604405009434867 ], [ -12.970144756077726, 24.237130007079514 ], [ -12.67531088997764, 24.992644047080926 ], [ -11.708332983235966, 25.111215822270751 ] ] ] ] } },
{ "type": "Feature", "properties": { "geogrid_id": "5124644836009135691", "seqnum": 4469.0, "lat_c": 24.644836313940779, "lon_c": -9.1356907816469004, "res": 7.0, "count_Mammals": 0, "count_Flowering Plants": 0, "count_Birds": 1, "count_Reptiles": 0, "count_Molluscs": 0, "count_Insects": 0, "count_Amphibians": 0, "count_Basidiomycota": 0, "count_Arachnids": 0, "count_Sac Fungi": 0, "unique_species_count": 1.0, "countryCode": "MR" }, "geometry": { "type": "MultiPolygon", "coordinates": [ [ [ [ -8.817241986537315, 25.395596756844867 ], [ -8.177513302516219, 24.729604808785631 ], [ -8.497154670231659, 23.979485135256542 ], [ -9.449342475671545, 23.893745137426023 ], [ -10.093565453104201, 24.554609045702225 ], [ -9.78134433668928, 25.306346280539252 ], [ -8.817241986537315, 25.395596756844867 ] ] ] ] } },
{ "type": "Feature", "properties": { "geogrid_id": "5124882700006260177", "seqnum": 4551.0, "lat_c": 24.882699640375119, "lon_c": -6.2601767663815018, "res": 7.0, "count_Mammals": 0, "count_Flowering Plants": 0, "count_Birds": 1, "count_Reptiles": 0, "count_Molluscs": 0, "count_Insects": 0, "count_Amphibians": 0, "count_Basidiomycota": 0, "count_Arachnids": 0, "count_Sac Fungi": 0, "unique_species_count": 1.0, "countryCode": "MR" }, "geometry": { "type": "MultiPolygon", "coordinates": [ [ [ [ -5.922250281652933, 25.629840052213307 ], [ -5.300969055104388, 24.950987063216662 ], [ -5.639345558670048, 24.204427685339237 ], [ -6.592172129593671, 24.134839258737571 ], [ -7.219015792316666, 24.808898593031699 ], [ -6.887722112268627, 25.557367985521651 ], [ -5.922250281652933, 25.629840052213307 ] ] ] ] } },
{ "type": "Feature", "properties": { "geogrid_id": "5125211547010745036", "seqnum": 4414.0, "lat_c": 25.211546661590909, "lon_c": -10.745035939040985, "res": 7.0, "count_Mammals": 0, "count_Flowering Plants": 4, "count_Birds": 1, "count_Reptiles": 0, "count_Molluscs": 0, "count_Insects": 2, "count_Amphibians": 0, "count_Basidiomycota": 0, "count_Arachnids": 0, "count_Sac Fungi": 0, "unique_species_count": 7.0, "countryCode": "MR" }, "geometry": { "type": "MultiPolygon", "coordinates": [ [ [ [ -10.434672320481896, 25.963912109185149 ], [ -9.78134433668928, 25.306346280539252 ], [ -10.093565453104201, 24.554609045702225 ], [ -11.051151409183253, 24.458937418005121 ], [ -11.708332983235966, 25.111215822270751 ], [ -11.404296481676207, 25.864448518200192 ], [ -10.434672320481896, 25.963912109185149 ] ] ] ] } },
{ "type": "Feature", "properties": { "geogrid_id": "5125479278007852709", "seqnum": 4496.0, "lat_c": 25.479278180393358, "lon_c": -7.8527092960420202, "res": 7.0, "count_Mammals": 0, "count_Flowering Plants": 0, "count_Birds": 1, "count_Reptiles": 0, "count_Molluscs": 0, "count_Insects": 0, "count_Amphibians": 0, "count_Basidiomycota": 0, "count_Arachnids": 0, "count_Sac Fungi": 0, "unique_species_count": 1.0, "countryCode": "MR" }, "geometry": { "type": "MultiPolygon", "coordinates": [ [ [ [ -7.522584125868424, 26.228353878843212 ], [ -6.887722112268627, 25.557367985521651 ], [ -7.219015792316666, 24.808898593031699 ], [ -8.177513302516219, 24.729604808785631 ], [ -8.817241986537315, 25.395596756844867 ], [ -8.493839669685856, 26.145890284341505 ], [ -7.522584125868424, 26.228353878843212 ] ] ] ] } },
{ "type": "Feature", "properties": { "geogrid_id": "5125696663004956256", "seqnum": 4578.0, "lat_c": 25.696663483477728, "lon_c": -4.9562558370950791, "res": 7.0, "count_Mammals": 0, "count_Flowering Plants": 0, "count_Birds": 1, "count_Reptiles": 0, "count_Molluscs": 0, "count_Insects": 0, "count_Amphibians": 0, "count_Basidiomycota": 0, "count_Arachnids": 0, "count_Sac Fungi": 0, "unique_species_count": 1.0, "countryCode": "MR" }, "geometry": { "type": "MultiPolygon", "coordinates": [ [ [ [ -4.605047805970103, 26.441246894208341 ], [ -3.989690688570776, 25.757800921856784 ], [ -4.341357986824358, 25.013736046827464 ], [ -5.300969055104388, 24.950987063216662 ], [ -5.922250281652933, 25.629840052213307 ], [ -5.578233041061302, 26.376072571219897 ], [ -4.605047805970103, 26.441246894208341 ] ] ] ] } },
{ "type": "Feature", "properties": { "geogrid_id": "5125748205012376853", "seqnum": 3457.0, "lat_c": 25.748205205186185, "lon_c": -12.376852773584046, "res": 7.0, "count_Mammals": 0, "count_Flowering Plants": 0, "count_Birds": 1, "count_Reptiles": 0, "count_Molluscs": 0, "count_Insects": 0, "count_Amphibians": 0, "count_Basidiomycota": 0, "count_Arachnids": 0, "count_Sac Fungi": 0, "unique_species_count": 1.0, "countryCode": "MR" }, "geometry": { "type": "MultiPolygon", "coordinates": [ [ [ [ -11.404296480364581, 25.864448520156646 ], [ -11.708332981934525, 25.111215824230285 ], [ -12.67531088997764, 24.992644047080926 ], [ -13.347696913171164, 25.624207190473559 ], [ -13.051161046982452, 26.381992611237951 ], [ -12.074627207363703, 26.503706730545534 ], [ -11.404296480364581, 25.864448520156646 ] ] ] ] } },
{ "type": "Feature", "properties": { "geogrid_id": "5126057734009464527", "seqnum": 4442.0, "lat_c": 26.057734002500005, "lon_c": -9.4645271126531672, "res": 7.0, "count_Mammals": 0, "count_Flowering Plants": 0, "count_Birds": 1, "count_Reptiles": 0, "count_Molluscs": 0, "count_Insects": 0, "count_Amphibians": 0, "count_Basidiomycota": 0, "count_Arachnids": 0, "count_Sac Fungi": 0, "unique_species_count": 1.0, "countryCode": "MR" }, "geometry": { "type": "MultiPolygon", "coordinates": [ [ [ [ -9.142954611127529, 26.808648034475251 ], [ -8.493839669685856, 26.145890284341505 ], [ -8.817241986537315, 25.395596756844867 ], [ -9.78134433668928, 25.306346280539252 ], [ -10.434672320481896, 25.963912109185149 ], [ -10.119904943533188, 26.715921807523372 ], [ -9.142954611127529, 26.808648034475251 ] ] ] ] } },
{ "type": "Feature", "properties": { "geogrid_id": "5126305094006550729", "seqnum": 4524.0, "lat_c": 26.30509355149232, "lon_c": -6.5507285212210524, "res": 7.0, "count_Mammals": 0, "count_Flowering Plants": 0, "count_Birds": 1, "count_Reptiles": 0, "count_Molluscs": 0, "count_Insects": 0, "count_Amphibians": 0, "count_Basidiomycota": 0, "count_Arachnids": 0, "count_Sac Fungi": 0, "unique_species_count": 1.0, "countryCode": "MR" }, "geometry": { "type": "MultiPolygon", "coordinates": [ [ [ [ -6.207869974731457, 27.051904871092184 ], [ -5.578233041061302, 26.376072571219897 ], [ -5.922250281652933, 25.629840052213307 ], [ -6.887722112268627, 25.557367985521651 ], [ -7.522584125868424, 26.228353878843212 ], [ -7.186973718445686, 26.976678741996821 ], [ -6.207869974731457, 27.051904871092184 ] ] ] ] } },
{ "type": "Feature", "properties": { "geogrid_id": "5126617432011096200", "seqnum": 4388.0, "lat_c": 26.617431845995984, "lon_c": -11.096199513803279, "res": 7.0, "count_Mammals": 0, "count_Flowering Plants": 0, "count_Birds": 1, "count_Reptiles": 0, "count_Molluscs": 0, "count_Insects": 0, "count_Amphibians": 0, "count_Basidiomycota": 0, "count_Arachnids": 0, "count_Sac Fungi": 0, "unique_species_count": 1.0, "countryCode": "MR" }, "geometry": { "type": "MultiPolygon", "coordinates": [ [ [ [ -10.783884902869378, 27.370063572503536 ], [ -10.119904943533188, 26.715921807523372 ], [ -10.434672320481896, 25.963912109185149 ], [ -11.404296481676207, 25.864448518200192 ], [ -12.074627207363703, 26.503706730545534 ], [ -11.768485654423085, 27.259040678617229 ], [ -10.783884902869378, 27.370063572503536 ] ] ] ] } },
{ "type": "Feature", "properties": { "geogrid_id": "5126895579008165322", "seqnum": 4470.0, "lat_c": 26.895579057684433, "lon_c": -8.1653217847026287, "res": 7.0, "count_Mammals": 0, "count_Flowering Plants": 0, "count_Birds": 1, "count_Reptiles": 0, "count_Molluscs": 0, "count_Insects": 0, "count_Amphibians": 0, "count_Basidiomycota": 0, "count_Arachnids": 0, "count_Sac Fungi": 0, "unique_species_count": 1.0, "countryCode": "MR" }, "geometry": { "type": "MultiPolygon", "coordinates": [ [ [ [ -7.831520438641602, 27.644523600731166 ], [ -7.186973718445686, 26.976678741996821 ], [ -7.522584125868424, 26.228353878843212 ], [ -8.493839669685856, 26.145890284341505 ], [ -9.142954611127529, 26.808648034475251 ], [ -8.81646180239218, 27.558962687595415 ], [ -7.831520438641602, 27.644523600731166 ] ] ] ] } }
]
}
