{
"type": "FeatureCollection",
"name": "MW",
"crs": { "type": "name", "properties": { "name": "urn:ogc:def:crs:OGC:1.3:CRS84" } },
"features": [
{ "type": "Feature", "properties": { "geogrid_id": "3009387171033782218", "seqnum": 19180.0, "lat_c": -9.3871714270417055, "lon_c": 33.782217664485692, "res": 8.0, "count_Arachnids": 2, "count_Insects": 125, "count_Amphibians": 11, "count_Reptiles": 13, "count_Basidiomycota": 0, "count_Flowering Plants": 48, "count_Birds": 71, "count_Mammals": 5, "count_Molluscs": 0, "count_Gymnosperms": 0, "count_Mosses": 0, "count_Ferns": 0, "count_Sac Fungi": 0, "unique_species_count": 275.0, "countryCode": "MW" }, "geometry": { "type": "MultiPolygon", "coordinates": [ [ [ [ 34.164715089584277, -9.115300256872965 ], [ 34.309850464697035, -9.567123038063224 ], [ 33.926936984246503, -9.839651544060995 ], [ 33.39948623231421, -9.658504321672547 ], [ 33.252238378731995, -9.207459025848266 ], [ 33.634592478438762, -8.936761114242792 ], [ 34.164715089584277, -9.115300256872965 ] ] ] ] } },
{ "type": "Feature", "properties": { "geogrid_id": "3009477607032869657", "seqnum": 19098.0, "lat_c": -9.4776074043006915, "lon_c": 32.869656813904079, "res": 8.0, "count_Arachnids": 0, "count_Insects": 1, "count_Amphibians": 0, "count_Reptiles": 0, "count_Basidiomycota": 0, "count_Flowering Plants": 32, "count_Birds": 0, "count_Mammals": 0, "count_Molluscs": 0, "count_Gymnosperms": 1, "count_Mosses": 0, "count_Ferns": 0, "count_Sac Fungi": 0, "unique_species_count": 34.0, "countryCode": "MW" }, "geometry": { "type": "MultiPolygon", "coordinates": [ [ [ [ 33.252238378731995, -9.207459025848266 ], [ 33.39948623231421, -9.658504321672547 ], [ 33.01649531829414, -9.929293237707439 ], [ 32.486823050872715, -9.747200358556647 ], [ 32.337011962737108, -9.297285268748331 ], [ 32.719487826916215, -9.028302929364255 ], [ 33.252238378731995, -9.207459025848266 ] ] ] ] } },
{ "type": "Feature", "properties": { "geogrid_id": "3010020773034452392", "seqnum": 19261.0, "lat_c": -10.020773117553587, "lon_c": 34.452391949128767, "res": 8.0, "count_Arachnids": 0, "count_Insects": 0, "count_Amphibians": 0, "count_Reptiles": 1, "count_Basidiomycota": 0, "count_Flowering Plants": 18, "count_Birds": 0, "count_Mammals": 0, "count_Molluscs": 0, "count_Gymnosperms": 0, "count_Mosses": 0, "count_Ferns": 0, "count_Sac Fungi": 0, "unique_species_count": 19.0, "countryCode": "MW" }, "geometry": { "type": "MultiPolygon", "coordinates": [ [ [ [ 34.835510031239146, -9.747043362086613 ], [ 34.976188204955776, -10.201633011432934 ], [ 34.592567977998868, -10.476053765462058 ], [ 34.06899878910346, -10.293980770995356 ], [ 33.926936984246503, -9.839651544060995 ], [ 34.309850464697035, -9.567123038063224 ], [ 34.835510031239146, -9.747043362086613 ] ] ] ] } },
{ "type": "Feature", "properties": { "geogrid_id": "3010111647033543756", "seqnum": 19179.0, "lat_c": -10.111647226351925, "lon_c": 33.543756268452341, "res": 8.0, "count_Arachnids": 3, "count_Insects": 24, "count_Amphibians": 18, "count_Reptiles": 24, "count_Basidiomycota": 0, "count_Flowering Plants": 103, "count_Birds": 45, "count_Mammals": 2, "count_Molluscs": 4, "count_Gymnosperms": 1, "count_Mosses": 1, "count_Ferns": 1, "count_Sac Fungi": 0, "unique_species_count": 226.0, "countryCode": "MW" }, "geometry": { "type": "MultiPolygon", "coordinates": [ [ [ [ 33.926936984246503, -9.839651544060995 ], [ 34.06899878910346, -10.293980770995356 ], [ 33.685303506680832, -10.566660886364669 ], [ 33.160282011935145, -10.383104533962173 ], [ 33.01649531829414, -9.929293237707439 ], [ 33.39948623231421, -9.658504321672547 ], [ 33.926936984246503, -9.839651544060995 ] ] ] ] } },
{ "type": "Feature", "properties": { "geogrid_id": "3010749957034208637", "seqnum": 19260.0, "lat_c": -10.749957273335093, "lon_c": 34.208637269265076, "res": 8.0, "count_Arachnids": 5, "count_Insects": 92, "count_Amphibians": 14, "count_Reptiles": 34, "count_Basidiomycota": 1, "count_Flowering Plants": 226, "count_Birds": 101, "count_Mammals": 18, "count_Molluscs": 6, "count_Gymnosperms": 1, "count_Mosses": 0, "count_Ferns": 7, "count_Sac Fungi": 0, "unique_species_count": 505.0, "countryCode": "MW" }, "geometry": { "type": "MultiPolygon", "coordinates": [ [ [ [ 34.592567977998868, -10.476053765462058 ], [ 34.730594343572804, -10.932784787094315 ], [ 34.346073420937905, -11.207396472150396 ], [ 33.824368159468328, -11.023338171944964 ], [ 33.685303506680832, -10.566660886364669 ], [ 34.06899878910346, -10.293980770995356 ], [ 34.592567977998868, -10.476053765462058 ] ] ] ] } },
{ "type": "Feature", "properties": { "geogrid_id": "3010838808033301279", "seqnum": 19178.0, "lat_c": -10.838808027966898, "lon_c": 33.301278910039308, "res": 8.0, "count_Arachnids": 3, "count_Insects": 24, "count_Amphibians": 2, "count_Reptiles": 15, "count_Basidiomycota": 1, "count_Flowering Plants": 77, "count_Birds": 109, "count_Mammals": 18, "count_Molluscs": 0, "count_Gymnosperms": 1, "count_Mosses": 0, "count_Ferns": 1, "count_Sac Fungi": 0, "unique_species_count": 251.0, "countryCode": "MW" }, "geometry": { "type": "MultiPolygon", "coordinates": [ [ [ [ 33.685303506680832, -10.566660886364669 ], [ 33.824368159468328, -11.023338171944964 ], [ 33.439732531096411, -11.296191095357303 ], [ 32.916897637386015, -11.110416761220458 ], [ 32.776487793461939, -10.654017916524229 ], [ 33.160282011935145, -10.383104533962173 ], [ 33.685303506680832, -10.566660886364669 ] ] ] ] } },
{ "type": "Feature", "properties": { "geogrid_id": "3011390801034866675", "seqnum": 19341.0, "lat_c": -11.390801138564807, "lon_c": 34.866675054986025, "res": 8.0, "count_Arachnids": 0, "count_Insects": 1, "count_Amphibians": 0, "count_Reptiles": 0, "count_Basidiomycota": 0, "count_Flowering Plants": 0, "count_Birds": 0, "count_Mammals": 0, "count_Molluscs": 0, "count_Gymnosperms": 0, "count_Mosses": 0, "count_Ferns": 0, "count_Sac Fungi": 0, "unique_species_count": 1.0, "countryCode": "MW" }, "geometry": { "type": "MultiPolygon", "coordinates": [ [ [ [ 35.251449651475824, -11.114963680901496 ], [ 35.386421369701019, -11.57339523686689 ], [ 35.001003146750392, -11.849951657985143 ], [ 34.48151595605885, -11.666129575611109 ], [ 34.346073420937905, -11.207396472150396 ], [ 34.730594343572804, -10.932784787094315 ], [ 35.251449651475824, -11.114963680901496 ] ] ] ] } },
{ "type": "Feature", "properties": { "geogrid_id": "3011481490033961177", "seqnum": 19259.0, "lat_c": -11.481489971034115, "lon_c": 33.961176658308574, "res": 8.0, "count_Arachnids": 3, "count_Insects": 52, "count_Amphibians": 7, "count_Reptiles": 20, "count_Basidiomycota": 0, "count_Flowering Plants": 100, "count_Birds": 46, "count_Mammals": 2, "count_Molluscs": 0, "count_Gymnosperms": 1, "count_Mosses": 0, "count_Ferns": 0, "count_Sac Fungi": 0, "unique_species_count": 231.0, "countryCode": "MW" }, "geometry": { "type": "MultiPolygon", "coordinates": [ [ [ [ 34.346073420937905, -11.207396472150396 ], [ 34.48151595605885, -11.666129575611109 ], [ 34.095942617565079, -11.940943630184066 ], [ 33.575874986917526, -11.755059936357604 ], [ 33.439732531096411, -11.296191095357303 ], [ 33.824368159468328, -11.023338171944964 ], [ 34.346073420937905, -11.207396472150396 ] ] ] ] } },
{ "type": "Feature", "properties": { "geogrid_id": "3011568511033054702", "seqnum": 19177.0, "lat_c": -11.568510674895972, "lon_c": 33.054702042493055, "res": 8.0, "count_Arachnids": 0, "count_Insects": 0, "count_Amphibians": 0, "count_Reptiles": 0, "count_Basidiomycota": 0, "count_Flowering Plants": 3, "count_Birds": 0, "count_Mammals": 0, "count_Molluscs": 0, "count_Gymnosperms": 0, "count_Mosses": 0, "count_Ferns": 0, "count_Sac Fungi": 0, "unique_species_count": 3.0, "countryCode": "MW" }, "geometry": { "type": "MultiPolygon", "coordinates": [ [ [ [ 33.439732531096411, -11.296191095357303 ], [ 33.575874986917526, -11.755059936357604 ], [ 33.190139060586645, -12.028101009635703 ], [ 32.669248099863694, -11.840291539299875 ], [ 32.532132132528275, -11.381481653612678 ], [ 32.916897637386015, -11.110416761220458 ], [ 33.439732531096411, -11.296191095357303 ] ] ] ] } },
{ "type": "Feature", "properties": { "geogrid_id": "3012126002034615162", "seqnum": 19340.0, "lat_c": -12.126002235257273, "lon_c": 34.615162156703455, "res": 8.0, "count_Arachnids": 0, "count_Insects": 18, "count_Amphibians": 6, "count_Reptiles": 12, "count_Basidiomycota": 0, "count_Flowering Plants": 37, "count_Birds": 33, "count_Mammals": 3, "count_Molluscs": 9, "count_Gymnosperms": 0, "count_Mosses": 0, "count_Ferns": 0, "count_Sac Fungi": 0, "unique_species_count": 118.0, "countryCode": "MW" }, "geometry": { "type": "MultiPolygon", "coordinates": [ [ [ [ 35.001003146750392, -11.849951657985143 ], [ 35.133761438150323, -12.310097902894261 ], [ 34.747198676531504, -12.586873316762446 ], [ 34.228867738461311, -12.401541530288467 ], [ 34.095942617565079, -11.940943630184066 ], [ 34.48151595605885, -11.666129575611109 ], [ 35.001003146750392, -11.849951657985143 ] ] ] ] } },
{ "type": "Feature", "properties": { "geogrid_id": "3012215238033709925", "seqnum": 19258.0, "lat_c": -12.215237918941499, "lon_c": 33.709925005110044, "res": 8.0, "count_Arachnids": 3, "count_Insects": 42, "count_Amphibians": 4, "count_Reptiles": 12, "count_Basidiomycota": 1, "count_Flowering Plants": 83, "count_Birds": 107, "count_Mammals": 1, "count_Molluscs": 0, "count_Gymnosperms": 1, "count_Mosses": 0, "count_Ferns": 0, "count_Sac Fungi": 0, "unique_species_count": 254.0, "countryCode": "MW" }, "geometry": { "type": "MultiPolygon", "coordinates": [ [ [ [ 34.095942617565079, -11.940943630184066 ], [ 34.228867738461311, -12.401541530288467 ], [ 33.842088886691378, -12.676564067893377 ], [ 33.323432755253485, -12.489007034639483 ], [ 33.190139060586645, -12.028101009635703 ], [ 33.575874986917526, -11.755059936357604 ], [ 34.095942617565079, -11.940943630184066 ] ] ] ] } },
{ "type": "Feature", "properties": { "geogrid_id": "3012863140034360143", "seqnum": 19339.0, "lat_c": -12.863139785839833, "lon_c": 34.360142655866156, "res": 8.0, "count_Arachnids": 9, "count_Insects": 131, "count_Amphibians": 25, "count_Reptiles": 25, "count_Basidiomycota": 0, "count_Flowering Plants": 45, "count_Birds": 122, "count_Mammals": 8, "count_Molluscs": 4, "count_Gymnosperms": 0, "count_Mosses": 0, "count_Ferns": 0, "count_Sac Fungi": 0, "unique_species_count": 369.0, "countryCode": "MW" }, "geometry": { "type": "MultiPolygon", "coordinates": [ [ [ [ 34.747198676531504, -12.586873316762446 ], [ 34.877802291788328, -13.048613775649221 ], [ 34.489947730685607, -13.325607057221728 ], [ 33.972561401820123, -13.138891687298628 ], [ 33.842088886691378, -12.676564067893377 ], [ 34.228867738461311, -12.401541530288467 ], [ 34.747198676531504, -12.586873316762446 ] ] ] ] } },
{ "type": "Feature", "properties": { "geogrid_id": "3012951064033454794", "seqnum": 19257.0, "lat_c": -12.951064331920701, "lon_c": 33.454794217546386, "res": 8.0, "count_Arachnids": 2, "count_Insects": 15, "count_Amphibians": 10, "count_Reptiles": 12, "count_Basidiomycota": 0, "count_Flowering Plants": 39, "count_Birds": 75, "count_Mammals": 4, "count_Molluscs": 6, "count_Gymnosperms": 0, "count_Mosses": 0, "count_Ferns": 0, "count_Sac Fungi": 0, "unique_species_count": 163.0, "countryCode": "MW" }, "geometry": { "type": "MultiPolygon", "coordinates": [ [ [ [ 33.842088886691378, -12.676564067893377 ], [ 33.972561401820123, -13.138891687298628 ], [ 33.584422514617494, -13.414123336305339 ], [ 33.066951931699649, -13.2250367605523 ], [ 32.936435141207603, -12.762245543420891 ], [ 33.323432755253485, -12.489007034639483 ], [ 33.842088886691378, -12.676564067893377 ] ] ] ] } },
{ "type": "Feature", "properties": { "geogrid_id": "3013511106035007141", "seqnum": 19420.0, "lat_c": -13.511105629113828, "lon_c": 35.00714060446758, "res": 8.0, "count_Arachnids": 1, "count_Insects": 16, "count_Amphibians": 0, "count_Reptiles": 7, "count_Basidiomycota": 0, "count_Flowering Plants": 22, "count_Birds": 42, "count_Mammals": 3, "count_Molluscs": 1, "count_Gymnosperms": 0, "count_Mosses": 0, "count_Ferns": 0, "count_Sac Fungi": 0, "unique_species_count": 92.0, "countryCode": "MW" }, "geometry": { "type": "MultiPolygon", "coordinates": [ [ [ [ 35.395253051632935, -13.232881095851699 ], [ 35.524307128943626, -13.695295610906641 ], [ 35.135372700272889, -13.974241015786957 ], [ 34.618453790755702, -13.788823466330719 ], [ 34.489947730685607, -13.325607057221728 ], [ 34.877802291788328, -13.048613775649221 ], [ 35.395253051632935, -13.232881095851699 ] ] ] ] } },
{ "type": "Feature", "properties": { "geogrid_id": "3013602087034101527", "seqnum": 19338.0, "lat_c": -13.60208710490914, "lon_c": 34.101526626786814, "res": 8.0, "count_Arachnids": 18, "count_Insects": 149, "count_Amphibians": 20, "count_Reptiles": 45, "count_Basidiomycota": 0, "count_Flowering Plants": 87, "count_Birds": 195, "count_Mammals": 15, "count_Molluscs": 8, "count_Gymnosperms": 1, "count_Mosses": 0, "count_Ferns": 0, "count_Sac Fungi": 0, "unique_species_count": 538.0, "countryCode": "MW" }, "geometry": { "type": "MultiPolygon", "coordinates": [ [ [ [ 34.489947730685607, -13.325607057221728 ], [ 34.618453790755702, -13.788823466330719 ], [ 34.229158725486172, -14.066028527717013 ], [ 33.712505574820362, -13.878048006986919 ], [ 33.584422514617494, -13.414123336305339 ], [ 33.972561401820123, -13.138891687298628 ], [ 34.489947730685607, -13.325607057221728 ] ] ] ] } },
{ "type": "Feature", "properties": { "geogrid_id": "3013688829033195693", "seqnum": 19256.0, "lat_c": -13.688828979025631, "lon_c": 33.1956931297644, "res": 8.0, "count_Arachnids": 3, "count_Insects": 34, "count_Amphibians": 14, "count_Reptiles": 15, "count_Basidiomycota": 0, "count_Flowering Plants": 52, "count_Birds": 53, "count_Mammals": 0, "count_Molluscs": 0, "count_Gymnosperms": 1, "count_Mosses": 0, "count_Ferns": 0, "count_Sac Fungi": 0, "unique_species_count": 172.0, "countryCode": "MW" }, "geometry": { "type": "MultiPolygon", "coordinates": [ [ [ [ 33.584422514617494, -13.414123336305339 ], [ 33.712505574820362, -13.878048006986919 ], [ 33.32285065870326, -14.153483755513761 ], [ 32.806339875665977, -13.963002784712124 ], [ 32.678529774398726, -13.49847574097063 ], [ 33.066951931699649, -13.2250367605523 ], [ 33.584422514617494, -13.414123336305339 ] ] ] ] } },
{ "type": "Feature", "properties": { "geogrid_id": "3014158259035652434", "seqnum": 19501.0, "lat_c": -14.158259273532044, "lon_c": 35.65243412847812, "res": 8.0, "count_Arachnids": 0, "count_Insects": 8, "count_Amphibians": 4, "count_Reptiles": 9, "count_Basidiomycota": 0, "count_Flowering Plants": 9, "count_Birds": 8, "count_Mammals": 1, "count_Molluscs": 0, "count_Gymnosperms": 0, "count_Mosses": 0, "count_Ferns": 0, "count_Sac Fungi": 0, "unique_species_count": 39.0, "countryCode": "MW" }, "geometry": { "type": "MultiPolygon", "coordinates": [ [ [ [ 36.04159690748353, -13.87809602532568 ], [ 36.169773362125738, -14.340806840393462 ], [ 35.779775627314486, -14.621682944138309 ], [ 35.262649764005083, -14.437921335895782 ], [ 35.135372700272889, -13.974241015786957 ], [ 35.524307128943626, -13.695295610906641 ], [ 36.04159690748353, -13.87809602532568 ] ] ] ] } },
{ "type": "Feature", "properties": { "geogrid_id": "3014252680034745823", "seqnum": 19419.0, "lat_c": -14.25267960657585, "lon_c": 34.745822823155862, "res": 8.0, "count_Arachnids": 17, "count_Insects": 228, "count_Amphibians": 20, "count_Reptiles": 44, "count_Basidiomycota": 0, "count_Flowering Plants": 116, "count_Birds": 184, "count_Mammals": 13, "count_Molluscs": 6, "count_Gymnosperms": 1, "count_Mosses": 2, "count_Ferns": 0, "count_Sac Fungi": 0, "unique_species_count": 631.0, "countryCode": "MW" }, "geometry": { "type": "MultiPolygon", "coordinates": [ [ [ [ 35.135372700272889, -13.974241015786957 ], [ 35.262649764005083, -14.437921335895782 ], [ 34.872208620839736, -14.71707563901832 ], [ 34.355622678607126, -14.530604998917187 ], [ 34.229158725486172, -14.066028527717013 ], [ 34.618453790755702, -13.788823466330719 ], [ 35.135372700272889, -13.974241015786957 ] ] ] ] } },
{ "type": "Feature", "properties": { "geogrid_id": "3014342715033839221", "seqnum": 19337.0, "lat_c": -14.342714618896032, "lon_c": 33.839221012872613, "res": 8.0, "count_Arachnids": 14, "count_Insects": 288, "count_Amphibians": 21, "count_Reptiles": 38, "count_Basidiomycota": 3, "count_Flowering Plants": 209, "count_Birds": 196, "count_Mammals": 11, "count_Molluscs": 5, "count_Gymnosperms": 1, "count_Mosses": 0, "count_Ferns": 3, "count_Sac Fungi": 0, "unique_species_count": 789.0, "countryCode": "MW" }, "geometry": { "type": "MultiPolygon", "coordinates": [ [ [ [ 34.229158725486172, -14.066028527717013 ], [ 34.355622678607126, -14.530604998917187 ], [ 33.964736898672626, -14.808010663098818 ], [ 33.4486057035096, -14.618875418610466 ], [ 33.32285065870326, -14.153483755513761 ], [ 33.712505574820362, -13.878048006986919 ], [ 34.229158725486172, -14.066028527717013 ] ] ] ] } },
{ "type": "Feature", "properties": { "geogrid_id": "3014803901036297323", "seqnum": 19582.0, "lat_c": -14.803901257236824, "lon_c": 36.2973227955545, "res": 8.0, "count_Arachnids": 0, "count_Insects": 0, "count_Amphibians": 0, "count_Reptiles": 0, "count_Basidiomycota": 0, "count_Flowering Plants": 2, "count_Birds": 0, "count_Mammals": 0, "count_Molluscs": 0, "count_Gymnosperms": 0, "count_Mosses": 0, "count_Ferns": 0, "count_Sac Fungi": 0, "unique_species_count": 2.0, "countryCode": "MW" }, "geometry": { "type": "MultiPolygon", "coordinates": [ [ [ [ 36.687512248320488, -14.52181989179376 ], [ 36.815401740085704, -14.984519440450754 ], [ 36.424372336215654, -15.267305153630289 ], [ 35.906466642597366, -15.085485013656028 ], [ 35.779775627314486, -14.621682944138309 ], [ 36.169773362125738, -14.340806840393462 ], [ 36.687512248320488, -14.52181989179376 ] ] ] ] } },
{ "type": "Feature", "properties": { "geogrid_id": "3014902056035389116", "seqnum": 19500.0, "lat_c": -14.902056464894819, "lon_c": 35.389115654957912, "res": 8.0, "count_Arachnids": 9, "count_Insects": 111, "count_Amphibians": 17, "count_Reptiles": 44, "count_Basidiomycota": 1, "count_Flowering Plants": 194, "count_Birds": 276, "count_Mammals": 39, "count_Molluscs": 9, "count_Gymnosperms": 1, "count_Mosses": 0, "count_Ferns": 0, "count_Sac Fungi": 0, "unique_species_count": 701.0, "countryCode": "MW" }, "geometry": { "type": "MultiPolygon", "coordinates": [ [ [ [ 35.779775627314486, -14.621682944138309 ], [ 35.906466642597366, -15.085485013656028 ], [ 35.514907444837476, -15.366564034198968 ], [ 34.997757386423949, -15.181920467087664 ], [ 34.872208620839736, -14.71707563901832 ], [ 35.262649764005083, -14.437921335895782 ], [ 35.779775627314486, -14.621682944138309 ] ] ] ] } },
{ "type": "Feature", "properties": { "geogrid_id": "3014995715034481075", "seqnum": 19418.0, "lat_c": -14.995715447242135, "lon_c": 34.481074963741015, "res": 8.0, "count_Arachnids": 1, "count_Insects": 12, "count_Amphibians": 4, "count_Reptiles": 7, "count_Basidiomycota": 2, "count_Flowering Plants": 56, "count_Birds": 3, "count_Mammals": 0, "count_Molluscs": 0, "count_Gymnosperms": 1, "count_Mosses": 0, "count_Ferns": 0, "count_Sac Fungi": 0, "unique_species_count": 86.0, "countryCode": "MW" }, "geometry": { "type": "MultiPolygon", "coordinates": [ [ [ [ 34.872208620839736, -14.71707563901832 ], [ 34.997757386423949, -15.181920467087664 ], [ 34.605664189536164, -15.461267820406064 ], [ 34.089212473311996, -15.273833846341372 ], [ 33.964736898672626, -14.808010663098818 ], [ 34.355622678607126, -14.530604998917187 ], [ 34.872208620839736, -14.71707563901832 ] ] ] ] } },
{ "type": "Feature", "properties": { "geogrid_id": "3015549591036032636", "seqnum": 19581.0, "lat_c": -15.549590774290508, "lon_c": 36.032636112429316, "res": 8.0, "count_Arachnids": 0, "count_Insects": 17, "count_Amphibians": 3, "count_Reptiles": 2, "count_Basidiomycota": 0, "count_Flowering Plants": 35, "count_Birds": 36, "count_Mammals": 0, "count_Molluscs": 0, "count_Gymnosperms": 0, "count_Mosses": 0, "count_Ferns": 0, "count_Sac Fungi": 0, "unique_species_count": 93.0, "countryCode": "MW" }, "geometry": { "type": "MultiPolygon", "coordinates": [ [ [ [ 36.424372336215654, -15.267305153630289 ], [ 36.551043661091057, -15.730950565113185 ], [ 36.158407346048314, -16.013931842860604 ], [ 35.640155920634626, -15.831368773180252 ], [ 35.514907444837476, -15.366564034198968 ], [ 35.906466642597366, -15.085485013656028 ], [ 36.424372336215654, -15.267305153630289 ] ] ] ] } },
{ "type": "Feature", "properties": { "geogrid_id": "3015647131035122608", "seqnum": 19499.0, "lat_c": -15.647130982941484, "lon_c": 35.122608295892121, "res": 8.0, "count_Arachnids": 39, "count_Insects": 719, "count_Amphibians": 31, "count_Reptiles": 62, "count_Basidiomycota": 17, "count_Flowering Plants": 305, "count_Birds": 309, "count_Mammals": 49, "count_Molluscs": 10, "count_Gymnosperms": 2, "count_Mosses": 4, "count_Ferns": 4, "count_Sac Fungi": 2, "unique_species_count": 1553.0, "countryCode": "MW" }, "geometry": { "type": "MultiPolygon", "coordinates": [ [ [ [ 35.514907444837476, -15.366564034198968 ], [ 35.640155920634626, -15.831368773180252 ], [ 35.246894024870841, -16.112631379123417 ], [ 34.729531686926578, -15.927178295100415 ], [ 34.605664189536164, -15.461267820406064 ], [ 34.997757386423949, -15.181920467087664 ], [ 35.514907444837476, -15.366564034198968 ] ] ] ] } },
{ "type": "Feature", "properties": { "geogrid_id": "3015740091034212799", "seqnum": 19417.0, "lat_c": -15.740091180702748, "lon_c": 34.212798815733819, "res": 8.0, "count_Arachnids": 4, "count_Insects": 67, "count_Amphibians": 3, "count_Reptiles": 20, "count_Basidiomycota": 0, "count_Flowering Plants": 17, "count_Birds": 103, "count_Mammals": 13, "count_Molluscs": 1, "count_Gymnosperms": 0, "count_Mosses": 0, "count_Ferns": 0, "count_Sac Fungi": 0, "unique_species_count": 228.0, "countryCode": "MW" }, "geometry": { "type": "MultiPolygon", "coordinates": [ [ [ [ 34.605664189536164, -15.461267820406064 ], [ 34.729531686926578, -15.927178295100415 ], [ 34.335639463366775, -16.206698155107173 ], [ 33.819123354337378, -16.018382968734841 ], [ 33.696584200924143, -15.55142372532986 ], [ 34.089212473311996, -15.273833846341372 ], [ 34.605664189536164, -15.461267820406064 ] ] ] ] } },
{ "type": "Feature", "properties": { "geogrid_id": "3016296402035764986", "seqnum": 19580.0, "lat_c": -16.296401907081165, "lon_c": 35.764986054781929, "res": 8.0, "count_Arachnids": 8, "count_Insects": 445, "count_Amphibians": 37, "count_Reptiles": 45, "count_Basidiomycota": 3, "count_Flowering Plants": 248, "count_Birds": 88, "count_Mammals": 38, "count_Molluscs": 3, "count_Gymnosperms": 3, "count_Mosses": 0, "count_Ferns": 8, "count_Sac Fungi": 2, "unique_species_count": 928.0, "countryCode": "MW" }, "geometry": { "type": "MultiPolygon", "coordinates": [ [ [ [ 36.158407346048314, -16.013931842860604 ], [ 36.28389844533951, -16.478445632199051 ], [ 35.889517444820648, -16.761600605952445 ], [ 35.370741240020358, -16.578352519719175 ], [ 35.246894024870841, -16.112631379123417 ], [ 35.640155920634626, -15.831368773180252 ], [ 36.158407346048314, -16.013931842860604 ] ] ] ] } },
{ "type": "Feature", "properties": { "geogrid_id": "3016393371034852812", "seqnum": 19498.0, "lat_c": -16.393370556637073, "lon_c": 34.852812060343815, "res": 8.0, "count_Arachnids": 10, "count_Insects": 206, "count_Amphibians": 26, "count_Reptiles": 37, "count_Basidiomycota": 1, "count_Flowering Plants": 46, "count_Birds": 251, "count_Mammals": 48, "count_Molluscs": 1, "count_Gymnosperms": 0, "count_Mosses": 0, "count_Ferns": 0, "count_Sac Fungi": 0, "unique_species_count": 626.0, "countryCode": "MW" }, "geometry": { "type": "MultiPolygon", "coordinates": [ [ [ [ 35.246894024870841, -16.112631379123417 ], [ 35.370741240020358, -16.578352519719175 ], [ 34.975633701689503, -16.859775141941366 ], [ 34.457870989925148, -16.673577981176251 ], [ 34.335639463366775, -16.206698155107173 ], [ 34.729531686926578, -15.927178295100415 ], [ 35.246894024870841, -16.112631379123417 ] ] ] ] } },
{ "type": "Feature", "properties": { "geogrid_id": "3017044231035494271", "seqnum": 19579.0, "lat_c": -17.044231365714204, "lon_c": 35.494271057961612, "res": 8.0, "count_Arachnids": 4, "count_Insects": 31, "count_Amphibians": 6, "count_Reptiles": 17, "count_Basidiomycota": 0, "count_Flowering Plants": 2, "count_Birds": 61, "count_Mammals": 2, "count_Molluscs": 0, "count_Gymnosperms": 0, "count_Mosses": 0, "count_Ferns": 0, "count_Sac Fungi": 0, "unique_species_count": 123.0, "countryCode": "MW" }, "geometry": { "type": "MultiPolygon", "coordinates": [ [ [ [ 35.889517444820648, -16.761600605952445 ], [ 36.013864724692731, -17.226907480143495 ], [ 35.617599474035359, -17.51021044972082 ], [ 35.098119269706636, -17.326328840155373 ], [ 34.975633701689503, -16.859775141941366 ], [ 35.370741240020358, -16.578352519719175 ], [ 35.889517444820648, -16.761600605952445 ] ] ] ] } }
]
}
