{
"type": "FeatureCollection",
"name": "NE",
"crs": { "type": "name", "properties": { "name": "urn:ogc:def:crs:OGC:1.3:CRS84" } },
"features": [
{ "type": "Feature", "properties": { "geogrid_id": "711784234003834878", "seqnum": 5037.0, "lat_c": 11.784234144184895, "lon_c": 3.8348781971252981, "res": 7.0, "count_Amphibians": 0, "count_Flowering Plants": 2, "count_Mammals": 4, "count_Birds": 1, "count_Insects": 12, "count_Reptiles": 0, "count_Mosses": 0, "count_Arachnids": 0, "count_Basidiomycota": 0, "count_Ferns": 0, "count_Molluscs": 0, "unique_species_count": 19.0, "countryCode": "NE" }, "geometry": { "type": "MultiPolygon", "coordinates": [ [ [ [ 4.227501531031873, 12.563424007781402 ], [ 4.646869555665653, 11.757324526071946 ], [ 4.254581580536074, 10.980317871314428 ], [ 3.444165898234353, 11.004509908366595 ], [ 3.027516944393145, 11.814227329124593 ], [ 3.419281897781707, 12.596949239526067 ], [ 4.227501531031873, 12.563424007781402 ] ] ] ] } },
{ "type": "Feature", "properties": { "geogrid_id": "712431931012500487", "seqnum": 5310.0, "lat_c": 12.43193102171025, "lon_c": 12.500486534811083, "res": 7.0, "count_Amphibians": 0, "count_Flowering Plants": 0, "count_Mammals": 5, "count_Birds": 0, "count_Insects": 0, "count_Reptiles": 0, "count_Mosses": 0, "count_Arachnids": 0, "count_Basidiomycota": 0, "count_Ferns": 0, "count_Molluscs": 0, "unique_species_count": 5.0, "countryCode": "NE" }, "geometry": { "type": "MultiPolygon", "coordinates": [ [ [ [ 12.922653357347224, 13.208558905818041 ], [ 13.333061179620737, 12.439493402695049 ], [ 12.911428942931055, 11.661787138540765 ], [ 12.080983465940289, 11.656987040036556 ], [ 11.666937281617349, 12.428147602269702 ], [ 12.086726193573536, 13.201823370444393 ], [ 12.922653357347224, 13.208558905818041 ] ] ] ] } },
{ "type": "Feature", "properties": { "geogrid_id": "712634064002616883", "seqnum": 4982.0, "lat_c": 12.634063931869004, "lon_c": 2.6168825341706259, "res": 7.0, "count_Amphibians": 5, "count_Flowering Plants": 63, "count_Mammals": 29, "count_Birds": 23, "count_Insects": 45, "count_Reptiles": 14, "count_Mosses": 0, "count_Arachnids": 0, "count_Basidiomycota": 0, "count_Ferns": 0, "count_Molluscs": 0, "unique_species_count": 179.0, "countryCode": "NE" }, "geometry": { "type": "MultiPolygon", "coordinates": [ [ [ [ 3.011534338060682, 13.421451776301836 ], [ 3.419281897781707, 12.596949239526067 ], [ 3.027516944393145, 11.814227329124593 ], [ 2.225246511892391, 11.847277355832102 ], [ 1.820832021683049, 12.674726765015411 ], [ 2.216880384309745, 13.467354157568076 ], [ 3.011534338060682, 13.421451776301836 ] ] ] ] } },
{ "type": "Feature", "properties": { "geogrid_id": "713199577011250000", "seqnum": 5256.0, "lat_c": 13.199577057250043, "lon_c": 11.250000000432197, "res": 7.0, "count_Amphibians": 0, "count_Flowering Plants": 1, "count_Mammals": 4, "count_Birds": 1, "count_Insects": 1, "count_Reptiles": 2, "count_Mosses": 0, "count_Arachnids": 0, "count_Basidiomycota": 0, "count_Ferns": 0, "count_Molluscs": 0, "unique_species_count": 9.0, "countryCode": "NE" }, "geometry": { "type": "MultiPolygon", "coordinates": [ [ [ [ 11.669953561542604, 13.971800752875556 ], [ 12.086726193573536, 13.201823370444393 ], [ 11.666937281617349, 12.428147602269702 ], [ 10.833062719330162, 12.428147602267552 ], [ 10.41327380729104, 13.201823370439749 ], [ 10.830046439238268, 13.97180075287306 ], [ 11.669953561542604, 13.971800752875556 ] ] ] ] } },
{ "type": "Feature", "properties": { "geogrid_id": "713219773008743014", "seqnum": 5174.0, "lat_c": 13.219773470789386, "lon_c": 8.7430135987102009, "res": 7.0, "count_Amphibians": 1, "count_Flowering Plants": 9, "count_Mammals": 0, "count_Birds": 2, "count_Insects": 10, "count_Reptiles": 6, "count_Mosses": 0, "count_Arachnids": 0, "count_Basidiomycota": 0, "count_Ferns": 0, "count_Molluscs": 0, "unique_species_count": 28.0, "countryCode": "NE" }, "geometry": { "type": "MultiPolygon", "coordinates": [ [ [ [ 9.152735075027971, 13.987893598664185 ], [ 9.577346643517911, 13.208558905808742 ], [ 9.166938821327815, 12.439493402684274 ], [ 8.335984140113544, 12.450825850122026 ], [ 7.911061928729223, 13.235450144340442 ], [ 8.317320291360252, 14.003954641004157 ], [ 9.152735075027971, 13.987893598664185 ] ] ] ] } },
{ "type": "Feature", "properties": { "geogrid_id": "713219773013756986", "seqnum": 5338.0, "lat_c": 13.219773470803364, "lon_c": 13.756986402155857, "res": 7.0, "count_Amphibians": 0, "count_Flowering Plants": 0, "count_Mammals": 4, "count_Birds": 0, "count_Insects": 0, "count_Reptiles": 0, "count_Mosses": 0, "count_Arachnids": 0, "count_Basidiomycota": 0, "count_Ferns": 0, "count_Molluscs": 0, "unique_species_count": 4.0, "countryCode": "NE" }, "geometry": { "type": "MultiPolygon", "coordinates": [ [ [ [ 14.182679709423008, 14.003954641021739 ], [ 14.588938072138095, 13.235450144359135 ], [ 14.164015860836033, 12.450825850137145 ], [ 13.333061179620737, 12.439493402695049 ], [ 12.922653357347224, 13.208558905818041 ], [ 13.347264925754112, 13.987893598676706 ], [ 14.182679709423008, 14.003954641021739 ] ] ] ] } },
{ "type": "Feature", "properties": { "geogrid_id": "713280089006257390", "seqnum": 5092.0, "lat_c": 13.280089122400968, "lon_c": 6.2573898817228173, "res": 7.0, "count_Amphibians": 0, "count_Flowering Plants": 2, "count_Mammals": 2, "count_Birds": 3, "count_Insects": 0, "count_Reptiles": 0, "count_Mosses": 0, "count_Arachnids": 0, "count_Basidiomycota": 0, "count_Ferns": 0, "count_Molluscs": 0, "unique_species_count": 7.0, "countryCode": "NE" }, "geometry": { "type": "MultiPolygon", "coordinates": [ [ [ [ 6.657841886622557, 14.051948385440557 ], [ 7.082267252384259, 13.255565375932235 ], [ 6.681480905438717, 12.484743445333139 ], [ 5.859180386969448, 12.507289087594971 ], [ 5.437171326128688, 13.308985020991225 ], [ 5.835660244735826, 14.083787817234281 ], [ 6.657841886622557, 14.051948385440557 ] ] ] ] } },
{ "type": "Feature", "properties": { "geogrid_id": "713379717003813563", "seqnum": 5010.0, "lat_c": 13.379717499955113, "lon_c": 3.8135632147531129, "res": 7.0, "count_Amphibians": 0, "count_Flowering Plants": 9, "count_Mammals": 6, "count_Birds": 0, "count_Insects": 0, "count_Reptiles": 4, "count_Mosses": 0, "count_Arachnids": 0, "count_Basidiomycota": 0, "count_Ferns": 0, "count_Molluscs": 0, "unique_species_count": 19.0, "countryCode": "NE" }, "geometry": { "type": "MultiPolygon", "coordinates": [ [ [ [ 4.210889520330409, 14.162847139641251 ], [ 4.622331006896532, 13.342210596486908 ], [ 4.227501531031873, 12.563424007781402 ], [ 3.419281897781707, 12.596949239526067 ], [ 3.011534338060682, 13.421451776301836 ], [ 3.409980896869035, 14.209918413810295 ], [ 4.210889520330409, 14.162847139641251 ] ] ] ] } },
{ "type": "Feature", "properties": { "geogrid_id": "713517360001430205", "seqnum": 4928.0, "lat_c": 13.517360378683314, "lon_c": 1.43020481213492, "res": 7.0, "count_Amphibians": 3, "count_Flowering Plants": 43, "count_Mammals": 16, "count_Birds": 43, "count_Insects": 52, "count_Reptiles": 11, "count_Mosses": 0, "count_Arachnids": 1, "count_Basidiomycota": 0, "count_Ferns": 0, "count_Molluscs": 0, "unique_species_count": 169.0, "countryCode": "NE" }, "geometry": { "type": "MultiPolygon", "coordinates": [ [ [ [ 1.834995031170398, 14.318711992713425 ], [ 2.216880384309745, 13.467354157568076 ], [ 1.820832021683049, 12.674726765015411 ], [ 1.031635676188124, 12.71889300408276 ], [ 0.652076685617541, 13.571401512242657 ], [ 1.062326610427535, 14.380239607834925 ], [ 1.834995031170398, 14.318711992713425 ] ] ] ] } },
{ "type": "Feature", "properties": { "geogrid_id": "713977169009990641", "seqnum": 5202.0, "lat_c": 13.977168577468479, "lon_c": 9.9906405068431408, "res": 7.0, "count_Amphibians": 1, "count_Flowering Plants": 9, "count_Mammals": 2, "count_Birds": 6, "count_Insects": 5, "count_Reptiles": 12, "count_Mosses": 0, "count_Arachnids": 0, "count_Basidiomycota": 0, "count_Ferns": 0, "count_Molluscs": 0, "unique_species_count": 35.0, "countryCode": "NE" }, "geometry": { "type": "MultiPolygon", "coordinates": [ [ [ [ 10.407042454023214, 14.745605775295509 ], [ 10.830046439238268, 13.97180075287306 ], [ 10.41327380729104, 13.201823370439749 ], [ 9.577346643517911, 13.208558905808742 ], [ 9.152735075027971, 13.987893598664185 ], [ 9.565371983307083, 14.755312377271185 ], [ 10.407042454023214, 14.745605775295509 ] ] ] ] } },
{ "type": "Feature", "properties": { "geogrid_id": "713977169012509359", "seqnum": 5284.0, "lat_c": 13.977168577475975, "lon_c": 12.509359493938138, "res": 7.0, "count_Amphibians": 0, "count_Flowering Plants": 0, "count_Mammals": 4, "count_Birds": 0, "count_Insects": 8, "count_Reptiles": 5, "count_Mosses": 0, "count_Arachnids": 0, "count_Basidiomycota": 0, "count_Ferns": 0, "count_Molluscs": 0, "unique_species_count": 17.0, "countryCode": "NE" }, "geometry": { "type": "MultiPolygon", "coordinates": [ [ [ [ 12.934628017390533, 14.755312377281919 ], [ 13.347264925754112, 13.987893598676706 ], [ 12.922653357347224, 13.208558905818041 ], [ 12.086726193573536, 13.201823370444393 ], [ 11.669953561542604, 13.971800752875556 ], [ 12.092957546673738, 14.745605775300866 ], [ 12.934628017390533, 14.755312377281919 ] ] ] ] } },
{ "type": "Feature", "properties": { "geogrid_id": "714025320007485371", "seqnum": 5120.0, "lat_c": 14.025320141362942, "lon_c": 7.4853711782096521, "res": 7.0, "count_Amphibians": 0, "count_Flowering Plants": 5, "count_Mammals": 3, "count_Birds": 2, "count_Insects": 5, "count_Reptiles": 0, "count_Mosses": 0, "count_Arachnids": 0, "count_Basidiomycota": 0, "count_Ferns": 0, "count_Molluscs": 0, "unique_species_count": 15.0, "countryCode": "NE" }, "geometry": { "type": "MultiPolygon", "coordinates": [ [ [ [ 7.890980721331885, 14.794010849377273 ], [ 8.317320291360252, 14.003954641004157 ], [ 7.911061928729223, 13.235450144340442 ], [ 7.082267252384259, 13.255565375932235 ], [ 6.657841886622557, 14.051948385440557 ], [ 7.060745125773824, 14.822901436740468 ], [ 7.890980721331885, 14.794010849377273 ] ] ] ] } },
{ "type": "Feature", "properties": { "geogrid_id": "714120777005019723", "seqnum": 5038.0, "lat_c": 14.120777416673, "lon_c": 5.0197226718617456, "res": 7.0, "count_Amphibians": 0, "count_Flowering Plants": 4, "count_Mammals": 1, "count_Birds": 4, "count_Insects": 7, "count_Reptiles": 3, "count_Mosses": 0, "count_Arachnids": 0, "count_Basidiomycota": 0, "count_Ferns": 0, "count_Molluscs": 0, "unique_species_count": 19.0, "countryCode": "NE" }, "geometry": { "type": "MultiPolygon", "coordinates": [ [ [ [ 5.420134390628261, 14.899392778097276 ], [ 5.835660244735826, 14.083787817234281 ], [ 5.437171326128688, 13.308985020991225 ], [ 4.622331006896532, 13.342210596486908 ], [ 4.210889520330409, 14.162847139641251 ], [ 4.611991797960245, 14.946799788617767 ], [ 5.420134390628261, 14.899392778097276 ] ] ] ] } },
{ "type": "Feature", "properties": { "geogrid_id": "714261905002617773", "seqnum": 4956.0, "lat_c": 14.261904683048547, "lon_c": 2.617773004112256, "res": 7.0, "count_Amphibians": 0, "count_Flowering Plants": 2, "count_Mammals": 4, "count_Birds": 1, "count_Insects": 2, "count_Reptiles": 0, "count_Mosses": 0, "count_Arachnids": 0, "count_Basidiomycota": 0, "count_Ferns": 0, "count_Molluscs": 0, "unique_species_count": 9.0, "countryCode": "NE" }, "geometry": { "type": "MultiPolygon", "coordinates": [ [ [ [ 3.025170629084537, 15.059351122881605 ], [ 3.409980896869035, 14.209918413810295 ], [ 3.011534338060682, 13.421451776301836 ], [ 2.216880384309745, 13.467354157568076 ], [ 1.834995031170398, 14.318711992713425 ], [ 2.248346930976536, 15.124225310134644 ], [ 3.025170629084537, 15.059351122881605 ] ] ] ] } },
{ "type": "Feature", "properties": { "geogrid_id": "714446381000300396", "seqnum": 4874.0, "lat_c": 14.446380655723649, "lon_c": 0.30039584477988601, "res": 7.0, "count_Amphibians": 0, "count_Flowering Plants": 0, "count_Mammals": 3, "count_Birds": 1, "count_Insects": 1, "count_Reptiles": 0, "count_Mosses": 0, "count_Arachnids": 0, "count_Basidiomycota": 0, "count_Ferns": 0, "count_Molluscs": 0, "unique_species_count": 5.0, "countryCode": "NE" }, "geometry": { "type": "MultiPolygon", "coordinates": [ [ [ [ 0.541341458598478, 15.149713065633023 ], [ 1.062326610427535, 14.380239607834925 ], [ 0.652076685617541, 13.571401512242657 ], [ -0.11697084278464, 13.629404318784211 ], [ -0.639598594457398, 14.395325874614993 ], [ -0.391402800378309, 15.105598815424221 ], [ 0.541341458598478, 15.149713065633023 ] ] ] ] } },
{ "type": "Feature", "properties": { "geogrid_id": "714742367011250000", "seqnum": 5229.0, "lat_c": 14.742367383107013, "lon_c": 11.250000000348365, "res": 7.0, "count_Amphibians": 0, "count_Flowering Plants": 0, "count_Mammals": 1, "count_Birds": 0, "count_Insects": 0, "count_Reptiles": 4, "count_Mosses": 0, "count_Arachnids": 0, "count_Basidiomycota": 0, "count_Ferns": 0, "count_Molluscs": 0, "unique_species_count": 5.0, "countryCode": "NE" }, "geometry": { "type": "MultiPolygon", "coordinates": [ [ [ [ 11.673230626199413, 15.514315489969556 ], [ 12.092957546673738, 14.745605775300866 ], [ 11.669953561542604, 13.971800752875556 ], [ 10.830046439238268, 13.97180075287306 ], [ 10.407042454023214, 14.745605775295509 ], [ 10.826769374412716, 15.514315489966693 ], [ 11.673230626199413, 15.514315489969556 ] ] ] ] } },
{ "type": "Feature", "properties": { "geogrid_id": "714771462008726266", "seqnum": 5147.0, "lat_c": 14.771461550863958, "lon_c": 8.7262656582768461, "res": 7.0, "count_Amphibians": 0, "count_Flowering Plants": 4, "count_Mammals": 4, "count_Birds": 5, "count_Insects": 3, "count_Reptiles": 0, "count_Mosses": 0, "count_Arachnids": 0, "count_Basidiomycota": 0, "count_Ferns": 0, "count_Molluscs": 0, "unique_species_count": 16.0, "countryCode": "NE" }, "geometry": { "type": "MultiPolygon", "coordinates": [ [ [ [ 9.138110578724254, 15.538020395645551 ], [ 9.565371983307083, 14.755312377271185 ], [ 9.152735075027971, 13.987893598664185 ], [ 8.317320291360252, 14.003954641004157 ], [ 7.890980721331885, 14.794010849377273 ], [ 8.299287591522383, 15.561639360371421 ], [ 9.138110578724254, 15.538020395645551 ] ] ] ] } },
{ "type": "Feature", "properties": { "geogrid_id": "714771462013773734", "seqnum": 5311.0, "lat_c": 14.77146155088011, "lon_c": 13.773734342421852, "res": 7.0, "count_Amphibians": 0, "count_Flowering Plants": 1, "count_Mammals": 0, "count_Birds": 0, "count_Insects": 0, "count_Reptiles": 3, "count_Mosses": 0, "count_Arachnids": 0, "count_Basidiomycota": 0, "count_Ferns": 0, "count_Molluscs": 0, "unique_species_count": 4.0, "countryCode": "NE" }, "geometry": { "type": "MultiPolygon", "coordinates": [ [ [ [ 14.200712409092612, 15.561639360391652 ], [ 14.609019279368276, 14.794010849398902 ], [ 14.182679709423008, 14.003954641021739 ], [ 13.347264925754112, 13.987893598676706 ], [ 12.934628017390533, 14.755312377281919 ], [ 13.361889421889341, 15.538020395659935 ], [ 14.200712409092612, 15.561639360391652 ] ] ] ] } },
{ "type": "Feature", "properties": { "geogrid_id": "714858059006236749", "seqnum": 5065.0, "lat_c": 14.858058662093852, "lon_c": 6.2367486006681316, "res": 7.0, "count_Amphibians": 0, "count_Flowering Plants": 2, "count_Mammals": 2, "count_Birds": 6, "count_Insects": 1, "count_Reptiles": 0, "count_Mosses": 0, "count_Arachnids": 0, "count_Basidiomycota": 0, "count_Ferns": 0, "count_Molluscs": 0, "unique_species_count": 11.0, "countryCode": "NE" }, "geometry": { "type": "MultiPolygon", "coordinates": [ [ [ [ 6.640797585201488, 15.631987500853468 ], [ 7.060745125773824, 14.822901436740468 ], [ 6.657841886622557, 14.051948385440557 ], [ 5.835660244735826, 14.083787817234281 ], [ 5.420134390628261, 14.899392778097276 ], [ 5.824205332378513, 15.678469047797629 ], [ 6.640797585201488, 15.631987500853468 ] ] ] ] } },
{ "type": "Feature", "properties": { "geogrid_id": "715000162003813350", "seqnum": 4983.0, "lat_c": 15.000162409297268, "lon_c": 3.8133496301472891, "res": 7.0, "count_Amphibians": 0, "count_Flowering Plants": 3, "count_Mammals": 3, "count_Birds": 1, "count_Insects": 0, "count_Reptiles": 0, "count_Mosses": 0, "count_Arachnids": 0, "count_Basidiomycota": 0, "count_Ferns": 0, "count_Molluscs": 0, "unique_species_count": 7.0, "countryCode": "NE" }, "geometry": { "type": "MultiPolygon", "coordinates": [ [ [ [ 4.223396210669107, 15.793250761172876 ], [ 4.611991797960245, 14.946799788617767 ], [ 4.210889520330409, 14.162847139641251 ], [ 3.409980896869035, 14.209918413810295 ], [ 3.025170629084537, 15.059351122881605 ], [ 3.441715384596957, 15.861169733287008 ], [ 4.223396210669107, 15.793250761172876 ] ] ] ] } },
{ "type": "Feature", "properties": { "geogrid_id": "715194634001483697", "seqnum": 4901.0, "lat_c": 15.194634436308121, "lon_c": 1.483696577127555, "res": 7.0, "count_Amphibians": 0, "count_Flowering Plants": 0, "count_Mammals": 6, "count_Birds": 3, "count_Insects": 0, "count_Reptiles": 0, "count_Mosses": 0, "count_Arachnids": 0, "count_Basidiomycota": 0, "count_Ferns": 0, "count_Molluscs": 0, "unique_species_count": 9.0, "countryCode": "NE" }, "geometry": { "type": "MultiPolygon", "coordinates": [ [ [ [ 1.729283167717336, 15.897260315717041 ], [ 2.248346930976536, 15.124225310134644 ], [ 1.834995031170398, 14.318711992713425 ], [ 1.062326610427535, 14.380239607834925 ], [ 0.541341458598478, 15.149713065633023 ], [ 0.795154043137213, 15.859864377169282 ], [ 1.729283167717336, 15.897260315717041 ] ] ] ] } },
{ "type": "Feature", "properties": { "geogrid_id": "715522227009981163", "seqnum": 5175.0, "lat_c": 15.522226717335919, "lon_c": 9.9811626079824034, "res": 7.0, "count_Amphibians": 0, "count_Flowering Plants": 0, "count_Mammals": 0, "count_Birds": 0, "count_Insects": 0, "count_Reptiles": 1, "count_Mosses": 0, "count_Arachnids": 0, "count_Basidiomycota": 0, "count_Ferns": 0, "count_Molluscs": 0, "unique_species_count": 1.0, "countryCode": "NE" }, "geometry": { "type": "MultiPolygon", "coordinates": [ [ [ [ 10.400362044591516, 16.288964639637577 ], [ 10.826769374412716, 15.514315489966693 ], [ 10.407042454023214, 14.745605775295509 ], [ 9.565371983307083, 14.755312377271185 ], [ 9.138110578724254, 15.538020395645551 ], [ 9.553082626318307, 16.303712101209381 ], [ 10.400362044591516, 16.288964639637577 ] ] ] ] } },
{ "type": "Feature", "properties": { "geogrid_id": "715522227012518837", "seqnum": 5257.0, "lat_c": 15.52222671734452, "lon_c": 12.518837392630221, "res": 7.0, "count_Amphibians": 0, "count_Flowering Plants": 0, "count_Mammals": 1, "count_Birds": 0, "count_Insects": 0, "count_Reptiles": 3, "count_Mosses": 0, "count_Arachnids": 0, "count_Basidiomycota": 0, "count_Ferns": 0, "count_Molluscs": 0, "unique_species_count": 4.0, "countryCode": "NE" }, "geometry": { "type": "MultiPolygon", "coordinates": [ [ [ [ 12.946917374209605, 16.303712101221645 ], [ 13.361889421889341, 15.538020395659935 ], [ 12.934628017390533, 14.755312377281919 ], [ 12.092957546673738, 14.745605775300866 ], [ 11.673230626199413, 15.514315489969556 ], [ 12.099637955935565, 16.288964639643687 ], [ 12.946917374209605, 16.303712101221645 ] ] ] ] } },
{ "type": "Feature", "properties": { "geogrid_id": "715592999007466325", "seqnum": 5093.0, "lat_c": 15.592998824620546, "lon_c": 7.4663253964950336, "res": 7.0, "count_Amphibians": 0, "count_Flowering Plants": 2, "count_Mammals": 0, "count_Birds": 3, "count_Insects": 0, "count_Reptiles": 0, "count_Mosses": 0, "count_Arachnids": 0, "count_Basidiomycota": 1, "count_Ferns": 0, "count_Molluscs": 1, "unique_species_count": 7.0, "countryCode": "NE" }, "geometry": { "type": "MultiPolygon", "coordinates": [ [ [ [ 7.874838009477471, 16.36232119683584 ], [ 8.299287591522383, 15.561639360371421 ], [ 7.890980721331885, 14.794010849377273 ], [ 7.060745125773824, 14.822901436740468 ], [ 6.640797585201488, 15.631987500853468 ], [ 7.048301329939251, 16.405884237832776 ], [ 7.874838009477471, 16.36232119683584 ] ] ] ] } },
{ "type": "Feature", "properties": { "geogrid_id": "715732284005017965", "seqnum": 5011.0, "lat_c": 15.732283803745663, "lon_c": 5.0179647693737248, "res": 7.0, "count_Amphibians": 0, "count_Flowering Plants": 0, "count_Mammals": 1, "count_Birds": 1, "count_Insects": 0, "count_Reptiles": 0, "count_Mosses": 0, "count_Arachnids": 0, "count_Basidiomycota": 0, "count_Ferns": 0, "count_Molluscs": 0, "unique_species_count": 2.0, "countryCode": "NE" }, "geometry": { "type": "MultiPolygon", "coordinates": [ [ [ [ 5.430608679789968, 16.520447860745151 ], [ 5.824205332378513, 15.678469047797629 ], [ 5.420134390628261, 14.899392778097276 ], [ 4.611991797960245, 14.946799788617767 ], [ 4.223396210669107, 15.793250761172876 ], [ 4.643095845241637, 16.590899487576102 ], [ 5.430608679789968, 16.520447860745151 ] ] ] ] } },
{ "type": "Feature", "properties": { "geogrid_id": "716284040011250000", "seqnum": 5203.0, "lat_c": 16.284040271715917, "lon_c": 11.2500000002634, "res": 7.0, "count_Amphibians": 0, "count_Flowering Plants": 0, "count_Mammals": 4, "count_Birds": 0, "count_Insects": 0, "count_Reptiles": 10, "count_Mosses": 0, "count_Arachnids": 0, "count_Basidiomycota": 0, "count_Ferns": 0, "count_Molluscs": 0, "unique_species_count": 14.0, "countryCode": "NE" }, "geometry": { "type": "MultiPolygon", "coordinates": [ [ [ [ 11.676764923788889, 17.056118301630338 ], [ 12.099637955935565, 16.288964639643687 ], [ 11.673230626199413, 15.514315489969556 ], [ 10.826769374412716, 15.514315489966693 ], [ 10.400362044591516, 16.288964639637577 ], [ 10.823235076652072, 17.056118301627087 ], [ 11.676764923788889, 17.056118301630338 ] ] ] ] } },
{ "type": "Feature", "properties": { "geogrid_id": "716328206008710488", "seqnum": 5121.0, "lat_c": 16.328206217534198, "lon_c": 8.7104875139716871, "res": 7.0, "count_Amphibians": 0, "count_Flowering Plants": 0, "count_Mammals": 0, "count_Birds": 0, "count_Insects": 1, "count_Reptiles": 5, "count_Mosses": 0, "count_Arachnids": 0, "count_Basidiomycota": 0, "count_Ferns": 0, "count_Molluscs": 0, "unique_species_count": 6.0, "countryCode": "NE" }, "geometry": { "type": "MultiPolygon", "coordinates": [ [ [ [ 9.124780584632465, 17.093710572876539 ], [ 9.553082626318307, 16.303712101209381 ], [ 9.138110578724254, 15.538020395645551 ], [ 8.299287591522383, 15.561639360371421 ], [ 7.874838009477471, 16.36232119683584 ], [ 8.286595947516291, 17.131010225158438 ], [ 9.124780584632465, 17.093710572876539 ] ] ] ] } },
{ "type": "Feature", "properties": { "geogrid_id": "716328206013789512", "seqnum": 5285.0, "lat_c": 16.32820621755269, "lon_c": 13.78951248655755, "res": 7.0, "count_Amphibians": 0, "count_Flowering Plants": 0, "count_Mammals": 0, "count_Birds": 0, "count_Insects": 1, "count_Reptiles": 2, "count_Mosses": 0, "count_Arachnids": 0, "count_Basidiomycota": 0, "count_Ferns": 0, "count_Molluscs": 0, "unique_species_count": 3.0, "countryCode": "NE" }, "geometry": { "type": "MultiPolygon", "coordinates": [ [ [ [ 14.213404052928269, 17.131010225181573 ], [ 14.625161991053499, 16.362321196860666 ], [ 14.200712409092612, 15.561639360391652 ], [ 13.361889421889341, 15.538020395659935 ], [ 12.946917374209605, 16.303712101221645 ], [ 13.375219415810388, 17.093710572892935 ], [ 14.213404052928269, 17.131010225181573 ] ] ] ] } },
{ "type": "Feature", "properties": { "geogrid_id": "716458679006232924", "seqnum": 5039.0, "lat_c": 16.458678682554542, "lon_c": 6.2329239575052302, "res": 7.0, "count_Amphibians": 0, "count_Flowering Plants": 0, "count_Mammals": 2, "count_Birds": 0, "count_Insects": 0, "count_Reptiles": 0, "count_Mosses": 0, "count_Arachnids": 0, "count_Basidiomycota": 0, "count_Ferns": 0, "count_Molluscs": 0, "unique_species_count": 2.0, "countryCode": "NE" }, "geometry": { "type": "MultiPolygon", "coordinates": [ [ [ [ 6.648022619670438, 17.241201850364813 ], [ 7.048301329939251, 16.405884237832776 ], [ 6.640797585201488, 15.631987500853468 ], [ 5.824205332378513, 15.678469047797629 ], [ 5.430608679789968, 16.520447860745151 ], [ 5.85323156884761, 17.313286490093422 ], [ 6.648022619670438, 17.241201850364813 ] ] ] ] } },
{ "type": "Feature", "properties": { "geogrid_id": "716669710003871949", "seqnum": 4957.0, "lat_c": 16.669710463771114, "lon_c": 3.8719491427705659, "res": 7.0, "count_Amphibians": 0, "count_Flowering Plants": 1, "count_Mammals": 0, "count_Birds": 0, "count_Insects": 0, "count_Reptiles": 0, "count_Mosses": 0, "count_Arachnids": 0, "count_Basidiomycota": 0, "count_Ferns": 0, "count_Molluscs": 0, "unique_species_count": 1.0, "countryCode": "NE" }, "geometry": { "type": "MultiPolygon", "coordinates": [ [ [ [ 4.12877522735309, 17.371039606900361 ], [ 4.643095845241637, 16.590899487576102 ], [ 4.223396210669107, 15.793250761172876 ], [ 3.441715384596957, 15.861169733287008 ], [ 2.924866588511175, 16.637765903212649 ], [ 3.192738893799186, 17.348089804813611 ], [ 4.12877522735309, 17.371039606900361 ] ] ] ] } },
{ "type": "Feature", "properties": { "geogrid_id": "717068682009971433", "seqnum": 5148.0, "lat_c": 17.068681879392805, "lon_c": 9.9714332124478293, "res": 7.0, "count_Amphibians": 0, "count_Flowering Plants": 2, "count_Mammals": 1, "count_Birds": 1, "count_Insects": 1, "count_Reptiles": 0, "count_Mosses": 18, "count_Arachnids": 0, "count_Basidiomycota": 0, "count_Ferns": 2, "count_Molluscs": 0, "unique_species_count": 25.0, "countryCode": "NE" }, "geometry": { "type": "MultiPolygon", "coordinates": [ [ [ [ 10.393454451573993, 17.833221794802324 ], [ 10.823235076652072, 17.056118301627087 ], [ 10.400362044591516, 16.288964639637577 ], [ 9.553082626318307, 16.303712101209381 ], [ 9.124780584632465, 17.093710572876539 ], [ 9.542371637987642, 17.858150108779178 ], [ 10.393454451573993, 17.833221794802324 ] ] ] ] } },
{ "type": "Feature", "properties": { "geogrid_id": "717068682012528567", "seqnum": 5230.0, "lat_c": 17.068681879402586, "lon_c": 12.528566787993784, "res": 7.0, "count_Amphibians": 0, "count_Flowering Plants": 0, "count_Mammals": 1, "count_Birds": 0, "count_Insects": 0, "count_Reptiles": 2, "count_Mosses": 0, "count_Arachnids": 0, "count_Basidiomycota": 0, "count_Ferns": 0, "count_Molluscs": 0, "unique_species_count": 3.0, "countryCode": "NE" }, "geometry": { "type": "MultiPolygon", "coordinates": [ [ [ [ 12.957628362368157, 17.858150108793101 ], [ 13.375219415810388, 17.093710572892935 ], [ 12.946917374209605, 16.303712101221645 ], [ 12.099637955935565, 16.288964639643687 ], [ 11.676764923788889, 17.056118301630338 ], [ 12.106545548780673, 17.833221794809241 ], [ 12.957628362368157, 17.858150108793101 ] ] ] ] } },
{ "type": "Feature", "properties": { "geogrid_id": "717180296007460033", "seqnum": 5066.0, "lat_c": 17.180296358519243, "lon_c": 7.4600325455123944, "res": 7.0, "count_Amphibians": 1, "count_Flowering Plants": 8, "count_Mammals": 9, "count_Birds": 11, "count_Insects": 13, "count_Reptiles": 14, "count_Mosses": 0, "count_Arachnids": 0, "count_Basidiomycota": 0, "count_Ferns": 0, "count_Molluscs": 0, "unique_species_count": 56.0, "countryCode": "NE" }, "geometry": { "type": "MultiPolygon", "coordinates": [ [ [ [ 7.877434469727597, 17.956295903001095 ], [ 8.286595947516291, 17.131010225158438 ], [ 7.874838009477471, 16.36232119683584 ], [ 7.048301329939251, 16.405884237832776 ], [ 6.648022619670438, 17.241201850364813 ], [ 7.073043837686508, 18.028317229793362 ], [ 7.877434469727597, 17.956295903001095 ] ] ] ] } },
{ "type": "Feature", "properties": { "geogrid_id": "717824877011250000", "seqnum": 5176.0, "lat_c": 17.824876674078617, "lon_c": 11.250000000177135, "res": 7.0, "count_Amphibians": 0, "count_Flowering Plants": 0, "count_Mammals": 1, "count_Birds": 0, "count_Insects": 0, "count_Reptiles": 1, "count_Mosses": 0, "count_Arachnids": 0, "count_Basidiomycota": 0, "count_Ferns": 0, "count_Molluscs": 0, "unique_species_count": 2.0, "countryCode": "NE" }, "geometry": { "type": "MultiPolygon", "coordinates": [ [ [ [ 11.680491764393956, 18.598019484939787 ], [ 12.106545548780673, 17.833221794809241 ], [ 11.676764923788889, 17.056118301630338 ], [ 10.823235076652072, 17.056118301627087 ], [ 10.393454451573993, 17.833221794802324 ], [ 10.819508235873093, 18.598019484936124 ], [ 11.680491764393956, 18.598019484939787 ] ] ] ] } },
{ "type": "Feature", "properties": { "geogrid_id": "717899345008702044", "seqnum": 5094.0, "lat_c": 17.899345309945627, "lon_c": 8.7020437768470238, "res": 7.0, "count_Amphibians": 1, "count_Flowering Plants": 23, "count_Mammals": 10, "count_Birds": 11, "count_Insects": 1, "count_Reptiles": 12, "count_Mosses": 0, "count_Arachnids": 2, "count_Basidiomycota": 0, "count_Ferns": 0, "count_Molluscs": 0, "unique_species_count": 60.0, "countryCode": "NE" }, "geometry": { "type": "MultiPolygon", "coordinates": [ [ [ [ 9.121996158231928, 18.66797048034045 ], [ 9.542371637987642, 17.858150108779178 ], [ 9.124780584632465, 17.093710572876539 ], [ 8.286595947516291, 17.131010225158438 ], [ 7.877434469727597, 17.956295903001095 ], [ 8.303913463638215, 18.736305966173607 ], [ 9.121996158231928, 18.66797048034045 ] ] ] ] } },
{ "type": "Feature", "properties": { "geogrid_id": "718114580006292805", "seqnum": 5012.0, "lat_c": 18.114579545782998, "lon_c": 6.2928048129022596, "res": 7.0, "count_Amphibians": 0, "count_Flowering Plants": 0, "count_Mammals": 2, "count_Birds": 2, "count_Insects": 0, "count_Reptiles": 0, "count_Mosses": 0, "count_Arachnids": 0, "count_Basidiomycota": 0, "count_Ferns": 0, "count_Molluscs": 0, "unique_species_count": 4.0, "countryCode": "NE" }, "geometry": { "type": "MultiPolygon", "coordinates": [ [ [ [ 6.564866476943017, 18.815323537331619 ], [ 7.073043837686508, 18.028317229793362 ], [ 6.648022619670438, 17.241201850364813 ], [ 5.85323156884761, 17.313286490093422 ], [ 5.341782416639165, 18.096921086532383 ], [ 5.629718430962508, 18.808657761248018 ], [ 6.564866476943017, 18.815323537331619 ] ] ] ] } },
{ "type": "Feature", "properties": { "geogrid_id": "718621521012536529", "seqnum": 5204.0, "lat_c": 18.621520954683064, "lon_c": 12.536529371835799, "res": 7.0, "count_Amphibians": 1, "count_Flowering Plants": 0, "count_Mammals": 4, "count_Birds": 4, "count_Insects": 3, "count_Reptiles": 2, "count_Mosses": 0, "count_Arachnids": 0, "count_Basidiomycota": 0, "count_Ferns": 0, "count_Molluscs": 0, "unique_species_count": 14.0, "countryCode": "NE" }, "geometry": { "type": "MultiPolygon", "coordinates": [ [ [ [ 12.951296403026248, 19.438777364294907 ], [ 13.378003842037772, 18.667970480359141 ], [ 12.957628362368157, 17.858150108793101 ], [ 12.106545548780673, 17.833221794809241 ], [ 11.680491764393956, 18.598019484939787 ], [ 12.111706973676599, 19.383817598440494 ], [ 12.951296403026248, 19.438777364294907 ] ] ] ] } },
{ "type": "Feature", "properties": { "geogrid_id": "718825039007516847", "seqnum": 5040.0, "lat_c": 18.825038843426512, "lon_c": 7.5168465841187064, "res": 7.0, "count_Amphibians": 0, "count_Flowering Plants": 0, "count_Mammals": 7, "count_Birds": 4, "count_Insects": 0, "count_Reptiles": 0, "count_Mosses": 0, "count_Arachnids": 0, "count_Basidiomycota": 0, "count_Ferns": 0, "count_Molluscs": 0, "unique_species_count": 11.0, "countryCode": "NE" }, "geometry": { "type": "MultiPolygon", "coordinates": [ [ [ [ 7.799553058300535, 19.526351707648285 ], [ 8.303913463638215, 18.736305966173607 ], [ 7.877434469727597, 17.956295903001095 ], [ 7.073043837686508, 18.028317229793362 ], [ 6.564866476943017, 18.815323537331619 ], [ 6.867130380402243, 19.528755901397087 ], [ 7.799553058300535, 19.526351707648285 ] ] ] ] } },
{ "type": "Feature", "properties": { "geogrid_id": "719365156011250000", "seqnum": 5149.0, "lat_c": 19.365156174836518, "lon_c": 11.250000000089397, "res": 7.0, "count_Amphibians": 0, "count_Flowering Plants": 0, "count_Mammals": 1, "count_Birds": 1, "count_Insects": 0, "count_Reptiles": 0, "count_Mosses": 0, "count_Arachnids": 0, "count_Basidiomycota": 0, "count_Ferns": 0, "count_Molluscs": 0, "unique_species_count": 2.0, "countryCode": "NE" }, "geometry": { "type": "MultiPolygon", "coordinates": [ [ [ [ 11.68293976885143, 20.145032792067813 ], [ 12.111706973676599, 19.383817598440494 ], [ 11.680491764393956, 18.598019484939787 ], [ 10.819508235873093, 18.598019484936124 ], [ 10.388293026502904, 19.383817598432685 ], [ 10.817060231238745, 20.145032792063688 ], [ 11.68293976885143, 20.145032792067813 ] ] ] ] } },
{ "type": "Feature", "properties": { "geogrid_id": "719527149008750697", "seqnum": 5067.0, "lat_c": 19.527148807412114, "lon_c": 8.7506972681643074, "res": 7.0, "count_Amphibians": 0, "count_Flowering Plants": 0, "count_Mammals": 4, "count_Birds": 0, "count_Insects": 0, "count_Reptiles": 0, "count_Mosses": 0, "count_Arachnids": 0, "count_Basidiomycota": 0, "count_Ferns": 0, "count_Molluscs": 0, "unique_species_count": 4.0, "countryCode": "NE" }, "geometry": { "type": "MultiPolygon", "coordinates": [ [ [ [ 9.049258869767044, 20.230677154746157 ], [ 9.548703597154912, 19.438777364278973 ], [ 9.121996158231928, 18.66797048034045 ], [ 8.303913463638215, 18.736305966173607 ], [ 7.799553058300535, 19.526351707648285 ], [ 8.122160897866129, 20.242650290994941 ], [ 9.049258869767044, 20.230677154746157 ] ] ] ] } },
{ "type": "Feature", "properties": { "geogrid_id": "719528684005941820", "seqnum": 4985.0, "lat_c": 19.528684198568047, "lon_c": 5.9418202418015067, "res": 7.0, "count_Amphibians": 0, "count_Flowering Plants": 0, "count_Mammals": 1, "count_Birds": 0, "count_Insects": 0, "count_Reptiles": 0, "count_Mosses": 0, "count_Arachnids": 0, "count_Basidiomycota": 0, "count_Ferns": 0, "count_Molluscs": 0, "unique_species_count": 1.0, "countryCode": "NE" }, "geometry": { "type": "MultiPolygon", "coordinates": [ [ [ [ 6.277848087736826, 20.254184187637883 ], [ 6.867130380402243, 19.528755901397087 ], [ 6.564866476943017, 18.815323537331619 ], [ 5.629718430962508, 18.808657761248018 ], [ 5.019846655324741, 19.524694834187038 ], [ 5.356997634558311, 20.252835912777478 ], [ 6.277848087736826, 20.254184187637883 ] ] ] ] } },
{ "type": "Feature", "properties": { "geogrid_id": "720905157011250000", "seqnum": 5123.0, "lat_c": 20.905157450933491, "lon_c": 11.25, "res": 7.0, "count_Amphibians": 0, "count_Flowering Plants": 0, "count_Mammals": 0, "count_Birds": 1, "count_Insects": 0, "count_Reptiles": 0, "count_Mosses": 0, "count_Arachnids": 0, "count_Basidiomycota": 0, "count_Ferns": 0, "count_Molluscs": 0, "unique_species_count": 1.0, "countryCode": "NE" }, "geometry": { "type": "MultiPolygon", "coordinates": [ [ [ [ 11.739029143646098, 21.6362585914564 ], [ 12.171886751981488, 20.930466646470386 ], [ 11.68293976885143, 20.145032792067813 ], [ 10.817060231238745, 20.145032792063688 ], [ 10.328113247977695, 20.930466646394688 ], [ 10.760970856304557, 21.636258591385126 ], [ 11.739029143646098, 21.6362585914564 ] ] ] ] } },
{ "type": "Feature", "properties": { "geogrid_id": "720966229014016651", "seqnum": 5205.0, "lat_c": 20.966229121206723, "lon_c": 14.016651374603311, "res": 7.0, "count_Amphibians": 0, "count_Flowering Plants": 1, "count_Mammals": 0, "count_Birds": 0, "count_Insects": 0, "count_Reptiles": 0, "count_Mosses": 0, "count_Arachnids": 0, "count_Basidiomycota": 0, "count_Ferns": 0, "count_Molluscs": 0, "unique_species_count": 1.0, "countryCode": "NE" }, "geometry": { "type": "MultiPolygon", "coordinates": [ [ [ [ 14.550528295346272, 21.70169760673188 ], [ 14.939512052818303, 20.976669422393442 ], [ 14.377839102022826, 20.242650291228998 ], [ 13.450741130160596, 20.230677154903727 ], [ 13.094106704727636, 20.950826113494294 ], [ 13.619396120872914, 21.688579442206109 ], [ 14.550528295346272, 21.70169760673188 ] ] ] ] } },
{ "type": "Feature", "properties": { "geogrid_id": "721669129012685073", "seqnum": 5150.0, "lat_c": 21.669128717002064, "lon_c": 12.685073342764394, "res": 7.0, "count_Amphibians": 0, "count_Flowering Plants": 0, "count_Mammals": 1, "count_Birds": 1, "count_Insects": 2, "count_Reptiles": 0, "count_Mosses": 0, "count_Arachnids": 0, "count_Basidiomycota": 0, "count_Ferns": 0, "count_Molluscs": 0, "unique_species_count": 4.0, "countryCode": "NE" }, "geometry": { "type": "MultiPolygon", "coordinates": [ [ [ [ 13.189736861071729, 22.400824871433933 ], [ 13.619396120872914, 21.688579442206109 ], [ 13.094106704727636, 20.950826113494294 ], [ 12.171886751981488, 20.930466646470386 ], [ 11.739029143646098, 21.6362585914564 ], [ 12.233057182700419, 22.365955838948803 ], [ 13.189736861071729, 22.400824871433933 ] ] ] ] } },
{ "type": "Feature", "properties": { "geogrid_id": "722420770014135571", "seqnum": 5178.0, "lat_c": 22.42077017428111, "lon_c": 14.135570597152832, "res": 7.0, "count_Amphibians": 0, "count_Flowering Plants": 0, "count_Mammals": 0, "count_Birds": 0, "count_Insects": 0, "count_Reptiles": 1, "count_Mosses": 0, "count_Arachnids": 0, "count_Basidiomycota": 0, "count_Ferns": 0, "count_Molluscs": 0, "unique_species_count": 1.0, "countryCode": "NE" }, "geometry": { "type": "MultiPolygon", "coordinates": [ [ [ [ 14.652147378664347, 23.14873257505862 ], [ 15.076576574689122, 22.43267961412014 ], [ 14.550528295346272, 21.70169760673188 ], [ 13.619396120872914, 21.688579442206109 ], [ 13.189736861071729, 22.400824871433933 ], [ 13.696892207013576, 23.12884022810006 ], [ 14.652147378664347, 23.14873257505862 ] ] ] ] } }
]
}
