{
"type": "FeatureCollection",
"name": "NI",
"crs": { "type": "name", "properties": { "name": "urn:ogc:def:crs:OGC:1.3:CRS84" } },
"features": [
{ "type": "Feature", "properties": { "geogrid_id": "5209642475089173111", "seqnum": 34657.0, "lat_c": 9.6424749357805748, "lon_c": -89.173110771728588, "res": 8.0, "count_Birds": 0, "count_Reptiles": 1, "count_Molluscs": 0, "count_Flowering Plants": 0, "count_Amphibians": 0, "count_Arachnids": 0, "count_Insects": 0, "count_Basidiomycota": 0, "count_Mammals": 5, "count_Mosses": 0, "count_Sac Fungi": 0, "count_Gymnosperms": 0, "count_Ferns": 0, "unique_species_count": 6.0, "countryCode": "NI" }, "geometry": { "type": "MultiPolygon", "coordinates": [ [ [ [ -88.632742920361409, 9.649376302164159 ], [ -88.878189743644796, 9.252500316330339 ], [ -89.41727793455749, 9.245928149148927 ], [ -89.715077932282313, 9.633691251826292 ], [ -89.471601009193577, 10.029554767008278 ], [ -88.928337363130524, 10.038705340860028 ], [ -88.632742920361409, 9.649376302164159 ] ] ] ] } },
{ "type": "Feature", "properties": { "geogrid_id": "5210045920088386685", "seqnum": 34658.0, "lat_c": 10.045919755274456, "lon_c": -88.386684602373123, "res": 8.0, "count_Birds": 0, "count_Reptiles": 1, "count_Molluscs": 0, "count_Flowering Plants": 0, "count_Amphibians": 0, "count_Arachnids": 0, "count_Insects": 0, "count_Basidiomycota": 0, "count_Mammals": 4, "count_Mosses": 0, "count_Sac Fungi": 0, "count_Gymnosperms": 0, "count_Ferns": 0, "unique_species_count": 5.0, "countryCode": "NI" }, "geometry": { "type": "MultiPolygon", "coordinates": [ [ [ [ -87.846411508719868, 10.051476787940288 ], [ -88.093739902560188, 9.654672940195681 ], [ -88.632742920361409, 9.649376302164159 ], [ -88.928337363130524, 10.038705340860028 ], [ -88.682910301824066, 10.434630511561837 ], [ -88.139966570677188, 10.442141137637897 ], [ -87.846411508719868, 10.051476787940288 ] ] ] ] } },
{ "type": "Feature", "properties": { "geogrid_id": "5210425133089227474", "seqnum": 34576.0, "lat_c": 10.425133129008159, "lon_c": -89.227474017902068, "res": 8.0, "count_Birds": 0, "count_Reptiles": 1, "count_Molluscs": 0, "count_Flowering Plants": 0, "count_Amphibians": 0, "count_Arachnids": 0, "count_Insects": 0, "count_Basidiomycota": 0, "count_Mammals": 4, "count_Mosses": 0, "count_Sac Fungi": 0, "count_Gymnosperms": 0, "count_Ferns": 0, "unique_species_count": 5.0, "countryCode": "NI" }, "geometry": { "type": "MultiPolygon", "coordinates": [ [ [ [ -88.682910301824066, 10.434630511561837 ], [ -88.928337363130524, 10.038705340860028 ], [ -89.471601009193577, 10.029554767008278 ], [ -89.773924929288256, 10.413301176570823 ], [ -89.530409207031795, 10.808232803001919 ], [ -88.982651933479147, 10.820436954378758 ], [ -88.682910301824066, 10.434630511561837 ] ] ] ] } },
{ "type": "Feature", "properties": { "geogrid_id": "5210447944087598415", "seqnum": 34659.0, "lat_c": 10.447944393567971, "lon_c": -87.598415020744667, "res": 8.0, "count_Birds": 0, "count_Reptiles": 1, "count_Molluscs": 0, "count_Flowering Plants": 0, "count_Amphibians": 0, "count_Arachnids": 0, "count_Insects": 0, "count_Basidiomycota": 0, "count_Mammals": 2, "count_Mosses": 0, "count_Sac Fungi": 0, "count_Gymnosperms": 0, "count_Ferns": 0, "unique_species_count": 3.0, "countryCode": "NI" }, "geometry": { "type": "MultiPolygon", "coordinates": [ [ [ [ -87.058060080070192, 10.452266678464715 ], [ -87.307320372370668, 10.055601227732915 ], [ -87.846411508719868, 10.051476787940288 ], [ -88.139966570677188, 10.442141137637897 ], [ -87.892541892426863, 10.838050104735961 ], [ -87.349702884864129, 10.844084724251317 ], [ -87.058060080070192, 10.452266678464715 ] ] ] ] } },
{ "type": "Feature", "properties": { "geogrid_id": "5210457121084369016", "seqnum": 34825.0, "lat_c": 10.457121354296724, "lon_c": -84.369015834294544, "res": 8.0, "count_Birds": 19, "count_Reptiles": 0, "count_Molluscs": 0, "count_Flowering Plants": 2, "count_Amphibians": 0, "count_Arachnids": 0, "count_Insects": 1, "count_Basidiomycota": 0, "count_Mammals": 0, "count_Mosses": 0, "count_Sac Fungi": 0, "count_Gymnosperms": 0, "count_Ferns": 0, "unique_species_count": 22.0, "countryCode": "NI" }, "geometry": { "type": "MultiPolygon", "coordinates": [ [ [ [ -83.832945977323732, 10.455500401786825 ], [ -84.089449242065896, 10.058534074518152 ], [ -84.624351720337785, 10.060111583427062 ], [ -84.905534318950714, 10.457992839887874 ], [ -84.650594501418524, 10.854634334699577 ], [ -84.112875086985838, 10.853746608948512 ], [ -83.832945977323732, 10.455500401786825 ] ] ] ] } },
{ "type": "Feature", "properties": { "geogrid_id": "5210830261088436783", "seqnum": 34577.0, "lat_c": 10.830260674639909, "lon_c": -88.436783484632343, "res": 8.0, "count_Birds": 5, "count_Reptiles": 2, "count_Molluscs": 0, "count_Flowering Plants": 0, "count_Amphibians": 0, "count_Arachnids": 0, "count_Insects": 0, "count_Basidiomycota": 0, "count_Mammals": 5, "count_Mosses": 0, "count_Sac Fungi": 0, "count_Gymnosperms": 0, "count_Ferns": 0, "unique_species_count": 12.0, "countryCode": "NI" }, "geometry": { "type": "MultiPolygon", "coordinates": [ [ [ [ -87.892541892426863, 10.838050104735961 ], [ -88.139966570677188, 10.442141137637897 ], [ -88.682910301824066, 10.434630511561837 ], [ -88.982651933479147, 10.820436954378758 ], [ -88.737090821884408, 11.21547589564452 ], [ -88.1899119139416, 11.225605186687854 ], [ -87.892541892426863, 10.838050104735961 ] ] ] ] } },
{ "type": "Feature", "properties": { "geogrid_id": "5210848592086808073", "seqnum": 34660.0, "lat_c": 10.848592083031859, "lon_c": -86.80807318232587, "res": 8.0, "count_Birds": 0, "count_Reptiles": 2, "count_Molluscs": 0, "count_Flowering Plants": 0, "count_Amphibians": 0, "count_Arachnids": 0, "count_Insects": 0, "count_Basidiomycota": 0, "count_Mammals": 1, "count_Mosses": 0, "count_Sac Fungi": 0, "count_Gymnosperms": 0, "count_Ferns": 0, "unique_species_count": 3.0, "countryCode": "NI" }, "geometry": { "type": "MultiPolygon", "coordinates": [ [ [ [ -86.267485145630772, 10.851758888645078 ], [ -86.518732715406315, 10.455292946535806 ], [ -87.058060080070192, 10.452266678464715 ], [ -87.349702884864129, 10.844084724251317 ], [ -87.100228618500708, 11.239906068570521 ], [ -86.557312710485249, 11.244585061172335 ], [ -86.267485145630772, 10.851758888645078 ] ] ] ] } },
{ "type": "Feature", "properties": { "geogrid_id": "5210852076083575619", "seqnum": 34826.0, "lat_c": 10.852075509378208, "lon_c": -83.575618587204545, "res": 8.0, "count_Birds": 66, "count_Reptiles": 34, "count_Molluscs": 0, "count_Flowering Plants": 86, "count_Amphibians": 20, "count_Arachnids": 5, "count_Insects": 83, "count_Basidiomycota": 1, "count_Mammals": 6, "count_Mosses": 0, "count_Sac Fungi": 7, "count_Gymnosperms": 0, "count_Ferns": 4, "unique_species_count": 312.0, "countryCode": "NI" }, "geometry": { "type": "MultiPolygon", "coordinates": [ [ [ [ -83.038744321847247, 10.849686188889068 ], [ -83.297244643787309, 10.453193224047384 ], [ -83.832945977323732, 10.455500401786825 ], [ -84.112875086985838, 10.853746608948512 ], [ -83.855881652262838, 11.24999138031386 ], [ -83.317419267302384, 11.248262755112421 ], [ -83.038744321847247, 10.849686188889068 ] ] ] ] } },
{ "type": "Feature", "properties": { "geogrid_id": "5210854662085188867", "seqnum": 34743.0, "lat_c": 10.854662102584214, "lon_c": -85.188866730459353, "res": 8.0, "count_Birds": 161, "count_Reptiles": 33, "count_Molluscs": 0, "count_Flowering Plants": 73, "count_Amphibians": 12, "count_Arachnids": 4, "count_Insects": 70, "count_Basidiomycota": 1, "count_Mammals": 29, "count_Mosses": 0, "count_Sac Fungi": 2, "count_Gymnosperms": 0, "count_Ferns": 0, "unique_species_count": 385.0, "countryCode": "NI" }, "geometry": { "type": "MultiPolygon", "coordinates": [ [ [ [ -84.650594501418524, 10.854634334699577 ], [ -84.905534318950714, 10.457992839887874 ], [ -85.442590867586475, 10.458040310494107 ], [ -85.727792474882619, 10.853739439522982 ], [ -85.474497793886741, 11.249948773912472 ], [ -84.934325359029003, 11.250919834610796 ], [ -84.650594501418524, 10.854634334699577 ] ] ] ] } },
{ "type": "Feature", "properties": { "geogrid_id": "5211202924089286158", "seqnum": 34495.0, "lat_c": 11.202923671280626, "lon_c": -89.28615817113122, "res": 8.0, "count_Birds": 1, "count_Reptiles": 0, "count_Molluscs": 0, "count_Flowering Plants": 0, "count_Amphibians": 0, "count_Arachnids": 0, "count_Insects": 1, "count_Basidiomycota": 0, "count_Mammals": 0, "count_Mosses": 0, "count_Sac Fungi": 0, "count_Gymnosperms": 0, "count_Ferns": 0, "unique_species_count": 2.0, "countryCode": "NI" }, "geometry": { "type": "MultiPolygon", "coordinates": [ [ [ [ -88.737090821884408, 11.21547589564452 ], [ -88.982651933479147, 10.820436954378758 ], [ -89.530409207031795, 10.808232803001919 ], [ -89.837414587738579, 11.187520894837967 ], [ -89.593692040549513, 11.581621719766916 ], [ -89.041130075449274, 11.597382511878154 ], [ -88.737090821884408, 11.21547589564452 ] ] ] ] } },
{ "type": "Feature", "properties": { "geogrid_id": "5211233656087644365", "seqnum": 34578.0, "lat_c": 11.233655538950616, "lon_c": -87.64436473172195, "res": 8.0, "count_Birds": 0, "count_Reptiles": 2, "count_Molluscs": 0, "count_Flowering Plants": 0, "count_Amphibians": 0, "count_Arachnids": 0, "count_Insects": 0, "count_Basidiomycota": 0, "count_Mammals": 3, "count_Mosses": 0, "count_Sac Fungi": 0, "count_Gymnosperms": 0, "count_Ferns": 0, "unique_species_count": 5.0, "countryCode": "NI" }, "geometry": { "type": "MultiPolygon", "coordinates": [ [ [ [ -87.100228618500708, 11.239906068570521 ], [ -87.349702884864129, 10.844084724251317 ], [ -87.892541892426863, 10.838050104735961 ], [ -88.1899119139416, 11.225605186687854 ], [ -87.942251523277207, 11.620672581946494 ], [ -87.395390182030894, 11.628965582752659 ], [ -87.100228618500708, 11.239906068570521 ] ] ] ] } },
{ "type": "Feature", "properties": { "geogrid_id": "5211245784082779352", "seqnum": 34827.0, "lat_c": 11.245784288435354, "lon_c": -82.77935196598952, "res": 8.0, "count_Birds": 0, "count_Reptiles": 0, "count_Molluscs": 0, "count_Flowering Plants": 0, "count_Amphibians": 0, "count_Arachnids": 0, "count_Insects": 0, "count_Basidiomycota": 0, "count_Mammals": 1, "count_Mosses": 0, "count_Sac Fungi": 0, "count_Gymnosperms": 0, "count_Ferns": 0, "unique_species_count": 1.0, "countryCode": "NI" }, "geometry": { "type": "MultiPolygon", "coordinates": [ [ [ [ -82.241606421169109, 11.242613338757007 ], [ -82.502179514226682, 10.846634335252737 ], [ -83.038744321847247, 10.849686188889068 ], [ -83.317419267302384, 11.248262755112421 ], [ -83.058300820384119, 11.644065245726953 ], [ -82.519020388124801, 11.641490014232458 ], [ -82.241606421169109, 11.242613338757007 ] ] ] ] } },
{ "type": "Feature", "properties": { "geogrid_id": "5211247881086015451", "seqnum": 34661.0, "lat_c": 11.247880613158566, "lon_c": -86.01545090489229, "res": 8.0, "count_Birds": 208, "count_Reptiles": 40, "count_Molluscs": 95, "count_Flowering Plants": 280, "count_Amphibians": 11, "count_Arachnids": 26, "count_Insects": 380, "count_Basidiomycota": 6, "count_Mammals": 81, "count_Mosses": 1, "count_Sac Fungi": 0, "count_Gymnosperms": 0, "count_Ferns": 1, "unique_species_count": 1129.0, "countryCode": "NI" }, "geometry": { "type": "MultiPolygon", "coordinates": [ [ [ [ -85.474497793886741, 11.249948773912472 ], [ -85.727792474882619, 10.853739439522982 ], [ -86.267485145630772, 10.851758888645078 ], [ -86.557312710485249, 11.244585061172335 ], [ -86.305732578270295, 11.640252652360612 ], [ -85.762583516425067, 11.643664520704156 ], [ -85.474497793886741, 11.249948773912472 ] ] ] ] } },
{ "type": "Feature", "properties": { "geogrid_id": "5211250903084394820", "seqnum": 34744.0, "lat_c": 11.250903228422864, "lon_c": -84.394820268147086, "res": 8.0, "count_Birds": 274, "count_Reptiles": 45, "count_Molluscs": 1, "count_Flowering Plants": 110, "count_Amphibians": 37, "count_Arachnids": 16, "count_Insects": 310, "count_Basidiomycota": 20, "count_Mammals": 42, "count_Mosses": 0, "count_Sac Fungi": 16, "count_Gymnosperms": 0, "count_Ferns": 3, "unique_species_count": 874.0, "countryCode": "NI" }, "geometry": { "type": "MultiPolygon", "coordinates": [ [ [ [ -83.855881652262838, 11.24999138031386 ], [ -84.112875086985838, 10.853746608948512 ], [ -84.650594501418524, 10.854634334699577 ], [ -84.934325359029003, 11.250919834610796 ], [ -84.678919788743357, 11.64681857220822 ], [ -84.138164523618627, 11.646803919393992 ], [ -83.855881652262838, 11.24999138031386 ] ] ] ] } },
{ "type": "Feature", "properties": { "geogrid_id": "5211610259088490748", "seqnum": 34496.0, "lat_c": 11.610258705320788, "lon_c": -88.490747660803606, "res": 8.0, "count_Birds": 0, "count_Reptiles": 2, "count_Molluscs": 0, "count_Flowering Plants": 0, "count_Amphibians": 0, "count_Arachnids": 0, "count_Insects": 0, "count_Basidiomycota": 0, "count_Mammals": 3, "count_Mosses": 0, "count_Sac Fungi": 0, "count_Gymnosperms": 0, "count_Ferns": 0, "unique_species_count": 5.0, "countryCode": "NI" }, "geometry": { "type": "MultiPolygon", "coordinates": [ [ [ [ -87.942251523277207, 11.620672581946494 ], [ -88.1899119139416, 11.225605186687854 ], [ -88.737090821884408, 11.21547589564452 ], [ -89.041130075449274, 11.597382511878154 ], [ -88.79528388111224, 11.991617163565065 ], [ -88.243580182247669, 12.0047932947009 ], [ -87.942251523277207, 11.620672581946494 ] ] ] ] } },
{ "type": "Feature", "properties": { "geogrid_id": "5211624443080364589", "seqnum": 34911.0, "lat_c": 11.624442899741034, "lon_c": -80.364589136374818, "res": 8.0, "count_Birds": 0, "count_Reptiles": 1, "count_Molluscs": 0, "count_Flowering Plants": 0, "count_Amphibians": 0, "count_Arachnids": 0, "count_Insects": 0, "count_Basidiomycota": 0, "count_Mammals": 0, "count_Mosses": 0, "count_Sac Fungi": 0, "count_Gymnosperms": 0, "count_Ferns": 0, "unique_species_count": 1.0, "countryCode": "NI" }, "geometry": { "type": "MultiPolygon", "coordinates": [ [ [ [ -79.82635870953105, 11.618702102211644 ], [ -80.092593415882831, 11.223897252922166 ], [ -80.629662993670905, 11.229406648974271 ], [ -80.902916420403898, 11.62962796298028 ], [ -80.63796245838617, 12.024458029171175 ], [ -80.098442513058799, 12.019058551250277 ], [ -79.82635870953105, 11.618702102211644 ] ] ] ] } },
{ "type": "Feature", "properties": { "geogrid_id": "5211635416086849947", "seqnum": 34579.0, "lat_c": 11.63541605700434, "lon_c": -86.84994665076367, "res": 8.0, "count_Birds": 160, "count_Reptiles": 27, "count_Molluscs": 39, "count_Flowering Plants": 84, "count_Amphibians": 9, "count_Arachnids": 13, "count_Insects": 106, "count_Basidiomycota": 2, "count_Mammals": 34, "count_Mosses": 0, "count_Sac Fungi": 1, "count_Gymnosperms": 0, "count_Ferns": 1, "unique_species_count": 476.0, "countryCode": "NI" }, "geometry": { "type": "MultiPolygon", "coordinates": [ [ [ [ -86.305732578270295, 11.640252652360612 ], [ -86.557312710485249, 11.244585061172335 ], [ -87.100228618500708, 11.239906068570521 ], [ -87.395390182030894, 11.628965582752659 ], [ -87.145574117131659, 12.023987671051897 ], [ -86.598812179758511, 12.03062168309485 ], [ -86.305732578270295, 11.640252652360612 ] ] ] ] } },
{ "type": "Feature", "properties": { "geogrid_id": "5211638193081980073", "seqnum": 34828.0, "lat_c": 11.638192642550015, "lon_c": -81.980073277243946, "res": 8.0, "count_Birds": 0, "count_Reptiles": 0, "count_Molluscs": 0, "count_Flowering Plants": 0, "count_Amphibians": 0, "count_Arachnids": 0, "count_Insects": 0, "count_Basidiomycota": 0, "count_Mammals": 1, "count_Mosses": 0, "count_Sac Fungi": 0, "count_Gymnosperms": 0, "count_Ferns": 0, "unique_species_count": 1.0, "countryCode": "NI" }, "geometry": { "type": "MultiPolygon", "coordinates": [ [ [ [ -81.441392386881262, 11.634223956552297 ], [ -81.704116054025604, 11.238799265116738 ], [ -82.241606421169109, 11.242613338757007 ], [ -82.519020388124801, 11.641490014232458 ], [ -82.257702869609588, 12.036805618384756 ], [ -81.717533359756487, 12.033373933319261 ], [ -81.441392386881262, 11.634223956552297 ] ] ] ] } },
{ "type": "Feature", "properties": { "geogrid_id": "5211645809085220355", "seqnum": 34662.0, "lat_c": 11.64580917191843, "lon_c": -85.220355076428589, "res": 8.0, "count_Birds": 102, "count_Reptiles": 29, "count_Molluscs": 1, "count_Flowering Plants": 169, "count_Amphibians": 13, "count_Arachnids": 12, "count_Insects": 168, "count_Basidiomycota": 5, "count_Mammals": 32, "count_Mosses": 17, "count_Sac Fungi": 0, "count_Gymnosperms": 0, "count_Ferns": 4, "unique_species_count": 552.0, "countryCode": "NI" }, "geometry": { "type": "MultiPolygon", "coordinates": [ [ [ [ -84.678919788743357, 11.64681857220822 ], [ -84.934325359029003, 11.250919834610796 ], [ -85.474497793886741, 11.249948773912472 ], [ -85.762583516425067, 11.643664520704156 ], [ -85.508837219926747, 12.039116507094519 ], [ -84.965318239673337, 12.041325924295334 ], [ -84.678919788743357, 11.64681857220822 ] ] ] ] } },
{ "type": "Feature", "properties": { "geogrid_id": "5211645859083597988", "seqnum": 34745.0, "lat_c": 11.645859411903311, "lon_c": -83.597988360700427, "res": 8.0, "count_Birds": 118, "count_Reptiles": 24, "count_Molluscs": 4, "count_Flowering Plants": 44, "count_Amphibians": 21, "count_Arachnids": 5, "count_Insects": 147, "count_Basidiomycota": 2, "count_Mammals": 20, "count_Mosses": 0, "count_Sac Fungi": 1, "count_Gymnosperms": 0, "count_Ferns": 1, "unique_species_count": 387.0, "countryCode": "NI" }, "geometry": { "type": "MultiPolygon", "coordinates": [ [ [ [ -83.058300820384119, 11.644065245726953 ], [ -83.317419267302384, 11.248262755112421 ], [ -83.855881652262838, 11.24999138031386 ], [ -84.138164523618627, 11.646803919393992 ], [ -83.880580771508917, 12.042340459066889 ], [ -83.339148598994953, 12.041354141401817 ], [ -83.058300820384119, 11.644065245726953 ] ] ] ] } },
{ "type": "Feature", "properties": { "geogrid_id": "5212015471087693759", "seqnum": 34497.0, "lat_c": 12.015470617315678, "lon_c": -87.693759023087921, "res": 8.0, "count_Birds": 0, "count_Reptiles": 2, "count_Molluscs": 0, "count_Flowering Plants": 0, "count_Amphibians": 0, "count_Arachnids": 0, "count_Insects": 0, "count_Basidiomycota": 0, "count_Mammals": 6, "count_Mosses": 0, "count_Sac Fungi": 0, "count_Gymnosperms": 0, "count_Ferns": 0, "unique_species_count": 8.0, "countryCode": "NI" }, "geometry": { "type": "MultiPolygon", "coordinates": [ [ [ [ -87.145574117131659, 12.023987671051897 ], [ -87.395390182030894, 11.628965582752659 ], [ -87.942251523277207, 11.620672581946494 ], [ -88.243580182247669, 12.0047932947009 ], [ -87.995546733563302, 12.399086787599128 ], [ -87.444391763756727, 12.410006314394405 ], [ -87.145574117131659, 12.023987671051897 ] ] ] ] } },
{ "type": "Feature", "properties": { "geogrid_id": "5212029243081177640", "seqnum": 34829.0, "lat_c": 12.029242970279748, "lon_c": -81.177640485842431, "res": 8.0, "count_Birds": 0, "count_Reptiles": 1, "count_Molluscs": 0, "count_Flowering Plants": 0, "count_Amphibians": 0, "count_Arachnids": 0, "count_Insects": 0, "count_Basidiomycota": 0, "count_Mammals": 1, "count_Mosses": 0, "count_Sac Fungi": 0, "count_Gymnosperms": 0, "count_Ferns": 0, "unique_species_count": 2.0, "countryCode": "NI" }, "geometry": { "type": "MultiPolygon", "coordinates": [ [ [ [ -80.63796245838617, 12.024458029171175 ], [ -80.902916420403898, 11.62962796298028 ], [ -81.441392386881262, 11.634223956552297 ], [ -81.717533359756487, 12.033373933319261 ], [ -81.453940294995377, 12.428158664936893 ], [ -80.912813959992704, 12.423857236111372 ], [ -80.63796245838617, 12.024458029171175 ] ] ] ] } },
{ "type": "Feature", "properties": { "geogrid_id": "5212035601086053287", "seqnum": 34580.0, "lat_c": 12.035601327364578, "lon_c": -86.053287446115505, "res": 8.0, "count_Birds": 303, "count_Reptiles": 65, "count_Molluscs": 10, "count_Flowering Plants": 781, "count_Amphibians": 18, "count_Arachnids": 92, "count_Insects": 1321, "count_Basidiomycota": 78, "count_Mammals": 73, "count_Mosses": 16, "count_Sac Fungi": 49, "count_Gymnosperms": 1, "count_Ferns": 9, "unique_species_count": 2816.0, "countryCode": "NI" }, "geometry": { "type": "MultiPolygon", "coordinates": [ [ [ [ -85.508837219926747, 12.039116507094519 ], [ -85.762583516425067, 11.643664520704156 ], [ -86.305732578270295, 11.640252652360612 ], [ -86.598812179758511, 12.03062168309485 ], [ -86.346781044420183, 12.425529324685668 ], [ -85.799932598686368, 12.430637000901338 ], [ -85.508837219926747, 12.039116507094519 ] ] ] ] } },
{ "type": "Feature", "properties": { "geogrid_id": "5212039486082798217", "seqnum": 34746.0, "lat_c": 12.039485817811338, "lon_c": -82.798216561884331, "res": 8.0, "count_Birds": 29, "count_Reptiles": 16, "count_Molluscs": 14, "count_Flowering Plants": 36, "count_Amphibians": 3, "count_Arachnids": 7, "count_Insects": 40, "count_Basidiomycota": 15, "count_Mammals": 4, "count_Mosses": 0, "count_Sac Fungi": 0, "count_Gymnosperms": 0, "count_Ferns": 0, "unique_species_count": 164.0, "countryCode": "NI" }, "geometry": { "type": "MultiPolygon", "coordinates": [ [ [ [ -82.257702869609588, 12.036805618384756 ], [ -82.519020388124801, 11.641490014232458 ], [ -83.058300820384119, 11.644065245726953 ], [ -83.339148598994953, 12.041354141401817 ], [ -83.07931621711019, 12.436478687349968 ], [ -82.537120232348059, 12.434527021862557 ], [ -82.257702869609588, 12.036805618384756 ] ] ] ] } },
{ "type": "Feature", "properties": { "geogrid_id": "5212042363084422604", "seqnum": 34663.0, "lat_c": 12.04236298736163, "lon_c": -84.422603696109945, "res": 8.0, "count_Birds": 89, "count_Reptiles": 23, "count_Molluscs": 0, "count_Flowering Plants": 50, "count_Amphibians": 27, "count_Arachnids": 7, "count_Insects": 114, "count_Basidiomycota": 3, "count_Mammals": 38, "count_Mosses": 0, "count_Sac Fungi": 1, "count_Gymnosperms": 0, "count_Ferns": 1, "unique_species_count": 353.0, "countryCode": "NI" }, "geometry": { "type": "MultiPolygon", "coordinates": [ [ [ [ -83.880580771508917, 12.042340459066889 ], [ -84.138164523618627, 11.646803919393992 ], [ -84.678919788743357, 11.64681857220822 ], [ -84.965318239673337, 12.041325924295334 ], [ -84.709341771071422, 12.436503874680433 ], [ -84.165331294394321, 12.437557352533627 ], [ -83.880580771508917, 12.042340459066889 ] ] ] ] } },
{ "type": "Feature", "properties": { "geogrid_id": "5212418729086894873", "seqnum": 34498.0, "lat_c": 12.418728562277163, "lon_c": -86.894873057947777, "res": 8.0, "count_Birds": 158, "count_Reptiles": 30, "count_Molluscs": 57, "count_Flowering Plants": 189, "count_Amphibians": 7, "count_Arachnids": 18, "count_Insects": 514, "count_Basidiomycota": 7, "count_Mammals": 40, "count_Mosses": 0, "count_Sac Fungi": 17, "count_Gymnosperms": 0, "count_Ferns": 0, "unique_species_count": 1037.0, "countryCode": "NI" }, "geometry": { "type": "MultiPolygon", "coordinates": [ [ [ [ -86.346781044420183, 12.425529324685668 ], [ -86.598812179758511, 12.03062168309485 ], [ -87.145574117131659, 12.023987671051897 ], [ -87.444391763756727, 12.410006314394405 ], [ -87.194107613335959, 12.804285998489835 ], [ -86.643244053060187, 12.813194367901151 ], [ -86.346781044420183, 12.425529324685668 ] ] ] ] } },
{ "type": "Feature", "properties": { "geogrid_id": "5212418875080371912", "seqnum": 34830.0, "lat_c": 12.418875332048144, "lon_c": -80.371911855940567, "res": 8.0, "count_Birds": 0, "count_Reptiles": 0, "count_Molluscs": 0, "count_Flowering Plants": 0, "count_Amphibians": 0, "count_Arachnids": 0, "count_Insects": 0, "count_Basidiomycota": 0, "count_Mammals": 1, "count_Mosses": 0, "count_Sac Fungi": 0, "count_Gymnosperms": 0, "count_Ferns": 0, "unique_species_count": 1.0, "countryCode": "NI" }, "geometry": { "type": "MultiPolygon", "coordinates": [ [ [ [ -79.83117675435895, 12.413253538480552 ], [ -80.098442513058799, 12.019058551250277 ], [ -80.63796245838617, 12.024458029171175 ], [ -80.912813959992704, 12.423857236111372 ], [ -80.646866661137352, 12.81806745374819 ], [ -80.10471843495327, 12.812880081590873 ], [ -79.83117675435895, 12.413253538480552 ] ] ] ] } },
{ "type": "Feature", "properties": { "geogrid_id": "5212431733081995353", "seqnum": 34747.0, "lat_c": 12.431733095566075, "lon_c": -81.995353078668046, "res": 8.0, "count_Birds": 0, "count_Reptiles": 1, "count_Molluscs": 0, "count_Flowering Plants": 0, "count_Amphibians": 0, "count_Arachnids": 0, "count_Insects": 0, "count_Basidiomycota": 0, "count_Mammals": 0, "count_Mosses": 0, "count_Sac Fungi": 0, "count_Gymnosperms": 0, "count_Ferns": 0, "unique_species_count": 1.0, "countryCode": "NI" }, "geometry": { "type": "MultiPolygon", "coordinates": [ [ [ [ -81.453940294995377, 12.428158664936893 ], [ -81.717533359756487, 12.033373933319261 ], [ -82.257702869609588, 12.036805618384756 ], [ -82.537120232348059, 12.434527021862557 ], [ -82.274965916073199, 12.829191108910337 ], [ -81.731924993392113, 12.826274167609478 ], [ -81.453940294995377, 12.428158664936893 ] ] ] ] } },
{ "type": "Feature", "properties": { "geogrid_id": "5212434242085254167", "seqnum": 34581.0, "lat_c": 12.43424196866091, "lon_c": -85.254166855100493, "res": 8.0, "count_Birds": 120, "count_Reptiles": 31, "count_Molluscs": 1, "count_Flowering Plants": 98, "count_Amphibians": 16, "count_Arachnids": 21, "count_Insects": 245, "count_Basidiomycota": 3, "count_Mammals": 49, "count_Mosses": 1, "count_Sac Fungi": 0, "count_Gymnosperms": 0, "count_Ferns": 0, "unique_species_count": 585.0, "countryCode": "NI" }, "geometry": { "type": "MultiPolygon", "coordinates": [ [ [ [ -84.709341771071422, 12.436503874680433 ], [ -84.965318239673337, 12.041325924295334 ], [ -85.508837219926747, 12.039116507094519 ], [ -85.799932598686368, 12.430637000901338 ], [ -85.545623833869243, 12.825365044854495 ], [ -84.998527755610553, 12.829045808849211 ], [ -84.709341771071422, 12.436503874680433 ] ] ] ] } },
{ "type": "Feature", "properties": { "geogrid_id": "5212437517083622023", "seqnum": 34664.0, "lat_c": 12.437516542011195, "lon_c": -83.622023016238231, "res": 8.0, "count_Birds": 69, "count_Reptiles": 7, "count_Molluscs": 9, "count_Flowering Plants": 18, "count_Amphibians": 2, "count_Arachnids": 20, "count_Insects": 24, "count_Basidiomycota": 2, "count_Mammals": 3, "count_Mosses": 0, "count_Sac Fungi": 1, "count_Gymnosperms": 0, "count_Ferns": 2, "unique_species_count": 157.0, "countryCode": "NI" }, "geometry": { "type": "MultiPolygon", "coordinates": [ [ [ [ -83.07931621711019, 12.436478687349968 ], [ -83.339148598994953, 12.041354141401817 ], [ -83.880580771508917, 12.042340459066889 ], [ -84.165331294394321, 12.437557352533627 ], [ -83.907057237816559, 12.8324055369223 ], [ -83.362445672177856, 12.832335498276658 ], [ -83.07931621711019, 12.436478687349968 ] ] ] ] } },
{ "type": "Feature", "properties": { "geogrid_id": "5212793146087746606", "seqnum": 34416.0, "lat_c": 12.793145569301169, "lon_c": -87.746606154068189, "res": 8.0, "count_Birds": 85, "count_Reptiles": 14, "count_Molluscs": 54, "count_Flowering Plants": 161, "count_Amphibians": 4, "count_Arachnids": 20, "count_Insects": 57, "count_Basidiomycota": 3, "count_Mammals": 38, "count_Mosses": 0, "count_Sac Fungi": 0, "count_Gymnosperms": 1, "count_Ferns": 3, "unique_species_count": 440.0, "countryCode": "NI" }, "geometry": { "type": "MultiPolygon", "coordinates": [ [ [ [ -87.194107613335959, 12.804285998489835 ], [ -87.444391763756727, 12.410006314394405 ], [ -87.995546733563302, 12.399086787599128 ], [ -88.300975763662962, 12.779441182650823 ], [ -88.052434132992431, 13.173042324751675 ], [ -87.496717664983308, 13.186975331007876 ], [ -87.194107613335959, 12.804285998489835 ] ] ] ] } },
{ "type": "Feature", "properties": { "geogrid_id": "5212820145086093810", "seqnum": 34499.0, "lat_c": 12.820144764794295, "lon_c": -86.093809608917695, "res": 8.0, "count_Birds": 298, "count_Reptiles": 50, "count_Molluscs": 0, "count_Flowering Plants": 475, "count_Amphibians": 27, "count_Arachnids": 25, "count_Insects": 856, "count_Basidiomycota": 28, "count_Mammals": 62, "count_Mosses": 34, "count_Sac Fungi": 8, "count_Gymnosperms": 1, "count_Ferns": 6, "unique_species_count": 1870.0, "countryCode": "NI" }, "geometry": { "type": "MultiPolygon", "coordinates": [ [ [ [ -85.545623833869243, 12.825365044854495 ], [ -85.799932598686368, 12.430637000901338 ], [ -86.346781044420183, 12.425529324685668 ], [ -86.643244053060187, 12.813194367901151 ], [ -86.390644571011023, 13.207390580233051 ], [ -85.8398546579607, 13.214473211801796 ], [ -85.545623833869243, 12.825365044854495 ] ] ] ] } },
{ "type": "Feature", "properties": { "geogrid_id": "5212831236082818445", "seqnum": 34665.0, "lat_c": 12.831235838330388, "lon_c": -82.81844544231366, "res": 8.0, "count_Birds": 0, "count_Reptiles": 2, "count_Molluscs": 0, "count_Flowering Plants": 0, "count_Amphibians": 0, "count_Arachnids": 0, "count_Insects": 0, "count_Basidiomycota": 0, "count_Mammals": 0, "count_Mosses": 0, "count_Sac Fungi": 0, "count_Gymnosperms": 0, "count_Ferns": 0, "unique_species_count": 2.0, "countryCode": "NI" }, "geometry": { "type": "MultiPolygon", "coordinates": [ [ [ [ -82.274965916073199, 12.829191108910337 ], [ -82.537120232348059, 12.434527021862557 ], [ -83.07931621711019, 12.436478687349968 ], [ -83.362445672177856, 12.832335498276658 ], [ -83.101803479646492, 13.226800287624259 ], [ -82.556490799345809, 13.225628044174341 ], [ -82.274965916073199, 12.829191108910337 ] ] ] ] } },
{ "type": "Feature", "properties": { "geogrid_id": "5212831347084452381", "seqnum": 34582.0, "lat_c": 12.831347420563151, "lon_c": -84.452380627435559, "res": 8.0, "count_Birds": 1, "count_Reptiles": 2, "count_Molluscs": 0, "count_Flowering Plants": 15, "count_Amphibians": 1, "count_Arachnids": 0, "count_Insects": 97, "count_Basidiomycota": 0, "count_Mammals": 0, "count_Mosses": 0, "count_Sac Fungi": 0, "count_Gymnosperms": 0, "count_Ferns": 0, "unique_species_count": 116.0, "countryCode": "NI" }, "geometry": { "type": "MultiPolygon", "coordinates": [ [ [ [ -83.907057237816559, 12.8324055369223 ], [ -84.165331294394321, 12.437557352533627 ], [ -84.709341771071422, 12.436503874680433 ], [ -84.998527755610553, 12.829045808849211 ], [ -84.741875652159962, 13.223532445611996 ], [ -84.194390142305338, 13.225860515532961 ], [ -83.907057237816559, 12.8324055369223 ] ] ] ] } },
{ "type": "Feature", "properties": { "geogrid_id": "5213198315086942865", "seqnum": 34417.0, "lat_c": 13.198315334615955, "lon_c": -86.942864847899543, "res": 8.0, "count_Birds": 134, "count_Reptiles": 18, "count_Molluscs": 1, "count_Flowering Plants": 92, "count_Amphibians": 9, "count_Arachnids": 2, "count_Insects": 101, "count_Basidiomycota": 6, "count_Mammals": 18, "count_Mosses": 2, "count_Sac Fungi": 2, "count_Gymnosperms": 0, "count_Ferns": 8, "unique_species_count": 393.0, "countryCode": "NI" }, "geometry": { "type": "MultiPolygon", "coordinates": [ [ [ [ -86.390644571011023, 13.207390580233051 ], [ -86.643244053060187, 12.813194367901151 ], [ -87.194107613335959, 12.804285998489835 ], [ -87.496717664983308, 13.186975331007876 ], [ -87.245840770709606, 13.580581110072183 ], [ -86.690622052730461, 13.592099360556322 ], [ -86.390644571011023, 13.207390580233051 ] ] ] ] } },
{ "type": "Feature", "properties": { "geogrid_id": "5213219790085290317", "seqnum": 34500.0, "lat_c": 13.219790301643261, "lon_c": -85.290317361761836, "res": 8.0, "count_Birds": 142, "count_Reptiles": 33, "count_Molluscs": 1, "count_Flowering Plants": 406, "count_Amphibians": 20, "count_Arachnids": 34, "count_Insects": 398, "count_Basidiomycota": 6, "count_Mammals": 12, "count_Mosses": 9, "count_Sac Fungi": 2, "count_Gymnosperms": 0, "count_Ferns": 18, "unique_species_count": 1081.0, "countryCode": "NI" }, "geometry": { "type": "MultiPolygon", "coordinates": [ [ [ [ -84.741875652159962, 13.223532445611996 ], [ -84.998527755610553, 12.829045808849211 ], [ -85.545623833869243, 12.825365044854495 ], [ -85.8398546579607, 13.214473211801796 ], [ -85.584873301577147, 13.608519318736374 ], [ -85.033969712395617, 13.613917097433363 ], [ -84.741875652159962, 13.223532445611996 ] ] ] ] } },
{ "type": "Feature", "properties": { "geogrid_id": "5213226911083647737", "seqnum": 34583.0, "lat_c": 13.226911004346137, "lon_c": -83.647736533256349, "res": 8.0, "count_Birds": 83, "count_Reptiles": 7, "count_Molluscs": 2, "count_Flowering Plants": 7, "count_Amphibians": 1, "count_Arachnids": 1, "count_Insects": 10, "count_Basidiomycota": 0, "count_Mammals": 1, "count_Mosses": 0, "count_Sac Fungi": 0, "count_Gymnosperms": 0, "count_Ferns": 0, "unique_species_count": 112.0, "countryCode": "NI" }, "geometry": { "type": "MultiPolygon", "coordinates": [ [ [ [ -83.101803479646492, 13.226800287624259 ], [ -83.362445672177856, 12.832335498276658 ], [ -83.907057237816559, 12.8324055369223 ], [ -84.194390142305338, 13.225860515532961 ], [ -83.935325940613097, 13.620046672408057 ], [ -83.387324458598528, 13.621076812344011 ], [ -83.101803479646492, 13.226800287624259 ] ] ] ] } },
{ "type": "Feature", "properties": { "geogrid_id": "5213601322086137032", "seqnum": 34418.0, "lat_c": 13.601322098381088, "lon_c": -86.137032402795256, "res": 8.0, "count_Birds": 210, "count_Reptiles": 47, "count_Molluscs": 4, "count_Flowering Plants": 395, "count_Amphibians": 30, "count_Arachnids": 22, "count_Insects": 677, "count_Basidiomycota": 11, "count_Mammals": 43, "count_Mosses": 4, "count_Sac Fungi": 1, "count_Gymnosperms": 1, "count_Ferns": 9, "unique_species_count": 1454.0, "countryCode": "NI" }, "geometry": { "type": "MultiPolygon", "coordinates": [ [ [ [ -85.584873301577147, 13.608519318736374 ], [ -85.8398546579607, 13.214473211801796 ], [ -86.390644571011023, 13.207390580233051 ], [ -86.690622052730461, 13.592099360556322 ], [ -86.43733803283213, 13.985642517100008 ], [ -85.88236557316992, 13.994993252344088 ], [ -85.584873301577147, 13.608519318736374 ] ] ] ] } },
{ "type": "Feature", "properties": { "geogrid_id": "5213617706084484167", "seqnum": 34501.0, "lat_c": 13.617705819230983, "lon_c": -84.484166583570428, "res": 8.0, "count_Birds": 42, "count_Reptiles": 14, "count_Molluscs": 0, "count_Flowering Plants": 7, "count_Amphibians": 4, "count_Arachnids": 2, "count_Insects": 68, "count_Basidiomycota": 3, "count_Mammals": 8, "count_Mosses": 0, "count_Sac Fungi": 1, "count_Gymnosperms": 0, "count_Ferns": 0, "unique_species_count": 149.0, "countryCode": "NI" }, "geometry": { "type": "MultiPolygon", "coordinates": [ [ [ [ -83.935325940613097, 13.620046672408057 ], [ -84.194390142305338, 13.225860515532961 ], [ -84.741875652159962, 13.223532445611996 ], [ -85.033969712395617, 13.613917097433363 ], [ -84.776537651092298, 14.007749254957387 ], [ -84.225356814889096, 14.011569400284012 ], [ -83.935325940613097, 13.620046672408057 ] ] ] ] } },
{ "type": "Feature", "properties": { "geogrid_id": "5213620913082840051", "seqnum": 34584.0, "lat_c": 13.620913495211017, "lon_c": -82.840051426933229, "res": 8.0, "count_Birds": 0, "count_Reptiles": 1, "count_Molluscs": 0, "count_Flowering Plants": 0, "count_Amphibians": 0, "count_Arachnids": 0, "count_Insects": 0, "count_Basidiomycota": 0, "count_Mammals": 0, "count_Mosses": 0, "count_Sac Fungi": 0, "count_Gymnosperms": 0, "count_Ferns": 0, "unique_species_count": 1.0, "countryCode": "NI" }, "geometry": { "type": "MultiPolygon", "coordinates": [ [ [ [ -82.293407036050425, 13.619657408783143 ], [ -82.556490799345809, 13.225628044174341 ], [ -83.101803479646492, 13.226800287624259 ], [ -83.387324458598528, 13.621076812344011 ], [ -83.125776486956156, 14.014905612154044 ], [ -82.577144677672948, 14.014677328386453 ], [ -82.293407036050425, 13.619657408783143 ] ] ] ] } },
{ "type": "Feature", "properties": { "geogrid_id": "5213973967086993935", "seqnum": 34336.0, "lat_c": 13.973967326329774, "lon_c": -86.99393516980561, "res": 8.0, "count_Birds": 66, "count_Reptiles": 0, "count_Molluscs": 0, "count_Flowering Plants": 10, "count_Amphibians": 0, "count_Arachnids": 0, "count_Insects": 7, "count_Basidiomycota": 0, "count_Mammals": 2, "count_Mosses": 0, "count_Sac Fungi": 0, "count_Gymnosperms": 0, "count_Ferns": 0, "unique_species_count": 85.0, "countryCode": "NI" }, "geometry": { "type": "MultiPolygon", "coordinates": [ [ [ [ -86.43733803283213, 13.985642517100008 ], [ -86.690622052730461, 13.592099360556322 ], [ -87.245840770709606, 13.580581110072183 ], [ -87.552378427278001, 13.959647223829066 ], [ -87.30078585309758, 14.352658862158625 ], [ -86.740960674276408, 14.367137814816171 ], [ -86.43733803283213, 13.985642517100008 ] ] ] ] } },
{ "type": "Feature", "properties": { "geogrid_id": "5214002287085328823", "seqnum": 34419.0, "lat_c": 14.002287201498106, "lon_c": -85.328822888131114, "res": 8.0, "count_Birds": 2, "count_Reptiles": 16, "count_Molluscs": 0, "count_Flowering Plants": 39, "count_Amphibians": 20, "count_Arachnids": 18, "count_Insects": 110, "count_Basidiomycota": 1, "count_Mammals": 10, "count_Mosses": 0, "count_Sac Fungi": 1, "count_Gymnosperms": 0, "count_Ferns": 0, "unique_species_count": 217.0, "countryCode": "NI" }, "geometry": { "type": "MultiPolygon", "coordinates": [ [ [ [ -84.776537651092298, 14.007749254957387 ], [ -85.033969712395617, 13.613917097433363 ], [ -85.584873301577147, 13.608519318736374 ], [ -85.88236557316992, 13.994993252344088 ], [ -85.626602259606244, 14.388407825232138 ], [ -85.071660924519719, 14.395780455925571 ], [ -84.776537651092298, 14.007749254957387 ] ] ] ] } },
{ "type": "Feature", "properties": { "geogrid_id": "5214003352080388117", "seqnum": 34668.0, "lat_c": 14.003352033601079, "lon_c": -80.388117343551826, "res": 8.0, "count_Birds": 6, "count_Reptiles": 0, "count_Molluscs": 0, "count_Flowering Plants": 0, "count_Amphibians": 0, "count_Arachnids": 0, "count_Insects": 0, "count_Basidiomycota": 0, "count_Mammals": 1, "count_Mosses": 0, "count_Sac Fungi": 0, "count_Gymnosperms": 0, "count_Ferns": 0, "unique_species_count": 7.0, "countryCode": "NI" }, "geometry": { "type": "MultiPolygon", "coordinates": [ [ [ [ -79.841840945872249, 13.998277036227011 ], [ -80.11142597895244, 13.605277297687692 ], [ -80.656382214882939, 13.610144208897317 ], [ -80.93471391926073, 14.007591811976541 ], [ -80.666516205532147, 14.400598595386006 ], [ -80.118570288079226, 14.396166548761981 ], [ -79.841840945872249, 13.998277036227011 ] ] ] ] } },
{ "type": "Feature", "properties": { "geogrid_id": "5214013326082029149", "seqnum": 34585.0, "lat_c": 14.013325684225125, "lon_c": -82.029149053871038, "res": 8.0, "count_Birds": 0, "count_Reptiles": 1, "count_Molluscs": 0, "count_Flowering Plants": 0, "count_Amphibians": 0, "count_Arachnids": 0, "count_Insects": 0, "count_Basidiomycota": 0, "count_Mammals": 0, "count_Mosses": 0, "count_Sac Fungi": 0, "count_Gymnosperms": 0, "count_Ferns": 0, "unique_species_count": 1.0, "countryCode": "NI" }, "geometry": { "type": "MultiPolygon", "coordinates": [ [ [ [ -81.481699487912948, 14.010938461345404 ], [ -81.747300929276051, 13.617395372879503 ], [ -82.293407036050425, 13.619657408783143 ], [ -82.577144677672948, 14.014677328386453 ], [ -82.313038502977449, 14.408093614317634 ], [ -81.763671842684033, 14.4066342658239 ], [ -81.481699487912948, 14.010938461345404 ] ] ] ] } },
{ "type": "Feature", "properties": { "geogrid_id": "5214013909083675144", "seqnum": 34502.0, "lat_c": 14.013908966926047, "lon_c": -83.675143859787269, "res": 8.0, "count_Birds": 81, "count_Reptiles": 3, "count_Molluscs": 11, "count_Flowering Plants": 11, "count_Amphibians": 3, "count_Arachnids": 0, "count_Insects": 3, "count_Basidiomycota": 0, "count_Mammals": 2, "count_Mosses": 0, "count_Sac Fungi": 0, "count_Gymnosperms": 0, "count_Ferns": 0, "unique_species_count": 114.0, "countryCode": "NI" }, "geometry": { "type": "MultiPolygon", "coordinates": [ [ [ [ -83.125776486956156, 14.014905612154044 ], [ -83.387324458598528, 13.621076812344011 ], [ -83.935325940613097, 13.620046672408057 ], [ -84.225356814889096, 14.011569400284012 ], [ -83.965402761672124, 14.4051261975341 ], [ -83.413799876536629, 14.407450041741363 ], [ -83.125776486956156, 14.014905612154044 ] ] ] ] } },
{ "type": "Feature", "properties": { "geogrid_id": "5214378949086182972", "seqnum": 34337.0, "lat_c": 14.378948675580741, "lon_c": -86.18297173147738, "res": 8.0, "count_Birds": 5, "count_Reptiles": 2, "count_Molluscs": 0, "count_Flowering Plants": 6, "count_Amphibians": 1, "count_Arachnids": 0, "count_Insects": 7, "count_Basidiomycota": 1, "count_Mammals": 1, "count_Mosses": 0, "count_Sac Fungi": 0, "count_Gymnosperms": 0, "count_Ferns": 0, "unique_species_count": 23.0, "countryCode": "NI" }, "geometry": { "type": "MultiPolygon", "coordinates": [ [ [ [ -85.626602259606244, 14.388407825232138 ], [ -85.88236557316992, 13.994993252344088 ], [ -86.43733803283213, 13.985642517100008 ], [ -86.740960674276408, 14.367137814816171 ], [ -86.486877135996011, 14.760095855149387 ], [ -85.927482155695841, 14.772021162860446 ], [ -85.626602259606244, 14.388407825232138 ] ] ] ] } },
{ "type": "Feature", "properties": { "geogrid_id": "5214390873079570952", "seqnum": 34669.0, "lat_c": 14.390872926502828, "lon_c": -79.570951727198889, "res": 8.0, "count_Birds": 0, "count_Reptiles": 1, "count_Molluscs": 0, "count_Flowering Plants": 0, "count_Amphibians": 0, "count_Arachnids": 0, "count_Insects": 0, "count_Basidiomycota": 0, "count_Mammals": 0, "count_Mosses": 0, "count_Sac Fungi": 0, "count_Gymnosperms": 0, "count_Ferns": 0, "unique_species_count": 1.0, "countryCode": "NI" }, "geometry": { "type": "MultiPolygon", "coordinates": [ [ [ [ -79.023596983700543, 14.384769364831968 ], [ -79.295821355074764, 13.992417561368921 ], [ -79.841840945872249, 13.998277036227011 ], [ -80.118570288079226, 14.396166548761981 ], [ -79.847695380407174, 14.788587517581693 ], [ -79.298712481490128, 14.783064306962361 ], [ -79.023596983700543, 14.384769364831968 ] ] ] ] } },
{ "type": "Feature", "properties": { "geogrid_id": "5214401290084517978", "seqnum": 34420.0, "lat_c": 14.401290105772643, "lon_c": -84.517978100502035, "res": 8.0, "count_Birds": 52, "count_Reptiles": 47, "count_Molluscs": 0, "count_Flowering Plants": 4, "count_Amphibians": 33, "count_Arachnids": 11, "count_Insects": 160, "count_Basidiomycota": 2, "count_Mammals": 22, "count_Mosses": 0, "count_Sac Fungi": 0, "count_Gymnosperms": 0, "count_Ferns": 0, "unique_species_count": 331.0, "countryCode": "NI" }, "geometry": { "type": "MultiPolygon", "coordinates": [ [ [ [ -83.965402761672124, 14.4051261975341 ], [ -84.225356814889096, 14.011569400284012 ], [ -84.776537651092298, 14.007749254957387 ], [ -85.071660924519719, 14.395780455925571 ], [ -84.813345002631038, 14.789002173645169 ], [ -84.258248068495149, 14.794542501831661 ], [ -83.965402761672124, 14.4051261975341 ] ] ] ] } },
{ "type": "Feature", "properties": { "geogrid_id": "5214404110081214858", "seqnum": 34586.0, "lat_c": 14.404110240658962, "lon_c": -81.214858389161179, "res": 8.0, "count_Birds": 1, "count_Reptiles": 0, "count_Molluscs": 0, "count_Flowering Plants": 0, "count_Amphibians": 0, "count_Arachnids": 0, "count_Insects": 0, "count_Basidiomycota": 0, "count_Mammals": 0, "count_Mosses": 0, "count_Sac Fungi": 0, "count_Gymnosperms": 0, "count_Ferns": 0, "unique_species_count": 1.0, "countryCode": "NI" }, "geometry": { "type": "MultiPolygon", "coordinates": [ [ [ [ -80.666516205532147, 14.400598595386006 ], [ -80.93471391926073, 14.007591811976541 ], [ -81.481699487912948, 14.010938461345404 ], [ -81.763671842684033, 14.4066342658239 ], [ -81.496930419497161, 14.799584187999606 ], [ -80.94673239008722, 14.79691132510453 ], [ -80.666516205532147, 14.400598595386006 ] ] ] ] } },
{ "type": "Feature", "properties": { "geogrid_id": "5214408400082863048", "seqnum": 34503.0, "lat_c": 14.408399649296936, "lon_c": -82.863048216098377, "res": 8.0, "count_Birds": 0, "count_Reptiles": 1, "count_Molluscs": 2, "count_Flowering Plants": 0, "count_Amphibians": 0, "count_Arachnids": 0, "count_Insects": 0, "count_Basidiomycota": 0, "count_Mammals": 0, "count_Mosses": 0, "count_Sac Fungi": 0, "count_Gymnosperms": 0, "count_Ferns": 0, "unique_species_count": 3.0, "countryCode": "NI" }, "geometry": { "type": "MultiPolygon", "coordinates": [ [ [ [ -82.313038502977449, 14.408093614317634 ], [ -82.577144677672948, 14.014677328386453 ], [ -83.125776486956156, 14.014905612154044 ], [ -83.413799876536629, 14.407450041741363 ], [ -83.151250038650218, 14.800672110525397 ], [ -82.599095302489829, 14.801560764539804 ], [ -82.313038502977449, 14.408093614317634 ] ] ] ] } },
{ "type": "Feature", "properties": { "geogrid_id": "5214781569085369701", "seqnum": 34338.0, "lat_c": 14.781569073644956, "lon_c": -85.369700717875318, "res": 8.0, "count_Birds": 0, "count_Reptiles": 15, "count_Molluscs": 0, "count_Flowering Plants": 1, "count_Amphibians": 20, "count_Arachnids": 0, "count_Insects": 28, "count_Basidiomycota": 0, "count_Mammals": 2, "count_Mosses": 0, "count_Sac Fungi": 0, "count_Gymnosperms": 0, "count_Ferns": 0, "unique_species_count": 66.0, "countryCode": "NI" }, "geometry": { "type": "MultiPolygon", "coordinates": [ [ [ [ -84.813345002631038, 14.789002173645169 ], [ -85.071660924519719, 14.395780455925571 ], [ -85.626602259606244, 14.388407825232138 ], [ -85.927482155695841, 14.772021162860446 ], [ -85.670828307758356, 15.164862783902542 ], [ -85.111619213396494, 15.174479746256022 ], [ -84.813345002631038, 14.789002173645169 ] ] ] ] } },
{ "type": "Feature", "properties": { "geogrid_id": "5214793223080397012", "seqnum": 34587.0, "lat_c": 14.793223081148664, "lon_c": -80.397012362974209, "res": 8.0, "count_Birds": 0, "count_Reptiles": 1, "count_Molluscs": 0, "count_Flowering Plants": 0, "count_Amphibians": 0, "count_Arachnids": 0, "count_Insects": 0, "count_Basidiomycota": 0, "count_Mammals": 0, "count_Mosses": 0, "count_Sac Fungi": 0, "count_Gymnosperms": 0, "count_Ferns": 0, "unique_species_count": 1.0, "countryCode": "NI" }, "geometry": { "type": "MultiPolygon", "coordinates": [ [ [ [ -79.847695380407174, 14.788587517581693 ], [ -80.118570288079226, 14.396166548761981 ], [ -80.666516205532147, 14.400598595386006 ], [ -80.94673239008722, 14.79691132510453 ], [ -80.677276201034971, 15.189341981703869 ], [ -80.126156858106413, 15.185465126945235 ], [ -79.847695380407174, 14.788587517581693 ] ] ] ] } },
{ "type": "Feature", "properties": { "geogrid_id": "5214798379083704261", "seqnum": 34421.0, "lat_c": 14.798378765568598, "lon_c": -83.704260919701298, "res": 8.0, "count_Birds": 28, "count_Reptiles": 4, "count_Molluscs": 0, "count_Flowering Plants": 1, "count_Amphibians": 5, "count_Arachnids": 0, "count_Insects": 7, "count_Basidiomycota": 0, "count_Mammals": 0, "count_Mosses": 0, "count_Sac Fungi": 0, "count_Gymnosperms": 1, "count_Ferns": 0, "unique_species_count": 46.0, "countryCode": "NI" }, "geometry": { "type": "MultiPolygon", "coordinates": [ [ [ [ -83.151250038650218, 14.800672110525397 ], [ -83.413799876536629, 14.407450041741363 ], [ -83.965402761672124, 14.4051261975341 ], [ -84.258248068495149, 14.794542501831661 ], [ -83.997304581185006, 15.187508826276769 ], [ -83.441887799482174, 15.19132921205636 ], [ -83.151250038650218, 14.800672110525397 ] ] ] ] } },
{ "type": "Feature", "properties": { "geogrid_id": "5215180614079575447", "seqnum": 34588.0, "lat_c": 15.180614385450875, "lon_c": -79.575446871298553, "res": 8.0, "count_Birds": 0, "count_Reptiles": 1, "count_Molluscs": 0, "count_Flowering Plants": 0, "count_Amphibians": 0, "count_Arachnids": 0, "count_Insects": 0, "count_Basidiomycota": 0, "count_Mammals": 0, "count_Mosses": 0, "count_Sac Fungi": 0, "count_Gymnosperms": 0, "count_Ferns": 0, "unique_species_count": 1.0, "countryCode": "NI" }, "geometry": { "type": "MultiPolygon", "coordinates": [ [ [ [ -79.025077268250115, 15.174850210455286 ], [ -79.298712481490128, 14.783064306962361 ], [ -79.847695380407174, 14.788587517581693 ], [ -80.126156858106413, 15.185465126945235 ], [ -79.853904042554134, 15.577324252149502 ], [ -79.301778880824699, 15.572246271970844 ], [ -79.025077268250115, 15.174850210455286 ] ] ] ] } },
{ "type": "Feature", "properties": { "geogrid_id": "5215192176081228880", "seqnum": 34505.0, "lat_c": 15.192176120663007, "lon_c": -81.22887977059311, "res": 8.0, "count_Birds": 0, "count_Reptiles": 1, "count_Molluscs": 0, "count_Flowering Plants": 0, "count_Amphibians": 0, "count_Arachnids": 0, "count_Insects": 0, "count_Basidiomycota": 0, "count_Mammals": 0, "count_Mosses": 0, "count_Sac Fungi": 0, "count_Gymnosperms": 0, "count_Ferns": 0, "unique_species_count": 1.0, "countryCode": "NI" }, "geometry": { "type": "MultiPolygon", "coordinates": [ [ [ [ -80.677276201034971, 15.189341981703869 ], [ -80.94673239008722, 14.79691132510453 ], [ -81.496930419497161, 14.799584187999606 ], [ -81.78104912101756, 15.193888941915993 ], [ -81.513076438948573, 15.586269722810639 ], [ -80.95947479674264, 15.584410365994293 ], [ -80.677276201034971, 15.189341981703869 ] ] ] ] } },
{ "type": "Feature", "properties": { "geogrid_id": "5215193577082887450", "seqnum": 34422.0, "lat_c": 15.193576962006812, "lon_c": -82.88745040122717, "res": 8.0, "count_Birds": 2, "count_Reptiles": 0, "count_Molluscs": 3, "count_Flowering Plants": 0, "count_Amphibians": 0, "count_Arachnids": 0, "count_Insects": 0, "count_Basidiomycota": 0, "count_Mammals": 0, "count_Mosses": 0, "count_Sac Fungi": 0, "count_Gymnosperms": 0, "count_Ferns": 0, "unique_species_count": 5.0, "countryCode": "NI" }, "geometry": { "type": "MultiPolygon", "coordinates": [ [ [ [ -82.333873399416291, 15.194390395057896 ], [ -82.599095302489829, 14.801560764539804 ], [ -83.151250038650218, 14.800672110525397 ], [ -83.441887799482174, 15.19132921205636 ], [ -83.178239864951067, 15.583979204522608 ], [ -82.622356966819595, 15.586165963822873 ], [ -82.333873399416291, 15.194390395057896 ] ] ] ] } },
{ "type": "Feature", "properties": { "geogrid_id": "5215581402080406444", "seqnum": 34506.0, "lat_c": 15.581402125177588, "lon_c": -80.406444432614961, "res": 8.0, "count_Birds": 0, "count_Reptiles": 2, "count_Molluscs": 0, "count_Flowering Plants": 0, "count_Amphibians": 0, "count_Arachnids": 0, "count_Insects": 0, "count_Basidiomycota": 0, "count_Mammals": 0, "count_Mosses": 0, "count_Sac Fungi": 0, "count_Gymnosperms": 0, "count_Ferns": 0, "unique_species_count": 2.0, "countryCode": "NI" }, "geometry": { "type": "MultiPolygon", "coordinates": [ [ [ [ -79.853904042554134, 15.577324252149502 ], [ -80.126156858106413, 15.185465126945235 ], [ -80.677276201034971, 15.189341981703869 ], [ -80.95947479674264, 15.584410365994293 ], [ -80.688670261150861, 15.976286855465087 ], [ -80.134191545207344, 15.973091313256839 ], [ -79.853904042554134, 15.577324252149502 ] ] ] ] } },
{ "type": "Feature", "properties": { "geogrid_id": "5215978306081243725", "seqnum": 34424.0, "lat_c": 15.978306432732614, "lon_c": -81.243725271706452, "res": 8.0, "count_Birds": 0, "count_Reptiles": 1, "count_Molluscs": 0, "count_Flowering Plants": 0, "count_Amphibians": 0, "count_Arachnids": 0, "count_Insects": 0, "count_Basidiomycota": 0, "count_Mammals": 0, "count_Mosses": 0, "count_Sac Fungi": 0, "count_Gymnosperms": 0, "count_Ferns": 0, "unique_species_count": 1.0, "countryCode": "NI" }, "geometry": { "type": "MultiPolygon", "coordinates": [ [ [ [ -80.688670261150861, 15.976286855465087 ], [ -80.95947479674264, 15.584410365994293 ], [ -81.513076438948573, 15.586269722810639 ], [ -81.799444875808732, 15.979058939853228 ], [ -81.530149037337722, 16.370898720957783 ], [ -80.972950542282035, 16.369998976947159 ], [ -80.688670261150861, 15.976286855465087 ] ] ] ] } }
]
}
