{
"type": "FeatureCollection",
"name": "NP",
"crs": { "type": "name", "properties": { "name": "urn:ogc:def:crs:OGC:1.3:CRS84" } },
"features": [
{ "type": "Feature", "properties": { "geogrid_id": "826050619087343057", "seqnum": 24932.0, "lat_c": 26.050619134616745, "lon_c": 87.343056509839656, "res": 8.0, "count_Flowering Plants": 14, "count_Insects": 7, "count_Birds": 12, "count_Mammals": 0, "count_Mosses": 0, "count_Molluscs": 0, "count_Gymnosperms": 0, "count_Reptiles": 0, "count_Basidiomycota": 0, "count_Ferns": 0, "count_Sac Fungi": 0, "count_Arachnids": 0, "count_Amphibians": 0, "unique_species_count": 33.0, "countryCode": "NP" }, "geometry": { "type": "MultiPolygon", "coordinates": [ [ [ [ 87.611471937428178, 26.456172297882546 ], [ 87.865783287772544, 25.970507606917515 ], [ 87.598045737073491, 25.565954892332748 ], [ 87.076349191965519, 25.644975108221065 ], [ 86.819159506403764, 26.127714707198564 ], [ 87.086493396661382, 26.534361350207266 ], [ 87.611471937428178, 26.456172297882546 ] ] ] ] } },
{ "type": "Feature", "properties": { "geogrid_id": "826374971088135250", "seqnum": 25014.0, "lat_c": 26.37497072976236, "lon_c": 88.13525024378356, "res": 8.0, "count_Flowering Plants": 152, "count_Insects": 99, "count_Birds": 43, "count_Mammals": 4, "count_Mosses": 0, "count_Molluscs": 1, "count_Gymnosperms": 0, "count_Reptiles": 8, "count_Basidiomycota": 5, "count_Ferns": 3, "count_Sac Fungi": 0, "count_Arachnids": 4, "count_Amphibians": 5, "unique_species_count": 324.0, "countryCode": "NP" }, "geometry": { "type": "MultiPolygon", "coordinates": [ [ [ [ 88.40649801232621, 26.779345864189597 ], [ 88.657723004458887, 26.290653471884635 ], [ 88.387234163028296, 25.887274467608119 ], [ 87.865783287772544, 25.970507606917515 ], [ 87.611471937428178, 26.456172297882546 ], [ 87.881646614273663, 26.86163676911691 ], [ 88.40649801232621, 26.779345864189597 ] ] ] ] } },
{ "type": "Feature", "properties": { "geogrid_id": "826609636086560412", "seqnum": 24851.0, "lat_c": 26.609636171506295, "lon_c": 86.560412341136981, "res": 8.0, "count_Flowering Plants": 19, "count_Insects": 28, "count_Birds": 111, "count_Mammals": 7, "count_Mosses": 0, "count_Molluscs": 0, "count_Gymnosperms": 0, "count_Reptiles": 13, "count_Basidiomycota": 0, "count_Ferns": 0, "count_Sac Fungi": 0, "count_Arachnids": 4, "count_Amphibians": 2, "unique_species_count": 184.0, "countryCode": "NP" }, "geometry": { "type": "MultiPolygon", "coordinates": [ [ [ [ 86.832984550001626, 27.01935765744539 ], [ 87.086493396661382, 26.534361350207266 ], [ 86.819159506403764, 26.127714707198564 ], [ 86.294190187181258, 26.201894889985457 ], [ 86.038607862018978, 26.684453824753653 ], [ 86.309934583017366, 27.095489003427442 ], [ 86.832984550001626, 27.01935765744539 ] ] ] ] } },
{ "type": "Feature", "properties": { "geogrid_id": "826827212084993635", "seqnum": 24688.0, "lat_c": 26.827211897466956, "lon_c": 84.993635026140197, "res": 8.0, "count_Flowering Plants": 2, "count_Insects": 56, "count_Birds": 31, "count_Mammals": 8, "count_Mosses": 0, "count_Molluscs": 0, "count_Gymnosperms": 0, "count_Reptiles": 3, "count_Basidiomycota": 0, "count_Ferns": 0, "count_Sac Fungi": 0, "count_Arachnids": 0, "count_Amphibians": 0, "unique_species_count": 100.0, "countryCode": "NP" }, "geometry": { "type": "MultiPolygon", "coordinates": [ [ [ [ 85.262445327034257, 27.240825625615248 ], [ 85.516347334565125, 26.756979181387351 ], [ 85.247212838484543, 26.344503478647649 ], [ 84.725742724641961, 26.413475551028498 ], [ 84.470475160056537, 26.895151855860185 ], [ 84.738015667999392, 27.310029715033078 ], [ 85.262445327034257, 27.240825625615248 ] ] ] ] } },
{ "type": "Feature", "properties": { "geogrid_id": "826940919087355565", "seqnum": 24933.0, "lat_c": 26.940918760451925, "lon_c": 87.355564964025689, "res": 8.0, "count_Flowering Plants": 104, "count_Insects": 212, "count_Birds": 126, "count_Mammals": 19, "count_Mosses": 3, "count_Molluscs": 2, "count_Gymnosperms": 1, "count_Reptiles": 4, "count_Basidiomycota": 22, "count_Ferns": 8, "count_Sac Fungi": 2, "count_Arachnids": 2, "count_Amphibians": 1, "unique_species_count": 506.0, "countryCode": "NP" }, "geometry": { "type": "MultiPolygon", "coordinates": [ [ [ [ 87.63027857742928, 27.349124533101055 ], [ 87.881646614273663, 26.86163676911691 ], [ 87.611471937428178, 26.456172297882546 ], [ 87.086493396661382, 26.534361350207266 ], [ 86.832984550001626, 27.01935765744539 ], [ 87.106440012637719, 27.42891304551074 ], [ 87.63027857742928, 27.349124533101055 ] ] ] ] } },
{ "type": "Feature", "properties": { "geogrid_id": "827024154083422829", "seqnum": 24525.0, "lat_c": 27.024154281653914, "lon_c": 83.422829271787634, "res": 8.0, "count_Flowering Plants": 27, "count_Insects": 31, "count_Birds": 96, "count_Mammals": 5, "count_Mosses": 0, "count_Molluscs": 2, "count_Gymnosperms": 0, "count_Reptiles": 2, "count_Basidiomycota": 0, "count_Ferns": 0, "count_Sac Fungi": 0, "count_Arachnids": 0, "count_Amphibians": 0, "unique_species_count": 163.0, "countryCode": "NP" }, "geometry": { "type": "MultiPolygon", "coordinates": [ [ [ [ 83.687809976006704, 27.441508211261059 ], [ 83.946871889731298, 26.960799186421305 ], [ 83.6814860075703, 26.544593064168033 ], [ 83.158706507014131, 26.60673981809752 ], [ 82.898351237869065, 27.085217813698254 ], [ 83.162043148033973, 27.503782874285527 ], [ 83.687809976006704, 27.441508211261059 ] ] ] ] } },
{ "type": "Feature", "properties": { "geogrid_id": "827169312085786420", "seqnum": 24770.0, "lat_c": 27.169311893867672, "lon_c": 85.786419898628111, "res": 8.0, "count_Flowering Plants": 76, "count_Insects": 74, "count_Birds": 109, "count_Mammals": 4, "count_Mosses": 1, "count_Molluscs": 1, "count_Gymnosperms": 3, "count_Reptiles": 9, "count_Basidiomycota": 1, "count_Ferns": 3, "count_Sac Fungi": 0, "count_Arachnids": 3, "count_Amphibians": 2, "unique_species_count": 286.0, "countryCode": "NP" }, "geometry": { "type": "MultiPolygon", "coordinates": [ [ [ [ 86.057331528651417, 27.581519154391696 ], [ 86.309934583017366, 27.095489003427442 ], [ 86.038607862018978, 26.684453824753653 ], [ 85.516347334565125, 26.756979181387351 ], [ 85.262445327034257, 27.240825625615248 ], [ 85.53207245822324, 27.65433445623022 ], [ 86.057331528651417, 27.581519154391696 ] ] ] ] } },
{ "type": "Feature", "properties": { "geogrid_id": "827267014088153633", "seqnum": 25015.0, "lat_c": 27.267014221394362, "lon_c": 88.153632834340613, "res": 8.0, "count_Flowering Plants": 253, "count_Insects": 193, "count_Birds": 132, "count_Mammals": 13, "count_Mosses": 21, "count_Molluscs": 0, "count_Gymnosperms": 7, "count_Reptiles": 9, "count_Basidiomycota": 1, "count_Ferns": 0, "count_Sac Fungi": 0, "count_Arachnids": 6, "count_Amphibians": 3, "unique_species_count": 638.0, "countryCode": "NP" }, "geometry": { "type": "MultiPolygon", "coordinates": [ [ [ [ 88.43042131189695, 27.673666602115869 ], [ 88.6795791440519, 27.183634122797535 ], [ 88.40649801232621, 26.779345864189597 ], [ 87.881646614273663, 26.86163676911691 ], [ 87.63027857742928, 27.349124533101055 ], [ 87.905794863380152, 27.757161974186989 ], [ 88.43042131189695, 27.673666602115869 ] ] ] ] } },
{ "type": "Feature", "properties": { "geogrid_id": "827376924084213136", "seqnum": 24607.0, "lat_c": 27.376923911379837, "lon_c": 84.213135664656519, "res": 8.0, "count_Flowering Plants": 227, "count_Insects": 241, "count_Birds": 372, "count_Mammals": 43, "count_Mosses": 0, "count_Molluscs": 1, "count_Gymnosperms": 0, "count_Reptiles": 26, "count_Basidiomycota": 4, "count_Ferns": 3, "count_Sac Fungi": 0, "count_Arachnids": 16, "count_Amphibians": 5, "unique_species_count": 938.0, "countryCode": "NP" }, "geometry": { "type": "MultiPolygon", "coordinates": [ [ [ [ 84.480171713420916, 27.792985354593167 ], [ 84.738015667999392, 27.310029715033078 ], [ 84.470475160056537, 26.895151855860185 ], [ 83.946871889731298, 26.960799186421305 ], [ 83.687809976006704, 27.441508211261059 ], [ 83.953540720938406, 27.858819937385814 ], [ 84.480171713420916, 27.792985354593167 ] ] ] ] } },
{ "type": "Feature", "properties": { "geogrid_id": "827506378086582123", "seqnum": 24852.0, "lat_c": 27.506378334312494, "lon_c": 86.582122523448689, "res": 8.0, "count_Flowering Plants": 263, "count_Insects": 66, "count_Birds": 110, "count_Mammals": 19, "count_Mosses": 19, "count_Molluscs": 1, "count_Gymnosperms": 7, "count_Reptiles": 4, "count_Basidiomycota": 3, "count_Ferns": 2, "count_Sac Fungi": 1, "count_Arachnids": 1, "count_Amphibians": 1, "unique_species_count": 497.0, "countryCode": "NP" }, "geometry": { "type": "MultiPolygon", "coordinates": [ [ [ [ 86.85506449636307, 27.917139957118405 ], [ 87.106440012637719, 27.42891304551074 ], [ 86.832984550001626, 27.01935765744539 ], [ 86.309934583017366, 27.095489003427442 ], [ 86.057331528651417, 27.581519154391696 ], [ 86.328972597259352, 27.993619248102497 ], [ 86.85506449636307, 27.917139957118405 ] ] ] ] } },
{ "type": "Feature", "properties": { "geogrid_id": "827563748082635840", "seqnum": 24444.0, "lat_c": 27.563748440081635, "lon_c": 82.63583958335532, "res": 8.0, "count_Flowering Plants": 22, "count_Insects": 4, "count_Birds": 47, "count_Mammals": 0, "count_Mosses": 1, "count_Molluscs": 0, "count_Gymnosperms": 0, "count_Reptiles": 1, "count_Basidiomycota": 0, "count_Ferns": 0, "count_Sac Fungi": 0, "count_Arachnids": 0, "count_Amphibians": 0, "unique_species_count": 75.0, "countryCode": "NP" }, "geometry": { "type": "MultiPolygon", "coordinates": [ [ [ [ 82.898943507846369, 27.98350666735859 ], [ 83.162043148033973, 27.503782874285527 ], [ 82.898351237869065, 27.085217813698254 ], [ 82.373441565098091, 27.143990752809167 ], [ 82.109203509319741, 27.621405746849767 ], [ 82.370987284698387, 28.042359331487134 ], [ 82.898943507846369, 27.98350666735859 ] ] ] ] } },
{ "type": "Feature", "properties": { "geogrid_id": "827724823085006351", "seqnum": 24689.0, "lat_c": 27.724823397348235, "lon_c": 85.006350728063296, "res": 8.0, "count_Flowering Plants": 619, "count_Insects": 657, "count_Birds": 358, "count_Mammals": 42, "count_Mosses": 68, "count_Molluscs": 5, "count_Gymnosperms": 21, "count_Reptiles": 34, "count_Basidiomycota": 17, "count_Ferns": 32, "count_Sac Fungi": 4, "count_Arachnids": 29, "count_Amphibians": 3, "unique_species_count": 1889.0, "countryCode": "NP" }, "geometry": { "type": "MultiPolygon", "coordinates": [ [ [ [ 85.275365679770402, 28.139551500736022 ], [ 85.53207245822324, 27.65433445623022 ], [ 85.262445327034257, 27.240825625615248 ], [ 84.738015667999392, 27.310029715033078 ], [ 84.480171713420916, 27.792985354593167 ], [ 84.747862784643374, 28.209002283639542 ], [ 85.275365679770402, 28.139551500736022 ] ] ] ] } },
{ "type": "Feature", "properties": { "geogrid_id": "827838320087380674", "seqnum": 24934.0, "lat_c": 27.83832034165081, "lon_c": 87.380673930737501, "res": 8.0, "count_Flowering Plants": 255, "count_Insects": 38, "count_Birds": 34, "count_Mammals": 25, "count_Mosses": 1, "count_Molluscs": 0, "count_Gymnosperms": 3, "count_Reptiles": 0, "count_Basidiomycota": 2, "count_Ferns": 1, "count_Sac Fungi": 1, "count_Arachnids": 3, "count_Amphibians": 0, "unique_species_count": 363.0, "countryCode": "NP" }, "geometry": { "type": "MultiPolygon", "coordinates": [ [ [ [ 87.655570640684545, 28.247598389588219 ], [ 87.905794863380152, 27.757161974186989 ], [ 87.63027857742928, 27.349124533101055 ], [ 87.106440012637719, 27.42891304551074 ], [ 86.85506449636307, 27.917139957118405 ], [ 87.128642109410322, 28.327792823645801 ], [ 87.655570640684545, 28.247598389588219 ] ] ] ] } },
{ "type": "Feature", "properties": { "geogrid_id": "827922327083426463", "seqnum": 24526.0, "lat_c": 27.922327002048625, "lon_c": 83.42646295922178, "res": 8.0, "count_Flowering Plants": 70, "count_Insects": 75, "count_Birds": 151, "count_Mammals": 7, "count_Mosses": 0, "count_Molluscs": 0, "count_Gymnosperms": 0, "count_Reptiles": 3, "count_Basidiomycota": 0, "count_Ferns": 0, "count_Sac Fungi": 0, "count_Arachnids": 4, "count_Amphibians": 0, "unique_species_count": 310.0, "countryCode": "NP" }, "geometry": { "type": "MultiPolygon", "coordinates": [ [ [ [ 83.691488095612613, 28.340869337138663 ], [ 83.953540720938406, 27.858819937385814 ], [ 83.687809976006704, 27.441508211261059 ], [ 83.162043148033973, 27.503782874285527 ], [ 82.898943507846369, 27.98350666735859 ], [ 83.162628032405351, 28.403284780894154 ], [ 83.691488095612613, 28.340869337138663 ] ] ] ] } },
{ "type": "Feature", "properties": { "geogrid_id": "828067757085802404", "seqnum": 24771.0, "lat_c": 28.067756826834145, "lon_c": 85.802404300893372, "res": 8.0, "count_Flowering Plants": 548, "count_Insects": 163, "count_Birds": 242, "count_Mammals": 34, "count_Mosses": 8, "count_Molluscs": 1, "count_Gymnosperms": 9, "count_Reptiles": 14, "count_Basidiomycota": 11, "count_Ferns": 4, "count_Sac Fungi": 6, "count_Arachnids": 5, "count_Amphibians": 3, "unique_species_count": 1048.0, "countryCode": "NP" }, "geometry": { "type": "MultiPolygon", "coordinates": [ [ [ [ 86.073316813477462, 28.481111918693241 ], [ 86.328972597259352, 27.993619248102497 ], [ 86.057331528651417, 27.581519154391696 ], [ 85.53207245822324, 27.65433445623022 ], [ 85.275365679770402, 28.139551500736022 ], [ 85.544933561530826, 28.554233329806451 ], [ 86.073316813477462, 28.481111918693241 ] ] ] ] } },
{ "type": "Feature", "properties": { "geogrid_id": "828098886081842599", "seqnum": 24363.0, "lat_c": 28.098885690512482, "lon_c": 81.842599011545516, "res": 8.0, "count_Flowering Plants": 54, "count_Insects": 56, "count_Birds": 138, "count_Mammals": 27, "count_Mosses": 0, "count_Molluscs": 1, "count_Gymnosperms": 0, "count_Reptiles": 5, "count_Basidiomycota": 0, "count_Ferns": 3, "count_Sac Fungi": 0, "count_Arachnids": 2, "count_Amphibians": 1, "unique_species_count": 287.0, "countryCode": "NP" }, "geometry": { "type": "MultiPolygon", "coordinates": [ [ [ [ 82.10359075992092, 28.521079370645189 ], [ 82.370987284698387, 28.042359331487134 ], [ 82.109203509319741, 27.621405746849767 ], [ 81.582138944465086, 27.676755951651131 ], [ 81.313783177723025, 28.153086758716583 ], [ 81.573424305458431, 28.576459308561205 ], [ 82.10359075992092, 28.521079370645189 ] ] ] ] } },
{ "type": "Feature", "properties": { "geogrid_id": "828165050088182001", "seqnum": 25016.0, "lat_c": 28.165049828377427, "lon_c": 88.182000822905891, "res": 8.0, "count_Flowering Plants": 11, "count_Insects": 1, "count_Birds": 5, "count_Mammals": 1, "count_Mosses": 0, "count_Molluscs": 0, "count_Gymnosperms": 0, "count_Reptiles": 0, "count_Basidiomycota": 0, "count_Ferns": 0, "count_Sac Fungi": 0, "count_Arachnids": 0, "count_Amphibians": 0, "unique_species_count": 18.0, "countryCode": "NP" }, "geometry": { "type": "MultiPolygon", "coordinates": [ [ [ [ 88.458772028478663, 28.572807752901046 ], [ 88.707926042348518, 28.080149197133519 ], [ 88.43042131189695, 27.673666602115869 ], [ 87.905794863380152, 27.757161974186989 ], [ 87.655570640684545, 28.247598389588219 ], [ 87.931002682974935, 28.656766917250405 ], [ 88.458772028478663, 28.572807752901046 ] ] ] ] } },
{ "type": "Feature", "properties": { "geogrid_id": "828254519080254885", "seqnum": 24200.0, "lat_c": 28.254518807059195, "lon_c": 80.254885391192261, "res": 8.0, "count_Flowering Plants": 1, "count_Insects": 0, "count_Birds": 2, "count_Mammals": 0, "count_Mosses": 0, "count_Molluscs": 0, "count_Gymnosperms": 0, "count_Reptiles": 0, "count_Basidiomycota": 0, "count_Ferns": 0, "count_Sac Fungi": 0, "count_Arachnids": 1, "count_Amphibians": 0, "unique_species_count": 4.0, "countryCode": "NP" }, "geometry": { "type": "MultiPolygon", "coordinates": [ [ [ [ 80.511820784244435, 28.680188793280916 ], [ 80.784544001813671, 28.204963890909418 ], [ 80.526739158865425, 27.780541413652809 ], [ 79.998410604301, 27.828980790996116 ], [ 79.724810899297225, 28.301753619548411 ], [ 79.980392807195344, 28.728541100081237 ], [ 80.511820784244435, 28.680188793280916 ] ] ] ] } },
{ "type": "Feature", "properties": { "geogrid_id": "828276108084219902", "seqnum": 24608.0, "lat_c": 28.276108407845097, "lon_c": 84.219901616268643, "res": 8.0, "count_Flowering Plants": 1311, "count_Insects": 533, "count_Birds": 381, "count_Mammals": 35, "count_Mosses": 138, "count_Molluscs": 4, "count_Gymnosperms": 11, "count_Reptiles": 31, "count_Basidiomycota": 9, "count_Ferns": 172, "count_Sac Fungi": 9, "count_Arachnids": 8, "count_Amphibians": 4, "unique_species_count": 2646.0, "countryCode": "NP" }, "geometry": { "type": "MultiPolygon", "coordinates": [ [ [ [ 84.486759672050539, 28.693393197029604 ], [ 84.747862784643374, 28.209002283639542 ], [ 84.480171713420916, 27.792985354593167 ], [ 83.953540720938406, 27.858819937385814 ], [ 83.691488095612613, 28.340869337138663 ], [ 83.956982460574238, 28.759429603181758 ], [ 84.486759672050539, 28.693393197029604 ] ] ] ] } },
{ "type": "Feature", "properties": { "geogrid_id": "828405631086601222", "seqnum": 24853.0, "lat_c": 28.405631239009303, "lon_c": 86.601221919402377, "res": 8.0, "count_Flowering Plants": 61, "count_Insects": 8, "count_Birds": 52, "count_Mammals": 10, "count_Mosses": 0, "count_Molluscs": 0, "count_Gymnosperms": 6, "count_Reptiles": 0, "count_Basidiomycota": 0, "count_Ferns": 0, "count_Sac Fungi": 1, "count_Arachnids": 0, "count_Amphibians": 0, "unique_species_count": 138.0, "countryCode": "NP" }, "geometry": { "type": "MultiPolygon", "coordinates": [ [ [ [ 86.873945737451592, 28.817575000539982 ], [ 87.128642109410322, 28.327792823645801 ], [ 86.85506449636307, 27.917139957118405 ], [ 86.328972597259352, 27.993619248102497 ], [ 86.073316813477462, 28.481111918693241 ], [ 86.344672971196346, 28.894419681603818 ], [ 86.873945737451592, 28.817575000539982 ] ] ] ] } },
{ "type": "Feature", "properties": { "geogrid_id": "828463355082633327", "seqnum": 24445.0, "lat_c": 28.463354709409415, "lon_c": 82.633327091929118, "res": 8.0, "count_Flowering Plants": 49, "count_Insects": 156, "count_Birds": 12, "count_Mammals": 0, "count_Mosses": 0, "count_Molluscs": 0, "count_Gymnosperms": 0, "count_Reptiles": 0, "count_Basidiomycota": 0, "count_Ferns": 0, "count_Sac Fungi": 0, "count_Arachnids": 1, "count_Amphibians": 1, "unique_species_count": 219.0, "countryCode": "NP" }, "geometry": { "type": "MultiPolygon", "coordinates": [ [ [ [ 82.896080442047818, 28.884411939716035 ], [ 83.162628032405351, 28.403284780894154 ], [ 82.898943507846369, 27.98350666735859 ], [ 82.370987284698387, 28.042359331487134 ], [ 82.10359075992092, 28.521079370645189 ], [ 82.364968418309488, 28.943357241314647 ], [ 82.896080442047818, 28.884411939716035 ] ] ] ] } },
{ "type": "Feature", "properties": { "geogrid_id": "828624994085016079", "seqnum": 24690.0, "lat_c": 28.624994133731036, "lon_c": 85.016078933704989, "res": 8.0, "count_Flowering Plants": 193, "count_Insects": 30, "count_Birds": 68, "count_Mammals": 8, "count_Mosses": 0, "count_Molluscs": 0, "count_Gymnosperms": 8, "count_Reptiles": 1, "count_Basidiomycota": 1, "count_Ferns": 2, "count_Sac Fungi": 2, "count_Arachnids": 1, "count_Amphibians": 1, "unique_species_count": 315.0, "countryCode": "NP" }, "geometry": { "type": "MultiPolygon", "coordinates": [ [ [ [ 85.284676363887087, 29.040981019458812 ], [ 85.544933561530826, 28.554233329806451 ], [ 85.275365679770402, 28.139551500736022 ], [ 84.747862784643374, 28.209002283639542 ], [ 84.486759672050539, 28.693393197029604 ], [ 84.753967586690692, 29.110694510304398 ], [ 85.284676363887087, 29.040981019458812 ] ] ] ] } },
{ "type": "Feature", "properties": { "geogrid_id": "828629495081042833", "seqnum": 24282.0, "lat_c": 28.6294953832723, "lon_c": 81.042832741688173, "res": 8.0, "count_Flowering Plants": 98, "count_Insects": 155, "count_Birds": 263, "count_Mammals": 24, "count_Mosses": 0, "count_Molluscs": 1, "count_Gymnosperms": 0, "count_Reptiles": 15, "count_Basidiomycota": 2, "count_Ferns": 1, "count_Sac Fungi": 0, "count_Arachnids": 7, "count_Amphibians": 2, "unique_species_count": 568.0, "countryCode": "NP" }, "geometry": { "type": "MultiPolygon", "coordinates": [ [ [ [ 81.301452881320131, 29.05415657677808 ], [ 81.573424305458431, 28.576459308561205 ], [ 81.313783177723025, 28.153086758716583 ], [ 80.784544001813671, 28.204963890909418 ], [ 80.511820784244435, 28.680188793280916 ], [ 80.769060848424729, 29.106011687741109 ], [ 81.301452881320131, 29.05415657677808 ] ] ] ] } },
{ "type": "Feature", "properties": { "geogrid_id": "828823103083426754", "seqnum": 24527.0, "lat_c": 28.823102665265477, "lon_c": 83.426753893561298, "res": 8.0, "count_Flowering Plants": 313, "count_Insects": 208, "count_Birds": 140, "count_Mammals": 16, "count_Mosses": 1, "count_Molluscs": 1, "count_Gymnosperms": 7, "count_Reptiles": 6, "count_Basidiomycota": 4, "count_Ferns": 13, "count_Sac Fungi": 2, "count_Arachnids": 5, "count_Amphibians": 2, "unique_species_count": 718.0, "countryCode": "NP" }, "geometry": { "type": "MultiPolygon", "coordinates": [ [ [ [ 83.691166543483718, 29.242980731243904 ], [ 83.956982460574238, 28.759429603181758 ], [ 83.691488095612613, 28.340869337138663 ], [ 83.162628032405351, 28.403284780894154 ], [ 82.896080442047818, 28.884411939716035 ], [ 83.159089047125704, 29.305551551224738 ], [ 83.691166543483718, 29.242980731243904 ] ] ] ] } },
{ "type": "Feature", "properties": { "geogrid_id": "828999939081833424", "seqnum": 24364.0, "lat_c": 28.999938659581986, "lon_c": 81.833423938219994, "res": 8.0, "count_Flowering Plants": 33, "count_Insects": 22, "count_Birds": 17, "count_Mammals": 2, "count_Mosses": 0, "count_Molluscs": 0, "count_Gymnosperms": 2, "count_Reptiles": 1, "count_Basidiomycota": 0, "count_Ferns": 0, "count_Sac Fungi": 0, "count_Arachnids": 1, "count_Amphibians": 1, "unique_species_count": 79.0, "countryCode": "NP" }, "geometry": { "type": "MultiPolygon", "coordinates": [ [ [ [ 82.093616079336897, 29.42354561759684 ], [ 82.364968418309488, 28.943357241314647 ], [ 82.10359075992092, 28.521079370645189 ], [ 81.573424305458431, 28.576459308561205 ], [ 81.301452881320131, 29.05415657677808 ], [ 81.560234458637638, 29.478968441065252 ], [ 82.093616079336897, 29.42354561759684 ] ] ] ] } },
{ "type": "Feature", "properties": { "geogrid_id": "829155505080236253", "seqnum": 24201.0, "lat_c": 29.155505021833608, "lon_c": 80.236253116578936, "res": 8.0, "count_Flowering Plants": 24, "count_Insects": 88, "count_Birds": 47, "count_Mammals": 5, "count_Mosses": 0, "count_Molluscs": 1, "count_Gymnosperms": 0, "count_Reptiles": 2, "count_Basidiomycota": 0, "count_Ferns": 0, "count_Sac Fungi": 0, "count_Arachnids": 0, "count_Amphibians": 1, "unique_species_count": 168.0, "countryCode": "NP" }, "geometry": { "type": "MultiPolygon", "coordinates": [ [ [ [ 80.492213723917487, 29.582666747185556 ], [ 80.769060848424729, 29.106011687741109 ], [ 80.511820784244435, 28.680188793280916 ], [ 79.980392807195344, 28.728541100081237 ], [ 79.703034591160076, 29.202637967306888 ], [ 79.957586791490684, 29.630943597059755 ], [ 80.492213723917487, 29.582666747185556 ] ] ] ] } },
{ "type": "Feature", "properties": { "geogrid_id": "829178028084222795", "seqnum": 24609.0, "lat_c": 29.178028103735116, "lon_c": 84.222795168643728, "res": 8.0, "count_Flowering Plants": 14, "count_Insects": 2, "count_Birds": 34, "count_Mammals": 5, "count_Mosses": 0, "count_Molluscs": 0, "count_Gymnosperms": 0, "count_Reptiles": 1, "count_Basidiomycota": 0, "count_Ferns": 0, "count_Sac Fungi": 1, "count_Arachnids": 0, "count_Amphibians": 0, "unique_species_count": 57.0, "countryCode": "NP" }, "geometry": { "type": "MultiPolygon", "coordinates": [ [ [ [ 84.488759156540439, 29.596685711431576 ], [ 84.753967586690692, 29.110694510304398 ], [ 84.486759672050539, 28.693393197029604 ], [ 83.956982460574238, 28.759429603181758 ], [ 83.691166543483718, 29.242980731243904 ], [ 83.955694694394666, 29.662939894998978 ], [ 84.488759156540439, 29.596685711431576 ] ] ] ] } },
{ "type": "Feature", "properties": { "geogrid_id": "829365740082626570", "seqnum": 24446.0, "lat_c": 29.365739962256495, "lon_c": 82.62656988202788, "res": 8.0, "count_Flowering Plants": 91, "count_Insects": 33, "count_Birds": 9, "count_Mammals": 6, "count_Mosses": 0, "count_Molluscs": 0, "count_Gymnosperms": 3, "count_Reptiles": 1, "count_Basidiomycota": 0, "count_Ferns": 1, "count_Sac Fungi": 0, "count_Arachnids": 0, "count_Amphibians": 0, "unique_species_count": 144.0, "countryCode": "NP" }, "geometry": { "type": "MultiPolygon", "coordinates": [ [ [ [ 82.888215112623769, 29.788248560476774 ], [ 83.159089047125704, 29.305551551224738 ], [ 82.896080442047818, 28.884411939716035 ], [ 82.364968418309488, 28.943357241314647 ], [ 82.093616079336897, 29.42354561759684 ], [ 82.353816164618507, 29.847301281070735 ], [ 82.888215112623769, 29.788248560476774 ] ] ] ] } },
{ "type": "Feature", "properties": { "geogrid_id": "829532009081026432", "seqnum": 24283.0, "lat_c": 29.532008644522353, "lon_c": 81.026431585115034, "res": 8.0, "count_Flowering Plants": 133, "count_Insects": 23, "count_Birds": 20, "count_Mammals": 2, "count_Mosses": 0, "count_Molluscs": 0, "count_Gymnosperms": 0, "count_Reptiles": 1, "count_Basidiomycota": 4, "count_Ferns": 0, "count_Sac Fungi": 0, "count_Arachnids": 0, "count_Amphibians": 0, "unique_species_count": 183.0, "countryCode": "NP" }, "geometry": { "type": "MultiPolygon", "coordinates": [ [ [ [ 81.28373908153165, 29.958200949658888 ], [ 81.560234458637638, 29.478968441065252 ], [ 81.301452881320131, 29.05415657677808 ], [ 80.769060848424729, 29.106011687741109 ], [ 80.492213723917487, 29.582666747185556 ], [ 80.748075896309942, 30.010047684321474 ], [ 81.28373908153165, 29.958200949658888 ] ] ] ] } },
{ "type": "Feature", "properties": { "geogrid_id": "829726795083422177", "seqnum": 24528.0, "lat_c": 29.726794510913749, "lon_c": 83.42217729430557, "res": 8.0, "count_Flowering Plants": 1, "count_Insects": 0, "count_Birds": 0, "count_Mammals": 1, "count_Mosses": 0, "count_Molluscs": 0, "count_Gymnosperms": 0, "count_Reptiles": 0, "count_Basidiomycota": 0, "count_Ferns": 0, "count_Sac Fungi": 0, "count_Arachnids": 0, "count_Amphibians": 0, "unique_species_count": 2.0, "countryCode": "NP" }, "geometry": { "type": "MultiPolygon", "coordinates": [ [ [ [ 83.685150569504373, 30.148162180023935 ], [ 83.955694694394666, 29.662939894998978 ], [ 83.691166543483718, 29.242980731243904 ], [ 83.159089047125704, 29.305551551224738 ], [ 82.888215112623769, 29.788248560476774 ], [ 83.1497043773456, 30.210904372790907 ], [ 83.685150569504373, 30.148162180023935 ] ] ] ] } },
{ "type": "Feature", "properties": { "geogrid_id": "829903952081818988", "seqnum": 24365.0, "lat_c": 29.903952159996049, "lon_c": 81.818988284294875, "res": 8.0, "count_Flowering Plants": 67, "count_Insects": 30, "count_Birds": 4, "count_Mammals": 4, "count_Mosses": 0, "count_Molluscs": 0, "count_Gymnosperms": 2, "count_Reptiles": 1, "count_Basidiomycota": 0, "count_Ferns": 0, "count_Sac Fungi": 1, "count_Arachnids": 0, "count_Amphibians": 1, "unique_species_count": 110.0, "countryCode": "NP" }, "geometry": { "type": "MultiPolygon", "coordinates": [ [ [ [ 82.077503997139843, 30.329129043557991 ], [ 82.353816164618507, 29.847301281070735 ], [ 82.093616079336897, 29.42354561759684 ], [ 81.560234458637638, 29.478968441065252 ], [ 81.28373908153165, 29.958200949658888 ], [ 81.540767465666931, 30.384609915784321 ], [ 82.077503997139843, 30.329129043557991 ] ] ] ] } },
{ "type": "Feature", "properties": { "geogrid_id": "830059493080212006", "seqnum": 24202.0, "lat_c": 30.059492698659451, "lon_c": 80.2120057497782, "res": 8.0, "count_Flowering Plants": 6, "count_Insects": 4, "count_Birds": 3, "count_Mammals": 1, "count_Mosses": 0, "count_Molluscs": 0, "count_Gymnosperms": 0, "count_Reptiles": 0, "count_Basidiomycota": 0, "count_Ferns": 0, "count_Sac Fungi": 0, "count_Arachnids": 0, "count_Amphibians": 0, "unique_species_count": 14.0, "countryCode": "NP" }, "geometry": { "type": "MultiPolygon", "coordinates": [ [ [ [ 80.466064179071438, 30.488306637587186 ], [ 80.748075896309942, 30.010047684321474 ], [ 80.492213723917487, 29.582666747185556 ], [ 79.957586791490684, 29.630943597059755 ], [ 79.675535291872436, 30.106536648411975 ], [ 79.928113530075194, 30.536522482439409 ], [ 80.466064179071438, 30.488306637587186 ] ] ] ] } },
{ "type": "Feature", "properties": { "geogrid_id": "830437669081003618", "seqnum": 24284.0, "lat_c": 30.437669163203662, "lon_c": 81.003618119659905, "res": 8.0, "count_Flowering Plants": 2, "count_Insects": 0, "count_Birds": 1, "count_Mammals": 2, "count_Mosses": 0, "count_Molluscs": 0, "count_Gymnosperms": 0, "count_Reptiles": 0, "count_Basidiomycota": 0, "count_Ferns": 0, "count_Sac Fungi": 0, "count_Arachnids": 0, "count_Amphibians": 0, "unique_species_count": 5.0, "countryCode": "NP" }, "geometry": { "type": "MultiPolygon", "coordinates": [ [ [ [ 81.258593716475033, 30.865552282734136 ], [ 81.540767465666931, 30.384609915784321 ], [ 81.28373908153165, 29.958200949658888 ], [ 80.748075896309942, 30.010047684321474 ], [ 80.466064179071438, 30.488306637587186 ], [ 80.719508640954444, 30.917406414124752 ], [ 81.258593716475033, 30.865552282734136 ] ] ] ] } }
]
}
