{
"type": "FeatureCollection",
"name": "OM",
"crs": { "type": "name", "properties": { "name": "urn:ogc:def:crs:OGC:1.3:CRS84" } },
"features": [
{ "type": "Feature", "properties": { "geogrid_id": "814183263054602581", "seqnum": 21331.0, "lat_c": 14.183262703250209, "lon_c": 54.602581453955608, "res": 8.0, "count_Flowering Plants": 0, "count_Reptiles": 1, "count_Insects": 0, "count_Molluscs": 0, "count_Birds": 0, "count_Mammals": 0, "count_Ferns": 0, "count_Arachnids": 0, "count_Gymnosperms": 0, "count_Basidiomycota": 0, "count_Amphibians": 0, "count_Sac Fungi": 0, "unique_species_count": 1.0, "countryCode": "OM" }, "geometry": { "type": "MultiPolygon", "coordinates": [ [ [ [ 54.774339808774741, 14.620624290780686 ], [ 55.099790590899921, 14.19133277950456 ], [ 54.927536828593659, 13.753537615353366 ], [ 54.431678705108581, 13.745595964361296 ], [ 54.105596720365263, 14.176057558275058 ], [ 54.275968420941425, 14.613275087848281 ], [ 54.774339808774741, 14.620624290780686 ] ] ] ] } },
{ "type": "Feature", "properties": { "geogrid_id": "814209371056094660", "seqnum": 21494.0, "lat_c": 14.209371091171429, "lon_c": 56.094659524549343, "res": 8.0, "count_Flowering Plants": 0, "count_Reptiles": 1, "count_Insects": 0, "count_Molluscs": 0, "count_Birds": 0, "count_Mammals": 0, "count_Ferns": 0, "count_Arachnids": 0, "count_Gymnosperms": 0, "count_Basidiomycota": 0, "count_Amphibians": 0, "count_Sac Fungi": 0, "unique_species_count": 1.0, "countryCode": "OM" }, "geometry": { "type": "MultiPolygon", "coordinates": [ [ [ [ 56.270502268685334, 14.647126830297299 ], [ 56.592223289838699, 14.219021212764302 ], [ 56.4159905737286, 13.78089160508976 ], [ 55.919740365286778, 13.771341913858526 ], [ 55.597166903569025, 14.200090511202188 ], [ 55.771661352885481, 14.637724240449277 ], [ 56.270502268685334, 14.647126830297299 ] ] ] ] } },
{ "type": "Feature", "properties": { "geogrid_id": "814606981053777874", "seqnum": 21250.0, "lat_c": 14.606981144006435, "lon_c": 53.777874496468016, "res": 8.0, "count_Flowering Plants": 0, "count_Reptiles": 1, "count_Insects": 0, "count_Molluscs": 0, "count_Birds": 0, "count_Mammals": 0, "count_Ferns": 0, "count_Arachnids": 0, "count_Gymnosperms": 0, "count_Basidiomycota": 0, "count_Amphibians": 0, "count_Sac Fungi": 0, "unique_species_count": 1.0, "countryCode": "OM" }, "geometry": { "type": "MultiPolygon", "coordinates": [ [ [ [ 53.947680850161291, 15.043736771306857 ], [ 54.275968420941425, 14.613275087848281 ], [ 54.105596720365263, 14.176057558275058 ], [ 53.608900709631875, 14.169908144476748 ], [ 53.280131473270082, 14.601952271866077 ], [ 53.448503846903556, 15.038553230438451 ], [ 53.947680850161291, 15.043736771306857 ] ] ] ] } },
{ "type": "Feature", "properties": { "geogrid_id": "814628834055272923", "seqnum": 21413.0, "lat_c": 14.62883418700113, "lon_c": 55.272923420364705, "res": 8.0, "count_Flowering Plants": 0, "count_Reptiles": 1, "count_Insects": 0, "count_Molluscs": 0, "count_Birds": 0, "count_Mammals": 1, "count_Ferns": 0, "count_Arachnids": 0, "count_Gymnosperms": 0, "count_Basidiomycota": 0, "count_Amphibians": 0, "count_Sac Fungi": 0, "unique_species_count": 2.0, "countryCode": "OM" }, "geometry": { "type": "MultiPolygon", "coordinates": [ [ [ [ 55.446961525474428, 15.066056180530781 ], [ 55.771661352885481, 14.637724240449277 ], [ 55.597166903569025, 14.200090511202188 ], [ 55.099790590899921, 14.19133277950456 ], [ 54.774339808774741, 14.620624290780686 ], [ 54.946980087995911, 15.057694589987118 ], [ 55.446961525474428, 15.066056180530781 ] ] ] ] } },
{ "type": "Feature", "properties": { "geogrid_id": "814656886056769401", "seqnum": 21576.0, "lat_c": 14.656886230350079, "lon_c": 56.769400704143756, "res": 8.0, "count_Flowering Plants": 0, "count_Reptiles": 1, "count_Insects": 0, "count_Molluscs": 0, "count_Birds": 0, "count_Mammals": 0, "count_Ferns": 0, "count_Arachnids": 0, "count_Gymnosperms": 0, "count_Basidiomycota": 0, "count_Amphibians": 0, "count_Sac Fungi": 0, "unique_species_count": 1.0, "countryCode": "OM" }, "geometry": { "type": "MultiPolygon", "coordinates": [ [ [ [ 56.947548428735615, 15.094502067156277 ], [ 57.268316450515371, 14.666857674367984 ], [ 57.089818149170235, 14.228898181709159 ], [ 56.592223289838699, 14.219021212764302 ], [ 56.270502268685334, 14.647126830297299 ], [ 56.447294448138877, 15.08462424501062 ], [ 56.947548428735615, 15.094502067156277 ] ] ] ] } },
{ "type": "Feature", "properties": { "geogrid_id": "814686907058266062", "seqnum": 21739.0, "lat_c": 14.686907364243876, "lon_c": 58.266062044550345, "res": 8.0, "count_Flowering Plants": 0, "count_Reptiles": 1, "count_Insects": 0, "count_Molluscs": 0, "count_Birds": 0, "count_Mammals": 0, "count_Ferns": 0, "count_Arachnids": 0, "count_Gymnosperms": 0, "count_Basidiomycota": 0, "count_Amphibians": 0, "count_Sac Fungi": 0, "unique_species_count": 1.0, "countryCode": "OM" }, "geometry": { "type": "MultiPolygon", "coordinates": [ [ [ [ 58.448189288312996, 15.124777107678112 ], [ 58.764833038513963, 14.696743525190501 ], [ 58.582454748229587, 14.258605767558235 ], [ 58.08496339471963, 14.248810124387905 ], [ 57.767213999183419, 14.676906499954219 ], [ 57.948029209014365, 15.114710130368671 ], [ 58.448189288312996, 15.124777107678112 ] ] ] ] } },
{ "type": "Feature", "properties": { "geogrid_id": "815050189054447198", "seqnum": 21332.0, "lat_c": 15.050188647008907, "lon_c": 54.447197813900047, "res": 8.0, "count_Flowering Plants": 0, "count_Reptiles": 1, "count_Insects": 0, "count_Molluscs": 0, "count_Birds": 0, "count_Mammals": 1, "count_Ferns": 0, "count_Arachnids": 0, "count_Gymnosperms": 0, "count_Basidiomycota": 0, "count_Amphibians": 0, "count_Sac Fungi": 0, "unique_species_count": 2.0, "countryCode": "OM" }, "geometry": { "type": "MultiPolygon", "coordinates": [ [ [ [ 54.619311551357512, 15.486812059773213 ], [ 54.946980087995911, 15.057694589987118 ], [ 54.774339808774741, 14.620624290780686 ], [ 54.275968420941425, 14.613275087848281 ], [ 53.947680850161291, 15.043736771306857 ], [ 54.118346449820422, 15.480188214957785 ], [ 54.619311551357512, 15.486812059773213 ] ] ] ] } },
{ "type": "Feature", "properties": { "geogrid_id": "815075090055947084", "seqnum": 21495.0, "lat_c": 15.075089558375232, "lon_c": 55.947083571296751, "res": 8.0, "count_Flowering Plants": 0, "count_Reptiles": 1, "count_Insects": 0, "count_Molluscs": 0, "count_Birds": 0, "count_Mammals": 1, "count_Ferns": 0, "count_Arachnids": 0, "count_Gymnosperms": 0, "count_Basidiomycota": 0, "count_Amphibians": 0, "count_Sac Fungi": 0, "unique_species_count": 2.0, "countryCode": "OM" }, "geometry": { "type": "MultiPolygon", "coordinates": [ [ [ [ 56.123459785510512, 15.512201779711756 ], [ 56.447294448138877, 15.08462424501062 ], [ 56.270502268685334, 14.647126830297299 ], [ 55.771661352885481, 14.637724240449277 ], [ 55.446961525474428, 15.066056180530781 ], [ 55.621931326869834, 15.503013646593242 ], [ 56.123459785510512, 15.512201779711756 ] ] ] ] } },
{ "type": "Feature", "properties": { "geogrid_id": "815104576057447805", "seqnum": 21658.0, "lat_c": 15.104576172606796, "lon_c": 57.44780518548491, "res": 8.0, "count_Flowering Plants": 0, "count_Reptiles": 1, "count_Insects": 0, "count_Molluscs": 0, "count_Birds": 0, "count_Mammals": 0, "count_Ferns": 0, "count_Arachnids": 0, "count_Gymnosperms": 0, "count_Basidiomycota": 0, "count_Amphibians": 0, "count_Sac Fungi": 0, "unique_species_count": 1.0, "countryCode": "OM" }, "geometry": { "type": "MultiPolygon", "coordinates": [ [ [ [ 57.628309751371717, 15.542069891018702 ], [ 57.948029209014365, 15.114710130368671 ], [ 57.767213999183419, 14.676906499954219 ], [ 57.268316450515371, 14.666857674367984 ], [ 56.947548428735615, 15.094502067156277 ], [ 57.126692173324926, 15.531884698894213 ], [ 57.628309751371717, 15.542069891018702 ] ] ] ] } },
{ "type": "Feature", "properties": { "geogrid_id": "815474835053617709", "seqnum": 21251.0, "lat_c": 15.474835297421054, "lon_c": 53.617709409758703, "res": 8.0, "count_Flowering Plants": 0, "count_Reptiles": 1, "count_Insects": 0, "count_Molluscs": 0, "count_Birds": 0, "count_Mammals": 1, "count_Ferns": 0, "count_Arachnids": 0, "count_Gymnosperms": 0, "count_Basidiomycota": 0, "count_Amphibians": 0, "count_Sac Fungi": 0, "unique_species_count": 2.0, "countryCode": "OM" }, "geometry": { "type": "MultiPolygon", "coordinates": [ [ [ [ 53.78777513419903, 15.910811446799862 ], [ 54.118346449820422, 15.480188214957785 ], [ 53.947680850161291, 15.043736771306857 ], [ 53.448503846903556, 15.038553230438451 ], [ 53.117486193749251, 15.470990123472257 ], [ 53.286054483862138, 15.906788747100709 ], [ 53.78777513419903, 15.910811446799862 ] ] ] ] } },
{ "type": "Feature", "properties": { "geogrid_id": "815494488055120529", "seqnum": 21414.0, "lat_c": 15.494487990871709, "lon_c": 55.120528855865388, "res": 8.0, "count_Flowering Plants": 0, "count_Reptiles": 1, "count_Insects": 0, "count_Molluscs": 0, "count_Birds": 0, "count_Mammals": 1, "count_Ferns": 0, "count_Arachnids": 0, "count_Gymnosperms": 0, "count_Basidiomycota": 0, "count_Amphibians": 0, "count_Sac Fungi": 0, "unique_species_count": 2.0, "countryCode": "OM" }, "geometry": { "type": "MultiPolygon", "coordinates": [ [ [ [ 55.295012916424163, 15.931019459093456 ], [ 55.621931326869834, 15.503013646593242 ], [ 55.446961525474428, 15.066056180530781 ], [ 54.946980087995911, 15.057694589987118 ], [ 54.619311551357512, 15.486812059773213 ], [ 54.792336560317501, 15.923159703164714 ], [ 55.295012916424163, 15.931019459093456 ] ] ] ] } },
{ "type": "Feature", "properties": { "geogrid_id": "815521879056625062", "seqnum": 21577.0, "lat_c": 15.52187901216884, "lon_c": 56.625062050837556, "res": 8.0, "count_Flowering Plants": 0, "count_Reptiles": 1, "count_Insects": 0, "count_Molluscs": 0, "count_Birds": 0, "count_Mammals": 1, "count_Ferns": 0, "count_Arachnids": 0, "count_Gymnosperms": 0, "count_Basidiomycota": 0, "count_Amphibians": 0, "count_Sac Fungi": 0, "unique_species_count": 2.0, "countryCode": "OM" }, "geometry": { "type": "MultiPolygon", "coordinates": [ [ [ [ 56.803831181424449, 15.958907419145563 ], [ 57.126692173324926, 15.531884698894213 ], [ 56.947548428735615, 15.094502067156277 ], [ 56.447294448138877, 15.08462424501062 ], [ 56.123459785510512, 15.512201779711756 ], [ 56.300816382255455, 15.949076823109754 ], [ 56.803831181424449, 15.958907419145563 ] ] ] ] } },
{ "type": "Feature", "properties": { "geogrid_id": "815552296058129879", "seqnum": 21740.0, "lat_c": 15.552296389594096, "lon_c": 58.129879321694389, "res": 8.0, "count_Flowering Plants": 0, "count_Reptiles": 1, "count_Insects": 0, "count_Molluscs": 0, "count_Birds": 0, "count_Mammals": 0, "count_Ferns": 0, "count_Arachnids": 0, "count_Gymnosperms": 0, "count_Basidiomycota": 0, "count_Amphibians": 0, "count_Sac Fungi": 0, "unique_species_count": 1.0, "countryCode": "OM" }, "geometry": { "type": "MultiPolygon", "coordinates": [ [ [ [ 58.312789373110725, 15.989682280985004 ], [ 58.631369815522582, 15.562435881693229 ], [ 58.448189288312996, 15.124777107678112 ], [ 57.948029209014365, 15.114710130368671 ], [ 57.628309751371717, 15.542069891018702 ], [ 57.809855571768374, 15.979355655385445 ], [ 58.312789373110725, 15.989682280985004 ] ] ] ] } },
{ "type": "Feature", "properties": { "geogrid_id": "815916349054289898", "seqnum": 21333.0, "lat_c": 15.916349187635669, "lon_c": 54.289898280352119, "res": 8.0, "count_Flowering Plants": 0, "count_Reptiles": 1, "count_Insects": 0, "count_Molluscs": 0, "count_Birds": 0, "count_Mammals": 2, "count_Ferns": 0, "count_Arachnids": 0, "count_Gymnosperms": 0, "count_Basidiomycota": 0, "count_Amphibians": 0, "count_Sac Fungi": 0, "unique_species_count": 3.0, "countryCode": "OM" }, "geometry": { "type": "MultiPolygon", "coordinates": [ [ [ [ 54.462363633405317, 16.352233977998804 ], [ 54.792336560317501, 15.923159703164714 ], [ 54.619311551357512, 15.486812059773213 ], [ 54.118346449820422, 15.480188214957785 ], [ 53.78777513419903, 15.910811446799862 ], [ 53.958728330037729, 16.346495191438361 ], [ 54.462363633405317, 16.352233977998804 ] ] ] ] } },
{ "type": "Feature", "properties": { "geogrid_id": "815939722055797859", "seqnum": 21496.0, "lat_c": 15.939722064156264, "lon_c": 55.797859446460251, "res": 8.0, "count_Flowering Plants": 0, "count_Reptiles": 1, "count_Insects": 0, "count_Molluscs": 0, "count_Birds": 0, "count_Mammals": 1, "count_Ferns": 0, "count_Arachnids": 0, "count_Gymnosperms": 0, "count_Basidiomycota": 0, "count_Amphibians": 0, "count_Sac Fungi": 0, "unique_species_count": 2.0, "countryCode": "OM" }, "geometry": { "type": "MultiPolygon", "coordinates": [ [ [ [ 55.97477269245384, 16.376197557612116 ], [ 56.300816382255455, 15.949076823109754 ], [ 56.123459785510512, 15.512201779711756 ], [ 55.621931326869834, 15.503013646593242 ], [ 55.295012916424163, 15.931019459093456 ], [ 55.470459304019329, 16.367304589112017 ], [ 55.97477269245384, 16.376197557612116 ] ] ] ] } },
{ "type": "Feature", "properties": { "geogrid_id": "815969051057306858", "seqnum": 21659.0, "lat_c": 15.969050714046499, "lon_c": 57.306857719581551, "res": 8.0, "count_Flowering Plants": 0, "count_Reptiles": 0, "count_Insects": 0, "count_Molluscs": 0, "count_Birds": 0, "count_Mammals": 1, "count_Ferns": 0, "count_Arachnids": 0, "count_Gymnosperms": 0, "count_Basidiomycota": 0, "count_Amphibians": 0, "count_Sac Fungi": 0, "unique_species_count": 1.0, "countryCode": "OM" }, "geometry": { "type": "MultiPolygon", "coordinates": [ [ [ [ 57.488070889675839, 16.406017363911765 ], [ 57.809855571768374, 15.979355655385445 ], [ 57.628309751371717, 15.542069891018702 ], [ 57.126692173324926, 15.531884698894213 ], [ 56.803831181424449, 15.958907419145563 ], [ 56.983628035233551, 16.395726415166141 ], [ 57.488070889675839, 16.406017363911765 ] ] ] ] } },
{ "type": "Feature", "properties": { "geogrid_id": "816342278053455483", "seqnum": 21252.0, "lat_c": 16.342278078988496, "lon_c": 53.4554830944681, "res": 8.0, "count_Flowering Plants": 55, "count_Reptiles": 11, "count_Insects": 43, "count_Molluscs": 1, "count_Birds": 38, "count_Mammals": 4, "count_Ferns": 1, "count_Arachnids": 1, "count_Gymnosperms": 0, "count_Basidiomycota": 0, "count_Amphibians": 0, "count_Sac Fungi": 0, "unique_species_count": 154.0, "countryCode": "OM" }, "geometry": { "type": "MultiPolygon", "coordinates": [ [ [ [ 53.625799643031684, 16.777471325262166 ], [ 53.958728330037729, 16.346495191438361 ], [ 53.78777513419903, 15.910811446799862 ], [ 53.286054483862138, 15.906788747100709 ], [ 52.952728994367284, 16.339851908584393 ], [ 53.121482292609834, 16.774845578492663 ], [ 53.625799643031684, 16.777471325262166 ] ] ] ] } },
{ "type": "Feature", "properties": { "geogrid_id": "816359247054966300", "seqnum": 21415.0, "lat_c": 16.359246560027415, "lon_c": 54.966300038520018, "res": 8.0, "count_Flowering Plants": 0, "count_Reptiles": 1, "count_Insects": 0, "count_Molluscs": 0, "count_Birds": 3, "count_Mammals": 3, "count_Ferns": 0, "count_Arachnids": 0, "count_Gymnosperms": 0, "count_Basidiomycota": 0, "count_Amphibians": 0, "count_Sac Fungi": 0, "unique_species_count": 7.0, "countryCode": "OM" }, "geometry": { "type": "MultiPolygon", "coordinates": [ [ [ [ 55.141229446880125, 16.795088276902462 ], [ 55.470459304019329, 16.367304589112017 ], [ 55.295012916424163, 15.931019459093456 ], [ 54.792336560317501, 15.923159703164714 ], [ 54.462363633405317, 16.352233977998804 ], [ 54.6357701056195, 16.787857507720034 ], [ 55.141229446880125, 16.795088276902462 ] ] ] ] } },
{ "type": "Feature", "properties": { "geogrid_id": "816385731056479180", "seqnum": 21578.0, "lat_c": 16.385731263468418, "lon_c": 56.4791798877744, "res": 8.0, "count_Flowering Plants": 0, "count_Reptiles": 1, "count_Insects": 0, "count_Molluscs": 0, "count_Birds": 0, "count_Mammals": 1, "count_Ferns": 0, "count_Arachnids": 0, "count_Gymnosperms": 0, "count_Basidiomycota": 0, "count_Amphibians": 0, "count_Sac Fungi": 0, "unique_species_count": 2.0, "countryCode": "OM" }, "geometry": { "type": "MultiPolygon", "coordinates": [ [ [ [ 56.658576941818879, 16.82218238876991 ], [ 56.983628035233551, 16.395726415166141 ], [ 56.803831181424449, 15.958907419145563 ], [ 56.300816382255455, 15.949076823109754 ], [ 55.97477269245384, 16.376197557612116 ], [ 56.152698039564648, 16.812456954464274 ], [ 56.658576941818879, 16.82218238876991 ] ] ] ] } },
{ "type": "Feature", "properties": { "geogrid_id": "816416451057992468", "seqnum": 21741.0, "lat_c": 16.4164509511962, "lon_c": 57.992468059810896, "res": 8.0, "count_Flowering Plants": 0, "count_Reptiles": 0, "count_Insects": 0, "count_Molluscs": 0, "count_Birds": 0, "count_Mammals": 1, "count_Ferns": 0, "count_Arachnids": 0, "count_Gymnosperms": 0, "count_Basidiomycota": 0, "count_Amphibians": 0, "count_Sac Fungi": 0, "unique_species_count": 1.0, "countryCode": "OM" }, "geometry": { "type": "MultiPolygon", "coordinates": [ [ [ [ 58.176172574115064, 16.853373975885436 ], [ 58.496784337500621, 16.426885460962612 ], [ 58.312789373110725, 15.989682280985004 ], [ 57.809855571768374, 15.979355655385445 ], [ 57.488070889675839, 16.406017363911765 ], [ 57.670357508074076, 16.842802616641272 ], [ 58.176172574115064, 16.853373975885436 ] ] ] ] } },
{ "type": "Feature", "properties": { "geogrid_id": "816781901054130597", "seqnum": 21334.0, "lat_c": 16.781900638518376, "lon_c": 54.130596648229229, "res": 8.0, "count_Flowering Plants": 191, "count_Reptiles": 32, "count_Insects": 224, "count_Molluscs": 21, "count_Birds": 304, "count_Mammals": 29, "count_Ferns": 2, "count_Arachnids": 12, "count_Gymnosperms": 0, "count_Basidiomycota": 1, "count_Amphibians": 1, "count_Sac Fungi": 0, "unique_species_count": 817.0, "countryCode": "OM" }, "geometry": { "type": "MultiPolygon", "coordinates": [ [ [ [ 54.303408082096922, 17.217042550754098 ], [ 54.6357701056195, 16.787857507720034 ], [ 54.462363633405317, 16.352233977998804 ], [ 53.958728330037729, 16.346495191438361 ], [ 53.625799643031684, 16.777471325262166 ], [ 53.797032124584554, 17.212382298041934 ], [ 54.303408082096922, 17.217042550754098 ] ] ] ] } },
{ "type": "Feature", "properties": { "geogrid_id": "816803360055646895", "seqnum": 21497.0, "lat_c": 16.803359662251587, "lon_c": 55.646895269691768, "res": 8.0, "count_Flowering Plants": 0, "count_Reptiles": 1, "count_Insects": 0, "count_Molluscs": 0, "count_Birds": 0, "count_Mammals": 2, "count_Ferns": 0, "count_Arachnids": 0, "count_Gymnosperms": 0, "count_Basidiomycota": 0, "count_Amphibians": 0, "count_Sac Fungi": 0, "unique_species_count": 3.0, "countryCode": "OM" }, "geometry": { "type": "MultiPolygon", "coordinates": [ [ [ [ 55.824348262656358, 17.239201710202121 ], [ 56.152698039564648, 16.812456954464274 ], [ 55.97477269245384, 16.376197557612116 ], [ 55.470459304019329, 16.367304589112017 ], [ 55.141229446880125, 16.795088276902462 ], [ 55.317152497833547, 17.230701227524484 ], [ 55.824348262656358, 17.239201710202121 ] ] ] ] } },
{ "type": "Feature", "properties": { "geogrid_id": "816832354057164479", "seqnum": 21660.0, "lat_c": 16.832353666899873, "lon_c": 57.164478866123822, "res": 8.0, "count_Flowering Plants": 0, "count_Reptiles": 1, "count_Insects": 0, "count_Molluscs": 0, "count_Birds": 0, "count_Mammals": 1, "count_Ferns": 0, "count_Arachnids": 0, "count_Gymnosperms": 0, "count_Basidiomycota": 0, "count_Amphibians": 0, "count_Sac Fungi": 0, "unique_species_count": 2.0, "countryCode": "OM" }, "geometry": { "type": "MultiPolygon", "coordinates": [ [ [ [ 57.346409947130006, 17.268807618694769 ], [ 57.670357508074076, 16.842802616641272 ], [ 57.488070889675839, 16.406017363911765 ], [ 56.983628035233551, 16.395726415166141 ], [ 56.658576941818879, 16.82218238876991 ], [ 56.839034265181056, 17.258448261850347 ], [ 57.346409947130006, 17.268807618694769 ] ] ] ] } },
{ "type": "Feature", "properties": { "geogrid_id": "816894171060198164", "seqnum": 21986.0, "lat_c": 16.894171104664867, "lon_c": 60.198164360125809, "res": 8.0, "count_Flowering Plants": 0, "count_Reptiles": 0, "count_Insects": 0, "count_Molluscs": 0, "count_Birds": 0, "count_Mammals": 0, "count_Ferns": 0, "count_Arachnids": 0, "count_Gymnosperms": 0, "count_Basidiomycota": 0, "count_Amphibians": 0, "count_Sac Fungi": 1, "unique_species_count": 1.0, "countryCode": "OM" }, "geometry": { "type": "MultiPolygon", "coordinates": [ [ [ [ 60.388548874988487, 17.331284274486919 ], [ 60.703222520842644, 16.903405633175058 ], [ 60.512686238524218, 16.46614786053177 ], [ 60.008961438180229, 16.45692958075389 ], [ 59.692909319628995, 16.884441073491939 ], [ 59.881929404747694, 17.321507384820979 ], [ 60.388548874988487, 17.331284274486919 ] ] ] ] } },
{ "type": "Feature", "properties": { "geogrid_id": "817209538053291123", "seqnum": 21253.0, "lat_c": 17.209537613795394, "lon_c": 53.291123078464615, "res": 8.0, "count_Flowering Plants": 55, "count_Reptiles": 11, "count_Insects": 40, "count_Molluscs": 0, "count_Birds": 74, "count_Mammals": 3, "count_Ferns": 0, "count_Arachnids": 3, "count_Gymnosperms": 0, "count_Basidiomycota": 0, "count_Amphibians": 0, "count_Sac Fungi": 0, "unique_species_count": 186.0, "countryCode": "OM" }, "geometry": { "type": "MultiPolygon", "coordinates": [ [ [ [ 53.461679662680915, 17.643941394891542 ], [ 53.797032124584554, 17.212382298041934 ], [ 53.625799643031684, 16.777471325262166 ], [ 53.121482292609834, 16.774845578492663 ], [ 52.785801275029499, 17.208817190767721 ], [ 52.954726422146223, 17.643001296104082 ], [ 53.461679662680915, 17.643941394891542 ] ] ] ] } },
{ "type": "Feature", "properties": { "geogrid_id": "817223235054810146", "seqnum": 21416.0, "lat_c": 17.22323539425652, "lon_c": 54.810145593600389, "res": 8.0, "count_Flowering Plants": 167, "count_Reptiles": 33, "count_Insects": 140, "count_Molluscs": 37, "count_Birds": 203, "count_Mammals": 28, "count_Ferns": 7, "count_Arachnids": 7, "count_Gymnosperms": 1, "count_Basidiomycota": 0, "count_Amphibians": 0, "count_Sac Fungi": 0, "unique_species_count": 623.0, "countryCode": "OM" }, "geometry": { "type": "MultiPolygon", "coordinates": [ [ [ [ 54.985518284924183, 17.65838402002051 ], [ 55.317152497833547, 17.230701227524484 ], [ 55.141229446880125, 16.795088276902462 ], [ 54.6357701056195, 16.787857507720034 ], [ 54.303408082096922, 17.217042550754098 ], [ 54.477190965525757, 17.651936414075688 ], [ 54.985518284924183, 17.65838402002051 ] ] ] ] } },
{ "type": "Feature", "properties": { "geogrid_id": "817248518056331663", "seqnum": 21579.0, "lat_c": 17.248517848219205, "lon_c": 56.331662603518446, "res": 8.0, "count_Flowering Plants": 0, "count_Reptiles": 1, "count_Insects": 0, "count_Molluscs": 0, "count_Birds": 1, "count_Mammals": 2, "count_Ferns": 0, "count_Arachnids": 0, "count_Gymnosperms": 0, "count_Basidiomycota": 0, "count_Amphibians": 0, "count_Sac Fungi": 0, "unique_species_count": 4.0, "countryCode": "OM" }, "geometry": { "type": "MultiPolygon", "coordinates": [ [ [ [ 56.511693608812841, 17.684398667007965 ], [ 56.839034265181056, 17.258448261850347 ], [ 56.658576941818879, 16.82218238876991 ], [ 56.152698039564648, 16.812456954464274 ], [ 55.824348262656358, 17.239201710202121 ], [ 56.002845905937306, 17.674848584533454 ], [ 56.511693608812841, 17.684398667007965 ] ] ] ] } },
{ "type": "Feature", "properties": { "geogrid_id": "817279425057853743", "seqnum": 21742.0, "lat_c": 17.279425215609503, "lon_c": 57.853743355477675, "res": 8.0, "count_Flowering Plants": 0, "count_Reptiles": 1, "count_Insects": 0, "count_Molluscs": 0, "count_Birds": 0, "count_Mammals": 1, "count_Ferns": 0, "count_Arachnids": 0, "count_Gymnosperms": 0, "count_Basidiomycota": 0, "count_Amphibians": 0, "count_Sac Fungi": 0, "unique_species_count": 2.0, "countryCode": "OM" }, "geometry": { "type": "MultiPolygon", "coordinates": [ [ [ [ 58.038254113601347, 17.715904742487471 ], [ 58.360994366235282, 17.290143695089437 ], [ 58.176172574115064, 16.853373975885436 ], [ 57.670357508074076, 16.842802616641272 ], [ 57.346409947130006, 17.268807618694769 ], [ 57.529447522701474, 17.70510755787485 ], [ 58.038254113601347, 17.715904742487471 ] ] ] ] } },
{ "type": "Feature", "properties": { "geogrid_id": "817311314059375115", "seqnum": 21905.0, "lat_c": 17.311313735398571, "lon_c": 59.375115203085798, "res": 8.0, "count_Flowering Plants": 0, "count_Reptiles": 0, "count_Insects": 0, "count_Molluscs": 1, "count_Birds": 0, "count_Mammals": 0, "count_Ferns": 0, "count_Arachnids": 0, "count_Gymnosperms": 0, "count_Basidiomycota": 0, "count_Amphibians": 0, "count_Sac Fungi": 0, "unique_species_count": 1.0, "countryCode": "OM" }, "geometry": { "type": "MultiPolygon", "coordinates": [ [ [ [ 59.563928365445577, 17.748188154591702 ], [ 59.881929404747694, 17.321507384820979 ], [ 59.692909319628995, 16.884441073491939 ], [ 59.187476716423205, 16.874320906639408 ], [ 58.868128286671329, 17.300817882946863 ], [ 59.055526417754393, 17.73758617424156 ], [ 59.563928365445577, 17.748188154591702 ] ] ] ] } },
{ "type": "Feature", "properties": { "geogrid_id": "817644552052448490", "seqnum": 21172.0, "lat_c": 17.644552060760596, "lon_c": 52.448490274439067, "res": 8.0, "count_Flowering Plants": 0, "count_Reptiles": 0, "count_Insects": 2, "count_Molluscs": 1, "count_Birds": 11, "count_Mammals": 0, "count_Ferns": 0, "count_Arachnids": 0, "count_Gymnosperms": 0, "count_Basidiomycota": 0, "count_Amphibians": 0, "count_Sac Fungi": 0, "unique_species_count": 14.0, "countryCode": "OM" }, "geometry": { "type": "MultiPolygon", "coordinates": [ [ [ [ 52.616659733140168, 18.078227493248235 ], [ 52.954726422146223, 17.643001296104082 ], [ 52.785801275029499, 17.208817190767721 ], [ 52.281204036579354, 17.210558020220091 ], [ 51.943132627870234, 17.648973372868035 ], [ 52.109628021022864, 18.082478059232038 ], [ 52.616659733140168, 18.078227493248235 ] ] ] ] } },
{ "type": "Feature", "properties": { "geogrid_id": "817647025053969209", "seqnum": 21335.0, "lat_c": 17.647025480597538, "lon_c": 53.969208916540694, "res": 8.0, "count_Flowering Plants": 74, "count_Reptiles": 27, "count_Insects": 40, "count_Molluscs": 0, "count_Birds": 46, "count_Mammals": 2, "count_Ferns": 0, "count_Arachnids": 7, "count_Gymnosperms": 1, "count_Basidiomycota": 0, "count_Amphibians": 0, "count_Sac Fungi": 0, "unique_species_count": 197.0, "countryCode": "OM" }, "geometry": { "type": "MultiPolygon", "coordinates": [ [ [ [ 54.142358780833497, 18.081416099749767 ], [ 54.477190965525757, 17.651936414075688 ], [ 54.303408082096922, 17.217042550754098 ], [ 53.797032124584554, 17.212382298041934 ], [ 53.461679662680915, 17.643941394891542 ], [ 53.633180780114998, 18.078070979200437 ], [ 54.142358780833497, 18.081416099749767 ] ] ] ] } },
{ "type": "Feature", "properties": { "geogrid_id": "817666103055494097", "seqnum": 21498.0, "lat_c": 17.666102582560352, "lon_c": 55.494097138767607, "res": 8.0, "count_Flowering Plants": 4, "count_Reptiles": 8, "count_Insects": 19, "count_Molluscs": 3, "count_Birds": 74, "count_Mammals": 4, "count_Ferns": 0, "count_Arachnids": 1, "count_Gymnosperms": 0, "count_Basidiomycota": 0, "count_Amphibians": 0, "count_Sac Fungi": 0, "unique_species_count": 113.0, "countryCode": "OM" }, "geometry": { "type": "MultiPolygon", "coordinates": [ [ [ [ 55.672091529547849, 18.101310386288016 ], [ 56.002845905937306, 17.674848584533454 ], [ 55.824348262656358, 17.239201710202121 ], [ 55.317152497833547, 17.230701227524484 ], [ 54.985518284924183, 17.65838402002051 ], [ 55.161916644322915, 18.093320608699806 ], [ 55.672091529547849, 18.101310386288016 ] ] ] ] } },
{ "type": "Feature", "properties": { "geogrid_id": "817694548057020579", "seqnum": 21661.0, "lat_c": 17.694547787579388, "lon_c": 57.020578619620963, "res": 8.0, "count_Flowering Plants": 0, "count_Reptiles": 1, "count_Insects": 0, "count_Molluscs": 0, "count_Birds": 1, "count_Mammals": 2, "count_Ferns": 0, "count_Arachnids": 0, "count_Gymnosperms": 0, "count_Basidiomycota": 0, "count_Amphibians": 0, "count_Sac Fungi": 0, "unique_species_count": 4.0, "countryCode": "OM" }, "geometry": { "type": "MultiPolygon", "coordinates": [ [ [ [ 57.203236758834379, 18.13050078596584 ], [ 57.529447522701474, 17.70510755787485 ], [ 57.346409947130006, 17.268807618694769 ], [ 56.839034265181056, 17.258448261850347 ], [ 56.511693608812841, 17.684398667007965 ], [ 56.692818348486732, 18.1201187485171 ], [ 57.203236758834379, 18.13050078596584 ] ] ] ] } },
{ "type": "Feature", "properties": { "geogrid_id": "817726780058546959", "seqnum": 21824.0, "lat_c": 17.726779903241376, "lon_c": 58.546958518275979, "res": 8.0, "count_Flowering Plants": 0, "count_Reptiles": 1, "count_Insects": 0, "count_Molluscs": 0, "count_Birds": 0, "count_Mammals": 0, "count_Ferns": 0, "count_Arachnids": 0, "count_Gymnosperms": 0, "count_Basidiomycota": 0, "count_Amphibians": 0, "count_Sac Fungi": 0, "unique_species_count": 1.0, "countryCode": "OM" }, "geometry": { "type": "MultiPolygon", "coordinates": [ [ [ [ 58.734089869049335, 18.163303288845047 ], [ 59.055526417754393, 17.73758617424156 ], [ 58.868128286671329, 17.300817882946863 ], [ 58.360994366235282, 17.290143695089437 ], [ 58.038254113601347, 17.715904742487471 ], [ 58.22391529925472, 18.152261685415365 ], [ 58.734089869049335, 18.163303288845047 ] ] ] ] } },
{ "type": "Feature", "properties": { "geogrid_id": "818076889053124566", "seqnum": 21254.0, "lat_c": 18.076889052134092, "lon_c": 53.124566117255782, "res": 8.0, "count_Flowering Plants": 1, "count_Reptiles": 0, "count_Insects": 0, "count_Molluscs": 0, "count_Birds": 13, "count_Mammals": 0, "count_Ferns": 0, "count_Arachnids": 0, "count_Gymnosperms": 0, "count_Basidiomycota": 0, "count_Amphibians": 0, "count_Sac Fungi": 0, "unique_species_count": 14.0, "countryCode": "OM" }, "geometry": { "type": "MultiPolygon", "coordinates": [ [ [ [ 53.295349407577113, 18.510493915457314 ], [ 53.633180780114998, 18.078070979200437 ], [ 53.461679662680915, 17.643941394891542 ], [ 52.954726422146223, 17.643001296104082 ], [ 52.616659733140168, 18.078227493248235 ], [ 52.785741198114906, 18.511596324301259 ], [ 53.295349407577113, 18.510493915457314 ] ] ] ] } },
{ "type": "Feature", "properties": { "geogrid_id": "818086599054651974", "seqnum": 21417.0, "lat_c": 18.086598512572465, "lon_c": 54.651973967420481, "res": 8.0, "count_Flowering Plants": 0, "count_Reptiles": 5, "count_Insects": 0, "count_Molluscs": 0, "count_Birds": 2, "count_Mammals": 0, "count_Ferns": 0, "count_Arachnids": 1, "count_Gymnosperms": 0, "count_Basidiomycota": 0, "count_Amphibians": 0, "count_Sac Fungi": 0, "unique_species_count": 8.0, "countryCode": "OM" }, "geometry": { "type": "MultiPolygon", "coordinates": [ [ [ [ 54.827786081573514, 18.521046011592844 ], [ 55.161916644322915, 18.093320608699806 ], [ 54.985518284924183, 17.65838402002051 ], [ 54.477190965525757, 17.651936414075688 ], [ 54.142358780833497, 18.081416099749767 ], [ 54.316510862696653, 18.51557020645237 ], [ 54.827786081573514, 18.521046011592844 ] ] ] ] } },
{ "type": "Feature", "properties": { "geogrid_id": "818110319056182416", "seqnum": 21580.0, "lat_c": 18.110319032862638, "lon_c": 56.182415965035815, "res": 8.0, "count_Flowering Plants": 0, "count_Reptiles": 5, "count_Insects": 0, "count_Molluscs": 0, "count_Birds": 12, "count_Mammals": 1, "count_Ferns": 0, "count_Arachnids": 0, "count_Gymnosperms": 0, "count_Basidiomycota": 0, "count_Amphibians": 0, "count_Sac Fungi": 0, "unique_species_count": 18.0, "countryCode": "OM" }, "geometry": { "type": "MultiPolygon", "coordinates": [ [ [ [ 56.363086308282725, 18.545632782386569 ], [ 56.692818348486732, 18.1201187485171 ], [ 56.511693608812841, 17.684398667007965 ], [ 56.002845905937306, 17.674848584533454 ], [ 55.672091529547849, 18.101310386288016 ], [ 55.851164012945802, 18.536343640997117 ], [ 56.363086308282725, 18.545632782386569 ] ] ] ] } },
{ "type": "Feature", "properties": { "geogrid_id": "818141274057713618", "seqnum": 21743.0, "lat_c": 18.141273685555944, "lon_c": 57.713617751077422, "res": 8.0, "count_Flowering Plants": 0, "count_Reptiles": 1, "count_Insects": 0, "count_Molluscs": 0, "count_Birds": 1, "count_Mammals": 2, "count_Ferns": 0, "count_Arachnids": 0, "count_Gymnosperms": 0, "count_Basidiomycota": 0, "count_Amphibians": 0, "count_Sac Fungi": 0, "unique_species_count": 4.0, "countryCode": "OM" }, "geometry": { "type": "MultiPolygon", "coordinates": [ [ [ [ 57.898946635080087, 18.577327193473746 ], [ 58.22391529925472, 18.152261685415365 ], [ 58.038254113601347, 17.715904742487471 ], [ 57.529447522701474, 17.70510755787485 ], [ 57.203236758834379, 18.13050078596584 ], [ 57.387035368851038, 18.566328071755134 ], [ 57.898946635080087, 18.577327193473746 ] ] ] ] } },
{ "type": "Feature", "properties": { "geogrid_id": "818511941053805656", "seqnum": 21336.0, "lat_c": 18.511941177762598, "lon_c": 53.805655596541982, "res": 8.0, "count_Flowering Plants": 6, "count_Reptiles": 5, "count_Insects": 22, "count_Molluscs": 0, "count_Birds": 56, "count_Mammals": 1, "count_Ferns": 0, "count_Arachnids": 2, "count_Gymnosperms": 0, "count_Basidiomycota": 0, "count_Amphibians": 0, "count_Sac Fungi": 0, "unique_species_count": 92.0, "countryCode": "OM" }, "geometry": { "type": "MultiPolygon", "coordinates": [ [ [ [ 53.979133712654289, 18.945567640972772 ], [ 54.316510862696653, 18.51557020645237 ], [ 54.142358780833497, 18.081416099749767 ], [ 53.633180780114998, 18.078070979200437 ], [ 53.295349407577113, 18.510493915457314 ], [ 53.467105818485919, 18.943830092082756 ], [ 53.979133712654289, 18.945567640972772 ] ] ] ] } },
{ "type": "Feature", "properties": { "geogrid_id": "818528063055339369", "seqnum": 21499.0, "lat_c": 18.528063309572619, "lon_c": 55.339369394021169, "res": 8.0, "count_Flowering Plants": 0, "count_Reptiles": 0, "count_Insects": 0, "count_Molluscs": 0, "count_Birds": 1, "count_Mammals": 0, "count_Ferns": 0, "count_Arachnids": 0, "count_Gymnosperms": 0, "count_Basidiomycota": 0, "count_Amphibians": 0, "count_Sac Fungi": 0, "unique_species_count": 1.0, "countryCode": "OM" }, "geometry": { "type": "MultiPolygon", "coordinates": [ [ [ [ 55.51790548697074, 18.962631290770656 ], [ 55.851164012945802, 18.536343640997117 ], [ 55.672091529547849, 18.101310386288016 ], [ 55.161916644322915, 18.093320608699806 ], [ 54.827786081573514, 18.521046011592844 ], [ 55.004656610891949, 18.955297050021422 ], [ 55.51790548697074, 18.962631290770656 ] ] ] ] } },
{ "type": "Feature", "properties": { "geogrid_id": "818555698056875064", "seqnum": 21662.0, "lat_c": 18.555698421868122, "lon_c": 56.875064134412582, "res": 8.0, "count_Flowering Plants": 0, "count_Reptiles": 3, "count_Insects": 0, "count_Molluscs": 0, "count_Birds": 15, "count_Mammals": 2, "count_Ferns": 0, "count_Arachnids": 0, "count_Gymnosperms": 0, "count_Basidiomycota": 0, "count_Amphibians": 0, "count_Sac Fungi": 0, "unique_species_count": 20.0, "countryCode": "OM" }, "geometry": { "type": "MultiPolygon", "coordinates": [ [ [ [ 57.05845823633328, 18.991159097150057 ], [ 57.387035368851038, 18.566328071755134 ], [ 57.203236758834379, 18.13050078596584 ], [ 56.692818348486732, 18.1201187485171 ], [ 56.363086308282725, 18.545632782386569 ], [ 56.544884857255639, 18.980810631571693 ], [ 57.05845823633328, 18.991159097150057 ] ] ] ] } },
{ "type": "Feature", "properties": { "geogrid_id": "818588518058410752", "seqnum": 21825.0, "lat_c": 18.588517512699021, "lon_c": 58.410752185917005, "res": 8.0, "count_Flowering Plants": 0, "count_Reptiles": 1, "count_Insects": 0, "count_Molluscs": 0, "count_Birds": 0, "count_Mammals": 1, "count_Ferns": 0, "count_Arachnids": 0, "count_Gymnosperms": 0, "count_Basidiomycota": 0, "count_Amphibians": 0, "count_Sac Fungi": 0, "unique_species_count": 2.0, "countryCode": "OM" }, "geometry": { "type": "MultiPolygon", "coordinates": [ [ [ [ 58.598789710666061, 19.024694752482564 ], [ 58.922412926891923, 18.599735504786548 ], [ 58.734089869049335, 18.163303288845047 ], [ 58.22391529925472, 18.152261685415365 ], [ 57.898946635080087, 18.577327193473746 ], [ 58.085459939288413, 19.013290347356925 ], [ 58.598789710666061, 19.024694752482564 ] ] ] ] } },
{ "type": "Feature", "properties": { "geogrid_id": "818944671052955764", "seqnum": 21255.0, "lat_c": 18.944671205116897, "lon_c": 52.955763960581038, "res": 8.0, "count_Flowering Plants": 2, "count_Reptiles": 1, "count_Insects": 0, "count_Molluscs": 0, "count_Birds": 2, "count_Mammals": 0, "count_Ferns": 0, "count_Arachnids": 0, "count_Gymnosperms": 0, "count_Basidiomycota": 0, "count_Amphibians": 0, "count_Sac Fungi": 0, "unique_species_count": 5.0, "countryCode": "OM" }, "geometry": { "type": "MultiPolygon", "coordinates": [ [ [ [ 53.126757835460474, 19.377465512881223 ], [ 53.467105818485919, 18.943830092082756 ], [ 53.295349407577113, 18.510493915457314 ], [ 52.785741198114906, 18.511596324301259 ], [ 52.445285044949465, 18.948508594680266 ], [ 52.614505013428683, 19.381057074674235 ], [ 53.126757835460474, 19.377465512881223 ] ] ] ] } },
{ "type": "Feature", "properties": { "geogrid_id": "818949505054491695", "seqnum": 21418.0, "lat_c": 18.94950476562429, "lon_c": 54.491694685248561, "res": 8.0, "count_Flowering Plants": 3, "count_Reptiles": 1, "count_Insects": 20, "count_Molluscs": 0, "count_Birds": 63, "count_Mammals": 0, "count_Ferns": 0, "count_Arachnids": 0, "count_Gymnosperms": 0, "count_Basidiomycota": 0, "count_Amphibians": 0, "count_Sac Fungi": 0, "unique_species_count": 87.0, "countryCode": "OM" }, "geometry": { "type": "MultiPolygon", "coordinates": [ [ [ [ 54.667940138837523, 19.383237756458872 ], [ 55.004656610891949, 18.955297050021422 ], [ 54.827786081573514, 18.521046011592844 ], [ 54.316510862696653, 18.51557020645237 ], [ 53.979133712654289, 18.945567640972772 ], [ 54.153645164455568, 19.378966954710961 ], [ 54.667940138837523, 19.383237756458872 ] ] ] ] } },
{ "type": "Feature", "properties": { "geogrid_id": "818971222056031343", "seqnum": 21581.0, "lat_c": 18.971222399987422, "lon_c": 56.031343076523378, "res": 8.0, "count_Flowering Plants": 1, "count_Reptiles": 4, "count_Insects": 0, "count_Molluscs": 0, "count_Birds": 3, "count_Mammals": 0, "count_Ferns": 0, "count_Arachnids": 0, "count_Gymnosperms": 0, "count_Basidiomycota": 0, "count_Amphibians": 0, "count_Sac Fungi": 0, "unique_species_count": 8.0, "countryCode": "OM" }, "geometry": { "type": "MultiPolygon", "coordinates": [ [ [ [ 56.212657304223121, 19.405967870146952 ], [ 56.544884857255639, 18.980810631571693 ], [ 56.363086308282725, 18.545632782386569 ], [ 55.851164012945802, 18.536343640997117 ], [ 55.51790548697074, 18.962631290770656 ], [ 55.697554071454306, 19.397044842568036 ], [ 56.212657304223121, 19.405967870146952 ] ] ] ] } },
{ "type": "Feature", "properties": { "geogrid_id": "819002052057572001", "seqnum": 21744.0, "lat_c": 19.00205154113608, "lon_c": 57.572000995945501, "res": 8.0, "count_Flowering Plants": 6, "count_Reptiles": 6, "count_Insects": 3, "count_Molluscs": 1, "count_Birds": 15, "count_Mammals": 1, "count_Ferns": 0, "count_Arachnids": 3, "count_Gymnosperms": 0, "count_Basidiomycota": 0, "count_Amphibians": 0, "count_Sac Fungi": 0, "unique_species_count": 35.0, "countryCode": "OM" }, "geometry": { "type": "MultiPolygon", "coordinates": [ [ [ [ 57.758159959771966, 19.437694266228654 ], [ 58.085459939288413, 19.013290347356925 ], [ 57.898946635080087, 18.577327193473746 ], [ 57.387035368851038, 18.566328071755134 ], [ 57.05845823633328, 18.991159097150057 ], [ 57.24302780751097, 19.426523363380028 ], [ 57.758159959771966, 19.437694266228654 ] ] ] ] } },
{ "type": "Feature", "properties": { "geogrid_id": "819036099059111952", "seqnum": 21907.0, "lat_c": 19.036099244061081, "lon_c": 59.111951766919638, "res": 8.0, "count_Flowering Plants": 0, "count_Reptiles": 1, "count_Insects": 0, "count_Molluscs": 0, "count_Birds": 0, "count_Mammals": 1, "count_Ferns": 0, "count_Arachnids": 0, "count_Gymnosperms": 0, "count_Basidiomycota": 0, "count_Amphibians": 0, "count_Sac Fungi": 0, "unique_species_count": 2.0, "countryCode": "OM" }, "geometry": { "type": "MultiPolygon", "coordinates": [ [ [ [ 59.302729910101895, 19.472418321306819 ], [ 59.624913480441002, 19.047352123307306 ], [ 59.433895561781902, 18.610831032625502 ], [ 58.922412926891923, 18.599735504786548 ], [ 58.598789710666061, 19.024694752482564 ], [ 58.788052363930838, 19.460817078876019 ], [ 59.302729910101895, 19.472418321306819 ] ] ] ] } },
{ "type": "Feature", "properties": { "geogrid_id": "819096848062185898", "seqnum": 22233.0, "lat_c": 19.096847799604287, "lon_c": 62.185898356183401, "res": 8.0, "count_Flowering Plants": 0, "count_Reptiles": 1, "count_Insects": 0, "count_Molluscs": 0, "count_Birds": 0, "count_Mammals": 0, "count_Ferns": 0, "count_Arachnids": 0, "count_Gymnosperms": 0, "count_Basidiomycota": 0, "count_Amphibians": 0, "count_Sac Fungi": 0, "unique_species_count": 1.0, "countryCode": "OM" }, "geometry": { "type": "MultiPolygon", "coordinates": [ [ [ [ 62.385313222775657, 19.533670068305657 ], [ 62.697217043843828, 19.10463173715728 ], [ 62.497746893369232, 18.667826874626329 ], [ 61.987790840625408, 18.660009398970917 ], [ 61.674270267878548, 19.088228332270063 ], [ 61.872295382606886, 19.525050313500753 ], [ 62.385313222775657, 19.533670068305657 ] ] ] ] } },
{ "type": "Feature", "properties": { "geogrid_id": "819376913053639865", "seqnum": 21337.0, "lat_c": 19.376912627305114, "lon_c": 53.639865363565995, "res": 8.0, "count_Flowering Plants": 0, "count_Reptiles": 0, "count_Insects": 3, "count_Molluscs": 0, "count_Birds": 0, "count_Mammals": 1, "count_Ferns": 0, "count_Arachnids": 0, "count_Gymnosperms": 0, "count_Basidiomycota": 0, "count_Amphibians": 0, "count_Sac Fungi": 0, "unique_species_count": 4.0, "countryCode": "OM" }, "geometry": { "type": "MultiPolygon", "coordinates": [ [ [ [ 53.813658551871548, 19.809757507119201 ], [ 54.153645164455568, 19.378966954710961 ], [ 53.979133712654289, 18.945567640972772 ], [ 53.467105818485919, 18.943830092082756 ], [ 53.126757835460474, 19.377465512881223 ], [ 53.29875317811473, 19.809993443044419 ], [ 53.813658551871548, 19.809757507119201 ] ] ] ] } },
{ "type": "Feature", "properties": { "geogrid_id": "819389371055182615", "seqnum": 21500.0, "lat_c": 19.389370842894539, "lon_c": 55.182615144692662, "res": 8.0, "count_Flowering Plants": 5, "count_Reptiles": 3, "count_Insects": 17, "count_Molluscs": 0, "count_Birds": 42, "count_Mammals": 4, "count_Ferns": 0, "count_Arachnids": 0, "count_Gymnosperms": 0, "count_Basidiomycota": 0, "count_Amphibians": 0, "count_Sac Fungi": 0, "unique_species_count": 71.0, "countryCode": "OM" }, "geometry": { "type": "MultiPolygon", "coordinates": [ [ [ [ 55.361691527475003, 19.823287795677853 ], [ 55.697554071454306, 19.397044842568036 ], [ 55.51790548697074, 18.962631290770656 ], [ 55.004656610891949, 18.955297050021422 ], [ 54.667940138837523, 19.383237756458872 ], [ 54.845277463851417, 19.816788284618607 ], [ 55.361691527475003, 19.823287795677853 ] ] ] ] } },
{ "type": "Feature", "properties": { "geogrid_id": "819415875056727840", "seqnum": 21663.0, "lat_c": 19.41587455088014, "lon_c": 56.727839525308077, "res": 8.0, "count_Flowering Plants": 0, "count_Reptiles": 0, "count_Insects": 0, "count_Molluscs": 0, "count_Birds": 3, "count_Mammals": 0, "count_Ferns": 0, "count_Arachnids": 0, "count_Gymnosperms": 0, "count_Basidiomycota": 0, "count_Amphibians": 0, "count_Sac Fungi": 0, "unique_species_count": 3.0, "countryCode": "OM" }, "geometry": { "type": "MultiPolygon", "coordinates": [ [ [ [ 56.911978141851918, 19.850847793508063 ], [ 57.24302780751097, 19.426523363380028 ], [ 57.05845823633328, 18.991159097150057 ], [ 56.544884857255639, 18.980810631571693 ], [ 56.212657304223121, 19.405967870146952 ], [ 56.395135315537544, 19.84060252520959 ], [ 56.911978141851918, 19.850847793508063 ] ] ] ] } },
{ "type": "Feature", "properties": { "geogrid_id": "819449187058273183", "seqnum": 21826.0, "lat_c": 19.449186577417731, "lon_c": 58.27318309117053, "res": 8.0, "count_Flowering Plants": 0, "count_Reptiles": 1, "count_Insects": 0, "count_Molluscs": 0, "count_Birds": 0, "count_Mammals": 0, "count_Ferns": 0, "count_Arachnids": 0, "count_Gymnosperms": 0, "count_Basidiomycota": 0, "count_Amphibians": 0, "count_Sac Fungi": 0, "unique_species_count": 1.0, "countryCode": "OM" }, "geometry": { "type": "MultiPolygon", "coordinates": [ [ [ [ 58.462141063291497, 19.885040576571704 ], [ 58.788052363930838, 19.460817078876019 ], [ 58.598789710666061, 19.024694752482564 ], [ 58.085459939288413, 19.013290347356925 ], [ 57.758159959771966, 19.437694266228654 ], [ 57.945538248985528, 19.873280598081067 ], [ 58.462141063291497, 19.885040576571704 ] ] ] ] } },
{ "type": "Feature", "properties": { "geogrid_id": "819515653061358960", "seqnum": 22152.0, "lat_c": 19.515652976405338, "lon_c": 61.358960003844004, "res": 8.0, "count_Flowering Plants": 0, "count_Reptiles": 1, "count_Insects": 0, "count_Molluscs": 0, "count_Birds": 0, "count_Mammals": 0, "count_Ferns": 0, "count_Arachnids": 0, "count_Gymnosperms": 0, "count_Basidiomycota": 0, "count_Amphibians": 0, "count_Sac Fungi": 0, "unique_species_count": 1.0, "countryCode": "OM" }, "geometry": { "type": "MultiPolygon", "coordinates": [ [ [ [ 61.556882361269821, 19.952445559693732 ], [ 61.872295382606886, 19.525050313500753 ], [ 61.674270267878548, 19.088228332270063 ], [ 61.162343273791102, 19.078865114773961 ], [ 60.845319129667608, 19.505577770146797 ], [ 61.04180375580669, 19.942298854215959 ], [ 61.556882361269821, 19.952445559693732 ] ] ] ] } },
{ "type": "Feature", "properties": { "geogrid_id": "819812157054329220", "seqnum": 21419.0, "lat_c": 19.812156748335397, "lon_c": 54.329220419054195, "res": 8.0, "count_Flowering Plants": 6, "count_Reptiles": 8, "count_Insects": 20, "count_Molluscs": 0, "count_Birds": 71, "count_Mammals": 5, "count_Ferns": 0, "count_Arachnids": 1, "count_Gymnosperms": 0, "count_Basidiomycota": 0, "count_Amphibians": 0, "count_Sac Fungi": 0, "unique_species_count": 111.0, "countryCode": "OM" }, "geometry": { "type": "MultiPolygon", "coordinates": [ [ [ [ 54.505890364600923, 20.245155816233982 ], [ 54.845277463851417, 19.816788284618607 ], [ 54.667940138837523, 19.383237756458872 ], [ 54.153645164455568, 19.378966954710961 ], [ 53.813658551871548, 19.809757507119201 ], [ 53.988516391502706, 20.242381772899854 ], [ 54.505890364600923, 20.245155816233982 ] ] ] ] } },
{ "type": "Feature", "properties": { "geogrid_id": "819831325055878344", "seqnum": 21582.0, "lat_c": 19.831325491914036, "lon_c": 55.878344445188588, "res": 8.0, "count_Flowering Plants": 2, "count_Reptiles": 0, "count_Insects": 7, "count_Molluscs": 0, "count_Birds": 16, "count_Mammals": 0, "count_Ferns": 0, "count_Arachnids": 0, "count_Gymnosperms": 0, "count_Basidiomycota": 0, "count_Amphibians": 0, "count_Sac Fungi": 0, "unique_species_count": 25.0, "countryCode": "OM" }, "geometry": { "type": "MultiPolygon", "coordinates": [ [ [ [ 56.060305996636082, 20.265496129586424 ], [ 56.395135315537544, 19.84060252520959 ], [ 56.212657304223121, 19.405967870146952 ], [ 55.697554071454306, 19.397044842568036 ], [ 55.361691527475003, 19.823287795677853 ], [ 55.541915817207091, 20.257069631715186 ], [ 56.060305996636082, 20.265496129586424 ] ] ] ] } },
{ "type": "Feature", "properties": { "geogrid_id": "819861815057428800", "seqnum": 21745.0, "lat_c": 19.861815095742376, "lon_c": 57.428799794425537, "res": 8.0, "count_Flowering Plants": 5, "count_Reptiles": 12, "count_Insects": 17, "count_Molluscs": 6, "count_Birds": 54, "count_Mammals": 4, "count_Ferns": 0, "count_Arachnids": 2, "count_Gymnosperms": 0, "count_Basidiomycota": 0, "count_Amphibians": 0, "count_Sac Fungi": 0, "unique_species_count": 100.0, "countryCode": "OM" }, "geometry": { "type": "MultiPolygon", "coordinates": [ [ [ [ 57.615800827435869, 20.297059573037 ], [ 57.945538248985528, 19.873280598081067 ], [ 57.758159959771966, 19.437694266228654 ], [ 57.24302780751097, 19.426523363380028 ], [ 56.911978141851918, 19.850847793508063 ], [ 57.097328359537158, 20.285755017216886 ], [ 57.615800827435869, 20.297059573037 ] ] ] ] } },
{ "type": "Feature", "properties": { "geogrid_id": "819896909058978564", "seqnum": 21908.0, "lat_c": 19.896909405040461, "lon_c": 58.978564059065079, "res": 8.0, "count_Flowering Plants": 2, "count_Reptiles": 4, "count_Insects": 3, "count_Molluscs": 11, "count_Birds": 10, "count_Mammals": 3, "count_Ferns": 0, "count_Arachnids": 0, "count_Gymnosperms": 0, "count_Basidiomycota": 0, "count_Amphibians": 0, "count_Sac Fungi": 0, "unique_species_count": 33.0, "countryCode": "OM" }, "geometry": { "type": "MultiPolygon", "coordinates": [ [ [ [ 59.170347978174306, 20.33299798375257 ], [ 59.494770181061419, 19.908717760548331 ], [ 59.302729910101895, 19.472418321306819 ], [ 58.788052363930838, 19.460817078876019 ], [ 58.462141063291497, 19.885040576571704 ], [ 58.652358233154551, 20.32087840703511 ], [ 59.170347978174306, 20.33299798375257 ] ] ] ] } },
{ "type": "Feature", "properties": { "geogrid_id": "819931548060526413", "seqnum": 22071.0, "lat_c": 19.931547838808541, "lon_c": 60.52641340190614, "res": 8.0, "count_Flowering Plants": 0, "count_Reptiles": 1, "count_Insects": 0, "count_Molluscs": 0, "count_Birds": 0, "count_Mammals": 0, "count_Ferns": 0, "count_Arachnids": 0, "count_Gymnosperms": 0, "count_Basidiomycota": 0, "count_Amphibians": 0, "count_Sac Fungi": 0, "unique_species_count": 1.0, "countryCode": "OM" }, "geometry": { "type": "MultiPolygon", "coordinates": [ [ [ [ 60.722744033645277, 20.368184516308183 ], [ 61.04180375580669, 19.942298854215959 ], [ 60.845319129667608, 19.505577770146797 ], [ 60.331387673911948, 19.494933132763475 ], [ 60.010728509054402, 19.920311021814296 ], [ 60.205568065102796, 20.356800167418989 ], [ 60.722744033645277, 20.368184516308183 ] ] ] ] } },
{ "type": "Feature", "properties": { "geogrid_id": "819961879062071635", "seqnum": 22234.0, "lat_c": 19.96187927182206, "lon_c": 62.071635345614368, "res": 8.0, "count_Flowering Plants": 0, "count_Reptiles": 1, "count_Insects": 0, "count_Molluscs": 0, "count_Birds": 0, "count_Mammals": 0, "count_Ferns": 0, "count_Arachnids": 0, "count_Gymnosperms": 0, "count_Basidiomycota": 0, "count_Amphibians": 0, "count_Sac Fungi": 0, "unique_species_count": 1.0, "countryCode": "OM" }, "geometry": { "type": "MultiPolygon", "coordinates": [ [ [ [ 62.272306029040955, 20.398740611502284 ], [ 62.586051689498859, 19.970500214397024 ], [ 62.385313222775657, 19.533670068305657 ], [ 61.872295382606886, 19.525050313500753 ], [ 61.556882361269821, 19.952445559693732 ], [ 61.75612740371804, 20.38926858956356 ], [ 62.272306029040955, 20.398740611502284 ] ] ] ] } },
{ "type": "Feature", "properties": { "geogrid_id": "820250177055023737", "seqnum": 21501.0, "lat_c": 20.250176707934994, "lon_c": 55.023737225376415, "res": 8.0, "count_Flowering Plants": 1, "count_Reptiles": 0, "count_Insects": 0, "count_Molluscs": 0, "count_Birds": 0, "count_Mammals": 0, "count_Ferns": 0, "count_Arachnids": 0, "count_Gymnosperms": 0, "count_Basidiomycota": 0, "count_Amphibians": 0, "count_Sac Fungi": 0, "unique_species_count": 1.0, "countryCode": "OM" }, "geometry": { "type": "MultiPolygon", "coordinates": [ [ [ [ 55.203350277687285, 20.6834247774784 ], [ 55.541915817207091, 20.257069631715186 ], [ 55.361691527475003, 19.823287795677853 ], [ 54.845277463851417, 19.816788284618607 ], [ 54.505890364600923, 20.245155816233982 ], [ 54.683686292785083, 20.677984254903901 ], [ 55.203350277687285, 20.6834247774784 ] ] ] ] } },
{ "type": "Feature", "properties": { "geogrid_id": "820275150056578806", "seqnum": 21664.0, "lat_c": 20.275150230923696, "lon_c": 56.578805689667441, "res": 8.0, "count_Flowering Plants": 0, "count_Reptiles": 0, "count_Insects": 5, "count_Molluscs": 0, "count_Birds": 6, "count_Mammals": 0, "count_Ferns": 0, "count_Arachnids": 0, "count_Gymnosperms": 0, "count_Basidiomycota": 0, "count_Amphibians": 0, "count_Sac Fungi": 0, "unique_species_count": 11.0, "countryCode": "OM" }, "geometry": { "type": "MultiPolygon", "coordinates": [ [ [ [ 56.763696871506895, 20.709636383508752 ], [ 57.097328359537158, 20.285755017216886 ], [ 56.911978141851918, 19.850847793508063 ], [ 56.395135315537544, 19.84060252520959 ], [ 56.060305996636082, 20.265496129586424 ], [ 56.243468130709353, 20.699581151521631 ], [ 56.763696871506895, 20.709636383508752 ] ] ] ] } },
{ "type": "Feature", "properties": { "geogrid_id": "820308836058134161", "seqnum": 21827.0, "lat_c": 20.308836278961675, "lon_c": 58.134161396068031, "res": 8.0, "count_Flowering Plants": 5, "count_Reptiles": 12, "count_Insects": 14, "count_Molluscs": 8, "count_Birds": 99, "count_Mammals": 8, "count_Ferns": 0, "count_Arachnids": 3, "count_Gymnosperms": 0, "count_Basidiomycota": 0, "count_Amphibians": 0, "count_Sac Fungi": 0, "unique_species_count": 149.0, "countryCode": "OM" }, "geometry": { "type": "MultiPolygon", "coordinates": [ [ [ [ 58.324054327414615, 20.744388564788007 ], [ 58.652358233154551, 20.32087840703511 ], [ 58.462141063291497, 19.885040576571704 ], [ 57.945538248985528, 19.873280598081067 ], [ 57.615800827435869, 20.297059573037 ], [ 57.804057088676281, 20.732283606351224 ], [ 58.324054327414615, 20.744388564788007 ] ] ] ] } },
{ "type": "Feature", "properties": { "geogrid_id": "820345024059688095", "seqnum": 21990.0, "lat_c": 20.345023889555996, "lon_c": 59.68809454093649, "res": 8.0, "count_Flowering Plants": 0, "count_Reptiles": 1, "count_Insects": 0, "count_Molluscs": 0, "count_Birds": 0, "count_Mammals": 1, "count_Ferns": 0, "count_Arachnids": 0, "count_Gymnosperms": 0, "count_Basidiomycota": 0, "count_Amphibians": 0, "count_Sac Fungi": 0, "unique_species_count": 2.0, "countryCode": "OM" }, "geometry": { "type": "MultiPolygon", "coordinates": [ [ [ [ 59.882723890959966, 20.781364441222344 ], [ 60.205568065102796, 20.356800167418989 ], [ 60.010728509054402, 19.920311021814296 ], [ 59.494770181061419, 19.908717760548331 ], [ 59.170347978174306, 20.33299798375257 ], [ 59.363426389945587, 20.76911051598255 ], [ 59.882723890959966, 20.781364441222344 ] ] ] ] } },
{ "type": "Feature", "properties": { "geogrid_id": "820690740055723318", "seqnum": 21583.0, "lat_c": 20.690739534571282, "lon_c": 55.723318230694318, "res": 8.0, "count_Flowering Plants": 12, "count_Reptiles": 0, "count_Insects": 0, "count_Molluscs": 0, "count_Birds": 0, "count_Mammals": 0, "count_Ferns": 0, "count_Arachnids": 0, "count_Gymnosperms": 0, "count_Basidiomycota": 0, "count_Amphibians": 0, "count_Sac Fungi": 0, "unique_species_count": 12.0, "countryCode": "OM" }, "geometry": { "type": "MultiPolygon", "coordinates": [ [ [ [ 55.905929073011208, 21.124322307235115 ], [ 56.243468130709353, 20.699581151521631 ], [ 56.060305996636082, 20.265496129586424 ], [ 55.541915817207091, 20.257069631715186 ], [ 55.203350277687285, 20.6834247774784 ], [ 55.384147716042349, 21.11655579614796 ], [ 55.905929073011208, 21.124322307235115 ] ] ] ] } },
{ "type": "Feature", "properties": { "geogrid_id": "820720622057283918", "seqnum": 21746.0, "lat_c": 20.720622418451693, "lon_c": 57.283917540861907, "res": 8.0, "count_Flowering Plants": 0, "count_Reptiles": 2, "count_Insects": 0, "count_Molluscs": 1, "count_Birds": 7, "count_Mammals": 0, "count_Ferns": 0, "count_Arachnids": 1, "count_Gymnosperms": 0, "count_Basidiomycota": 0, "count_Amphibians": 0, "count_Sac Fungi": 0, "unique_species_count": 11.0, "countryCode": "OM" }, "geometry": { "type": "MultiPolygon", "coordinates": [ [ [ [ 57.471772619991938, 21.155477880062353 ], [ 57.804057088676281, 20.732283606351224 ], [ 57.615800827435869, 20.297059573037 ], [ 57.097328359537158, 20.285755017216886 ], [ 56.763696871506895, 20.709636383508752 ], [ 56.949837055582549, 21.144088062937769 ], [ 57.471772619991938, 21.155477880062353 ] ] ] ] } },
{ "type": "Feature", "properties": { "geogrid_id": "820756728058843858", "seqnum": 21909.0, "lat_c": 20.756727615981529, "lon_c": 58.843858216558296, "res": 8.0, "count_Flowering Plants": 10, "count_Reptiles": 21, "count_Insects": 25, "count_Molluscs": 134, "count_Birds": 139, "count_Mammals": 11, "count_Ferns": 0, "count_Arachnids": 2, "count_Gymnosperms": 0, "count_Basidiomycota": 0, "count_Amphibians": 0, "count_Sac Fungi": 0, "unique_species_count": 342.0, "countryCode": "OM" }, "geometry": { "type": "MultiPolygon", "coordinates": [ [ [ [ 59.036663669531947, 21.192617360964253 ], [ 59.363426389945587, 20.76911051598255 ], [ 59.170347978174306, 20.33299798375257 ], [ 58.652358233154551, 20.32087840703511 ], [ 58.324054327414615, 20.744388564788007 ], [ 58.515241183928858, 21.179966358588402 ], [ 59.036663669531947, 21.192617360964253 ] ] ] ] } },
{ "type": "Feature", "properties": { "geogrid_id": "821167516057993594", "seqnum": 21828.0, "lat_c": 21.167515680054855, "lon_c": 57.993594152674419, "res": 8.0, "count_Flowering Plants": 1, "count_Reptiles": 3, "count_Insects": 10, "count_Molluscs": 0, "count_Birds": 35, "count_Mammals": 0, "count_Ferns": 0, "count_Arachnids": 0, "count_Gymnosperms": 0, "count_Basidiomycota": 0, "count_Amphibians": 0, "count_Sac Fungi": 0, "unique_species_count": 49.0, "countryCode": "OM" }, "geometry": { "type": "MultiPolygon", "coordinates": [ [ [ [ 58.18443679421047, 21.60278610630251 ], [ 58.515241183928858, 21.179966358588402 ], [ 58.324054327414615, 20.744388564788007 ], [ 57.804057088676281, 20.732283606351224 ], [ 57.471772619991938, 21.155477880062353 ], [ 57.660919934637157, 21.590351134070396 ], [ 58.18443679421047, 21.60278610630251 ] ] ] ] } },
{ "type": "Feature", "properties": { "geogrid_id": "821205276059557820", "seqnum": 21991.0, "lat_c": 21.205276268020675, "lon_c": 59.557820434404981, "res": 8.0, "count_Flowering Plants": 0, "count_Reptiles": 8, "count_Insects": 1, "count_Molluscs": 0, "count_Birds": 6, "count_Mammals": 2, "count_Ferns": 0, "count_Arachnids": 0, "count_Gymnosperms": 0, "count_Basidiomycota": 0, "count_Amphibians": 0, "count_Sac Fungi": 0, "unique_species_count": 17.0, "countryCode": "OM" }, "geometry": { "type": "MultiPolygon", "coordinates": [ [ [ [ 59.753549868528189, 21.641526197673649 ], [ 60.078677841587222, 21.217768662337722 ], [ 59.882723890959966, 20.781364441222344 ], [ 59.363426389945587, 20.76911051598255 ], [ 59.036663669531947, 21.192617360964253 ], [ 59.230796052911899, 21.628578545824766 ], [ 59.753549868528189, 21.641526197673649 ] ] ] ] } },
{ "type": "Feature", "properties": { "geogrid_id": "821241635061119391", "seqnum": 22154.0, "lat_c": 21.241635141420492, "lon_c": 61.119391056135065, "res": 8.0, "count_Flowering Plants": 0, "count_Reptiles": 1, "count_Insects": 0, "count_Molluscs": 0, "count_Birds": 0, "count_Mammals": 0, "count_Ferns": 0, "count_Arachnids": 0, "count_Gymnosperms": 0, "count_Basidiomycota": 0, "count_Amphibians": 0, "count_Sac Fungi": 0, "unique_species_count": 1.0, "countryCode": "OM" }, "geometry": { "type": "MultiPolygon", "coordinates": [ [ [ [ 61.319738693747745, 21.67850836121384 ], [ 61.6392078258719, 21.252734464530985 ], [ 61.438732159722889, 20.815849292362614 ], [ 60.920397728769572, 20.804870654561089 ], [ 60.599208653327828, 21.229936240498024 ], [ 60.798044118626322, 21.666642963942184 ], [ 61.319738693747745, 21.67850836121384 ] ] ] ] } },
{ "type": "Feature", "properties": { "geogrid_id": "821272668062677694", "seqnum": 22317.0, "lat_c": 21.27266783473635, "lon_c": 62.677694327760364, "res": 8.0, "count_Flowering Plants": 0, "count_Reptiles": 0, "count_Insects": 0, "count_Molluscs": 0, "count_Birds": 0, "count_Mammals": 1, "count_Ferns": 0, "count_Arachnids": 0, "count_Gymnosperms": 0, "count_Basidiomycota": 0, "count_Amphibians": 0, "count_Sac Fungi": 0, "unique_species_count": 1.0, "countryCode": "OM" }, "geometry": { "type": "MultiPolygon", "coordinates": [ [ [ [ 62.882434067627443, 21.709790524131162 ], [ 63.196346619387853, 21.281293765314452 ], [ 62.99155649985839, 20.844285365076125 ], [ 62.474321618633283, 20.83566087923079 ], [ 62.158645612580806, 21.263114954822441 ], [ 62.361943855289951, 21.700196042149408 ], [ 62.882434067627443, 21.709790524131162 ] ] ] ] } },
{ "type": "Feature", "properties": { "geogrid_id": "821549595055566161", "seqnum": 21584.0, "lat_c": 21.549594797262682, "lon_c": 55.566160812608679, "res": 8.0, "count_Flowering Plants": 4, "count_Reptiles": 0, "count_Insects": 0, "count_Molluscs": 0, "count_Birds": 0, "count_Mammals": 0, "count_Ferns": 0, "count_Arachnids": 0, "count_Gymnosperms": 0, "count_Basidiomycota": 0, "count_Amphibians": 0, "count_Sac Fungi": 0, "unique_species_count": 4.0, "countryCode": "OM" }, "geometry": { "type": "MultiPolygon", "coordinates": [ [ [ [ 55.749420932516962, 21.982568746020178 ], [ 56.089778647236976, 21.557844550429998 ], [ 55.905929073011208, 21.124322307235115 ], [ 55.384147716042349, 21.11655579614796 ], [ 55.04278310779813, 21.543217090976416 ], [ 55.22414828988051, 21.975669691575828 ], [ 55.749420932516962, 21.982568746020178 ] ] ] ] } },
{ "type": "Feature", "properties": { "geogrid_id": "821578534057137254", "seqnum": 21747.0, "lat_c": 21.578534202758267, "lon_c": 57.137254043191525, "res": 8.0, "count_Flowering Plants": 0, "count_Reptiles": 0, "count_Insects": 0, "count_Molluscs": 0, "count_Birds": 4, "count_Mammals": 0, "count_Ferns": 0, "count_Arachnids": 0, "count_Gymnosperms": 0, "count_Basidiomycota": 0, "count_Amphibians": 0, "count_Sac Fungi": 0, "unique_species_count": 4.0, "countryCode": "OM" }, "geometry": { "type": "MultiPolygon", "coordinates": [ [ [ [ 57.325975066879387, 22.013005778353779 ], [ 57.660919934637157, 21.590351134070396 ], [ 57.471772619991938, 21.155477880062353 ], [ 56.949837055582549, 21.144088062937769 ], [ 56.613511265028059, 21.56760041923005 ], [ 56.800450194834873, 22.001592489890832 ], [ 57.325975066879387, 22.013005778353779 ] ] ] ] } },
{ "type": "Feature", "properties": { "geogrid_id": "821615600058707745", "seqnum": 21910.0, "lat_c": 21.615600355938096, "lon_c": 58.707745106386319, "res": 8.0, "count_Flowering Plants": 0, "count_Reptiles": 4, "count_Insects": 0, "count_Molluscs": 0, "count_Birds": 4, "count_Mammals": 0, "count_Ferns": 0, "count_Arachnids": 1, "count_Gymnosperms": 0, "count_Basidiomycota": 0, "count_Amphibians": 0, "count_Sac Fungi": 0, "unique_species_count": 9.0, "countryCode": "OM" }, "geometry": { "type": "MultiPolygon", "coordinates": [ [ [ [ 58.901587978612625, 22.051323203345564 ], [ 59.230796052911899, 21.628578545824766 ], [ 59.036663669531947, 21.192617360964253 ], [ 58.515241183928858, 21.179966358588402 ], [ 58.18443679421047, 21.60278610630251 ], [ 58.376608756744218, 22.038127194306284 ], [ 58.901587978612625, 22.051323203345564 ] ] ] ] } },
{ "type": "Feature", "properties": { "geogrid_id": "821654267060275974", "seqnum": 22073.0, "lat_c": 21.654267430110618, "lon_c": 60.275974441014235, "res": 8.0, "count_Flowering Plants": 0, "count_Reptiles": 1, "count_Insects": 0, "count_Molluscs": 0, "count_Birds": 0, "count_Mammals": 0, "count_Ferns": 0, "count_Arachnids": 0, "count_Gymnosperms": 0, "count_Basidiomycota": 0, "count_Amphibians": 0, "count_Sac Fungi": 0, "unique_species_count": 1.0, "countryCode": "OM" }, "geometry": { "type": "MultiPolygon", "coordinates": [ [ [ [ 60.474629855727414, 22.090893376716149 ], [ 60.798044118626322, 21.666642963942184 ], [ 60.599208653327828, 21.229936240498024 ], [ 60.078677841587222, 21.217768662337722 ], [ 59.753549868528189, 21.641526197673649 ], [ 59.950632765415513, 22.077893090015753 ], [ 60.474629855727414, 22.090893376716149 ] ] ] ] } },
{ "type": "Feature", "properties": { "geogrid_id": "822025274057851385", "seqnum": 21829.0, "lat_c": 22.025273941055691, "lon_c": 57.851385021675412, "res": 8.0, "count_Flowering Plants": 2, "count_Reptiles": 1, "count_Insects": 4, "count_Molluscs": 0, "count_Birds": 7, "count_Mammals": 0, "count_Ferns": 0, "count_Arachnids": 0, "count_Gymnosperms": 0, "count_Basidiomycota": 0, "count_Amphibians": 0, "count_Sac Fungi": 0, "unique_species_count": 14.0, "countryCode": "OM" }, "geometry": { "type": "MultiPolygon", "coordinates": [ [ [ [ 58.043192368772942, 22.460280287866755 ], [ 58.376608756744218, 22.038127194306284 ], [ 58.18443679421047, 21.60278610630251 ], [ 57.660919934637157, 21.590351134070396 ], [ 57.325975066879387, 22.013005778353779 ], [ 57.516026575016546, 22.447536015748451 ], [ 58.043192368772942, 22.460280287866755 ] ] ] ] } },
{ "type": "Feature", "properties": { "geogrid_id": "822064644059426275", "seqnum": 21992.0, "lat_c": 22.064643967803026, "lon_c": 59.426275352402861, "res": 8.0, "count_Flowering Plants": 25, "count_Reptiles": 17, "count_Insects": 33, "count_Molluscs": 1, "count_Birds": 50, "count_Mammals": 3, "count_Ferns": 0, "count_Arachnids": 4, "count_Gymnosperms": 0, "count_Basidiomycota": 0, "count_Amphibians": 0, "count_Sac Fungi": 0, "unique_species_count": 133.0, "countryCode": "OM" }, "geometry": { "type": "MultiPolygon", "coordinates": [ [ [ [ 59.623119745472856, 22.500848476534905 ], [ 59.950632765415513, 22.077893090015753 ], [ 59.753549868528189, 21.641526197673649 ], [ 59.230796052911899, 21.628578545824766 ], [ 58.901587978612625, 22.051323203345564 ], [ 59.096790120028047, 22.487169670578989 ], [ 59.623119745472856, 22.500848476534905 ] ] ] ] } },
{ "type": "Feature", "properties": { "geogrid_id": "822103485060998243", "seqnum": 22155.0, "lat_c": 22.103484731108292, "lon_c": 60.998242764681905, "res": 8.0, "count_Flowering Plants": 0, "count_Reptiles": 1, "count_Insects": 0, "count_Molluscs": 0, "count_Birds": 0, "count_Mammals": 0, "count_Ferns": 0, "count_Arachnids": 0, "count_Gymnosperms": 0, "count_Basidiomycota": 0, "count_Amphibians": 0, "count_Sac Fungi": 0, "unique_species_count": 1.0, "countryCode": "OM" }, "geometry": { "type": "MultiPolygon", "coordinates": [ [ [ [ 61.199816413198441, 22.540495699841831 ], [ 61.52145307871848, 22.115522298035948 ], [ 61.319738693747745, 21.67850836121384 ], [ 60.798044118626322, 21.666642963942184 ], [ 60.474629855727414, 22.090893376716149 ], [ 60.674657994273026, 22.527681022060339 ], [ 61.199816413198441, 22.540495699841831 ] ] ] ] } },
{ "type": "Feature", "properties": { "geogrid_id": "822435615056988705", "seqnum": 21748.0, "lat_c": 22.435615007944229, "lon_c": 56.988705240226956, "res": 8.0, "count_Flowering Plants": 0, "count_Reptiles": 1, "count_Insects": 1, "count_Molluscs": 0, "count_Birds": 4, "count_Mammals": 0, "count_Ferns": 0, "count_Arachnids": 0, "count_Gymnosperms": 0, "count_Basidiomycota": 0, "count_Amphibians": 0, "count_Sac Fungi": 0, "unique_species_count": 6.0, "countryCode": "OM" }, "geometry": { "type": "MultiPolygon", "coordinates": [ [ [ [ 57.178303932474357, 22.86970264774105 ], [ 57.516026575016546, 22.447536015748451 ], [ 57.325975066879387, 22.013005778353779 ], [ 56.800450194834873, 22.001592489890832 ], [ 56.461314475521938, 22.424824064464506 ], [ 56.649060135006216, 22.858345451581155 ], [ 57.178303932474357, 22.86970264774105 ] ] ] ] } },
{ "type": "Feature", "properties": { "geogrid_id": "822473573058570132", "seqnum": 21911.0, "lat_c": 22.473573435709486, "lon_c": 58.570132473259356, "res": 8.0, "count_Flowering Plants": 26, "count_Reptiles": 14, "count_Insects": 26, "count_Molluscs": 0, "count_Birds": 30, "count_Mammals": 5, "count_Ferns": 0, "count_Arachnids": 3, "count_Gymnosperms": 0, "count_Basidiomycota": 1, "count_Amphibians": 0, "count_Sac Fungi": 0, "unique_species_count": 105.0, "countryCode": "OM" }, "geometry": { "type": "MultiPolygon", "coordinates": [ [ [ [ 58.765028729538244, 22.90916170743894 ], [ 59.096790120028047, 22.487169670578989 ], [ 58.901587978612625, 22.051323203345564 ], [ 58.376608756744218, 22.038127194306284 ], [ 58.043192368772942, 22.460280287866755 ], [ 58.236365112449008, 22.895406605480229 ], [ 58.765028729538244, 22.90916170743894 ] ] ] ] } },
{ "type": "Feature", "properties": { "geogrid_id": "822514412060149085", "seqnum": 22074.0, "lat_c": 22.514411703112792, "lon_c": 60.149085158262139, "res": 8.0, "count_Flowering Plants": 8, "count_Reptiles": 10, "count_Insects": 12, "count_Molluscs": 6, "count_Birds": 66, "count_Mammals": 3, "count_Ferns": 0, "count_Arachnids": 0, "count_Gymnosperms": 0, "count_Basidiomycota": 0, "count_Amphibians": 0, "count_Sac Fungi": 0, "unique_species_count": 105.0, "countryCode": "OM" }, "geometry": { "type": "MultiPolygon", "coordinates": [ [ [ [ 60.348920618545911, 22.951118924027419 ], [ 60.674657994273026, 22.527681022060339 ], [ 60.474629855727414, 22.090893376716149 ], [ 59.950632765415513, 22.077893090015753 ], [ 59.623119745472856, 22.500848476534905 ], [ 59.821345204595175, 22.937229145554053 ], [ 60.348920618545911, 22.951118924027419 ] ] ] ] } },
{ "type": "Feature", "properties": { "geogrid_id": "822552711061724544", "seqnum": 22237.0, "lat_c": 22.552710644245604, "lon_c": 61.724543998523806, "res": 8.0, "count_Flowering Plants": 0, "count_Reptiles": 1, "count_Insects": 0, "count_Molluscs": 0, "count_Birds": 0, "count_Mammals": 0, "count_Ferns": 0, "count_Arachnids": 0, "count_Gymnosperms": 0, "count_Basidiomycota": 0, "count_Amphibians": 0, "count_Sac Fungi": 0, "unique_species_count": 1.0, "countryCode": "OM" }, "geometry": { "type": "MultiPolygon", "coordinates": [ [ [ [ 61.929018113198389, 22.990108913813479 ], [ 62.248828828828771, 22.564194689125639 ], [ 62.044246931484928, 22.126874829892365 ], [ 61.52145307871848, 22.115522298035948 ], [ 61.199816413198441, 22.540495699841831 ], [ 61.402773962303172, 22.977711953617536 ], [ 61.929018113198389, 22.990108913813479 ] ] ] ] } },
{ "type": "Feature", "properties": { "geogrid_id": "822882161057707434", "seqnum": 21830.0, "lat_c": 22.882160623265083, "lon_c": 57.707433967491362, "res": 8.0, "count_Flowering Plants": 183, "count_Reptiles": 24, "count_Insects": 150, "count_Molluscs": 3, "count_Birds": 76, "count_Mammals": 7, "count_Ferns": 3, "count_Arachnids": 4, "count_Gymnosperms": 2, "count_Basidiomycota": 2, "count_Amphibians": 3, "count_Sac Fungi": 0, "unique_species_count": 457.0, "countryCode": "OM" }, "geometry": { "type": "MultiPolygon", "coordinates": [ [ [ [ 57.900221271338808, 23.316918048554548 ], [ 58.236365112449008, 22.895406605480229 ], [ 58.043192368772942, 22.460280287866755 ], [ 57.516026575016546, 22.447536015748451 ], [ 57.178303932474357, 22.86970264774105 ], [ 57.369272780453848, 23.303892850245578 ], [ 57.900221271338808, 23.316918048554548 ] ] ] ] } },
{ "type": "Feature", "properties": { "geogrid_id": "822923177059293370", "seqnum": 21993.0, "lat_c": 22.923176837906652, "lon_c": 59.29336991726472, "res": 8.0, "count_Flowering Plants": 100, "count_Reptiles": 14, "count_Insects": 97, "count_Molluscs": 9, "count_Birds": 140, "count_Mammals": 9, "count_Ferns": 2, "count_Arachnids": 8, "count_Gymnosperms": 0, "count_Basidiomycota": 0, "count_Amphibians": 1, "count_Sac Fungi": 0, "unique_species_count": 380.0, "countryCode": "OM" }, "geometry": { "type": "MultiPolygon", "coordinates": [ [ [ [ 59.49134338227362, 23.359384299163622 ], [ 59.821345204595175, 22.937229145554053 ], [ 59.623119745472856, 22.500848476534905 ], [ 59.096790120028047, 22.487169670578989 ], [ 58.765028729538244, 22.90916170743894 ], [ 58.961316257590575, 23.344931493426376 ], [ 59.49134338227362, 23.359384299163622 ] ] ] ] } },
{ "type": "Feature", "properties": { "geogrid_id": "822964667060876070", "seqnum": 22156.0, "lat_c": 22.964666914806298, "lon_c": 60.876070063664969, "res": 8.0, "count_Flowering Plants": 0, "count_Reptiles": 1, "count_Insects": 0, "count_Molluscs": 0, "count_Birds": 0, "count_Mammals": 0, "count_Ferns": 0, "count_Arachnids": 0, "count_Gymnosperms": 0, "count_Basidiomycota": 0, "count_Amphibians": 0, "count_Sac Fungi": 0, "unique_species_count": 1.0, "countryCode": "OM" }, "geometry": { "type": "MultiPolygon", "coordinates": [ [ [ [ 61.078874045692785, 23.401889781505353 ], [ 61.402773962303172, 22.977711953617536 ], [ 61.199816413198441, 22.540495699841831 ], [ 60.674657994273026, 22.527681022060339 ], [ 60.348920618545911, 22.951118924027419 ], [ 60.55014975563666, 23.388053935246518 ], [ 61.078874045692785, 23.401889781505353 ] ] ] ] } },
{ "type": "Feature", "properties": { "geogrid_id": "823001727062454793", "seqnum": 22319.0, "lat_c": 23.001726906690063, "lon_c": 62.454792733030963, "res": 8.0, "count_Flowering Plants": 0, "count_Reptiles": 1, "count_Insects": 0, "count_Molluscs": 0, "count_Birds": 0, "count_Mammals": 0, "count_Ferns": 0, "count_Arachnids": 0, "count_Gymnosperms": 0, "count_Basidiomycota": 0, "count_Amphibians": 0, "count_Sac Fungi": 0, "unique_species_count": 1.0, "countryCode": "OM" }, "geometry": { "type": "MultiPolygon", "coordinates": [ [ [ [ 62.662139263633136, 23.439508164511679 ], [ 62.980091651508907, 23.01244770435612 ], [ 62.772662693576621, 22.574829086225431 ], [ 62.248828828828771, 22.564194689125639 ], [ 61.929018113198389, 22.990108913813479 ], [ 62.134878396081191, 23.427754559924324 ], [ 62.662139263633136, 23.439508164511679 ] ] ] ] } },
{ "type": "Feature", "properties": { "geogrid_id": "823266297055245037", "seqnum": 21586.0, "lat_c": 23.266296756764646, "lon_c": 55.245036752098713, "res": 8.0, "count_Flowering Plants": 0, "count_Reptiles": 0, "count_Insects": 0, "count_Molluscs": 0, "count_Birds": 3, "count_Mammals": 0, "count_Ferns": 0, "count_Arachnids": 0, "count_Gymnosperms": 0, "count_Basidiomycota": 0, "count_Amphibians": 0, "count_Sac Fungi": 0, "unique_species_count": 3.0, "countryCode": "OM" }, "geometry": { "type": "MultiPolygon", "coordinates": [ [ [ [ 55.429583547368459, 23.697948763020992 ], [ 55.775900932851727, 23.272704878856949 ], [ 55.590674600845375, 22.840382890332855 ], [ 55.06181853958288, 22.834618585738337 ], [ 54.71459838654232, 23.262699382135121 ], [ 54.897066363793677, 23.693669745293676 ], [ 55.429583547368459, 23.697948763020992 ] ] ] ] } },
{ "type": "Feature", "properties": { "geogrid_id": "823291935056838163", "seqnum": 21749.0, "lat_c": 23.291935078536504, "lon_c": 56.838162924908239, "res": 8.0, "count_Flowering Plants": 72, "count_Reptiles": 14, "count_Insects": 64, "count_Molluscs": 0, "count_Birds": 54, "count_Mammals": 5, "count_Ferns": 2, "count_Arachnids": 2, "count_Gymnosperms": 1, "count_Basidiomycota": 0, "count_Amphibians": 1, "count_Sac Fungi": 1, "unique_species_count": 216.0, "countryCode": "OM" }, "geometry": { "type": "MultiPolygon", "coordinates": [ [ [ [ 57.028650689299035, 23.725632079241052 ], [ 57.369272780453848, 23.303892850245578 ], [ 57.178303932474357, 22.86970264774105 ], [ 56.649060135006216, 22.858345451581155 ], [ 56.30699596400769, 23.281403903225733 ], [ 56.495555159181094, 23.714434561366325 ], [ 57.028650689299035, 23.725632079241052 ] ] ] ] } },
{ "type": "Feature", "properties": { "geogrid_id": "823330692058430925", "seqnum": 21912.0, "lat_c": 23.33069200893738, "lon_c": 58.43092467077026, "res": 8.0, "count_Flowering Plants": 148, "count_Reptiles": 18, "count_Insects": 151, "count_Molluscs": 96, "count_Birds": 231, "count_Mammals": 15, "count_Ferns": 1, "count_Arachnids": 10, "count_Gymnosperms": 0, "count_Basidiomycota": 0, "count_Amphibians": 1, "count_Sac Fungi": 0, "unique_species_count": 671.0, "countryCode": "OM" }, "geometry": { "type": "MultiPolygon", "coordinates": [ [ [ [ 58.626890296010373, 23.766178561352689 ], [ 58.961316257590575, 23.344931493426376 ], [ 58.765028729538244, 22.90916170743894 ], [ 58.236365112449008, 22.895406605480229 ], [ 57.900221271338808, 23.316918048554548 ], [ 58.094410742332627, 23.751849763709043 ], [ 58.626890296010373, 23.766178561352689 ] ] ] ] } },
{ "type": "Feature", "properties": { "geogrid_id": "823373825060020965", "seqnum": 22075.0, "lat_c": 23.373825456794272, "lon_c": 60.020965024087772, "res": 8.0, "count_Flowering Plants": 0, "count_Reptiles": 1, "count_Insects": 0, "count_Molluscs": 0, "count_Birds": 0, "count_Mammals": 0, "count_Ferns": 0, "count_Arachnids": 0, "count_Gymnosperms": 0, "count_Basidiomycota": 0, "count_Amphibians": 0, "count_Sac Fungi": 0, "unique_species_count": 1.0, "countryCode": "OM" }, "geometry": { "type": "MultiPolygon", "coordinates": [ [ [ [ 60.221989255001056, 23.810679498393348 ], [ 60.55014975563666, 23.388053935246518 ], [ 60.348920618545911, 22.951118924027419 ], [ 59.821345204595175, 22.937229145554053 ], [ 59.49134338227362, 23.359384299163622 ], [ 59.690723621491351, 23.795834381430463 ], [ 60.221989255001056, 23.810679498393348 ] ] ] ] } },
{ "type": "Feature", "properties": { "geogrid_id": "823415172061607121", "seqnum": 22238.0, "lat_c": 23.415171634352863, "lon_c": 61.607120843306845, "res": 8.0, "count_Flowering Plants": 0, "count_Reptiles": 1, "count_Insects": 0, "count_Molluscs": 0, "count_Birds": 0, "count_Mammals": 0, "count_Ferns": 0, "count_Arachnids": 0, "count_Gymnosperms": 0, "count_Basidiomycota": 0, "count_Amphibians": 0, "count_Sac Fungi": 0, "unique_species_count": 1.0, "countryCode": "OM" }, "geometry": { "type": "MultiPolygon", "coordinates": [ [ [ [ 61.812858381299648, 23.852915080560873 ], [ 62.134878396081191, 23.427754559924324 ], [ 61.929018113198389, 22.990108913813479 ], [ 61.402773962303172, 22.977711953617536 ], [ 61.078874045692785, 23.401889781505353 ], [ 61.283074077753248, 23.839390683391152 ], [ 61.812858381299648, 23.852915080560873 ] ] ] ] } },
{ "type": "Feature", "properties": { "geogrid_id": "823705049055962479", "seqnum": 21668.0, "lat_c": 23.705049406552199, "lon_c": 55.962479317083933, "res": 8.0, "count_Flowering Plants": 6, "count_Reptiles": 0, "count_Insects": 3, "count_Molluscs": 0, "count_Birds": 2, "count_Mammals": 1, "count_Ferns": 0, "count_Arachnids": 0, "count_Gymnosperms": 0, "count_Basidiomycota": 0, "count_Amphibians": 0, "count_Sac Fungi": 0, "unique_species_count": 12.0, "countryCode": "OM" }, "geometry": { "type": "MultiPolygon", "coordinates": [ [ [ [ 56.15044174636963, 24.137454752141629 ], [ 56.495555159181094, 23.714434561366325 ], [ 56.30699596400769, 23.281403903225733 ], [ 55.775900932851727, 23.272704878856949 ], [ 55.429583547368459, 23.697948763020992 ], [ 55.615493025628254, 24.129609846549663 ], [ 56.15044174636963, 24.137454752141629 ] ] ] ] } },
{ "type": "Feature", "properties": { "geogrid_id": "823738226057561637", "seqnum": 21831.0, "lat_c": 23.738226127308923, "lon_c": 57.561636925403015, "res": 8.0, "count_Flowering Plants": 57, "count_Reptiles": 11, "count_Insects": 71, "count_Molluscs": 37, "count_Birds": 138, "count_Mammals": 9, "count_Ferns": 1, "count_Arachnids": 1, "count_Gymnosperms": 0, "count_Basidiomycota": 0, "count_Amphibians": 1, "count_Sac Fungi": 0, "unique_species_count": 326.0, "countryCode": "OM" }, "geometry": { "type": "MultiPolygon", "coordinates": [ [ [ [ 57.755419712188697, 24.172746401906213 ], [ 58.094410742332627, 23.751849763709043 ], [ 57.900221271338808, 23.316918048554548 ], [ 57.369272780453848, 23.303892850245578 ], [ 57.028650689299035, 23.725632079241052 ], [ 57.220549946917956, 24.159479028079797 ], [ 57.755419712188697, 24.172746401906213 ] ] ] ] } },
{ "type": "Feature", "properties": { "geogrid_id": "823780925059159011", "seqnum": 21994.0, "lat_c": 23.780925126549516, "lon_c": 59.159011244092746, "res": 8.0, "count_Flowering Plants": 0, "count_Reptiles": 1, "count_Insects": 0, "count_Molluscs": 0, "count_Birds": 6, "count_Mammals": 4, "count_Ferns": 0, "count_Arachnids": 0, "count_Gymnosperms": 0, "count_Basidiomycota": 0, "count_Amphibians": 0, "count_Sac Fungi": 0, "unique_species_count": 11.0, "countryCode": "OM" }, "geometry": { "type": "MultiPolygon", "coordinates": [ [ [ [ 59.358126735091382, 24.217188052023829 ], [ 59.690723621491351, 23.795834381430463 ], [ 59.49134338227362, 23.359384299163622 ], [ 58.961316257590575, 23.344931493426376 ], [ 58.626890296010373, 23.766178561352689 ], [ 58.824278529003259, 24.201911563997189 ], [ 59.358126735091382, 24.217188052023829 ] ] ] ] } },
{ "type": "Feature", "properties": { "geogrid_id": "824147573056685515", "seqnum": 21750.0, "lat_c": 24.147573086917767, "lon_c": 56.685514501054641, "res": 8.0, "count_Flowering Plants": 19, "count_Reptiles": 5, "count_Insects": 23, "count_Molluscs": 10, "count_Birds": 134, "count_Mammals": 6, "count_Ferns": 0, "count_Arachnids": 1, "count_Gymnosperms": 0, "count_Basidiomycota": 0, "count_Amphibians": 1, "count_Sac Fungi": 0, "unique_species_count": 199.0, "countryCode": "OM" }, "geometry": { "type": "MultiPolygon", "coordinates": [ [ [ [ 56.876902188810512, 24.580864037164705 ], [ 57.220549946917956, 24.159479028079797 ], [ 57.028650689299035, 23.725632079241052 ], [ 56.495555159181094, 23.714434561366325 ], [ 56.15044174636963, 24.137454752141629 ], [ 56.339819513338703, 24.56996296999035 ], [ 56.876902188810512, 24.580864037164705 ] ] ] ] } },
{ "type": "Feature", "properties": { "geogrid_id": "824187001058290022", "seqnum": 21913.0, "lat_c": 24.187000581334559, "lon_c": 58.29002237501102, "res": 8.0, "count_Flowering Plants": 0, "count_Reptiles": 4, "count_Insects": 0, "count_Molluscs": 8, "count_Birds": 8, "count_Mammals": 3, "count_Ferns": 0, "count_Arachnids": 0, "count_Gymnosperms": 0, "count_Basidiomycota": 0, "count_Amphibians": 0, "count_Sac Fungi": 0, "unique_species_count": 23.0, "countryCode": "OM" }, "geometry": { "type": "MultiPolygon", "coordinates": [ [ [ [ 58.48707329904969, 24.622419004558608 ], [ 58.824278529003259, 24.201911563997189 ], [ 58.626890296010373, 23.766178561352689 ], [ 58.094410742332627, 23.751849763709043 ], [ 57.755419712188697, 24.172746401906213 ], [ 57.950642156146948, 24.6075013884995 ], [ 58.48707329904969, 24.622419004558608 ] ] ] ] } },
{ "type": "Feature", "properties": { "geogrid_id": "824561319055802799", "seqnum": 21669.0, "lat_c": 24.561318868245554, "lon_c": 55.802799085730982, "res": 8.0, "count_Flowering Plants": 13, "count_Reptiles": 6, "count_Insects": 17, "count_Molluscs": 0, "count_Birds": 9, "count_Mammals": 3, "count_Ferns": 0, "count_Arachnids": 2, "count_Gymnosperms": 1, "count_Basidiomycota": 0, "count_Amphibians": 1, "count_Sac Fungi": 0, "unique_species_count": 52.0, "countryCode": "OM" }, "geometry": { "type": "MultiPolygon", "coordinates": [ [ [ [ 55.991535152351567, 24.993118826723297 ], [ 56.339819513338703, 24.56996296999035 ], [ 56.15044174636963, 24.137454752141629 ], [ 55.615493025628254, 24.129609846549663 ], [ 55.266045212338575, 24.555505097785581 ], [ 55.452627942191178, 24.986443858073869 ], [ 55.991535152351567, 24.993118826723297 ] ] ] ] } },
{ "type": "Feature", "properties": { "geogrid_id": "824593522057413885", "seqnum": 21832.0, "lat_c": 24.593522347398594, "lon_c": 57.413885434939218, "res": 8.0, "count_Flowering Plants": 0, "count_Reptiles": 2, "count_Insects": 0, "count_Molluscs": 2, "count_Birds": 0, "count_Mammals": 0, "count_Ferns": 0, "count_Arachnids": 0, "count_Gymnosperms": 0, "count_Basidiomycota": 0, "count_Amphibians": 0, "count_Sac Fungi": 0, "unique_species_count": 4.0, "countryCode": "OM" }, "geometry": { "type": "MultiPolygon", "coordinates": [ [ [ [ 57.608679534292406, 25.027812767370037 ], [ 57.950642156146948, 24.6075013884995 ], [ 57.755419712188697, 24.172746401906213 ], [ 57.220549946917956, 24.159479028079797 ], [ 56.876902188810512, 24.580864037164705 ], [ 57.069744710554559, 25.014356305958525 ], [ 57.608679534292406, 25.027812767370037 ] ] ] ] } },
{ "type": "Feature", "properties": { "geogrid_id": "825002620056530643", "seqnum": 21751.0, "lat_c": 25.002620400254685, "lon_c": 56.530642834363583, "res": 8.0, "count_Flowering Plants": 1, "count_Reptiles": 3, "count_Insects": 13, "count_Molluscs": 0, "count_Birds": 74, "count_Mammals": 2, "count_Ferns": 0, "count_Arachnids": 0, "count_Gymnosperms": 0, "count_Basidiomycota": 0, "count_Amphibians": 0, "count_Sac Fungi": 0, "unique_species_count": 93.0, "countryCode": "OM" }, "geometry": { "type": "MultiPolygon", "coordinates": [ [ [ [ 56.722940360603964, 25.435478256938264 ], [ 57.069744710554559, 25.014356305958525 ], [ 56.876902188810512, 24.580864037164705 ], [ 56.339819513338703, 24.56996296999035 ], [ 55.991535152351567, 24.993118826723297 ], [ 56.181733812728794, 25.425057462642116 ], [ 56.722940360603964, 25.435478256938264 ] ] ] ] } },
{ "type": "Feature", "properties": { "geogrid_id": "825042543058147322", "seqnum": 21914.0, "lat_c": 25.042543017960849, "lon_c": 58.147322278778979, "res": 8.0, "count_Flowering Plants": 0, "count_Reptiles": 1, "count_Insects": 0, "count_Molluscs": 0, "count_Birds": 0, "count_Mammals": 1, "count_Ferns": 0, "count_Arachnids": 0, "count_Gymnosperms": 0, "count_Basidiomycota": 0, "count_Amphibians": 0, "count_Sac Fungi": 0, "unique_species_count": 2.0, "countryCode": "OM" }, "geometry": { "type": "MultiPolygon", "coordinates": [ [ [ [ 58.345474278055868, 25.477927911651538 ], [ 58.685577034033038, 25.058157613943013 ], [ 58.48707329904969, 24.622419004558608 ], [ 57.950642156146948, 24.6075013884995 ], [ 57.608679534292406, 25.027812767370037 ], [ 57.804951544254244, 25.462405844865671 ], [ 58.345474278055868, 25.477927911651538 ] ] ] ] } },
{ "type": "Feature", "properties": { "geogrid_id": "825857188056373426", "seqnum": 21752.0, "lat_c": 25.85718796429429, "lon_c": 56.373426333403522, "res": 8.0, "count_Flowering Plants": 48, "count_Reptiles": 13, "count_Insects": 20, "count_Molluscs": 35, "count_Birds": 49, "count_Mammals": 8, "count_Ferns": 1, "count_Arachnids": 3, "count_Gymnosperms": 0, "count_Basidiomycota": 0, "count_Amphibians": 0, "count_Sac Fungi": 0, "unique_species_count": 177.0, "countryCode": "OM" }, "geometry": { "type": "MultiPolygon", "coordinates": [ [ [ [ 56.566642016893361, 26.289569793324699 ], [ 56.916738541442967, 25.868593306752373 ], [ 56.722940360603964, 25.435478256938264 ], [ 56.181733812728794, 25.425057462642116 ], [ 55.830158646496216, 25.848580757227008 ], [ 56.021176252363539, 26.279881900142481 ], [ 56.566642016893361, 26.289569793324699 ] ] ] ] } },
{ "type": "Feature", "properties": { "geogrid_id": "826273730055475937", "seqnum": 21671.0, "lat_c": 26.273730336844832, "lon_c": 55.475937122099069, "res": 8.0, "count_Flowering Plants": 0, "count_Reptiles": 2, "count_Insects": 0, "count_Molluscs": 0, "count_Birds": 0, "count_Mammals": 0, "count_Ferns": 0, "count_Arachnids": 0, "count_Gymnosperms": 0, "count_Basidiomycota": 0, "count_Amphibians": 0, "count_Sac Fungi": 0, "unique_species_count": 2.0, "countryCode": "OM" }, "geometry": { "type": "MultiPolygon", "coordinates": [ [ [ [ 55.666197936524711, 26.704093315455662 ], [ 56.021176252363539, 26.279881900142481 ], [ 55.830158646496216, 25.848580757227008 ], [ 55.287206377317936, 25.843509177603039 ], [ 54.931284647998808, 26.272017458161699 ], [ 55.119150083579953, 26.70123846649679 ], [ 55.666197936524711, 26.704093315455662 ] ] ] ] } },
{ "type": "Feature", "properties": { "geogrid_id": "826302029057112061", "seqnum": 21834.0, "lat_c": 26.302028653703918, "lon_c": 57.112060793868906, "res": 8.0, "count_Flowering Plants": 0, "count_Reptiles": 1, "count_Insects": 0, "count_Molluscs": 0, "count_Birds": 0, "count_Mammals": 0, "count_Ferns": 0, "count_Arachnids": 0, "count_Gymnosperms": 0, "count_Basidiomycota": 0, "count_Amphibians": 0, "count_Sac Fungi": 0, "unique_species_count": 1.0, "countryCode": "OM" }, "geometry": { "type": "MultiPolygon", "coordinates": [ [ [ [ 57.308926415222082, 26.735854646505821 ], [ 57.65722640858035, 26.316607292649792 ], [ 57.459887815173573, 25.882165484690297 ], [ 56.916738541442967, 25.868593306752373 ], [ 56.566642016893361, 26.289569793324699 ], [ 56.761407343572387, 26.722269653029475 ], [ 57.308926415222082, 26.735854646505821 ] ] ] ] } },
{ "type": "Feature", "properties": { "geogrid_id": "826711418056213740", "seqnum": 21753.0, "lat_c": 26.711417890288615, "lon_c": 56.213739573889505, "res": 8.0, "count_Flowering Plants": 5, "count_Reptiles": 1, "count_Insects": 1, "count_Molluscs": 53, "count_Birds": 2, "count_Mammals": 0, "count_Ferns": 0, "count_Arachnids": 0, "count_Gymnosperms": 0, "count_Basidiomycota": 0, "count_Amphibians": 0, "count_Sac Fungi": 0, "unique_species_count": 62.0, "countryCode": "OM" }, "geometry": { "type": "MultiPolygon", "coordinates": [ [ [ [ 56.407878954886414, 27.143258496160001 ], [ 56.761407343572387, 26.722269653029475 ], [ 56.566642016893361, 26.289569793324699 ], [ 56.021176252363539, 26.279881900142481 ], [ 55.666197936524711, 26.704093315455662 ], [ 55.85802562804691, 27.134660618747233 ], [ 56.407878954886414, 27.143258496160001 ] ] ] ] } }
]
}
