{
"type": "FeatureCollection",
"name": "PA",
"crs": { "type": "name", "properties": { "name": "urn:ogc:def:crs:OGC:1.3:CRS84" } },
"features": [
{ "type": "Feature", "properties": { "geogrid_id": "5204821168079536680", "seqnum": 35641.0, "lat_c": 4.821168214210398, "lon_c": -79.536679855203602, "res": 8.0, "count_Sac Fungi": 0, "count_Ferns": 0, "count_Molluscs": 0, "count_Arachnids": 0, "count_Birds": 0, "count_Mammals": 2, "count_Flowering Plants": 0, "count_Insects": 0, "count_Basidiomycota": 0, "count_Reptiles": 0, "count_Amphibians": 0, "count_Mosses": 0, "count_Gymnosperms": 0, "unique_species_count": 2.0, "countryCode": "PA" }, "geometry": { "type": "MultiPolygon", "coordinates": [ [ [ [ -79.012316153975604, 4.817437964141 ], [ -79.274097316152904, 4.418139430899104 ], [ -79.797830399228431, 4.421535948565331 ], [ -80.060699930918418, 4.824776439346326 ], [ -79.799712203558116, 5.224307629800403 ], [ -79.275025838790299, 5.220374583537771 ], [ -79.012316153975604, 4.817437964141 ] ] ] ] } },
{ "type": "Feature", "properties": { "geogrid_id": "5204831619081107781", "seqnum": 35558.0, "lat_c": 4.8316193771449001, "lon_c": -81.10778130730445, "res": 8.0, "count_Sac Fungi": 0, "count_Ferns": 0, "count_Molluscs": 0, "count_Arachnids": 0, "count_Birds": 0, "count_Mammals": 4, "count_Flowering Plants": 0, "count_Insects": 0, "count_Basidiomycota": 0, "count_Reptiles": 1, "count_Amphibians": 0, "count_Mosses": 0, "count_Gymnosperms": 0, "unique_species_count": 5.0, "countryCode": "PA" }, "geometry": { "type": "MultiPolygon", "coordinates": [ [ [ [ -80.584394257090551, 4.828260853253184 ], [ -80.844271073322361, 4.427998367174151 ], [ -81.367013478911957, 4.431061122506181 ], [ -81.630880251421218, 4.834849590439201 ], [ -81.371923957748081, 5.23527515598595 ], [ -80.848141607734888, 5.231760608481057 ], [ -80.584394257090551, 4.828260853253184 ] ] ] ] } },
{ "type": "Feature", "properties": { "geogrid_id": "5204840913082676295", "seqnum": 35475.0, "lat_c": 4.8409133236907227, "lon_c": -82.676294694939159, "res": 8.0, "count_Sac Fungi": 0, "count_Ferns": 0, "count_Molluscs": 0, "count_Arachnids": 0, "count_Birds": 1, "count_Mammals": 4, "count_Flowering Plants": 0, "count_Insects": 0, "count_Basidiomycota": 0, "count_Reptiles": 2, "count_Amphibians": 0, "count_Mosses": 0, "count_Gymnosperms": 0, "unique_species_count": 7.0, "countryCode": "PA" }, "geometry": { "type": "MultiPolygon", "coordinates": [ [ [ [ -82.153711070991008, 4.837948671182133 ], [ -82.411634001881879, 4.436839765479162 ], [ -82.933551012422456, 4.439550616045508 ], [ -83.198653159918678, 4.843739690188859 ], [ -82.941796369946147, 5.244928778391798 ], [ -82.418728762301981, 5.241863480002153 ], [ -82.153711070991008, 4.837948671182133 ] ] ] ] } },
{ "type": "Feature", "properties": { "geogrid_id": "5204848959084242789", "seqnum": 35392.0, "lat_c": 4.8489586467331716, "lon_c": -84.242789478527726, "res": 8.0, "count_Sac Fungi": 0, "count_Ferns": 0, "count_Molluscs": 0, "count_Arachnids": 0, "count_Birds": 0, "count_Mammals": 1, "count_Flowering Plants": 0, "count_Insects": 0, "count_Basidiomycota": 0, "count_Reptiles": 0, "count_Amphibians": 0, "count_Mosses": 0, "count_Gymnosperms": 0, "unique_species_count": 1.0, "countryCode": "PA" }, "geometry": { "type": "MultiPolygon", "coordinates": [ [ [ [ -83.720809800838992, 4.84642324226687 ], [ -83.976703067175208, 4.444599319752883 ], [ -84.4979835927018, 4.44692896962141 ], [ -84.76461885337001, 4.851339598725449 ], [ -84.509960912991815, 5.253141820960558 ], [ -83.987385218650275, 5.250574781373026 ], [ -83.720809800838992, 4.84642324226687 ] ] ] ] } },
{ "type": "Feature", "properties": { "geogrid_id": "5205228104080324078", "seqnum": 35559.0, "lat_c": 5.2281038023070634, "lon_c": -80.324077702886299, "res": 8.0, "count_Sac Fungi": 0, "count_Ferns": 0, "count_Molluscs": 0, "count_Arachnids": 0, "count_Birds": 0, "count_Mammals": 9, "count_Flowering Plants": 0, "count_Insects": 0, "count_Basidiomycota": 0, "count_Reptiles": 1, "count_Amphibians": 0, "count_Mosses": 0, "count_Gymnosperms": 0, "unique_species_count": 10.0, "countryCode": "PA" }, "geometry": { "type": "MultiPolygon", "coordinates": [ [ [ [ -79.799712203558116, 5.224307629800403 ], [ -80.060699930918418, 4.824776439346326 ], [ -80.584394257090551, 4.828260853253184 ], [ -80.848141607734888, 5.231760608481057 ], [ -80.588039627870174, 5.631479217818718 ], [ -80.063267611172336, 5.627521450528982 ], [ -79.799712203558116, 5.224307629800403 ] ] ] ] } },
{ "type": "Feature", "properties": { "geogrid_id": "5205238644081895446", "seqnum": 35476.0, "lat_c": 5.2386440840036537, "lon_c": -81.895445685509728, "res": 8.0, "count_Sac Fungi": 0, "count_Ferns": 0, "count_Molluscs": 0, "count_Arachnids": 0, "count_Birds": 0, "count_Mammals": 4, "count_Flowering Plants": 0, "count_Insects": 0, "count_Basidiomycota": 0, "count_Reptiles": 2, "count_Amphibians": 0, "count_Mosses": 0, "count_Gymnosperms": 0, "unique_species_count": 6.0, "countryCode": "PA" }, "geometry": { "type": "MultiPolygon", "coordinates": [ [ [ [ -81.371923957748081, 5.23527515598595 ], [ -81.630880251421218, 4.834849590439201 ], [ -82.153711070991008, 4.837948671182133 ], [ -82.418728762301981, 5.241863480002153 ], [ -82.160795191116463, 5.642396137978106 ], [ -81.636780986687796, 5.638920808681925 ], [ -81.371923957748081, 5.23527515598595 ] ] ] ] } },
{ "type": "Feature", "properties": { "geogrid_id": "5205247835083464673", "seqnum": 35393.0, "lat_c": 5.2478346364322537, "lon_c": -83.464673104448664, "res": 8.0, "count_Sac Fungi": 0, "count_Ferns": 0, "count_Molluscs": 0, "count_Arachnids": 0, "count_Birds": 3, "count_Mammals": 3, "count_Flowering Plants": 0, "count_Insects": 0, "count_Basidiomycota": 0, "count_Reptiles": 1, "count_Amphibians": 0, "count_Mosses": 0, "count_Gymnosperms": 0, "unique_species_count": 7.0, "countryCode": "PA" }, "geometry": { "type": "MultiPolygon", "coordinates": [ [ [ [ -82.941796369946147, 5.244928778391798 ], [ -83.198653159918678, 4.843739690188859 ], [ -83.720809800838992, 4.84642324226687 ], [ -83.987385218650275, 5.250574781373026 ], [ -83.731708774613395, 5.651773438181689 ], [ -83.208232371590881, 5.648829176924387 ], [ -82.941796369946147, 5.244928778391798 ] ] ] ] } },
{ "type": "Feature", "properties": { "geogrid_id": "5205623410079538200", "seqnum": 35560.0, "lat_c": 5.6234104055958998, "lon_c": -79.538199848538611, "res": 8.0, "count_Sac Fungi": 0, "count_Ferns": 0, "count_Molluscs": 0, "count_Arachnids": 0, "count_Birds": 0, "count_Mammals": 6, "count_Flowering Plants": 0, "count_Insects": 0, "count_Basidiomycota": 0, "count_Reptiles": 0, "count_Amphibians": 0, "count_Mosses": 0, "count_Gymnosperms": 0, "unique_species_count": 6.0, "countryCode": "PA" }, "geometry": { "type": "MultiPolygon", "coordinates": [ [ [ [ -79.012816279668485, 5.619149016328783 ], [ -79.275025838790299, 5.220374583537771 ], [ -79.799712203558116, 5.224307629800403 ], [ -80.063267611172336, 5.627521450528982 ], [ -79.801911242778033, 6.02650861396211 ], [ -79.276110931673486, 6.022079398600908 ], [ -79.012816279668485, 5.619149016328783 ] ] ] ] } },
{ "type": "Feature", "properties": { "geogrid_id": "5205635280081112537", "seqnum": 35477.0, "lat_c": 5.635280314239635, "lon_c": -81.112536796863708, "res": 8.0, "count_Sac Fungi": 0, "count_Ferns": 0, "count_Molluscs": 0, "count_Arachnids": 0, "count_Birds": 4, "count_Mammals": 9, "count_Flowering Plants": 0, "count_Insects": 0, "count_Basidiomycota": 0, "count_Reptiles": 1, "count_Amphibians": 0, "count_Mosses": 0, "count_Gymnosperms": 0, "unique_species_count": 14.0, "countryCode": "PA" }, "geometry": { "type": "MultiPolygon", "coordinates": [ [ [ [ -80.588039627870174, 5.631479217818718 ], [ -80.848141607734888, 5.231760608481057 ], [ -81.371923957748081, 5.23527515598595 ], [ -81.636780986687796, 5.638920808681925 ], [ -81.37766148967053, 6.03877435365147 ], [ -80.852664258364243, 6.034860315379768 ], [ -80.588039627870174, 5.631479217818718 ] ] ] ] } },
{ "type": "Feature", "properties": { "geogrid_id": "5205645701082684604", "seqnum": 35394.0, "lat_c": 5.6457009925678792, "lon_c": -82.684603711386458, "res": 8.0, "count_Sac Fungi": 0, "count_Ferns": 0, "count_Molluscs": 0, "count_Arachnids": 0, "count_Birds": 0, "count_Mammals": 8, "count_Flowering Plants": 0, "count_Insects": 0, "count_Basidiomycota": 0, "count_Reptiles": 0, "count_Amphibians": 0, "count_Mosses": 0, "count_Gymnosperms": 0, "unique_species_count": 8.0, "countryCode": "PA" }, "geometry": { "type": "MultiPolygon", "coordinates": [ [ [ [ -82.160795191116463, 5.642396137978106 ], [ -82.418728762301981, 5.241863480002153 ], [ -82.941796369946147, 5.244928778391798 ], [ -83.208232371590881, 5.648829176924387 ], [ -82.951428783690133, 6.04940337772965 ], [ -82.427017550214686, 6.046052466370627 ], [ -82.160795191116463, 5.642396137978106 ] ] ] ] } },
{ "type": "Feature", "properties": { "geogrid_id": "5205654525084255063", "seqnum": 35311.0, "lat_c": 5.6545252544225084, "lon_c": -84.255062607898736, "res": 8.0, "count_Sac Fungi": 0, "count_Ferns": 0, "count_Molluscs": 0, "count_Arachnids": 0, "count_Birds": 0, "count_Mammals": 2, "count_Flowering Plants": 0, "count_Insects": 0, "count_Basidiomycota": 0, "count_Reptiles": 1, "count_Amphibians": 0, "count_Mosses": 0, "count_Gymnosperms": 0, "unique_species_count": 3.0, "countryCode": "PA" }, "geometry": { "type": "MultiPolygon", "coordinates": [ [ [ [ -83.731708774613395, 5.651773438181689 ], [ -83.987385218650275, 5.250574781373026 ], [ -84.509960912991815, 5.253141820960558 ], [ -84.778326010862045, 5.657074571418117 ], [ -84.523949815763913, 6.058199339167732 ], [ -83.999862504374775, 6.055487351924175 ], [ -83.731708774613395, 5.651773438181689 ] ] ] ] } },
{ "type": "Feature", "properties": { "geogrid_id": "5206030770080327422", "seqnum": 35478.0, "lat_c": 6.0307702260307954, "lon_c": -80.32742177112064, "res": 8.0, "count_Sac Fungi": 0, "count_Ferns": 0, "count_Molluscs": 0, "count_Arachnids": 0, "count_Birds": 0, "count_Mammals": 6, "count_Flowering Plants": 0, "count_Insects": 0, "count_Basidiomycota": 0, "count_Reptiles": 1, "count_Amphibians": 0, "count_Mosses": 0, "count_Gymnosperms": 0, "unique_species_count": 7.0, "countryCode": "PA" }, "geometry": { "type": "MultiPolygon", "coordinates": [ [ [ [ -79.801911242778033, 6.02650861396211 ], [ -80.063267611172336, 5.627521450528982 ], [ -80.588039627870174, 5.631479217818718 ], [ -80.852664258364243, 6.034860315379768 ], [ -80.592252976127028, 6.434010971329402 ], [ -80.066235490242434, 6.429629181838543 ], [ -79.801911242778033, 6.02650861396211 ] ] ] ] } },
{ "type": "Feature", "properties": { "geogrid_id": "5206042507081902437", "seqnum": 35395.0, "lat_c": 6.0425070984954887, "lon_c": -81.902437456918435, "res": 8.0, "count_Sac Fungi": 0, "count_Ferns": 0, "count_Molluscs": 0, "count_Arachnids": 0, "count_Birds": 1, "count_Mammals": 3, "count_Flowering Plants": 0, "count_Insects": 0, "count_Basidiomycota": 0, "count_Reptiles": 1, "count_Amphibians": 0, "count_Mosses": 0, "count_Gymnosperms": 0, "unique_species_count": 5.0, "countryCode": "PA" }, "geometry": { "type": "MultiPolygon", "coordinates": [ [ [ [ -81.37766148967053, 6.03877435365147 ], [ -81.636780986687796, 5.638920808681925 ], [ -82.160795191116463, 5.642396137978106 ], [ -82.427017550214686, 6.046052466370627 ], [ -82.1689817375524, 6.445980000475418 ], [ -81.643600396342407, 6.442192794027283 ], [ -81.37766148967053, 6.03877435365147 ] ] ] ] } },
{ "type": "Feature", "properties": { "geogrid_id": "5206052552083475700", "seqnum": 35312.0, "lat_c": 6.0525515675303918, "lon_c": -83.475700063063954, "res": 8.0, "count_Sac Fungi": 0, "count_Ferns": 0, "count_Molluscs": 0, "count_Arachnids": 0, "count_Birds": 0, "count_Mammals": 7, "count_Flowering Plants": 0, "count_Insects": 0, "count_Basidiomycota": 0, "count_Reptiles": 0, "count_Amphibians": 0, "count_Mosses": 0, "count_Gymnosperms": 0, "unique_species_count": 7.0, "countryCode": "PA" }, "geometry": { "type": "MultiPolygon", "coordinates": [ [ [ [ -82.951428783690133, 6.04940337772965 ], [ -83.208232371590881, 5.648829176924387 ], [ -83.731708774613395, 5.651773438181689 ], [ -83.999862504374775, 6.055487351924175 ], [ -83.744301104874467, 6.456026335886169 ], [ -83.21930077174008, 6.452906856494817 ], [ -82.951428783690133, 6.04940337772965 ] ] ] ] } },
{ "type": "Feature", "properties": { "geogrid_id": "5206425061079539957", "seqnum": 35479.0, "lat_c": 6.425060603517001, "lon_c": -79.539956820693575, "res": 8.0, "count_Sac Fungi": 0, "count_Ferns": 0, "count_Molluscs": 0, "count_Arachnids": 0, "count_Birds": 0, "count_Mammals": 9, "count_Flowering Plants": 0, "count_Insects": 1, "count_Basidiomycota": 0, "count_Reptiles": 2, "count_Amphibians": 0, "count_Mosses": 0, "count_Gymnosperms": 0, "unique_species_count": 12.0, "countryCode": "PA" }, "geometry": { "type": "MultiPolygon", "coordinates": [ [ [ [ -79.013394400714645, 6.420309703585316 ], [ -79.276110931673486, 6.022079398600908 ], [ -79.801911242778033, 6.02650861396211 ], [ -80.066235490242434, 6.429629181838543 ], [ -79.804429187842317, 6.828052079674028 ], [ -79.277353437994975, 6.823173148570008 ], [ -79.013394400714645, 6.420309703585316 ] ] ] ] } },
{ "type": "Feature", "properties": { "geogrid_id": "5206438201081118033", "seqnum": 35396.0, "lat_c": 6.438200823746687, "lon_c": -81.118032957464095, "res": 8.0, "count_Sac Fungi": 0, "count_Ferns": 0, "count_Molluscs": 1, "count_Arachnids": 0, "count_Birds": 0, "count_Mammals": 8, "count_Flowering Plants": 0, "count_Insects": 0, "count_Basidiomycota": 0, "count_Reptiles": 2, "count_Amphibians": 0, "count_Mosses": 0, "count_Gymnosperms": 0, "unique_species_count": 11.0, "countryCode": "PA" }, "geometry": { "type": "MultiPolygon", "coordinates": [ [ [ [ -80.592252976127028, 6.434010971329402 ], [ -80.852664258364243, 6.034860315379768 ], [ -81.37766148967053, 6.03877435365147 ], [ -81.643600396342407, 6.442192794027283 ], [ -81.38423007933946, 6.841450185860015 ], [ -80.857842283737185, 6.837196824924674 ], [ -80.592252976127028, 6.434010971329402 ] ] ] ] } },
{ "type": "Feature", "properties": { "geogrid_id": "5206449554082694205", "seqnum": 35313.0, "lat_c": 6.4495544550850799, "lon_c": -82.694205143485235, "res": 8.0, "count_Sac Fungi": 0, "count_Ferns": 0, "count_Molluscs": 0, "count_Arachnids": 0, "count_Birds": 1, "count_Mammals": 9, "count_Flowering Plants": 0, "count_Insects": 0, "count_Basidiomycota": 0, "count_Reptiles": 3, "count_Amphibians": 0, "count_Mosses": 0, "count_Gymnosperms": 0, "unique_species_count": 13.0, "countryCode": "PA" }, "geometry": { "type": "MultiPolygon", "coordinates": [ [ [ [ -82.1689817375524, 6.445980000475418 ], [ -82.427017550214686, 6.046052466370627 ], [ -82.951428783690133, 6.04940337772965 ], [ -83.21930077174008, 6.452906856494817 ], [ -82.962454190582491, 6.852837599187821 ], [ -82.436505721650661, 6.849280207550972 ], [ -82.1689817375524, 6.445980000475418 ] ] ] ] } },
{ "type": "Feature", "properties": { "geogrid_id": "5206818097078750000", "seqnum": 9155.0, "lat_c": 6.8180968018663286, "lon_c": -78.750000000440394, "res": 8.0, "count_Sac Fungi": 0, "count_Ferns": 0, "count_Molluscs": 0, "count_Arachnids": 0, "count_Birds": 0, "count_Mammals": 6, "count_Flowering Plants": 0, "count_Insects": 0, "count_Basidiomycota": 0, "count_Reptiles": 1, "count_Amphibians": 0, "count_Mosses": 0, "count_Gymnosperms": 0, "unique_species_count": 7.0, "countryCode": "PA" }, "geometry": { "type": "MultiPolygon", "coordinates": [ [ [ [ -78.222646562360453, 6.823173143452153 ], [ -78.486605599615629, 6.420309698427866 ], [ -79.013394400714645, 6.420309703585316 ], [ -79.277353437994975, 6.823173148570008 ], [ -79.014050971390674, 7.220842328170898 ], [ -78.48594902898121, 7.220842323014097 ], [ -78.222646562360453, 6.823173143452153 ] ] ] ] } },
{ "type": "Feature", "properties": { "geogrid_id": "5206832729080331251", "seqnum": 35397.0, "lat_c": 6.8327285673423201, "lon_c": -80.331250620487168, "res": 8.0, "count_Sac Fungi": 0, "count_Ferns": 0, "count_Molluscs": 2, "count_Arachnids": 0, "count_Birds": 9, "count_Mammals": 10, "count_Flowering Plants": 0, "count_Insects": 0, "count_Basidiomycota": 0, "count_Reptiles": 2, "count_Amphibians": 0, "count_Mosses": 0, "count_Gymnosperms": 0, "unique_species_count": 23.0, "countryCode": "PA" }, "geometry": { "type": "MultiPolygon", "coordinates": [ [ [ [ -79.804429187842317, 6.828052079674028 ], [ -80.066235490242434, 6.429629181838543 ], [ -80.592252976127028, 6.434010971329402 ], [ -80.857842283737185, 6.837196824924674 ], [ -80.597037383670113, 7.235759379536423 ], [ -80.069605797532191, 7.231009783034855 ], [ -79.804429187842317, 6.828052079674028 ] ] ] ] } },
{ "type": "Feature", "properties": { "geogrid_id": "5206845481081910441", "seqnum": 35314.0, "lat_c": 6.8454809515975681, "lon_c": -81.910441469901414, "res": 8.0, "count_Sac Fungi": 0, "count_Ferns": 0, "count_Molluscs": 48, "count_Arachnids": 0, "count_Birds": 4, "count_Mammals": 10, "count_Flowering Plants": 1, "count_Insects": 0, "count_Basidiomycota": 4, "count_Reptiles": 1, "count_Amphibians": 0, "count_Mosses": 0, "count_Gymnosperms": 0, "unique_species_count": 68.0, "countryCode": "PA" }, "geometry": { "type": "MultiPolygon", "coordinates": [ [ [ [ -81.38423007933946, 6.841450185860015 ], [ -81.643600396342407, 6.442192794027283 ], [ -82.1689817375524, 6.445980000475418 ], [ -82.436505721650661, 6.849280207550972 ], [ -82.178276115287403, 7.248578910927475 ], [ -81.651343159767478, 7.244553134734698 ], [ -81.38423007933946, 6.841450185860015 ] ] ] ] } },
{ "type": "Feature", "properties": { "geogrid_id": "5206856141083488321", "seqnum": 35231.0, "lat_c": 6.8561410580954369, "lon_c": -83.488320661405226, "res": 8.0, "count_Sac Fungi": 0, "count_Ferns": 0, "count_Molluscs": 0, "count_Arachnids": 0, "count_Birds": 3, "count_Mammals": 3, "count_Flowering Plants": 0, "count_Insects": 0, "count_Basidiomycota": 0, "count_Reptiles": 2, "count_Amphibians": 0, "count_Mosses": 0, "count_Gymnosperms": 0, "unique_species_count": 8.0, "countryCode": "PA" }, "geometry": { "type": "MultiPolygon", "coordinates": [ [ [ [ -82.962454190582491, 6.85283759918782 ], [ -83.21930077174008, 6.452906856494817 ], [ -83.744301104874467, 6.456026335886169 ], [ -84.014141751088886, 6.859176464859937 ], [ -83.758593914161878, 7.259028303139119 ], [ -83.231865004577998, 7.255830878256189 ], [ -82.962454190582491, 6.85283759918782 ] ] ] ] } },
{ "type": "Feature", "properties": { "geogrid_id": "5207226035077958048", "seqnum": 9156.0, "lat_c": 7.2260352809350143, "lon_c": -77.958047877182196, "res": 8.0, "count_Sac Fungi": 0, "count_Ferns": 0, "count_Molluscs": 23, "count_Arachnids": 1, "count_Birds": 41, "count_Mammals": 16, "count_Flowering Plants": 11, "count_Insects": 12, "count_Basidiomycota": 0, "count_Reptiles": 5, "count_Amphibians": 3, "count_Mosses": 0, "count_Gymnosperms": 0, "unique_species_count": 112.0, "countryCode": "PA" }, "geometry": { "type": "MultiPolygon", "coordinates": [ [ [ [ -77.430394202858139, 7.231009778035814 ], [ -77.695570812521808, 6.82805207463492 ], [ -78.222646562360453, 6.823173143452153 ], [ -78.48594902898121, 7.220842323014097 ], [ -78.221245675531932, 7.623575468082453 ], [ -77.692732045509288, 7.628851616704511 ], [ -77.430394202858139, 7.231009778035814 ] ] ] ] } },
{ "type": "Feature", "properties": { "geogrid_id": "5207226035079541952", "seqnum": 35398.0, "lat_c": 7.2260352860130661, "lon_c": -79.541952123198911, "res": 8.0, "count_Sac Fungi": 0, "count_Ferns": 0, "count_Molluscs": 9, "count_Arachnids": 0, "count_Birds": 8, "count_Mammals": 8, "count_Flowering Plants": 0, "count_Insects": 0, "count_Basidiomycota": 0, "count_Reptiles": 1, "count_Amphibians": 0, "count_Mosses": 0, "count_Gymnosperms": 0, "unique_species_count": 26.0, "countryCode": "PA" }, "geometry": { "type": "MultiPolygon", "coordinates": [ [ [ [ -79.014050971390674, 7.220842328170898 ], [ -79.277353437994975, 6.823173148570008 ], [ -79.804429187842317, 6.828052079674028 ], [ -80.069605797532191, 7.231009783034855 ], [ -79.807267954898052, 7.62885162174253 ], [ -79.278754324865673, 7.623575473199489 ], [ -79.014050971390674, 7.220842328170898 ] ] ] ] } },
{ "type": "Feature", "properties": { "geogrid_id": "5207240277081124274", "seqnum": 35315.0, "lat_c": 7.2402766731120654, "lon_c": -81.12427369052358, "res": 8.0, "count_Sac Fungi": 5, "count_Ferns": 5, "count_Molluscs": 293, "count_Arachnids": 29, "count_Birds": 216, "count_Mammals": 46, "count_Flowering Plants": 350, "count_Insects": 327, "count_Basidiomycota": 17, "count_Reptiles": 29, "count_Amphibians": 15, "count_Mosses": 1, "count_Gymnosperms": 0, "unique_species_count": 1333.0, "countryCode": "PA" }, "geometry": { "type": "MultiPolygon", "coordinates": [ [ [ [ -80.597037383670113, 7.235759379536423 ], [ -80.857842283737185, 6.837196824924674 ], [ -81.38423007933946, 6.841450185860015 ], [ -81.651343159767478, 7.244553134734698 ], [ -81.391634315700657, 7.643194736929655 ], [ -80.863679418813717, 7.63867001207579 ], [ -80.597037383670113, 7.235759379536423 ] ] ] ] } },
{ "type": "Feature", "properties": { "geogrid_id": "5207252343082705105", "seqnum": 35232.0, "lat_c": 7.2523425837812114, "lon_c": -82.705105056456418, "res": 8.0, "count_Sac Fungi": 0, "count_Ferns": 0, "count_Molluscs": 0, "count_Arachnids": 0, "count_Birds": 1, "count_Mammals": 6, "count_Flowering Plants": 0, "count_Insects": 0, "count_Basidiomycota": 0, "count_Reptiles": 3, "count_Amphibians": 0, "count_Mosses": 0, "count_Gymnosperms": 0, "unique_species_count": 10.0, "countryCode": "PA" }, "geometry": { "type": "MultiPolygon", "coordinates": [ [ [ [ -82.178276115287403, 7.248578910927475 ], [ -82.436505721650661, 6.849280207550972 ], [ -82.962454190582491, 6.852837599187821 ], [ -83.231865004577998, 7.255830878256189 ], [ -82.974879386720772, 7.655095558672545 ], [ -82.447199410131631, 7.651420993930049 ], [ -82.178276115287403, 7.248578910927475 ] ] ] ] } },
{ "type": "Feature", "properties": { "geogrid_id": "5207618065078750000", "seqnum": 9074.0, "lat_c": 7.6180645038053916, "lon_c": -78.750000000462791, "res": 8.0, "count_Sac Fungi": 0, "count_Ferns": 0, "count_Molluscs": 3, "count_Arachnids": 0, "count_Birds": 1, "count_Mammals": 7, "count_Flowering Plants": 0, "count_Insects": 1, "count_Basidiomycota": 0, "count_Reptiles": 2, "count_Amphibians": 0, "count_Mosses": 0, "count_Gymnosperms": 0, "unique_species_count": 14.0, "countryCode": "PA" }, "geometry": { "type": "MultiPolygon", "coordinates": [ [ [ [ -78.221245675531932, 7.623575468082453 ], [ -78.48594902898121, 7.220842323014097 ], [ -79.014050971390674, 7.220842328170898 ], [ -79.278754324865673, 7.623575473199489 ], [ -79.014786508567283, 8.020669559897948 ], [ -78.485213491846309, 8.020669554741879 ], [ -78.221245675531932, 7.623575468082453 ] ] ] ] } },
{ "type": "Feature", "properties": { "geogrid_id": "5207633886077164433", "seqnum": 9157.0, "lat_c": 7.6338858459033672, "lon_c": -77.164432908280659, "res": 8.0, "count_Sac Fungi": 0, "count_Ferns": 0, "count_Molluscs": 0, "count_Arachnids": 4, "count_Birds": 9, "count_Mammals": 8, "count_Flowering Plants": 8, "count_Insects": 21, "count_Basidiomycota": 0, "count_Reptiles": 3, "count_Amphibians": 2, "count_Mosses": 0, "count_Gymnosperms": 0, "unique_species_count": 55.0, "countryCode": "PA" }, "geometry": { "type": "MultiPolygon", "coordinates": [ [ [ [ -76.636320581613163, 7.638670007196636 ], [ -76.902962616729468, 7.235759374616659 ], [ -77.430394202858139, 7.231009778035814 ], [ -77.692732045509288, 7.628851616704511 ], [ -77.426618931866216, 8.03157387078984 ], [ -76.897603645825953, 8.036628239679457 ], [ -76.636320581613163, 7.638670007196636 ] ] ] ] } },
{ "type": "Feature", "properties": { "geogrid_id": "5207633886080335567", "seqnum": 35316.0, "lat_c": 7.6338858508620939, "lon_c": -80.335567092136458, "res": 8.0, "count_Sac Fungi": 1, "count_Ferns": 3, "count_Molluscs": 206, "count_Arachnids": 30, "count_Birds": 212, "count_Mammals": 41, "count_Flowering Plants": 385, "count_Insects": 287, "count_Basidiomycota": 15, "count_Reptiles": 46, "count_Amphibians": 21, "count_Mosses": 3, "count_Gymnosperms": 1, "unique_species_count": 1251.0, "countryCode": "PA" }, "geometry": { "type": "MultiPolygon", "coordinates": [ [ [ [ -79.807267954898052, 7.62885162174253 ], [ -80.069605797532191, 7.231009783034855 ], [ -80.597037383670113, 7.235759379536423 ], [ -80.863679418813717, 7.63867001207579 ], [ -80.602396354618492, 8.036628244597601 ], [ -80.07338106856794, 8.031573875787577 ], [ -79.807267954898052, 7.62885162174253 ] ] ] ] } },
{ "type": "Feature", "properties": { "geogrid_id": "5207647449081919463", "seqnum": 35233.0, "lat_c": 7.647449226044353, "lon_c": -81.919463117138434, "res": 8.0, "count_Sac Fungi": 15, "count_Ferns": 5, "count_Molluscs": 295, "count_Arachnids": 18, "count_Birds": 113, "count_Mammals": 22, "count_Flowering Plants": 149, "count_Insects": 55, "count_Basidiomycota": 22, "count_Reptiles": 23, "count_Amphibians": 7, "count_Mosses": 1, "count_Gymnosperms": 0, "unique_species_count": 725.0, "countryCode": "PA" }, "geometry": { "type": "MultiPolygon", "coordinates": [ [ [ [ -81.391634315700657, 7.643194736929655 ], [ -81.651343159767478, 7.244553134734698 ], [ -82.178276115287403, 7.248578910927475 ], [ -82.447199410131631, 7.651420993930049 ], [ -82.188684464311649, 8.05007232263795 ], [ -81.66001459450132, 8.045890117724399 ], [ -81.391634315700657, 7.643194736929655 ] ] ] ] } },
{ "type": "Feature", "properties": { "geogrid_id": "5208026251077955813", "seqnum": 9075.0, "lat_c": 8.0262513421414905, "lon_c": -77.955812706919261, "res": 8.0, "count_Sac Fungi": 7, "count_Ferns": 7, "count_Molluscs": 7, "count_Arachnids": 27, "count_Birds": 425, "count_Mammals": 82, "count_Flowering Plants": 187, "count_Insects": 612, "count_Basidiomycota": 12, "count_Reptiles": 60, "count_Amphibians": 35, "count_Mosses": 0, "count_Gymnosperms": 0, "unique_species_count": 1461.0, "countryCode": "PA" }, "geometry": { "type": "MultiPolygon", "coordinates": [ [ [ [ -77.426618931866216, 8.03157387078984 ], [ -77.692732045509288, 7.628851616704511 ], [ -78.221245675531932, 7.623575468082453 ], [ -78.485213491846309, 8.020669554741879 ], [ -78.219685315720952, 8.423206421693983 ], [ -77.689570292537354, 8.428821299602653 ], [ -77.426618931866216, 8.03157387078984 ] ] ] ] } },
{ "type": "Feature", "properties": { "geogrid_id": "5208026251079544187", "seqnum": 35317.0, "lat_c": 8.0262513472185351, "lon_c": -79.544187293504606, "res": 8.0, "count_Sac Fungi": 0, "count_Ferns": 0, "count_Molluscs": 1, "count_Arachnids": 0, "count_Birds": 7, "count_Mammals": 5, "count_Flowering Plants": 0, "count_Insects": 0, "count_Basidiomycota": 0, "count_Reptiles": 2, "count_Amphibians": 0, "count_Mosses": 0, "count_Gymnosperms": 0, "unique_species_count": 15.0, "countryCode": "PA" }, "geometry": { "type": "MultiPolygon", "coordinates": [ [ [ [ -79.014786508567283, 8.020669559897948 ], [ -79.278754324865673, 7.623575473199489 ], [ -79.807267954898052, 7.62885162174253 ], [ -80.07338106856794, 8.031573875787577 ], [ -79.810429707913343, 8.428821304639454 ], [ -79.280314684718959, 8.423206426810104 ], [ -79.014786508567283, 8.020669559897948 ] ] ] ] } },
{ "type": "Feature", "properties": { "geogrid_id": "5208041404081131263", "seqnum": 35234.0, "lat_c": 8.0414042410776787, "lon_c": -81.131263430874014, "res": 8.0, "count_Sac Fungi": 7, "count_Ferns": 13, "count_Molluscs": 18, "count_Arachnids": 45, "count_Birds": 202, "count_Mammals": 31, "count_Flowering Plants": 496, "count_Insects": 334, "count_Basidiomycota": 19, "count_Reptiles": 41, "count_Amphibians": 29, "count_Mosses": 0, "count_Gymnosperms": 1, "unique_species_count": 1236.0, "countryCode": "PA" }, "geometry": { "type": "MultiPolygon", "coordinates": [ [ [ [ -80.602396354618492, 8.036628244597601 ], [ -80.863679418813717, 7.63867001207579 ], [ -81.391634315700657, 7.643194736929655 ], [ -81.66001459450132, 8.045890117724399 ], [ -81.399879376913844, 8.443900783452705 ], [ -80.870179879409292, 8.439180358496632 ], [ -80.602396354618492, 8.036628244597601 ] ] ] ] } },
{ "type": "Feature", "properties": { "geogrid_id": "5208053935082717310", "seqnum": 35151.0, "lat_c": 8.0539351727931727, "lon_c": -82.717310337624937, "res": 8.0, "count_Sac Fungi": 7, "count_Ferns": 4, "count_Molluscs": 61, "count_Arachnids": 20, "count_Birds": 280, "count_Mammals": 27, "count_Flowering Plants": 391, "count_Insects": 268, "count_Basidiomycota": 28, "count_Reptiles": 41, "count_Amphibians": 20, "count_Mosses": 0, "count_Gymnosperms": 1, "unique_species_count": 1148.0, "countryCode": "PA" }, "geometry": { "type": "MultiPolygon", "coordinates": [ [ [ [ -82.188684464311649, 8.05007232263795 ], [ -82.447199410131631, 7.651420993930049 ], [ -82.974879386720772, 7.655095558672545 ], [ -83.245932611548454, 8.057460455741346 ], [ -82.988712031819162, 8.456042420463509 ], [ -82.459105531649911, 8.452350025678362 ], [ -82.188684464311649, 8.05007232263795 ] ] ] ] } },
{ "type": "Feature", "properties": { "geogrid_id": "5208417315078750000", "seqnum": 8993.0, "lat_c": 8.4173146522189537, "lon_c": -78.750000000485457, "res": 8.0, "count_Sac Fungi": 6, "count_Ferns": 1, "count_Molluscs": 234, "count_Arachnids": 8, "count_Birds": 103, "count_Mammals": 13, "count_Flowering Plants": 79, "count_Insects": 19, "count_Basidiomycota": 1, "count_Reptiles": 23, "count_Amphibians": 10, "count_Mosses": 0, "count_Gymnosperms": 0, "unique_species_count": 497.0, "countryCode": "PA" }, "geometry": { "type": "MultiPolygon", "coordinates": [ [ [ [ -78.219685315720952, 8.423206421693983 ], [ -78.485213491846309, 8.020669554741879 ], [ -79.014786508567283, 8.020669559897948 ], [ -79.280314684718959, 8.423206426810104 ], [ -79.015601592480451, 8.819714480352516 ], [ -78.484398407974993, 8.819714475197264 ], [ -78.219685315720952, 8.423206421693983 ] ] ] ] } },
{ "type": "Feature", "properties": { "geogrid_id": "5208434150077159626", "seqnum": 9076.0, "lat_c": 8.4341496294179947, "lon_c": -77.159625606579681, "res": 8.0, "count_Sac Fungi": 1, "count_Ferns": 4, "count_Molluscs": 6, "count_Arachnids": 4, "count_Birds": 40, "count_Mammals": 19, "count_Flowering Plants": 26, "count_Insects": 11, "count_Basidiomycota": 2, "count_Reptiles": 10, "count_Amphibians": 10, "count_Mosses": 0, "count_Gymnosperms": 0, "unique_species_count": 133.0, "countryCode": "PA" }, "geometry": { "type": "MultiPolygon", "coordinates": [ [ [ [ -76.629820121063048, 8.439180353619363 ], [ -76.897603645825953, 8.036628239679457 ], [ -77.426618931866216, 8.03157387078984 ], [ -77.689570292537354, 8.428821299602653 ], [ -77.422435852105949, 8.831232605197174 ], [ -76.89166618075501, 8.836521964230624 ], [ -76.629820121063048, 8.439180353619363 ] ] ] ] } },
{ "type": "Feature", "properties": { "geogrid_id": "5208434150080340374", "seqnum": 35235.0, "lat_c": 8.4341496343751814, "lon_c": -80.340374393881831, "res": 8.0, "count_Sac Fungi": 16, "count_Ferns": 64, "count_Molluscs": 158, "count_Arachnids": 73, "count_Birds": 481, "count_Mammals": 67, "count_Flowering Plants": 1618, "count_Insects": 1225, "count_Basidiomycota": 42, "count_Reptiles": 108, "count_Amphibians": 67, "count_Mosses": 19, "count_Gymnosperms": 3, "unique_species_count": 3941.0, "countryCode": "PA" }, "geometry": { "type": "MultiPolygon", "coordinates": [ [ [ [ -79.810429707913343, 8.428821304639454 ], [ -80.07338106856794, 8.031573875787577 ], [ -80.602396354618492, 8.036628244597601 ], [ -80.870179879409292, 8.439180358496632 ], [ -80.608333819734455, 8.836521969146967 ], [ -80.077564148372161, 8.831232610193462 ], [ -79.810429707913343, 8.428821304639454 ] ] ] ] } },
{ "type": "Feature", "properties": { "geogrid_id": "5208448296081929508", "seqnum": 35152.0, "lat_c": 8.4482962968779471, "lon_c": -81.929508481629199, "res": 8.0, "count_Sac Fungi": 9, "count_Ferns": 16, "count_Molluscs": 57, "count_Arachnids": 41, "count_Birds": 436, "count_Mammals": 49, "count_Flowering Plants": 505, "count_Insects": 657, "count_Basidiomycota": 20, "count_Reptiles": 69, "count_Amphibians": 36, "count_Mosses": 6, "count_Gymnosperms": 2, "unique_species_count": 1903.0, "countryCode": "PA" }, "geometry": { "type": "MultiPolygon", "coordinates": [ [ [ [ -81.399879376913844, 8.443900783452705 ], [ -81.66001459450132, 8.045890117724399 ], [ -82.188684464311649, 8.05007232263795 ], [ -82.459105531649911, 8.452350025678362 ], [ -82.200213665047784, 8.850340584729413 ], [ -81.669620661637907, 8.846092811518513 ], [ -81.399879376913844, 8.443900783452705 ] ] ] ] } },
{ "type": "Feature", "properties": { "geogrid_id": "5208825626077953336", "seqnum": 8994.0, "lat_c": 8.8256261422408855, "lon_c": -77.953335943310876, "res": 8.0, "count_Sac Fungi": 1, "count_Ferns": 1, "count_Molluscs": 3, "count_Arachnids": 13, "count_Birds": 315, "count_Mammals": 63, "count_Flowering Plants": 211, "count_Insects": 201, "count_Basidiomycota": 12, "count_Reptiles": 44, "count_Amphibians": 35, "count_Mosses": 0, "count_Gymnosperms": 0, "unique_species_count": 899.0, "countryCode": "PA" }, "geometry": { "type": "MultiPolygon", "coordinates": [ [ [ [ -77.422435852105949, 8.831232605197174 ], [ -77.689570292537354, 8.428821299602653 ], [ -78.219685315720952, 8.423206421693983 ], [ -78.484398407974993, 8.819714475197264 ], [ -78.217964263580058, 9.221986519848675 ], [ -77.686083138838811, 9.227875710208782 ], [ -77.422435852105949, 8.831232605197174 ] ] ] ] } },
{ "type": "Feature", "properties": { "geogrid_id": "5208825626079546664", "seqnum": 35236.0, "lat_c": 8.8256261473168074, "lon_c": -79.546664057155908, "res": 8.0, "count_Sac Fungi": 113, "count_Ferns": 57, "count_Molluscs": 507, "count_Arachnids": 252, "count_Birds": 590, "count_Mammals": 123, "count_Flowering Plants": 1452, "count_Insects": 2440, "count_Basidiomycota": 218, "count_Reptiles": 153, "count_Amphibians": 83, "count_Mosses": 23, "count_Gymnosperms": 3, "unique_species_count": 6014.0, "countryCode": "PA" }, "geometry": { "type": "MultiPolygon", "coordinates": [ [ [ [ -79.015601592480451, 8.819714480352516 ], [ -79.280314684718959, 8.423206426810104 ], [ -79.810429707913343, 8.428821304639454 ], [ -80.077564148372161, 8.831232610193462 ], [ -79.813916861655414, 9.227875715244236 ], [ -79.282035736902287, 9.22198652496378 ], [ -79.015601592480451, 8.819714480352516 ] ] ] ] } },
{ "type": "Feature", "properties": { "geogrid_id": "5208841481081139007", "seqnum": 35153.0, "lat_c": 8.8414805904822611, "lon_c": -81.139007151781911, "res": 8.0, "count_Sac Fungi": 0, "count_Ferns": 4, "count_Molluscs": 14, "count_Arachnids": 19, "count_Birds": 195, "count_Mammals": 34, "count_Flowering Plants": 235, "count_Insects": 221, "count_Basidiomycota": 5, "count_Reptiles": 42, "count_Amphibians": 35, "count_Mosses": 2, "count_Gymnosperms": 1, "unique_species_count": 807.0, "countryCode": "PA" }, "geometry": { "type": "MultiPolygon", "coordinates": [ [ [ [ -80.608333819734455, 8.836521969146967 ], [ -80.870179879409292, 8.439180358496632 ], [ -81.399879376913844, 8.443900783452705 ], [ -81.669620661637907, 8.846092811518513 ], [ -81.408971035929696, 9.243461871304607 ], [ -80.877348367201506, 9.238629020276255 ], [ -80.608333819734455, 8.836521969146967 ] ] ] ] } },
{ "type": "Feature", "properties": { "geogrid_id": "5208854203082730829", "seqnum": 35070.0, "lat_c": 8.8542030464786485, "lon_c": -82.7308287014922, "res": 8.0, "count_Sac Fungi": 16, "count_Ferns": 22, "count_Molluscs": 14, "count_Arachnids": 67, "count_Birds": 475, "count_Mammals": 82, "count_Flowering Plants": 980, "count_Insects": 1703, "count_Basidiomycota": 49, "count_Reptiles": 86, "count_Amphibians": 57, "count_Mosses": 10, "count_Gymnosperms": 2, "unique_species_count": 3563.0, "countryCode": "PA" }, "geometry": { "type": "MultiPolygon", "coordinates": [ [ [ [ -82.200213665047784, 8.850340584729413 ], [ -82.459105531649911, 8.452350025678362 ], [ -82.988712031819162, 8.456042420463509 ], [ -83.261512035610508, 8.85765599157795 ], [ -83.003960654231776, 9.255544512426608 ], [ -82.472231790296817, 9.251943513171996 ], [ -82.200213665047784, 8.850340584729413 ] ] ] ] } },
{ "type": "Feature", "properties": { "geogrid_id": "5209215773078750000", "seqnum": 8912.0, "lat_c": 9.2157732289164667, "lon_c": -78.750000000508393, "res": 8.0, "count_Sac Fungi": 4, "count_Ferns": 5, "count_Molluscs": 98, "count_Arachnids": 42, "count_Birds": 403, "count_Mammals": 86, "count_Flowering Plants": 292, "count_Insects": 345, "count_Basidiomycota": 16, "count_Reptiles": 86, "count_Amphibians": 59, "count_Mosses": 0, "count_Gymnosperms": 0, "unique_species_count": 1436.0, "countryCode": "PA" }, "geometry": { "type": "MultiPolygon", "coordinates": [ [ [ [ -78.217964263580058, 9.221986519848675 ], [ -78.484398407974993, 8.819714475197264 ], [ -79.015601592480451, 8.819714480352516 ], [ -79.282035736902287, 9.22198652496378 ], [ -79.016496867600111, 9.617900626518392 ], [ -78.483503132897326, 9.617900621364043 ], [ -78.217964263580058, 9.221986519848675 ] ] ] ] } },
{ "type": "Feature", "properties": { "geogrid_id": "5209233428080345676", "seqnum": 35154.0, "lat_c": 9.2334280685325325, "lon_c": -80.34567610432741, "res": 8.0, "count_Sac Fungi": 25, "count_Ferns": 11, "count_Molluscs": 89, "count_Arachnids": 103, "count_Birds": 272, "count_Mammals": 54, "count_Flowering Plants": 369, "count_Insects": 309, "count_Basidiomycota": 38, "count_Reptiles": 57, "count_Amphibians": 29, "count_Mosses": 3, "count_Gymnosperms": 1, "unique_species_count": 1360.0, "countryCode": "PA" }, "geometry": { "type": "MultiPolygon", "coordinates": [ [ [ [ -79.813916861655414, 9.227875715244236 ], [ -80.077564148372161, 8.831232610193462 ], [ -80.608333819734455, 8.836521969146967 ], [ -80.877348367201506, 9.238629020276255 ], [ -80.614854141300171, 9.635345619333149 ], [ -80.082158195261883, 9.629897720437933 ], [ -79.813916861655414, 9.227875715244236 ] ] ] ] } },
{ "type": "Feature", "properties": { "geogrid_id": "5209247907081940584", "seqnum": 35071.0, "lat_c": 9.2479074192570412, "lon_c": -81.940584342491661, "res": 8.0, "count_Sac Fungi": 4, "count_Ferns": 7, "count_Molluscs": 145, "count_Arachnids": 34, "count_Birds": 358, "count_Mammals": 47, "count_Flowering Plants": 334, "count_Insects": 431, "count_Basidiomycota": 16, "count_Reptiles": 58, "count_Amphibians": 34, "count_Mosses": 2, "count_Gymnosperms": 2, "unique_species_count": 1472.0, "countryCode": "PA" }, "geometry": { "type": "MultiPolygon", "coordinates": [ [ [ [ -81.408971035929696, 9.243461871304607 ], [ -81.669620661637907, 8.846092811518513 ], [ -82.200213665047784, 8.850340584729413 ], [ -82.472231790296817, 9.251943513171996 ], [ -82.212871344452822, 9.649265035064007 ], [ -81.680167971897802, 9.645051147666704 ], [ -81.408971035929696, 9.243461871304607 ] ] ] ] } },
{ "type": "Feature", "properties": { "geogrid_id": "5209624078077950616", "seqnum": 8913.0, "lat_c": 9.6240775567062791, "lon_c": -77.950615670265847, "res": 8.0, "count_Sac Fungi": 0, "count_Ferns": 0, "count_Molluscs": 2, "count_Arachnids": 0, "count_Birds": 0, "count_Mammals": 1, "count_Flowering Plants": 1, "count_Insects": 0, "count_Basidiomycota": 0, "count_Reptiles": 2, "count_Amphibians": 0, "count_Mosses": 0, "count_Gymnosperms": 0, "unique_species_count": 6.0, "countryCode": "PA" }, "geometry": { "type": "MultiPolygon", "coordinates": [ [ [ [ -77.417841805260338, 9.62989771544324 ], [ -77.686083138838811, 9.227875710208782 ], [ -78.217964263580058, 9.221986519848675 ], [ -78.483503132897326, 9.617900621364043 ], [ -78.216081171064133, 10.019836785338951 ], [ -77.682267915511389, 10.025930009731702 ], [ -77.417841805260338, 9.62989771544324 ] ] ] ] } },
{ "type": "Feature", "properties": { "geogrid_id": "5209624078079549384", "seqnum": 35155.0, "lat_c": 9.6240775617809646, "lon_c": -79.549384330243981, "res": 8.0, "count_Sac Fungi": 57, "count_Ferns": 15, "count_Molluscs": 154, "count_Arachnids": 73, "count_Birds": 283, "count_Mammals": 56, "count_Flowering Plants": 545, "count_Insects": 363, "count_Basidiomycota": 17, "count_Reptiles": 83, "count_Amphibians": 56, "count_Mosses": 12, "count_Gymnosperms": 1, "unique_species_count": 1715.0, "countryCode": "PA" }, "geometry": { "type": "MultiPolygon", "coordinates": [ [ [ [ -79.016496867600111, 9.617900626518392 ], [ -79.282035736902287, 9.22198652496378 ], [ -79.813916861655414, 9.227875715244236 ], [ -80.082158195261883, 9.629897720437933 ], [ -79.817732085026492, 10.025930014765676 ], [ -79.283918829460816, 10.019836790452937 ], [ -79.016496867600111, 9.617900626518392 ] ] ] ] } },
{ "type": "Feature", "properties": { "geogrid_id": "5209653018082745669", "seqnum": 34989.0, "lat_c": 9.6530181657760217, "lon_c": -82.745668695431689, "res": 8.0, "count_Sac Fungi": 3, "count_Ferns": 8, "count_Molluscs": 3, "count_Arachnids": 22, "count_Birds": 315, "count_Mammals": 23, "count_Flowering Plants": 407, "count_Insects": 170, "count_Basidiomycota": 17, "count_Reptiles": 45, "count_Amphibians": 24, "count_Mosses": 0, "count_Gymnosperms": 0, "unique_species_count": 1037.0, "countryCode": "PA" }, "geometry": { "type": "MultiPolygon", "coordinates": [ [ [ [ -82.212871344452822, 9.649265035064007 ], [ -82.472231790296817, 9.251943513171996 ], [ -83.003960654231776, 9.255544512426608 ], [ -83.278612626044591, 9.656279199623143 ], [ -83.020634656559324, 10.053469438596084 ], [ -82.486586684549522, 10.050078775270107 ], [ -82.212871344452822, 9.649265035064007 ] ] ] ] } },
{ "type": "Feature", "properties": { "geogrid_id": "5210013367078750000", "seqnum": 8831.0, "lat_c": 10.013366664359308, "lon_c": -78.750000000531614, "res": 8.0, "count_Sac Fungi": 0, "count_Ferns": 0, "count_Molluscs": 0, "count_Arachnids": 0, "count_Birds": 0, "count_Mammals": 1, "count_Flowering Plants": 0, "count_Insects": 1, "count_Basidiomycota": 0, "count_Reptiles": 1, "count_Amphibians": 0, "count_Mosses": 0, "count_Gymnosperms": 0, "unique_species_count": 3.0, "countryCode": "PA" }, "geometry": { "type": "MultiPolygon", "coordinates": [ [ [ [ -78.216081171064133, 10.019836785338951 ], [ -78.483503132897326, 9.617900621364043 ], [ -79.016496867600111, 9.617900626518392 ], [ -79.283918829460816, 10.019836790452937 ], [ -79.017473043599367, 10.415152033743196 ], [ -78.482526956940205, 10.415152028589839 ], [ -78.216081171064133, 10.019836785338951 ] ] ] ] } },
{ "type": "Feature", "properties": { "geogrid_id": "5210031630077148524", "seqnum": 8914.0, "lat_c": 10.031629950612357, "lon_c": -77.148523823060941, "res": 8.0, "count_Sac Fungi": 0, "count_Ferns": 0, "count_Molluscs": 0, "count_Arachnids": 0, "count_Birds": 0, "count_Mammals": 1, "count_Flowering Plants": 0, "count_Insects": 0, "count_Basidiomycota": 0, "count_Reptiles": 0, "count_Amphibians": 0, "count_Mosses": 0, "count_Gymnosperms": 0, "unique_species_count": 1.0, "countryCode": "PA" }, "geometry": { "type": "MultiPolygon", "coordinates": [ [ [ [ -76.614809925230745, 10.036917889587709 ], [ -76.885145859234456, 9.635345614418789 ], [ -77.417841805260338, 9.62989771544324 ], [ -77.682267915511389, 10.025930009731702 ], [ -77.412833315484747, 10.427481574522044 ], [ -76.87803788203, 10.433004981811299 ], [ -76.614809925230745, 10.036917889587709 ] ] ] ] } },
{ "type": "Feature", "properties": { "geogrid_id": "5210031630080351476", "seqnum": 35073.0, "lat_c": 10.03162995556597, "lon_c": -80.351476177489857, "res": 8.0, "count_Sac Fungi": 0, "count_Ferns": 0, "count_Molluscs": 0, "count_Arachnids": 0, "count_Birds": 0, "count_Mammals": 0, "count_Flowering Plants": 0, "count_Insects": 0, "count_Basidiomycota": 0, "count_Reptiles": 1, "count_Amphibians": 0, "count_Mosses": 0, "count_Gymnosperms": 0, "unique_species_count": 1.0, "countryCode": "PA" }, "geometry": { "type": "MultiPolygon", "coordinates": [ [ [ [ -79.817732085026492, 10.025930014765676 ], [ -80.082158195261883, 9.629897720437933 ], [ -80.614854141300171, 9.635345619333149 ], [ -80.885190075333014, 10.036917894460604 ], [ -80.621962118549973, 10.433004986723493 ], [ -80.087166685081755, 10.427481579514989 ], [ -79.817732085026492, 10.025930014765676 ] ] ] ] } },
{ "type": "Feature", "properties": { "geogrid_id": "5210438072081156779", "seqnum": 34991.0, "lat_c": 10.438071733395429, "lon_c": -81.156779155037, "res": 8.0, "count_Sac Fungi": 0, "count_Ferns": 0, "count_Molluscs": 0, "count_Arachnids": 0, "count_Birds": 0, "count_Mammals": 1, "count_Flowering Plants": 0, "count_Insects": 0, "count_Basidiomycota": 0, "count_Reptiles": 0, "count_Amphibians": 0, "count_Mosses": 0, "count_Gymnosperms": 0, "unique_species_count": 1.0, "countryCode": "PA" }, "geometry": { "type": "MultiPolygon", "coordinates": [ [ [ [ -80.621962118549973, 10.433004986723493 ], [ -80.885190075333014, 10.036917894460604 ], [ -81.418915666727329, 10.04177239120979 ], [ -81.691663792382471, 10.442656000506839 ], [ -81.429720251225348, 10.838727652730805 ], [ -80.893710694623309, 10.833949684282075 ], [ -80.621962118549973, 10.433004986723493 ] ] ] ] } },
{ "type": "Feature", "properties": { "geogrid_id": "5211217885077944436", "seqnum": 8751.0, "lat_c": 11.217884596953983, "lon_c": -77.944435962086814, "res": 8.0, "count_Sac Fungi": 0, "count_Ferns": 0, "count_Molluscs": 0, "count_Arachnids": 0, "count_Birds": 0, "count_Mammals": 1, "count_Flowering Plants": 0, "count_Insects": 0, "count_Basidiomycota": 0, "count_Reptiles": 0, "count_Amphibians": 0, "count_Mosses": 0, "count_Gymnosperms": 0, "unique_species_count": 1.0, "countryCode": "PA" }, "geometry": { "type": "MultiPolygon", "coordinates": [ [ [ [ -77.40740658472815, 11.223897247931122 ], [ -77.678121695815364, 10.822899984733551 ], [ -78.2140345594498, 10.816678793426448 ], [ -78.481469104155266, 11.211393272835332 ], [ -78.211822817152566, 11.612434716267153 ], [ -77.673641291094697, 11.618702097181043 ], [ -77.40740658472815, 11.223897247931122 ] ] ] ] } },
{ "type": "Feature", "properties": { "geogrid_id": "5211217885079555564", "seqnum": 34993.0, "lat_c": 11.217884602025835, "lon_c": -79.555564038509615, "res": 8.0, "count_Sac Fungi": 0, "count_Ferns": 0, "count_Molluscs": 0, "count_Arachnids": 0, "count_Birds": 0, "count_Mammals": 1, "count_Flowering Plants": 0, "count_Insects": 0, "count_Basidiomycota": 0, "count_Reptiles": 0, "count_Amphibians": 0, "count_Mosses": 0, "count_Gymnosperms": 0, "unique_species_count": 1.0, "countryCode": "PA" }, "geometry": { "type": "MultiPolygon", "coordinates": [ [ [ [ -79.018530896426611, 11.211393277987607 ], [ -79.285965441117909, 10.816678798539209 ], [ -79.821878304766344, 10.822899989765908 ], [ -80.092593415882831, 11.223897252922166 ], [ -79.82635870953105, 11.618702102211644 ], [ -79.288177183458089, 11.612434721378582 ], [ -79.018530896426611, 11.211393277987607 ] ] ] ] } },
{ "type": "Feature", "properties": { "geogrid_id": "5211605666078750000", "seqnum": 8669.0, "lat_c": 11.605666316807676, "lon_c": -78.75000000057895, "res": 8.0, "count_Sac Fungi": 0, "count_Ferns": 0, "count_Molluscs": 1, "count_Arachnids": 0, "count_Birds": 3, "count_Mammals": 1, "count_Flowering Plants": 0, "count_Insects": 0, "count_Basidiomycota": 0, "count_Reptiles": 1, "count_Amphibians": 0, "count_Mosses": 0, "count_Gymnosperms": 0, "unique_species_count": 6.0, "countryCode": "PA" }, "geometry": { "type": "MultiPolygon", "coordinates": [ [ [ [ -78.211822817152566, 11.612434716267153 ], [ -78.481469104155266, 11.211393272835332 ], [ -79.018530896426611, 11.211393277987607 ], [ -79.288177183458089, 11.612434721378582 ], [ -79.019671269483879, 12.00654951730078 ], [ -78.480328731140503, 12.006549512149682 ], [ -78.211822817152566, 11.612434716267153 ] ] ] ] } },
{ "type": "Feature", "properties": { "geogrid_id": "5212013079077940972", "seqnum": 8670.0, "lat_c": 12.013078981888086, "lon_c": -77.94097171599357, "res": 8.0, "count_Sac Fungi": 0, "count_Ferns": 0, "count_Molluscs": 0, "count_Arachnids": 0, "count_Birds": 0, "count_Mammals": 0, "count_Flowering Plants": 0, "count_Insects": 0, "count_Basidiomycota": 0, "count_Reptiles": 1, "count_Amphibians": 0, "count_Mosses": 0, "count_Gymnosperms": 0, "unique_species_count": 1.0, "countryCode": "PA" }, "geometry": { "type": "MultiPolygon", "coordinates": [ [ [ [ -77.401557487596847, 12.019058546261292 ], [ -77.673641291094697, 11.618702097181043 ], [ -78.211822817152566, 11.612434716267153 ], [ -78.480328731140503, 12.006549512149682 ], [ -78.209444197335287, 12.407027366462094 ], [ -77.668823246311021, 12.413253533451849 ], [ -77.401557487596847, 12.019058546261292 ] ] ] ] } },
{ "type": "Feature", "properties": { "geogrid_id": "5212013079079559028", "seqnum": 34912.0, "lat_c": 12.013078986958334, "lon_c": -79.559028284646445, "res": 8.0, "count_Sac Fungi": 0, "count_Ferns": 0, "count_Molluscs": 0, "count_Arachnids": 0, "count_Birds": 0, "count_Mammals": 1, "count_Flowering Plants": 0, "count_Insects": 0, "count_Basidiomycota": 0, "count_Reptiles": 1, "count_Amphibians": 0, "count_Mosses": 0, "count_Gymnosperms": 0, "unique_species_count": 2.0, "countryCode": "PA" }, "geometry": { "type": "MultiPolygon", "coordinates": [ [ [ [ -79.019671269483879, 12.00654951730078 ], [ -79.288177183458089, 11.612434721378582 ], [ -79.82635870953105, 11.618702102211644 ], [ -80.098442513058799, 12.019058551250277 ], [ -79.83117675435895, 12.413253538480552 ], [ -79.290555803318497, 12.407027371572083 ], [ -79.019671269483879, 12.00654951730078 ] ] ] ] } },
{ "type": "Feature", "properties": { "geogrid_id": "5212400228078750000", "seqnum": 8588.0, "lat_c": 12.400227995881288, "lon_c": -78.75000000060308, "res": 8.0, "count_Sac Fungi": 0, "count_Ferns": 0, "count_Molluscs": 0, "count_Arachnids": 0, "count_Birds": 1, "count_Mammals": 0, "count_Flowering Plants": 0, "count_Insects": 0, "count_Basidiomycota": 0, "count_Reptiles": 0, "count_Amphibians": 0, "count_Mosses": 0, "count_Gymnosperms": 0, "unique_species_count": 1.0, "countryCode": "PA" }, "geometry": { "type": "MultiPolygon", "coordinates": [ [ [ [ -78.209444197335287, 12.407027366462094 ], [ -78.480328731140503, 12.006549512149682 ], [ -79.019671269483879, 12.00654951730078 ], [ -79.290555803318497, 12.407027371572084 ], [ -79.020895074914577, 12.800546532467054 ], [ -78.47910492575248, 12.800546527317231 ], [ -78.209444197335287, 12.407027366462094 ] ] ] ] } }
]
}
