{
"type": "FeatureCollection",
"name": "PL",
"crs": { "type": "name", "properties": { "name": "urn:ogc:def:crs:OGC:1.3:CRS84" } },
"features": [
{ "type": "Feature", "properties": { "geogrid_id": "848559995022745673", "seqnum": 19832.0, "lat_c": 48.55999538272647, "lon_c": 22.745673043668312, "res": 8.0, "count_Arachnids": 0, "count_Basidiomycota": 0, "count_Flowering Plants": 29, "count_Insects": 0, "count_Birds": 0, "count_Mosses": 0, "count_Sac Fungi": 0, "count_Molluscs": 0, "count_Amphibians": 1, "count_Gymnosperms": 0, "count_Ferns": 0, "count_Mammals": 1, "count_Reptiles": 0, "unique_species_count": 31.0, "countryCode": "PL" }, "geometry": { "type": "MultiPolygon", "coordinates": [ [ [ [ 22.845820300435054, 49.030337816747164 ], [ 23.473853392772906, 48.803682792504191 ], [ 23.368491023790575, 48.333362760710422 ], [ 22.649358275321138, 48.089050557880057 ], [ 22.025566477391845, 48.312224457593778 ], [ 22.116636107857747, 48.783144725799716 ], [ 22.845820300435054, 49.030337816747164 ] ] ] ] } },
{ "type": "Feature", "properties": { "geogrid_id": "849170018019464963", "seqnum": 14257.0, "lat_c": 49.170018349735052, "lon_c": 19.464962735246612, "res": 8.0, "count_Arachnids": 51, "count_Basidiomycota": 88, "count_Flowering Plants": 1047, "count_Insects": 1101, "count_Birds": 109, "count_Mosses": 273, "count_Sac Fungi": 160, "count_Molluscs": 24, "count_Amphibians": 8, "count_Gymnosperms": 17, "count_Ferns": 26, "count_Mammals": 27, "count_Reptiles": 6, "unique_species_count": 2937.0, "countryCode": "PL" }, "geometry": { "type": "MultiPolygon", "coordinates": [ [ [ [ 20.191067117031004, 49.431606892392125 ], [ 20.11444395561956, 48.962324255816952 ], [ 19.395363753801313, 48.700990238650704 ], [ 18.745268853251435, 48.903346054594017 ], [ 18.809630026593094, 49.372402477584195 ], [ 19.53634022182613, 49.639368590534239 ], [ 20.191067117031004, 49.431606892392125 ] ] ] ] } },
{ "type": "Feature", "properties": { "geogrid_id": "849218739020839779", "seqnum": 19752.0, "lat_c": 49.218738962881282, "lon_c": 20.839779136397713, "res": 8.0, "count_Arachnids": 42, "count_Basidiomycota": 125, "count_Flowering Plants": 992, "count_Insects": 594, "count_Birds": 125, "count_Mosses": 145, "count_Sac Fungi": 83, "count_Molluscs": 23, "count_Amphibians": 9, "count_Gymnosperms": 21, "count_Ferns": 24, "count_Mammals": 20, "count_Reptiles": 6, "unique_species_count": 2209.0, "countryCode": "PL" }, "geometry": { "type": "MultiPolygon", "coordinates": [ [ [ [ 20.923359959898697, 49.688978516326401 ], [ 21.570604627860376, 49.47305119604092 ], [ 21.481347666598811, 49.002747380374039 ], [ 20.758024636127981, 48.749541076264052 ], [ 20.11444395561956, 48.962324255816952 ], [ 20.191067117031004, 49.431606892392125 ], [ 20.923359959898697, 49.688978516326401 ] ] ] ] } },
{ "type": "Feature", "properties": { "geogrid_id": "849253482022211415", "seqnum": 19833.0, "lat_c": 49.253482290162268, "lon_c": 22.211415080331541, "res": 8.0, "count_Arachnids": 33, "count_Basidiomycota": 105, "count_Flowering Plants": 899, "count_Insects": 742, "count_Birds": 145, "count_Mosses": 153, "count_Sac Fungi": 82, "count_Molluscs": 50, "count_Amphibians": 9, "count_Gymnosperms": 54, "count_Ferns": 28, "count_Mammals": 31, "count_Reptiles": 6, "unique_species_count": 2337.0, "countryCode": "PL" }, "geometry": { "type": "MultiPolygon", "coordinates": [ [ [ [ 22.310222140431126, 49.723156409623819 ], [ 22.950123611514602, 49.499994012487697 ], [ 22.845820300435054, 49.030337816747164 ], [ 22.116636107857747, 48.783144725799716 ], [ 21.481347666598811, 49.002747380374039 ], [ 21.570604627860376, 49.47305119604092 ], [ 22.310222140431126, 49.723156409623819 ] ] ] ] } },
{ "type": "Feature", "properties": { "geogrid_id": "849273294023583495", "seqnum": 19914.0, "lat_c": 49.273293539195627, "lon_c": 23.583494581163251, "res": 8.0, "count_Arachnids": 1, "count_Basidiomycota": 2, "count_Flowering Plants": 112, "count_Insects": 18, "count_Birds": 10, "count_Mosses": 0, "count_Sac Fungi": 8, "count_Molluscs": 1, "count_Amphibians": 1, "count_Gymnosperms": 1, "count_Ferns": 0, "count_Mammals": 3, "count_Reptiles": 3, "unique_species_count": 160.0, "countryCode": "PL" }, "geometry": { "type": "MultiPolygon", "coordinates": [ [ [ [ 23.697767430562731, 49.742099672952442 ], [ 24.32994826732585, 49.511828635520509 ], [ 24.210372831199166, 49.043120628547157 ], [ 23.473853392772906, 48.803682792504191 ], [ 22.845820300435054, 49.030337816747164 ], [ 22.950123611514602, 49.499994012487697 ], [ 23.697767430562731, 49.742099672952442 ] ] ] ] } },
{ "type": "Feature", "properties": { "geogrid_id": "849760308017481696", "seqnum": 14094.0, "lat_c": 49.76030792390322, "lon_c": 17.481696152326101, "res": 8.0, "count_Arachnids": 2, "count_Basidiomycota": 2, "count_Flowering Plants": 438, "count_Insects": 79, "count_Birds": 16, "count_Mosses": 24, "count_Sac Fungi": 0, "count_Molluscs": 1, "count_Amphibians": 2, "count_Gymnosperms": 2, "count_Ferns": 7, "count_Mammals": 2, "count_Reptiles": 3, "unique_species_count": 578.0, "countryCode": "PL" }, "geometry": { "type": "MultiPolygon", "coordinates": [ [ [ [ 18.209059245790097, 50.038687424465543 ], [ 18.14851251786877, 49.569245958341646 ], [ 17.428131505660733, 49.291230068371192 ], [ 16.761279230370789, 49.476260354411984 ], [ 16.809287847460848, 49.945336924247151 ], [ 17.536660099143823, 50.229777552078872 ], [ 18.209059245790097, 50.038687424465543 ] ] ] ] } },
{ "type": "Feature", "properties": { "geogrid_id": "849841805018875648", "seqnum": 14176.0, "lat_c": 49.841804962437372, "lon_c": 18.875648351217411, "res": 8.0, "count_Arachnids": 126, "count_Basidiomycota": 221, "count_Flowering Plants": 1375, "count_Insects": 1616, "count_Birds": 199, "count_Mosses": 174, "count_Sac Fungi": 108, "count_Molluscs": 40, "count_Amphibians": 15, "count_Gymnosperms": 37, "count_Ferns": 27, "count_Mammals": 46, "count_Reptiles": 8, "unique_species_count": 3992.0, "countryCode": "PL" }, "geometry": { "type": "MultiPolygon", "coordinates": [ [ [ [ 19.609563343306625, 50.109051148043513 ], [ 19.53634022182613, 49.639368590534239 ], [ 18.809630026593094, 49.372402477584195 ], [ 18.14851251786877, 49.569245958341646 ], [ 18.209059245790097, 50.038687424465543 ], [ 18.943386556708735, 50.311563771672837 ], [ 19.609563343306625, 50.109051148043513 ] ] ] ] } },
{ "type": "Feature", "properties": { "geogrid_id": "849901197020269656", "seqnum": 19753.0, "lat_c": 49.901197267827513, "lon_c": 20.2696564274152, "res": 8.0, "count_Arachnids": 147, "count_Basidiomycota": 261, "count_Flowering Plants": 1634, "count_Insects": 1723, "count_Birds": 190, "count_Mosses": 188, "count_Sac Fungi": 160, "count_Molluscs": 50, "count_Amphibians": 16, "count_Gymnosperms": 17, "count_Ferns": 28, "count_Mammals": 38, "count_Reptiles": 7, "unique_species_count": 4459.0, "countryCode": "PL" }, "geometry": { "type": "MultiPolygon", "coordinates": [ [ [ [ 20.351019183117771, 50.370743018450433 ], [ 21.010697104108672, 50.158599138370818 ], [ 20.923359959898697, 49.688978516326401 ], [ 20.191067117031004, 49.431606892392125 ], [ 19.53634022182613, 49.639368590534239 ], [ 19.609563343306625, 50.109051148043513 ], [ 20.351019183117771, 50.370743018450433 ] ] ] ] } },
{ "type": "Feature", "properties": { "geogrid_id": "849942714021663756", "seqnum": 19834.0, "lat_c": 49.94271402844209, "lon_c": 21.663756449208481, "res": 8.0, "count_Arachnids": 56, "count_Basidiomycota": 114, "count_Flowering Plants": 1062, "count_Insects": 900, "count_Birds": 184, "count_Mosses": 103, "count_Sac Fungi": 40, "count_Molluscs": 87, "count_Amphibians": 14, "count_Gymnosperms": 14, "count_Ferns": 21, "count_Mammals": 31, "count_Reptiles": 6, "unique_species_count": 2632.0, "countryCode": "PL" }, "geometry": { "type": "MultiPolygon", "coordinates": [ [ [ [ 21.761140716894328, 50.41165095874603 ], [ 22.413400167023447, 50.192078756159404 ], [ 22.310222140431126, 49.723156409623819 ], [ 21.570604627860376, 49.47305119604092 ], [ 20.923359959898697, 49.688978516326401 ], [ 21.010697104108672, 50.158599138370818 ], [ 21.761140716894328, 50.41165095874603 ] ] ] ] } },
{ "type": "Feature", "properties": { "geogrid_id": "849968872023058931", "seqnum": 19915.0, "lat_c": 49.968872171727639, "lon_c": 23.058930937782083, "res": 8.0, "count_Arachnids": 46, "count_Basidiomycota": 33, "count_Flowering Plants": 911, "count_Insects": 453, "count_Birds": 80, "count_Mosses": 78, "count_Sac Fungi": 30, "count_Molluscs": 10, "count_Amphibians": 12, "count_Gymnosperms": 9, "count_Ferns": 16, "count_Mammals": 13, "count_Reptiles": 6, "unique_species_count": 1697.0, "countryCode": "PL" }, "geometry": { "type": "MultiPolygon", "coordinates": [ [ [ [ 23.172616524663844, 50.436871825638789 ], [ 23.817051334344711, 50.209996779294386 ], [ 23.697767430562731, 49.742099672952442 ], [ 22.950123611514602, 49.499994012487697 ], [ 22.310222140431126, 49.723156409623819 ], [ 22.413400167023447, 50.192078756159404 ], [ 23.172616524663844, 50.436871825638789 ] ] ] ] } },
{ "type": "Feature", "properties": { "geogrid_id": "850296235015448239", "seqnum": 13931.0, "lat_c": 50.296234896606457, "lon_c": 15.448238992614636, "res": 8.0, "count_Arachnids": 0, "count_Basidiomycota": 2, "count_Flowering Plants": 102, "count_Insects": 3, "count_Birds": 10, "count_Mosses": 1, "count_Sac Fungi": 0, "count_Molluscs": 0, "count_Amphibians": 0, "count_Gymnosperms": 0, "count_Ferns": 1, "count_Mammals": 2, "count_Reptiles": 0, "unique_species_count": 121.0, "countryCode": "PL" }, "geometry": { "type": "MultiPolygon", "coordinates": [ [ [ [ 16.174888083619894, 50.593575734319636 ], [ 16.131417316469253, 50.124070524798817 ], [ 15.411650081533679, 49.827167685170593 ], [ 14.729205292047737, 49.992476905005709 ], [ 14.759934056175794, 50.461544400000655 ], [ 15.485802751959781, 50.765754467141939 ], [ 16.174888083619894, 50.593575734319636 ] ] ] ] } },
{ "type": "Feature", "properties": { "geogrid_id": "850414827016858559", "seqnum": 14013.0, "lat_c": 50.414826719528889, "lon_c": 16.85855926859761, "res": 8.0, "count_Arachnids": 63, "count_Basidiomycota": 218, "count_Flowering Plants": 1303, "count_Insects": 784, "count_Birds": 163, "count_Mosses": 106, "count_Sac Fungi": 59, "count_Molluscs": 20, "count_Amphibians": 7, "count_Gymnosperms": 20, "count_Ferns": 25, "count_Mammals": 21, "count_Reptiles": 7, "unique_species_count": 2796.0, "countryCode": "PL" }, "geometry": { "type": "MultiPolygon", "coordinates": [ [ [ [ 17.593076600847166, 50.699649256722459 ], [ 17.536660099143823, 50.229777552078872 ], [ 16.809287847460848, 49.945336924247151 ], [ 16.131417316469253, 50.124070524798817 ], [ 16.174888083619894, 50.593575734319636 ], [ 16.909141676068291, 50.884740014242944 ], [ 17.593076600847166, 50.699649256722459 ] ] ] ] } },
{ "type": "Feature", "properties": { "geogrid_id": "850508509018271195", "seqnum": 14095.0, "lat_c": 50.508508518854036, "lon_c": 18.271194830986008, "res": 8.0, "count_Arachnids": 84, "count_Basidiomycota": 188, "count_Flowering Plants": 1244, "count_Insects": 1330, "count_Birds": 172, "count_Mosses": 111, "count_Sac Fungi": 62, "count_Molluscs": 33, "count_Amphibians": 9, "count_Gymnosperms": 45, "count_Ferns": 18, "count_Mammals": 42, "count_Reptiles": 5, "unique_species_count": 3343.0, "countryCode": "PL" }, "geometry": { "type": "MultiPolygon", "coordinates": [ [ [ [ 19.01291046821801, 50.781688990131997 ], [ 18.943386556708735, 50.311563771672837 ], [ 18.209059245790097, 50.038687424465543 ], [ 17.536660099143823, 50.229777552078872 ], [ 17.593076600847166, 50.699649256722459 ], [ 18.334980276053066, 50.97871939605222 ], [ 19.01291046821801, 50.781688990131997 ] ] ] ] } },
{ "type": "Feature", "properties": { "geogrid_id": "850579076019684703", "seqnum": 19754.0, "lat_c": 50.579075998556561, "lon_c": 19.684702506890869, "res": 8.0, "count_Arachnids": 82, "count_Basidiomycota": 126, "count_Flowering Plants": 1269, "count_Insects": 1023, "count_Birds": 139, "count_Mosses": 153, "count_Sac Fungi": 76, "count_Molluscs": 32, "count_Amphibians": 9, "count_Gymnosperms": 26, "count_Ferns": 23, "count_Mammals": 29, "count_Reptiles": 6, "unique_species_count": 2993.0, "countryCode": "PL" }, "geometry": { "type": "MultiPolygon", "coordinates": [ [ [ [ 19.763714592952422, 51.047861013506164 ], [ 20.436320701738641, 50.839613111829706 ], [ 20.351019183117771, 50.370743018450433 ], [ 19.609563343306625, 50.109051148043513 ], [ 18.943386556708735, 50.311563771672837 ], [ 19.01291046821801, 50.781688990131997 ], [ 19.763714592952422, 51.047861013506164 ] ] ] ] } },
{ "type": "Feature", "properties": { "geogrid_id": "850627519021102123", "seqnum": 19835.0, "lat_c": 50.627519256719665, "lon_c": 21.102122643368531, "res": 8.0, "count_Arachnids": 84, "count_Basidiomycota": 143, "count_Flowering Plants": 1201, "count_Insects": 1234, "count_Birds": 125, "count_Mosses": 118, "count_Sac Fungi": 70, "count_Molluscs": 50, "count_Amphibians": 11, "count_Gymnosperms": 10, "count_Ferns": 19, "count_Mammals": 28, "count_Reptiles": 7, "unique_species_count": 3100.0, "countryCode": "PL" }, "geometry": { "type": "MultiPolygon", "coordinates": [ [ [ [ 21.197994090222561, 51.095649800612328 ], [ 21.863120746310081, 50.879769191088293 ], [ 21.761140716894328, 50.41165095874603 ], [ 21.010697104108672, 50.158599138370818 ], [ 20.351019183117771, 50.370743018450433 ], [ 20.436320701738641, 50.839613111829706 ], [ 21.197994090222561, 51.095649800612328 ] ] ] ] } },
{ "type": "Feature", "properties": { "geogrid_id": "850660153022521318", "seqnum": 19916.0, "lat_c": 50.660152734160995, "lon_c": 22.521318049785663, "res": 8.0, "count_Arachnids": 58, "count_Basidiomycota": 105, "count_Flowering Plants": 1125, "count_Insects": 785, "count_Birds": 120, "count_Mosses": 157, "count_Sac Fungi": 73, "count_Molluscs": 31, "count_Amphibians": 13, "count_Gymnosperms": 7, "count_Ferns": 14, "count_Mammals": 26, "count_Reptiles": 6, "unique_species_count": 2520.0, "countryCode": "PL" }, "geometry": { "type": "MultiPolygon", "coordinates": [ [ [ [ 22.634372700630703, 51.127272734240805 ], [ 23.291582924643009, 50.903883045204125 ], [ 23.172616524663844, 50.436871825638789 ], [ 22.413400167023447, 50.192078756159404 ], [ 21.761140716894328, 50.41165095874603 ], [ 21.863120746310081, 50.879769191088293 ], [ 22.634372700630703, 51.127272734240805 ] ] ] ] } },
{ "type": "Feature", "properties": { "geogrid_id": "850676871023941754", "seqnum": 19997.0, "lat_c": 50.67687052207252, "lon_c": 23.941754271216436, "res": 8.0, "count_Arachnids": 17, "count_Basidiomycota": 19, "count_Flowering Plants": 979, "count_Insects": 264, "count_Birds": 63, "count_Mosses": 86, "count_Sac Fungi": 27, "count_Molluscs": 9, "count_Amphibians": 4, "count_Gymnosperms": 8, "count_Ferns": 12, "count_Mammals": 14, "count_Reptiles": 1, "unique_species_count": 1503.0, "countryCode": "PL" }, "geometry": { "type": "MultiPolygon", "coordinates": [ [ [ [ 24.072314975183115, 51.14259572670683 ], [ 24.721188380555795, 50.911826843310457 ], [ 24.584927319130131, 50.446306257777948 ], [ 23.817051334344711, 50.209996779294386 ], [ 23.172616524663844, 50.436871825638789 ], [ 23.291582924643009, 50.903883045204125 ], [ 24.072314975183115, 51.14259572670683 ] ] ] ] } },
{ "type": "Feature", "properties": { "geogrid_id": "850931081014791486", "seqnum": 13850.0, "lat_c": 50.931081478039346, "lon_c": 14.791486362431561, "res": 8.0, "count_Arachnids": 210, "count_Basidiomycota": 68, "count_Flowering Plants": 768, "count_Insects": 429, "count_Birds": 126, "count_Mosses": 74, "count_Sac Fungi": 16, "count_Molluscs": 9, "count_Amphibians": 5, "count_Gymnosperms": 11, "count_Ferns": 18, "count_Mammals": 13, "count_Reptiles": 5, "unique_species_count": 1752.0, "countryCode": "PL" }, "geometry": { "type": "MultiPolygon", "coordinates": [ [ [ [ 15.524378738602751, 51.235736529497778 ], [ 15.485802751959781, 50.765754467141939 ], [ 14.759934056175794, 50.461544400000655 ], [ 14.066712562493295, 50.619701162467209 ], [ 14.092150982110372, 51.089263639607111 ], [ 14.823893865999972, 51.401098172376848 ], [ 15.524378738602751, 51.235736529497778 ] ] ] ] } },
{ "type": "Feature", "properties": { "geogrid_id": "851063525016219523", "seqnum": 13932.0, "lat_c": 51.063524651924979, "lon_c": 16.21952303963149, "res": 8.0, "count_Arachnids": 273, "count_Basidiomycota": 163, "count_Flowering Plants": 1652, "count_Insects": 1231, "count_Birds": 172, "count_Mosses": 200, "count_Sac Fungi": 178, "count_Molluscs": 23, "count_Amphibians": 11, "count_Gymnosperms": 16, "count_Ferns": 34, "count_Mammals": 30, "count_Reptiles": 5, "unique_species_count": 3988.0, "countryCode": "PL" }, "geometry": { "type": "MultiPolygon", "coordinates": [ [ [ [ 16.961085705125289, 51.355086999256514 ], [ 16.909141676068291, 50.884740014242944 ], [ 16.174888083619894, 50.593575734319636 ], [ 15.485802751959781, 50.765754467141939 ], [ 15.524378738602751, 51.235736529497778 ], [ 16.265367278429206, 51.533927440834276 ], [ 16.961085705125289, 51.355086999256514 ] ] ] ] } },
{ "type": "Feature", "properties": { "geogrid_id": "851169933017651002", "seqnum": 14014.0, "lat_c": 51.169933226944416, "lon_c": 17.6510015963085, "res": 8.0, "count_Arachnids": 86, "count_Basidiomycota": 138, "count_Flowering Plants": 1320, "count_Insects": 983, "count_Birds": 160, "count_Mosses": 86, "count_Sac Fungi": 63, "count_Molluscs": 29, "count_Amphibians": 11, "count_Gymnosperms": 21, "count_Ferns": 16, "count_Mammals": 33, "count_Reptiles": 7, "unique_species_count": 2953.0, "countryCode": "PL" }, "geometry": { "type": "MultiPolygon", "coordinates": [ [ [ [ 18.400479675137642, 51.449330067669102 ], [ 18.334980276053066, 50.97871939605222 ], [ 17.593076600847166, 50.699649256722459 ], [ 16.909141676068291, 50.884740014242944 ], [ 16.961085705125289, 51.355086999256514 ], [ 17.710493887940856, 51.640639540951597 ], [ 18.400479675137642, 51.449330067669102 ] ] ] ] } },
{ "type": "Feature", "properties": { "geogrid_id": "851252191019084289", "seqnum": 19755.0, "lat_c": 51.252190525540243, "lon_c": 19.084289213487281, "res": 8.0, "count_Arachnids": 60, "count_Basidiomycota": 122, "count_Flowering Plants": 953, "count_Insects": 742, "count_Birds": 115, "count_Mosses": 103, "count_Sac Fungi": 92, "count_Molluscs": 25, "count_Amphibians": 9, "count_Gymnosperms": 13, "count_Ferns": 13, "count_Mammals": 18, "count_Reptiles": 6, "unique_species_count": 2271.0, "countryCode": "PL" }, "geometry": { "type": "MultiPolygon", "coordinates": [ [ [ [ 19.160807812028256, 51.720147252772612 ], [ 19.846855375340063, 51.515912736590209 ], [ 19.763714592952422, 51.047861013506164 ], [ 19.01291046821801, 50.781688990131997 ], [ 18.334980276053066, 50.97871939605222 ], [ 18.400479675137642, 51.449330067669102 ], [ 19.160807812028256, 51.720147252772612 ] ] ] ] } },
{ "type": "Feature", "properties": { "geogrid_id": "851307722020525912", "seqnum": 19836.0, "lat_c": 51.30772212638351, "lon_c": 20.525912455170435, "res": 8.0, "count_Arachnids": 72, "count_Basidiomycota": 147, "count_Flowering Plants": 918, "count_Insects": 817, "count_Birds": 131, "count_Mosses": 127, "count_Sac Fungi": 61, "count_Molluscs": 26, "count_Amphibians": 7, "count_Gymnosperms": 10, "count_Ferns": 15, "count_Mammals": 26, "count_Reptiles": 5, "unique_species_count": 2362.0, "countryCode": "PL" }, "geometry": { "type": "MultiPolygon", "coordinates": [ [ [ [ 20.620173028155634, 51.774976882060081 ], [ 21.298696383834987, 51.562893535777881 ], [ 21.197994090222561, 51.095649800612328 ], [ 20.436320701738641, 50.839613111829706 ], [ 19.763714592952422, 51.047861013506164 ], [ 19.846855375340063, 51.515912736590209 ], [ 20.620173028155634, 51.774976882060081 ] ] ] ] } },
{ "type": "Feature", "properties": { "geogrid_id": "851346967021970088", "seqnum": 19917.0, "lat_c": 51.346967347844341, "lon_c": 21.970087582114193, "res": 8.0, "count_Arachnids": 87, "count_Basidiomycota": 103, "count_Flowering Plants": 1280, "count_Insects": 1264, "count_Birds": 129, "count_Mosses": 143, "count_Sac Fungi": 58, "count_Molluscs": 22, "count_Amphibians": 7, "count_Gymnosperms": 12, "count_Ferns": 15, "count_Mammals": 25, "count_Reptiles": 6, "unique_species_count": 3151.0, "countryCode": "PL" }, "geometry": { "type": "MultiPolygon", "coordinates": [ [ [ [ 22.082462139108987, 51.813134696940651 ], [ 22.752991204458166, 51.593323314745028 ], [ 22.634372700630703, 51.127272734240805 ], [ 21.863120746310081, 50.879769191088293 ], [ 21.197994090222561, 51.095649800612328 ], [ 21.298696383834987, 51.562893535777881 ], [ 22.082462139108987, 51.813134696940651 ] ] ] ] } },
{ "type": "Feature", "properties": { "geogrid_id": "851369786023416263", "seqnum": 19998.0, "lat_c": 51.369785574762382, "lon_c": 23.416263157632521, "res": 8.0, "count_Arachnids": 51, "count_Basidiomycota": 199, "count_Flowering Plants": 1157, "count_Insects": 855, "count_Birds": 164, "count_Mosses": 142, "count_Sac Fungi": 53, "count_Molluscs": 28, "count_Amphibians": 7, "count_Gymnosperms": 9, "count_Ferns": 12, "count_Mammals": 25, "count_Reptiles": 6, "unique_species_count": 2708.0, "countryCode": "PL" }, "geometry": { "type": "MultiPolygon", "coordinates": [ [ [ [ 23.54712301305592, 51.834447880810536 ], [ 24.209205245064954, 51.607035373315 ], [ 24.072314975183115, 51.14259572670683 ], [ 23.291582924643009, 50.903883045204125 ], [ 22.634372700630703, 51.127272734240805 ], [ 22.752991204458166, 51.593323314745028 ], [ 23.54712301305592, 51.834447880810536 ] ] ] ] } },
{ "type": "Feature", "properties": { "geogrid_id": "851559321014118283", "seqnum": 13769.0, "lat_c": 51.559320937782303, "lon_c": 14.118282630671962, "res": 8.0, "count_Arachnids": 1, "count_Basidiomycota": 17, "count_Flowering Plants": 285, "count_Insects": 203, "count_Birds": 58, "count_Mosses": 1, "count_Sac Fungi": 6, "count_Molluscs": 1, "count_Amphibians": 2, "count_Gymnosperms": 3, "count_Ferns": 5, "count_Mammals": 7, "count_Reptiles": 4, "unique_species_count": 593.0, "countryCode": "PL" }, "geometry": { "type": "MultiPolygon", "coordinates": [ [ [ [ 14.857189878202487, 51.871604522820952 ], [ 14.823893865999972, 51.401098172376848 ], [ 14.092150982110372, 51.089263639607111 ], [ 13.388039844320428, 51.239995758057596 ], [ 13.407790510805077, 51.710104681383726 ], [ 14.145134586836797, 52.029883014957846 ], [ 14.857189878202487, 51.871604522820952 ] ] ] ] } },
{ "type": "Feature", "properties": { "geogrid_id": "851706191015564006", "seqnum": 13851.0, "lat_c": 51.706191194500832, "lon_c": 15.564006270516259, "res": 8.0, "count_Arachnids": 302, "count_Basidiomycota": 170, "count_Flowering Plants": 1112, "count_Insects": 1764, "count_Birds": 134, "count_Mosses": 86, "count_Sac Fungi": 39, "count_Molluscs": 15, "count_Amphibians": 5, "count_Gymnosperms": 9, "count_Ferns": 15, "count_Mammals": 20, "count_Reptiles": 7, "unique_species_count": 3678.0, "countryCode": "PL" }, "geometry": { "type": "MultiPolygon", "coordinates": [ [ [ [ 16.312468246416817, 52.00479421636382 ], [ 16.265367278429206, 51.533927440834276 ], [ 15.524378738602751, 51.235736529497778 ], [ 14.823893865999972, 51.401098172376848 ], [ 14.857189878202487, 51.871604522820952 ], [ 15.604726734906933, 52.177128555086782 ], [ 16.312468246416817, 52.00479421636382 ] ] ] ] } },
{ "type": "Feature", "properties": { "geogrid_id": "851825878017014445", "seqnum": 13933.0, "lat_c": 51.825877786355072, "lon_c": 17.014444608256841, "res": 8.0, "count_Arachnids": 93, "count_Basidiomycota": 102, "count_Flowering Plants": 1010, "count_Insects": 840, "count_Birds": 176, "count_Mosses": 90, "count_Sac Fungi": 44, "count_Molluscs": 32, "count_Amphibians": 10, "count_Gymnosperms": 17, "count_Ferns": 10, "count_Mammals": 26, "count_Reptiles": 5, "unique_species_count": 2455.0, "countryCode": "PL" }, "geometry": { "type": "MultiPolygon", "coordinates": [ [ [ [ 17.771615334802895, 52.111778168983491 ], [ 17.710493887940856, 51.640639540951597 ], [ 16.961085705125289, 51.355086999256514 ], [ 16.265367278429206, 51.533927440834276 ], [ 16.312468246416817, 52.00479421636382 ], [ 17.069274432159883, 52.297122411525862 ], [ 17.771615334802895, 52.111778168983491 ] ] ] ] } },
{ "type": "Feature", "properties": { "geogrid_id": "851920350018467760", "seqnum": 19756.0, "lat_c": 51.920350402510003, "lon_c": 18.467760422913891, "res": 8.0, "count_Arachnids": 78, "count_Basidiomycota": 48, "count_Flowering Plants": 862, "count_Insects": 1224, "count_Birds": 139, "count_Mosses": 84, "count_Sac Fungi": 21, "count_Molluscs": 16, "count_Amphibians": 10, "count_Gymnosperms": 9, "count_Ferns": 9, "count_Mammals": 17, "count_Reptiles": 4, "unique_species_count": 2521.0, "countryCode": "PL" }, "geometry": { "type": "MultiPolygon", "coordinates": [ [ [ [ 18.541631774460285, 52.387410739450836 ], [ 19.2416527599601, 52.187312342837771 ], [ 19.160807812028256, 51.720147252772612 ], [ 18.400479675137642, 51.449330067669102 ], [ 17.710493887940856, 51.640639540951597 ], [ 17.771615334802895, 52.111778168983491 ], [ 18.541631774460285, 52.387410739450836 ] ] ] ] } },
{ "type": "Feature", "properties": { "geogrid_id": "851983142019934497", "seqnum": 19837.0, "lat_c": 51.983141951937618, "lon_c": 19.934496825716149, "res": 8.0, "count_Arachnids": 112, "count_Basidiomycota": 222, "count_Flowering Plants": 1182, "count_Insects": 1465, "count_Birds": 141, "count_Mosses": 166, "count_Sac Fungi": 98, "count_Molluscs": 36, "count_Amphibians": 9, "count_Gymnosperms": 16, "count_Ferns": 13, "count_Mammals": 30, "count_Reptiles": 6, "unique_species_count": 3496.0, "countryCode": "PL" }, "geometry": { "type": "MultiPolygon", "coordinates": [ [ [ [ 20.02703981001947, 52.449451430648409 ], [ 20.719510237826722, 52.241275753315094 ], [ 20.620173028155634, 51.774976882060081 ], [ 19.846855375340063, 51.515912736590209 ], [ 19.160807812028256, 51.720147252772612 ], [ 19.2416527599601, 52.187312342837771 ], [ 20.02703981001947, 52.449451430648409 ] ] ] ] } },
{ "type": "Feature", "properties": { "geogrid_id": "852029144021404644", "seqnum": 19918.0, "lat_c": 52.029144335521984, "lon_c": 21.404644020531574, "res": 8.0, "count_Arachnids": 154, "count_Basidiomycota": 302, "count_Flowering Plants": 1650, "count_Insects": 2027, "count_Birds": 200, "count_Mosses": 159, "count_Sac Fungi": 122, "count_Molluscs": 74, "count_Amphibians": 10, "count_Gymnosperms": 25, "count_Ferns": 18, "count_Mammals": 34, "count_Reptiles": 7, "unique_species_count": 4782.0, "countryCode": "PL" }, "geometry": { "type": "MultiPolygon", "coordinates": [ [ [ [ 21.516283332281496, 52.494286381383802 ], [ 22.200697489045119, 52.27815030423568 ], [ 22.082462139108987, 51.813134696940651 ], [ 21.298696383834987, 51.562893535777881 ], [ 20.620173028155634, 51.774976882060081 ], [ 20.719510237826722, 52.241275753315094 ], [ 21.516283332281496, 52.494286381383802 ] ] ] ] } },
{ "type": "Feature", "properties": { "geogrid_id": "852058178022877633", "seqnum": 19999.0, "lat_c": 52.058178303575446, "lon_c": 22.877633113746157, "res": 8.0, "count_Arachnids": 25, "count_Basidiomycota": 47, "count_Flowering Plants": 889, "count_Insects": 525, "count_Birds": 153, "count_Mosses": 83, "count_Sac Fungi": 70, "count_Molluscs": 12, "count_Amphibians": 8, "count_Gymnosperms": 8, "count_Ferns": 10, "count_Mammals": 23, "count_Reptiles": 6, "unique_species_count": 1859.0, "countryCode": "PL" }, "geometry": { "type": "MultiPolygon", "coordinates": [ [ [ [ 23.008792890157988, 52.521699812158957 ], [ 23.684663495955679, 52.297726107399349 ], [ 23.54712301305592, 51.834447880810536 ], [ 22.752991204458166, 51.593323314745028 ], [ 22.082462139108987, 51.813134696940651 ], [ 22.200697489045119, 52.27815030423568 ], [ 23.008792890157988, 52.521699812158957 ] ] ] ] } },
{ "type": "Feature", "properties": { "geogrid_id": "852070039024352932", "seqnum": 20080.0, "lat_c": 52.070039490524792, "lon_c": 24.352932395012679, "res": 8.0, "count_Arachnids": 1, "count_Basidiomycota": 1, "count_Flowering Plants": 287, "count_Insects": 38, "count_Birds": 25, "count_Mosses": 15, "count_Sac Fungi": 5, "count_Molluscs": 0, "count_Amphibians": 0, "count_Gymnosperms": 0, "count_Ferns": 2, "count_Mammals": 3, "count_Reptiles": 1, "unique_species_count": 378.0, "countryCode": "PL" }, "geometry": { "type": "MultiPolygon", "coordinates": [ [ [ [ 24.504041845185284, 52.531443939854469 ], [ 25.170903813819535, 52.299759655559662 ], [ 25.013644018432167, 51.83871722652961 ], [ 24.209205245064954, 51.607035373315 ], [ 23.54712301305592, 51.834447880810536 ], [ 23.684663495955679, 52.297726107399349 ], [ 24.504041845185284, 52.531443939854469 ] ] ] ] } },
{ "type": "Feature", "properties": { "geogrid_id": "852342611014891409", "seqnum": 13770.0, "lat_c": 52.342610579504182, "lon_c": 14.89140947796723, "res": 8.0, "count_Arachnids": 79, "count_Basidiomycota": 75, "count_Flowering Plants": 893, "count_Insects": 1136, "count_Birds": 203, "count_Mosses": 63, "count_Sac Fungi": 45, "count_Molluscs": 26, "count_Amphibians": 9, "count_Gymnosperms": 6, "count_Ferns": 11, "count_Mammals": 36, "count_Reptiles": 5, "unique_species_count": 2587.0, "countryCode": "PL" }, "geometry": { "type": "MultiPolygon", "coordinates": [ [ [ [ 15.646583728818658, 52.648558689804318 ], [ 15.604726734906933, 52.177128555086782 ], [ 14.857189878202487, 51.871604522820952 ], [ 14.145134586836797, 52.029883014957846 ], [ 14.172735377126052, 52.500959865090678 ], [ 14.926589632211229, 52.814126406285233 ], [ 15.646583728818658, 52.648558689804318 ] ] ] ] } },
{ "type": "Feature", "properties": { "geogrid_id": "852476135016360876", "seqnum": 13852.0, "lat_c": 52.47613504939703, "lon_c": 16.360875901947846, "res": 8.0, "count_Arachnids": 160, "count_Basidiomycota": 194, "count_Flowering Plants": 1311, "count_Insects": 1851, "count_Birds": 142, "count_Mosses": 128, "count_Sac Fungi": 106, "count_Molluscs": 52, "count_Amphibians": 9, "count_Gymnosperms": 16, "count_Ferns": 12, "count_Mammals": 34, "count_Reptiles": 6, "unique_species_count": 4021.0, "countryCode": "PL" }, "geometry": { "type": "MultiPolygon", "coordinates": [ [ [ [ 17.125634208641728, 52.768830837494193 ], [ 17.069274432159883, 52.297122411525862 ], [ 16.312468246416817, 52.00479421636382 ], [ 15.604726734906933, 52.177128555086782 ], [ 15.646583728818658, 52.648558689804318 ], [ 16.410642887487867, 52.947959969236379 ], [ 17.125634208641728, 52.768830837494193 ] ] ] ] } },
{ "type": "Feature", "properties": { "geogrid_id": "852583359017834431", "seqnum": 19757.0, "lat_c": 52.583358973078489, "lon_c": 17.834431061873644, "res": 8.0, "count_Arachnids": 87, "count_Basidiomycota": 69, "count_Flowering Plants": 1037, "count_Insects": 509, "count_Birds": 155, "count_Mosses": 86, "count_Sac Fungi": 39, "count_Molluscs": 21, "count_Amphibians": 6, "count_Gymnosperms": 12, "count_Ferns": 8, "count_Mammals": 17, "count_Reptiles": 5, "unique_species_count": 2051.0, "countryCode": "PL" }, "geometry": { "type": "MultiPolygon", "coordinates": [ [ [ [ 17.905489694857192, 53.049454331971063 ], [ 18.620035070767617, 52.853620595806575 ], [ 18.541631774460285, 52.387410739450836 ], [ 17.771615334802895, 52.111778168983491 ], [ 17.069274432159883, 52.297122411525862 ], [ 17.125634208641728, 52.768830837494193 ], [ 17.905489694857192, 53.049454331971063 ] ] ] ] } },
{ "type": "Feature", "properties": { "geogrid_id": "852653593019327218", "seqnum": 19838.0, "lat_c": 52.653592858457543, "lon_c": 19.327217689897896, "res": 8.0, "count_Arachnids": 191, "count_Basidiomycota": 155, "count_Flowering Plants": 990, "count_Insects": 1086, "count_Birds": 109, "count_Mosses": 109, "count_Sac Fungi": 44, "count_Molluscs": 23, "count_Amphibians": 10, "count_Gymnosperms": 9, "count_Ferns": 13, "count_Mammals": 21, "count_Reptiles": 5, "unique_species_count": 2765.0, "countryCode": "PL" }, "geometry": { "type": "MultiPolygon", "coordinates": [ [ [ [ 19.417927023907364, 53.118887601183012 ], [ 20.124916347796589, 52.914735221773242 ], [ 20.02703981001947, 52.449451430648409 ], [ 19.2416527599601, 52.187312342837771 ], [ 18.541631774460285, 52.387410739450836 ], [ 18.620035070767617, 52.853620595806575 ], [ 19.417927023907364, 53.118887601183012 ] ] ] ] } },
{ "type": "Feature", "properties": { "geogrid_id": "852706508020824363", "seqnum": 19919.0, "lat_c": 52.706507915920227, "lon_c": 20.824363403102922, "res": 8.0, "count_Arachnids": 95, "count_Basidiomycota": 154, "count_Flowering Plants": 1072, "count_Insects": 878, "count_Birds": 147, "count_Mosses": 98, "count_Sac Fungi": 69, "count_Molluscs": 24, "count_Amphibians": 8, "count_Gymnosperms": 10, "count_Ferns": 10, "count_Mammals": 26, "count_Reptiles": 5, "unique_species_count": 2596.0, "countryCode": "PL" }, "geometry": { "type": "MultiPolygon", "coordinates": [ [ [ [ 20.935205769540438, 53.170552520769824 ], [ 21.634094917933979, 52.95819328611524 ], [ 21.516283332281496, 52.494286381383802 ], [ 20.719510237826722, 52.241275753315094 ], [ 20.02703981001947, 52.449451430648409 ], [ 20.124916347796589, 52.914735221773242 ], [ 20.935205769540438, 53.170552520769824 ] ] ] ] } },
{ "type": "Feature", "properties": { "geogrid_id": "852741882022325281", "seqnum": 20000.0, "lat_c": 52.741882103281945, "lon_c": 22.325281297358956, "res": 8.0, "count_Arachnids": 36, "count_Basidiomycota": 31, "count_Flowering Plants": 827, "count_Insects": 546, "count_Birds": 163, "count_Mosses": 112, "count_Sac Fungi": 80, "count_Molluscs": 10, "count_Amphibians": 9, "count_Gymnosperms": 13, "count_Ferns": 9, "count_Mammals": 22, "count_Reptiles": 5, "unique_species_count": 1863.0, "countryCode": "PL" }, "geometry": { "type": "MultiPolygon", "coordinates": [ [ [ [ 22.456738412223622, 53.20418587399498 ], [ 23.147002494500718, 52.983737152581966 ], [ 23.008792890157988, 52.521699812158957 ], [ 22.200697489045119, 52.27815030423568 ], [ 21.516283332281496, 52.494286381383802 ], [ 21.634094917933979, 52.95819328611524 ], [ 22.456738412223622, 53.20418587399498 ] ] ] ] } },
{ "type": "Feature", "properties": { "geogrid_id": "852759463023829423", "seqnum": 20081.0, "lat_c": 52.759462928593699, "lon_c": 23.829423417393315, "res": 8.0, "count_Arachnids": 56, "count_Basidiomycota": 395, "count_Flowering Plants": 960, "count_Insects": 1332, "count_Birds": 217, "count_Mosses": 165, "count_Sac Fungi": 258, "count_Molluscs": 22, "count_Amphibians": 13, "count_Gymnosperms": 13, "count_Ferns": 14, "count_Mammals": 44, "count_Reptiles": 6, "unique_species_count": 3495.0, "countryCode": "PL" }, "geometry": { "type": "MultiPolygon", "coordinates": [ [ [ [ 23.981982126686653, 53.219486287539063 ], [ 24.66311984875945, 52.991069079571723 ], [ 24.504041845185284, 52.531443939854469 ], [ 23.684663495955679, 52.297726107399349 ], [ 23.008792890157988, 52.521699812158957 ], [ 23.147002494500718, 52.983737152581966 ], [ 23.981982126686653, 53.219486287539063 ] ] ] ] } },
{ "type": "Feature", "properties": { "geogrid_id": "852972562014201115", "seqnum": 13689.0, "lat_c": 52.972561521318021, "lon_c": 14.201115074752778, "res": 8.0, "count_Arachnids": 41, "count_Basidiomycota": 37, "count_Flowering Plants": 776, "count_Insects": 601, "count_Birds": 179, "count_Mosses": 57, "count_Sac Fungi": 26, "count_Molluscs": 20, "count_Amphibians": 9, "count_Gymnosperms": 11, "count_Ferns": 9, "count_Mammals": 20, "count_Reptiles": 4, "unique_species_count": 1790.0, "countryCode": "PL" }, "geometry": { "type": "MultiPolygon", "coordinates": [ [ [ [ 14.962769326000055, 53.286162083790423 ], [ 14.926589632211229, 52.814126406285233 ], [ 14.172735377126052, 52.500959865090678 ], [ 13.448954926798725, 52.65188553674087 ], [ 13.470413334252067, 53.123577396392939 ], [ 14.230305406551526, 53.444698058907548 ], [ 14.962769326000055, 53.286162083790423 ] ] ] ] } },
{ "type": "Feature", "properties": { "geogrid_id": "853120492015689623", "seqnum": 13771.0, "lat_c": 53.120491665831231, "lon_c": 15.689623211043747, "res": 8.0, "count_Arachnids": 45, "count_Basidiomycota": 71, "count_Flowering Plants": 889, "count_Insects": 483, "count_Birds": 107, "count_Mosses": 129, "count_Sac Fungi": 35, "count_Molluscs": 19, "count_Amphibians": 8, "count_Gymnosperms": 7, "count_Ferns": 9, "count_Mammals": 19, "count_Reptiles": 5, "unique_species_count": 1826.0, "countryCode": "PL" }, "geometry": { "type": "MultiPolygon", "coordinates": [ [ [ [ 16.461824715706921, 53.420278965840083 ], [ 16.410642887487867, 52.947959969236379 ], [ 15.646583728818658, 52.648558689804318 ], [ 14.926589632211229, 52.814126406285233 ], [ 14.962769326000055, 53.286162083790423 ], [ 15.733893666448978, 53.592937541508014 ], [ 16.461824715706921, 53.420278965840083 ] ] ] ] } },
{ "type": "Feature", "properties": { "geogrid_id": "853241013017183586", "seqnum": 19758.0, "lat_c": 53.241012953211396, "lon_c": 17.183586161995891, "res": 8.0, "count_Arachnids": 37, "count_Basidiomycota": 71, "count_Flowering Plants": 845, "count_Insects": 621, "count_Birds": 110, "count_Mosses": 89, "count_Sac Fungi": 36, "count_Molluscs": 15, "count_Amphibians": 8, "count_Gymnosperms": 7, "count_Ferns": 11, "count_Mammals": 30, "count_Reptiles": 5, "unique_species_count": 1885.0, "countryCode": "PL" }, "geometry": { "type": "MultiPolygon", "coordinates": [ [ [ [ 17.251654076450489, 53.70607432259041 ], [ 17.981294024560388, 53.514640096195151 ], [ 17.905489694857192, 53.049454331971063 ], [ 17.125634208641728, 52.768830837494193 ], [ 16.410642887487867, 52.947959969236379 ], [ 16.461824715706921, 53.420278965840083 ], [ 17.251654076450489, 53.70607432259041 ] ] ] ] } },
{ "type": "Feature", "properties": { "geogrid_id": "853318883018703387", "seqnum": 19839.0, "lat_c": 53.31888340472036, "lon_c": 18.703386827909057, "res": 8.0, "count_Arachnids": 109, "count_Basidiomycota": 97, "count_Flowering Plants": 1158, "count_Insects": 1083, "count_Birds": 130, "count_Mosses": 92, "count_Sac Fungi": 62, "count_Molluscs": 32, "count_Amphibians": 8, "count_Gymnosperms": 11, "count_Ferns": 14, "count_Mammals": 30, "count_Reptiles": 6, "unique_species_count": 2832.0, "countryCode": "PL" }, "geometry": { "type": "MultiPolygon", "coordinates": [ [ [ [ 18.792136367734294, 53.783094097443922 ], [ 19.51423838196067, 53.583086380338941 ], [ 19.417927023907364, 53.118887601183012 ], [ 18.620035070767617, 52.853620595806575 ], [ 17.905489694857192, 53.049454331971063 ], [ 17.981294024560388, 53.514640096195151 ], [ 18.792136367734294, 53.783094097443922 ] ] ] ] } },
{ "type": "Feature", "properties": { "geogrid_id": "853378878020228592", "seqnum": 19920.0, "lat_c": 53.378877874725148, "lon_c": 20.228592029536184, "res": 8.0, "count_Arachnids": 65, "count_Basidiomycota": 127, "count_Flowering Plants": 769, "count_Insects": 1109, "count_Birds": 94, "count_Mosses": 88, "count_Sac Fungi": 48, "count_Molluscs": 19, "count_Amphibians": 8, "count_Gymnosperms": 5, "count_Ferns": 10, "count_Mammals": 19, "count_Reptiles": 5, "unique_species_count": 2366.0, "countryCode": "PL" }, "geometry": { "type": "MultiPolygon", "coordinates": [ [ [ [ 20.338568597326049, 53.841753585995711 ], [ 21.052547094010322, 53.633277787135761 ], [ 20.935205769540438, 53.170552520769824 ], [ 20.124916347796589, 52.914735221773242 ], [ 19.417927023907364, 53.118887601183012 ], [ 19.51423838196067, 53.583086380338941 ], [ 20.338568597326049, 53.841753585995711 ] ] ] ] } },
{ "type": "Feature", "properties": { "geogrid_id": "853420727021758596", "seqnum": 20001.0, "lat_c": 53.420727130984666, "lon_c": 21.758596230603334, "res": 8.0, "count_Arachnids": 27, "count_Basidiomycota": 99, "count_Flowering Plants": 786, "count_Insects": 1084, "count_Birds": 181, "count_Mosses": 103, "count_Sac Fungi": 53, "count_Molluscs": 24, "count_Amphibians": 12, "count_Gymnosperms": 8, "count_Ferns": 9, "count_Mammals": 26, "count_Reptiles": 5, "unique_species_count": 2417.0, "countryCode": "PL" }, "geometry": { "type": "MultiPolygon", "coordinates": [ [ [ [ 21.890344322649835, 53.881737408591597 ], [ 22.595633606099149, 53.664904120903778 ], [ 22.456738412223622, 53.20418587399498 ], [ 21.634094917933979, 52.95819328611524 ], [ 20.935205769540438, 53.170552520769824 ], [ 21.052547094010322, 53.633277787135761 ], [ 21.890344322649835, 53.881737408591597 ] ] ] ] } },
{ "type": "Feature", "properties": { "geogrid_id": "853444126023292834", "seqnum": 20082.0, "lat_c": 53.444125648017618, "lon_c": 23.292834123919924, "res": 8.0, "count_Arachnids": 69, "count_Basidiomycota": 90, "count_Flowering Plants": 980, "count_Insects": 1734, "count_Birds": 230, "count_Mosses": 132, "count_Sac Fungi": 208, "count_Molluscs": 21, "count_Amphibians": 13, "count_Gymnosperms": 9, "count_Ferns": 15, "count_Mammals": 36, "count_Reptiles": 6, "unique_species_count": 3543.0, "countryCode": "PL" }, "geometry": { "type": "MultiPolygon", "coordinates": [ [ [ [ 23.446903092002792, 53.902685325619508 ], [ 24.142962379494623, 53.677608010682071 ], [ 23.981982126686653, 53.219486287539063 ], [ 23.147002494500718, 52.983737152581966 ], [ 22.456738412223622, 53.20418587399498 ], [ 22.595633606099149, 53.664904120903778 ], [ 23.446903092002792, 53.902685325619508 ] ] ] ] } },
{ "type": "Feature", "properties": { "geogrid_id": "853595817013492488", "seqnum": 13608.0, "lat_c": 53.595816933748182, "lon_c": 13.492487706267774, "res": 8.0, "count_Arachnids": 2, "count_Basidiomycota": 7, "count_Flowering Plants": 198, "count_Insects": 31, "count_Birds": 64, "count_Mosses": 34, "count_Sac Fungi": 13, "count_Molluscs": 2, "count_Amphibians": 0, "count_Gymnosperms": 3, "count_Ferns": 6, "count_Mammals": 4, "count_Reptiles": 1, "unique_species_count": 365.0, "countryCode": "PL" }, "geometry": { "type": "MultiPolygon", "coordinates": [ [ [ [ 14.260339868805248, 53.91737959797625 ], [ 14.230305406551526, 53.444698058907548 ], [ 13.470413334252067, 53.123577396392939 ], [ 12.734771631045865, 53.266877230420519 ], [ 12.749606658252221, 53.739226395492771 ], [ 13.515203591538118, 54.068614273618095 ], [ 14.260339868805248, 53.91737959797625 ] ] ] ] } },
{ "type": "Feature", "properties": { "geogrid_id": "853758728014999990", "seqnum": 13690.0, "lat_c": 53.758727712102122, "lon_c": 14.999989703444626, "res": 8.0, "count_Arachnids": 100, "count_Basidiomycota": 123, "count_Flowering Plants": 1039, "count_Insects": 1535, "count_Birds": 217, "count_Mosses": 112, "count_Sac Fungi": 70, "count_Molluscs": 58, "count_Amphibians": 9, "count_Gymnosperms": 16, "count_Ferns": 12, "count_Mammals": 37, "count_Reptiles": 7, "unique_species_count": 3335.0, "countryCode": "PL" }, "geometry": { "type": "MultiPolygon", "coordinates": [ [ [ [ 15.779446283945225, 54.065906368389712 ], [ 15.733893666448978, 53.592937541508014 ], [ 14.962769326000055, 53.286162083790423 ], [ 14.230305406551526, 53.444698058907548 ], [ 14.260339868805248, 53.91737959797625 ], [ 15.038294220401449, 54.231833413097085 ], [ 15.779446283945225, 54.065906368389712 ] ] ] ] } },
{ "type": "Feature", "properties": { "geogrid_id": "853893102016514480", "seqnum": 19759.0, "lat_c": 53.893101989137797, "lon_c": 16.514479972111449, "res": 8.0, "count_Arachnids": 41, "count_Basidiomycota": 59, "count_Flowering Plants": 805, "count_Insects": 531, "count_Birds": 99, "count_Mosses": 98, "count_Sac Fungi": 31, "count_Molluscs": 19, "count_Amphibians": 6, "count_Gymnosperms": 6, "count_Ferns": 11, "count_Mammals": 19, "count_Reptiles": 5, "unique_species_count": 1730.0, "countryCode": "PL" }, "geometry": { "type": "MultiPolygon", "coordinates": [ [ [ [ 16.579365777208341, 54.357059990837605 ], [ 17.324689799134042, 54.170166955312318 ], [ 17.251654076450489, 53.70607432259041 ], [ 16.461824715706921, 53.420278965840083 ], [ 15.733893666448978, 53.592937541508014 ], [ 15.779446283945225, 54.065906368389712 ], [ 16.579365777208341, 54.357059990837605 ] ] ] ] } },
{ "type": "Feature", "properties": { "geogrid_id": "853978816018062285", "seqnum": 19840.0, "lat_c": 53.978816181195192, "lon_c": 18.062284736592954, "res": 8.0, "count_Arachnids": 90, "count_Basidiomycota": 122, "count_Flowering Plants": 955, "count_Insects": 1176, "count_Birds": 137, "count_Mosses": 128, "count_Sac Fungi": 87, "count_Molluscs": 28, "count_Amphibians": 9, "count_Gymnosperms": 12, "count_Ferns": 12, "count_Mammals": 31, "count_Reptiles": 6, "unique_species_count": 2793.0, "countryCode": "PL" }, "geometry": { "type": "MultiPolygon", "coordinates": [ [ [ [ 18.148937467673843, 54.441873768263065 ], [ 18.886768385511676, 54.246138350185362 ], [ 18.792136367734294, 53.783094097443922 ], [ 17.981294024560388, 53.514640096195151 ], [ 17.251654076450489, 53.70607432259041 ], [ 17.324689799134042, 54.170166955312318 ], [ 18.148937467673843, 54.441873768263065 ] ] ] ] } },
{ "type": "Feature", "properties": { "geogrid_id": "854046069019616645", "seqnum": 19921.0, "lat_c": 54.046069210885761, "lon_c": 19.616645156997826, "res": 8.0, "count_Arachnids": 54, "count_Basidiomycota": 79, "count_Flowering Plants": 797, "count_Insects": 590, "count_Birds": 217, "count_Mosses": 100, "count_Sac Fungi": 57, "count_Molluscs": 27, "count_Amphibians": 7, "count_Gymnosperms": 11, "count_Ferns": 9, "count_Mammals": 33, "count_Reptiles": 5, "unique_species_count": 1986.0, "countryCode": "PL" }, "geometry": { "type": "MultiPolygon", "coordinates": [ [ [ [ 19.725679261573152, 54.507705432750114 ], [ 20.455386692679337, 54.30322526229692 ], [ 20.338568597326049, 53.841753585995711 ], [ 19.51423838196067, 53.583086380338941 ], [ 18.792136367734294, 53.783094097443922 ], [ 18.886768385511676, 54.246138350185362 ], [ 19.725679261573152, 54.507705432750114 ] ] ] ] } },
{ "type": "Feature", "properties": { "geogrid_id": "854094540021176936", "seqnum": 20002.0, "lat_c": 54.094540007037644, "lon_c": 21.176936391872282, "res": 8.0, "count_Arachnids": 27, "count_Basidiomycota": 103, "count_Flowering Plants": 612, "count_Insects": 433, "count_Birds": 137, "count_Mosses": 93, "count_Sac Fungi": 64, "count_Molluscs": 22, "count_Amphibians": 8, "count_Gymnosperms": 5, "count_Ferns": 9, "count_Mammals": 24, "count_Reptiles": 4, "unique_species_count": 1541.0, "countryCode": "PL" }, "geometry": { "type": "MultiPolygon", "coordinates": [ [ [ [ 21.308964847005097, 54.5541824515456 ], [ 22.029938747104598, 54.341059861495715 ], [ 21.890344322649835, 53.881737408591597 ], [ 21.052547094010322, 53.633277787135761 ], [ 20.338568597326049, 53.841753585995711 ], [ 20.455386692679337, 54.30322526229692 ], [ 21.308964847005097, 54.5541824515456 ] ] ] ] } },
{ "type": "Feature", "properties": { "geogrid_id": "854123865022742574", "seqnum": 20083.0, "lat_c": 54.123864840739841, "lon_c": 22.742574467066721, "res": 8.0, "count_Arachnids": 34, "count_Basidiomycota": 59, "count_Flowering Plants": 964, "count_Insects": 1055, "count_Birds": 153, "count_Mosses": 153, "count_Sac Fungi": 116, "count_Molluscs": 22, "count_Amphibians": 8, "count_Gymnosperms": 13, "count_Ferns": 17, "count_Mammals": 26, "count_Reptiles": 5, "unique_species_count": 2625.0, "countryCode": "PL" }, "geometry": { "type": "MultiPolygon", "coordinates": [ [ [ [ 22.898214433463512, 54.580880168140737 ], [ 23.609870843317317, 54.359219480039933 ], [ 23.446903092002792, 53.902685325619508 ], [ 22.595633606099149, 53.664904120903778 ], [ 21.890344322649835, 53.881737408591597 ], [ 22.029938747104598, 54.341059861495715 ], [ 22.898214433463512, 54.580880168140737 ] ] ] ] } },
{ "type": "Feature", "properties": { "geogrid_id": "854133622024313033", "seqnum": 20164.0, "lat_c": 54.133622284640651, "lon_c": 24.313033331226357, "res": 8.0, "count_Arachnids": 0, "count_Basidiomycota": 1, "count_Flowering Plants": 15, "count_Insects": 16, "count_Birds": 0, "count_Mosses": 6, "count_Sac Fungi": 0, "count_Molluscs": 0, "count_Amphibians": 0, "count_Gymnosperms": 1, "count_Ferns": 1, "count_Mammals": 0, "count_Reptiles": 0, "unique_species_count": 40.0, "countryCode": "PL" }, "geometry": { "type": "MultiPolygon", "coordinates": [ [ [ [ 24.492913639503897, 54.587303982119288 ], [ 25.194700968471786, 54.357207794980468 ], [ 25.007747943747116, 53.904176388386148 ], [ 24.142962379494623, 53.677608010682071 ], [ 23.446903092002792, 53.902685325619508 ], [ 23.609870843317317, 54.359219480039933 ], [ 24.492913639503897, 54.587303982119288 ] ] ] ] } },
{ "type": "Feature", "properties": { "geogrid_id": "854390616014291254", "seqnum": 13609.0, "lat_c": 54.390616305982014, "lon_c": 14.291253852855881, "res": 8.0, "count_Arachnids": 2, "count_Basidiomycota": 0, "count_Flowering Plants": 61, "count_Insects": 28, "count_Birds": 61, "count_Mosses": 3, "count_Sac Fungi": 2, "count_Molluscs": 7, "count_Amphibians": 0, "count_Gymnosperms": 1, "count_Ferns": 1, "count_Mammals": 2, "count_Reptiles": 1, "unique_species_count": 169.0, "countryCode": "PL" }, "geometry": { "type": "MultiPolygon", "coordinates": [ [ [ [ 15.077728810163023, 54.705489332433878 ], [ 15.038294220401449, 54.231833413097085 ], [ 14.260339868805248, 53.91737959797625 ], [ 13.515203591538118, 54.068614273618095 ], [ 13.538587993322267, 54.54197960989589 ], [ 14.323084781486122, 54.864418399989276 ], [ 15.077728810163023, 54.705489332433878 ] ] ] ] } },
{ "type": "Feature", "properties": { "geogrid_id": "854539408015826335", "seqnum": 19760.0, "lat_c": 54.539408190506556, "lon_c": 15.826335150751138, "res": 8.0, "count_Arachnids": 29, "count_Basidiomycota": 27, "count_Flowering Plants": 581, "count_Insects": 293, "count_Birds": 211, "count_Mosses": 29, "count_Sac Fungi": 7, "count_Molluscs": 18, "count_Amphibians": 3, "count_Gymnosperms": 6, "count_Ferns": 5, "count_Mammals": 18, "count_Reptiles": 5, "unique_species_count": 1232.0, "countryCode": "PL" }, "geometry": { "type": "MultiPolygon", "coordinates": [ [ [ [ 15.887833156468533, 55.002193131583049 ], [ 16.649450049831838, 54.819990344474249 ], [ 16.579365777208341, 54.357059990837605 ], [ 15.779446283945225, 54.065906368389712 ], [ 15.038294220401449, 54.231833413097085 ], [ 15.077728810163023, 54.705489332433878 ], [ 15.887833156468533, 55.002193131583049 ] ] ] ] } },
{ "type": "Feature", "properties": { "geogrid_id": "854633187017403160", "seqnum": 19841.0, "lat_c": 54.633187382205868, "lon_c": 17.403159536934833, "res": 8.0, "count_Arachnids": 252, "count_Basidiomycota": 180, "count_Flowering Plants": 899, "count_Insects": 1270, "count_Birds": 173, "count_Mosses": 148, "count_Sac Fungi": 104, "count_Molluscs": 47, "count_Amphibians": 7, "count_Gymnosperms": 14, "count_Ferns": 13, "count_Mammals": 26, "count_Reptiles": 5, "unique_species_count": 3138.0, "countryCode": "PL" }, "geometry": { "type": "MultiPolygon", "coordinates": [ [ [ [ 17.487566730507332, 55.095023177220526 ], [ 18.241765543319428, 54.903694529196201 ], [ 18.148937467673843, 54.441873768263065 ], [ 17.324689799134042, 54.170166955312318 ], [ 16.579365777208341, 54.357059990837605 ], [ 16.649450049831838, 54.819990344474249 ], [ 17.487566730507332, 55.095023177220526 ] ] ] ] } },
{ "type": "Feature", "properties": { "geogrid_id": "854707892018987806", "seqnum": 19922.0, "lat_c": 54.707891757225134, "lon_c": 18.987805693283633, "res": 8.0, "count_Arachnids": 125, "count_Basidiomycota": 269, "count_Flowering Plants": 1011, "count_Insects": 1495, "count_Birds": 273, "count_Mosses": 119, "count_Sac Fungi": 112, "count_Molluscs": 72, "count_Amphibians": 10, "count_Gymnosperms": 18, "count_Ferns": 14, "count_Mammals": 40, "count_Reptiles": 5, "unique_species_count": 3563.0, "countryCode": "PL" }, "geometry": { "type": "MultiPolygon", "coordinates": [ [ [ [ 19.095812143508212, 55.168218922500017 ], [ 19.841914049312038, 54.967852743385897 ], [ 19.725679261573152, 54.507705432750114 ], [ 18.886768385511676, 54.246138350185362 ], [ 18.148937467673843, 54.441873768263065 ], [ 18.241765543319428, 54.903694529196201 ], [ 19.095812143508212, 55.168218922500017 ] ] ] ] } },
{ "type": "Feature", "properties": { "geogrid_id": "854763143020579629", "seqnum": 20003.0, "lat_c": 54.763143491430696, "lon_c": 20.579628773350336, "res": 8.0, "count_Arachnids": 1, "count_Basidiomycota": 6, "count_Flowering Plants": 89, "count_Insects": 13, "count_Birds": 4, "count_Mosses": 5, "count_Sac Fungi": 2, "count_Molluscs": 0, "count_Amphibians": 1, "count_Gymnosperms": 2, "count_Ferns": 5, "count_Mammals": 3, "count_Reptiles": 0, "unique_species_count": 131.0, "countryCode": "PL" }, "geometry": { "type": "MultiPolygon", "coordinates": [ [ [ [ 20.711922198245976, 55.221345411299559 ], [ 21.449268882000347, 55.012034168914397 ], [ 21.308964847005097, 54.5541824515456 ], [ 20.455386692679337, 54.30322526229692 ], [ 19.725679261573152, 54.507705432750114 ], [ 19.841914049312038, 54.967852743385897 ], [ 20.711922198245976, 55.221345411299559 ] ] ] ] } },
{ "type": "Feature", "properties": { "geogrid_id": "855281786016725226", "seqnum": 19842.0, "lat_c": 55.281786351746369, "lon_c": 16.72522593741995, "res": 8.0, "count_Arachnids": 0, "count_Basidiomycota": 0, "count_Flowering Plants": 0, "count_Insects": 1, "count_Birds": 2, "count_Mosses": 0, "count_Sac Fungi": 0, "count_Molluscs": 4, "count_Amphibians": 0, "count_Gymnosperms": 0, "count_Ferns": 0, "count_Mammals": 0, "count_Reptiles": 0, "unique_species_count": 7.0, "countryCode": "PL" }, "geometry": { "type": "MultiPolygon", "coordinates": [ [ [ [ 16.807226249943866, 55.742332145395864 ], [ 17.578454973740119, 55.555552159763671 ], [ 17.487566730507332, 55.095023177220526 ], [ 16.649450049831838, 54.819990344474249 ], [ 15.887833156468533, 55.002193131583049 ], [ 15.954769006416889, 55.463892018396443 ], [ 16.807226249943866, 55.742332145395864 ] ] ] ] } },
{ "type": "Feature", "properties": { "geogrid_id": "855364150018341323", "seqnum": 19923.0, "lat_c": 55.364149774419339, "lon_c": 18.341322900915863, "res": 8.0, "count_Arachnids": 0, "count_Basidiomycota": 0, "count_Flowering Plants": 0, "count_Insects": 2, "count_Birds": 12, "count_Mosses": 0, "count_Sac Fungi": 0, "count_Molluscs": 3, "count_Amphibians": 0, "count_Gymnosperms": 0, "count_Ferns": 0, "count_Mammals": 0, "count_Reptiles": 0, "unique_species_count": 17.0, "countryCode": "PL" }, "geometry": { "type": "MultiPolygon", "coordinates": [ [ [ [ 18.448207202272549, 55.823099516383486 ], [ 19.211395735490701, 55.626972461022561 ], [ 19.095812143508212, 55.168218922500017 ], [ 18.241765543319428, 54.903694529196201 ], [ 17.487566730507332, 55.095023177220526 ], [ 17.578454973740119, 55.555552159763671 ], [ 18.448207202272549, 55.823099516383486 ] ] ] ] } },
{ "type": "Feature", "properties": { "geogrid_id": "856014642017676411", "seqnum": 19924.0, "lat_c": 56.014641517518392, "lon_c": 17.676411128911127, "res": 8.0, "count_Arachnids": 0, "count_Basidiomycota": 0, "count_Flowering Plants": 0, "count_Insects": 1, "count_Birds": 0, "count_Mosses": 0, "count_Sac Fungi": 0, "count_Molluscs": 0, "count_Amphibians": 0, "count_Gymnosperms": 0, "count_Ferns": 0, "count_Mammals": 0, "count_Reptiles": 0, "unique_species_count": 1.0, "countryCode": "PL" }, "geometry": { "type": "MultiPolygon", "coordinates": [ [ [ [ 17.782068641080272, 56.472146841129934 ], [ 18.56306313733387, 56.280391439175446 ], [ 18.448207202272549, 55.823099516383486 ], [ 17.578454973740119, 55.555552159763671 ], [ 16.807226249943866, 55.742332145395864 ], [ 16.896026573847095, 56.201501869047448 ], [ 17.782068641080272, 56.472146841129934 ] ] ] ] } },
{ "type": "Feature", "properties": { "geogrid_id": "856083992019335212", "seqnum": 20005.0, "lat_c": 56.083991900597681, "lon_c": 19.335211904321049, "res": 8.0, "count_Arachnids": 0, "count_Basidiomycota": 0, "count_Flowering Plants": 0, "count_Insects": 0, "count_Birds": 8, "count_Mosses": 0, "count_Sac Fungi": 0, "count_Molluscs": 0, "count_Amphibians": 0, "count_Gymnosperms": 0, "count_Ferns": 0, "count_Mammals": 0, "count_Reptiles": 0, "unique_species_count": 8.0, "countryCode": "PL" }, "geometry": { "type": "MultiPolygon", "coordinates": [ [ [ [ 19.467966988352611, 56.539102473318223 ], [ 20.240243909834078, 56.337740463618005 ], [ 20.098505050095905, 55.883046722686935 ], [ 19.211395735490701, 55.626972461022561 ], [ 18.448207202272549, 55.823099516383486 ], [ 18.56306313733387, 56.280391439175446 ], [ 19.467966988352611, 56.539102473318223 ] ] ] ] } }
]
}
