{
"type": "FeatureCollection",
"name": "PY",
"crs": { "type": "name", "properties": { "name": "urn:ogc:def:crs:OGC:1.3:CRS84" } },
"features": [
{ "type": "Feature", "properties": { "geogrid_id": "7419077539061011428", "seqnum": 12579.0, "lat_c": -19.077539179419105, "lon_c": -61.011428176940122, "res": 8.0, "count_Reptiles": 0, "count_Ferns": 0, "count_Flowering Plants": 0, "count_Mammals": 1, "count_Birds": 0, "count_Basidiomycota": 0, "count_Sac Fungi": 0, "count_Amphibians": 0, "count_Arachnids": 0, "count_Insects": 0, "count_Molluscs": 0, "count_Mosses": 0, "count_Gymnosperms": 0, "unique_species_count": 1.0, "countryCode": "PY" }, "geometry": { "type": "MultiPolygon", "coordinates": [ [ [ [ -60.503597657435989, -19.138425203394313 ], [ -60.749104589447882, -19.546275270552837 ], [ -61.257674710765656, -19.484192283370835 ], [ -61.518526415589669, -19.01347620406689 ], [ -61.272593219131338, -18.607828312874602 ], [ -60.766183776120563, -18.670679834759209 ], [ -60.503597657435989, -19.138425203394313 ] ] ] ] } },
{ "type": "Feature", "properties": { "geogrid_id": "7419251283059486166", "seqnum": 12662.0, "lat_c": -19.251283061379336, "lon_c": -59.486165848272236, "res": 8.0, "count_Reptiles": 3, "count_Ferns": 0, "count_Flowering Plants": 3, "count_Mammals": 1, "count_Birds": 1, "count_Basidiomycota": 0, "count_Sac Fungi": 0, "count_Amphibians": 0, "count_Arachnids": 0, "count_Insects": 2, "count_Molluscs": 0, "count_Mosses": 0, "count_Gymnosperms": 0, "unique_species_count": 10.0, "countryCode": "PY" }, "geometry": { "type": "MultiPolygon", "coordinates": [ [ [ [ -58.976749679323561, -19.303538254995843 ], [ -59.219822468706617, -19.714940056445904 ], [ -59.730085438452477, -19.661510361807075 ], [ -59.995144279633429, -19.196291014731148 ], [ -59.751388679548043, -18.787018157848394 ], [ -59.243209657236669, -18.840814825969023 ], [ -58.976749679323561, -19.303538254995843 ] ] ] ] } },
{ "type": "Feature", "properties": { "geogrid_id": "7419418931061765476", "seqnum": 12578.0, "lat_c": -19.418931308967903, "lon_c": -61.765476302438728, "res": 8.0, "count_Reptiles": 1, "count_Ferns": 2, "count_Flowering Plants": 53, "count_Mammals": 0, "count_Birds": 1, "count_Basidiomycota": 0, "count_Sac Fungi": 0, "count_Amphibians": 0, "count_Arachnids": 1, "count_Insects": 3, "count_Molluscs": 0, "count_Mosses": 0, "count_Gymnosperms": 0, "unique_species_count": 61.0, "countryCode": "PY" }, "geometry": { "type": "MultiPolygon", "coordinates": [ [ [ [ -61.257674710765656, -19.484192283370835 ], [ -61.50495936818259, -19.890651853118904 ], [ -62.013479525104614, -19.824205488421743 ], [ -62.272387319109107, -19.350328482045292 ], [ -62.02477007866149, -18.946068429075591 ], [ -61.518526415589669, -19.01347620406689 ], [ -61.257674710765656, -19.484192283370835 ] ] ] ] } },
{ "type": "Feature", "properties": { "geogrid_id": "7419605334060239875", "seqnum": 12661.0, "lat_c": -19.605333505853089, "lon_c": -60.239875444543735, "res": 8.0, "count_Reptiles": 1, "count_Ferns": 0, "count_Flowering Plants": 7, "count_Mammals": 6, "count_Birds": 1, "count_Basidiomycota": 0, "count_Sac Fungi": 0, "count_Amphibians": 1, "count_Arachnids": 0, "count_Insects": 1, "count_Molluscs": 0, "count_Mosses": 0, "count_Gymnosperms": 0, "unique_species_count": 17.0, "countryCode": "PY" }, "geometry": { "type": "MultiPolygon", "coordinates": [ [ [ [ -59.730085438452477, -19.661510361807075 ], [ -59.975002103775942, -20.071511488175908 ], [ -60.48561667177119, -20.014159785755659 ], [ -60.749104589447882, -19.546275270552837 ], [ -60.503597657435989, -19.138425203394313 ], [ -59.995144279633429, -19.196291014731148 ], [ -59.730085438452477, -19.661510361807075 ] ] ] ] } },
{ "type": "Feature", "properties": { "geogrid_id": "7419765748058709165", "seqnum": 12744.0, "lat_c": -19.765748307224399, "lon_c": -58.709165141510965, "res": 8.0, "count_Reptiles": 0, "count_Ferns": 0, "count_Flowering Plants": 0, "count_Mammals": 2, "count_Birds": 0, "count_Basidiomycota": 0, "count_Sac Fungi": 0, "count_Amphibians": 0, "count_Arachnids": 0, "count_Insects": 0, "count_Molluscs": 0, "count_Mosses": 0, "count_Gymnosperms": 0, "unique_species_count": 2.0, "countryCode": "PY" }, "geometry": { "type": "MultiPolygon", "coordinates": [ [ [ [ -58.198183650491004, -19.81405293477054 ], [ -58.440421743843082, -20.227513436086362 ], [ -58.952329481182197, -20.178068737693337 ], [ -59.219822468706617, -19.714940056445904 ], [ -58.976749679323561, -19.303538254995843 ], [ -58.466973616466177, -19.353184666228703 ], [ -58.198183650491004, -19.81405293477054 ] ] ] ] } },
{ "type": "Feature", "properties": { "geogrid_id": "7419953920060995635", "seqnum": 12660.0, "lat_c": -19.953920020816135, "lon_c": -60.995635242633298, "res": 8.0, "count_Reptiles": 0, "count_Ferns": 0, "count_Flowering Plants": 45, "count_Mammals": 2, "count_Birds": 0, "count_Basidiomycota": 0, "count_Sac Fungi": 2, "count_Amphibians": 0, "count_Arachnids": 0, "count_Insects": 1, "count_Molluscs": 0, "count_Mosses": 0, "count_Gymnosperms": 0, "unique_species_count": 50.0, "countryCode": "PY" }, "geometry": { "type": "MultiPolygon", "coordinates": [ [ [ [ -60.48561667177119, -20.014159785755659 ], [ -60.732403371955748, -20.422783066527689 ], [ -61.243225748196764, -20.361371989082205 ], [ -61.50495936818259, -19.890651853118904 ], [ -61.257674710765656, -19.484192283370835 ], [ -60.749104589447882, -19.546275270552837 ], [ -60.48561667177119, -20.014159785755659 ] ] ] ] } },
{ "type": "Feature", "properties": { "geogrid_id": "7420126107059463880", "seqnum": 12743.0, "lat_c": -20.126106679521911, "lon_c": -59.463879942728035, "res": 8.0, "count_Reptiles": 2, "count_Ferns": 0, "count_Flowering Plants": 5, "count_Mammals": 6, "count_Birds": 1, "count_Basidiomycota": 0, "count_Sac Fungi": 0, "count_Amphibians": 0, "count_Arachnids": 0, "count_Insects": 7, "count_Molluscs": 0, "count_Mosses": 0, "count_Gymnosperms": 0, "unique_species_count": 21.0, "countryCode": "PY" }, "geometry": { "type": "MultiPolygon", "coordinates": [ [ [ [ -58.952329481182197, -20.178068737693337 ], [ -59.196499632331012, -20.590160779481085 ], [ -59.708955937945611, -20.53705247693652 ], [ -59.975002103775942, -20.071511488175908 ], [ -59.730085438452477, -19.661510361807075 ], [ -59.219822468706617, -19.714940056445904 ], [ -58.952329481182197, -20.178068737693337 ] ] ] ] } },
{ "type": "Feature", "properties": { "geogrid_id": "7420274549057928220", "seqnum": 12826.0, "lat_c": -20.274549469937629, "lon_c": -57.92822025098986, "res": 8.0, "count_Reptiles": 7, "count_Ferns": 0, "count_Flowering Plants": 7, "count_Mammals": 14, "count_Birds": 58, "count_Basidiomycota": 0, "count_Sac Fungi": 0, "count_Amphibians": 4, "count_Arachnids": 1, "count_Insects": 17, "count_Molluscs": 0, "count_Mosses": 0, "count_Gymnosperms": 0, "unique_species_count": 108.0, "countryCode": "PY" }, "geometry": { "type": "MultiPolygon", "coordinates": [ [ [ [ -57.415781709458805, -20.31927894323788 ], [ -57.657041764903056, -20.734725838943831 ], [ -58.170481509396119, -20.688893736910387 ], [ -58.440421743843082, -20.227513436086362 ], [ -58.198183650491004, -19.81405293477054 ], [ -57.686940570081674, -19.85996442036183 ], [ -57.415781709458805, -20.31927894323788 ] ] ] ] } },
{ "type": "Feature", "properties": { "geogrid_id": "7420296930061753319", "seqnum": 12659.0, "lat_c": -20.296929672305989, "lon_c": -61.753318946782187, "res": 8.0, "count_Reptiles": 1, "count_Ferns": 0, "count_Flowering Plants": 4, "count_Mammals": 0, "count_Birds": 4, "count_Basidiomycota": 0, "count_Sac Fungi": 0, "count_Amphibians": 0, "count_Arachnids": 0, "count_Insects": 31, "count_Molluscs": 0, "count_Mosses": 0, "count_Gymnosperms": 0, "unique_species_count": 40.0, "countryCode": "PY" }, "geometry": { "type": "MultiPolygon", "coordinates": [ [ [ [ -61.243225748196764, -20.361371989082205 ], [ -61.491913087533575, -20.768642826510195 ], [ -62.002791047093936, -20.703036654055722 ], [ -62.262573485663339, -20.229309699705013 ], [ -62.013479525104614, -19.824205488421743 ], [ -61.50495936818259, -19.890651853118904 ], [ -61.243225748196764, -20.361371989082205 ] ] ] ] } },
{ "type": "Feature", "properties": { "geogrid_id": "7420481300060220950", "seqnum": 12742.0, "lat_c": -20.48130025764306, "lon_c": -60.220950487625224, "res": 8.0, "count_Reptiles": 4, "count_Ferns": 2, "count_Flowering Plants": 102, "count_Mammals": 5, "count_Birds": 1, "count_Basidiomycota": 0, "count_Sac Fungi": 3, "count_Amphibians": 2, "count_Arachnids": 0, "count_Insects": 12, "count_Molluscs": 0, "count_Mosses": 0, "count_Gymnosperms": 0, "unique_species_count": 131.0, "countryCode": "PY" }, "geometry": { "type": "MultiPolygon", "coordinates": [ [ [ [ -59.708955937945611, -20.53705247693652 ], [ -59.955085288245257, -20.947790909475653 ], [ -60.46796618140062, -20.89088959338304 ], [ -60.732403371955748, -20.422783066527689 ], [ -60.48561667177119, -20.014159785755659 ], [ -59.975002103775942, -20.071511488175908 ], [ -59.708955937945611, -20.53705247693652 ] ] ] ] } },
{ "type": "Feature", "properties": { "geogrid_id": "7420634254062512796", "seqnum": 12658.0, "lat_c": -20.634254048768767, "lon_c": -62.512796343948771, "res": 8.0, "count_Reptiles": 1, "count_Ferns": 0, "count_Flowering Plants": 4, "count_Mammals": 5, "count_Birds": 1, "count_Basidiomycota": 0, "count_Sac Fungi": 0, "count_Amphibians": 0, "count_Arachnids": 0, "count_Insects": 8, "count_Molluscs": 0, "count_Mosses": 0, "count_Gymnosperms": 0, "unique_species_count": 19.0, "countryCode": "PY" }, "geometry": { "type": "MultiPolygon", "coordinates": [ [ [ [ -62.002791047093936, -20.703036654055722 ], [ -62.253414073060505, -21.108982888463117 ], [ -62.764187022640428, -21.039047837472069 ], [ -63.021807995345121, -20.562142584577163 ], [ -62.770867982854142, -20.158355916762659 ], [ -62.262573485663339, -20.229309699705013 ], [ -62.002791047093936, -20.703036654055722 ] ] ] ] } },
{ "type": "Feature", "properties": { "geogrid_id": "7420640739058683653", "seqnum": 12825.0, "lat_c": -20.640738897396503, "lon_c": -58.68365335696091, "res": 8.0, "count_Reptiles": 1, "count_Ferns": 0, "count_Flowering Plants": 0, "count_Mammals": 0, "count_Birds": 0, "count_Basidiomycota": 0, "count_Sac Fungi": 0, "count_Amphibians": 0, "count_Arachnids": 0, "count_Insects": 0, "count_Molluscs": 0, "count_Mosses": 0, "count_Gymnosperms": 0, "unique_species_count": 1.0, "countryCode": "PY" }, "geometry": { "type": "MultiPolygon", "coordinates": [ [ [ [ -58.170481509396119, -20.688893736910387 ], [ -58.413756729182516, -21.103011933435976 ], [ -58.927911714444555, -21.053743670900285 ], [ -59.196499632331012, -20.590160779481085 ], [ -58.952329481182197, -20.178068737693337 ], [ -58.440421743843082, -20.227513436086362 ], [ -58.170481509396119, -20.688893736910387 ] ] ] ] } },
{ "type": "Feature", "properties": { "geogrid_id": "7420831216060980272", "seqnum": 12741.0, "lat_c": -20.831215668849211, "lon_c": -60.980271854511074, "res": 8.0, "count_Reptiles": 0, "count_Ferns": 0, "count_Flowering Plants": 0, "count_Mammals": 0, "count_Birds": 2, "count_Basidiomycota": 0, "count_Sac Fungi": 0, "count_Amphibians": 1, "count_Arachnids": 0, "count_Insects": 15, "count_Molluscs": 0, "count_Mosses": 0, "count_Gymnosperms": 0, "unique_species_count": 18.0, "countryCode": "PY" }, "geometry": { "type": "MultiPolygon", "coordinates": [ [ [ [ -60.46796618140062, -20.89088959338304 ], [ -60.716085711218767, -21.300291570209261 ], [ -61.229259318841706, -21.239469068614934 ], [ -61.491913087533575, -20.768642826510195 ], [ -61.243225748196764, -20.361371989082205 ], [ -60.732403371955748, -20.422783066527689 ], [ -60.46796618140062, -20.89088959338304 ] ] ] ] } },
{ "type": "Feature", "properties": { "geogrid_id": "7421002038059441710", "seqnum": 12824.0, "lat_c": -21.002038368726861, "lon_c": -59.44170963799354, "res": 8.0, "count_Reptiles": 2, "count_Ferns": 0, "count_Flowering Plants": 3, "count_Mammals": 4, "count_Birds": 2, "count_Basidiomycota": 0, "count_Sac Fungi": 0, "count_Amphibians": 0, "count_Arachnids": 0, "count_Insects": 0, "count_Molluscs": 0, "count_Mosses": 0, "count_Gymnosperms": 0, "unique_species_count": 11.0, "countryCode": "PY" }, "geometry": { "type": "MultiPolygon", "coordinates": [ [ [ [ -58.927911714444555, -21.053743670900285 ], [ -59.173231109157953, -21.466541274031506 ], [ -59.687994565509797, -21.413714598628122 ], [ -59.955085288245257, -20.947790909475653 ], [ -59.708955937945611, -20.53705247693652 ], [ -59.196499632331012, -20.590160779481085 ], [ -58.927911714444555, -21.053743670900285 ] ] ] ] } },
{ "type": "Feature", "properties": { "geogrid_id": "7421149942057899303", "seqnum": 12907.0, "lat_c": -21.149942127204813, "lon_c": -57.899303264113144, "res": 8.0, "count_Reptiles": 3, "count_Ferns": 0, "count_Flowering Plants": 2, "count_Mammals": 11, "count_Birds": 1, "count_Basidiomycota": 0, "count_Sac Fungi": 0, "count_Amphibians": 0, "count_Arachnids": 0, "count_Insects": 0, "count_Molluscs": 1, "count_Mosses": 0, "count_Gymnosperms": 0, "unique_species_count": 18.0, "countryCode": "PY" }, "geometry": { "type": "MultiPolygon", "coordinates": [ [ [ [ -57.384603855601263, -21.194627480985286 ], [ -57.626843009263851, -21.61070532838761 ], [ -58.142598885534781, -21.564942017908361 ], [ -58.413756729182516, -21.103011933435976 ], [ -58.170481509396119, -20.688893736910387 ], [ -57.657041764903056, -20.734725838943831 ], [ -57.384603855601263, -21.194627480985286 ] ] ] ] } },
{ "type": "Feature", "properties": { "geogrid_id": "7421175743061741735", "seqnum": 12740.0, "lat_c": -21.175743347786863, "lon_c": -61.741735088058185, "res": 8.0, "count_Reptiles": 10, "count_Ferns": 0, "count_Flowering Plants": 53, "count_Mammals": 8, "count_Birds": 81, "count_Basidiomycota": 0, "count_Sac Fungi": 1, "count_Amphibians": 7, "count_Arachnids": 2, "count_Insects": 75, "count_Molluscs": 0, "count_Mosses": 0, "count_Gymnosperms": 0, "unique_species_count": 237.0, "countryCode": "PY" }, "geometry": { "type": "MultiPolygon", "coordinates": [ [ [ [ -61.229259318841706, -21.239469068614934 ], [ -61.479403850531668, -21.647553939477216 ], [ -61.992730423545211, -21.582683574116057 ], [ -62.253414073060505, -21.108982888463117 ], [ -62.002791047093936, -20.703036654055722 ], [ -61.491913087533575, -20.768642826510195 ], [ -61.229259318841706, -21.239469068614934 ] ] ] ] } },
{ "type": "Feature", "properties": { "geogrid_id": "7421358335060202304", "seqnum": 12823.0, "lat_c": -21.358334590316129, "lon_c": -60.202303807161144, "res": 8.0, "count_Reptiles": 1, "count_Ferns": 0, "count_Flowering Plants": 4, "count_Mammals": 1, "count_Birds": 2, "count_Basidiomycota": 0, "count_Sac Fungi": 0, "count_Amphibians": 0, "count_Arachnids": 0, "count_Insects": 1, "count_Molluscs": 0, "count_Mosses": 0, "count_Gymnosperms": 0, "unique_species_count": 9.0, "countryCode": "PY" }, "geometry": { "type": "MultiPolygon", "coordinates": [ [ [ [ -59.687994565509797, -21.413714598628122 ], [ -59.935390490804338, -21.825201758834027 ], [ -60.450648275994681, -21.768695325721929 ], [ -60.716085711218767, -21.300291570209261 ], [ -60.46796618140062, -20.89088959338304 ], [ -59.955085288245257, -20.947790909475653 ], [ -59.687994565509797, -21.413714598628122 ] ] ] ] } },
{ "type": "Feature", "properties": { "geogrid_id": "7421514778062505227", "seqnum": 12739.0, "lat_c": -21.514777685643391, "lon_c": -62.505227236541884, "res": 8.0, "count_Reptiles": 10, "count_Ferns": 0, "count_Flowering Plants": 28, "count_Mammals": 7, "count_Birds": 33, "count_Basidiomycota": 0, "count_Sac Fungi": 2, "count_Amphibians": 7, "count_Arachnids": 0, "count_Insects": 36, "count_Molluscs": 0, "count_Mosses": 0, "count_Gymnosperms": 0, "unique_species_count": 123.0, "countryCode": "PY" }, "geometry": { "type": "MultiPolygon", "coordinates": [ [ [ [ -61.992730423545211, -21.582683574116057 ], [ -62.244938618501735, -21.989472772272094 ], [ -62.758270565417298, -21.920429614708937 ], [ -63.016785215879061, -21.44369960624914 ], [ -62.764187022640428, -21.039047837472069 ], [ -62.253414073060505, -21.108982888463117 ], [ -61.992730423545211, -21.582683574116057 ] ] ] ] } },
{ "type": "Feature", "properties": { "geogrid_id": "7421516918058658079", "seqnum": 12906.0, "lat_c": -21.516917948196333, "lon_c": -58.658079405399931, "res": 8.0, "count_Reptiles": 0, "count_Ferns": 0, "count_Flowering Plants": 0, "count_Mammals": 8, "count_Birds": 0, "count_Basidiomycota": 0, "count_Sac Fungi": 0, "count_Amphibians": 0, "count_Arachnids": 0, "count_Insects": 0, "count_Molluscs": 0, "count_Mosses": 0, "count_Gymnosperms": 0, "unique_species_count": 8.0, "countryCode": "PY" }, "geometry": { "type": "MultiPolygon", "coordinates": [ [ [ [ -58.142598885534781, -21.564942017908361 ], [ -58.386962434193975, -21.979738945976564 ], [ -58.903484121403714, -21.930624882645798 ], [ -59.173231109157953, -21.466541274031506 ], [ -58.927911714444555, -21.053743670900285 ], [ -58.413756729182516, -21.103011933435976 ], [ -58.142598885534781, -21.564942017908361 ] ] ] ] } },
{ "type": "Feature", "properties": { "geogrid_id": "7421709517060965347", "seqnum": 12822.0, "lat_c": -21.709517456335799, "lon_c": -60.965346530012752, "res": 8.0, "count_Reptiles": 5, "count_Ferns": 0, "count_Flowering Plants": 0, "count_Mammals": 8, "count_Birds": 19, "count_Basidiomycota": 0, "count_Sac Fungi": 1, "count_Amphibians": 4, "count_Arachnids": 2, "count_Insects": 17, "count_Molluscs": 0, "count_Mosses": 0, "count_Gymnosperms": 0, "unique_species_count": 56.0, "countryCode": "PY" }, "geometry": { "type": "MultiPolygon", "coordinates": [ [ [ [ -60.450648275994681, -21.768695325721929 ], [ -60.700156437131845, -22.178884152364088 ], [ -61.215787014467608, -22.118577751556973 ], [ -61.479403850531668, -21.647553939477216 ], [ -61.229259318841706, -21.239469068614934 ], [ -60.716085711218767, -21.300291570209261 ], [ -60.450648275994681, -21.768695325721929 ] ] ] ] } },
{ "type": "Feature", "properties": { "geogrid_id": "7421879144059419647", "seqnum": 12905.0, "lat_c": -21.879144427355367, "lon_c": -59.419646882841512, "res": 8.0, "count_Reptiles": 3, "count_Ferns": 0, "count_Flowering Plants": 0, "count_Mammals": 1, "count_Birds": 31, "count_Basidiomycota": 0, "count_Sac Fungi": 0, "count_Amphibians": 0, "count_Arachnids": 0, "count_Insects": 3, "count_Molluscs": 0, "count_Mosses": 0, "count_Gymnosperms": 0, "unique_species_count": 38.0, "countryCode": "PY" }, "geometry": { "type": "MultiPolygon", "coordinates": [ [ [ [ -58.903484121403714, -21.930624882645798 ], [ -59.150006532095816, -22.344145084554206 ], [ -59.667195412559451, -22.291565089532767 ], [ -59.935390490804338, -21.825201758834027 ], [ -59.687994565509797, -21.413714598628122 ], [ -59.173231109157953, -21.466541274031506 ], [ -58.903484121403714, -21.930624882645798 ] ] ] ] } },
{ "type": "Feature", "properties": { "geogrid_id": "7422026577057870136", "seqnum": 12988.0, "lat_c": -22.026577071841206, "lon_c": -57.870136152627772, "res": 8.0, "count_Reptiles": 6, "count_Ferns": 0, "count_Flowering Plants": 12, "count_Mammals": 16, "count_Birds": 43, "count_Basidiomycota": 0, "count_Sac Fungi": 0, "count_Amphibians": 7, "count_Arachnids": 33, "count_Insects": 9, "count_Molluscs": 0, "count_Mosses": 0, "count_Gymnosperms": 0, "unique_species_count": 126.0, "countryCode": "PY" }, "geometry": { "type": "MultiPolygon", "coordinates": [ [ [ [ -57.353054209601247, -22.071224686244825 ], [ -57.596322194945074, -22.487959581912698 ], [ -58.114517437173639, -22.442255704986486 ], [ -58.386962434193975, -21.979738945976564 ], [ -58.142598885534781, -21.564942017908361 ], [ -57.626843009263851, -21.61070532838761 ], [ -57.353054209601247, -22.071224686244825 ] ] ] ] } },
{ "type": "Feature", "properties": { "geogrid_id": "7422055480061730744", "seqnum": 12821.0, "lat_c": -22.05548019161823, "lon_c": -61.730744421978493, "res": 8.0, "count_Reptiles": 0, "count_Ferns": 0, "count_Flowering Plants": 1, "count_Mammals": 1, "count_Birds": 0, "count_Basidiomycota": 0, "count_Sac Fungi": 0, "count_Amphibians": 0, "count_Arachnids": 0, "count_Insects": 1, "count_Molluscs": 0, "count_Mosses": 0, "count_Gymnosperms": 0, "unique_species_count": 3.0, "countryCode": "PY" }, "geometry": { "type": "MultiPolygon", "coordinates": [ [ [ [ -61.215787014467608, -22.118577751556973 ], [ -61.467446466308793, -22.527482222098964 ], [ -61.983320897026054, -22.463257007033242 ], [ -62.244938618501735, -21.989472772272094 ], [ -61.992730423545211, -21.582683574116057 ], [ -61.479403850531668, -21.647553939477216 ], [ -61.215787014467608, -22.118577751556973 ] ] ] ] } },
{ "type": "Feature", "properties": { "geogrid_id": "7422154267056318295", "seqnum": 13071.0, "lat_c": -22.15426681092443, "lon_c": -56.318294765576297, "res": 8.0, "count_Reptiles": 2, "count_Ferns": 0, "count_Flowering Plants": 4, "count_Mammals": 1, "count_Birds": 3, "count_Basidiomycota": 0, "count_Sac Fungi": 0, "count_Amphibians": 1, "count_Arachnids": 0, "count_Insects": 2, "count_Molluscs": 0, "count_Mosses": 0, "count_Gymnosperms": 0, "unique_species_count": 13.0, "countryCode": "PY" }, "geometry": { "type": "MultiPolygon", "coordinates": [ [ [ [ -55.800692034419576, -22.192809759767435 ], [ -56.040460417209104, -22.612608941517237 ], [ -56.559255322249662, -22.57306287593509 ], [ -56.835760593966235, -22.113762501748358 ], [ -56.59469220808333, -21.695791408142409 ], [ -56.078378748795558, -21.735273194637976 ], [ -55.800692034419576, -22.192809759767435 ] ] ] ] } },
{ "type": "Feature", "properties": { "geogrid_id": "7422236511060183934", "seqnum": 12904.0, "lat_c": -22.236511371680578, "lon_c": -60.183934488198773, "res": 8.0, "count_Reptiles": 38, "count_Ferns": 0, "count_Flowering Plants": 66, "count_Mammals": 52, "count_Birds": 177, "count_Basidiomycota": 1, "count_Sac Fungi": 1, "count_Amphibians": 17, "count_Arachnids": 11, "count_Insects": 65, "count_Molluscs": 0, "count_Mosses": 0, "count_Gymnosperms": 0, "unique_species_count": 428.0, "countryCode": "PY" }, "geometry": { "type": "MultiPolygon", "coordinates": [ [ [ [ -59.667195412559451, -22.291565089532767 ], [ -59.915914102418149, -22.703814489522436 ], [ -60.433664625215059, -22.647654225465548 ], [ -60.700156437131845, -22.178884152364088 ], [ -60.450648275994681, -21.768695325721929 ], [ -59.935390490804338, -21.825201758834027 ], [ -59.667195412559451, -22.291565089532767 ] ] ] ] } },
{ "type": "Feature", "properties": { "geogrid_id": "7422394346058632429", "seqnum": 12987.0, "lat_c": -22.394345603370059, "lon_c": -58.632428821908597, "res": 8.0, "count_Reptiles": 2, "count_Ferns": 0, "count_Flowering Plants": 0, "count_Mammals": 7, "count_Birds": 1, "count_Basidiomycota": 0, "count_Sac Fungi": 0, "count_Amphibians": 6, "count_Arachnids": 0, "count_Insects": 2, "count_Molluscs": 0, "count_Mosses": 0, "count_Gymnosperms": 0, "unique_species_count": 18.0, "countryCode": "PY" }, "geometry": { "type": "MultiPolygon", "coordinates": [ [ [ [ -58.114517437173639, -22.442255704986486 ], [ -58.360022138525572, -22.857753519659003 ], [ -58.879034053250109, -22.808773968736816 ], [ -59.150006532095816, -22.344145084554206 ], [ -58.903484121403714, -21.930624882645798 ], [ -58.386962434193975, -21.979738945976564 ], [ -58.114517437173639, -22.442255704986486 ] ] ] ] } },
{ "type": "Feature", "properties": { "geogrid_id": "7422396119062498400", "seqnum": 12820.0, "lat_c": -22.396119490025164, "lon_c": -62.498400056164577, "res": 8.0, "count_Reptiles": 0, "count_Ferns": 0, "count_Flowering Plants": 2, "count_Mammals": 14, "count_Birds": 2, "count_Basidiomycota": 0, "count_Sac Fungi": 0, "count_Amphibians": 0, "count_Arachnids": 0, "count_Insects": 2, "count_Molluscs": 0, "count_Mosses": 0, "count_Gymnosperms": 0, "unique_species_count": 20.0, "countryCode": "PY" }, "geometry": { "type": "MultiPolygon", "coordinates": [ [ [ [ -61.983320897026054, -22.463257007033242 ], [ -62.237174039217521, -22.870892871581294 ], [ -62.753155989779849, -22.80263158821765 ], [ -63.012584914922741, -22.325946539007074 ], [ -62.758270565417298, -21.920429614708937 ], [ -62.244938618501735, -21.989472772272094 ], [ -61.983320897026054, -22.463257007033242 ] ] ] ] } },
{ "type": "Feature", "properties": { "geogrid_id": "7422531537057077888", "seqnum": 13070.0, "lat_c": -22.531536859632368, "lon_c": -57.077888014847005, "res": 8.0, "count_Reptiles": 3, "count_Ferns": 0, "count_Flowering Plants": 12, "count_Mammals": 12, "count_Birds": 27, "count_Basidiomycota": 0, "count_Sac Fungi": 0, "count_Amphibians": 0, "count_Arachnids": 2, "count_Insects": 11, "count_Molluscs": 0, "count_Mosses": 0, "count_Gymnosperms": 0, "unique_species_count": 67.0, "countryCode": "PY" }, "geometry": { "type": "MultiPolygon", "coordinates": [ [ [ [ -56.559255322249662, -22.57306287593509 ], [ -56.801293428061499, -22.991674400932705 ], [ -57.321108245933146, -22.949127287699589 ], [ -57.596322194945074, -22.487959581912698 ], [ -57.353054209601247, -22.071224686244825 ], [ -56.835760593966235, -22.113762501748358 ], [ -56.559255322249662, -22.57306287593509 ] ] ] ] } },
{ "type": "Feature", "properties": { "geogrid_id": "7422588911060950867", "seqnum": 12903.0, "lat_c": -22.588911371490433, "lon_c": -60.950866992044844, "res": 8.0, "count_Reptiles": 1, "count_Ferns": 0, "count_Flowering Plants": 1, "count_Mammals": 1, "count_Birds": 0, "count_Basidiomycota": 0, "count_Sac Fungi": 0, "count_Amphibians": 0, "count_Arachnids": 0, "count_Insects": 2, "count_Molluscs": 0, "count_Mosses": 0, "count_Gymnosperms": 0, "unique_species_count": 5.0, "countryCode": "PY" }, "geometry": { "type": "MultiPolygon", "coordinates": [ [ [ [ -60.433664625215059, -22.647654225465548 ], [ -60.68461996190495, -23.058640404947123 ], [ -61.202819603538359, -22.998786580153531 ], [ -61.467446466308793, -22.527482222098964 ], [ -61.215787014467608, -22.118577751556973 ], [ -60.700156437131845, -22.178884152364088 ], [ -60.433664625215059, -22.647654225465548 ] ] ] ] } },
{ "type": "Feature", "properties": { "geogrid_id": "7422650243055521536", "seqnum": 39397.0, "lat_c": -22.650242587370894, "lon_c": -55.521535809457376, "res": 8.0, "count_Reptiles": 0, "count_Ferns": 0, "count_Flowering Plants": 44, "count_Mammals": 3, "count_Birds": 14, "count_Basidiomycota": 1, "count_Sac Fungi": 0, "count_Amphibians": 1, "count_Arachnids": 6, "count_Insects": 52, "count_Molluscs": 0, "count_Mosses": 0, "count_Gymnosperms": 0, "unique_species_count": 121.0, "countryCode": "PY" }, "geometry": { "type": "MultiPolygon", "coordinates": [ [ [ [ -55.00842549535308, -22.688984284034653 ], [ -55.253089744149442, -23.113565417005272 ], [ -55.76737647002151, -23.073929826907193 ], [ -56.040460417209104, -22.612608941517237 ], [ -55.800692034419576, -22.192809759767435 ], [ -55.282983907036297, -22.229459602492703 ], [ -55.00842549535308, -22.688984284034653 ] ] ] ] } },
{ "type": "Feature", "properties": { "geogrid_id": "7422757490059397683", "seqnum": 12986.0, "lat_c": -22.757490178990501, "lon_c": -59.397683352690983, "res": 8.0, "count_Reptiles": 15, "count_Ferns": 0, "count_Flowering Plants": 33, "count_Mammals": 39, "count_Birds": 156, "count_Basidiomycota": 0, "count_Sac Fungi": 0, "count_Amphibians": 6, "count_Arachnids": 3, "count_Insects": 48, "count_Molluscs": 1, "count_Mosses": 0, "count_Gymnosperms": 0, "unique_species_count": 301.0, "countryCode": "PY" }, "geometry": { "type": "MultiPolygon", "coordinates": [ [ [ [ -58.879034053250109, -22.808773968736816 ], [ -59.126815216738173, -23.223035334819237 ], [ -59.646552352503825, -23.170671096883055 ], [ -59.915914102418149, -22.703814489522436 ], [ -59.667195412559451, -22.291565089532767 ], [ -59.150006532095816, -22.344145084554206 ], [ -58.879034053250109, -22.808773968736816 ] ] ] ] } },
{ "type": "Feature", "properties": { "geogrid_id": "7422904512057840698", "seqnum": 13069.0, "lat_c": -22.904511783534677, "lon_c": -57.840698266488445, "res": 8.0, "count_Reptiles": 3, "count_Ferns": 0, "count_Flowering Plants": 9, "count_Mammals": 9, "count_Birds": 33, "count_Basidiomycota": 0, "count_Sac Fungi": 5, "count_Amphibians": 5, "count_Arachnids": 1, "count_Insects": 18, "count_Molluscs": 1, "count_Mosses": 0, "count_Gymnosperms": 0, "unique_species_count": 84.0, "countryCode": "PY" }, "geometry": { "type": "MultiPolygon", "coordinates": [ [ [ [ -57.321108245933146, -22.949127287699589 ], [ -57.565456229741024, -23.36654594191684 ], [ -58.08621809648794, -23.320893194374104 ], [ -58.360022138525572, -22.857753519659003 ], [ -58.114517437173639, -22.442255704986486 ], [ -57.596322194945074, -22.487959581912698 ], [ -57.321108245933146, -22.949127287699589 ] ] ] ] } },
{ "type": "Feature", "properties": { "geogrid_id": "7422936240061720365", "seqnum": 12902.0, "lat_c": -22.936239932376186, "lon_c": -61.720365117532559, "res": 8.0, "count_Reptiles": 0, "count_Ferns": 0, "count_Flowering Plants": 0, "count_Mammals": 8, "count_Birds": 0, "count_Basidiomycota": 0, "count_Sac Fungi": 0, "count_Amphibians": 0, "count_Arachnids": 0, "count_Insects": 0, "count_Molluscs": 0, "count_Mosses": 0, "count_Gymnosperms": 0, "unique_species_count": 8.0, "countryCode": "PY" }, "geometry": { "type": "MultiPolygon", "coordinates": [ [ [ [ -61.202819603538359, -22.998786580153531 ], [ -61.456054901864775, -23.408518699688386 ], [ -61.974584139228519, -23.344859273864913 ], [ -62.237174039217521, -22.870892871581294 ], [ -61.983320897026054, -22.463257007033242 ], [ -61.467446466308793, -22.527482222098964 ], [ -61.202819603538359, -22.998786580153531 ] ] ] ] } },
{ "type": "Feature", "properties": { "geogrid_id": "7423032224056281291", "seqnum": 39396.0, "lat_c": -23.032223586122953, "lon_c": -56.281291062708256, "res": 8.0, "count_Reptiles": 1, "count_Ferns": 0, "count_Flowering Plants": 17, "count_Mammals": 9, "count_Birds": 55, "count_Basidiomycota": 0, "count_Sac Fungi": 0, "count_Amphibians": 4, "count_Arachnids": 6, "count_Insects": 59, "count_Molluscs": 2, "count_Mosses": 0, "count_Gymnosperms": 0, "unique_species_count": 153.0, "countryCode": "PY" }, "geometry": { "type": "MultiPolygon", "coordinates": [ [ [ [ -55.76737647002151, -23.073929826907193 ], [ -56.014634313824544, -23.497492262671056 ], [ -56.529727590270127, -23.454852752565241 ], [ -56.801293428061499, -22.991674400932705 ], [ -56.559255322249662, -22.57306287593509 ], [ -56.040460417209104, -22.612608941517237 ], [ -55.76737647002151, -23.073929826907193 ] ] ] ] } },
{ "type": "Feature", "properties": { "geogrid_id": "7423115903060165841", "seqnum": 12985.0, "lat_c": -23.115903156180671, "lon_c": -60.165841380069608, "res": 8.0, "count_Reptiles": 3, "count_Ferns": 0, "count_Flowering Plants": 4, "count_Mammals": 7, "count_Birds": 8, "count_Basidiomycota": 0, "count_Sac Fungi": 1, "count_Amphibians": 8, "count_Arachnids": 2, "count_Insects": 7, "count_Molluscs": 1, "count_Mosses": 0, "count_Gymnosperms": 0, "unique_species_count": 41.0, "countryCode": "PY" }, "geometry": { "type": "MultiPolygon", "coordinates": [ [ [ [ -59.646552352503825, -23.170671096883055 ], [ -59.896652353322338, -23.583698101285052 ], [ -60.417016697582135, -23.527840945407807 ], [ -60.68461996190495, -23.058640404947123 ], [ -60.433664625215059, -22.647654225465548 ], [ -59.915914102418149, -22.703814489522436 ], [ -59.646552352503825, -23.170671096883055 ] ] ] ] } },
{ "type": "Feature", "properties": { "geogrid_id": "7423273082058606687", "seqnum": 13068.0, "lat_c": -23.273082132053684, "lon_c": -58.606686645187771, "res": 8.0, "count_Reptiles": 20, "count_Ferns": 90, "count_Flowering Plants": 1942, "count_Mammals": 24, "count_Birds": 42, "count_Basidiomycota": 0, "count_Sac Fungi": 14, "count_Amphibians": 14, "count_Arachnids": 0, "count_Insects": 8, "count_Molluscs": 0, "count_Mosses": 44, "count_Gymnosperms": 0, "unique_species_count": 2198.0, "countryCode": "PY" }, "geometry": { "type": "MultiPolygon", "coordinates": [ [ [ [ -58.08621809648794, -23.320893194374104 ], [ -58.332918489457512, -23.737115077160386 ], [ -58.854548452243968, -23.68825250691803 ], [ -59.126815216738173, -23.223035334819237 ], [ -58.879034053250109, -22.808773968736816 ], [ -58.360022138525572, -22.857753519659003 ], [ -58.08621809648794, -23.320893194374104 ] ] ] ] } },
{ "type": "Feature", "properties": { "geogrid_id": "7423410114057044443", "seqnum": 39395.0, "lat_c": -23.410113766619187, "lon_c": -57.044443282056669, "res": 8.0, "count_Reptiles": 3, "count_Ferns": 0, "count_Flowering Plants": 21, "count_Mammals": 11, "count_Birds": 57, "count_Basidiomycota": 0, "count_Sac Fungi": 0, "count_Amphibians": 8, "count_Arachnids": 2, "count_Insects": 56, "count_Molluscs": 0, "count_Mosses": 0, "count_Gymnosperms": 0, "unique_species_count": 158.0, "countryCode": "PY" }, "geometry": { "type": "MultiPolygon", "coordinates": [ [ [ [ -56.529727590270127, -23.454852752565241 ], [ -56.779557049884602, -23.877354036544983 ], [ -57.295454288399554, -23.831642512384548 ], [ -57.565456229741024, -23.36654594191684 ], [ -57.321108245933146, -22.949127287699589 ], [ -56.801293428061499, -22.991674400932705 ], [ -56.529727590270127, -23.454852752565241 ] ] ] ] } },
{ "type": "Feature", "properties": { "geogrid_id": "7423469479060936841", "seqnum": 12984.0, "lat_c": -23.469479319236541, "lon_c": -60.936840554307203, "res": 8.0, "count_Reptiles": 0, "count_Ferns": 0, "count_Flowering Plants": 1, "count_Mammals": 0, "count_Birds": 2, "count_Basidiomycota": 0, "count_Sac Fungi": 0, "count_Amphibians": 0, "count_Arachnids": 0, "count_Insects": 1, "count_Molluscs": 0, "count_Mosses": 0, "count_Gymnosperms": 0, "unique_species_count": 4.0, "countryCode": "PY" }, "geometry": { "type": "MultiPolygon", "coordinates": [ [ [ [ -60.417016697582135, -23.527840945407807 ], [ -60.66948053631905, -23.939637064979951 ], [ -61.190367461691373, -23.880179727241803 ], [ -61.456054901864775, -23.408518699688386 ], [ -61.202819603538359, -22.998786580153531 ], [ -60.68461996190495, -23.058640404947123 ], [ -60.417016697582135, -23.527840945407807 ] ] ] ] } },
{ "type": "Feature", "properties": { "geogrid_id": "7423538040055499163", "seqnum": 39478.0, "lat_c": -23.538039536790389, "lon_c": -55.49916270596615, "res": 8.0, "count_Reptiles": 0, "count_Ferns": 0, "count_Flowering Plants": 10, "count_Mammals": 2, "count_Birds": 0, "count_Basidiomycota": 1, "count_Sac Fungi": 0, "count_Amphibians": 0, "count_Arachnids": 0, "count_Insects": 12, "count_Molluscs": 0, "count_Mosses": 0, "count_Gymnosperms": 0, "unique_species_count": 25.0, "countryCode": "PY" }, "geometry": { "type": "MultiPolygon", "coordinates": [ [ [ [ -54.98331176924507, -23.576502472488833 ], [ -55.229560615418563, -24.001792976951762 ], [ -55.746610859452417, -23.96242224450064 ], [ -56.014634313824544, -23.497492262671056 ], [ -55.76737647002151, -23.073929826907193 ], [ -55.253089744149442, -23.113565417005272 ], [ -54.98331176924507, -23.576502472488833 ] ] ] ] } },
{ "type": "Feature", "properties": { "geogrid_id": "7423637140059375810", "seqnum": 13067.0, "lat_c": -23.637140333727729, "lon_c": -59.375810480820178, "res": 8.0, "count_Reptiles": 1, "count_Ferns": 0, "count_Flowering Plants": 3, "count_Mammals": 5, "count_Birds": 1, "count_Basidiomycota": 0, "count_Sac Fungi": 0, "count_Amphibians": 1, "count_Arachnids": 0, "count_Insects": 15, "count_Molluscs": 0, "count_Mosses": 0, "count_Gymnosperms": 0, "unique_species_count": 26.0, "countryCode": "PY" }, "geometry": { "type": "MultiPolygon", "coordinates": [ [ [ [ -58.854548452243968, -23.68825250691803 ], [ -59.103646159622087, -24.10327497985962 ], [ -59.626059094248497, -24.051098960183314 ], [ -59.896652353322338, -23.583698101285052 ], [ -59.646552352503825, -23.170671096883055 ], [ -59.126815216738173, -23.223035334819237 ], [ -58.854548452243968, -23.68825250691803 ] ] ] ] } },
{ "type": "Feature", "properties": { "geogrid_id": "7423783804057810968", "seqnum": 39394.0, "lat_c": -23.783804354604527, "lon_c": -57.81096806285683, "res": 8.0, "count_Reptiles": 0, "count_Ferns": 0, "count_Flowering Plants": 1, "count_Mammals": 1, "count_Birds": 0, "count_Basidiomycota": 0, "count_Sac Fungi": 0, "count_Amphibians": 2, "count_Arachnids": 0, "count_Insects": 1, "count_Molluscs": 0, "count_Mosses": 0, "count_Gymnosperms": 0, "unique_species_count": 5.0, "countryCode": "PY" }, "geometry": { "type": "MultiPolygon", "coordinates": [ [ [ [ -57.295454288399554, -23.831642512384548 ], [ -57.547829544705969, -24.253039887255976 ], [ -58.064528388611507, -24.204190081574886 ], [ -58.332918489457512, -23.737115077160386 ], [ -58.08621809648794, -23.320893194374104 ], [ -57.565456229741024, -23.36654594191684 ], [ -57.295454288399554, -23.831642512384548 ] ] ] ] } },
{ "type": "Feature", "properties": { "geogrid_id": "7423920945056263276", "seqnum": 39477.0, "lat_c": -23.920945044835843, "lon_c": -56.263276078019267, "res": 8.0, "count_Reptiles": 15, "count_Ferns": 1, "count_Flowering Plants": 19, "count_Mammals": 10, "count_Birds": 89, "count_Basidiomycota": 0, "count_Sac Fungi": 0, "count_Amphibians": 10, "count_Arachnids": 0, "count_Insects": 108, "count_Molluscs": 0, "count_Mosses": 1, "count_Gymnosperms": 0, "unique_species_count": 253.0, "countryCode": "PY" }, "geometry": { "type": "MultiPolygon", "coordinates": [ [ [ [ -55.746610859452417, -23.96242224450064 ], [ -55.995395099433914, -24.386729560008021 ], [ -56.513263019268621, -24.344303740401383 ], [ -56.779557049884602, -23.877354036544983 ], [ -56.529727590270127, -23.454852752565241 ], [ -56.014634313824544, -23.497492262671056 ], [ -55.746610859452417, -23.96242224450064 ] ] ] ] } },
{ "type": "Feature", "properties": { "geogrid_id": "7423996581060148023", "seqnum": 13066.0, "lat_c": -23.996580811465222, "lon_c": -60.148023231993207, "res": 8.0, "count_Reptiles": 2, "count_Ferns": 0, "count_Flowering Plants": 0, "count_Mammals": 2, "count_Birds": 7, "count_Basidiomycota": 0, "count_Sac Fungi": 0, "count_Amphibians": 0, "count_Arachnids": 0, "count_Insects": 0, "count_Molluscs": 0, "count_Mosses": 0, "count_Gymnosperms": 0, "unique_species_count": 11.0, "countryCode": "PY" }, "geometry": { "type": "MultiPolygon", "coordinates": [ [ [ [ -59.626059094248497, -24.051098960183314 ], [ -59.877601390521214, -24.464920592825873 ], [ -60.400705926896755, -24.409328224936306 ], [ -60.66948053631905, -23.939637064979951 ], [ -60.417016697582135, -23.527840945407807 ], [ -59.896652353322338, -23.583698101285052 ], [ -59.626059094248497, -24.051098960183314 ] ] ] ] } },
{ "type": "Feature", "properties": { "geogrid_id": "7424039065054712124", "seqnum": 39560.0, "lat_c": -24.039065266749461, "lon_c": -54.712124280288883, "res": 8.0, "count_Reptiles": 3, "count_Ferns": 1, "count_Flowering Plants": 19, "count_Mammals": 0, "count_Birds": 12, "count_Basidiomycota": 0, "count_Sac Fungi": 0, "count_Amphibians": 1, "count_Arachnids": 0, "count_Insects": 10, "count_Molluscs": 0, "count_Mosses": 0, "count_Gymnosperms": 0, "unique_species_count": 46.0, "countryCode": "PY" }, "geometry": { "type": "MultiPolygon", "coordinates": [ [ [ [ -54.194300480133052, -24.074247875379591 ], [ -54.439445416847136, -24.501266057433735 ], [ -54.958487290743328, -24.465202927854779 ], [ -55.229560615418563, -24.001792976951762 ], [ -54.98331176924507, -23.576502472488833 ], [ -54.46708023628198, -23.61288967549871 ], [ -54.194300480133052, -24.074247875379591 ] ] ] ] } },
{ "type": "Feature", "properties": { "geogrid_id": "7424153188058580837", "seqnum": 39393.0, "lat_c": -24.153188079919502, "lon_c": -58.580837375666889, "res": 8.0, "count_Reptiles": 5, "count_Ferns": 0, "count_Flowering Plants": 10, "count_Mammals": 18, "count_Birds": 38, "count_Basidiomycota": 0, "count_Sac Fungi": 0, "count_Amphibians": 1, "count_Arachnids": 0, "count_Insects": 19, "count_Molluscs": 0, "count_Mosses": 0, "count_Gymnosperms": 0, "unique_species_count": 91.0, "countryCode": "PY" }, "geometry": { "type": "MultiPolygon", "coordinates": [ [ [ [ -58.064528388611507, -24.204190081574886 ], [ -58.319419702801319, -24.624440618930901 ], [ -58.836918011363004, -24.5723880677339 ], [ -59.103646159622087, -24.10327497985962 ], [ -58.854548452243968, -23.68825250691803 ], [ -58.332918489457512, -23.737115077160386 ], [ -58.064528388611507, -24.204190081574886 ] ] ] ] } },
{ "type": "Feature", "properties": { "geogrid_id": "7424299743057030741", "seqnum": 39476.0, "lat_c": -24.299742572598319, "lon_c": -57.030741085349739, "res": 8.0, "count_Reptiles": 5, "count_Ferns": 0, "count_Flowering Plants": 1, "count_Mammals": 17, "count_Birds": 9, "count_Basidiomycota": 0, "count_Sac Fungi": 1, "count_Amphibians": 5, "count_Arachnids": 1, "count_Insects": 12, "count_Molluscs": 0, "count_Mosses": 0, "count_Gymnosperms": 0, "unique_species_count": 51.0, "countryCode": "PY" }, "geometry": { "type": "MultiPolygon", "coordinates": [ [ [ [ -56.513263019268621, -24.344303740401383 ], [ -56.764550377788474, -24.767584346196767 ], [ -57.283235443666825, -24.722033926062167 ], [ -57.547829544705969, -24.253039887255976 ], [ -57.295454288399554, -23.831642512384548 ], [ -56.779557049884602, -23.877354036544983 ], [ -56.513263019268621, -24.344303740401383 ] ] ] ] } },
{ "type": "Feature", "properties": { "geogrid_id": "7424427027055477137", "seqnum": 39559.0, "lat_c": -24.427026810458244, "lon_c": -55.477136799630586, "res": 8.0, "count_Reptiles": 19, "count_Ferns": 2, "count_Flowering Plants": 41, "count_Mammals": 13, "count_Birds": 62, "count_Basidiomycota": 2, "count_Sac Fungi": 0, "count_Amphibians": 8, "count_Arachnids": 10, "count_Insects": 271, "count_Molluscs": 0, "count_Mosses": 5, "count_Gymnosperms": 0, "unique_species_count": 433.0, "countryCode": "PY" }, "geometry": { "type": "MultiPolygon", "coordinates": [ [ [ [ -54.958487290743328, -24.465202927854779 ], [ -55.206123148365108, -24.89132008416804 ], [ -55.7259946253143, -24.852220898430396 ], [ -55.995395099433914, -24.386729560008021 ], [ -55.746610859452417, -23.96242224450064 ], [ -55.229560615418563, -24.001792976951762 ], [ -54.958487290743328, -24.465202927854779 ] ] ] ] } },
{ "type": "Feature", "properties": { "geogrid_id": "7424518159059354019", "seqnum": 39392.0, "lat_c": -24.518159282454729, "lon_c": -59.354019471815782, "res": 8.0, "count_Reptiles": 0, "count_Ferns": 0, "count_Flowering Plants": 0, "count_Mammals": 1, "count_Birds": 5, "count_Basidiomycota": 0, "count_Sac Fungi": 0, "count_Amphibians": 0, "count_Arachnids": 0, "count_Insects": 0, "count_Molluscs": 0, "count_Mosses": 0, "count_Gymnosperms": 0, "unique_species_count": 6.0, "countryCode": "PY" }, "geometry": { "type": "MultiPolygon", "coordinates": [ [ [ [ -58.836918011363004, -24.5723880677339 ], [ -59.094291648348737, -24.991448802668458 ], [ -59.612587482038691, -24.936130819584655 ], [ -59.877601390521214, -24.464920592825873 ], [ -59.626059094248497, -24.051098960183314 ], [ -59.103646159622087, -24.10327497985962 ], [ -58.836918011363004, -24.5723880677339 ] ] ] ] } },
{ "type": "Feature", "properties": { "geogrid_id": "7424535225053920010", "seqnum": 39642.0, "lat_c": -24.53522511089696, "lon_c": -53.920009671210202, "res": 8.0, "count_Reptiles": 0, "count_Ferns": 0, "count_Flowering Plants": 0, "count_Mammals": 0, "count_Birds": 0, "count_Basidiomycota": 0, "count_Sac Fungi": 0, "count_Amphibians": 0, "count_Arachnids": 0, "count_Insects": 1, "count_Molluscs": 0, "count_Mosses": 0, "count_Gymnosperms": 0, "unique_species_count": 1.0, "countryCode": "PY" }, "geometry": { "type": "MultiPolygon", "coordinates": [ [ [ [ -53.4001781723424, -24.567089829635172 ], [ -53.644122341874549, -24.995833922298026 ], [ -54.165188474869758, -24.963117940227168 ], [ -54.439445416847136, -24.501266057433735 ], [ -54.194300480133052, -24.074247875379591 ], [ -53.676087511418032, -24.107350360387802 ], [ -53.4001781723424, -24.567089829635172 ] ] ] ] } },
{ "type": "Feature", "properties": { "geogrid_id": "7424674321057801525", "seqnum": 39475.0, "lat_c": -24.674321045176168, "lon_c": -57.801525325913339, "res": 8.0, "count_Reptiles": 4, "count_Ferns": 0, "count_Flowering Plants": 38, "count_Mammals": 20, "count_Birds": 109, "count_Basidiomycota": 0, "count_Sac Fungi": 0, "count_Amphibians": 4, "count_Arachnids": 1, "count_Insects": 17, "count_Molluscs": 0, "count_Mosses": 0, "count_Gymnosperms": 0, "unique_species_count": 193.0, "countryCode": "PY" }, "geometry": { "type": "MultiPolygon", "coordinates": [ [ [ [ -57.283235443666825, -24.722033926062167 ], [ -57.536989405656996, -25.144244107018885 ], [ -58.0564915778101, -25.095501588805046 ], [ -58.319419702801319, -24.624440618930901 ], [ -58.064528388611507, -24.204190081574886 ], [ -57.547829544705969, -24.253039887255976 ], [ -57.283235443666825, -24.722033926062167 ] ] ] ] } },
{ "type": "Feature", "properties": { "geogrid_id": "7424810978056245470", "seqnum": 39558.0, "lat_c": -24.810977933043141, "lon_c": -56.245470183765626, "res": 8.0, "count_Reptiles": 4, "count_Ferns": 0, "count_Flowering Plants": 14, "count_Mammals": 6, "count_Birds": 1, "count_Basidiomycota": 0, "count_Sac Fungi": 0, "count_Amphibians": 1, "count_Arachnids": 1, "count_Insects": 15, "count_Molluscs": 0, "count_Mosses": 0, "count_Gymnosperms": 0, "unique_species_count": 42.0, "countryCode": "PY" }, "geometry": { "type": "MultiPolygon", "coordinates": [ [ [ [ -55.7259946253143, -24.852220898430396 ], [ -55.976081509374318, -25.27739260446905 ], [ -56.496784125236523, -25.235184252661973 ], [ -56.764550377788474, -24.767584346196767 ], [ -56.513263019268621, -24.344303740401383 ], [ -55.995395099433914, -24.386729560008021 ], [ -55.7259946253143, -24.852220898430396 ] ] ] ] } },
{ "type": "Feature", "properties": { "geogrid_id": "7424928283054685855", "seqnum": 39641.0, "lat_c": -24.928283012253676, "lon_c": -54.68585485463467, "res": 8.0, "count_Reptiles": 10, "count_Ferns": 1, "count_Flowering Plants": 22, "count_Mammals": 11, "count_Birds": 24, "count_Basidiomycota": 0, "count_Sac Fungi": 0, "count_Amphibians": 1, "count_Arachnids": 14, "count_Insects": 82, "count_Molluscs": 3, "count_Mosses": 3, "count_Gymnosperms": 0, "unique_species_count": 171.0, "countryCode": "PY" }, "geometry": { "type": "MultiPolygon", "coordinates": [ [ [ [ -54.165188474869758, -24.963117940227168 ], [ -54.411569753278656, -25.391047795624083 ], [ -54.933475114968765, -25.355317130778136 ], [ -55.206123148365108, -24.89132008416804 ], [ -54.958487290743328, -24.465202927854779 ], [ -54.439445416847136, -24.501266057433735 ], [ -54.165188474869758, -24.963117940227168 ] ] ] ] } },
{ "type": "Feature", "properties": { "geogrid_id": "7425044571058575593", "seqnum": 39474.0, "lat_c": -25.044571181431085, "lon_c": -58.575592632460506, "res": 8.0, "count_Reptiles": 0, "count_Ferns": 0, "count_Flowering Plants": 0, "count_Mammals": 0, "count_Birds": 1, "count_Basidiomycota": 0, "count_Sac Fungi": 0, "count_Amphibians": 1, "count_Arachnids": 0, "count_Insects": 1, "count_Molluscs": 0, "count_Mosses": 0, "count_Gymnosperms": 0, "unique_species_count": 3.0, "countryCode": "PY" }, "geometry": { "type": "MultiPolygon", "coordinates": [ [ [ [ -58.0564915778101, -25.095501588805046 ], [ -58.31267131348352, -25.51659758470792 ], [ -58.832991027399117, -25.464597454782538 ], [ -59.094291648348737, -24.991448802668458 ], [ -58.836918011363004, -24.5723880677339 ], [ -58.319419702801319, -24.624440618930901 ], [ -58.0564915778101, -25.095501588805046 ] ] ] ] } },
{ "type": "Feature", "properties": { "geogrid_id": "7425190803057017087", "seqnum": 39557.0, "lat_c": -25.190803300618335, "lon_c": -57.017086788914852, "res": 8.0, "count_Reptiles": 32, "count_Ferns": 3, "count_Flowering Plants": 223, "count_Mammals": 31, "count_Birds": 171, "count_Basidiomycota": 42, "count_Sac Fungi": 122, "count_Amphibians": 24, "count_Arachnids": 41, "count_Insects": 294, "count_Molluscs": 0, "count_Mosses": 2, "count_Gymnosperms": 0, "unique_species_count": 985.0, "countryCode": "PY" }, "geometry": { "type": "MultiPolygon", "coordinates": [ [ [ [ -56.496784125236523, -25.235184252661973 ], [ -56.749277522828976, -25.659365854626998 ], [ -57.270813636839819, -25.613977493707377 ], [ -57.536989405656996, -25.144244107018885 ], [ -57.283235443666825, -24.722033926062167 ], [ -56.764550377788474, -24.767584346196767 ], [ -56.496784125236523, -25.235184252661973 ] ] ] ] } },
{ "type": "Feature", "properties": { "geogrid_id": "7425317435055454979", "seqnum": 39640.0, "lat_c": -25.31743459934648, "lon_c": -55.454978704848209, "res": 8.0, "count_Reptiles": 0, "count_Ferns": 2, "count_Flowering Plants": 14, "count_Mammals": 4, "count_Birds": 12, "count_Basidiomycota": 0, "count_Sac Fungi": 1, "count_Amphibians": 0, "count_Arachnids": 1, "count_Insects": 21, "count_Molluscs": 0, "count_Mosses": 0, "count_Gymnosperms": 0, "unique_species_count": 55.0, "countryCode": "PY" }, "geometry": { "type": "MultiPolygon", "coordinates": [ [ [ [ -54.933475114968765, -25.355317130778136 ], [ -55.182244606205764, -25.782387242650849 ], [ -55.704993066847628, -25.743564777088341 ], [ -55.976081509374318, -25.27739260446905 ], [ -55.7259946253143, -24.852220898430396 ], [ -55.206123148365108, -24.89132008416804 ], [ -54.933475114968765, -25.355317130778136 ] ] ] ] } },
{ "type": "Feature", "properties": { "geogrid_id": "7425566390057791945", "seqnum": 39556.0, "lat_c": -25.566389582977884, "lon_c": -57.791945161420799, "res": 8.0, "count_Reptiles": 31, "count_Ferns": 3, "count_Flowering Plants": 292, "count_Mammals": 22, "count_Birds": 188, "count_Basidiomycota": 20, "count_Sac Fungi": 18, "count_Amphibians": 24, "count_Arachnids": 42, "count_Insects": 242, "count_Molluscs": 7, "count_Mosses": 0, "count_Gymnosperms": 0, "unique_species_count": 889.0, "countryCode": "PY" }, "geometry": { "type": "MultiPolygon", "coordinates": [ [ [ [ -57.270813636839819, -25.613977493707377 ], [ -57.525664344591938, -26.037124275093014 ], [ -58.048037125078402, -25.98848728988315 ], [ -58.31267131348352, -25.51659758470792 ], [ -58.0564915778101, -25.095501588805046 ], [ -57.536989405656996, -25.144244107018885 ], [ -57.270813636839819, -25.613977493707377 ] ] ] ] } },
{ "type": "Feature", "properties": { "geogrid_id": "7425702560056227337", "seqnum": 39639.0, "lat_c": -25.702559734951983, "lon_c": -56.227337290201113, "res": 8.0, "count_Reptiles": 8, "count_Ferns": 5, "count_Flowering Plants": 76, "count_Mammals": 8, "count_Birds": 32, "count_Basidiomycota": 3, "count_Sac Fungi": 7, "count_Amphibians": 1, "count_Arachnids": 8, "count_Insects": 282, "count_Molluscs": 11, "count_Mosses": 2, "count_Gymnosperms": 0, "unique_species_count": 443.0, "countryCode": "PY" }, "geometry": { "type": "MultiPolygon", "coordinates": [ [ [ [ -55.704993066847628, -25.743564777088341 ], [ -55.95609680607329, -26.169729359140444 ], [ -56.47969346535313, -26.127740540471187 ], [ -56.749277522828976, -25.659365854626998 ], [ -56.496784125236523, -25.235184252661973 ], [ -55.976081509374318, -25.27739260446905 ], [ -55.704993066847628, -25.743564777088341 ] ] ] ] } },
{ "type": "Feature", "properties": { "geogrid_id": "7425819034054659091", "seqnum": 39722.0, "lat_c": -25.819034063332158, "lon_c": -54.659091254877687, "res": 8.0, "count_Reptiles": 9, "count_Ferns": 4, "count_Flowering Plants": 96, "count_Mammals": 23, "count_Birds": 101, "count_Basidiomycota": 4, "count_Sac Fungi": 4, "count_Amphibians": 7, "count_Arachnids": 7, "count_Insects": 78, "count_Molluscs": 0, "count_Mosses": 1, "count_Gymnosperms": 1, "unique_species_count": 335.0, "countryCode": "PY" }, "geometry": { "type": "MultiPolygon", "coordinates": [ [ [ [ -54.135531919458593, -25.853512897236296 ], [ -54.382862460656185, -26.282488159098701 ], [ -54.907681797595593, -26.247096559433515 ], [ -55.182244606205764, -25.782387242650849 ], [ -54.933475114968765, -25.355317130778136 ], [ -54.411569753278656, -25.391047795624083 ], [ -54.135531919458593, -25.853512897236296 ] ] ] ] } },
{ "type": "Feature", "properties": { "geogrid_id": "7426083541057002883", "seqnum": 39638.0, "lat_c": -26.083540526158462, "lon_c": -57.002882826021626, "res": 8.0, "count_Reptiles": 18, "count_Ferns": 5, "count_Flowering Plants": 87, "count_Mammals": 29, "count_Birds": 114, "count_Basidiomycota": 5, "count_Sac Fungi": 9, "count_Amphibians": 10, "count_Arachnids": 14, "count_Insects": 141, "count_Molluscs": 3, "count_Mosses": 1, "count_Gymnosperms": 0, "unique_species_count": 436.0, "countryCode": "PY" }, "geometry": { "type": "MultiPolygon", "coordinates": [ [ [ [ -56.47969346535313, -26.127740540471187 ], [ -56.733072351441464, -26.552953713370069 ], [ -57.257523525143689, -26.507726507405749 ], [ -57.525664344591938, -26.037124275093014 ], [ -57.270813636839819, -25.613977493707377 ], [ -56.749277522828976, -25.659365854626998 ], [ -56.47969346535313, -26.127740540471187 ] ] ] ] } },
{ "type": "Feature", "properties": { "geogrid_id": "7426209513055432093", "seqnum": 39721.0, "lat_c": -26.209512610691501, "lon_c": -55.432093005101613, "res": 8.0, "count_Reptiles": 9, "count_Ferns": 4, "count_Flowering Plants": 51, "count_Mammals": 10, "count_Birds": 106, "count_Basidiomycota": 3, "count_Sac Fungi": 0, "count_Amphibians": 23, "count_Arachnids": 13, "count_Insects": 75, "count_Molluscs": 0, "count_Mosses": 0, "count_Gymnosperms": 0, "unique_species_count": 294.0, "countryCode": "PY" }, "geometry": { "type": "MultiPolygon", "coordinates": [ [ [ [ -54.907681797595593, -26.247096559433515 ], [ -55.157260330060588, -26.675255514638664 ], [ -55.68294035215996, -26.636712920084708 ], [ -55.95609680607329, -26.169729359140444 ], [ -55.704993066847628, -25.743564777088341 ], [ -55.182244606205764, -25.782387242650849 ], [ -54.907681797595593, -26.247096559433515 ] ] ] ] } },
{ "type": "Feature", "properties": { "geogrid_id": "7426460261057781564", "seqnum": 39637.0, "lat_c": -26.460261459231493, "lon_c": -57.781563593709436, "res": 8.0, "count_Reptiles": 13, "count_Ferns": 0, "count_Flowering Plants": 23, "count_Mammals": 5, "count_Birds": 47, "count_Basidiomycota": 1, "count_Sac Fungi": 0, "count_Amphibians": 11, "count_Arachnids": 10, "count_Insects": 29, "count_Molluscs": 0, "count_Mosses": 0, "count_Gymnosperms": 0, "unique_species_count": 139.0, "countryCode": "PY" }, "geometry": { "type": "MultiPolygon", "coordinates": [ [ [ [ -57.257523525143689, -26.507726507405749 ], [ -57.513113260034316, -26.931942488863658 ], [ -58.038426466359127, -26.88340732726158 ], [ -58.305191182647945, -26.410554640951844 ], [ -58.048037125078402, -25.98848728988315 ], [ -57.525664344591938, -26.037124275093014 ], [ -57.257523525143689, -26.507726507405749 ] ] ] ] } },
{ "type": "Feature", "properties": { "geogrid_id": "7426595948056208211", "seqnum": 39720.0, "lat_c": -26.595947518739081, "lon_c": -56.208211087517917, "res": 8.0, "count_Reptiles": 12, "count_Ferns": 1, "count_Flowering Plants": 43, "count_Mammals": 11, "count_Birds": 51, "count_Basidiomycota": 2, "count_Sac Fungi": 1, "count_Amphibians": 0, "count_Arachnids": 5, "count_Insects": 43, "count_Molluscs": 1, "count_Mosses": 0, "count_Gymnosperms": 0, "unique_species_count": 170.0, "countryCode": "PY" }, "geometry": { "type": "MultiPolygon", "coordinates": [ [ [ [ -55.68294035215996, -26.636712920084708 ], [ -55.934696051322149, -27.064008261166165 ], [ -56.461246706954384, -27.022238848489557 ], [ -56.733072351441464, -26.552953713370069 ], [ -56.47969346535313, -26.127740540471187 ], [ -55.95609680607329, -26.169729359140444 ], [ -55.68294035215996, -26.636712920084708 ] ] ] ] } },
{ "type": "Feature", "properties": { "geogrid_id": "7426711582054631171", "seqnum": 39803.0, "lat_c": -26.711581551046496, "lon_c": -54.631170732433354, "res": 8.0, "count_Reptiles": 1, "count_Ferns": 0, "count_Flowering Plants": 6, "count_Mammals": 2, "count_Birds": 8, "count_Basidiomycota": 0, "count_Sac Fungi": 0, "count_Amphibians": 1, "count_Arachnids": 0, "count_Insects": 3, "count_Molluscs": 0, "count_Mosses": 0, "count_Gymnosperms": 0, "unique_species_count": 21.0, "countryCode": "PY" }, "geometry": { "type": "MultiPolygon", "coordinates": [ [ [ [ -54.104670756215356, -26.745697985845027 ], [ -54.352581392597756, -27.175862615812047 ], [ -54.880363443938172, -27.140814266129343 ], [ -55.157260330060588, -26.675255514638664 ], [ -54.907681797595593, -26.247096559433515 ], [ -54.382862460656185, -26.282488159098701 ], [ -54.104670756215356, -26.745697985845027 ] ] ] ] } },
{ "type": "Feature", "properties": { "geogrid_id": "7426832610058563324", "seqnum": 39636.0, "lat_c": -26.832609532749956, "lon_c": -58.563323866279347, "res": 8.0, "count_Reptiles": 15, "count_Ferns": 2, "count_Flowering Plants": 187, "count_Mammals": 8, "count_Birds": 96, "count_Basidiomycota": 3, "count_Sac Fungi": 0, "count_Amphibians": 13, "count_Arachnids": 15, "count_Insects": 114, "count_Molluscs": 5, "count_Mosses": 0, "count_Gymnosperms": 1, "unique_species_count": 459.0, "countryCode": "PY" }, "geometry": { "type": "MultiPolygon", "coordinates": [ [ [ [ -58.038426466359127, -26.88340732726158 ], [ -58.296157501886938, -27.306580624663344 ], [ -58.822341447354546, -27.254670347792825 ], [ -59.087803222731829, -26.779546190849064 ], [ -58.828404593051175, -26.358602601103158 ], [ -58.305191182647945, -26.410554640951844 ], [ -58.038426466359127, -26.88340732726158 ] ] ] ] } },
{ "type": "Feature", "properties": { "geogrid_id": "7426978218056987386", "seqnum": 39719.0, "lat_c": -26.978218380500746, "lon_c": -56.987386157932846, "res": 8.0, "count_Reptiles": 11, "count_Ferns": 0, "count_Flowering Plants": 21, "count_Mammals": 14, "count_Birds": 125, "count_Basidiomycota": 0, "count_Sac Fungi": 0, "count_Amphibians": 4, "count_Arachnids": 1, "count_Insects": 66, "count_Molluscs": 0, "count_Mosses": 0, "count_Gymnosperms": 0, "unique_species_count": 242.0, "countryCode": "PY" }, "geometry": { "type": "MultiPolygon", "coordinates": [ [ [ [ -56.461246706954384, -27.022238848489557 ], [ -56.71510302784818, -27.448623341503087 ], [ -57.24253596567786, -27.403554090155257 ], [ -57.513113260034316, -26.931942488863658 ], [ -57.257523525143689, -26.507726507405749 ], [ -56.733072351441464, -26.552953713370069 ], [ -56.461246706954384, -27.022238848489557 ] ] ] ] } },
{ "type": "Feature", "properties": { "geogrid_id": "7427103532055407735", "seqnum": 39802.0, "lat_c": -27.103531551769464, "lon_c": -55.407734891929429, "res": 8.0, "count_Reptiles": 12, "count_Ferns": 3, "count_Flowering Plants": 81, "count_Mammals": 22, "count_Birds": 174, "count_Basidiomycota": 1, "count_Sac Fungi": 0, "count_Amphibians": 9, "count_Arachnids": 16, "count_Insects": 147, "count_Molluscs": 0, "count_Mosses": 0, "count_Gymnosperms": 0, "unique_species_count": 465.0, "countryCode": "PY" }, "geometry": { "type": "MultiPolygon", "coordinates": [ [ [ [ -54.880363443938172, -27.140814266129343 ], [ -55.130334918885481, -27.570207839963743 ], [ -55.659001461991224, -27.531945654440225 ], [ -55.934696051322149, -27.064008261166165 ], [ -55.68294035215996, -26.636712920084708 ], [ -55.157260330060588, -26.675255514638664 ], [ -54.880363443938172, -27.140814266129343 ] ] ] ] } },
{ "type": "Feature", "properties": { "geogrid_id": "7427356208057769555", "seqnum": 39718.0, "lat_c": -27.356207603809711, "lon_c": -57.769554838425996, "res": 8.0, "count_Reptiles": 3, "count_Ferns": 0, "count_Flowering Plants": 5, "count_Mammals": 4, "count_Birds": 9, "count_Basidiomycota": 0, "count_Sac Fungi": 1, "count_Amphibians": 2, "count_Arachnids": 0, "count_Insects": 13, "count_Molluscs": 0, "count_Mosses": 0, "count_Gymnosperms": 0, "unique_species_count": 37.0, "countryCode": "PY" }, "geometry": { "type": "MultiPolygon", "coordinates": [ [ [ [ -57.24253596567786, -27.403554090155257 ], [ -57.498410599964664, -27.828980791926867 ], [ -58.026739154547862, -27.78054141466265 ], [ -58.296157501886938, -27.306580624663344 ], [ -58.038426466359127, -26.88340732726158 ], [ -57.513113260034316, -26.931942488863658 ], [ -57.24253596567786, -27.403554090155257 ] ] ] ] } },
{ "type": "Feature", "properties": { "geogrid_id": "7427491419056187258", "seqnum": 39801.0, "lat_c": -27.491419104475781, "lon_c": -56.187257763429798, "res": 8.0, "count_Reptiles": 1, "count_Ferns": 0, "count_Flowering Plants": 41, "count_Mammals": 3, "count_Birds": 40, "count_Basidiomycota": 0, "count_Sac Fungi": 0, "count_Amphibians": 5, "count_Arachnids": 6, "count_Insects": 39, "count_Molluscs": 0, "count_Mosses": 0, "count_Gymnosperms": 0, "unique_species_count": 135.0, "countryCode": "PY" }, "geometry": { "type": "MultiPolygon", "coordinates": [ [ [ [ -55.659001461991224, -27.531945654440225 ], [ -55.910942681389777, -27.960519125165082 ], [ -56.440510181690087, -27.918966266499709 ], [ -56.71510302784818, -27.448623341503087 ], [ -56.461246706954384, -27.022238848489557 ], [ -55.934696051322149, -27.064008261166165 ], [ -55.659001461991224, -27.531945654440225 ] ] ] ] } },
{ "type": "Feature", "properties": { "geogrid_id": "7427729801058554650", "seqnum": 39717.0, "lat_c": -27.729800553750398, "lon_c": -58.554649658938523, "res": 8.0, "count_Reptiles": 0, "count_Ferns": 0, "count_Flowering Plants": 1, "count_Mammals": 0, "count_Birds": 5, "count_Basidiomycota": 0, "count_Sac Fungi": 0, "count_Amphibians": 0, "count_Arachnids": 0, "count_Insects": 0, "count_Molluscs": 1, "count_Mosses": 0, "count_Gymnosperms": 0, "unique_species_count": 7.0, "countryCode": "PY" }, "geometry": { "type": "MultiPolygon", "coordinates": [ [ [ [ -58.026739154547862, -27.78054141466265 ], [ -58.284543997425573, -28.204963891953099 ], [ -58.813783173355127, -28.15308675983918 ], [ -59.082138940187193, -27.67675595281829 ], [ -58.822341447354546, -27.254670347792825 ], [ -58.296157501886938, -27.306580624663344 ], [ -58.026739154547862, -27.78054141466265 ] ] ] ] } },
{ "type": "Feature", "properties": { "geogrid_id": "7427875121056969667", "seqnum": 39800.0, "lat_c": -27.875121364388452, "lon_c": -56.969666806732015, "res": 8.0, "count_Reptiles": 9, "count_Ferns": 0, "count_Flowering Plants": 5, "count_Mammals": 4, "count_Birds": 130, "count_Basidiomycota": 1, "count_Sac Fungi": 0, "count_Amphibians": 4, "count_Arachnids": 5, "count_Insects": 19, "count_Molluscs": 0, "count_Mosses": 0, "count_Gymnosperms": 0, "unique_species_count": 177.0, "countryCode": "PY" }, "geometry": { "type": "MultiPolygon", "coordinates": [ [ [ [ -56.440510181690087, -27.918966266499709 ], [ -56.69432367603973, -28.346670864229072 ], [ -57.224810894870878, -28.301753620433413 ], [ -57.498410599964664, -27.828980791926867 ], [ -57.24253596567786, -27.403554090155257 ], [ -56.71510302784818, -27.448623341503087 ], [ -56.440510181690087, -27.918966266499709 ] ] ] ] } }
]
}
