{
"type": "FeatureCollection",
"name": "RO",
"crs": { "type": "name", "properties": { "name": "urn:ogc:def:crs:OGC:1.3:CRS84" } },
"features": [
{ "type": "Feature", "properties": { "geogrid_id": "843533820028584372", "seqnum": 19987.0, "lat_c": 43.533819679324999, "lon_c": 28.584371586146482, "res": 8.0, "count_Birds": 198, "count_Molluscs": 30, "count_Insects": 295, "count_Sac Fungi": 14, "count_Flowering Plants": 320, "count_Ferns": 0, "count_Reptiles": 8, "count_Gymnosperms": 3, "count_Mosses": 0, "count_Mammals": 15, "count_Basidiomycota": 6, "count_Arachnids": 13, "count_Amphibians": 5, "unique_species_count": 907.0, "countryCode": "RO" }, "geometry": { "type": "MultiPolygon", "coordinates": [ [ [ [ 28.712490238638537, 44.005832955259173 ], [ 29.256253884238223, 43.745526389600094 ], [ 29.124848924318087, 43.273680931836275 ], [ 28.4596394036836, 43.061440205129422 ], [ 27.917499811595871, 43.318644398444903 ], [ 28.03888450802933, 43.791170567841398 ], [ 28.712490238638537, 44.005832955259173 ] ] ] ] } },
{ "type": "Feature", "properties": { "geogrid_id": "843573031027370410", "seqnum": 19906.0, "lat_c": 43.573030970000815, "lon_c": 27.370409985026299, "res": 8.0, "count_Birds": 2, "count_Molluscs": 2, "count_Insects": 27, "count_Sac Fungi": 1, "count_Flowering Plants": 56, "count_Ferns": 0, "count_Reptiles": 1, "count_Gymnosperms": 0, "count_Mosses": 0, "count_Mammals": 0, "count_Basidiomycota": 0, "count_Arachnids": 3, "count_Amphibians": 0, "unique_species_count": 92.0, "countryCode": "RO" }, "geometry": { "type": "MultiPolygon", "coordinates": [ [ [ [ 27.488329336981931, 44.04568724431045 ], [ 28.03888450802933, 43.791170567841398 ], [ 27.917499811595871, 43.318644398444903 ], [ 27.255519684558646, 43.100082967899446 ], [ 26.706944142281912, 43.351498125829693 ], [ 26.818314647414546, 43.824553413680633 ], [ 27.488329336981931, 44.04568724431045 ] ] ] ] } },
{ "type": "Feature", "properties": { "geogrid_id": "843600020026153426", "seqnum": 19825.0, "lat_c": 43.600020385145008, "lon_c": 26.153426131843926, "res": 8.0, "count_Birds": 37, "count_Molluscs": 1, "count_Insects": 5, "count_Sac Fungi": 0, "count_Flowering Plants": 30, "count_Ferns": 0, "count_Reptiles": 2, "count_Gymnosperms": 0, "count_Mosses": 0, "count_Mammals": 1, "count_Basidiomycota": 0, "count_Arachnids": 0, "count_Amphibians": 0, "unique_species_count": 76.0, "countryCode": "RO" }, "geometry": { "type": "MultiPolygon", "coordinates": [ [ [ [ 26.261160580352811, 44.073164322075073 ], [ 26.818314647414546, 43.824553413680633 ], [ 26.706944142281912, 43.351498125829693 ], [ 26.048372981713733, 43.126649330043016 ], [ 25.493546083315579, 43.372166866638587 ], [ 25.594915511935639, 43.84560226489851 ], [ 26.261160580352811, 44.073164322075073 ] ] ] ] } },
{ "type": "Feature", "properties": { "geogrid_id": "843614716024933793", "seqnum": 19744.0, "lat_c": 43.61471629584377, "lon_c": 24.933793054050472, "res": 8.0, "count_Birds": 72, "count_Molluscs": 3, "count_Insects": 78, "count_Sac Fungi": 1, "count_Flowering Plants": 72, "count_Ferns": 0, "count_Reptiles": 7, "count_Gymnosperms": 0, "count_Mosses": 1, "count_Mammals": 8, "count_Basidiomycota": 4, "count_Arachnids": 6, "count_Amphibians": 4, "unique_species_count": 256.0, "countryCode": "RO" }, "geometry": { "type": "MultiPolygon", "coordinates": [ [ [ [ 25.031364326193792, 44.088195427071796 ], [ 25.594915511935639, 43.84560226489851 ], [ 25.493546083315579, 43.372166866638587 ], [ 24.834493676275358, 43.147258574347887 ], [ 24.269401130527019, 43.392674152367569 ], [ 24.365027072582127, 43.860198348065559 ], [ 25.031364326193792, 44.088195427071796 ] ] ] ] } },
{ "type": "Feature", "properties": { "geogrid_id": "843634653023699263", "seqnum": 14905.0, "lat_c": 43.634652751867861, "lon_c": 23.69926252969811, "res": 8.0, "count_Birds": 52, "count_Molluscs": 2, "count_Insects": 14, "count_Sac Fungi": 0, "count_Flowering Plants": 27, "count_Ferns": 0, "count_Reptiles": 3, "count_Gymnosperms": 0, "count_Mosses": 0, "count_Mammals": 3, "count_Basidiomycota": 2, "count_Arachnids": 1, "count_Amphibians": 1, "unique_species_count": 105.0, "countryCode": "RO" }, "geometry": { "type": "MultiPolygon", "coordinates": [ [ [ [ 24.365027072582127, 43.860198348065559 ], [ 24.269401130527019, 43.392674152367569 ], [ 23.609337001372936, 43.167127248527429 ], [ 23.037887899598854, 43.405518028215212 ], [ 23.124034214236911, 43.873036366457846 ], [ 23.791130125589127, 44.102217949980485 ], [ 24.365027072582127, 43.860198348065559 ] ] ] ] } },
{ "type": "Feature", "properties": { "geogrid_id": "843640172022461394", "seqnum": 14823.0, "lat_c": 43.640172213231779, "lon_c": 22.461393510296347, "res": 8.0, "count_Birds": 1, "count_Molluscs": 0, "count_Insects": 9, "count_Sac Fungi": 0, "count_Flowering Plants": 2, "count_Ferns": 0, "count_Reptiles": 2, "count_Gymnosperms": 0, "count_Mosses": 0, "count_Mammals": 0, "count_Basidiomycota": 0, "count_Arachnids": 0, "count_Amphibians": 0, "unique_species_count": 14.0, "countryCode": "RO" }, "geometry": { "type": "MultiPolygon", "coordinates": [ [ [ [ 23.124034214236911, 43.873036366457846 ], [ 23.037887899598854, 43.405518028215212 ], [ 22.380856768618685, 43.172759867332161 ], [ 21.803160783810316, 43.403580878730821 ], [ 21.879824184639602, 43.870913730398257 ], [ 22.543679357046187, 44.107658639502993 ], [ 23.124034214236911, 43.873036366457846 ] ] ] ] } },
{ "type": "Feature", "properties": { "geogrid_id": "844158165030615577", "seqnum": 20150.0, "lat_c": 44.158164533136954, "lon_c": 30.615576927012143, "res": 8.0, "count_Birds": 1, "count_Molluscs": 0, "count_Insects": 0, "count_Sac Fungi": 0, "count_Flowering Plants": 0, "count_Ferns": 0, "count_Reptiles": 0, "count_Gymnosperms": 0, "count_Mosses": 0, "count_Mammals": 0, "count_Basidiomycota": 0, "count_Arachnids": 0, "count_Amphibians": 0, "unique_species_count": 1.0, "countryCode": "RO" }, "geometry": { "type": "MultiPolygon", "coordinates": [ [ [ [ 30.765478590875407, 44.627992468999281 ], [ 31.303312082387027, 44.358886915751206 ], [ 31.150332399715673, 43.889287826168307 ], [ 30.470064347218816, 43.687697688106574 ], [ 29.933275524171034, 43.953674400805198 ], [ 30.075636591860579, 44.424350084324253 ], [ 30.765478590875407, 44.627992468999281 ] ] ] ] } },
{ "type": "Feature", "properties": { "geogrid_id": "844216926029391360", "seqnum": 20069.0, "lat_c": 44.216926402088639, "lon_c": 29.391359611604734, "res": 8.0, "count_Birds": 2, "count_Molluscs": 0, "count_Insects": 0, "count_Sac Fungi": 0, "count_Flowering Plants": 0, "count_Ferns": 0, "count_Reptiles": 0, "count_Gymnosperms": 0, "count_Mosses": 0, "count_Mammals": 0, "count_Basidiomycota": 0, "count_Arachnids": 0, "count_Amphibians": 0, "unique_species_count": 2.0, "countryCode": "RO" }, "geometry": { "type": "MultiPolygon", "coordinates": [ [ [ [ 29.530443664577099, 44.687798780603885 ], [ 30.075636591860579, 44.424350084324253 ], [ 29.933275524171034, 43.953674400805198 ], [ 29.256253884238223, 43.745526389600094 ], [ 28.712490238638537, 44.005832955259173 ], [ 28.844252019870854, 44.477407744414549 ], [ 29.530443664577099, 44.687798780603885 ] ] ] ] } },
{ "type": "Feature", "properties": { "geogrid_id": "844263336028163596", "seqnum": 19988.0, "lat_c": 44.263336439077598, "lon_c": 28.163596428447139, "res": 8.0, "count_Birds": 308, "count_Molluscs": 44, "count_Insects": 1418, "count_Sac Fungi": 15, "count_Flowering Plants": 908, "count_Ferns": 7, "count_Reptiles": 16, "count_Gymnosperms": 6, "count_Mosses": 13, "count_Mammals": 38, "count_Basidiomycota": 34, "count_Arachnids": 58, "count_Amphibians": 10, "unique_species_count": 2875.0, "countryCode": "RO" }, "geometry": { "type": "MultiPolygon", "coordinates": [ [ [ [ 28.291890065034551, 44.735071432736127 ], [ 28.844252019870854, 44.477407744414549 ], [ 28.712490238638537, 44.005832955259173 ], [ 28.03888450802933, 43.791170567841398 ], [ 27.488329336981931, 44.04568724431045 ], [ 27.609512955638355, 44.517989677736828 ], [ 28.291890065034551, 44.735071432736127 ] ] ] ] } },
{ "type": "Feature", "properties": { "geogrid_id": "844297322026932650", "seqnum": 19907.0, "lat_c": 44.297322407453905, "lon_c": 26.932649733128986, "res": 8.0, "count_Birds": 111, "count_Molluscs": 7, "count_Insects": 175, "count_Sac Fungi": 1, "count_Flowering Plants": 223, "count_Ferns": 1, "count_Reptiles": 7, "count_Gymnosperms": 3, "count_Mosses": 0, "count_Mammals": 12, "count_Basidiomycota": 3, "count_Arachnids": 14, "count_Amphibians": 4, "unique_species_count": 561.0, "countryCode": "RO" }, "geometry": { "type": "MultiPolygon", "coordinates": [ [ [ [ 27.050182369543823, 44.769744509308829 ], [ 27.609512955638355, 44.517989677736828 ], [ 27.488329336981931, 44.04568724431045 ], [ 26.818314647414546, 43.824553413680633 ], [ 26.261160580352811, 44.073164322075073 ], [ 26.371791455703033, 44.546027806231017 ], [ 27.050182369543823, 44.769744509308829 ] ] ] ] } },
{ "type": "Feature", "properties": { "geogrid_id": "844318815025698897", "seqnum": 19826.0, "lat_c": 44.31881538519449, "lon_c": 25.698896710273505, "res": 8.0, "count_Birds": 212, "count_Molluscs": 24, "count_Insects": 831, "count_Sac Fungi": 30, "count_Flowering Plants": 695, "count_Ferns": 2, "count_Reptiles": 18, "count_Gymnosperms": 15, "count_Mosses": 7, "count_Mammals": 23, "count_Basidiomycota": 66, "count_Arachnids": 65, "count_Amphibians": 9, "unique_species_count": 1997.0, "countryCode": "RO" }, "geometry": { "type": "MultiPolygon", "coordinates": [ [ [ [ 25.805702456078013, 44.791754240812473 ], [ 26.371791455703033, 44.546027806231017 ], [ 26.261160580352811, 44.073164322075073 ], [ 25.594915511935639, 43.84560226489851 ], [ 25.031364326193792, 44.088195427071796 ], [ 25.13147420159342, 44.561457391753045 ], [ 25.805702456078013, 44.791754240812473 ] ] ] ] } },
{ "type": "Feature", "properties": { "geogrid_id": "844327751024462727", "seqnum": 19745.0, "lat_c": 44.327750678285426, "lon_c": 24.462726896105131, "res": 8.0, "count_Birds": 69, "count_Molluscs": 0, "count_Insects": 98, "count_Sac Fungi": 0, "count_Flowering Plants": 148, "count_Ferns": 0, "count_Reptiles": 3, "count_Gymnosperms": 2, "count_Mosses": 0, "count_Mammals": 6, "count_Basidiomycota": 0, "count_Arachnids": 4, "count_Amphibians": 2, "unique_species_count": 332.0, "countryCode": "RO" }, "geometry": { "type": "MultiPolygon", "coordinates": [ [ [ [ 24.558846556032325, 44.80104023294389 ], [ 25.13147420159342, 44.561457391753045 ], [ 25.031364326193792, 44.088195427071796 ], [ 24.365027072582127, 43.860198348065559 ], [ 23.791130125589127, 44.102217949980485 ], [ 23.88500871090179, 44.569834313701186 ], [ 24.558846556032325, 44.80104023294389 ] ] ] ] } },
{ "type": "Feature", "properties": { "geogrid_id": "844338344021958169", "seqnum": 14742.0, "lat_c": 44.338344392778595, "lon_c": 21.958168838957747, "res": 8.0, "count_Birds": 68, "count_Molluscs": 3, "count_Insects": 261, "count_Sac Fungi": 3, "count_Flowering Plants": 319, "count_Ferns": 12, "count_Reptiles": 13, "count_Gymnosperms": 2, "count_Mosses": 1, "count_Mammals": 4, "count_Basidiomycota": 4, "count_Arachnids": 12, "count_Amphibians": 9, "unique_species_count": 711.0, "countryCode": "RO" }, "geometry": { "type": "MultiPolygon", "coordinates": [ [ [ [ 22.627776353319163, 44.575231449693945 ], [ 22.543679357046187, 44.107658639502993 ], [ 21.879824184639602, 43.870913730398257 ], [ 21.293158804193755, 44.097556940496801 ], [ 21.367482207160666, 44.564909128754508 ], [ 22.038254332798431, 44.805885310900962 ], [ 22.627776353319163, 44.575231449693945 ] ] ] ] } },
{ "type": "Feature", "properties": { "geogrid_id": "844340618023212059", "seqnum": 14824.0, "lat_c": 44.340617554772422, "lon_c": 23.212058725870058, "res": 8.0, "count_Birds": 106, "count_Molluscs": 7, "count_Insects": 128, "count_Sac Fungi": 2, "count_Flowering Plants": 267, "count_Ferns": 3, "count_Reptiles": 6, "count_Gymnosperms": 1, "count_Mosses": 1, "count_Mammals": 15, "count_Basidiomycota": 1, "count_Arachnids": 13, "count_Amphibians": 9, "unique_species_count": 559.0, "countryCode": "RO" }, "geometry": { "type": "MultiPolygon", "coordinates": [ [ [ [ 23.88500871090179, 44.569834313701186 ], [ 23.791130125589127, 44.102217949980485 ], [ 23.124034214236911, 43.873036366457846 ], [ 22.543679357046187, 44.107658639502993 ], [ 22.627776353319163, 44.575231449693945 ], [ 23.30202811443997, 44.808273307062137 ], [ 23.88500871090179, 44.569834313701186 ] ] ] ] } },
{ "type": "Feature", "properties": { "geogrid_id": "844894396030222332", "seqnum": 20151.0, "lat_c": 44.894396452400088, "lon_c": 30.222332238485464, "res": 8.0, "count_Birds": 153, "count_Molluscs": 26, "count_Insects": 196, "count_Sac Fungi": 0, "count_Flowering Plants": 95, "count_Ferns": 0, "count_Reptiles": 5, "count_Gymnosperms": 0, "count_Mosses": 0, "count_Mammals": 11, "count_Basidiomycota": 3, "count_Arachnids": 8, "count_Amphibians": 7, "unique_species_count": 504.0, "countryCode": "RO" }, "geometry": { "type": "MultiPolygon", "coordinates": [ [ [ [ 30.373684814894414, 45.363709653851856 ], [ 30.920094146347736, 45.097075012175367 ], [ 30.765478590875407, 44.627992468999281 ], [ 30.075636591860579, 44.424350084324253 ], [ 29.530443664577099, 44.687798780603885 ], [ 29.67380392893261, 45.158052287347402 ], [ 30.373684814894414, 45.363709653851856 ] ] ] ] } },
{ "type": "Feature", "properties": { "geogrid_id": "844948464028979932", "seqnum": 20070.0, "lat_c": 44.94846382304857, "lon_c": 28.979932257863602, "res": 8.0, "count_Birds": 271, "count_Molluscs": 34, "count_Insects": 916, "count_Sac Fungi": 27, "count_Flowering Plants": 568, "count_Ferns": 2, "count_Reptiles": 20, "count_Gymnosperms": 3, "count_Mosses": 9, "count_Mammals": 35, "count_Basidiomycota": 10, "count_Arachnids": 30, "count_Amphibians": 11, "unique_species_count": 1936.0, "countryCode": "RO" }, "geometry": { "type": "MultiPolygon", "coordinates": [ [ [ [ 29.119826416957032, 45.418912240905904 ], [ 29.67380392893261, 45.158052287347402 ], [ 29.530443664577099, 44.687798780603885 ], [ 28.844252019870854, 44.477407744414549 ], [ 28.291890065034551, 44.735071432736127 ], [ 28.424038408323732, 45.206297311688374 ], [ 29.119826416957032, 45.418912240905904 ] ] ] ] } },
{ "type": "Feature", "properties": { "geogrid_id": "844989869027734213", "seqnum": 19989.0, "lat_c": 44.989869422934227, "lon_c": 27.734213052294788, "res": 8.0, "count_Birds": 223, "count_Molluscs": 12, "count_Insects": 502, "count_Sac Fungi": 6, "count_Flowering Plants": 344, "count_Ferns": 4, "count_Reptiles": 15, "count_Gymnosperms": 1, "count_Mosses": 3, "count_Mammals": 17, "count_Basidiomycota": 7, "count_Arachnids": 15, "count_Amphibians": 9, "unique_species_count": 1158.0, "countryCode": "RO" }, "geometry": { "type": "MultiPolygon", "coordinates": [ [ [ [ 27.862700166917332, 45.461250246502964 ], [ 28.424038408323732, 45.206297311688374 ], [ 28.291890065034551, 44.735071432736127 ], [ 27.609512955638355, 44.517989677736828 ], [ 27.050182369543823, 44.769744509308829 ], [ 27.171162367680829, 45.241752622619508 ], [ 27.862700166917332, 45.461250246502964 ] ] ] ] } },
{ "type": "Feature", "properties": { "geogrid_id": "845018552026485549", "seqnum": 19908.0, "lat_c": 45.018551774060548, "lon_c": 26.4855493594075, "res": 8.0, "count_Birds": 159, "count_Molluscs": 10, "count_Insects": 526, "count_Sac Fungi": 14, "count_Flowering Plants": 507, "count_Ferns": 0, "count_Reptiles": 9, "count_Gymnosperms": 5, "count_Mosses": 1, "count_Mammals": 16, "count_Basidiomycota": 24, "count_Arachnids": 22, "count_Amphibians": 6, "unique_species_count": 1299.0, "countryCode": "RO" }, "geometry": { "type": "MultiPolygon", "coordinates": [ [ [ [ 26.602681577711873, 45.490670894225673 ], [ 27.171162367680829, 45.241752622619508 ], [ 27.050182369543823, 44.769744509308829 ], [ 26.371791455703033, 44.546027806231017 ], [ 25.805702456078013, 44.791754240812473 ], [ 25.915560854282067, 45.264361317644656 ], [ 26.602681577711873, 45.490670894225673 ] ] ] ] } },
{ "type": "Feature", "properties": { "geogrid_id": "845032396021443473", "seqnum": 14661.0, "lat_c": 45.032395732112867, "lon_c": 21.443472794168553, "res": 8.0, "count_Birds": 150, "count_Molluscs": 13, "count_Insects": 423, "count_Sac Fungi": 10, "count_Flowering Plants": 404, "count_Ferns": 8, "count_Reptiles": 12, "count_Gymnosperms": 5, "count_Mosses": 1, "count_Mammals": 16, "count_Basidiomycota": 37, "count_Arachnids": 18, "count_Amphibians": 12, "unique_species_count": 1109.0, "countryCode": "RO" }, "geometry": { "type": "MultiPolygon", "coordinates": [ [ [ [ 22.120142461631144, 45.273548550994477 ], [ 22.038254332798431, 44.805885310900962 ], [ 21.367482207160666, 44.564909128754508 ], [ 20.771608723091607, 44.787158505275173 ], [ 20.843421719869532, 45.25456972833593 ], [ 21.521189716703788, 45.500028921329296 ], [ 22.120142461631144, 45.273548550994477 ] ] ] ] } },
{ "type": "Feature", "properties": { "geogrid_id": "845034452025234333", "seqnum": 19827.0, "lat_c": 45.034451566005423, "lon_c": 25.234332977547798, "res": 8.0, "count_Birds": 148, "count_Molluscs": 25, "count_Insects": 1085, "count_Sac Fungi": 61, "count_Flowering Plants": 734, "count_Ferns": 14, "count_Reptiles": 12, "count_Gymnosperms": 11, "count_Mosses": 18, "count_Mammals": 20, "count_Basidiomycota": 82, "count_Arachnids": 71, "count_Amphibians": 13, "unique_species_count": 2294.0, "countryCode": "RO" }, "geometry": { "type": "MultiPolygon", "coordinates": [ [ [ [ 25.340166129968889, 45.507121996621024 ], [ 25.915560854282067, 45.264361317644656 ], [ 25.805702456078013, 44.791754240812473 ], [ 25.13147420159342, 44.561457391753045 ], [ 24.558846556032325, 44.80104023294389 ], [ 24.657635661558199, 45.27406869707206 ], [ 25.340166129968889, 45.507121996621024 ] ] ] ] } },
{ "type": "Feature", "properties": { "geogrid_id": "845037513023980970", "seqnum": 19746.0, "lat_c": 45.037512908646754, "lon_c": 23.980969717819427, "res": 8.0, "count_Birds": 102, "count_Molluscs": 14, "count_Insects": 242, "count_Sac Fungi": 1, "count_Flowering Plants": 451, "count_Ferns": 12, "count_Reptiles": 8, "count_Gymnosperms": 6, "count_Mosses": 0, "count_Mammals": 9, "count_Basidiomycota": 16, "count_Arachnids": 12, "count_Amphibians": 7, "unique_species_count": 880.0, "countryCode": "RO" }, "geometry": { "type": "MultiPolygon", "coordinates": [ [ [ [ 24.075565660095517, 45.510553617904648 ], [ 24.657635661558199, 45.27406869707206 ], [ 24.558846556032325, 44.80104023294389 ], [ 23.88500871090179, 44.569834313701186 ], [ 23.30202811443997, 44.808273307062137 ], [ 23.394011527933511, 45.276014943253827 ], [ 24.075565660095517, 45.510553617904648 ] ] ] ] } },
{ "type": "Feature", "properties": { "geogrid_id": "845042903022713749", "seqnum": 14743.0, "lat_c": 45.042902557006471, "lon_c": 22.713748803912573, "res": 8.0, "count_Birds": 136, "count_Molluscs": 21, "count_Insects": 1095, "count_Sac Fungi": 94, "count_Flowering Plants": 865, "count_Ferns": 21, "count_Reptiles": 18, "count_Gymnosperms": 13, "count_Mosses": 13, "count_Mammals": 17, "count_Basidiomycota": 70, "count_Arachnids": 34, "count_Amphibians": 10, "unique_species_count": 2407.0, "countryCode": "RO" }, "geometry": { "type": "MultiPolygon", "coordinates": [ [ [ [ 23.394011527933511, 45.276014943253827 ], [ 23.30202811443997, 44.808273307062137 ], [ 22.627776353319163, 44.575231449693945 ], [ 22.038254332798431, 44.805885310900962 ], [ 22.120142461631144, 45.273548550994477 ], [ 22.801663433442215, 45.510683491615438 ], [ 23.394011527933511, 45.276014943253827 ] ] ] ] } },
{ "type": "Feature", "properties": { "geogrid_id": "845627586029821760", "seqnum": 20152.0, "lat_c": 45.627585716965854, "lon_c": 29.821760214657907, "res": 8.0, "count_Birds": 201, "count_Molluscs": 11, "count_Insects": 354, "count_Sac Fungi": 2, "count_Flowering Plants": 160, "count_Ferns": 1, "count_Reptiles": 6, "count_Gymnosperms": 1, "count_Mosses": 0, "count_Mammals": 12, "count_Basidiomycota": 6, "count_Arachnids": 6, "count_Amphibians": 8, "unique_species_count": 768.0, "countryCode": "RO" }, "geometry": { "type": "MultiPolygon", "coordinates": [ [ [ [ 29.97465596938051, 46.096286880372027 ], [ 30.530040549732497, 45.832174423873305 ], [ 30.373684814894414, 45.363709653851856 ], [ 29.67380392893261, 45.158052287347402 ], [ 29.119826416957032, 45.418912240905904 ], [ 29.264251674588369, 45.888654447117503 ], [ 29.97465596938051, 46.096286880372027 ] ] ] ] } },
{ "type": "Feature", "properties": { "geogrid_id": "845676927028560334", "seqnum": 20071.0, "lat_c": 45.676927427209733, "lon_c": 28.560334397159995, "res": 8.0, "count_Birds": 77, "count_Molluscs": 6, "count_Insects": 80, "count_Sac Fungi": 0, "count_Flowering Plants": 101, "count_Ferns": 0, "count_Reptiles": 1, "count_Gymnosperms": 2, "count_Mosses": 0, "count_Mammals": 4, "count_Basidiomycota": 3, "count_Arachnids": 2, "count_Amphibians": 2, "unique_species_count": 278.0, "countryCode": "RO" }, "geometry": { "type": "MultiPolygon", "coordinates": [ [ [ [ 28.701092477063384, 46.14686588713392 ], [ 29.264251674588369, 45.888654447117503 ], [ 29.119826416957032, 45.418912240905904 ], [ 28.424038408323732, 45.206297311688374 ], [ 27.862700166917332, 45.461250246502964 ], [ 27.99526460211445, 45.932047810851493 ], [ 28.701092477063384, 46.14686588713392 ] ] ] ] } },
{ "type": "Feature", "properties": { "geogrid_id": "845713273027295858", "seqnum": 19990.0, "lat_c": 45.713272530575054, "lon_c": 27.295857698023262, "res": 8.0, "count_Birds": 193, "count_Molluscs": 5, "count_Insects": 493, "count_Sac Fungi": 7, "count_Flowering Plants": 361, "count_Ferns": 0, "count_Reptiles": 8, "count_Gymnosperms": 0, "count_Mosses": 0, "count_Mammals": 19, "count_Basidiomycota": 20, "count_Arachnids": 12, "count_Amphibians": 8, "unique_species_count": 1126.0, "countryCode": "RO" }, "geometry": { "type": "MultiPolygon", "coordinates": [ [ [ [ 27.424555909419954, 46.184222212229663 ], [ 27.99526460211445, 45.932047810851493 ], [ 27.862700166917332, 45.461250246502964 ], [ 27.171162367680829, 45.241752622619508 ], [ 26.602681577711873, 45.490670894225673 ], [ 26.723453386793686, 45.962312975361748 ], [ 27.424555909419954, 46.184222212229663 ] ] ] ] } },
{ "type": "Feature", "properties": { "geogrid_id": "845722152020916881", "seqnum": 14580.0, "lat_c": 45.722151976474841, "lon_c": 20.916881193257495, "res": 8.0, "count_Birds": 177, "count_Molluscs": 9, "count_Insects": 606, "count_Sac Fungi": 4, "count_Flowering Plants": 344, "count_Ferns": 1, "count_Reptiles": 10, "count_Gymnosperms": 6, "count_Mosses": 0, "count_Mammals": 20, "count_Basidiomycota": 22, "count_Arachnids": 18, "count_Amphibians": 11, "unique_species_count": 1228.0, "countryCode": "RO" }, "geometry": { "type": "MultiPolygon", "coordinates": [ [ [ [ 21.600694427878206, 45.967820512504211 ], [ 21.521189716703788, 45.500028921329296 ], [ 20.843421719869532, 45.25456972833593 ], [ 20.238102086457953, 45.472204213627819 ], [ 20.307218650439747, 45.93971620911767 ], [ 20.992045747023624, 46.189917137635042 ], [ 21.600694427878206, 45.967820512504211 ] ] ] ] } },
{ "type": "Feature", "properties": { "geogrid_id": "845736573026028717", "seqnum": 19909.0, "lat_c": 45.736573060343282, "lon_c": 26.028716536713578, "res": 8.0, "count_Birds": 210, "count_Molluscs": 27, "count_Insects": 906, "count_Sac Fungi": 23, "count_Flowering Plants": 747, "count_Ferns": 10, "count_Reptiles": 10, "count_Gymnosperms": 10, "count_Mosses": 17, "count_Mammals": 23, "count_Basidiomycota": 75, "count_Arachnids": 45, "count_Amphibians": 11, "unique_species_count": 2114.0, "countryCode": "RO" }, "geometry": { "type": "MultiPolygon", "coordinates": [ [ [ [ 26.145431954489851, 46.208319308065576 ], [ 26.723453386793686, 45.962312975361748 ], [ 26.602681577711873, 45.490670894225673 ], [ 25.915560854282067, 45.264361317644656 ], [ 25.340166129968889, 45.507121996621024 ], [ 25.449215501487046, 45.97940691126702 ], [ 26.145431954489851, 46.208319308065576 ] ] ] ] } },
{ "type": "Feature", "properties": { "geogrid_id": "845741346022203897", "seqnum": 14662.0, "lat_c": 45.74134580932391, "lon_c": 22.203897385399859, "res": 8.0, "count_Birds": 70, "count_Molluscs": 6, "count_Insects": 190, "count_Sac Fungi": 2, "count_Flowering Plants": 285, "count_Ferns": 8, "count_Reptiles": 8, "count_Gymnosperms": 2, "count_Mosses": 0, "count_Mammals": 11, "count_Basidiomycota": 28, "count_Arachnids": 1, "count_Amphibians": 10, "unique_species_count": 621.0, "countryCode": "RO" }, "geometry": { "type": "MultiPolygon", "coordinates": [ [ [ [ 22.89158955318376, 45.978585406750625 ], [ 22.801663433442215, 45.510683491615438 ], [ 22.120142461631144, 45.273548550994477 ], [ 21.521189716703788, 45.500028921329296 ], [ 21.600694427878206, 45.967820512504211 ], [ 22.289585790913655, 46.209288419722697 ], [ 22.89158955318376, 45.978585406750625 ] ] ] ] } },
{ "type": "Feature", "properties": { "geogrid_id": "845743853023488081", "seqnum": 19747.0, "lat_c": 45.743853391537563, "lon_c": 23.488080753925292, "res": 8.0, "count_Birds": 119, "count_Molluscs": 13, "count_Insects": 534, "count_Sac Fungi": 12, "count_Flowering Plants": 607, "count_Ferns": 15, "count_Reptiles": 11, "count_Gymnosperms": 4, "count_Mosses": 5, "count_Mammals": 19, "count_Basidiomycota": 33, "count_Arachnids": 14, "count_Amphibians": 13, "unique_species_count": 1399.0, "countryCode": "RO" }, "geometry": { "type": "MultiPolygon", "coordinates": [ [ [ [ 23.58107503323702, 46.216584755304666 ], [ 24.172967549265213, 45.98328729072599 ], [ 24.075565660095517, 45.510553617904648 ], [ 23.394011527933511, 45.276014943253827 ], [ 22.801663433442215, 45.510683491615438 ], [ 22.89158955318376, 45.978585406750625 ], [ 23.58107503323702, 46.216584755304666 ] ] ] ] } },
{ "type": "Feature", "properties": { "geogrid_id": "845746782024759317", "seqnum": 19828.0, "lat_c": 45.746781686276115, "lon_c": 24.759316922701405, "res": 8.0, "count_Birds": 196, "count_Molluscs": 31, "count_Insects": 1072, "count_Sac Fungi": 24, "count_Flowering Plants": 889, "count_Ferns": 18, "count_Reptiles": 10, "count_Gymnosperms": 8, "count_Mosses": 15, "count_Mammals": 34, "count_Basidiomycota": 66, "count_Arachnids": 26, "count_Amphibians": 14, "unique_species_count": 2403.0, "countryCode": "RO" }, "geometry": { "type": "MultiPolygon", "coordinates": [ [ [ [ 24.864129253022664, 46.219119214749462 ], [ 25.449215501487046, 45.97940691126702 ], [ 25.340166129968889, 45.507121996621024 ], [ 24.657635661558199, 45.27406869707206 ], [ 24.075565660095517, 45.510553617904648 ], [ 24.172967549265213, 45.98328729072599 ], [ 24.864129253022664, 46.219119214749462 ] ] ] ] } },
{ "type": "Feature", "properties": { "geogrid_id": "846402169028132218", "seqnum": 20072.0, "lat_c": 46.402168882638648, "lon_c": 28.132217964319842, "res": 8.0, "count_Birds": 44, "count_Molluscs": 2, "count_Insects": 68, "count_Sac Fungi": 2, "count_Flowering Plants": 108, "count_Ferns": 1, "count_Reptiles": 3, "count_Gymnosperms": 1, "count_Mosses": 0, "count_Mammals": 7, "count_Basidiomycota": 5, "count_Arachnids": 3, "count_Amphibians": 1, "unique_species_count": 245.0, "countryCode": "RO" }, "geometry": { "type": "MultiPolygon", "coordinates": [ [ [ [ 28.273894817748584, 46.871510459945924 ], [ 28.846650272507233, 46.616006637626363 ], [ 28.701092477063384, 46.14686588713392 ], [ 27.99526460211445, 45.932047810851493 ], [ 27.424555909419954, 46.184222212229663 ], [ 27.557565654170258, 46.654511089388386 ], [ 28.273894817748584, 46.871510459945924 ] ] ] ] } },
{ "type": "Feature", "properties": { "geogrid_id": "846407436020377954", "seqnum": 14499.0, "lat_c": 46.407435678376473, "lon_c": 20.377953810663751, "res": 8.0, "count_Birds": 53, "count_Molluscs": 1, "count_Insects": 6, "count_Sac Fungi": 0, "count_Flowering Plants": 35, "count_Ferns": 0, "count_Reptiles": 1, "count_Gymnosperms": 0, "count_Mosses": 0, "count_Mammals": 4, "count_Basidiomycota": 0, "count_Arachnids": 0, "count_Amphibians": 0, "unique_species_count": 100.0, "countryCode": "RO" }, "geometry": { "type": "MultiPolygon", "coordinates": [ [ [ [ 21.068976367537783, 46.657876772736756 ], [ 20.992045747023624, 46.189917137635042 ], [ 20.307218650439747, 45.93971620911767 ], [ 19.692216220388389, 46.152509780175933 ], [ 19.758433603424418, 46.6201661010696 ], [ 20.450365476547443, 46.875374225953159 ], [ 21.068976367537783, 46.657876772736756 ] ] ] ] } },
{ "type": "Feature", "properties": { "geogrid_id": "846433398026848149", "seqnum": 19991.0, "lat_c": 46.433398314848269, "lon_c": 26.848149457384618, "res": 8.0, "count_Birds": 126, "count_Molluscs": 13, "count_Insects": 257, "count_Sac Fungi": 3, "count_Flowering Plants": 297, "count_Ferns": 2, "count_Reptiles": 7, "count_Gymnosperms": 1, "count_Mosses": 2, "count_Mammals": 7, "count_Basidiomycota": 13, "count_Arachnids": 13, "count_Amphibians": 4, "unique_species_count": 745.0, "countryCode": "RO" }, "geometry": { "type": "MultiPolygon", "coordinates": [ [ [ [ 26.977075364688964, 46.903838982408459 ], [ 27.557565654170258, 46.654511089388386 ], [ 27.424555909419954, 46.184222212229663 ], [ 26.723453386793686, 45.962312975361748 ], [ 26.145431954489851, 46.208319308065576 ], [ 26.265988769022666, 46.6795226745839 ], [ 26.977075364688964, 46.903838982408459 ] ] ] ] } },
{ "type": "Feature", "properties": { "geogrid_id": "846435782021682051", "seqnum": 14581.0, "lat_c": 46.435781975917372, "lon_c": 21.682050839785123, "res": 8.0, "count_Birds": 95, "count_Molluscs": 7, "count_Insects": 416, "count_Sac Fungi": 9, "count_Flowering Plants": 326, "count_Ferns": 3, "count_Reptiles": 10, "count_Gymnosperms": 4, "count_Mosses": 3, "count_Mammals": 32, "count_Basidiomycota": 58, "count_Arachnids": 22, "count_Amphibians": 12, "unique_species_count": 997.0, "countryCode": "RO" }, "geometry": { "type": "MultiPolygon", "coordinates": [ [ [ [ 22.377277062461122, 46.67738735982072 ], [ 22.289585790913655, 46.209288419722697 ], [ 21.600694427878206, 45.967820512504211 ], [ 20.992045747023624, 46.189917137635042 ], [ 21.068976367537783, 46.657876772736756 ], [ 21.765325489018423, 46.903924443519017 ], [ 22.377277062461122, 46.67738735982072 ] ] ] ] } },
{ "type": "Feature", "properties": { "geogrid_id": "846446619022983599", "seqnum": 19748.0, "lat_c": 46.446619081252535, "lon_c": 22.983599237009862, "res": 8.0, "count_Birds": 197, "count_Molluscs": 19, "count_Insects": 1091, "count_Sac Fungi": 40, "count_Flowering Plants": 879, "count_Ferns": 22, "count_Reptiles": 11, "count_Gymnosperms": 6, "count_Mosses": 25, "count_Mammals": 24, "count_Basidiomycota": 161, "count_Arachnids": 50, "count_Amphibians": 10, "unique_species_count": 2535.0, "countryCode": "RO" }, "geometry": { "type": "MultiPolygon", "coordinates": [ [ [ [ 23.074907642700754, 46.918979447032186 ], [ 23.677017638345468, 46.688961211751213 ], [ 23.58107503323702, 46.216584755304666 ], [ 22.89158955318376, 45.978585406750625 ], [ 22.289585790913655, 46.209288419722697 ], [ 22.377277062461122, 46.67738735982072 ], [ 23.074907642700754, 46.918979447032186 ] ] ] ] } },
{ "type": "Feature", "properties": { "geogrid_id": "846451238025561741", "seqnum": 19910.0, "lat_c": 46.451238181107747, "lon_c": 25.561740581490152, "res": 8.0, "count_Birds": 187, "count_Molluscs": 56, "count_Insects": 1005, "count_Sac Fungi": 16, "count_Flowering Plants": 858, "count_Ferns": 19, "count_Reptiles": 9, "count_Gymnosperms": 13, "count_Mosses": 19, "count_Mammals": 31, "count_Basidiomycota": 44, "count_Arachnids": 46, "count_Amphibians": 13, "unique_species_count": 2316.0, "countryCode": "RO" }, "geometry": { "type": "MultiPolygon", "coordinates": [ [ [ [ 25.678019884055548, 46.922540730953408 ], [ 26.265988769022666, 46.6795226745839 ], [ 26.145431954489851, 46.208319308065576 ], [ 25.449215501487046, 45.97940691126702 ], [ 24.864129253022664, 46.219119214749462 ], [ 24.972329037656557, 46.691015183723735 ], [ 25.678019884055548, 46.922540730953408 ] ] ] ] } },
{ "type": "Feature", "properties": { "geogrid_id": "846455656024273411", "seqnum": 19829.0, "lat_c": 46.455655727971241, "lon_c": 24.273411224942912, "res": 8.0, "count_Birds": 191, "count_Molluscs": 11, "count_Insects": 831, "count_Sac Fungi": 29, "count_Flowering Plants": 851, "count_Ferns": 5, "count_Reptiles": 9, "count_Gymnosperms": 8, "count_Mosses": 7, "count_Mammals": 16, "count_Basidiomycota": 47, "count_Arachnids": 29, "count_Amphibians": 9, "unique_species_count": 2043.0, "countryCode": "RO" }, "geometry": { "type": "MultiPolygon", "coordinates": [ [ [ [ 24.37714981973539, 46.92759485571613 ], [ 24.972329037656557, 46.691015183723735 ], [ 24.864129253022664, 46.219119214749462 ], [ 24.172967549265213, 45.98328729072599 ], [ 23.58107503323702, 46.216584755304666 ], [ 23.677017638345468, 46.688961211751213 ], [ 24.37714981973539, 46.92759485571613 ] ] ] ] } },
{ "type": "Feature", "properties": { "geogrid_id": "847124039027695218", "seqnum": 20073.0, "lat_c": 47.124039197001693, "lon_c": 27.695218324918272, "res": 8.0, "count_Birds": 152, "count_Molluscs": 15, "count_Insects": 953, "count_Sac Fungi": 10, "count_Flowering Plants": 415, "count_Ferns": 2, "count_Reptiles": 9, "count_Gymnosperms": 3, "count_Mosses": 2, "count_Mammals": 21, "count_Basidiomycota": 67, "count_Arachnids": 22, "count_Amphibians": 12, "unique_species_count": 1683.0, "countryCode": "RO" }, "geometry": { "type": "MultiPolygon", "coordinates": [ [ [ [ 27.837869808590273, 47.592696268957127 ], [ 28.420654456244861, 47.339958809482695 ], [ 28.273894817748584, 46.871510459945924 ], [ 27.557565654170258, 46.654511089388386 ], [ 26.977075364688964, 46.903838982408459 ], [ 27.110559209304807, 47.373538031692497 ], [ 27.837869808590273, 47.592696268957127 ] ] ] ] } },
{ "type": "Feature", "properties": { "geogrid_id": "847126042021147737", "seqnum": 14500.0, "lat_c": 47.126042124270604, "lon_c": 21.147736583562867, "res": 8.0, "count_Birds": 38, "count_Molluscs": 4, "count_Insects": 91, "count_Sac Fungi": 0, "count_Flowering Plants": 29, "count_Ferns": 0, "count_Reptiles": 1, "count_Gymnosperms": 0, "count_Mosses": 0, "count_Mammals": 1, "count_Basidiomycota": 0, "count_Arachnids": 4, "count_Amphibians": 1, "unique_species_count": 169.0, "countryCode": "RO" }, "geometry": { "type": "MultiPolygon", "coordinates": [ [ [ [ 21.850587711257607, 47.372258715082687 ], [ 21.765325489018423, 46.903924443519017 ], [ 21.068976367537783, 46.657876772736756 ], [ 20.450365476547443, 46.875374225953159 ], [ 20.524514008244935, 47.343543159935621 ], [ 21.228392634996464, 47.594424123537685 ], [ 21.850587711257607, 47.372258715082687 ] ] ] ] } },
{ "type": "Feature", "properties": { "geogrid_id": "847145653022467043", "seqnum": 19749.0, "lat_c": 47.145653253686476, "lon_c": 22.46704346243677, "res": 8.0, "count_Birds": 145, "count_Molluscs": 7, "count_Insects": 477, "count_Sac Fungi": 8, "count_Flowering Plants": 551, "count_Ferns": 14, "count_Reptiles": 13, "count_Gymnosperms": 10, "count_Mosses": 7, "count_Mammals": 56, "count_Basidiomycota": 39, "count_Arachnids": 17, "count_Amphibians": 13, "unique_species_count": 1357.0, "countryCode": "RO" }, "geometry": { "type": "MultiPolygon", "coordinates": [ [ [ [ 22.556575062168651, 47.617579895464424 ], [ 23.169312853951162, 47.3909352178772 ], [ 23.074907642700754, 46.918979447032186 ], [ 22.377277062461122, 46.67738735982072 ], [ 21.765325489018423, 46.903924443519017 ], [ 21.850587711257607, 47.372258715082687 ], [ 22.556575062168651, 47.617579895464424 ] ] ] ] } },
{ "type": "Feature", "properties": { "geogrid_id": "847150098026390689", "seqnum": 19992.0, "lat_c": 47.150097866976658, "lon_c": 26.390689347558126, "res": 8.0, "count_Birds": 127, "count_Molluscs": 15, "count_Insects": 381, "count_Sac Fungi": 8, "count_Flowering Plants": 415, "count_Ferns": 8, "count_Reptiles": 7, "count_Gymnosperms": 5, "count_Mosses": 4, "count_Mammals": 11, "count_Basidiomycota": 30, "count_Arachnids": 16, "count_Amphibians": 8, "unique_species_count": 1035.0, "countryCode": "RO" }, "geometry": { "type": "MultiPolygon", "coordinates": [ [ [ [ 26.519858369049107, 47.619950936499293 ], [ 27.110559209304807, 47.373538031692497 ], [ 26.977075364688964, 46.903838982408459 ], [ 26.265988769022666, 46.6795226745839 ], [ 25.678019884055548, 46.922540730953408 ], [ 25.798352429760932, 47.393231891519868 ], [ 26.519858369049107, 47.619950936499293 ] ] ] ] } },
{ "type": "Feature", "properties": { "geogrid_id": "847160921023776158", "seqnum": 19830.0, "lat_c": 47.160920703411399, "lon_c": 23.776158295453516, "res": 8.0, "count_Birds": 186, "count_Molluscs": 22, "count_Insects": 999, "count_Sac Fungi": 37, "count_Flowering Plants": 923, "count_Ferns": 5, "count_Reptiles": 10, "count_Gymnosperms": 9, "count_Mosses": 12, "count_Mammals": 23, "count_Basidiomycota": 160, "count_Arachnids": 61, "count_Amphibians": 13, "unique_species_count": 2460.0, "countryCode": "RO" }, "geometry": { "type": "MultiPolygon", "coordinates": [ [ [ [ 23.878765181882347, 47.63239502411944 ], [ 24.484455112197974, 47.399034191871039 ], [ 24.37714981973539, 46.92759485571613 ], [ 23.677017638345468, 46.688961211751213 ], [ 23.074907642700754, 46.918979447032186 ], [ 23.169312853951162, 47.3909352178772 ], [ 23.878765181882347, 47.63239502411944 ] ] ] ] } },
{ "type": "Feature", "properties": { "geogrid_id": "847162397025084191", "seqnum": 19911.0, "lat_c": 47.162396820430409, "lon_c": 25.084191498597985, "res": 8.0, "count_Birds": 104, "count_Molluscs": 6, "count_Insects": 427, "count_Sac Fungi": 17, "count_Flowering Plants": 426, "count_Ferns": 14, "count_Reptiles": 8, "count_Gymnosperms": 6, "count_Mosses": 4, "count_Mammals": 18, "count_Basidiomycota": 41, "count_Arachnids": 13, "count_Amphibians": 9, "unique_species_count": 1093.0, "countryCode": "RO" }, "geometry": { "type": "MultiPolygon", "coordinates": [ [ [ [ 25.200012163300574, 47.633184062500135 ], [ 25.798352429760932, 47.393231891519868 ], [ 25.678019884055548, 46.922540730953408 ], [ 24.972329037656557, 46.691015183723735 ], [ 24.37714981973539, 46.92759485571613 ], [ 24.484455112197974, 47.399034191871039 ], [ 25.200012163300574, 47.633184062500135 ] ] ] ] } },
{ "type": "Feature", "properties": { "geogrid_id": "847840795021937910", "seqnum": 19750.0, "lat_c": 47.840795260744116, "lon_c": 21.937909826775943, "res": 8.0, "count_Birds": 23, "count_Molluscs": 0, "count_Insects": 16, "count_Sac Fungi": 0, "count_Flowering Plants": 51, "count_Ferns": 0, "count_Reptiles": 1, "count_Gymnosperms": 0, "count_Mosses": 0, "count_Mammals": 1, "count_Basidiomycota": 1, "count_Arachnids": 0, "count_Amphibians": 0, "unique_species_count": 93.0, "countryCode": "RO" }, "geometry": { "type": "MultiPolygon", "coordinates": [ [ [ [ 22.025566477391845, 48.312224457593778 ], [ 22.649358275321138, 48.089050557880057 ], [ 22.556575062168651, 47.617579895464424 ], [ 21.850587711257607, 47.372258715082687 ], [ 21.228392634996464, 47.594424123537685 ], [ 21.311013651501902, 48.06303339654967 ], [ 22.025566477391845, 48.312224457593778 ] ] ] ] } },
{ "type": "Feature", "properties": { "geogrid_id": "847842389027248953", "seqnum": 20074.0, "lat_c": 47.842388632270215, "lon_c": 27.248953354512992, "res": 8.0, "count_Birds": 92, "count_Molluscs": 4, "count_Insects": 131, "count_Sac Fungi": 0, "count_Flowering Plants": 100, "count_Ferns": 0, "count_Reptiles": 3, "count_Gymnosperms": 1, "count_Mosses": 0, "count_Mammals": 4, "count_Basidiomycota": 4, "count_Arachnids": 6, "count_Amphibians": 5, "unique_species_count": 350.0, "countryCode": "RO" }, "geometry": { "type": "MultiPolygon", "coordinates": [ [ [ [ 27.392636284732738, 48.310273113657814 ], [ 27.985902361973167, 48.060360730293823 ], [ 27.837869808590273, 47.592696268957127 ], [ 27.110559209304807, 47.373538031692497 ], [ 26.519858369049107, 47.619950936499293 ], [ 26.653844545869784, 48.088978454555736 ], [ 27.392636284732738, 48.310273113657814 ] ] ] ] } },
{ "type": "Feature", "properties": { "geogrid_id": "847862420023267079", "seqnum": 19831.0, "lat_c": 47.862420445871329, "lon_c": 23.267079282836686, "res": 8.0, "count_Birds": 87, "count_Molluscs": 9, "count_Insects": 464, "count_Sac Fungi": 4, "count_Flowering Plants": 354, "count_Ferns": 3, "count_Reptiles": 7, "count_Gymnosperms": 5, "count_Mosses": 3, "count_Mammals": 5, "count_Basidiomycota": 17, "count_Arachnids": 8, "count_Amphibians": 9, "unique_species_count": 975.0, "countryCode": "RO" }, "geometry": { "type": "MultiPolygon", "coordinates": [ [ [ [ 23.368491023790575, 48.333362760710422 ], [ 23.985126369285343, 48.103309263739256 ], [ 23.878765181882347, 47.63239502411944 ], [ 23.169312853951162, 47.3909352178772 ], [ 22.556575062168651, 47.617579895464424 ], [ 22.649358275321138, 48.089050557880057 ], [ 23.368491023790575, 48.333362760710422 ] ] ] ] } },
{ "type": "Feature", "properties": { "geogrid_id": "847863221025923059", "seqnum": 19993.0, "lat_c": 47.863220687809502, "lon_c": 25.923059337274431, "res": 8.0, "count_Birds": 114, "count_Molluscs": 10, "count_Insects": 489, "count_Sac Fungi": 8, "count_Flowering Plants": 337, "count_Ferns": 4, "count_Reptiles": 6, "count_Gymnosperms": 7, "count_Mosses": 4, "count_Mammals": 12, "count_Basidiomycota": 31, "count_Arachnids": 21, "count_Amphibians": 9, "unique_species_count": 1052.0, "countryCode": "RO" }, "geometry": { "type": "MultiPolygon", "coordinates": [ [ [ [ 26.052485530388651, 48.332407056990029 ], [ 26.653844545869784, 48.088978454555736 ], [ 26.519858369049107, 47.619950936499293 ], [ 25.798352429760932, 47.393231891519868 ], [ 25.200012163300574, 47.633184062500135 ], [ 25.32010844259883, 48.103288882189815 ], [ 26.052485530388651, 48.332407056990029 ] ] ] ] } },
{ "type": "Feature", "properties": { "geogrid_id": "847869896024595619", "seqnum": 19912.0, "lat_c": 47.869896261376823, "lon_c": 24.595618982608539, "res": 8.0, "count_Birds": 49, "count_Molluscs": 4, "count_Insects": 270, "count_Sac Fungi": 6, "count_Flowering Plants": 275, "count_Ferns": 9, "count_Reptiles": 7, "count_Gymnosperms": 5, "count_Mosses": 7, "count_Mammals": 4, "count_Basidiomycota": 13, "count_Arachnids": 5, "count_Amphibians": 5, "unique_species_count": 659.0, "countryCode": "RO" }, "geometry": { "type": "MultiPolygon", "coordinates": [ [ [ [ 24.710954977689955, 48.340095954720276 ], [ 25.32010844259883, 48.103288882189815 ], [ 25.200012163300574, 47.633184062500135 ], [ 24.484455112197974, 47.399034191871039 ], [ 23.878765181882347, 47.63239502411944 ], [ 23.985126369285343, 48.103309263739256 ], [ 24.710954977689955, 48.340095954720276 ] ] ] ] } },
{ "type": "Feature", "properties": { "geogrid_id": "848557067026793022", "seqnum": 20075.0, "lat_c": 48.557066605945138, "lon_c": 26.793022466384382, "res": 8.0, "count_Birds": 3, "count_Molluscs": 0, "count_Insects": 1, "count_Sac Fungi": 0, "count_Flowering Plants": 12, "count_Ferns": 0, "count_Reptiles": 0, "count_Gymnosperms": 0, "count_Mosses": 0, "count_Mammals": 0, "count_Basidiomycota": 0, "count_Arachnids": 1, "count_Amphibians": 1, "unique_species_count": 18.0, "countryCode": "RO" }, "geometry": { "type": "MultiPolygon", "coordinates": [ [ [ [ 26.937794562616936, 49.024090190741006 ], [ 27.542014589088531, 48.777061912125681 ], [ 27.392636284732738, 48.310273113657814 ], [ 26.653844545869784, 48.088978454555736 ], [ 26.052485530388651, 48.332407056990029 ], [ 26.187001565734079, 48.800680988452349 ], [ 26.937794562616936, 49.024090190741006 ] ] ] ] } }
]
}
