{
"type": "FeatureCollection",
"name": "RS",
"crs": { "type": "name", "properties": { "name": "urn:ogc:def:crs:OGC:1.3:CRS84" } },
"features": [
{ "type": "Feature", "properties": { "geogrid_id": "842204387019795190", "seqnum": 14739.0, "lat_c": 42.20438742164329, "lon_c": 19.795189618647296, "res": 8.0, "count_Sac Fungi": 0, "count_Reptiles": 0, "count_Flowering Plants": 9, "count_Insects": 1, "count_Mammals": 0, "count_Ferns": 0, "count_Birds": 2, "count_Mosses": 0, "count_Gymnosperms": 0, "count_Arachnids": 0, "count_Basidiomycota": 0, "count_Amphibians": 1, "count_Molluscs": 0, "unique_species_count": 13.0, "countryCode": "RS" }, "geometry": { "type": "MultiPolygon", "coordinates": [ [ [ [ 20.435337999925334, 42.452227421801702 ], [ 20.372288336693575, 41.985572953788619 ], [ 19.737183845107278, 41.738078075869318 ], [ 19.159135929749485, 41.95255117624103 ], [ 19.213330610628557, 42.418573913684426 ], [ 19.854421996872013, 42.670799287465087 ], [ 20.435337999925334, 42.452227421801702 ] ] ] ] } },
{ "type": "Feature", "properties": { "geogrid_id": "842229236021011426", "seqnum": 14821.0, "lat_c": 42.229235900768153, "lon_c": 21.011426332424058, "res": 8.0, "count_Sac Fungi": 0, "count_Reptiles": 0, "count_Flowering Plants": 6, "count_Insects": 1, "count_Mammals": 0, "count_Ferns": 0, "count_Birds": 0, "count_Mosses": 0, "count_Gymnosperms": 1, "count_Arachnids": 0, "count_Basidiomycota": 0, "count_Amphibians": 0, "count_Molluscs": 0, "unique_species_count": 8.0, "countryCode": "RS" }, "geometry": { "type": "MultiPolygon", "coordinates": [ [ [ [ 21.654649560241911, 42.469156871274862 ], [ 21.582692303683956, 42.00203883363087 ], [ 20.944621972046647, 41.762360022398191 ], [ 20.372288336693575, 41.985572953788619 ], [ 20.435337999925334, 42.452227421801702 ], [ 21.079631602622982, 42.696179615172731 ], [ 21.654649560241911, 42.469156871274862 ] ] ] ] } },
{ "type": "Feature", "properties": { "geogrid_id": "842238106022224793", "seqnum": 14903.0, "lat_c": 42.238106198270124, "lon_c": 22.22479281241554, "res": 8.0, "count_Sac Fungi": 1, "count_Reptiles": 6, "count_Flowering Plants": 108, "count_Insects": 175, "count_Mammals": 3, "count_Ferns": 2, "count_Birds": 37, "count_Mosses": 1, "count_Gymnosperms": 0, "count_Arachnids": 1, "count_Basidiomycota": 47, "count_Amphibians": 3, "count_Molluscs": 1, "unique_species_count": 385.0, "countryCode": "RS" }, "geometry": { "type": "MultiPolygon", "coordinates": [ [ [ [ 22.870974508092615, 42.470621041288638 ], [ 22.790084973001576, 42.003216938244073 ], [ 22.14915146189702, 41.770838233389746 ], [ 21.582692303683956, 42.00203883363087 ], [ 21.654649560241911, 42.469156871274862 ], [ 22.30200919495919, 42.705408899368621 ], [ 22.870974508092615, 42.470621041288638 ] ] ] ] } },
{ "type": "Feature", "properties": { "geogrid_id": "842884724019268685", "seqnum": 14658.0, "lat_c": 42.884724499481699, "lon_c": 19.268684546635271, "res": 8.0, "count_Sac Fungi": 0, "count_Reptiles": 1, "count_Flowering Plants": 6, "count_Insects": 2, "count_Mammals": 0, "count_Ferns": 0, "count_Birds": 4, "count_Mosses": 0, "count_Gymnosperms": 0, "count_Arachnids": 0, "count_Basidiomycota": 0, "count_Amphibians": 0, "count_Molluscs": 0, "unique_species_count": 13.0, "countryCode": "RS" }, "geometry": { "type": "MultiPolygon", "coordinates": [ [ [ [ 19.914924238522701, 43.137328114687293 ], [ 19.854421996872013, 42.670799287465087 ], [ 19.213330610628557, 42.418573913684426 ], [ 18.626728977814338, 42.627888693464506 ], [ 18.678144830472313, 43.093762324968218 ], [ 19.325238340018, 43.351017205796431 ], [ 19.914924238522701, 43.137328114687293 ] ] ] ] } },
{ "type": "Feature", "properties": { "geogrid_id": "842918974020499725", "seqnum": 14740.0, "lat_c": 42.91897406151822, "lon_c": 20.499724517213156, "res": 8.0, "count_Sac Fungi": 3, "count_Reptiles": 2, "count_Flowering Plants": 141, "count_Insects": 62, "count_Mammals": 4, "count_Ferns": 2, "count_Birds": 35, "count_Mosses": 0, "count_Gymnosperms": 1, "count_Arachnids": 1, "count_Basidiomycota": 45, "count_Amphibians": 3, "count_Molluscs": 0, "unique_species_count": 299.0, "countryCode": "RS" }, "geometry": { "type": "MultiPolygon", "coordinates": [ [ [ [ 21.149287558751308, 43.16320529042877 ], [ 21.079631602622982, 42.696179615172731 ], [ 20.435337999925334, 42.452227421801702 ], [ 19.854421996872013, 42.670799287465087 ], [ 19.914924238522701, 43.137328114687293 ], [ 20.565495157338173, 43.38582698264679 ], [ 21.149287558751308, 43.16320529042877 ] ] ] ] } },
{ "type": "Feature", "properties": { "geogrid_id": "842936333021728121", "seqnum": 14822.0, "lat_c": 42.936333003807881, "lon_c": 21.728121111350159, "res": 8.0, "count_Sac Fungi": 26, "count_Reptiles": 12, "count_Flowering Plants": 598, "count_Insects": 930, "count_Mammals": 12, "count_Ferns": 10, "count_Birds": 51, "count_Mosses": 6, "count_Gymnosperms": 1, "count_Arachnids": 17, "count_Basidiomycota": 181, "count_Amphibians": 7, "count_Molluscs": 12, "unique_species_count": 1863.0, "countryCode": "RS" }, "geometry": { "type": "MultiPolygon", "coordinates": [ [ [ [ 22.380856768618685, 43.172759867332161 ], [ 22.30200919495919, 42.705408899368621 ], [ 21.654649560241911, 42.469156871274862 ], [ 21.079631602622982, 42.696179615172731 ], [ 21.149287558751308, 43.16320529042877 ], [ 21.803160783810316, 43.403580878730821 ], [ 22.380856768618685, 43.172759867332161 ] ] ] ] } },
{ "type": "Feature", "properties": { "geogrid_id": "842938050022953555", "seqnum": 14904.0, "lat_c": 42.938050426493199, "lon_c": 22.953555406695852, "res": 8.0, "count_Sac Fungi": 4, "count_Reptiles": 7, "count_Flowering Plants": 132, "count_Insects": 346, "count_Mammals": 3, "count_Ferns": 1, "count_Birds": 24, "count_Mosses": 2, "count_Gymnosperms": 2, "count_Arachnids": 7, "count_Basidiomycota": 22, "count_Amphibians": 2, "count_Molluscs": 4, "unique_species_count": 556.0, "countryCode": "RS" }, "geometry": { "type": "MultiPolygon", "coordinates": [ [ [ [ 23.609337001372936, 43.167127248527429 ], [ 23.521286961562378, 42.699629562250998 ], [ 22.870974508092615, 42.470621041288638 ], [ 22.30200919495919, 42.705408899368621 ], [ 22.380856768618685, 43.172759867332161 ], [ 23.037887899598854, 43.405518028215212 ], [ 23.609337001372936, 43.167127248527429 ] ] ] ] } },
{ "type": "Feature", "properties": { "geogrid_id": "843559803018730687", "seqnum": 14577.0, "lat_c": 43.559803498779885, "lon_c": 18.730687442951844, "res": 8.0, "count_Sac Fungi": 0, "count_Reptiles": 0, "count_Flowering Plants": 2, "count_Insects": 0, "count_Mammals": 1, "count_Ferns": 0, "count_Birds": 0, "count_Mosses": 0, "count_Gymnosperms": 1, "count_Arachnids": 0, "count_Basidiomycota": 0, "count_Amphibians": 0, "count_Molluscs": 0, "unique_species_count": 4.0, "countryCode": "RS" }, "geometry": { "type": "MultiPolygon", "coordinates": [ [ [ [ 19.383033946420106, 43.817465908151398 ], [ 19.325238340018, 43.351017205796431 ], [ 18.678144830472313, 43.093762324968218 ], [ 18.082836555518472, 43.297657394881846 ], [ 18.131306762463542, 43.763435045984629 ], [ 18.784395972114055, 44.026025869411548 ], [ 19.383033946420106, 43.817465908151398 ] ] ] ] } },
{ "type": "Feature", "properties": { "geogrid_id": "843603988019976741", "seqnum": 14659.0, "lat_c": 43.603987930417205, "lon_c": 19.976741004493533, "res": 8.0, "count_Sac Fungi": 24, "count_Reptiles": 9, "count_Flowering Plants": 451, "count_Insects": 279, "count_Mammals": 19, "count_Ferns": 10, "count_Birds": 101, "count_Mosses": 3, "count_Gymnosperms": 5, "count_Arachnids": 25, "count_Basidiomycota": 198, "count_Amphibians": 8, "count_Molluscs": 5, "unique_species_count": 1137.0, "countryCode": "RS" }, "geometry": { "type": "MultiPolygon", "coordinates": [ [ [ [ 20.63269875418051, 43.852799886299749 ], [ 20.565495157338173, 43.38582698264679 ], [ 19.914924238522701, 43.137328114687293 ], [ 19.325238340018, 43.351017205796431 ], [ 19.383033946420106, 43.817465908151398 ], [ 20.03991847173798, 44.070792367874482 ], [ 20.63269875418051, 43.852799886299749 ] ] ] ] } },
{ "type": "Feature", "properties": { "geogrid_id": "843630327021220446", "seqnum": 14741.0, "lat_c": 43.630326631731243, "lon_c": 21.220445585356934, "res": 8.0, "count_Sac Fungi": 16, "count_Reptiles": 9, "count_Flowering Plants": 357, "count_Insects": 258, "count_Mammals": 11, "count_Ferns": 7, "count_Birds": 99, "count_Mosses": 6, "count_Gymnosperms": 6, "count_Arachnids": 7, "count_Basidiomycota": 181, "count_Amphibians": 9, "count_Molluscs": 11, "unique_species_count": 977.0, "countryCode": "RS" }, "geometry": { "type": "MultiPolygon", "coordinates": [ [ [ [ 21.879824184639602, 43.870913730398257 ], [ 21.803160783810316, 43.403580878730821 ], [ 21.149287558751308, 43.16320529042877 ], [ 20.565495157338173, 43.38582698264679 ], [ 20.63269875418051, 43.852799886299749 ], [ 21.293158804193755, 44.097556940496801 ], [ 21.879824184639602, 43.870913730398257 ] ] ] ] } },
{ "type": "Feature", "properties": { "geogrid_id": "843640172022461394", "seqnum": 14823.0, "lat_c": 43.640172213231779, "lon_c": 22.461393510296347, "res": 8.0, "count_Sac Fungi": 25, "count_Reptiles": 11, "count_Flowering Plants": 457, "count_Insects": 399, "count_Mammals": 11, "count_Ferns": 5, "count_Birds": 45, "count_Mosses": 5, "count_Gymnosperms": 1, "count_Arachnids": 18, "count_Basidiomycota": 128, "count_Amphibians": 4, "count_Molluscs": 32, "unique_species_count": 1141.0, "countryCode": "RS" }, "geometry": { "type": "MultiPolygon", "coordinates": [ [ [ [ 23.124034214236911, 43.873036366457846 ], [ 23.037887899598854, 43.405518028215212 ], [ 22.380856768618685, 43.172759867332161 ], [ 21.803160783810316, 43.403580878730821 ], [ 21.879824184639602, 43.870913730398257 ], [ 22.543679357046187, 44.107658639502993 ], [ 23.124034214236911, 43.873036366457846 ] ] ] ] } },
{ "type": "Feature", "properties": { "geogrid_id": "844284084019442115", "seqnum": 14578.0, "lat_c": 44.284084106800414, "lon_c": 19.442114782380855, "res": 8.0, "count_Sac Fungi": 70, "count_Reptiles": 9, "count_Flowering Plants": 728, "count_Insects": 940, "count_Mammals": 20, "count_Ferns": 14, "count_Birds": 145, "count_Mosses": 21, "count_Gymnosperms": 8, "count_Arachnids": 70, "count_Basidiomycota": 381, "count_Amphibians": 11, "count_Molluscs": 40, "unique_species_count": 2457.0, "countryCode": "RS" }, "geometry": { "type": "MultiPolygon", "coordinates": [ [ [ [ 20.104504450650108, 44.537754684998546 ], [ 20.03991847173798, 44.070792367874482 ], [ 19.383033946420106, 43.817465908151398 ], [ 18.784395972114055, 44.026025869411548 ], [ 18.83931097397841, 44.492442738808393 ], [ 19.502525836316899, 44.750884946252349 ], [ 20.104504450650108, 44.537754684998546 ] ] ] ] } },
{ "type": "Feature", "properties": { "geogrid_id": "844319906020701386", "seqnum": 14660.0, "lat_c": 44.319906082359729, "lon_c": 20.701385830032304, "res": 8.0, "count_Sac Fungi": 35, "count_Reptiles": 11, "count_Flowering Plants": 735, "count_Insects": 670, "count_Mammals": 16, "count_Ferns": 8, "count_Birds": 166, "count_Mosses": 8, "count_Gymnosperms": 7, "count_Arachnids": 28, "count_Basidiomycota": 216, "count_Amphibians": 9, "count_Molluscs": 8, "unique_species_count": 1917.0, "countryCode": "RS" }, "geometry": { "type": "MultiPolygon", "coordinates": [ [ [ [ 21.367482207160666, 44.564909128754508 ], [ 21.293158804193755, 44.097556940496801 ], [ 20.63269875418051, 43.852799886299749 ], [ 20.03991847173798, 44.070792367874482 ], [ 20.104504450650108, 44.537754684998546 ], [ 20.771608723091607, 44.787158505275173 ], [ 21.367482207160666, 44.564909128754508 ] ] ] ] } },
{ "type": "Feature", "properties": { "geogrid_id": "844338344021958169", "seqnum": 14742.0, "lat_c": 44.338344392778595, "lon_c": 21.958168838957747, "res": 8.0, "count_Sac Fungi": 12, "count_Reptiles": 12, "count_Flowering Plants": 307, "count_Insects": 243, "count_Mammals": 20, "count_Ferns": 7, "count_Birds": 72, "count_Mosses": 1, "count_Gymnosperms": 3, "count_Arachnids": 12, "count_Basidiomycota": 44, "count_Amphibians": 6, "count_Molluscs": 8, "unique_species_count": 747.0, "countryCode": "RS" }, "geometry": { "type": "MultiPolygon", "coordinates": [ [ [ [ 22.627776353319163, 44.575231449693945 ], [ 22.543679357046187, 44.107658639502993 ], [ 21.879824184639602, 43.870913730398257 ], [ 21.293158804193755, 44.097556940496801 ], [ 21.367482207160666, 44.564909128754508 ], [ 22.038254332798431, 44.805885310900962 ], [ 22.627776353319163, 44.575231449693945 ] ] ] ] } },
{ "type": "Feature", "properties": { "geogrid_id": "844340618023212059", "seqnum": 14824.0, "lat_c": 44.340617554772422, "lon_c": 23.212058725870058, "res": 8.0, "count_Sac Fungi": 0, "count_Reptiles": 0, "count_Flowering Plants": 11, "count_Insects": 1, "count_Mammals": 1, "count_Ferns": 0, "count_Birds": 13, "count_Mosses": 0, "count_Gymnosperms": 0, "count_Arachnids": 0, "count_Basidiomycota": 0, "count_Amphibians": 0, "count_Molluscs": 2, "unique_species_count": 28.0, "countryCode": "RS" }, "geometry": { "type": "MultiPolygon", "coordinates": [ [ [ [ 23.88500871090179, 44.569834313701186 ], [ 23.791130125589127, 44.102217949980485 ], [ 23.124034214236911, 43.873036366457846 ], [ 22.543679357046187, 44.107658639502993 ], [ 22.627776353319163, 44.575231449693945 ], [ 23.30202811443997, 44.808273307062137 ], [ 23.88500871090179, 44.569834313701186 ] ] ] ] } },
{ "type": "Feature", "properties": { "geogrid_id": "844959067018895475", "seqnum": 14497.0, "lat_c": 44.959067076424439, "lon_c": 18.895474507853436, "res": 8.0, "count_Sac Fungi": 26, "count_Reptiles": 4, "count_Flowering Plants": 90, "count_Insects": 114, "count_Mammals": 14, "count_Ferns": 0, "count_Birds": 80, "count_Mosses": 0, "count_Gymnosperms": 0, "count_Arachnids": 0, "count_Basidiomycota": 174, "count_Amphibians": 4, "count_Molluscs": 6, "unique_species_count": 512.0, "countryCode": "RS" }, "geometry": { "type": "MultiPolygon", "coordinates": [ [ [ [ 19.564313783649101, 45.217881233049084 ], [ 19.502525836316899, 44.750884946252349 ], [ 18.83931097397841, 44.492442738808393 ], [ 18.231545085786795, 44.695622764678859 ], [ 18.283389828108959, 45.162058605377474 ], [ 18.952930244563021, 45.42591153750471 ], [ 19.564313783649101, 45.217881233049084 ] ] ] ] } },
{ "type": "Feature", "properties": { "geogrid_id": "845004888020170549", "seqnum": 14579.0, "lat_c": 45.004887781385676, "lon_c": 20.170548506618488, "res": 8.0, "count_Sac Fungi": 99, "count_Reptiles": 14, "count_Flowering Plants": 878, "count_Insects": 1704, "count_Mammals": 34, "count_Ferns": 7, "count_Birds": 249, "count_Mosses": 14, "count_Gymnosperms": 16, "count_Arachnids": 66, "count_Basidiomycota": 529, "count_Amphibians": 12, "count_Molluscs": 77, "unique_species_count": 3699.0, "countryCode": "RS" }, "geometry": { "type": "MultiPolygon", "coordinates": [ [ [ [ 20.843421719869532, 45.25456972833593 ], [ 20.771608723091607, 44.787158505275173 ], [ 20.104504450650108, 44.537754684998546 ], [ 19.502525836316899, 44.750884946252349 ], [ 19.564313783649101, 45.217881233049084 ], [ 20.238102086457953, 45.472204213627819 ], [ 20.843421719869532, 45.25456972833593 ] ] ] ] } },
{ "type": "Feature", "properties": { "geogrid_id": "845032396021443473", "seqnum": 14661.0, "lat_c": 45.032395732112867, "lon_c": 21.443472794168553, "res": 8.0, "count_Sac Fungi": 5, "count_Reptiles": 8, "count_Flowering Plants": 282, "count_Insects": 343, "count_Mammals": 10, "count_Ferns": 2, "count_Birds": 169, "count_Mosses": 2, "count_Gymnosperms": 4, "count_Arachnids": 6, "count_Basidiomycota": 33, "count_Amphibians": 7, "count_Molluscs": 20, "unique_species_count": 891.0, "countryCode": "RS" }, "geometry": { "type": "MultiPolygon", "coordinates": [ [ [ [ 22.120142461631144, 45.273548550994477 ], [ 22.038254332798431, 44.805885310900962 ], [ 21.367482207160666, 44.564909128754508 ], [ 20.771608723091607, 44.787158505275173 ], [ 20.843421719869532, 45.25456972833593 ], [ 21.521189716703788, 45.500028921329296 ], [ 22.120142461631144, 45.273548550994477 ] ] ] ] } },
{ "type": "Feature", "properties": { "geogrid_id": "845042903022713749", "seqnum": 14743.0, "lat_c": 45.042902557006471, "lon_c": 22.713748803912573, "res": 8.0, "count_Sac Fungi": 1, "count_Reptiles": 4, "count_Flowering Plants": 62, "count_Insects": 19, "count_Mammals": 3, "count_Ferns": 1, "count_Birds": 50, "count_Mosses": 0, "count_Gymnosperms": 1, "count_Arachnids": 1, "count_Basidiomycota": 2, "count_Amphibians": 2, "count_Molluscs": 0, "unique_species_count": 146.0, "countryCode": "RS" }, "geometry": { "type": "MultiPolygon", "coordinates": [ [ [ [ 23.394011527933511, 45.276014943253827 ], [ 23.30202811443997, 44.808273307062137 ], [ 22.627776353319163, 44.575231449693945 ], [ 22.038254332798431, 44.805885310900962 ], [ 22.120142461631144, 45.273548550994477 ], [ 22.801663433442215, 45.510683491615438 ], [ 23.394011527933511, 45.276014943253827 ] ] ] ] } },
{ "type": "Feature", "properties": { "geogrid_id": "845628739018336439", "seqnum": 14416.0, "lat_c": 45.628739125032752, "lon_c": 18.336438521085583, "res": 8.0, "count_Sac Fungi": 5, "count_Reptiles": 5, "count_Flowering Plants": 49, "count_Insects": 15, "count_Mammals": 3, "count_Ferns": 0, "count_Birds": 24, "count_Mosses": 0, "count_Gymnosperms": 0, "count_Arachnids": 2, "count_Basidiomycota": 23, "count_Amphibians": 0, "count_Molluscs": 0, "unique_species_count": 126.0, "countryCode": "RS" }, "geometry": { "type": "MultiPolygon", "coordinates": [ [ [ [ 19.011723579405384, 45.892988479682266 ], [ 18.952930244563021, 45.42591153750471 ], [ 18.283389828108959, 45.162058605377474 ], [ 17.666327624658745, 45.359603651573941 ], [ 17.714895789381035, 45.826111496920028 ], [ 18.390733352990161, 46.095676500114529 ], [ 19.011723579405384, 45.892988479682266 ] ] ] ] } },
{ "type": "Feature", "properties": { "geogrid_id": "845685085019627527", "seqnum": 14498.0, "lat_c": 45.685085451888796, "lon_c": 19.627527106748101, "res": 8.0, "count_Sac Fungi": 17, "count_Reptiles": 10, "count_Flowering Plants": 336, "count_Insects": 474, "count_Mammals": 19, "count_Ferns": 1, "count_Birds": 158, "count_Mosses": 1, "count_Gymnosperms": 5, "count_Arachnids": 15, "count_Basidiomycota": 144, "count_Amphibians": 7, "count_Molluscs": 9, "unique_species_count": 1196.0, "countryCode": "RS" }, "geometry": { "type": "MultiPolygon", "coordinates": [ [ [ [ 20.307218650439747, 45.93971620911767 ], [ 20.238102086457953, 45.472204213627819 ], [ 19.564313783649101, 45.217881233049084 ], [ 18.952930244563021, 45.42591153750471 ], [ 19.011723579405384, 45.892988479682266 ], [ 19.692216220388389, 46.152509780175933 ], [ 20.307218650439747, 45.93971620911767 ] ] ] ] } },
{ "type": "Feature", "properties": { "geogrid_id": "845722152020916881", "seqnum": 14580.0, "lat_c": 45.722151976474841, "lon_c": 20.916881193257495, "res": 8.0, "count_Sac Fungi": 2, "count_Reptiles": 3, "count_Flowering Plants": 122, "count_Insects": 88, "count_Mammals": 8, "count_Ferns": 0, "count_Birds": 121, "count_Mosses": 0, "count_Gymnosperms": 0, "count_Arachnids": 6, "count_Basidiomycota": 10, "count_Amphibians": 1, "count_Molluscs": 5, "unique_species_count": 366.0, "countryCode": "RS" }, "geometry": { "type": "MultiPolygon", "coordinates": [ [ [ [ 21.600694427878206, 45.967820512504211 ], [ 21.521189716703788, 45.500028921329296 ], [ 20.843421719869532, 45.25456972833593 ], [ 20.238102086457953, 45.472204213627819 ], [ 20.307218650439747, 45.93971620911767 ], [ 20.992045747023624, 46.189917137635042 ], [ 21.600694427878206, 45.967820512504211 ] ] ] ] } },
{ "type": "Feature", "properties": { "geogrid_id": "846360310019071902", "seqnum": 14417.0, "lat_c": 46.360309977986134, "lon_c": 19.071901750498959, "res": 8.0, "count_Sac Fungi": 2, "count_Reptiles": 0, "count_Flowering Plants": 16, "count_Insects": 7, "count_Mammals": 0, "count_Ferns": 0, "count_Birds": 0, "count_Mosses": 0, "count_Gymnosperms": 0, "count_Arachnids": 0, "count_Basidiomycota": 13, "count_Amphibians": 0, "count_Molluscs": 0, "unique_species_count": 38.0, "countryCode": "RS" }, "geometry": { "type": "MultiPolygon", "coordinates": [ [ [ [ 19.758433603424418, 46.6201661010696 ], [ 19.692216220388389, 46.152509780175933 ], [ 19.011723579405384, 45.892988479682266 ], [ 18.390733352990161, 46.095676500114529 ], [ 18.4463182564023, 46.562882651935091 ], [ 19.133513963194126, 46.827887838344907 ], [ 19.758433603424418, 46.6201661010696 ] ] ] ] } },
{ "type": "Feature", "properties": { "geogrid_id": "846407436020377954", "seqnum": 14499.0, "lat_c": 46.407435678376473, "lon_c": 20.377953810663751, "res": 8.0, "count_Sac Fungi": 1, "count_Reptiles": 3, "count_Flowering Plants": 89, "count_Insects": 98, "count_Mammals": 3, "count_Ferns": 0, "count_Birds": 58, "count_Mosses": 0, "count_Gymnosperms": 0, "count_Arachnids": 2, "count_Basidiomycota": 11, "count_Amphibians": 0, "count_Molluscs": 4, "unique_species_count": 269.0, "countryCode": "RS" }, "geometry": { "type": "MultiPolygon", "coordinates": [ [ [ [ 21.068976367537783, 46.657876772736756 ], [ 20.992045747023624, 46.189917137635042 ], [ 20.307218650439747, 45.93971620911767 ], [ 19.692216220388389, 46.152509780175933 ], [ 19.758433603424418, 46.6201661010696 ], [ 20.450365476547443, 46.875374225953159 ], [ 21.068976367537783, 46.657876772736756 ] ] ] ] } }
]
}
