{
"type": "FeatureCollection",
"name": "SA",
"crs": { "type": "name", "properties": { "name": "urn:ogc:def:crs:OGC:1.3:CRS84" } },
"features": [
{ "type": "Feature", "properties": { "geogrid_id": "716298801041022173", "seqnum": 6678.0, "lat_c": 16.298801426832831, "lon_c": 41.022173076335015, "res": 7.0, "count_Flowering Plants": 0, "count_Arachnids": 0, "count_Mammals": 3, "count_Reptiles": 0, "count_Insects": 0, "count_Birds": 0, "count_Amphibians": 0, "count_Molluscs": 0, "count_Gymnosperms": 0, "count_Ferns": 0, "count_Basidiomycota": 0, "count_Sac Fungi": 0, "unique_species_count": 3.0, "countryCode": "SA" }, "geometry": { "type": "MultiPolygon", "coordinates": [ [ [ [ 40.763796706550082, 17.044765166864671 ], [ 41.694207569769382, 16.903072301483483 ], [ 41.950773286765603, 16.159549925251074 ], [ 41.278850363133174, 15.554915659472307 ], [ 40.354286483288853, 15.691213950685849 ], [ 40.095722392836748, 16.437183267213168 ], [ 40.763796706550082, 17.044765166864671 ] ] ] ] } },
{ "type": "Feature", "properties": { "geogrid_id": "716761024042627046", "seqnum": 6733.0, "lat_c": 16.761023527186147, "lon_c": 42.627045721078211, "res": 7.0, "count_Flowering Plants": 27, "count_Arachnids": 1, "count_Mammals": 9, "count_Reptiles": 6, "count_Insects": 26, "count_Birds": 115, "count_Amphibians": 0, "count_Molluscs": 20, "count_Gymnosperms": 0, "count_Ferns": 0, "count_Basidiomycota": 0, "count_Sac Fungi": 0, "unique_species_count": 204.0, "countryCode": "SA" }, "geometry": { "type": "MultiPolygon", "coordinates": [ [ [ [ 42.370635609630924, 17.504042183000056 ], [ 43.307935163655422, 17.359391498329334 ], [ 43.562971248492467, 16.620127302794131 ], [ 42.882113703521057, 16.020761562789005 ], [ 41.950773286765603, 16.159549925251074 ], [ 41.694207569769382, 16.903072301483483 ], [ 42.370635609630924, 17.504042183000056 ] ] ] ] } },
{ "type": "Feature", "properties": { "geogrid_id": "716825479047101468", "seqnum": 6868.0, "lat_c": 16.825479099218999, "lon_c": 47.101468268392793, "res": 7.0, "count_Flowering Plants": 1, "count_Arachnids": 0, "count_Mammals": 0, "count_Reptiles": 0, "count_Insects": 0, "count_Birds": 0, "count_Amphibians": 0, "count_Molluscs": 0, "count_Gymnosperms": 0, "count_Ferns": 0, "count_Basidiomycota": 0, "count_Sac Fungi": 0, "unique_species_count": 1.0, "countryCode": "SA" }, "geometry": { "type": "MultiPolygon", "coordinates": [ [ [ [ 46.847602634231336, 17.542117412413596 ], [ 47.812080393797181, 17.425316419222305 ], [ 48.066506732740287, 16.719725037651124 ], [ 47.354961844156406, 16.114471737222274 ], [ 46.397619098007304, 16.22593557422039 ], [ 46.144385084653223, 16.946537919886438 ], [ 46.847602634231336, 17.542117412413596 ] ] ] ] } },
{ "type": "Feature", "properties": { "geogrid_id": "717184886039835246", "seqnum": 6652.0, "lat_c": 17.184886444541654, "lon_c": 39.8352461030032, "res": 7.0, "count_Flowering Plants": 0, "count_Arachnids": 0, "count_Mammals": 3, "count_Reptiles": 0, "count_Insects": 0, "count_Birds": 0, "count_Amphibians": 0, "count_Molluscs": 0, "count_Gymnosperms": 0, "count_Ferns": 0, "count_Basidiomycota": 0, "count_Sac Fungi": 0, "unique_species_count": 3.0, "countryCode": "SA" }, "geometry": { "type": "MultiPolygon", "coordinates": [ [ [ [ 39.572771283373655, 17.934217638207119 ], [ 40.503641671364242, 17.792693513570438 ], [ 40.763796706550082, 17.044765166864671 ], [ 40.095722392836748, 16.437183267213168 ], [ 39.170911360930646, 16.573610754688765 ], [ 38.908068257619838, 17.322447028400127 ], [ 39.572771283373655, 17.934217638207119 ] ] ] ] } },
{ "type": "Feature", "properties": { "geogrid_id": "717216701044248723", "seqnum": 6787.0, "lat_c": 17.216701498004866, "lon_c": 44.248722726942717, "res": 7.0, "count_Flowering Plants": 7, "count_Arachnids": 0, "count_Mammals": 0, "count_Reptiles": 0, "count_Insects": 0, "count_Birds": 4, "count_Amphibians": 0, "count_Molluscs": 0, "count_Gymnosperms": 1, "count_Ferns": 0, "count_Basidiomycota": 0, "count_Sac Fungi": 0, "unique_species_count": 12.0, "countryCode": "SA" }, "geometry": { "type": "MultiPolygon", "coordinates": [ [ [ [ 43.993724836858597, 17.954731325805898 ], [ 44.939689556250151, 17.810640022044115 ], [ 45.193866879909393, 17.078152386868407 ], [ 44.502753158094755, 16.48227388215426 ], [ 43.562971248492467, 16.620127302794131 ], [ 43.307935163655422, 17.359391498329334 ], [ 43.993724836858597, 17.954731325805898 ] ] ] ] } },
{ "type": "Feature", "properties": { "geogrid_id": "717648933041436082", "seqnum": 6706.0, "lat_c": 17.648933391520135, "lon_c": 41.436082386162788, "res": 7.0, "count_Flowering Plants": 22, "count_Arachnids": 3, "count_Mammals": 3, "count_Reptiles": 0, "count_Insects": 4, "count_Birds": 19, "count_Amphibians": 1, "count_Molluscs": 0, "count_Gymnosperms": 0, "count_Ferns": 1, "count_Basidiomycota": 0, "count_Sac Fungi": 0, "unique_species_count": 53.0, "countryCode": "SA" }, "geometry": { "type": "MultiPolygon", "coordinates": [ [ [ [ 41.17632310972671, 18.397009409500413 ], [ 42.112816932927721, 18.249684507565519 ], [ 42.370635609630924, 17.504042183000056 ], [ 41.694207569769382, 16.903072301483483 ], [ 40.763796706550082, 17.044765166864671 ], [ 40.503641671364242, 17.792693513570438 ], [ 41.17632310972671, 18.397009409500413 ] ] ] ] } },
{ "type": "Feature", "properties": { "geogrid_id": "717672003045890595", "seqnum": 6841.0, "lat_c": 17.672003263566442, "lon_c": 45.890594668450234, "res": 7.0, "count_Flowering Plants": 17, "count_Arachnids": 0, "count_Mammals": 0, "count_Reptiles": 0, "count_Insects": 0, "count_Birds": 0, "count_Amphibians": 0, "count_Molluscs": 0, "count_Gymnosperms": 0, "count_Ferns": 0, "count_Basidiomycota": 0, "count_Sac Fungi": 0, "unique_species_count": 17.0, "countryCode": "SA" }, "geometry": { "type": "MultiPolygon", "coordinates": [ [ [ [ 45.636222493588249, 18.402151580740654 ], [ 46.593353803718088, 18.264196075628853 ], [ 46.847602634231336, 17.542117412413596 ], [ 46.144385084653223, 16.946537919886438 ], [ 45.193866879909393, 17.078152386868407 ], [ 44.939689556250151, 17.810640022044115 ], [ 45.636222493588249, 18.402151580740654 ] ] ] ] } },
{ "type": "Feature", "properties": { "geogrid_id": "718101739043051713", "seqnum": 6760.0, "lat_c": 18.101738815972475, "lon_c": 43.051713379819844, "res": 7.0, "count_Flowering Plants": 68, "count_Arachnids": 3, "count_Mammals": 6, "count_Reptiles": 5, "count_Insects": 63, "count_Birds": 66, "count_Amphibians": 2, "count_Molluscs": 0, "count_Gymnosperms": 1, "count_Ferns": 3, "count_Basidiomycota": 0, "count_Sac Fungi": 2, "unique_species_count": 219.0, "countryCode": "SA" }, "geometry": { "type": "MultiPolygon", "coordinates": [ [ [ [ 42.794246466635734, 18.847023175103921 ], [ 43.73771021901446, 18.696206200049907 ], [ 43.993724836858597, 17.954731325805898 ], [ 43.307935163655422, 17.359391498329334 ], [ 42.370635609630924, 17.504042183000056 ], [ 42.112816932927721, 18.249684507565519 ], [ 42.794246466635734, 18.847023175103921 ] ] ] ] } },
{ "type": "Feature", "properties": { "geogrid_id": "718137220047557449", "seqnum": 6896.0, "lat_c": 18.137219611607776, "lon_c": 47.557448897482935, "res": 7.0, "count_Flowering Plants": 1, "count_Arachnids": 0, "count_Mammals": 0, "count_Reptiles": 0, "count_Insects": 0, "count_Birds": 0, "count_Amphibians": 0, "count_Molluscs": 0, "count_Gymnosperms": 0, "count_Ferns": 0, "count_Basidiomycota": 0, "count_Sac Fungi": 0, "unique_species_count": 1.0, "countryCode": "SA" }, "geometry": { "type": "MultiPolygon", "coordinates": [ [ [ [ 47.302616885852977, 18.855225336956103 ], [ 48.274512523272541, 18.73268488159211 ], [ 48.530087166524979, 18.026478962283299 ], [ 47.812080393797181, 17.425316419222305 ], [ 46.847602634231336, 17.542117412413596 ], [ 46.593353803718088, 18.264196075628853 ], [ 47.302616885852977, 18.855225336956103 ] ] ] ] } },
{ "type": "Feature", "properties": { "geogrid_id": "718542471040241626", "seqnum": 6679.0, "lat_c": 18.542471202712765, "lon_c": 40.241625818352894, "res": 7.0, "count_Flowering Plants": 3, "count_Arachnids": 0, "count_Mammals": 4, "count_Reptiles": 0, "count_Insects": 0, "count_Birds": 2, "count_Amphibians": 0, "count_Molluscs": 1, "count_Gymnosperms": 0, "count_Ferns": 0, "count_Basidiomycota": 0, "count_Sac Fungi": 0, "unique_species_count": 10.0, "countryCode": "SA" }, "geometry": { "type": "MultiPolygon", "coordinates": [ [ [ [ 39.977664313470456, 19.293981125732316 ], [ 40.914852663689054, 19.147174399224241 ], [ 41.17632310972671, 18.397009409500413 ], [ 40.503641671364242, 17.792693513570438 ], [ 39.572771283373655, 17.934217638207119 ], [ 39.308208821392078, 18.685069356317573 ], [ 39.977664313470456, 19.293981125732316 ] ] ] ] } },
{ "type": "Feature", "properties": { "geogrid_id": "718547150044684718", "seqnum": 6815.0, "lat_c": 18.547150455906827, "lon_c": 44.684717753444467, "res": 7.0, "count_Flowering Plants": 1, "count_Arachnids": 3, "count_Mammals": 0, "count_Reptiles": 4, "count_Insects": 2, "count_Birds": 3, "count_Amphibians": 0, "count_Molluscs": 0, "count_Gymnosperms": 0, "count_Ferns": 0, "count_Basidiomycota": 0, "count_Sac Fungi": 0, "unique_species_count": 13.0, "countryCode": "SA" }, "geometry": { "type": "MultiPolygon", "coordinates": [ [ [ [ 44.428912019809331, 19.287510218393571 ], [ 45.381242061610145, 19.136796692641585 ], [ 45.636222493588249, 18.402151580740654 ], [ 44.939689556250151, 17.810640022044115 ], [ 43.993724836858597, 17.954731325805898 ], [ 43.73771021901446, 18.696206200049907 ], [ 44.428912019809331, 19.287510218393571 ] ] ] ] } },
{ "type": "Feature", "properties": { "geogrid_id": "718991517046338710", "seqnum": 6869.0, "lat_c": 18.991516610084854, "lon_c": 46.338709874567506, "res": 7.0, "count_Flowering Plants": 13, "count_Arachnids": 0, "count_Mammals": 0, "count_Reptiles": 0, "count_Insects": 0, "count_Birds": 0, "count_Amphibians": 0, "count_Molluscs": 0, "count_Gymnosperms": 0, "count_Ferns": 0, "count_Basidiomycota": 0, "count_Sac Fungi": 0, "unique_species_count": 13.0, "countryCode": "SA" }, "geometry": { "type": "MultiPolygon", "coordinates": [ [ [ [ 46.083658173726342, 19.723872847073274 ], [ 47.04758870596099, 19.579114371389721 ], [ 47.302616885852977, 18.855225336956103 ], [ 46.593353803718088, 18.264196075628853 ], [ 45.636222493588249, 18.402151580740654 ], [ 45.381242061610145, 19.136796692641585 ], [ 46.083658173726342, 19.723872847073274 ] ] ] ] } },
{ "type": "Feature", "properties": { "geogrid_id": "718997815041853521", "seqnum": 6734.0, "lat_c": 18.997814868251577, "lon_c": 41.853521041362214, "res": 7.0, "count_Flowering Plants": 33, "count_Arachnids": 2, "count_Mammals": 7, "count_Reptiles": 12, "count_Insects": 15, "count_Birds": 52, "count_Amphibians": 1, "count_Molluscs": 0, "count_Gymnosperms": 1, "count_Ferns": 1, "count_Basidiomycota": 0, "count_Sac Fungi": 0, "unique_species_count": 124.0, "countryCode": "SA" }, "geometry": { "type": "MultiPolygon", "coordinates": [ [ [ [ 41.592676985597272, 19.748295111775093 ], [ 42.535472956008455, 19.595095407512698 ], [ 42.794246466635734, 18.847023175103921 ], [ 42.112816932927721, 18.249684507565519 ], [ 41.17632310972671, 18.397009409500413 ], [ 40.914852663689054, 19.147174399224241 ], [ 41.592676985597272, 19.748295111775093 ] ] ] ] } },
{ "type": "Feature", "properties": { "geogrid_id": "719437332039041467", "seqnum": 6653.0, "lat_c": 19.437332499964953, "lon_c": 39.041466697133018, "res": 7.0, "count_Flowering Plants": 0, "count_Arachnids": 0, "count_Mammals": 4, "count_Reptiles": 0, "count_Insects": 0, "count_Birds": 1, "count_Amphibians": 0, "count_Molluscs": 0, "count_Gymnosperms": 0, "count_Ferns": 0, "count_Basidiomycota": 0, "count_Sac Fungi": 0, "unique_species_count": 5.0, "countryCode": "SA" }, "geometry": { "type": "MultiPolygon", "coordinates": [ [ [ [ 38.772449851476559, 20.190896404720998 ], [ 39.711669523475692, 20.047104385653334 ], [ 39.977664313470456, 19.293981125732316 ], [ 39.308208821392078, 18.685069356317573 ], [ 38.375632013324534, 18.823989739311809 ], [ 38.105844573761914, 19.576493800846087 ], [ 38.772449851476559, 20.190896404720998 ] ] ] ] } },
{ "type": "Feature", "properties": { "geogrid_id": "719440965043480628", "seqnum": 6788.0, "lat_c": 19.440965113136897, "lon_c": 43.480627841463161, "res": 7.0, "count_Flowering Plants": 7, "count_Arachnids": 0, "count_Mammals": 0, "count_Reptiles": 0, "count_Insects": 0, "count_Birds": 1, "count_Amphibians": 0, "count_Molluscs": 0, "count_Gymnosperms": 0, "count_Ferns": 0, "count_Basidiomycota": 0, "count_Sac Fungi": 0, "unique_species_count": 8.0, "countryCode": "SA" }, "geometry": { "type": "MultiPolygon", "coordinates": [ [ [ [ 43.222424853343888, 20.188843351859884 ], [ 44.172231396678626, 20.031541157586553 ], [ 44.428912019809331, 19.287510218393571 ], [ 43.73771021901446, 18.696206200049907 ], [ 42.794246466635734, 18.847023175103921 ], [ 42.535472956008455, 19.595095407512698 ], [ 43.222424853343888, 20.188843351859884 ] ] ] ] } },
{ "type": "Feature", "properties": { "geogrid_id": "719445760048018929", "seqnum": 6923.0, "lat_c": 19.445760235578188, "lon_c": 48.018928707195634, "res": 7.0, "count_Flowering Plants": 7, "count_Arachnids": 0, "count_Mammals": 0, "count_Reptiles": 0, "count_Insects": 0, "count_Birds": 0, "count_Amphibians": 0, "count_Molluscs": 0, "count_Gymnosperms": 0, "count_Ferns": 0, "count_Basidiomycota": 0, "count_Sac Fungi": 0, "unique_species_count": 7.0, "countryCode": "SA" }, "geometry": { "type": "MultiPolygon", "coordinates": [ [ [ [ 47.763359818648134, 20.165462611743312 ], [ 48.742929424716728, 20.036718985099906 ], [ 48.999487236045873, 19.329659969453594 ], [ 48.274512523272541, 18.73268488159211 ], [ 47.302616885852977, 18.855225336956103 ], [ 47.04758870596099, 19.579114371389721 ], [ 47.763359818648134, 20.165462611743312 ] ] ] ] } },
{ "type": "Feature", "properties": { "geogrid_id": "719875746045125626", "seqnum": 6842.0, "lat_c": 19.875746443327682, "lon_c": 45.125625709988412, "res": 7.0, "count_Flowering Plants": 2, "count_Arachnids": 0, "count_Mammals": 0, "count_Reptiles": 2, "count_Insects": 0, "count_Birds": 0, "count_Amphibians": 0, "count_Molluscs": 0, "count_Gymnosperms": 0, "count_Ferns": 0, "count_Basidiomycota": 0, "count_Sac Fungi": 0, "unique_species_count": 4.0, "countryCode": "SA" }, "geometry": { "type": "MultiPolygon", "coordinates": [ [ [ [ 44.869344590204875, 20.618802895528297 ], [ 45.828185251709542, 20.461051142298004 ], [ 46.083658173726342, 19.723872847073274 ], [ 45.381242061610145, 19.136796692641585 ], [ 44.428912019809331, 19.287510218393571 ], [ 44.172231396678626, 20.031541157586553 ], [ 44.869344590204875, 20.618802895528297 ] ] ] ] } },
{ "type": "Feature", "properties": { "geogrid_id": "719899300040651591", "seqnum": 6707.0, "lat_c": 19.899300306010524, "lon_c": 40.651591418352218, "res": 7.0, "count_Flowering Plants": 38, "count_Arachnids": 0, "count_Mammals": 12, "count_Reptiles": 6, "count_Insects": 18, "count_Birds": 44, "count_Amphibians": 2, "count_Molluscs": 9, "count_Gymnosperms": 2, "count_Ferns": 0, "count_Basidiomycota": 0, "count_Sac Fungi": 0, "unique_species_count": 131.0, "countryCode": "SA" }, "geometry": { "type": "MultiPolygon", "coordinates": [ [ [ [ 40.386457083162391, 20.653257051548962 ], [ 41.33021142547414, 20.500984658042821 ], [ 41.592676985597272, 19.748295111775093 ], [ 40.914852663689054, 19.147174399224241 ], [ 39.977664313470456, 19.293981125732316 ], [ 39.711669523475692, 20.047104385653334 ], [ 40.386457083162391, 20.653257051548962 ] ] ] ] } },
{ "type": "Feature", "properties": { "geogrid_id": "719929737049733206", "seqnum": 6978.0, "lat_c": 19.929737180294644, "lon_c": 49.733206081141077, "res": 7.0, "count_Flowering Plants": 1, "count_Arachnids": 0, "count_Mammals": 0, "count_Reptiles": 0, "count_Insects": 0, "count_Birds": 0, "count_Amphibians": 0, "count_Molluscs": 0, "count_Gymnosperms": 0, "count_Ferns": 0, "count_Basidiomycota": 0, "count_Sac Fungi": 0, "unique_species_count": 1.0, "countryCode": "SA" }, "geometry": { "type": "MultiPolygon", "coordinates": [ [ [ [ 49.475386793152296, 20.629382894894142 ], [ 50.398282553972678, 20.327287695940747 ], [ 50.578812023328474, 19.436142071900964 ], [ 49.91420229411839, 19.030538343635314 ], [ 48.999487236045873, 19.329659969453594 ], [ 48.742929424716728, 20.036718985099906 ], [ 49.475386793152296, 20.629382894894142 ] ] ] ] } },
{ "type": "Feature", "properties": { "geogrid_id": "720330016037833543", "seqnum": 6626.0, "lat_c": 20.330015712447413, "lon_c": 37.833542698810732, "res": 7.0, "count_Flowering Plants": 0, "count_Arachnids": 0, "count_Mammals": 1, "count_Reptiles": 0, "count_Insects": 0, "count_Birds": 2, "count_Amphibians": 0, "count_Molluscs": 22, "count_Gymnosperms": 0, "count_Ferns": 0, "count_Basidiomycota": 0, "count_Sac Fungi": 0, "unique_species_count": 25.0, "countryCode": "SA" }, "geometry": { "type": "MultiPolygon", "coordinates": [ [ [ [ 37.558620977000032, 21.084450774006257 ], [ 38.501060047305138, 20.945648883070824 ], [ 38.772449851476559, 20.190896404720998 ], [ 38.105844573761914, 19.576493800846087 ], [ 37.170445454355153, 19.710860666947006 ], [ 36.894618994778185, 20.463918221265462 ], [ 37.558620977000032, 21.084450774006257 ] ] ] ] } },
{ "type": "Feature", "properties": { "geogrid_id": "720345803042275329", "seqnum": 6761.0, "lat_c": 20.345803371968632, "lon_c": 42.275329268500826, "res": 7.0, "count_Flowering Plants": 16, "count_Arachnids": 1, "count_Mammals": 2, "count_Reptiles": 1, "count_Insects": 2, "count_Birds": 4, "count_Amphibians": 0, "count_Molluscs": 0, "count_Gymnosperms": 0, "count_Ferns": 0, "count_Basidiomycota": 0, "count_Sac Fungi": 0, "unique_species_count": 26.0, "countryCode": "SA" }, "geometry": { "type": "MultiPolygon", "coordinates": [ [ [ [ 42.013749635721155, 21.09899207518249 ], [ 42.963046526157932, 20.939672643114012 ], [ 43.222424853343888, 20.188843351859884 ], [ 42.535472956008455, 19.595095407512698 ], [ 41.592676985597272, 19.748295111775093 ], [ 41.33021142547414, 20.500984658042821 ], [ 42.013749635721155, 21.09899207518249 ] ] ] ] } },
{ "type": "Feature", "properties": { "geogrid_id": "720751277048486609", "seqnum": 6951.0, "lat_c": 20.751276981671815, "lon_c": 48.486608879474488, "res": 7.0, "count_Flowering Plants": 2, "count_Arachnids": 0, "count_Mammals": 0, "count_Reptiles": 0, "count_Insects": 0, "count_Birds": 0, "count_Amphibians": 0, "count_Molluscs": 0, "count_Gymnosperms": 0, "count_Ferns": 0, "count_Basidiomycota": 0, "count_Sac Fungi": 0, "unique_species_count": 2.0, "countryCode": "SA" }, "geometry": { "type": "MultiPolygon", "coordinates": [ [ [ [ 48.230575118810528, 21.473049732724114 ], [ 49.218035977893891, 21.337562416564509 ], [ 49.475386793152296, 20.629382894894142 ], [ 48.742929424716728, 20.036718985099906 ], [ 47.763359818648134, 20.165462611743312 ], [ 47.507830309823412, 20.891537132337923 ], [ 48.230575118810528, 21.473049732724114 ] ] ] ] } },
{ "type": "Feature", "properties": { "geogrid_id": "720779061043914633", "seqnum": 6816.0, "lat_c": 20.779060611141094, "lon_c": 43.914633378478257, "res": 7.0, "count_Flowering Plants": 1, "count_Arachnids": 0, "count_Mammals": 0, "count_Reptiles": 0, "count_Insects": 0, "count_Birds": 0, "count_Amphibians": 0, "count_Molluscs": 0, "count_Gymnosperms": 0, "count_Ferns": 0, "count_Basidiomycota": 0, "count_Sac Fungi": 0, "unique_species_count": 1.0, "countryCode": "SA" }, "geometry": { "type": "MultiPolygon", "coordinates": [ [ [ [ 43.656073870903889, 21.529881590615847 ], [ 44.612368645240807, 21.365762545007623 ], [ 44.869344590204875, 20.618802895528297 ], [ 44.172231396678626, 20.031541157586553 ], [ 43.222424853343888, 20.188843351859884 ], [ 42.963046526157932, 20.939672643114012 ], [ 43.656073870903889, 21.529881590615847 ] ] ] ] } },
{ "type": "Feature", "properties": { "geogrid_id": "720801720039443551", "seqnum": 6680.0, "lat_c": 20.801720354823381, "lon_c": 39.443550892045664, "res": 7.0, "count_Flowering Plants": 45, "count_Arachnids": 0, "count_Mammals": 4, "count_Reptiles": 3, "count_Insects": 17, "count_Birds": 84, "count_Amphibians": 0, "count_Molluscs": 5, "count_Gymnosperms": 1, "count_Ferns": 0, "count_Basidiomycota": 0, "count_Sac Fungi": 0, "unique_species_count": 159.0, "countryCode": "SA" }, "geometry": { "type": "MultiPolygon", "coordinates": [ [ [ [ 39.173214809209462, 21.55770673432141 ], [ 40.119364592892175, 21.408912611565881 ], [ 40.386457083162391, 20.653257051548962 ], [ 39.711669523475692, 20.047104385653334 ], [ 38.772449851476559, 20.190896404720998 ], [ 38.501060047305138, 20.945648883070824 ], [ 39.173214809209462, 21.55770673432141 ] ] ] ] } },
{ "type": "Feature", "properties": { "geogrid_id": "721108436053301368", "seqnum": 7114.0, "lat_c": 21.108435812839851, "lon_c": 53.301368398819477, "res": 7.0, "count_Flowering Plants": 0, "count_Arachnids": 0, "count_Mammals": 0, "count_Reptiles": 0, "count_Insects": 0, "count_Birds": 1, "count_Amphibians": 0, "count_Molluscs": 0, "count_Gymnosperms": 0, "count_Ferns": 0, "count_Basidiomycota": 0, "count_Sac Fungi": 0, "unique_species_count": 1.0, "countryCode": "SA" }, "geometry": { "type": "MultiPolygon", "coordinates": [ [ [ [ 53.128633392650002, 21.975963950945665 ], [ 53.99737601120934, 21.53776023425592 ], [ 54.164470388342338, 20.67480365136878 ], [ 53.471780899337936, 20.242270114160593 ], [ 52.611366038946898, 20.683356484390238 ], [ 52.435861966405888, 21.55553512324682 ], [ 53.128633392650002, 21.975963950945665 ] ] ] ] } },
{ "type": "Feature", "properties": { "geogrid_id": "721110664054862640", "seqnum": 7168.0, "lat_c": 21.110663617850602, "lon_c": 54.862639871881363, "res": 7.0, "count_Flowering Plants": 9, "count_Arachnids": 0, "count_Mammals": 0, "count_Reptiles": 0, "count_Insects": 0, "count_Birds": 0, "count_Amphibians": 0, "count_Molluscs": 0, "count_Gymnosperms": 0, "count_Ferns": 0, "count_Basidiomycota": 0, "count_Sac Fungi": 0, "unique_species_count": 9.0, "countryCode": "SA" }, "geometry": { "type": "MultiPolygon", "coordinates": [ [ [ [ 54.699231628404355, 21.97105825686937 ], [ 55.566160812608679, 21.549594797262682 ], [ 55.723318230694318, 20.690739534571282 ], [ 55.023737225376415, 20.250176707934994 ], [ 54.164470388342338, 20.67480365136878 ], [ 53.99737601120934, 21.53776023425592 ], [ 54.699231628404355, 21.97105825686937 ] ] ] ] } },
{ "type": "Feature", "properties": { "geogrid_id": "721202831045572277", "seqnum": 6870.0, "lat_c": 21.202830616766647, "lon_c": 45.572276877672586, "res": 7.0, "count_Flowering Plants": 3, "count_Arachnids": 0, "count_Mammals": 0, "count_Reptiles": 0, "count_Insects": 0, "count_Birds": 0, "count_Amphibians": 0, "count_Molluscs": 0, "count_Gymnosperms": 0, "count_Ferns": 0, "count_Basidiomycota": 0, "count_Sac Fungi": 0, "unique_species_count": 3.0, "countryCode": "SA" }, "geometry": { "type": "MultiPolygon", "coordinates": [ [ [ [ 45.315918035177013, 21.948983423958946 ], [ 46.281366376848091, 21.783744745606562 ], [ 46.536959802537417, 21.043617088286123 ], [ 45.828185251709542, 20.461051142298004 ], [ 44.869344590204875, 20.618802895528297 ], [ 44.612368645240807, 21.365762545007623 ], [ 45.315918035177013, 21.948983423958946 ] ] ] ] } },
{ "type": "Feature", "properties": { "geogrid_id": "721255741041066049", "seqnum": 6735.0, "lat_c": 21.255740598325396, "lon_c": 41.066048533922526, "res": 7.0, "count_Flowering Plants": 139, "count_Arachnids": 1, "count_Mammals": 2, "count_Reptiles": 7, "count_Insects": 19, "count_Birds": 41, "count_Amphibians": 2, "count_Molluscs": 1, "count_Gymnosperms": 3, "count_Ferns": 2, "count_Basidiomycota": 0, "count_Sac Fungi": 0, "unique_species_count": 217.0, "countryCode": "SA" }, "geometry": { "type": "MultiPolygon", "coordinates": [ [ [ [ 40.800109895569221, 22.012417797545176 ], [ 41.750666018444861, 21.854503798908667 ], [ 42.013749635721155, 21.09899207518249 ], [ 41.33021142547414, 20.500984658042821 ], [ 40.386457083162391, 20.653257051548962 ], [ 40.119364592892175, 21.408912611565881 ], [ 40.800109895569221, 22.012417797545176 ] ] ] ] } },
{ "type": "Feature", "properties": { "geogrid_id": "721623717047252365", "seqnum": 6924.0, "lat_c": 21.623716754335657, "lon_c": 47.252365007226921, "res": 7.0, "count_Flowering Plants": 3, "count_Arachnids": 0, "count_Mammals": 0, "count_Reptiles": 0, "count_Insects": 0, "count_Birds": 0, "count_Amphibians": 0, "count_Molluscs": 0, "count_Gymnosperms": 0, "count_Ferns": 0, "count_Basidiomycota": 0, "count_Sac Fungi": 0, "unique_species_count": 3.0, "countryCode": "SA" }, "geometry": { "type": "MultiPolygon", "coordinates": [ [ [ [ 46.996989137056701, 22.361722624757249 ], [ 47.974878906590803, 22.201737159509403 ], [ 48.230575118810528, 21.473049732724114 ], [ 47.507830309823412, 20.891537132337923 ], [ 46.536959802537417, 21.043617088286123 ], [ 46.281366376848091, 21.783744745606562 ], [ 46.996989137056701, 22.361722624757249 ] ] ] ] } },
{ "type": "Feature", "properties": { "geogrid_id": "721693281042702436", "seqnum": 6789.0, "lat_c": 21.693281308557275, "lon_c": 42.702436191914479, "res": 7.0, "count_Flowering Plants": 15, "count_Arachnids": 0, "count_Mammals": 0, "count_Reptiles": 0, "count_Insects": 0, "count_Birds": 1, "count_Amphibians": 0, "count_Molluscs": 0, "count_Gymnosperms": 0, "count_Ferns": 0, "count_Basidiomycota": 0, "count_Sac Fungi": 0, "unique_species_count": 16.0, "countryCode": "SA" }, "geometry": { "type": "MultiPolygon", "coordinates": [ [ [ [ 42.440535177933405, 22.449494427906721 ], [ 43.396507147044332, 22.283812978354135 ], [ 43.656073870903889, 21.529881590615847 ], [ 42.963046526157932, 20.939672643114012 ], [ 42.013749635721155, 21.09899207518249 ], [ 41.750666018444861, 21.854503798908667 ], [ 42.440535177933405, 22.449494427906721 ] ] ] ] } },
{ "type": "Feature", "properties": { "geogrid_id": "721701476038227196", "seqnum": 6654.0, "lat_c": 21.701476267626973, "lon_c": 38.227195723317301, "res": 7.0, "count_Flowering Plants": 20, "count_Arachnids": 0, "count_Mammals": 4, "count_Reptiles": 2, "count_Insects": 15, "count_Birds": 30, "count_Amphibians": 0, "count_Molluscs": 38, "count_Gymnosperms": 0, "count_Ferns": 0, "count_Basidiomycota": 0, "count_Sac Fungi": 0, "unique_species_count": 109.0, "countryCode": "SA" }, "geometry": { "type": "MultiPolygon", "coordinates": [ [ [ [ 37.950751840028133, 22.458263454956374 ], [ 38.900564473708911, 22.314939614855813 ], [ 39.173214809209462, 21.55770673432141 ], [ 38.501060047305138, 20.945648883070824 ], [ 37.558620977000032, 21.084450774006257 ], [ 37.280970410854287, 21.839692932307219 ], [ 37.950751840028133, 22.458263454956374 ] ] ] ] } },
{ "type": "Feature", "properties": { "geogrid_id": "722116417044354667", "seqnum": 6843.0, "lat_c": 22.116416553092339, "lon_c": 44.354666586376837, "res": 7.0, "count_Flowering Plants": 8, "count_Arachnids": 0, "count_Mammals": 0, "count_Reptiles": 0, "count_Insects": 0, "count_Birds": 0, "count_Amphibians": 0, "count_Molluscs": 0, "count_Gymnosperms": 0, "count_Ferns": 0, "count_Basidiomycota": 0, "count_Sac Fungi": 0, "unique_species_count": 8.0, "countryCode": "SA" }, "geometry": { "type": "MultiPolygon", "coordinates": [ [ [ [ 44.096205869193405, 22.870550996904157 ], [ 45.059092918597578, 22.699275042836032 ], [ 45.315918035177013, 21.948983423958946 ], [ 44.612368645240807, 21.365762545007623 ], [ 43.656073870903889, 21.529881590615847 ], [ 43.396507147044332, 22.283812978354135 ], [ 44.096205869193405, 22.870550996904157 ] ] ] ] } },
{ "type": "Feature", "properties": { "geogrid_id": "722166133039850226", "seqnum": 6708.0, "lat_c": 22.166133096109039, "lon_c": 39.850225987586946, "res": 7.0, "count_Flowering Plants": 67, "count_Arachnids": 4, "count_Mammals": 6, "count_Reptiles": 10, "count_Insects": 56, "count_Birds": 110, "count_Amphibians": 2, "count_Molluscs": 16, "count_Gymnosperms": 1, "count_Ferns": 1, "count_Basidiomycota": 0, "count_Sac Fungi": 0, "unique_species_count": 273.0, "countryCode": "SA" }, "geometry": { "type": "MultiPolygon", "coordinates": [ [ [ [ 39.578950285902494, 22.924782832240648 ], [ 40.532314399723035, 22.770869000438875 ], [ 40.800109895569221, 22.012417797545176 ], [ 40.119364592892175, 21.408912611565881 ], [ 39.173214809209462, 21.55770673432141 ], [ 38.900564473708911, 22.314939614855813 ], [ 39.578950285902494, 22.924782832240648 ] ] ] ] } },
{ "type": "Feature", "properties": { "geogrid_id": "722401436053827890", "seqnum": 7142.0, "lat_c": 22.4014355932912, "lon_c": 53.827890466706052, "res": 7.0, "count_Flowering Plants": 1, "count_Arachnids": 0, "count_Mammals": 0, "count_Reptiles": 1, "count_Insects": 0, "count_Birds": 0, "count_Amphibians": 0, "count_Molluscs": 0, "count_Gymnosperms": 0, "count_Ferns": 0, "count_Basidiomycota": 0, "count_Sac Fungi": 0, "unique_species_count": 2.0, "countryCode": "SA" }, "geometry": { "type": "MultiPolygon", "coordinates": [ [ [ [ 53.656005292260346, 23.266378129544822 ], [ 54.53343042164871, 22.831650660861229 ], [ 54.699231628404355, 21.97105825686937 ], [ 53.99737601120934, 21.53776023425592 ], [ 53.128633392650002, 21.975963950945665 ], [ 52.953647834137286, 22.845603532356584 ], [ 53.656005292260346, 23.266378129544822 ] ] ] ] } },
{ "type": "Feature", "properties": { "geogrid_id": "722408048055406768", "seqnum": 7196.0, "lat_c": 22.408048494582115, "lon_c": 55.406767917319485, "res": 7.0, "count_Flowering Plants": 1, "count_Arachnids": 0, "count_Mammals": 0, "count_Reptiles": 0, "count_Insects": 0, "count_Birds": 0, "count_Amphibians": 0, "count_Molluscs": 0, "count_Gymnosperms": 0, "count_Ferns": 0, "count_Basidiomycota": 0, "count_Sac Fungi": 0, "unique_species_count": 1.0, "countryCode": "SA" }, "geometry": { "type": "MultiPolygon", "coordinates": [ [ [ [ 55.245036752098713, 23.266296756764646 ], [ 56.11980748309464, 22.848440402491907 ], [ 56.274897139797254, 21.991334862595007 ], [ 55.566160812608679, 21.549594797262682 ], [ 54.699231628404355, 21.97105825686937 ], [ 54.53343042164871, 22.831650660861229 ], [ 55.245036752098713, 23.266296756764646 ] ] ] ] } },
{ "type": "Feature", "properties": { "geogrid_id": "722528784046025591", "seqnum": 6898.0, "lat_c": 22.528784287793904, "lon_c": 46.025591403707324, "res": 7.0, "count_Flowering Plants": 9, "count_Arachnids": 0, "count_Mammals": 0, "count_Reptiles": 0, "count_Insects": 0, "count_Birds": 0, "count_Amphibians": 0, "count_Molluscs": 0, "count_Gymnosperms": 0, "count_Ferns": 0, "count_Basidiomycota": 0, "count_Sac Fungi": 0, "unique_species_count": 9.0, "countryCode": "SA" }, "geometry": { "type": "MultiPolygon", "coordinates": [ [ [ [ 45.76963790928577, 23.278470791027821 ], [ 46.741728353544332, 23.105264491258861 ], [ 46.996989137056701, 22.361722624757249 ], [ 46.281366376848091, 21.783744745606562 ], [ 45.315918035177013, 21.948983423958946 ], [ 45.059092918597578, 22.699275042836032 ], [ 45.76963790928577, 23.278470791027821 ] ] ] ] } },
{ "type": "Feature", "properties": { "geogrid_id": "722612178041486008", "seqnum": 6762.0, "lat_c": 22.612178232915078, "lon_c": 41.486008020201304, "res": 7.0, "count_Flowering Plants": 5, "count_Arachnids": 0, "count_Mammals": 1, "count_Reptiles": 2, "count_Insects": 1, "count_Birds": 8, "count_Amphibians": 0, "count_Molluscs": 0, "count_Gymnosperms": 0, "count_Ferns": 0, "count_Basidiomycota": 0, "count_Sac Fungi": 0, "unique_species_count": 17.0, "countryCode": "SA" }, "geometry": { "type": "MultiPolygon", "coordinates": [ [ [ [ 41.219702796039719, 23.371852613515369 ], [ 42.177282738077928, 23.208134010510211 ], [ 42.440535177933405, 22.449494427906721 ], [ 41.750666018444861, 21.854503798908667 ], [ 40.800109895569221, 22.012417797545176 ], [ 40.532314399723035, 22.770869000438875 ], [ 41.219702796039719, 23.371852613515369 ] ] ] ] } },
{ "type": "Feature", "properties": { "geogrid_id": "722937024047719572", "seqnum": 6952.0, "lat_c": 22.937023752487342, "lon_c": 47.71957228467452, "res": 7.0, "count_Flowering Plants": 5, "count_Arachnids": 0, "count_Mammals": 0, "count_Reptiles": 0, "count_Insects": 0, "count_Birds": 0, "count_Amphibians": 0, "count_Molluscs": 0, "count_Gymnosperms": 0, "count_Ferns": 0, "count_Basidiomycota": 0, "count_Sac Fungi": 0, "unique_species_count": 5.0, "countryCode": "SA" }, "geometry": { "type": "MultiPolygon", "coordinates": [ [ [ [ 47.464708608584061, 23.678579075227244 ], [ 48.449613061982454, 23.510028779137624 ], [ 48.705064790701996, 22.778233653079756 ], [ 47.974878906590803, 22.201737159509403 ], [ 46.996989137056701, 22.361722624757249 ], [ 46.741728353544332, 23.105264491258861 ], [ 47.464708608584061, 23.678579075227244 ] ] ] ] } },
{ "type": "Feature", "properties": { "geogrid_id": "723040660043135886", "seqnum": 6817.0, "lat_c": 23.040659736498657, "lon_c": 43.135885801282697, "res": 7.0, "count_Flowering Plants": 14, "count_Arachnids": 0, "count_Mammals": 0, "count_Reptiles": 0, "count_Insects": 1, "count_Birds": 0, "count_Amphibians": 0, "count_Molluscs": 0, "count_Gymnosperms": 0, "count_Ferns": 0, "count_Basidiomycota": 0, "count_Sac Fungi": 0, "unique_species_count": 15.0, "countryCode": "SA" }, "geometry": { "type": "MultiPolygon", "coordinates": [ [ [ [ 42.874160700796452, 23.800223127655521 ], [ 43.836952668653694, 23.627947136734615 ], [ 44.096205869193405, 22.870550996904157 ], [ 43.396507147044332, 22.283812978354135 ], [ 42.440535177933405, 22.449494427906721 ], [ 42.177282738077928, 23.208134010510211 ], [ 42.874160700796452, 23.800223127655521 ] ] ] ] } },
{ "type": "Feature", "properties": { "geogrid_id": "723073294038625500", "seqnum": 6681.0, "lat_c": 23.073293538961664, "lon_c": 38.625499747868432, "res": 7.0, "count_Flowering Plants": 52, "count_Arachnids": 1, "count_Mammals": 5, "count_Reptiles": 0, "count_Insects": 10, "count_Birds": 25, "count_Amphibians": 0, "count_Molluscs": 23, "count_Gymnosperms": 0, "count_Ferns": 0, "count_Basidiomycota": 0, "count_Sac Fungi": 0, "unique_species_count": 116.0, "countryCode": "SA" }, "geometry": { "type": "MultiPolygon", "coordinates": [ [ [ [ 38.347917004529485, 23.832641564293898 ], [ 39.305443351437546, 23.684724448912441 ], [ 39.578950285902494, 22.924782832240648 ], [ 38.900564473708911, 22.314939614855813 ], [ 37.950751840028133, 22.458263454956374 ], [ 37.671619717499162, 23.215893949841757 ], [ 38.347917004529485, 23.832641564293898 ] ] ] ] } },
{ "type": "Feature", "properties": { "geogrid_id": "723354016049443605", "seqnum": 7006.0, "lat_c": 23.35401553460035, "lon_c": 49.443604718469167, "res": 7.0, "count_Flowering Plants": 3, "count_Arachnids": 0, "count_Mammals": 0, "count_Reptiles": 0, "count_Insects": 0, "count_Birds": 0, "count_Amphibians": 0, "count_Molluscs": 0, "count_Gymnosperms": 0, "count_Ferns": 0, "count_Basidiomycota": 0, "count_Sac Fungi": 0, "unique_species_count": 3.0, "countryCode": "SA" }, "geometry": { "type": "MultiPolygon", "coordinates": [ [ [ [ 49.187707041938154, 24.081301680710023 ], [ 50.191349782685869, 23.930287291663284 ], [ 50.449570240727169, 23.218891994261377 ], [ 49.700577692319584, 22.635364643415148 ], [ 48.705064790701996, 22.778233653079756 ], [ 48.449613061982454, 23.510028779137624 ], [ 49.187707041938154, 24.081301680710023 ] ] ] ] } },
{ "type": "Feature", "properties": { "geogrid_id": "723453465044801785", "seqnum": 6871.0, "lat_c": 23.453464596089823, "lon_c": 44.801784930111452, "res": 7.0, "count_Flowering Plants": 1, "count_Arachnids": 0, "count_Mammals": 0, "count_Reptiles": 0, "count_Insects": 0, "count_Birds": 0, "count_Amphibians": 0, "count_Molluscs": 0, "count_Gymnosperms": 0, "count_Ferns": 0, "count_Basidiomycota": 0, "count_Sac Fungi": 0, "unique_species_count": 1.0, "countryCode": "SA" }, "geometry": { "type": "MultiPolygon", "coordinates": [ [ [ [ 44.543976677201577, 24.211305192866565 ], [ 45.513508700145586, 24.032531260628893 ], [ 45.76963790928577, 23.278470791027821 ], [ 45.059092918597578, 22.699275042836032 ], [ 44.096205869193405, 22.870550996904157 ], [ 43.836952668653694, 23.627947136734615 ], [ 44.543976677201577, 24.211305192866565 ] ] ] ] } },
{ "type": "Feature", "properties": { "geogrid_id": "723530945040262578", "seqnum": 6736.0, "lat_c": 23.530944941335299, "lon_c": 40.262578127393112, "res": 7.0, "count_Flowering Plants": 13, "count_Arachnids": 1, "count_Mammals": 0, "count_Reptiles": 0, "count_Insects": 2, "count_Birds": 4, "count_Amphibians": 0, "count_Molluscs": 0, "count_Gymnosperms": 0, "count_Ferns": 0, "count_Basidiomycota": 0, "count_Sac Fungi": 0, "unique_species_count": 20.0, "countryCode": "SA" }, "geometry": { "type": "MultiPolygon", "coordinates": [ [ [ [ 39.990814231974888, 24.292494457268148 ], [ 40.951674956169484, 24.133361867329981 ], [ 41.219702796039719, 23.371852613515369 ], [ 40.532314399723035, 22.770869000438875 ], [ 39.578950285902494, 22.924782832240648 ], [ 39.305443351437546, 23.684724448912441 ], [ 39.990814231974888, 24.292494457268148 ] ] ] ] } },
{ "type": "Feature", "properties": { "geogrid_id": "723807008051209457", "seqnum": 7061.0, "lat_c": 23.807007671439834, "lon_c": 51.209456750790643, "res": 7.0, "count_Flowering Plants": 1, "count_Arachnids": 0, "count_Mammals": 0, "count_Reptiles": 0, "count_Insects": 0, "count_Birds": 0, "count_Amphibians": 0, "count_Molluscs": 0, "count_Gymnosperms": 0, "count_Ferns": 0, "count_Basidiomycota": 0, "count_Sac Fungi": 0, "unique_species_count": 1.0, "countryCode": "SA" }, "geometry": { "type": "MultiPolygon", "coordinates": [ [ [ [ 50.949397235595129, 24.508891414804722 ], [ 51.899095543027578, 24.196928079170803 ], [ 52.079218245321421, 23.310629694157949 ], [ 51.389948522708615, 22.91038199025375 ], [ 50.449570240727169, 23.218891994261377 ], [ 50.191349782685869, 23.930287291663284 ], [ 50.949397235595129, 24.508891414804722 ] ] ] ] } },
{ "type": "Feature", "properties": { "geogrid_id": "723854041046486609", "seqnum": 6925.0, "lat_c": 23.854041167467887, "lon_c": 46.486608770293437, "res": 7.0, "count_Flowering Plants": 53, "count_Arachnids": 0, "count_Mammals": 3, "count_Reptiles": 2, "count_Insects": 12, "count_Birds": 27, "count_Amphibians": 1, "count_Molluscs": 1, "count_Gymnosperms": 0, "count_Ferns": 1, "count_Basidiomycota": 0, "count_Sac Fungi": 0, "unique_species_count": 100.0, "countryCode": "SA" }, "geometry": { "type": "MultiPolygon", "coordinates": [ [ [ [ 46.231656994636872, 24.60774105210416 ], [ 47.210342586283176, 24.426058350383244 ], [ 47.464708608584061, 23.678579075227244 ], [ 46.741728353544332, 23.105264491258861 ], [ 45.76963790928577, 23.278470791027821 ], [ 45.513508700145586, 24.032531260628893 ], [ 46.231656994636872, 24.60774105210416 ] ] ] ] } },
{ "type": "Feature", "properties": { "geogrid_id": "723969019041912616", "seqnum": 6790.0, "lat_c": 23.969019174790894, "lon_c": 41.912615980175353, "res": 7.0, "count_Flowering Plants": 40, "count_Arachnids": 0, "count_Mammals": 0, "count_Reptiles": 0, "count_Insects": 1, "count_Birds": 0, "count_Amphibians": 0, "count_Molluscs": 0, "count_Gymnosperms": 0, "count_Ferns": 0, "count_Basidiomycota": 0, "count_Sac Fungi": 0, "unique_species_count": 41.0, "countryCode": "SA" }, "geometry": { "type": "MultiPolygon", "coordinates": [ [ [ [ 41.64646978936824, 24.731966335119726 ], [ 42.611280934465249, 24.56230094665877 ], [ 42.874160700796452, 23.800223127655521 ], [ 42.177282738077928, 23.208134010510211 ], [ 41.219702796039719, 23.371852613515369 ], [ 40.951674956169484, 24.133361867329981 ], [ 41.64646978936824, 24.731966335119726 ] ] ] ] } },
{ "type": "Feature", "properties": { "geogrid_id": "723974250037389687", "seqnum": 6655.0, "lat_c": 23.974249909788274, "lon_c": 37.389686864311656, "res": 7.0, "count_Flowering Plants": 54, "count_Arachnids": 0, "count_Mammals": 3, "count_Reptiles": 0, "count_Insects": 0, "count_Birds": 19, "count_Amphibians": 0, "count_Molluscs": 55, "count_Gymnosperms": 0, "count_Ferns": 0, "count_Basidiomycota": 0, "count_Sac Fungi": 0, "unique_species_count": 131.0, "countryCode": "SA" }, "geometry": { "type": "MultiPolygon", "coordinates": [ [ [ [ 37.104836797267104, 24.733212189575227 ], [ 38.067708965576344, 24.592855327800859 ], [ 38.347917004529485, 23.832641564293898 ], [ 37.671619717499162, 23.215893949841757 ], [ 36.717027802464862, 23.352167732967981 ], [ 36.430498268659569, 24.109181760602642 ], [ 37.104836797267104, 24.733212189575227 ] ] ] ] } },
{ "type": "Feature", "properties": { "geogrid_id": "724248966048194967", "seqnum": 6980.0, "lat_c": 24.248965626629222, "lon_c": 48.194967146770672, "res": 7.0, "count_Flowering Plants": 6, "count_Arachnids": 0, "count_Mammals": 0, "count_Reptiles": 0, "count_Insects": 0, "count_Birds": 0, "count_Amphibians": 0, "count_Molluscs": 0, "count_Gymnosperms": 0, "count_Ferns": 0, "count_Basidiomycota": 0, "count_Sac Fungi": 0, "unique_species_count": 6.0, "countryCode": "SA" }, "geometry": { "type": "MultiPolygon", "coordinates": [ [ [ [ 47.941217621320028, 24.994646603471292 ], [ 48.933016829260886, 24.81678714088698 ], [ 49.187707041938154, 24.081301680710023 ], [ 48.449613061982454, 23.510028779137624 ], [ 47.464708608584061, 23.678579075227244 ], [ 47.210342586283176, 24.426058350383244 ], [ 47.941217621320028, 24.994646603471292 ] ] ] ] } },
{ "type": "Feature", "properties": { "geogrid_id": "724388382043576872", "seqnum": 6844.0, "lat_c": 24.388381699896545, "lon_c": 43.576871853141895, "res": 7.0, "count_Flowering Plants": 5, "count_Arachnids": 0, "count_Mammals": 0, "count_Reptiles": 1, "count_Insects": 0, "count_Birds": 0, "count_Amphibians": 0, "count_Molluscs": 0, "count_Gymnosperms": 0, "count_Ferns": 0, "count_Basidiomycota": 0, "count_Sac Fungi": 0, "unique_species_count": 6.0, "countryCode": "SA" }, "geometry": { "type": "MultiPolygon", "coordinates": [ [ [ [ 43.315926957319938, 25.151627180285534 ], [ 44.285649970597632, 24.972544295033817 ], [ 44.543976677201577, 24.211305192866565 ], [ 43.836952668653694, 23.627947136734615 ], [ 42.874160700796452, 23.800223127655521 ], [ 42.611280934465249, 24.56230094665877 ], [ 43.315926957319938, 25.151627180285534 ] ] ] ] } },
{ "type": "Feature", "properties": { "geogrid_id": "724445819039029608", "seqnum": 6709.0, "lat_c": 24.445818963781416, "lon_c": 39.029607751638636, "res": 7.0, "count_Flowering Plants": 47, "count_Arachnids": 0, "count_Mammals": 3, "count_Reptiles": 0, "count_Insects": 14, "count_Birds": 38, "count_Amphibians": 0, "count_Molluscs": 0, "count_Gymnosperms": 1, "count_Ferns": 0, "count_Basidiomycota": 0, "count_Sac Fungi": 0, "unique_species_count": 103.0, "countryCode": "SA" }, "geometry": { "type": "MultiPolygon", "coordinates": [ [ [ [ 38.751342608827294, 25.207925871710053 ], [ 39.716932813213973, 25.055364604124318 ], [ 39.990814231974888, 24.292494457268148 ], [ 39.305443351437546, 23.684724448912441 ], [ 38.347917004529485, 23.832641564293898 ], [ 38.067708965576344, 24.592855327800859 ], [ 38.751342608827294, 25.207925871710053 ] ] ] ] } },
{ "type": "Feature", "properties": { "geogrid_id": "724651693049934591", "seqnum": 7034.0, "lat_c": 24.651692540003676, "lon_c": 49.934591004149041, "res": 7.0, "count_Flowering Plants": 10, "count_Arachnids": 0, "count_Mammals": 1, "count_Reptiles": 1, "count_Insects": 3, "count_Birds": 4, "count_Amphibians": 0, "count_Molluscs": 0, "count_Gymnosperms": 0, "count_Ferns": 0, "count_Basidiomycota": 0, "count_Sac Fungi": 0, "unique_species_count": 19.0, "countryCode": "SA" }, "geometry": { "type": "MultiPolygon", "coordinates": [ [ [ [ 49.679483184572248, 25.382602975031389 ], [ 50.691209892762288, 25.222514793643388 ], [ 50.949397235595129, 24.508891414804722 ], [ 50.191349782685869, 23.930287291663284 ], [ 49.187707041938154, 24.081301680710023 ], [ 48.933016829260886, 24.81678714088698 ], [ 49.679483184572248, 25.382602975031389 ] ] ] ] } },
{ "type": "Feature", "properties": { "geogrid_id": "724790685045257206", "seqnum": 6899.0, "lat_c": 24.790685072248159, "lon_c": 45.257206382643155, "res": 7.0, "count_Flowering Plants": 21, "count_Arachnids": 0, "count_Mammals": 2, "count_Reptiles": 9, "count_Insects": 3, "count_Birds": 10, "count_Amphibians": 0, "count_Molluscs": 2, "count_Gymnosperms": 0, "count_Ferns": 0, "count_Basidiomycota": 0, "count_Sac Fungi": 0, "unique_species_count": 47.0, "countryCode": "SA" }, "geometry": { "type": "MultiPolygon", "coordinates": [ [ [ [ 45.000733384228482, 25.55264444720461 ], [ 45.976900165017547, 25.366042700470736 ], [ 46.231656994636872, 24.60774105210416 ], [ 45.513508700145586, 24.032531260628893 ], [ 44.543976677201577, 24.211305192866565 ], [ 44.285649970597632, 24.972544295033817 ], [ 45.000733384228482, 25.55264444720461 ] ] ] ] } },
{ "type": "Feature", "properties": { "geogrid_id": "724866566036140765", "seqnum": 6628.0, "lat_c": 24.866565710973504, "lon_c": 36.140764522476346, "res": 7.0, "count_Flowering Plants": 0, "count_Arachnids": 0, "count_Mammals": 1, "count_Reptiles": 0, "count_Insects": 0, "count_Birds": 0, "count_Amphibians": 0, "count_Molluscs": 1, "count_Gymnosperms": 0, "count_Ferns": 0, "count_Basidiomycota": 0, "count_Sac Fungi": 0, "unique_species_count": 2.0, "countryCode": "SA" }, "geometry": { "type": "MultiPolygon", "coordinates": [ [ [ [ 35.847696913935927, 25.624207188507732 ], [ 36.816948851266069, 25.492660385641646 ], [ 37.104836797267104, 24.733212189575227 ], [ 36.430498268659569, 24.109181760602642 ], [ 35.470144756869935, 24.237130005037393 ], [ 35.175310890778235, 24.992644045041651 ], [ 35.847696913935927, 25.624207188507732 ] ] ] ] } },
{ "type": "Feature", "properties": { "geogrid_id": "724896539040681846", "seqnum": 6763.0, "lat_c": 24.896538759914399, "lon_c": 40.681846464150034, "res": 7.0, "count_Flowering Plants": 27, "count_Arachnids": 0, "count_Mammals": 0, "count_Reptiles": 0, "count_Insects": 3, "count_Birds": 1, "count_Amphibians": 0, "count_Molluscs": 0, "count_Gymnosperms": 0, "count_Ferns": 0, "count_Basidiomycota": 0, "count_Sac Fungi": 0, "unique_species_count": 31.0, "countryCode": "SA" }, "geometry": { "type": "MultiPolygon", "coordinates": [ [ [ [ 40.410136529284131, 25.661214048866317 ], [ 41.378776747121371, 25.496789395630927 ], [ 41.64646978936824, 24.731966335119726 ], [ 40.951674956169484, 24.133361867329981 ], [ 39.990814231974888, 24.292494457268148 ], [ 39.716932813213973, 25.055364604124318 ], [ 40.410136529284131, 25.661214048866317 ] ] ] ] } },
{ "type": "Feature", "properties": { "geogrid_id": "725179103046956530", "seqnum": 6953.0, "lat_c": 25.179103126660298, "lon_c": 46.956530320095418, "res": 7.0, "count_Flowering Plants": 156, "count_Arachnids": 4, "count_Mammals": 10, "count_Reptiles": 21, "count_Insects": 53, "count_Birds": 103, "count_Amphibians": 1, "count_Molluscs": 1, "count_Gymnosperms": 0, "count_Ferns": 0, "count_Basidiomycota": 1, "count_Sac Fungi": 0, "unique_species_count": 350.0, "countryCode": "SA" }, "geometry": { "type": "MultiPolygon", "coordinates": [ [ [ [ 46.703329351768893, 25.937342024906393 ], [ 47.688457616102866, 25.74665582105332 ], [ 47.941217621320028, 24.994646603471292 ], [ 47.210342586283176, 24.426058350383244 ], [ 46.231656994636872, 24.60774105210416 ], [ 45.976900165017547, 25.366042700470736 ], [ 46.703329351768893, 25.937342024906393 ] ] ] ] } },
{ "type": "Feature", "properties": { "geogrid_id": "725326688042347194", "seqnum": 6818.0, "lat_c": 25.326687762823362, "lon_c": 42.347193758982847, "res": 7.0, "count_Flowering Plants": 23, "count_Arachnids": 0, "count_Mammals": 0, "count_Reptiles": 3, "count_Insects": 2, "count_Birds": 1, "count_Amphibians": 0, "count_Molluscs": 0, "count_Gymnosperms": 0, "count_Ferns": 0, "count_Basidiomycota": 0, "count_Sac Fungi": 0, "unique_species_count": 29.0, "countryCode": "SA" }, "geometry": { "type": "MultiPolygon", "coordinates": [ [ [ [ 42.081844541955839, 26.093175172013744 ], [ 43.054080153655924, 25.917452152786172 ], [ 43.315926957319938, 25.151627180285534 ], [ 42.611280934465249, 24.56230094665877 ], [ 41.64646978936824, 24.731966335119726 ], [ 41.378776747121371, 25.496789395630927 ], [ 42.081844541955839, 26.093175172013744 ] ] ] ] } },
{ "type": "Feature", "properties": { "geogrid_id": "725353805037784765", "seqnum": 6682.0, "lat_c": 25.353805110550319, "lon_c": 37.784764531549506, "res": 7.0, "count_Flowering Plants": 53, "count_Arachnids": 2, "count_Mammals": 8, "count_Reptiles": 9, "count_Insects": 21, "count_Birds": 52, "count_Amphibians": 0, "count_Molluscs": 3, "count_Gymnosperms": 0, "count_Ferns": 1, "count_Basidiomycota": 0, "count_Sac Fungi": 0, "unique_species_count": 149.0, "countryCode": "SA" }, "geometry": { "type": "MultiPolygon", "coordinates": [ [ [ [ 37.498968601810596, 26.115359902967928 ], [ 38.47054344286984, 25.970903234680158 ], [ 38.751342608827294, 25.207925871710053 ], [ 38.067708965576344, 24.592855327800859 ], [ 37.104836797267104, 24.733212189575227 ], [ 36.816948851266069, 25.492660385641646 ], [ 37.498968601810596, 26.115359902967928 ] ] ] ] } },
{ "type": "Feature", "properties": { "geogrid_id": "725560010048679670", "seqnum": 7007.0, "lat_c": 25.560009854785399, "lon_c": 48.679670359847542, "res": 7.0, "count_Flowering Plants": 23, "count_Arachnids": 1, "count_Mammals": 5, "count_Reptiles": 2, "count_Insects": 22, "count_Birds": 14, "count_Amphibians": 0, "count_Molluscs": 0, "count_Gymnosperms": 0, "count_Ferns": 0, "count_Basidiomycota": 0, "count_Sac Fungi": 0, "unique_species_count": 67.0, "countryCode": "SA" }, "geometry": { "type": "MultiPolygon", "coordinates": [ [ [ [ 48.427808004126867, 26.310482751998983 ], [ 49.426221962310919, 26.122477373034247 ], [ 49.679483184572248, 25.382602975031389 ], [ 48.933016829260886, 24.81678714088698 ], [ 47.941217621320028, 24.994646603471292 ], [ 47.688457616102866, 25.74665582105332 ], [ 48.427808004126867, 26.310482751998983 ] ] ] ] } },
{ "type": "Feature", "properties": { "geogrid_id": "725736924044026786", "seqnum": 6872.0, "lat_c": 25.736924105898098, "lon_c": 44.026785822569792, "res": 7.0, "count_Flowering Plants": 42, "count_Arachnids": 2, "count_Mammals": 1, "count_Reptiles": 2, "count_Insects": 5, "count_Birds": 10, "count_Amphibians": 0, "count_Molluscs": 0, "count_Gymnosperms": 0, "count_Ferns": 0, "count_Basidiomycota": 0, "count_Sac Fungi": 0, "unique_species_count": 62.0, "countryCode": "SA" }, "geometry": { "type": "MultiPolygon", "coordinates": [ [ [ [ 43.767364445481761, 26.504181980122361 ], [ 44.74409197659709, 26.318114960387398 ], [ 45.000733384228482, 25.55264444720461 ], [ 44.285649970597632, 24.972544295033817 ], [ 43.315926957319938, 25.151627180285534 ], [ 43.054080153655924, 25.917452152786172 ], [ 43.767364445481761, 26.504181980122361 ] ] ] ] } },
{ "type": "Feature", "properties": { "geogrid_id": "725748205034876853", "seqnum": 6601.0, "lat_c": 25.748205203149631, "lon_c": 34.876852774393541, "res": 7.0, "count_Flowering Plants": 0, "count_Arachnids": 0, "count_Mammals": 1, "count_Reptiles": 0, "count_Insects": 0, "count_Birds": 0, "count_Amphibians": 0, "count_Molluscs": 0, "count_Gymnosperms": 0, "count_Ferns": 0, "count_Basidiomycota": 0, "count_Sac Fungi": 0, "unique_species_count": 1.0, "countryCode": "SA" }, "geometry": { "type": "MultiPolygon", "coordinates": [ [ [ [ 34.574627208182626, 26.503706728511574 ], [ 35.551161047755365, 26.381992609274501 ], [ 35.847696913935927, 25.624207188507732 ], [ 35.175310890778235, 24.992644045041651 ], [ 34.208332982780298, 25.111215822120947 ], [ 33.904296481220534, 25.86444851805026 ], [ 34.574627208182626, 26.503706728511574 ] ] ] ] } },
{ "type": "Feature", "properties": { "geogrid_id": "725819401039440841", "seqnum": 6737.0, "lat_c": 25.819400775509013, "lon_c": 39.440840784032403, "res": 7.0, "count_Flowering Plants": 24, "count_Arachnids": 2, "count_Mammals": 0, "count_Reptiles": 1, "count_Insects": 5, "count_Birds": 9, "count_Amphibians": 1, "count_Molluscs": 0, "count_Gymnosperms": 0, "count_Ferns": 0, "count_Basidiomycota": 0, "count_Sac Fungi": 0, "unique_species_count": 42.0, "countryCode": "SA" }, "geometry": { "type": "MultiPolygon", "coordinates": [ [ [ [ 39.162441729773946, 26.584446823990859 ], [ 40.136461492845072, 26.427216640997429 ], [ 40.410136529284131, 25.661214048866317 ], [ 39.716932813213973, 25.055364604124318 ], [ 38.751342608827294, 25.207925871710053 ], [ 38.47054344286984, 25.970903234680158 ], [ 39.162441729773946, 26.584446823990859 ] ] ] ] } },
{ "type": "Feature", "properties": { "geogrid_id": "725947291050435160", "seqnum": 7062.0, "lat_c": 25.947291463379031, "lon_c": 50.435159547024845, "res": 7.0, "count_Flowering Plants": 72, "count_Arachnids": 2, "count_Mammals": 6, "count_Reptiles": 13, "count_Insects": 83, "count_Birds": 90, "count_Amphibians": 1, "count_Molluscs": 87, "count_Gymnosperms": 0, "count_Ferns": 0, "count_Basidiomycota": 0, "count_Sac Fungi": 0, "unique_species_count": 354.0, "countryCode": "SA" }, "geometry": { "type": "MultiPolygon", "coordinates": [ [ [ [ 50.18152073941679, 26.68258277918207 ], [ 51.201097508724423, 26.512272907202313 ], [ 51.458824462906833, 25.795866526837468 ], [ 50.691209892762288, 25.222514793643388 ], [ 49.679483184572248, 25.382602975031389 ], [ 49.426221962310919, 26.122477373034247 ], [ 50.18152073941679, 26.68258277918207 ] ] ] ] } },
{ "type": "Feature", "properties": { "geogrid_id": "726128615045722366", "seqnum": 6926.0, "lat_c": 26.128615446442339, "lon_c": 45.722365991381551, "res": 7.0, "count_Flowering Plants": 22, "count_Arachnids": 2, "count_Mammals": 3, "count_Reptiles": 25, "count_Insects": 5, "count_Birds": 23, "count_Amphibians": 0, "count_Molluscs": 0, "count_Gymnosperms": 0, "count_Ferns": 0, "count_Basidiomycota": 0, "count_Sac Fungi": 0, "unique_species_count": 80.0, "countryCode": "SA" }, "geometry": { "type": "MultiPolygon", "coordinates": [ [ [ [ 45.468082798556466, 26.895120072626288 ], [ 46.450798710667051, 26.700391560672635 ], [ 46.703329351768893, 25.937342024906393 ], [ 45.976900165017547, 25.366042700470736 ], [ 45.000733384228482, 25.55264444720461 ], [ 44.74409197659709, 26.318114960387398 ], [ 45.468082798556466, 26.895120072626288 ] ] ] ] } },
{ "type": "Feature", "properties": { "geogrid_id": "726252473036525898", "seqnum": 6656.0, "lat_c": 26.252472880083324, "lon_c": 36.525897978782666, "res": 7.0, "count_Flowering Plants": 15, "count_Arachnids": 1, "count_Mammals": 3, "count_Reptiles": 2, "count_Insects": 2, "count_Birds": 20, "count_Amphibians": 0, "count_Molluscs": 5, "count_Gymnosperms": 0, "count_Ferns": 0, "count_Basidiomycota": 0, "count_Sac Fungi": 0, "unique_species_count": 48.0, "countryCode": "SA" }, "geometry": { "type": "MultiPolygon", "coordinates": [ [ [ [ 36.231554538315336, 27.012526884027604 ], [ 37.21020188468826, 26.877387470235835 ], [ 37.498968601810596, 26.115359902967928 ], [ 36.816948851266069, 25.492660385641646 ], [ 35.847696913935927, 25.624207188507732 ], [ 35.551161047755365, 26.381992609274501 ], [ 36.231554538315336, 27.012526884027604 ] ] ] ] } },
{ "type": "Feature", "properties": { "geogrid_id": "726263300041109467", "seqnum": 6791.0, "lat_c": 26.263299950456599, "lon_c": 41.109467045591728, "res": 7.0, "count_Flowering Plants": 4, "count_Arachnids": 0, "count_Mammals": 0, "count_Reptiles": 0, "count_Insects": 0, "count_Birds": 0, "count_Amphibians": 0, "count_Molluscs": 0, "count_Gymnosperms": 1, "count_Ferns": 0, "count_Basidiomycota": 0, "count_Sac Fungi": 0, "unique_species_count": 5.0, "countryCode": "SA" }, "geometry": { "type": "MultiPolygon", "coordinates": [ [ [ [ 40.838468397049226, 27.03130748981998 ], [ 41.815176701757437, 26.861552057797041 ], [ 42.081844541955839, 26.093175172013744 ], [ 41.378776747121371, 25.496789395630927 ], [ 40.410136529284131, 25.661214048866317 ], [ 40.136461492845072, 26.427216640997429 ], [ 40.838468397049226, 27.03130748981998 ] ] ] ] } },
{ "type": "Feature", "properties": { "geogrid_id": "726504560047436783", "seqnum": 6981.0, "lat_c": 26.504560076996071, "lon_c": 47.4367828464108, "res": 7.0, "count_Flowering Plants": 11, "count_Arachnids": 1, "count_Mammals": 0, "count_Reptiles": 7, "count_Insects": 0, "count_Birds": 1, "count_Amphibians": 0, "count_Molluscs": 2, "count_Gymnosperms": 0, "count_Ferns": 0, "count_Basidiomycota": 0, "count_Sac Fungi": 0, "unique_species_count": 22.0, "countryCode": "SA" }, "geometry": { "type": "MultiPolygon", "coordinates": [ [ [ [ 47.186291643845394, 27.267909957026426 ], [ 48.177574195326514, 27.067695058322382 ], [ 48.427808004126867, 26.310482751998983 ], [ 47.688457616102866, 25.74665582105332 ], [ 46.703329351768893, 25.937342024906393 ], [ 46.450798710667051, 26.700391560672635 ], [ 47.186291643845394, 27.267909957026426 ] ] ] ] } },
{ "type": "Feature", "properties": { "geogrid_id": "726685622042791292", "seqnum": 6845.0, "lat_c": 26.685621601563174, "lon_c": 42.791292222467064, "res": 7.0, "count_Flowering Plants": 17, "count_Arachnids": 0, "count_Mammals": 0, "count_Reptiles": 0, "count_Insects": 0, "count_Birds": 0, "count_Amphibians": 0, "count_Molluscs": 0, "count_Gymnosperms": 0, "count_Ferns": 0, "count_Basidiomycota": 0, "count_Sac Fungi": 0, "unique_species_count": 17.0, "countryCode": "SA" }, "geometry": { "type": "MultiPolygon", "coordinates": [ [ [ [ 42.52752252030902, 27.455897261187079 ], [ 43.507365250500968, 27.274050853440272 ], [ 43.767364445481761, 26.504181980122361 ], [ 43.054080153655924, 25.917452152786172 ], [ 42.081844541955839, 26.093175172013744 ], [ 41.815176701757437, 26.861552057797041 ], [ 42.52752252030902, 27.455897261187079 ] ] ] ] } },
{ "type": "Feature", "properties": { "geogrid_id": "726734608038187102", "seqnum": 6710.0, "lat_c": 26.734607772835453, "lon_c": 38.187102004978499, "res": 7.0, "count_Flowering Plants": 103, "count_Arachnids": 4, "count_Mammals": 8, "count_Reptiles": 12, "count_Insects": 24, "count_Birds": 70, "count_Amphibians": 1, "count_Molluscs": 0, "count_Gymnosperms": 0, "count_Ferns": 1, "count_Basidiomycota": 1, "count_Sac Fungi": 0, "unique_species_count": 224.0, "countryCode": "SA" }, "geometry": { "type": "MultiPolygon", "coordinates": [ [ [ [ 37.900906102098922, 27.498894956354217 ], [ 38.881635759395564, 27.350345184372625 ], [ 39.162441729773946, 26.584446823990859 ], [ 38.47054344286984, 25.970903234680158 ], [ 37.498968601810596, 26.115359902967928 ], [ 37.21020188468826, 26.877387470235835 ], [ 37.900906102098922, 27.498894956354217 ] ] ] ] } },
{ "type": "Feature", "properties": { "geogrid_id": "726870739049175009", "seqnum": 7035.0, "lat_c": 26.870739472400295, "lon_c": 49.175009185855657, "res": 7.0, "count_Flowering Plants": 24, "count_Arachnids": 3, "count_Mammals": 3, "count_Reptiles": 5, "count_Insects": 34, "count_Birds": 43, "count_Amphibians": 0, "count_Molluscs": 27, "count_Gymnosperms": 0, "count_Ferns": 0, "count_Basidiomycota": 0, "count_Sac Fungi": 0, "unique_species_count": 139.0, "countryCode": "SA" }, "geometry": { "type": "MultiPolygon", "coordinates": [ [ [ [ 48.926052740078887, 27.626779722434087 ], [ 49.93057730736539, 27.427699571409363 ], [ 50.18152073941679, 26.68258277918207 ], [ 49.426221962310919, 26.122477373034247 ], [ 48.427808004126867, 26.310482751998983 ], [ 48.177574195326514, 27.067695058322382 ], [ 48.926052740078887, 27.626779722434087 ] ] ] ] } },
{ "type": "Feature", "properties": { "geogrid_id": "727086796044487284", "seqnum": 6900.0, "lat_c": 27.086796078878489, "lon_c": 44.487284300640063, "res": 7.0, "count_Flowering Plants": 6, "count_Arachnids": 1, "count_Mammals": 1, "count_Reptiles": 13, "count_Insects": 1, "count_Birds": 1, "count_Amphibians": 0, "count_Molluscs": 0, "count_Gymnosperms": 0, "count_Ferns": 0, "count_Basidiomycota": 0, "count_Sac Fungi": 0, "unique_species_count": 23.0, "countryCode": "SA" }, "geometry": { "type": "MultiPolygon", "coordinates": [ [ [ [ 44.230312393128635, 27.858381729200037 ], [ 45.214079572572103, 27.665209525927157 ], [ 45.468082798556466, 26.895120072626288 ], [ 44.74409197659709, 26.318114960387398 ], [ 43.767364445481761, 26.504181980122361 ], [ 43.507365250500968, 27.274050853440272 ], [ 44.230312393128635, 27.858381729200037 ] ] ] ] } },
{ "type": "Feature", "properties": { "geogrid_id": "727139807035251018", "seqnum": 6629.0, "lat_c": 27.139807225211964, "lon_c": 35.251017552184507, "res": 7.0, "count_Flowering Plants": 4, "count_Arachnids": 0, "count_Mammals": 0, "count_Reptiles": 0, "count_Insects": 2, "count_Birds": 15, "count_Amphibians": 0, "count_Molluscs": 1, "count_Gymnosperms": 0, "count_Ferns": 0, "count_Basidiomycota": 0, "count_Sac Fungi": 0, "unique_species_count": 22.0, "countryCode": "SA" }, "geometry": { "type": "MultiPolygon", "coordinates": [ [ [ [ 34.947121835274132, 27.897535146836066 ], [ 35.933784071156396, 27.772698480140686 ], [ 36.231554538315336, 27.012526884027604 ], [ 35.551161047755365, 26.381992609274501 ], [ 34.574627208182626, 26.503706728511574 ], [ 34.268485655251993, 27.259040676585741 ], [ 34.947121835274132, 27.897535146836066 ] ] ] ] } },
{ "type": "Feature", "properties": { "geogrid_id": "727194374039860735", "seqnum": 6764.0, "lat_c": 27.194373753131472, "lon_c": 39.860734707743767, "res": 7.0, "count_Flowering Plants": 1, "count_Arachnids": 0, "count_Mammals": 0, "count_Reptiles": 1, "count_Insects": 0, "count_Birds": 4, "count_Amphibians": 0, "count_Molluscs": 0, "count_Gymnosperms": 0, "count_Ferns": 0, "count_Basidiomycota": 0, "count_Sac Fungi": 0, "unique_species_count": 6.0, "countryCode": "SA" }, "geometry": { "type": "MultiPolygon", "coordinates": [ [ [ [ 39.582866411215072, 27.962511076066971 ], [ 40.565705938015114, 27.80061961139242 ], [ 40.838468397049226, 27.03130748981998 ], [ 40.136461492845072, 26.427216640997429 ], [ 39.162441729773946, 26.584446823990859 ], [ 38.881635759395564, 27.350345184372625 ], [ 39.582866411215072, 27.962511076066971 ] ] ] ] } },
{ "type": "Feature", "properties": { "geogrid_id": "727241208050946413", "seqnum": 7089.0, "lat_c": 27.241208002087976, "lon_c": 50.946413013827367, "res": 7.0, "count_Flowering Plants": 0, "count_Arachnids": 0, "count_Mammals": 1, "count_Reptiles": 0, "count_Insects": 0, "count_Birds": 0, "count_Amphibians": 0, "count_Molluscs": 0, "count_Gymnosperms": 0, "count_Ferns": 0, "count_Basidiomycota": 0, "count_Sac Fungi": 0, "unique_species_count": 1.0, "countryCode": "SA" }, "geometry": { "type": "MultiPolygon", "coordinates": [ [ [ [ 50.695167496166349, 27.981838684223153 ], [ 51.722066666906258, 27.799862570399338 ], [ 51.978760991031173, 27.079940784108597 ], [ 51.201097508724423, 26.512272907202313 ], [ 50.18152073941679, 26.68258277918207 ], [ 49.93057730736539, 27.427699571409363 ], [ 50.695167496166349, 27.981838684223153 ] ] ] ] } },
{ "type": "Feature", "properties": { "geogrid_id": "727467857046198999", "seqnum": 6954.0, "lat_c": 27.467857039789902, "lon_c": 46.198998965039074, "res": 7.0, "count_Flowering Plants": 2, "count_Arachnids": 1, "count_Mammals": 2, "count_Reptiles": 8, "count_Insects": 0, "count_Birds": 0, "count_Amphibians": 0, "count_Molluscs": 0, "count_Gymnosperms": 0, "count_Ferns": 0, "count_Basidiomycota": 0, "count_Sac Fungi": 0, "unique_species_count": 13.0, "countryCode": "SA" }, "geometry": { "type": "MultiPolygon", "coordinates": [ [ [ [ 45.947992276297427, 28.239333522730803 ], [ 46.93708498859425, 28.036241050808744 ], [ 47.186291643845394, 27.267909957026426 ], [ 46.450798710667051, 26.700391560672635 ], [ 45.468082798556466, 26.895120072626288 ], [ 45.214079572572103, 27.665209525927157 ], [ 45.947992276297427, 28.239333522730803 ] ] ] ] } },
{ "type": "Feature", "properties": { "geogrid_id": "727631605041547132", "seqnum": 6819.0, "lat_c": 27.631604860895191, "lon_c": 41.547131643889344, "res": 7.0, "count_Flowering Plants": 34, "count_Arachnids": 0, "count_Mammals": 3, "count_Reptiles": 12, "count_Insects": 5, "count_Birds": 25, "count_Amphibians": 0, "count_Molluscs": 0, "count_Gymnosperms": 0, "count_Ferns": 0, "count_Basidiomycota": 0, "count_Sac Fungi": 0, "unique_species_count": 79.0, "countryCode": "SA" }, "geometry": { "type": "MultiPolygon", "coordinates": [ [ [ [ 41.277648693588219, 28.403117856099243 ], [ 42.262728946532235, 28.22803796945961 ], [ 42.52752252030902, 27.455897261187079 ], [ 41.815176701757437, 26.861552057797041 ], [ 40.838468397049226, 27.03130748981998 ], [ 40.565705938015114, 27.80061961139242 ], [ 41.277648693588219, 28.403117856099243 ] ] ] ] } },
{ "type": "Feature", "properties": { "geogrid_id": "727639754036918341", "seqnum": 6683.0, "lat_c": 27.639754417587362, "lon_c": 36.918340696997475, "res": 7.0, "count_Flowering Plants": 10, "count_Arachnids": 0, "count_Mammals": 3, "count_Reptiles": 0, "count_Insects": 5, "count_Birds": 11, "count_Amphibians": 0, "count_Molluscs": 0, "count_Gymnosperms": 0, "count_Ferns": 0, "count_Basidiomycota": 0, "count_Sac Fungi": 0, "unique_species_count": 29.0, "countryCode": "SA" }, "geometry": { "type": "MultiPolygon", "coordinates": [ [ [ [ 36.623256752286011, 28.402326255221503 ], [ 37.611839411302853, 28.263619097839971 ], [ 37.900906102098922, 27.498894956354217 ], [ 37.21020188468826, 26.877387470235835 ], [ 36.231554538315336, 27.012526884027604 ], [ 35.933784071156396, 27.772698480140686 ], [ 36.623256752286011, 28.402326255221503 ] ] ] ] } },
{ "type": "Feature", "properties": { "geogrid_id": "727831114047929117", "seqnum": 7008.0, "lat_c": 27.831113793853177, "lon_c": 47.929117394750143, "res": 7.0, "count_Flowering Plants": 8, "count_Arachnids": 0, "count_Mammals": 2, "count_Reptiles": 1, "count_Insects": 0, "count_Birds": 0, "count_Amphibians": 0, "count_Molluscs": 2, "count_Gymnosperms": 0, "count_Ferns": 0, "count_Basidiomycota": 0, "count_Sac Fungi": 0, "unique_species_count": 13.0, "countryCode": "SA" }, "geometry": { "type": "MultiPolygon", "coordinates": [ [ [ [ 47.682590050392278, 28.60018545521962 ], [ 48.679566347356186, 28.389957353490676 ], [ 48.926052740078887, 27.626779722434087 ], [ 48.177574195326514, 27.067695058322382 ], [ 47.186291643845394, 27.267909957026426 ], [ 46.93708498859425, 28.036241050808744 ], [ 47.682590050392278, 28.60018545521962 ] ] ] ] } },
{ "type": "Feature", "properties": { "geogrid_id": "728014098033958274", "seqnum": 6602.0, "lat_c": 28.014097914417306, "lon_c": 33.958273979458532, "res": 7.0, "count_Flowering Plants": 3, "count_Arachnids": 0, "count_Mammals": 6, "count_Reptiles": 0, "count_Insects": 0, "count_Birds": 16, "count_Amphibians": 0, "count_Molluscs": 28, "count_Gymnosperms": 0, "count_Ferns": 0, "count_Basidiomycota": 0, "count_Sac Fungi": 0, "unique_species_count": 53.0, "countryCode": "SA" }, "geometry": { "type": "MultiPolygon", "coordinates": [ [ [ [ 33.64383216948751, 28.768768123574734 ], [ 34.639323827841622, 28.655059364181852 ], [ 34.947121835274132, 27.897535146836066 ], [ 34.268485655251993, 27.259040676585741 ], [ 33.283884902412495, 27.37006357235294 ], [ 32.967189518575623, 28.122240202789023 ], [ 33.64383216948751, 28.768768123574734 ] ] ] ] } },
{ "type": "Feature", "properties": { "geogrid_id": "728046260043246767", "seqnum": 6873.0, "lat_c": 28.046259690619593, "lon_c": 43.24676684635525, "res": 7.0, "count_Flowering Plants": 29, "count_Arachnids": 1, "count_Mammals": 4, "count_Reptiles": 18, "count_Insects": 1, "count_Birds": 1, "count_Amphibians": 0, "count_Molluscs": 0, "count_Gymnosperms": 0, "count_Ferns": 0, "count_Basidiomycota": 1, "count_Sac Fungi": 0, "unique_species_count": 55.0, "countryCode": "SA" }, "geometry": { "type": "MultiPolygon", "coordinates": [ [ [ [ 42.985547038016712, 28.820533949991486 ], [ 43.973178215060308, 28.632560890851945 ], [ 44.230312393128635, 27.858381729200037 ], [ 43.507365250500968, 27.274050853440272 ], [ 42.52752252030902, 27.455897261187079 ], [ 42.262728946532235, 28.22803796945961 ], [ 42.985547038016712, 28.820533949991486 ] ] ] ] } },
{ "type": "Feature", "properties": { "geogrid_id": "728116937038598319", "seqnum": 6738.0, "lat_c": 28.116936998616687, "lon_c": 38.598319348100404, "res": 7.0, "count_Flowering Plants": 1, "count_Arachnids": 0, "count_Mammals": 0, "count_Reptiles": 0, "count_Insects": 0, "count_Birds": 1, "count_Amphibians": 0, "count_Molluscs": 11, "count_Gymnosperms": 0, "count_Ferns": 0, "count_Basidiomycota": 0, "count_Sac Fungi": 0, "unique_species_count": 13.0, "countryCode": "SA" }, "geometry": { "type": "MultiPolygon", "coordinates": [ [ [ [ 38.312385170873441, 28.884062242038787 ], [ 39.30276359007415, 28.731452941222056 ], [ 39.582866411215072, 27.962511076066971 ], [ 38.881635759395564, 27.350345184372625 ], [ 37.900906102098922, 27.498894956354217 ], [ 37.611839411302853, 28.263619097839971 ], [ 38.312385170873441, 28.884062242038787 ] ] ] ] } },
{ "type": "Feature", "properties": { "geogrid_id": "728181904049682622", "seqnum": 7063.0, "lat_c": 28.181904489010424, "lon_c": 49.682621895693565, "res": 7.0, "count_Flowering Plants": 0, "count_Arachnids": 0, "count_Mammals": 0, "count_Reptiles": 0, "count_Insects": 0, "count_Birds": 1, "count_Amphibians": 0, "count_Molluscs": 0, "count_Gymnosperms": 0, "count_Ferns": 0, "count_Basidiomycota": 0, "count_Sac Fungi": 0, "unique_species_count": 1.0, "countryCode": "SA" }, "geometry": { "type": "MultiPolygon", "coordinates": [ [ [ [ 49.437955398800078, 28.944414906609694 ], [ 50.447770461727004, 28.733259499894281 ], [ 50.695167496166349, 27.981838684223153 ], [ 49.93057730736539, 27.427699571409363 ], [ 48.926052740078887, 27.626779722434087 ], [ 48.679566347356186, 28.389957353490676 ], [ 49.437955398800078, 28.944414906609694 ] ] ] ] } },
{ "type": "Feature", "properties": { "geogrid_id": "728438530044960386", "seqnum": 6927.0, "lat_c": 28.438529675318005, "lon_c": 44.960386009865971, "res": 7.0, "count_Flowering Plants": 12, "count_Arachnids": 0, "count_Mammals": 1, "count_Reptiles": 16, "count_Insects": 1, "count_Birds": 0, "count_Amphibians": 0, "count_Molluscs": 0, "count_Gymnosperms": 0, "count_Ferns": 0, "count_Basidiomycota": 0, "count_Sac Fungi": 0, "unique_species_count": 30.0, "countryCode": "SA" }, "geometry": { "type": "MultiPolygon", "coordinates": [ [ [ [ 44.707032569302115, 29.214720108214483 ], [ 45.697842456205471, 29.01440685277149 ], [ 45.947992276297427, 28.239333522730803 ], [ 45.214079572572103, 27.665209525927157 ], [ 44.230312393128635, 27.858381729200037 ], [ 43.973178215060308, 28.632560890851945 ], [ 44.707032569302115, 29.214720108214483 ] ] ] ] } },
{ "type": "Feature", "properties": { "geogrid_id": "728532863035632447", "seqnum": 6657.0, "lat_c": 28.53286266401059, "lon_c": 35.632447065782287, "res": 7.0, "count_Flowering Plants": 42, "count_Arachnids": 2, "count_Mammals": 3, "count_Reptiles": 4, "count_Insects": 17, "count_Birds": 51, "count_Amphibians": 1, "count_Molluscs": 11, "count_Gymnosperms": 3, "count_Ferns": 0, "count_Basidiomycota": 0, "count_Sac Fungi": 0, "unique_species_count": 134.0, "countryCode": "SA" }, "geometry": { "type": "MultiPolygon", "coordinates": [ [ [ [ 35.327398709123379, 29.292893384136949 ], [ 36.324816937119927, 29.164967462549306 ], [ 36.623256752286011, 28.402326255221503 ], [ 35.933784071156396, 27.772698480140686 ], [ 34.947121835274132, 27.897535146836066 ], [ 34.639323827841622, 28.655059364181852 ], [ 35.327398709123379, 29.292893384136949 ] ] ] ] } },
{ "type": "Feature", "properties": { "geogrid_id": "728571042040291102", "seqnum": 6792.0, "lat_c": 28.571042236287234, "lon_c": 40.291102127762422, "res": 7.0, "count_Flowering Plants": 3, "count_Arachnids": 0, "count_Mammals": 0, "count_Reptiles": 7, "count_Insects": 0, "count_Birds": 0, "count_Amphibians": 0, "count_Molluscs": 0, "count_Gymnosperms": 0, "count_Ferns": 0, "count_Basidiomycota": 0, "count_Sac Fungi": 0, "unique_species_count": 10.0, "countryCode": "SA" }, "geometry": { "type": "MultiPolygon", "coordinates": [ [ [ [ 40.014576640798978, 29.342379829034474 ], [ 41.00666502439578, 29.175873435762522 ], [ 41.277648693588219, 28.403117856099243 ], [ 40.565705938015114, 27.80061961139242 ], [ 39.582866411215072, 27.962511076066971 ], [ 39.30276359007415, 28.731452941222056 ], [ 40.014576640798978, 29.342379829034474 ] ] ] ] } },
{ "type": "Feature", "properties": { "geogrid_id": "728809075046689267", "seqnum": 6982.0, "lat_c": 28.809075275149581, "lon_c": 46.68926654235274, "res": 7.0, "count_Flowering Plants": 3, "count_Arachnids": 0, "count_Mammals": 2, "count_Reptiles": 0, "count_Insects": 0, "count_Birds": 0, "count_Amphibians": 0, "count_Molluscs": 0, "count_Gymnosperms": 0, "count_Ferns": 0, "count_Basidiomycota": 0, "count_Sac Fungi": 0, "unique_species_count": 5.0, "countryCode": "SA" }, "geometry": { "type": "MultiPolygon", "coordinates": [ [ [ [ 46.442942681717476, 29.585922296611621 ], [ 47.438148548715567, 29.374337871504427 ], [ 47.682590050392278, 28.60018545521962 ], [ 46.93708498859425, 28.036241050808744 ], [ 45.947992276297427, 28.239333522730803 ], [ 45.697842456205471, 29.01440685277149 ], [ 46.442942681717476, 29.585922296611621 ] ] ] ] } },
{ "type": "Feature", "properties": { "geogrid_id": "729001800041996868", "seqnum": 6846.0, "lat_c": 29.001800030725157, "lon_c": 41.996867907813758, "res": 7.0, "count_Flowering Plants": 0, "count_Arachnids": 1, "count_Mammals": 1, "count_Reptiles": 16, "count_Insects": 0, "count_Birds": 0, "count_Amphibians": 0, "count_Molluscs": 0, "count_Gymnosperms": 0, "count_Ferns": 0, "count_Basidiomycota": 1, "count_Sac Fungi": 0, "unique_species_count": 19.0, "countryCode": "SA" }, "geometry": { "type": "MultiPolygon", "coordinates": [ [ [ [ 41.729894280460698, 29.776937588383571 ], [ 42.723682825184746, 29.596596062737692 ], [ 42.985547038016712, 28.820533949991486 ], [ 42.262728946532235, 28.22803796945961 ], [ 41.277648693588219, 28.403117856099243 ], [ 41.00666502439578, 29.175873435762522 ], [ 41.729894280460698, 29.776937588383571 ] ] ] ] } },
{ "type": "Feature", "properties": { "geogrid_id": "729028633037319781", "seqnum": 6711.0, "lat_c": 29.028633444905356, "lon_c": 37.31978128356657, "res": 7.0, "count_Flowering Plants": 10, "count_Arachnids": 0, "count_Mammals": 0, "count_Reptiles": 0, "count_Insects": 0, "count_Birds": 1, "count_Amphibians": 0, "count_Molluscs": 0, "count_Gymnosperms": 0, "count_Ferns": 0, "count_Basidiomycota": 0, "count_Sac Fungi": 0, "unique_species_count": 11.0, "countryCode": "SA" }, "geometry": { "type": "MultiPolygon", "coordinates": [ [ [ [ 37.024606536274206, 29.793790272612007 ], [ 38.023721926344642, 29.651559850368969 ], [ 38.312385170873441, 28.884062242038787 ], [ 37.611839411302853, 28.263619097839971 ], [ 36.623256752286011, 28.402326255221503 ], [ 36.324816937119927, 29.164967462549306 ], [ 37.024606536274206, 29.793790272612007 ] ] ] ] } },
{ "type": "Feature", "properties": { "geogrid_id": "729159603048435769", "seqnum": 7036.0, "lat_c": 29.15960275708127, "lon_c": 48.435769343547797, "res": 7.0, "count_Flowering Plants": 4, "count_Arachnids": 0, "count_Mammals": 1, "count_Reptiles": 0, "count_Insects": 3, "count_Birds": 1, "count_Amphibians": 0, "count_Molluscs": 0, "count_Gymnosperms": 0, "count_Ferns": 0, "count_Basidiomycota": 0, "count_Sac Fungi": 0, "unique_species_count": 9.0, "countryCode": "SA" }, "geometry": { "type": "MultiPolygon", "coordinates": [ [ [ [ 48.194886428954163, 29.935020159147562 ], [ 49.196886334997174, 29.714406379591846 ], [ 49.437955398800078, 28.944414906609694 ], [ 48.679566347356186, 28.389957353490676 ], [ 47.682590050392278, 28.60018545521962 ], [ 47.438148548715567, 29.374337871504427 ], [ 48.194886428954163, 29.935020159147562 ] ] ] ] } },
{ "type": "Feature", "properties": { "geogrid_id": "729409018043715884", "seqnum": 6901.0, "lat_c": 29.409018213581877, "lon_c": 43.715883681585204, "res": 7.0, "count_Flowering Plants": 2, "count_Arachnids": 0, "count_Mammals": 3, "count_Reptiles": 14, "count_Insects": 0, "count_Birds": 0, "count_Amphibians": 0, "count_Molluscs": 0, "count_Gymnosperms": 0, "count_Ferns": 0, "count_Basidiomycota": 0, "count_Sac Fungi": 0, "unique_species_count": 19.0, "countryCode": "SA" }, "geometry": { "type": "MultiPolygon", "coordinates": [ [ [ [ 43.458430693423267, 30.187434655625523 ], [ 44.454050526918849, 29.993414961469256 ], [ 44.707032569302115, 29.214720108214483 ], [ 43.973178215060308, 28.632560890851945 ], [ 42.985547038016712, 28.820533949991486 ], [ 42.723682825184746, 29.596596062737692 ], [ 43.458430693423267, 30.187434655625523 ] ] ] ] } },
{ "type": "Feature", "properties": { "geogrid_id": "729412262034327468", "seqnum": 6630.0, "lat_c": 29.412261765715247, "lon_c": 34.327467712357588, "res": 7.0, "count_Flowering Plants": 1, "count_Arachnids": 0, "count_Mammals": 0, "count_Reptiles": 0, "count_Insects": 1, "count_Birds": 2, "count_Amphibians": 0, "count_Molluscs": 0, "count_Gymnosperms": 0, "count_Ferns": 0, "count_Basidiomycota": 0, "count_Sac Fungi": 0, "unique_species_count": 4.0, "countryCode": "SA" }, "geometry": { "type": "MultiPolygon", "coordinates": [ [ [ [ 34.011391636932878, 30.169023154940366 ], [ 35.018488623927318, 30.052663580246733 ], [ 35.327398709123379, 29.292893384136949 ], [ 34.639323827841622, 28.655059364181852 ], [ 33.64383216948751, 28.768768123574734 ], [ 33.324994048105005, 29.522939800479985 ], [ 34.011391636932878, 30.169023154940366 ] ] ] ] } },
{ "type": "Feature", "properties": { "geogrid_id": "729501022039020330", "seqnum": 6765.0, "lat_c": 29.501022489459118, "lon_c": 39.020329838063027, "res": 7.0, "count_Flowering Plants": 3, "count_Arachnids": 0, "count_Mammals": 0, "count_Reptiles": 1, "count_Insects": 0, "count_Birds": 0, "count_Amphibians": 0, "count_Molluscs": 0, "count_Gymnosperms": 0, "count_Ferns": 0, "count_Basidiomycota": 0, "count_Sac Fungi": 0, "unique_species_count": 4.0, "countryCode": "SA" }, "geometry": { "type": "MultiPolygon", "coordinates": [ [ [ [ 38.735465204774691, 30.271041841569378 ], [ 39.736046252927402, 30.114435620854589 ], [ 40.014576640798978, 29.342379829034474 ], [ 39.30276359007415, 28.731452941222056 ], [ 38.312385170873441, 28.884062242038787 ], [ 38.023721926344642, 29.651559850368969 ], [ 38.735465204774691, 30.271041841569378 ] ] ] ] } },
{ "type": "Feature", "properties": { "geogrid_id": "729949652040734116", "seqnum": 6820.0, "lat_c": 29.949652398946998, "lon_c": 40.734115582392825, "res": 7.0, "count_Flowering Plants": 12, "count_Arachnids": 0, "count_Mammals": 1, "count_Reptiles": 9, "count_Insects": 3, "count_Birds": 6, "count_Amphibians": 0, "count_Molluscs": 0, "count_Gymnosperms": 0, "count_Ferns": 0, "count_Basidiomycota": 0, "count_Sac Fungi": 0, "unique_species_count": 31.0, "countryCode": "SA" }, "geometry": { "type": "MultiPolygon", "coordinates": [ [ [ [ 40.459933005777494, 30.724234245260451 ], [ 41.461761370268107, 30.55320300525598 ], [ 41.729894280460698, 29.776937588383571 ], [ 41.00666502439578, 29.175873435762522 ], [ 40.014576640798978, 29.342379829034474 ], [ 39.736046252927402, 30.114435620854589 ], [ 40.459933005777494, 30.724234245260451 ] ] ] ] } },
{ "type": "Feature", "properties": { "geogrid_id": "730374166042461150", "seqnum": 6874.0, "lat_c": 30.374165925014974, "lon_c": 42.461150400431805, "res": 7.0, "count_Flowering Plants": 1, "count_Arachnids": 0, "count_Mammals": 1, "count_Reptiles": 2, "count_Insects": 0, "count_Birds": 0, "count_Amphibians": 0, "count_Molluscs": 0, "count_Gymnosperms": 0, "count_Ferns": 0, "count_Basidiomycota": 0, "count_Sac Fungi": 0, "unique_species_count": 4.0, "countryCode": "SA" }, "geometry": { "type": "MultiPolygon", "coordinates": [ [ [ [ 42.197925146866787, 31.152961400897027 ], [ 43.200821169675869, 30.967488139971667 ], [ 43.458430693423267, 30.187434655625523 ], [ 42.723682825184746, 29.596596062737692 ], [ 41.729894280460698, 29.776937588383571 ], [ 41.461761370268107, 30.55320300525598 ], [ 42.197925146866787, 31.152961400897027 ] ] ] ] } },
{ "type": "Feature", "properties": { "geogrid_id": "730419268037732214", "seqnum": 6739.0, "lat_c": 30.419267847265079, "lon_c": 37.732214150365323, "res": 7.0, "count_Flowering Plants": 2, "count_Arachnids": 0, "count_Mammals": 0, "count_Reptiles": 0, "count_Insects": 0, "count_Birds": 0, "count_Amphibians": 0, "count_Molluscs": 0, "count_Gymnosperms": 0, "count_Ferns": 0, "count_Basidiomycota": 0, "count_Sac Fungi": 0, "unique_species_count": 2.0, "countryCode": "SA" }, "geometry": { "type": "MultiPolygon", "coordinates": [ [ [ [ 37.437742018641487, 31.187023471851717 ], [ 38.448066035606573, 31.041332269881693 ], [ 38.735465204774691, 30.271041841569378 ], [ 38.023721926344642, 29.651559850368969 ], [ 37.024606536274206, 29.793790272612007 ], [ 36.726185233741695, 30.558940975417173 ], [ 37.437742018641487, 31.187023471851717 ] ] ] ] } },
{ "type": "Feature", "properties": { "geogrid_id": "730887012039455425", "seqnum": 6793.0, "lat_c": 30.887011835525854, "lon_c": 39.455424720448839, "res": 7.0, "count_Flowering Plants": 0, "count_Arachnids": 0, "count_Mammals": 0, "count_Reptiles": 0, "count_Insects": 1, "count_Birds": 0, "count_Amphibians": 0, "count_Molluscs": 0, "count_Gymnosperms": 0, "count_Ferns": 0, "count_Basidiomycota": 0, "count_Sac Fungi": 0, "unique_species_count": 1.0, "countryCode": "SA" }, "geometry": { "type": "MultiPolygon", "coordinates": [ [ [ [ 39.172622652047238, 31.659909917121016 ], [ 40.184047539446347, 31.499397472390086 ], [ 40.459933005777494, 30.724234245260451 ], [ 39.736046252927402, 30.114435620854589 ], [ 38.735465204774691, 30.271041841569378 ], [ 38.448066035606573, 31.041332269881693 ], [ 39.172622652047238, 31.659909917121016 ] ] ] ] } },
{ "type": "Feature", "properties": { "geogrid_id": "731323936036424382", "seqnum": 6712.0, "lat_c": 31.323936158266513, "lon_c": 36.424382455009862, "res": 7.0, "count_Flowering Plants": 1, "count_Arachnids": 0, "count_Mammals": 0, "count_Reptiles": 0, "count_Insects": 0, "count_Birds": 1, "count_Amphibians": 0, "count_Molluscs": 0, "count_Gymnosperms": 0, "count_Ferns": 0, "count_Basidiomycota": 0, "count_Sac Fungi": 0, "unique_species_count": 2.0, "countryCode": "SA" }, "geometry": { "type": "MultiPolygon", "coordinates": [ [ [ [ 36.119058048105749, 32.088625726461281 ], [ 37.140181137723175, 31.954663305846069 ], [ 37.437742018641487, 31.187023471851717 ], [ 36.726185233741695, 30.558940975417173 ], [ 35.71731167486351, 30.689911128381382 ], [ 35.407953670143286, 31.451937954552839 ], [ 36.119058048105749, 32.088625726461281 ] ] ] ] } },
{ "type": "Feature", "properties": { "geogrid_id": "731330347041192421", "seqnum": 6847.0, "lat_c": 31.330347250400337, "lon_c": 41.192420869700214, "res": 7.0, "count_Flowering Plants": 2, "count_Arachnids": 0, "count_Mammals": 3, "count_Reptiles": 0, "count_Insects": 0, "count_Birds": 0, "count_Amphibians": 0, "count_Molluscs": 0, "count_Gymnosperms": 0, "count_Ferns": 0, "count_Basidiomycota": 0, "count_Sac Fungi": 0, "unique_species_count": 5.0, "countryCode": "SA" }, "geometry": { "type": "MultiPolygon", "coordinates": [ [ [ [ 40.921822812149294, 32.108120290927658 ], [ 41.933981635162382, 31.932698834029733 ], [ 42.197925146866787, 31.152961400897027 ], [ 41.461761370268107, 30.55320300525598 ], [ 40.459933005777494, 30.724234245260451 ], [ 40.184047539446347, 31.499397472390086 ], [ 40.921822812149294, 32.108120290927658 ] ] ] ] } },
{ "type": "Feature", "properties": { "geogrid_id": "731811714038158025", "seqnum": 6766.0, "lat_c": 31.811714370446158, "lon_c": 38.158024802157435, "res": 7.0, "count_Flowering Plants": 0, "count_Arachnids": 0, "count_Mammals": 1, "count_Reptiles": 1, "count_Insects": 0, "count_Birds": 0, "count_Amphibians": 0, "count_Molluscs": 0, "count_Gymnosperms": 0, "count_Ferns": 0, "count_Basidiomycota": 0, "count_Sac Fungi": 0, "unique_species_count": 2.0, "countryCode": "SA" }, "geometry": { "type": "MultiPolygon", "coordinates": [ [ [ [ 37.865229922440676, 32.582008235231406 ], [ 38.88754737285872, 32.432930758872345 ], [ 39.172622652047238, 31.659909917121016 ], [ 38.448066035606573, 31.041332269881693 ], [ 37.437742018641487, 31.187023471851717 ], [ 37.140181137723175, 31.954663305846069 ], [ 37.865229922440676, 32.582008235231406 ] ] ] ] } }
]
}
