{
"type": "FeatureCollection",
"name": "SD",
"crs": { "type": "name", "properties": { "name": "urn:ogc:def:crs:OGC:1.3:CRS84" } },
"features": [
{ "type": "Feature", "properties": { "geogrid_id": "708921040028070774", "seqnum": 5910.0, "lat_c": 8.9210398236065096, "lon_c": 28.07077359424634, "res": 7.0, "count_Gymnosperms": 0, "count_Birds": 1, "count_Insects": 1, "count_Arachnids": 0, "count_Mammals": 0, "count_Flowering Plants": 0, "count_Amphibians": 0, "count_Reptiles": 0, "count_Molluscs": 1, "count_Basidiomycota": 0, "unique_species_count": 3.0, "countryCode": "SD" }, "geometry": { "type": "MultiPolygon", "coordinates": [ [ [ [ 28.433577451009732, 9.779397364336296 ], [ 28.830622908762859, 8.955556457843347 ], [ 28.460419927299878, 8.104784301911589 ], [ 27.692944262342966, 8.076207556732966 ], [ 27.305706500648174, 8.888043584312992 ], [ 27.677355081603359, 9.739743736429245 ], [ 28.433577451009732, 9.779397364336296 ] ] ] ] } },
{ "type": "Feature", "properties": { "geogrid_id": "709701861026915307", "seqnum": 5856.0, "lat_c": 9.7018610564157353, "lon_c": 26.915307365799258, "res": 7.0, "count_Gymnosperms": 0, "count_Birds": 0, "count_Insects": 1, "count_Arachnids": 0, "count_Mammals": 0, "count_Flowering Plants": 0, "count_Amphibians": 0, "count_Reptiles": 0, "count_Molluscs": 0, "count_Basidiomycota": 0, "unique_species_count": 1.0, "countryCode": "SD" }, "geometry": { "type": "MultiPolygon", "coordinates": [ [ [ [ 27.278931584176551, 10.561526547351367 ], [ 27.677355081603359, 9.739743736429245 ], [ 27.305706500648174, 8.888043584312992 ], [ 26.535610511574081, 8.856579393707252 ], [ 26.147644258846771, 9.66576568523843 ], [ 26.520703182017055, 10.518208657959878 ], [ 27.278931584176551, 10.561526547351367 ] ] ] ] } },
{ "type": "Feature", "properties": { "geogrid_id": "710367484030804409", "seqnum": 5965.0, "lat_c": 10.367484123092677, "lon_c": 30.804409403862415, "res": 7.0, "count_Gymnosperms": 0, "count_Birds": 0, "count_Insects": 0, "count_Arachnids": 0, "count_Mammals": 2, "count_Flowering Plants": 4, "count_Amphibians": 0, "count_Reptiles": 0, "count_Molluscs": 0, "count_Basidiomycota": 0, "unique_species_count": 6.0, "countryCode": "SD" }, "geometry": { "type": "MultiPolygon", "coordinates": [ [ [ [ 31.481424775338763, 11.006894956864326 ], [ 31.720299849681954, 10.2846963869004 ], [ 31.035445319080679, 9.651870592969841 ], [ 30.112289115900879, 9.736664086246737 ], [ 29.884819205740513, 10.448346757519042 ], [ 30.568002950078263, 11.086626895982929 ], [ 31.481424775338763, 11.006894956864326 ] ] ] ] } },
{ "type": "Feature", "properties": { "geogrid_id": "710606896028030620", "seqnum": 5883.0, "lat_c": 10.606896258162413, "lon_c": 28.030619835784886, "res": 7.0, "count_Gymnosperms": 0, "count_Birds": 2, "count_Insects": 0, "count_Arachnids": 0, "count_Mammals": 0, "count_Flowering Plants": 0, "count_Amphibians": 0, "count_Reptiles": 0, "count_Molluscs": 0, "count_Basidiomycota": 0, "unique_species_count": 2.0, "countryCode": "SD" }, "geometry": { "type": "MultiPolygon", "coordinates": [ [ [ [ 28.730975512201422, 11.239330844348798 ], [ 28.96061286109169, 10.527882279069683 ], [ 28.433577451009732, 9.779397364336296 ], [ 27.677355081603359, 9.739743736429245 ], [ 27.278931584176551, 10.561526547351367 ], [ 27.805562995583227, 11.313444856582318 ], [ 28.730975512201422, 11.239330844348798 ] ] ] ] } },
{ "type": "Feature", "properties": { "geogrid_id": "711127340022252563", "seqnum": 5665.0, "lat_c": 11.127340174763289, "lon_c": 22.252562916440922, "res": 7.0, "count_Gymnosperms": 0, "count_Birds": 0, "count_Insects": 0, "count_Arachnids": 0, "count_Mammals": 0, "count_Flowering Plants": 1, "count_Amphibians": 0, "count_Reptiles": 0, "count_Molluscs": 0, "count_Basidiomycota": 0, "unique_species_count": 1.0, "countryCode": "SD" }, "geometry": { "type": "MultiPolygon", "coordinates": [ [ [ [ 22.646658682992634, 11.964465005382634 ], [ 23.038653979502072, 11.164455372461902 ], [ 22.640066264569924, 10.333166663567917 ], [ 21.847931945270538, 10.302608873543628 ], [ 21.460876812677981, 11.092764827338089 ], [ 21.86225994545681, 11.92242885516929 ], [ 22.646658682992634, 11.964465005382634 ] ] ] ] } },
{ "type": "Feature", "properties": { "geogrid_id": "711163944029651451", "seqnum": 5911.0, "lat_c": 11.163943536780133, "lon_c": 29.651450908509016, "res": 7.0, "count_Gymnosperms": 0, "count_Birds": 0, "count_Insects": 7, "count_Arachnids": 0, "count_Mammals": 0, "count_Flowering Plants": 4, "count_Amphibians": 0, "count_Reptiles": 0, "count_Molluscs": 0, "count_Basidiomycota": 1, "unique_species_count": 12.0, "countryCode": "SD" }, "geometry": { "type": "MultiPolygon", "coordinates": [ [ [ [ 30.326135760797335, 11.809104765869193 ], [ 30.568002950078263, 11.086626895982929 ], [ 29.884819205740513, 10.448346757519042 ], [ 28.96061286109169, 10.527882279069683 ], [ 28.730975512201422, 11.239330844348798 ], [ 29.412090160503979, 11.883238859799333 ], [ 30.326135760797335, 11.809104765869193 ] ] ] ] } },
{ "type": "Feature", "properties": { "geogrid_id": "711246202024592715", "seqnum": 5747.0, "lat_c": 11.246201862525952, "lon_c": 24.592715205466792, "res": 7.0, "count_Gymnosperms": 0, "count_Birds": 0, "count_Insects": 0, "count_Arachnids": 0, "count_Mammals": 0, "count_Flowering Plants": 0, "count_Amphibians": 0, "count_Reptiles": 1, "count_Molluscs": 0, "count_Basidiomycota": 0, "unique_species_count": 1.0, "countryCode": "SD" }, "geometry": { "type": "MultiPolygon", "coordinates": [ [ [ [ 24.957810273677129, 12.107978283170667 ], [ 25.360055029512878, 11.290777896398424 ], [ 24.985572337123021, 10.43781901804469 ], [ 24.209174450392169, 10.40079043355132 ], [ 23.818812352928834, 11.204084916518372 ], [ 24.194794642739783, 12.057278611001136 ], [ 24.957810273677129, 12.107978283170667 ] ] ] ] } },
{ "type": "Feature", "properties": { "geogrid_id": "711481490033961177", "seqnum": 6021.0, "lat_c": 11.481489981723879, "lon_c": 33.96117665485869, "res": 7.0, "count_Gymnosperms": 0, "count_Birds": 9, "count_Insects": 0, "count_Arachnids": 0, "count_Mammals": 3, "count_Flowering Plants": 0, "count_Amphibians": 0, "count_Reptiles": 1, "count_Molluscs": 5, "count_Basidiomycota": 0, "unique_species_count": 18.0, "countryCode": "SD" }, "geometry": { "type": "MultiPolygon", "coordinates": [ [ [ [ 34.615162153078252, 12.126002246181708 ], [ 34.866675051561536, 11.390801149555871 ], [ 34.208637266014982, 10.749957284091007 ], [ 33.301278906767166, 10.838808038419421 ], [ 33.05470203901934, 11.568510685281925 ], [ 33.709925001457492, 12.215237929564022 ], [ 34.615162153078252, 12.126002246181708 ] ] ] ] } },
{ "type": "Feature", "properties": { "geogrid_id": "711732121031237578", "seqnum": 5939.0, "lat_c": 11.732121301141765, "lon_c": 31.237577610051886, "res": 7.0, "count_Gymnosperms": 0, "count_Birds": 0, "count_Insects": 1, "count_Arachnids": 0, "count_Mammals": 2, "count_Flowering Plants": 0, "count_Amphibians": 0, "count_Reptiles": 0, "count_Molluscs": 0, "count_Basidiomycota": 0, "unique_species_count": 3.0, "countryCode": "SD" }, "geometry": { "type": "MultiPolygon", "coordinates": [ [ [ [ 31.896954028390894, 12.382215636031374 ], [ 32.14695461492569, 11.651997285933454 ], [ 31.481424775338763, 11.006894956864326 ], [ 30.568002950078263, 11.086626895982929 ], [ 30.326135760797335, 11.809104765869193 ], [ 30.98866831188252, 12.460194316591634 ], [ 31.896954028390894, 12.382215636031374 ] ] ] ] } },
{ "type": "Feature", "properties": { "geogrid_id": "712300608032803939", "seqnum": 5966.0, "lat_c": 12.300607830526909, "lon_c": 32.803939220746784, "res": 7.0, "count_Gymnosperms": 0, "count_Birds": 1, "count_Insects": 3, "count_Arachnids": 0, "count_Mammals": 0, "count_Flowering Plants": 0, "count_Amphibians": 0, "count_Reptiles": 1, "count_Molluscs": 0, "count_Basidiomycota": 0, "unique_species_count": 5.0, "countryCode": "SD" }, "geometry": { "type": "MultiPolygon", "coordinates": [ [ [ [ 33.45479421368821, 12.951064342474874 ], [ 33.709925001457492, 12.215237929564022 ], [ 33.05470203901934, 11.568510685281925 ], [ 32.14695461492569, 11.651997285933454 ], [ 31.896954028390894, 12.382215636031374 ], [ 32.548901031838611, 13.034947991983454 ], [ 33.45479421368821, 12.951064342474874 ] ] ] ] } },
{ "type": "Feature", "properties": { "geogrid_id": "712534716030078715", "seqnum": 5884.0, "lat_c": 12.534716341311885, "lon_c": 30.078715203823219, "res": 7.0, "count_Gymnosperms": 0, "count_Birds": 1, "count_Insects": 2, "count_Arachnids": 0, "count_Mammals": 4, "count_Flowering Plants": 0, "count_Amphibians": 0, "count_Reptiles": 0, "count_Molluscs": 0, "count_Basidiomycota": 0, "unique_species_count": 7.0, "countryCode": "SD" }, "geometry": { "type": "MultiPolygon", "coordinates": [ [ [ [ 30.734604086967561, 13.190926996376682 ], [ 30.98866831188252, 12.460194316591634 ], [ 30.326135760797335, 11.809104765869193 ], [ 29.412090160503979, 11.883238859799333 ], [ 29.166640864470981, 12.606008314721189 ], [ 29.825646169220494, 13.263253092268897 ], [ 30.734604086967561, 13.190926996376682 ] ] ] ] } },
{ "type": "Feature", "properties": { "geogrid_id": "712740218027333687", "seqnum": 5802.0, "lat_c": 12.740218003213538, "lon_c": 27.333687385155248, "res": 7.0, "count_Gymnosperms": 0, "count_Birds": 0, "count_Insects": 1, "count_Arachnids": 0, "count_Mammals": 0, "count_Flowering Plants": 0, "count_Amphibians": 0, "count_Reptiles": 0, "count_Molluscs": 0, "count_Basidiomycota": 0, "unique_species_count": 1.0, "countryCode": "SD" }, "geometry": { "type": "MultiPolygon", "coordinates": [ [ [ [ 28.002208259499014, 13.397453444300989 ], [ 28.25187478141487, 12.674372356542666 ], [ 27.573288040891175, 12.024645498995334 ], [ 26.646536741425912, 12.093164560131029 ], [ 26.411128255874608, 12.804110953009038 ], [ 27.086652951137349, 13.459868724016275 ], [ 28.002208259499014, 13.397453444300989 ] ] ] ] } },
{ "type": "Feature", "properties": { "geogrid_id": "712766515022250226", "seqnum": 5638.0, "lat_c": 12.766514685963749, "lon_c": 22.250225802512411, "res": 7.0, "count_Gymnosperms": 0, "count_Birds": 15, "count_Insects": 0, "count_Arachnids": 0, "count_Mammals": 0, "count_Flowering Plants": 0, "count_Amphibians": 0, "count_Reptiles": 3, "count_Molluscs": 0, "count_Basidiomycota": 0, "unique_species_count": 18.0, "countryCode": "SD" }, "geometry": { "type": "MultiPolygon", "coordinates": [ [ [ [ 22.616970843674892, 13.629404318854048 ], [ 23.024297479022447, 12.817540815296921 ], [ 22.646658682992634, 11.964465005382634 ], [ 21.86225994545681, 11.92242885516929 ], [ 21.468364324781213, 12.718893004139398 ], [ 21.847923315270318, 13.571401512306963 ], [ 22.616970843674892, 13.629404318854048 ] ] ] ] } },
{ "type": "Feature", "properties": { "geogrid_id": "712863140034360143", "seqnum": 5994.0, "lat_c": 12.863139796696636, "lon_c": 34.360142652037304, "res": 7.0, "count_Gymnosperms": 0, "count_Birds": 73, "count_Insects": 4, "count_Arachnids": 0, "count_Mammals": 11, "count_Flowering Plants": 1, "count_Amphibians": 1, "count_Reptiles": 0, "count_Molluscs": 0, "count_Basidiomycota": 0, "unique_species_count": 90.0, "countryCode": "SD" }, "geometry": { "type": "MultiPolygon", "coordinates": [ [ [ [ 35.007140600465327, 13.511105640203105 ], [ 35.265123241991176, 12.771113096398283 ], [ 34.615162153078252, 12.126002246181708 ], [ 33.709925001457492, 12.215237929564022 ], [ 33.45479421368821, 12.951064342474874 ], [ 34.101526622751294, 13.602087115697289 ], [ 35.007140600465327, 13.511105640203105 ] ] ] ] } },
{ "type": "Feature", "properties": { "geogrid_id": "712929589024547386", "seqnum": 5720.0, "lat_c": 12.92958850575606, "lon_c": 24.54738604757728, "res": 7.0, "count_Gymnosperms": 0, "count_Birds": 1, "count_Insects": 3, "count_Arachnids": 0, "count_Mammals": 4, "count_Flowering Plants": 0, "count_Amphibians": 0, "count_Reptiles": 0, "count_Molluscs": 0, "count_Basidiomycota": 0, "unique_species_count": 8.0, "countryCode": "SD" }, "geometry": { "type": "MultiPolygon", "coordinates": [ [ [ [ 25.243861515280138, 13.577545769227015 ], [ 25.482933858773869, 12.866849556925168 ], [ 24.957810273677129, 12.107978283170667 ], [ 24.194794642739783, 12.057278611001136 ], [ 23.790151140759018, 12.871917568819388 ], [ 24.314154864381823, 13.634303491356063 ], [ 25.243861515280138, 13.577545769227015 ] ] ] ] } },
{ "type": "Feature", "properties": { "geogrid_id": "713332019028915005", "seqnum": 5830.0, "lat_c": 13.332018773116578, "lon_c": 28.915004875025151, "res": 7.0, "count_Gymnosperms": 0, "count_Birds": 0, "count_Insects": 0, "count_Arachnids": 1, "count_Mammals": 1, "count_Flowering Plants": 3, "count_Amphibians": 0, "count_Reptiles": 0, "count_Molluscs": 0, "count_Basidiomycota": 0, "unique_species_count": 5.0, "countryCode": "SD" }, "geometry": { "type": "MultiPolygon", "coordinates": [ [ [ [ 29.566831030413685, 13.9944994757935 ], [ 29.825646169220494, 13.263253092268897 ], [ 29.166640864470981, 12.606008314721189 ], [ 28.25187478141487, 12.674372356542666 ], [ 28.002208259499014, 13.397453444300989 ], [ 28.657081989940902, 14.061028547636742 ], [ 29.566831030413685, 13.9944994757935 ] ] ] ] } },
{ "type": "Feature", "properties": { "geogrid_id": "713415850035912660", "seqnum": 6022.0, "lat_c": 13.415849655908687, "lon_c": 35.912660416385023, "res": 7.0, "count_Gymnosperms": 0, "count_Birds": 3, "count_Insects": 0, "count_Arachnids": 0, "count_Mammals": 0, "count_Flowering Plants": 0, "count_Amphibians": 0, "count_Reptiles": 0, "count_Molluscs": 0, "count_Basidiomycota": 0, "unique_species_count": 3.0, "countryCode": "SD" }, "geometry": { "type": "MultiPolygon", "coordinates": [ [ [ [ 36.559144380528537, 14.059434923322687 ], [ 36.81819600223038, 13.31629155190018 ], [ 36.16988806549891, 12.674935763495142 ], [ 35.265123241991176, 12.771113096398283 ], [ 35.007140600465327, 13.511105640203105 ], [ 35.652434124305671, 14.158259284852374 ], [ 36.559144380528537, 14.059434923322687 ] ] ] ] } },
{ "type": "Feature", "properties": { "geogrid_id": "713519696026167553", "seqnum": 5748.0, "lat_c": 13.519696028967854, "lon_c": 26.167552727726399, "res": 7.0, "count_Gymnosperms": 0, "count_Birds": 0, "count_Insects": 0, "count_Arachnids": 0, "count_Mammals": 1, "count_Flowering Plants": 0, "count_Amphibians": 0, "count_Reptiles": 0, "count_Molluscs": 0, "count_Basidiomycota": 0, "unique_species_count": 1.0, "countryCode": "SD" }, "geometry": { "type": "MultiPolygon", "coordinates": [ [ [ [ 26.832076271590079, 14.183290791565073 ], [ 27.086652951137349, 13.459868724016275 ], [ 26.411128255874608, 12.804110953009038 ], [ 25.482933858773869, 12.866849556925168 ], [ 25.243861515280138, 13.577545769227015 ], [ 25.915694710962374, 14.239572271393856 ], [ 26.832076271590079, 14.183290791565073 ] ] ] ] } },
{ "type": "Feature", "properties": { "geogrid_id": "713688829033195693", "seqnum": 5940.0, "lat_c": 13.688828989510325, "lon_c": 33.195693125697545, "res": 7.0, "count_Gymnosperms": 0, "count_Birds": 27, "count_Insects": 5, "count_Arachnids": 0, "count_Mammals": 10, "count_Flowering Plants": 2, "count_Amphibians": 0, "count_Reptiles": 0, "count_Molluscs": 10, "count_Basidiomycota": 0, "unique_species_count": 54.0, "countryCode": "SD" }, "geometry": { "type": "MultiPolygon", "coordinates": [ [ [ [ 33.839221008627312, 14.342714629614482 ], [ 34.101526622751294, 13.602087115697289 ], [ 33.45479421368821, 12.951064342474874 ], [ 32.548901031838611, 13.034947991983454 ], [ 32.289494988107549, 13.77137561344721 ], [ 32.932527402839433, 14.428388245985289 ], [ 33.839221008627312, 14.342714629614482 ] ] ] ] } },
{ "type": "Feature", "properties": { "geogrid_id": "713691292023376442", "seqnum": 5666.0, "lat_c": 13.691291609478766, "lon_c": 23.376441720882305, "res": 7.0, "count_Gymnosperms": 0, "count_Birds": 3, "count_Insects": 1, "count_Arachnids": 0, "count_Mammals": 1, "count_Flowering Plants": 0, "count_Amphibians": 0, "count_Reptiles": 0, "count_Molluscs": 0, "count_Basidiomycota": 0, "unique_species_count": 5.0, "countryCode": "SD" }, "geometry": { "type": "MultiPolygon", "coordinates": [ [ [ [ 24.070841664776694, 14.344768235932303 ], [ 24.314154864381823, 13.634303491356063 ], [ 23.790151140759018, 12.871917568819388 ], [ 23.024297479022447, 12.817540815296921 ], [ 22.616970843674892, 13.629404318854048 ], [ 23.139598594174956, 14.395325875438751 ], [ 24.070841664776694, 14.344768235932303 ] ] ] ] } },
{ "type": "Feature", "properties": { "geogrid_id": "713924127030475289", "seqnum": 5858.0, "lat_c": 13.924126529424631, "lon_c": 30.47528932954685, "res": 7.0, "count_Gymnosperms": 0, "count_Birds": 1, "count_Insects": 1, "count_Arachnids": 0, "count_Mammals": 0, "count_Flowering Plants": 0, "count_Amphibians": 0, "count_Reptiles": 0, "count_Molluscs": 0, "count_Basidiomycota": 0, "unique_species_count": 2.0, "countryCode": "SD" }, "geometry": { "type": "MultiPolygon", "coordinates": [ [ [ [ 31.118378861945882, 14.586782781009683 ], [ 31.382761616986219, 13.849783724370941 ], [ 30.734604086967561, 13.190926996376682 ], [ 29.825646169220494, 13.263253092268897 ], [ 29.566831030413685, 13.9944994757935 ], [ 30.210625563961408, 14.659594412953741 ], [ 31.118378861945882, 14.586782781009683 ] ] ] ] } },
{ "type": "Feature", "properties": { "geogrid_id": "714123882027745660", "seqnum": 5776.0, "lat_c": 14.123882436467699, "lon_c": 27.745659891665643, "res": 7.0, "count_Gymnosperms": 0, "count_Birds": 0, "count_Insects": 0, "count_Arachnids": 0, "count_Mammals": 1, "count_Flowering Plants": 0, "count_Amphibians": 0, "count_Reptiles": 0, "count_Molluscs": 0, "count_Basidiomycota": 0, "unique_species_count": 1.0, "countryCode": "SD" }, "geometry": { "type": "MultiPolygon", "coordinates": [ [ [ [ 28.392769947971836, 14.792787576437274 ], [ 28.657081989940902, 14.061028547636742 ], [ 28.002208259499014, 13.397453444300989 ], [ 27.086652951137349, 13.459868724016275 ], [ 26.832076271590079, 14.183290791565073 ], [ 27.482124697846515, 14.853377119654592 ], [ 28.392769947971836, 14.792787576437274 ] ] ] ] } },
{ "type": "Feature", "properties": { "geogrid_id": "714252680034745823", "seqnum": 5967.0, "lat_c": 14.252679617596405, "lon_c": 34.745822818945996, "res": 7.0, "count_Gymnosperms": 0, "count_Birds": 0, "count_Insects": 2, "count_Arachnids": 0, "count_Mammals": 0, "count_Flowering Plants": 0, "count_Amphibians": 0, "count_Reptiles": 1, "count_Molluscs": 1, "count_Basidiomycota": 0, "unique_species_count": 4.0, "countryCode": "SD" }, "geometry": { "type": "MultiPolygon", "coordinates": [ [ [ [ 35.389115650576997, 14.902056476146569 ], [ 35.652434124305671, 14.158259284852374 ], [ 35.007140600465327, 13.511105640203105 ], [ 34.101526622751294, 13.602087115697289 ], [ 33.839221008627312, 14.342714629614482 ], [ 34.48107495932036, 14.995715458193001 ], [ 35.389115650576997, 14.902056476146569 ] ] ] ] } },
{ "type": "Feature", "properties": { "geogrid_id": "714293179024995668", "seqnum": 5694.0, "lat_c": 14.293178873930881, "lon_c": 24.995668084624381, "res": 7.0, "count_Gymnosperms": 0, "count_Birds": 0, "count_Insects": 0, "count_Arachnids": 0, "count_Mammals": 2, "count_Flowering Plants": 0, "count_Amphibians": 0, "count_Reptiles": 0, "count_Molluscs": 0, "count_Basidiomycota": 0, "unique_species_count": 2.0, "countryCode": "SD" }, "geometry": { "type": "MultiPolygon", "coordinates": [ [ [ [ 25.655439987305265, 14.963375726588858 ], [ 25.915694710962374, 14.239572271393856 ], [ 25.243861515280138, 13.577545769227015 ], [ 24.314154864381823, 13.634303491356063 ], [ 24.070841664776694, 14.344768235932303 ], [ 24.738231065365124, 15.013332854207375 ], [ 25.655439987305265, 14.963375726588858 ] ] ] ] } },
{ "type": "Feature", "properties": { "geogrid_id": "714509731032025625", "seqnum": 5885.0, "lat_c": 14.50973113229588, "lon_c": 32.025625454758746, "res": 7.0, "count_Gymnosperms": 0, "count_Birds": 1, "count_Insects": 0, "count_Arachnids": 0, "count_Mammals": 0, "count_Flowering Plants": 1, "count_Amphibians": 0, "count_Reptiles": 0, "count_Molluscs": 0, "count_Basidiomycota": 0, "unique_species_count": 2.0, "countryCode": "SD" }, "geometry": { "type": "MultiPolygon", "coordinates": [ [ [ [ 32.665199444315064, 15.169595149874437 ], [ 32.932527402839433, 14.428388245985289 ], [ 32.289494988107549, 13.77137561344721 ], [ 31.382761616986219, 13.849783724370941 ], [ 31.118378861945882, 14.586782781009683 ], [ 31.757193558787343, 15.249851053385514 ], [ 32.665199444315064, 15.169595149874437 ] ] ] ] } },
{ "type": "Feature", "properties": { "geogrid_id": "714803901036297323", "seqnum": 5995.0, "lat_c": 14.803901268787104, "lon_c": 36.29732279121535, "res": 7.0, "count_Gymnosperms": 0, "count_Birds": 34, "count_Insects": 3, "count_Arachnids": 1, "count_Mammals": 13, "count_Flowering Plants": 0, "count_Amphibians": 0, "count_Reptiles": 4, "count_Molluscs": 0, "count_Basidiomycota": 0, "unique_species_count": 55.0, "countryCode": "SD" }, "geometry": { "type": "MultiPolygon", "coordinates": [ [ [ [ 36.942932930927952, 15.447466047860679 ], [ 37.205760918587288, 14.701240954203859 ], [ 36.559144380528537, 14.059434923322687 ], [ 35.652434124305671, 14.158259284852374 ], [ 35.389115650576997, 14.902056476146569 ], [ 36.032636107880911, 15.549590785772534 ], [ 36.942932930927952, 15.447466047860679 ] ] ] ] } },
{ "type": "Feature", "properties": { "geogrid_id": "715060505023817311", "seqnum": 5639.0, "lat_c": 15.060505260734558, "lon_c": 23.817311004009568, "res": 7.0, "count_Gymnosperms": 0, "count_Birds": 0, "count_Insects": 0, "count_Arachnids": 0, "count_Mammals": 0, "count_Flowering Plants": 1, "count_Amphibians": 0, "count_Reptiles": 0, "count_Molluscs": 0, "count_Basidiomycota": 0, "unique_species_count": 1.0, "countryCode": "SD" }, "geometry": { "type": "MultiPolygon", "coordinates": [ [ [ [ 24.47143172000677, 15.737570984055102 ], [ 24.738231065365124, 15.013332854207375 ], [ 24.070841664776694, 14.344768235932303 ], [ 23.139598594174956, 14.395325875438751 ], [ 22.891402800086912, 15.105598816242681 ], [ 23.5534345016132, 15.781009663634574 ], [ 24.47143172000677, 15.737570984055102 ] ] ] ] } },
{ "type": "Feature", "properties": { "geogrid_id": "715084890033573130", "seqnum": 5913.0, "lat_c": 15.084889919512198, "lon_c": 33.573129517852557, "res": 7.0, "count_Gymnosperms": 0, "count_Birds": 25, "count_Insects": 21, "count_Arachnids": 0, "count_Mammals": 0, "count_Flowering Plants": 3, "count_Amphibians": 1, "count_Reptiles": 1, "count_Molluscs": 10, "count_Basidiomycota": 0, "unique_species_count": 61.0, "countryCode": "SD" }, "geometry": { "type": "MultiPolygon", "coordinates": [ [ [ [ 34.212798811099098, 15.740091191582932 ], [ 34.48107495932036, 14.995715458193001 ], [ 33.839221008627312, 14.342714629614482 ], [ 32.932527402839433, 14.428388245985289 ], [ 32.665199444315064, 15.169595149874437 ], [ 33.30315251575724, 15.828477766690854 ], [ 34.212798811099098, 15.740091191582932 ] ] ] ] } },
{ "type": "Feature", "properties": { "geogrid_id": "715527038028121964", "seqnum": 5749.0, "lat_c": 15.527037634396777, "lon_c": 28.121964433900015, "res": 7.0, "count_Gymnosperms": 0, "count_Birds": 0, "count_Insects": 0, "count_Arachnids": 0, "count_Mammals": 0, "count_Flowering Plants": 1, "count_Amphibians": 0, "count_Reptiles": 0, "count_Molluscs": 0, "count_Basidiomycota": 0, "unique_species_count": 1.0, "countryCode": "SD" }, "geometry": { "type": "MultiPolygon", "coordinates": [ [ [ [ 28.754894274397831, 16.202238960151561 ], [ 29.031559146224918, 15.464224788952707 ], [ 28.392769947971836, 14.792787576437274 ], [ 27.482124697846515, 14.853377119654592 ], [ 27.211496422697255, 15.585645219870598 ], [ 27.844559091551794, 16.263512571007762 ], [ 28.754894274397831, 16.202238960151561 ] ] ] ] } },
{ "type": "Feature", "properties": { "geogrid_id": "715647131035122608", "seqnum": 5941.0, "lat_c": 15.647130994123755, "lon_c": 35.122608291299478, "res": 7.0, "count_Gymnosperms": 0, "count_Birds": 0, "count_Insects": 1, "count_Arachnids": 0, "count_Mammals": 0, "count_Flowering Plants": 1, "count_Amphibians": 0, "count_Reptiles": 0, "count_Molluscs": 0, "count_Basidiomycota": 0, "unique_species_count": 2.0, "countryCode": "SD" }, "geometry": { "type": "MultiPolygon", "coordinates": [ [ [ [ 35.764986050020944, 16.296401918494105 ], [ 36.032636107880911, 15.549590785772534 ], [ 35.389115650576997, 14.902056476146569 ], [ 34.48107495932036, 14.995715458193001 ], [ 34.212798811099098, 15.740091191582932 ], [ 34.852812055536106, 16.393370567748942 ], [ 35.764986050020944, 16.296401918494105 ] ] ] ] } },
{ "type": "Feature", "properties": { "geogrid_id": "715690726025386676", "seqnum": 5667.0, "lat_c": 15.690726455080286, "lon_c": 25.386675799987358, "res": 7.0, "count_Gymnosperms": 0, "count_Birds": 0, "count_Insects": 0, "count_Arachnids": 0, "count_Mammals": 0, "count_Flowering Plants": 1, "count_Amphibians": 0, "count_Reptiles": 0, "count_Molluscs": 0, "count_Basidiomycota": 0, "unique_species_count": 1.0, "countryCode": "SD" }, "geometry": { "type": "MultiPolygon", "coordinates": [ [ [ [ 26.022004712377836, 16.372924603592345 ], [ 26.299861050169937, 15.640157191891335 ], [ 25.655439987305265, 14.963375726588858 ], [ 24.738231065365124, 15.013332854207375 ], [ 24.47143172000677, 15.737570984055102 ], [ 25.109291105620979, 16.421229069113132 ], [ 26.022004712377836, 16.372924603592345 ] ] ] ] } },
{ "type": "Feature", "properties": { "geogrid_id": "715912299032393608", "seqnum": 5859.0, "lat_c": 15.912299462393863, "lon_c": 32.393608283535421, "res": 7.0, "count_Gymnosperms": 0, "count_Birds": 160, "count_Insects": 75, "count_Arachnids": 5, "count_Mammals": 6, "count_Flowering Plants": 20, "count_Amphibians": 2, "count_Reptiles": 10, "count_Molluscs": 1, "count_Basidiomycota": 0, "unique_species_count": 279.0, "countryCode": "SD" }, "geometry": { "type": "MultiPolygon", "coordinates": [ [ [ [ 33.029186913795584, 16.573340200945324 ], [ 33.30315251575724, 15.828477766690854 ], [ 32.665199444315064, 15.169595149874437 ], [ 31.757193558787343, 15.249851053385514 ], [ 31.484097100427675, 15.991568029071601 ], [ 32.117649486238363, 16.656347732600008 ], [ 33.029186913795584, 16.573340200945324 ] ] ] ] } },
{ "type": "Feature", "properties": { "geogrid_id": "716136514029664842", "seqnum": 5777.0, "lat_c": 16.136513527460412, "lon_c": 29.664842424874596, "res": 7.0, "count_Gymnosperms": 0, "count_Birds": 6, "count_Insects": 1, "count_Arachnids": 2, "count_Mammals": 0, "count_Flowering Plants": 0, "count_Amphibians": 1, "count_Reptiles": 11, "count_Molluscs": 2, "count_Basidiomycota": 0, "unique_species_count": 23.0, "countryCode": "SD" }, "geometry": { "type": "MultiPolygon", "coordinates": [ [ [ [ 30.294873030825162, 16.808438082270008 ], [ 30.574539542236256, 16.066299118437879 ], [ 29.940511388984074, 15.397126577954738 ], [ 29.031559146224918, 15.464224788952707 ], [ 28.754894274397831, 16.202238960151561 ], [ 29.383511263583955, 16.877540487373068 ], [ 30.294873030825162, 16.808438082270008 ] ] ] ] } },
{ "type": "Feature", "properties": { "geogrid_id": "716194775036677453", "seqnum": 5968.0, "lat_c": 16.194775189501183, "lon_c": 36.677453395374236, "res": 7.0, "count_Gymnosperms": 0, "count_Birds": 0, "count_Insects": 0, "count_Arachnids": 0, "count_Mammals": 1, "count_Flowering Plants": 1, "count_Amphibians": 0, "count_Reptiles": 0, "count_Molluscs": 0, "count_Basidiomycota": 0, "unique_species_count": 2.0, "countryCode": "SD" }, "geometry": { "type": "MultiPolygon", "coordinates": [ [ [ [ 37.324506251568437, 16.837192878075587 ], [ 37.590250901335011, 16.088490010558409 ], [ 36.942932930927952, 15.447466047860679 ], [ 36.032636107880911, 15.549590785772534 ], [ 35.764986050020944, 16.296401918494105 ], [ 36.409222694706635, 16.943074878115493 ], [ 37.324506251568437, 16.837192878075587 ] ] ] ] } },
{ "type": "Feature", "properties": { "geogrid_id": "716485682033940893", "seqnum": 5886.0, "lat_c": 16.48568248306432, "lon_c": 33.940892773930827, "res": 7.0, "count_Gymnosperms": 0, "count_Birds": 25, "count_Insects": 6, "count_Arachnids": 1, "count_Mammals": 0, "count_Flowering Plants": 5, "count_Amphibians": 0, "count_Reptiles": 1, "count_Molluscs": 0, "count_Basidiomycota": 0, "unique_species_count": 38.0, "countryCode": "SD" }, "geometry": { "type": "MultiPolygon", "coordinates": [ [ [ [ 34.579623538386322, 17.140660917616387 ], [ 34.852812055536106, 16.393370567748942 ], [ 34.212798811099098, 15.740091191582932 ], [ 33.30315251575724, 15.828477766690854 ], [ 33.029186913795584, 16.573340200945324 ], [ 33.665251735726493, 17.232362670918135 ], [ 34.579623538386322, 17.140660917616387 ] ] ] ] } },
{ "type": "Feature", "properties": { "geogrid_id": "716734711031206230", "seqnum": 5804.0, "lat_c": 16.73471094517058, "lon_c": 31.206230463796601, "res": 7.0, "count_Gymnosperms": 0, "count_Birds": 0, "count_Insects": 0, "count_Arachnids": 0, "count_Mammals": 0, "count_Flowering Plants": 1, "count_Amphibians": 0, "count_Reptiles": 0, "count_Molluscs": 0, "count_Basidiomycota": 0, "unique_species_count": 1.0, "countryCode": "SD" }, "geometry": { "type": "MultiPolygon", "coordinates": [ [ [ [ 31.8372150464063, 17.40158336581981 ], [ 32.117649486238363, 16.656347732600008 ], [ 31.484097100427675, 15.991568029071601 ], [ 30.574539542236256, 16.066299118437879 ], [ 30.294873030825162, 16.808438082270008 ], [ 30.923484526894505, 17.47910501264948 ], [ 31.8372150464063, 17.40158336581981 ] ] ] ] } },
{ "type": "Feature", "properties": { "geogrid_id": "717044231035494271", "seqnum": 5914.0, "lat_c": 17.044231377057198, "lon_c": 35.494271052984622, "res": 7.0, "count_Gymnosperms": 0, "count_Birds": 0, "count_Insects": 3, "count_Arachnids": 0, "count_Mammals": 0, "count_Flowering Plants": 0, "count_Amphibians": 0, "count_Reptiles": 0, "count_Molluscs": 0, "count_Basidiomycota": 0, "unique_species_count": 3.0, "countryCode": "SD" }, "geometry": { "type": "MultiPolygon", "coordinates": [ [ [ [ 36.138137944517943, 17.692270129834622 ], [ 36.409222694706635, 16.943074878115493 ], [ 35.764986050020944, 16.296401918494105 ], [ 34.852812055536106, 16.393370567748942 ], [ 34.579623538386322, 17.140660917616387 ], [ 35.220386132048638, 17.792974156897657 ], [ 36.138137944517943, 17.692270129834622 ] ] ] ] } },
{ "type": "Feature", "properties": { "geogrid_id": "717108110025736171", "seqnum": 5640.0, "lat_c": 17.108110396592725, "lon_c": 25.736170835969759, "res": 7.0, "count_Gymnosperms": 0, "count_Birds": 0, "count_Insects": 0, "count_Arachnids": 0, "count_Mammals": 0, "count_Flowering Plants": 1, "count_Amphibians": 0, "count_Reptiles": 0, "count_Molluscs": 0, "count_Basidiomycota": 0, "unique_species_count": 1.0, "countryCode": "SD" }, "geometry": { "type": "MultiPolygon", "coordinates": [ [ [ [ 26.35597290012273, 17.79602319874477 ], [ 26.648529639242071, 17.057284183915367 ], [ 26.022004712377836, 16.372924603592345 ], [ 25.109291105620979, 16.421229069113132 ], [ 24.823176845120688, 17.154473356391925 ], [ 25.442250990615328, 17.845347148960474 ], [ 26.35597290012273, 17.79602319874477 ] ] ] ] } },
{ "type": "Feature", "properties": { "geogrid_id": "717888886034302936", "seqnum": 5860.0, "lat_c": 17.888885783679257, "lon_c": 34.302935788751164, "res": 7.0, "count_Gymnosperms": 0, "count_Birds": 7, "count_Insects": 19, "count_Arachnids": 0, "count_Mammals": 0, "count_Flowering Plants": 9, "count_Amphibians": 1, "count_Reptiles": 0, "count_Molluscs": 0, "count_Basidiomycota": 0, "unique_species_count": 36.0, "countryCode": "SD" }, "geometry": { "type": "MultiPolygon", "coordinates": [ [ [ [ 34.943222740344417, 18.542523558369819 ], [ 35.220386132048638, 17.792974156897657 ], [ 34.579623538386322, 17.140660917616387 ], [ 33.665251735726493, 17.232362670918135 ], [ 33.385766946261136, 17.980002805064888 ], [ 34.022638171580091, 18.637926953558669 ], [ 34.943222740344417, 18.542523558369819 ] ] ] ] } },
{ "type": "Feature", "properties": { "geogrid_id": "718072607038643007", "seqnum": 6625.0, "lat_c": 18.072606846010675, "lon_c": 38.643007003543538, "res": 7.0, "count_Gymnosperms": 0, "count_Birds": 0, "count_Insects": 4, "count_Arachnids": 0, "count_Mammals": 1, "count_Flowering Plants": 0, "count_Amphibians": 0, "count_Reptiles": 1, "count_Molluscs": 9, "count_Basidiomycota": 0, "unique_species_count": 15.0, "countryCode": "SD" }, "geometry": { "type": "MultiPolygon", "coordinates": [ [ [ [ 38.375632013324534, 18.823989739311809 ], [ 39.308208821392078, 18.685069356317573 ], [ 39.572771283373655, 17.934217638207119 ], [ 38.908068257619838, 17.322447028400127 ], [ 37.981843734240826, 17.456634673707857 ], [ 37.713951097818544, 18.207122740786737 ], [ 38.375632013324534, 18.823989739311809 ] ] ] ] } },
{ "type": "Feature", "properties": { "geogrid_id": "718147847031552193", "seqnum": 5778.0, "lat_c": 18.147846695706079, "lon_c": 31.552193280046154, "res": 7.0, "count_Gymnosperms": 0, "count_Birds": 129, "count_Insects": 24, "count_Arachnids": 1, "count_Mammals": 6, "count_Flowering Plants": 16, "count_Amphibians": 0, "count_Reptiles": 5, "count_Molluscs": 0, "count_Basidiomycota": 0, "unique_species_count": 181.0, "countryCode": "SD" }, "geometry": { "type": "MultiPolygon", "coordinates": [ [ [ [ 32.182273387198407, 18.814155133204167 ], [ 32.468859596508679, 18.066323499129794 ], [ 31.8372150464063, 17.40158336581981 ], [ 30.923484526894505, 17.47910501264948 ], [ 30.635746571151618, 18.224571864803785 ], [ 31.26246871691157, 18.894975059692555 ], [ 32.182273387198407, 18.814155133204167 ] ] ] ] } },
{ "type": "Feature", "properties": { "geogrid_id": "718542471040241626", "seqnum": 6679.0, "lat_c": 18.542471202712765, "lon_c": 40.241625818352894, "res": 7.0, "count_Gymnosperms": 0, "count_Birds": 2, "count_Insects": 0, "count_Arachnids": 0, "count_Mammals": 0, "count_Flowering Plants": 0, "count_Amphibians": 0, "count_Reptiles": 0, "count_Molluscs": 0, "count_Basidiomycota": 0, "unique_species_count": 2.0, "countryCode": "SD" }, "geometry": { "type": "MultiPolygon", "coordinates": [ [ [ [ 39.977664313470456, 19.293981125732316 ], [ 40.914852663689054, 19.147174399224241 ], [ 41.17632310972671, 18.397009409500413 ], [ 40.503641671364242, 17.792693513570438 ], [ 39.572771283373655, 17.934217638207119 ], [ 39.308208821392078, 18.685069356317573 ], [ 39.977664313470456, 19.293981125732316 ] ] ] ] } },
{ "type": "Feature", "properties": { "geogrid_id": "718728472033102326", "seqnum": 5805.0, "lat_c": 18.728471686931083, "lon_c": 33.102325886122358, "res": 7.0, "count_Gymnosperms": 0, "count_Birds": 26, "count_Insects": 5, "count_Arachnids": 1, "count_Mammals": 0, "count_Flowering Plants": 6, "count_Amphibians": 0, "count_Reptiles": 0, "count_Molluscs": 1, "count_Basidiomycota": 0, "unique_species_count": 39.0, "countryCode": "SD" }, "geometry": { "type": "MultiPolygon", "coordinates": [ [ [ [ 33.738616224385851, 19.387664291268038 ], [ 34.022638171580091, 18.637926953558669 ], [ 33.385766946261136, 17.980002805064888 ], [ 32.468859596508679, 18.066323499129794 ], [ 32.182273387198407, 18.814155133204167 ], [ 32.81481213087833, 19.47763591034116 ], [ 33.738616224385851, 19.387664291268038 ] ] ] ] } },
{ "type": "Feature", "properties": { "geogrid_id": "718958563037443520", "seqnum": 6598.0, "lat_c": 18.95856323777231, "lon_c": 37.443519996672848, "res": 7.0, "count_Gymnosperms": 0, "count_Birds": 7, "count_Insects": 2, "count_Arachnids": 1, "count_Mammals": 1, "count_Flowering Plants": 2, "count_Amphibians": 0, "count_Reptiles": 2, "count_Molluscs": 16, "count_Basidiomycota": 0, "unique_species_count": 31.0, "countryCode": "SD" }, "geometry": { "type": "MultiPolygon", "coordinates": [ [ [ [ 37.170445454355153, 19.710860666947006 ], [ 38.105844573761914, 19.576493800846087 ], [ 38.375632013324534, 18.823989739311809 ], [ 37.713951097818544, 18.207122740786737 ], [ 36.785262700921869, 18.337153077996138 ], [ 36.51155257427839, 19.088234540443988 ], [ 37.170445454355153, 19.710860666947006 ] ] ] ] } },
{ "type": "Feature", "properties": { "geogrid_id": "718970930030342900", "seqnum": 5723.0, "lat_c": 18.970929659656889, "lon_c": 30.342900190733317, "res": 7.0, "count_Gymnosperms": 0, "count_Birds": 18, "count_Insects": 8, "count_Arachnids": 1, "count_Mammals": 4, "count_Flowering Plants": 4, "count_Amphibians": 0, "count_Reptiles": 1, "count_Molluscs": 0, "count_Basidiomycota": 0, "unique_species_count": 36.0, "countryCode": "SD" }, "geometry": { "type": "MultiPolygon", "coordinates": [ [ [ [ 30.967921990267261, 19.642802877604289 ], [ 31.26246871691157, 18.894975059692555 ], [ 30.635746571151618, 18.224571864803785 ], [ 29.719496420989923, 18.296499233793078 ], [ 29.423556070398451, 19.042017593212158 ], [ 30.044825201847321, 19.717993187288744 ], [ 30.967921990267261, 19.642802877604289 ] ] ] ] } },
{ "type": "Feature", "properties": { "geogrid_id": "719437332039041467", "seqnum": 6653.0, "lat_c": 19.437332499964953, "lon_c": 39.041466697133018, "res": 7.0, "count_Gymnosperms": 0, "count_Birds": 0, "count_Insects": 0, "count_Arachnids": 0, "count_Mammals": 4, "count_Flowering Plants": 0, "count_Amphibians": 0, "count_Reptiles": 0, "count_Molluscs": 3, "count_Basidiomycota": 0, "unique_species_count": 7.0, "countryCode": "SD" }, "geometry": { "type": "MultiPolygon", "coordinates": [ [ [ [ 38.772449851476559, 20.190896404720998 ], [ 39.711669523475692, 20.047104385653334 ], [ 39.977664313470456, 19.293981125732316 ], [ 39.308208821392078, 18.685069356317573 ], [ 38.375632013324534, 18.823989739311809 ], [ 38.105844573761914, 19.576493800846087 ], [ 38.772449851476559, 20.190896404720998 ] ] ] ] } },
{ "type": "Feature", "properties": { "geogrid_id": "719562683031891249", "seqnum": 5751.0, "lat_c": 19.562683006890161, "lon_c": 31.891249343621855, "res": 7.0, "count_Gymnosperms": 0, "count_Birds": 1, "count_Insects": 0, "count_Arachnids": 0, "count_Mammals": 1, "count_Flowering Plants": 0, "count_Amphibians": 0, "count_Reptiles": 0, "count_Molluscs": 0, "count_Basidiomycota": 0, "unique_species_count": 2.0, "countryCode": "SD" }, "geometry": { "type": "MultiPolygon", "coordinates": [ [ [ [ 32.523105210342372, 20.227359903238813 ], [ 32.81481213087833, 19.47763591034116 ], [ 32.182273387198407, 18.814155133204167 ], [ 31.26246871691157, 18.894975059692555 ], [ 30.967921990267261, 19.642802877604289 ], [ 31.595665321017265, 20.311756196844229 ], [ 32.523105210342372, 20.227359903238813 ] ] ] ] } },
{ "type": "Feature", "properties": { "geogrid_id": "719839931036234970", "seqnum": 6572.0, "lat_c": 19.839930896776966, "lon_c": 36.234970251799666, "res": 7.0, "count_Gymnosperms": 0, "count_Birds": 5, "count_Insects": 3, "count_Arachnids": 1, "count_Mammals": 2, "count_Flowering Plants": 7, "count_Amphibians": 0, "count_Reptiles": 1, "count_Molluscs": 0, "count_Basidiomycota": 0, "unique_species_count": 19.0, "countryCode": "SD" }, "geometry": { "type": "MultiPolygon", "coordinates": [ [ [ [ 35.955401155655395, 20.592151072550113 ], [ 36.894618994778185, 20.463918221265462 ], [ 37.170445454355153, 19.710860666947006 ], [ 36.51155257427839, 19.088234540443988 ], [ 35.586977548531962, 19.192960050676188 ], [ 35.306678463220479, 19.944257453463777 ], [ 35.955401155655395, 20.592151072550113 ] ] ] ] } },
{ "type": "Feature", "properties": { "geogrid_id": "720330016037833543", "seqnum": 6626.0, "lat_c": 20.330015712447413, "lon_c": 37.833542698810732, "res": 7.0, "count_Gymnosperms": 0, "count_Birds": 0, "count_Insects": 2, "count_Arachnids": 0, "count_Mammals": 1, "count_Flowering Plants": 0, "count_Amphibians": 0, "count_Reptiles": 0, "count_Molluscs": 2, "count_Basidiomycota": 0, "unique_species_count": 5.0, "countryCode": "SD" }, "geometry": { "type": "MultiPolygon", "coordinates": [ [ [ [ 37.558620977000032, 21.084450774006257 ], [ 38.501060047305138, 20.945648883070824 ], [ 38.772449851476559, 20.190896404720998 ], [ 38.105844573761914, 19.576493800846087 ], [ 37.170445454355153, 19.710860666947006 ], [ 36.894618994778185, 20.463918221265462 ], [ 37.558620977000032, 21.084450774006257 ] ] ] ] } },
{ "type": "Feature", "properties": { "geogrid_id": "720391162030668430", "seqnum": 5697.0, "lat_c": 20.391161733160754, "lon_c": 30.66842972481858, "res": 7.0, "count_Gymnosperms": 0, "count_Birds": 9, "count_Insects": 2, "count_Arachnids": 0, "count_Mammals": 0, "count_Flowering Plants": 4, "count_Amphibians": 0, "count_Reptiles": 2, "count_Molluscs": 0, "count_Basidiomycota": 0, "unique_species_count": 17.0, "countryCode": "SD" }, "geometry": { "type": "MultiPolygon", "coordinates": [ [ [ [ 31.295394981330155, 21.061221363222383 ], [ 31.595665321017265, 20.311756196844229 ], [ 30.967921990267261, 19.642802877604289 ], [ 30.044825201847321, 19.717993187288744 ], [ 29.741397552327616, 20.465573981776529 ], [ 30.363864422954912, 21.13988045809198 ], [ 31.295394981330155, 21.061221363222383 ] ] ] ] } },
{ "type": "Feature", "properties": { "geogrid_id": "720977506032227080", "seqnum": 5724.0, "lat_c": 20.977505970029888, "lon_c": 32.227080462817668, "res": 7.0, "count_Gymnosperms": 0, "count_Birds": 1, "count_Insects": 1, "count_Arachnids": 0, "count_Mammals": 0, "count_Flowering Plants": 0, "count_Amphibians": 0, "count_Reptiles": 0, "count_Molluscs": 0, "count_Basidiomycota": 0, "unique_species_count": 2.0, "countryCode": "SD" }, "geometry": { "type": "MultiPolygon", "coordinates": [ [ [ [ 32.862999184719321, 21.639823705862678 ], [ 33.158921450021573, 20.888737482039442 ], [ 32.523105210342372, 20.227359903238813 ], [ 31.595665321017265, 20.311756196844229 ], [ 31.295394981330155, 21.061221363222383 ], [ 31.926608884213184, 21.727934334327717 ], [ 32.862999184719321, 21.639823705862678 ] ] ] ] } },
{ "type": "Feature", "properties": { "geogrid_id": "721213480029432489", "seqnum": 5642.0, "lat_c": 21.213480437407156, "lon_c": 29.432489231805455, "res": 7.0, "count_Gymnosperms": 0, "count_Birds": 0, "count_Insects": 1, "count_Arachnids": 0, "count_Mammals": 0, "count_Flowering Plants": 0, "count_Amphibians": 0, "count_Reptiles": 0, "count_Molluscs": 0, "count_Basidiomycota": 0, "unique_species_count": 1.0, "countryCode": "SD" }, "geometry": { "type": "MultiPolygon", "coordinates": [ [ [ [ 30.054094349484487, 21.888785218571805 ], [ 30.363864422954912, 21.13988045809198 ], [ 29.741397552327616, 20.465573981776529 ], [ 28.814569105128712, 20.534990808290296 ], [ 28.501270742976807, 21.282018876806944 ], [ 29.11796818281654, 21.961517928799761 ], [ 30.054094349484487, 21.888785218571805 ] ] ] ] } },
{ "type": "Feature", "properties": { "geogrid_id": "721217638036615928", "seqnum": 6599.0, "lat_c": 21.217637800888554, "lon_c": 36.615928477058709, "res": 7.0, "count_Gymnosperms": 0, "count_Birds": 2, "count_Insects": 1, "count_Arachnids": 0, "count_Mammals": 1, "count_Flowering Plants": 0, "count_Amphibians": 0, "count_Reptiles": 2, "count_Molluscs": 0, "count_Basidiomycota": 0, "unique_species_count": 6.0, "countryCode": "SD" }, "geometry": { "type": "MultiPolygon", "coordinates": [ [ [ [ 36.334257921838578, 21.971920029207443 ], [ 37.280970410854287, 21.839692932307219 ], [ 37.558620977000032, 21.084450774006257 ], [ 36.894618994778185, 20.463918221265462 ], [ 35.955401155655395, 20.592151072550113 ], [ 35.672726812693554, 21.344802748781991 ], [ 36.334257921838578, 21.971920029207443 ] ] ] ] } },
{ "type": "Feature", "properties": { "geogrid_id": "721546595033799480", "seqnum": 5752.0, "lat_c": 21.546595151045281, "lon_c": 33.7994803464765, "res": 7.0, "count_Gymnosperms": 0, "count_Birds": 0, "count_Insects": 0, "count_Arachnids": 0, "count_Mammals": 0, "count_Flowering Plants": 0, "count_Amphibians": 0, "count_Reptiles": 0, "count_Molluscs": 1, "count_Basidiomycota": 0, "unique_species_count": 1.0, "countryCode": "SD" }, "geometry": { "type": "MultiPolygon", "coordinates": [ [ [ [ 34.445483320395539, 22.200745735558343 ], [ 34.73605500197349, 21.448253212232746 ], [ 34.090919673815257, 20.794919479994004 ], [ 33.158921450021573, 20.888737482039442 ], [ 32.862999184719321, 21.639823705862678 ], [ 33.504160942401221, 22.298519195842456 ], [ 34.445483320395539, 22.200745735558343 ] ] ] ] } },
{ "type": "Feature", "properties": { "geogrid_id": "721701476038227196", "seqnum": 6654.0, "lat_c": 21.701476267626973, "lon_c": 38.227195723317301, "res": 7.0, "count_Gymnosperms": 0, "count_Birds": 0, "count_Insects": 0, "count_Arachnids": 0, "count_Mammals": 2, "count_Flowering Plants": 0, "count_Amphibians": 0, "count_Reptiles": 0, "count_Molluscs": 0, "count_Basidiomycota": 0, "unique_species_count": 2.0, "countryCode": "SD" }, "geometry": { "type": "MultiPolygon", "coordinates": [ [ [ [ 37.950751840028133, 22.458263454956374 ], [ 38.900564473708911, 22.314939614855813 ], [ 39.173214809209462, 21.55770673432141 ], [ 38.501060047305138, 20.945648883070824 ], [ 37.558620977000032, 21.084450774006257 ], [ 37.280970410854287, 21.839692932307219 ], [ 37.950751840028133, 22.458263454956374 ] ] ] ] } },
{ "type": "Feature", "properties": { "geogrid_id": "721810923030990308", "seqnum": 5670.0, "lat_c": 21.810922811068483, "lon_c": 30.99030765762673, "res": 7.0, "count_Gymnosperms": 2, "count_Birds": 14, "count_Insects": 6, "count_Arachnids": 0, "count_Mammals": 1, "count_Flowering Plants": 3, "count_Amphibians": 0, "count_Reptiles": 1, "count_Molluscs": 0, "count_Basidiomycota": 0, "unique_species_count": 27.0, "countryCode": "SD" }, "geometry": { "type": "MultiPolygon", "coordinates": [ [ [ [ 31.621556971931792, 22.478503181870774 ], [ 31.926608884213184, 21.727934334327717 ], [ 31.295394981330155, 21.061221363222383 ], [ 30.363864422954912, 21.13988045809198 ], [ 30.054094349484487, 21.888785218571805 ], [ 30.680268215036591, 22.560702552629952 ], [ 31.621556971931792, 22.478503181870774 ] ] ] ] } },
{ "type": "Feature", "properties": { "geogrid_id": "722029118028181928", "seqnum": 5588.0, "lat_c": 22.029117571986159, "lon_c": 28.181928451286804, "res": 7.0, "count_Gymnosperms": 0, "count_Birds": 1, "count_Insects": 0, "count_Arachnids": 0, "count_Mammals": 0, "count_Flowering Plants": 0, "count_Amphibians": 0, "count_Reptiles": 0, "count_Molluscs": 0, "count_Basidiomycota": 0, "unique_species_count": 1.0, "countryCode": "SD" }, "geometry": { "type": "MultiPolygon", "coordinates": [ [ [ [ 28.797698213236348, 22.709488934556717 ], [ 29.11796818281654, 21.961517928799761 ], [ 28.501270742976807, 21.282018876806944 ], [ 27.570211027162209, 21.34549374811602 ], [ 27.245974136016162, 22.091580987268756 ], [ 27.856407010644599, 22.776065020480253 ], [ 28.797698213236348, 22.709488934556717 ] ] ] ] } },
{ "type": "Feature", "properties": { "geogrid_id": "722097792035386825", "seqnum": 6573.0, "lat_c": 22.097792366490726, "lon_c": 35.38682466899526, "res": 7.0, "count_Gymnosperms": 0, "count_Birds": 0, "count_Insects": 6, "count_Arachnids": 0, "count_Mammals": 0, "count_Flowering Plants": 8, "count_Amphibians": 0, "count_Reptiles": 1, "count_Molluscs": 0, "count_Basidiomycota": 1, "unique_species_count": 16.0, "countryCode": "SD" }, "geometry": { "type": "MultiPolygon", "coordinates": [ [ [ [ 35.097567894970013, 22.851025130063331 ], [ 36.049487328598531, 22.726664268196391 ], [ 36.334257921838578, 21.971920029207443 ], [ 35.672726812693554, 21.344802748781991 ], [ 34.73605500197349, 21.448253212232746 ], [ 34.445483320395539, 22.200745735558343 ], [ 35.097567894970013, 22.851025130063331 ] ] ] ] } },
{ "type": "Feature", "properties": { "geogrid_id": "722201087025374313", "seqnum": 5506.0, "lat_c": 22.201087041726527, "lon_c": 25.374313031914529, "res": 7.0, "count_Gymnosperms": 0, "count_Birds": 4, "count_Insects": 9, "count_Arachnids": 2, "count_Mammals": 1, "count_Flowering Plants": 0, "count_Amphibians": 0, "count_Reptiles": 2, "count_Molluscs": 0, "count_Basidiomycota": 2, "unique_species_count": 20.0, "countryCode": "SD" }, "geometry": { "type": "MultiPolygon", "coordinates": [ [ [ [ 25.973773344418316, 22.893553537441168 ], [ 26.310103416722548, 22.148905146973064 ], [ 25.708578737532125, 21.457246641850254 ], [ 24.778012119463508, 21.505522544976358 ], [ 24.438597419249593, 22.248123505807122 ], [ 25.032405602835031, 22.944452166145432 ], [ 25.973773344418316, 22.893553537441168 ] ] ] ] } },
{ "type": "Feature", "properties": { "geogrid_id": "722595635037000478", "seqnum": 6627.0, "lat_c": 22.595634809776641, "lon_c": 37.000478247856705, "res": 7.0, "count_Gymnosperms": 0, "count_Birds": 4, "count_Insects": 1, "count_Arachnids": 0, "count_Mammals": 7, "count_Flowering Plants": 3, "count_Amphibians": 0, "count_Reptiles": 0, "count_Molluscs": 0, "count_Basidiomycota": 0, "unique_species_count": 15.0, "countryCode": "SD" }, "geometry": { "type": "MultiPolygon", "coordinates": [ [ [ [ 36.717027802464862, 23.352167732967981 ], [ 37.671619717499162, 23.215893949841757 ], [ 37.950751840028133, 22.458263454956374 ], [ 37.280970410854287, 21.839692932307219 ], [ 36.334257921838578, 21.971920029207443 ], [ 36.049487328598531, 22.726664268196391 ], [ 36.717027802464862, 23.352167732967981 ] ] ] ] } },
{ "type": "Feature", "properties": { "geogrid_id": "723481769035761492", "seqnum": 6600.0, "lat_c": 23.481768632923352, "lon_c": 35.761492483451235, "res": 7.0, "count_Gymnosperms": 0, "count_Birds": 0, "count_Insects": 0, "count_Arachnids": 0, "count_Mammals": 5, "count_Flowering Plants": 0, "count_Amphibians": 0, "count_Reptiles": 0, "count_Molluscs": 0, "count_Basidiomycota": 0, "unique_species_count": 5.0, "countryCode": "SD" }, "geometry": { "type": "MultiPolygon", "coordinates": [ [ [ [ 35.470144756869935, 24.237130005037393 ], [ 36.430498268659569, 24.109181760602642 ], [ 36.717027802464862, 23.352167732967981 ], [ 36.049487328598531, 22.726664268196391 ], [ 35.097567894970013, 22.851025130063331 ], [ 34.804825180462394, 23.604405009284918 ], [ 35.470144756869935, 24.237130005037393 ] ] ] ] } }
]
}
