{
"type": "FeatureCollection",
"name": "SE",
"crs": { "type": "name", "properties": { "name": "urn:ogc:def:crs:OGC:1.3:CRS84" } },
"features": [
{ "type": "Feature", "properties": { "geogrid_id": "-858282526011250000", "seqnum": 1.0, "lat_c": 58.28252558954501, "lon_c": 11.250000000628775, "res": 8.0, "count_Insects": 6230, "count_Flowering Plants": 2005, "count_Birds": 396, "count_Mosses": 422, "count_Basidiomycota": 1482, "count_Sac Fungi": 1089, "count_Ferns": 29, "count_Gymnosperms": 28, "count_Mammals": 60, "count_Molluscs": 422, "count_Arachnids": 278, "count_Amphibians": 8, "count_Reptiles": 6, "unique_species_count": 12455.0, "countryCode": "SE" }, "geometry": { "type": "MultiPolygon", "coordinates": [ [ [ [ 10.388558043108345, 58.131845113064159 ], [ 10.709447451895068, 58.668272570776097 ], [ 11.790552548104932, 58.668272570776097 ], [ 12.111441952644467, 58.131845112363834 ], [ 11.25, 57.804319996622866 ], [ 10.388558043108345, 58.131845113064159 ] ] ] ] } },
{ "type": "Feature", "properties": { "geogrid_id": "855015923013562669", "seqnum": 13528.0, "lat_c": 55.015923207974758, "lon_c": 13.562669474539494, "res": 8.0, "count_Insects": 3541, "count_Flowering Plants": 1336, "count_Birds": 356, "count_Mosses": 57, "count_Basidiomycota": 259, "count_Sac Fungi": 165, "count_Ferns": 10, "count_Gymnosperms": 18, "count_Mammals": 42, "count_Molluscs": 88, "count_Arachnids": 153, "count_Amphibians": 12, "count_Reptiles": 5, "unique_species_count": 6042.0, "countryCode": "SE" }, "geometry": { "type": "MultiPolygon", "coordinates": [ [ [ [ 14.355872257174168, 55.338796148707431 ], [ 14.323084781486122, 54.864418399989276 ], [ 13.538587993322267, 54.54197960989589 ], [ 12.780594249650443, 54.685639182044369 ], [ 12.796784479041357, 55.159723308731188 ], [ 13.587478272076172, 55.490455407050753 ], [ 14.355872257174168, 55.338796148707431 ] ] ] ] } },
{ "type": "Feature", "properties": { "geogrid_id": "855179706015118342", "seqnum": 19761.0, "lat_c": 55.179705638877458, "lon_c": 15.118342064797297, "res": 8.0, "count_Insects": 0, "count_Flowering Plants": 0, "count_Birds": 2, "count_Mosses": 0, "count_Basidiomycota": 0, "count_Sac Fungi": 0, "count_Ferns": 0, "count_Gymnosperms": 0, "count_Mammals": 0, "count_Molluscs": 4, "count_Arachnids": 0, "count_Amphibians": 0, "count_Reptiles": 0, "unique_species_count": 6.0, "countryCode": "SE" }, "geometry": { "type": "MultiPolygon", "coordinates": [ [ [ [ 15.176231328853133, 55.641247557797314 ], [ 15.954769006416889, 55.463892018396443 ], [ 15.887833156468533, 55.002193131583049 ], [ 15.077728810163023, 54.705489332433878 ], [ 14.323084781486122, 54.864418399989276 ], [ 14.355872257174168, 55.338796148707431 ], [ 15.176231328853133, 55.641247557797314 ] ] ] ] } },
{ "type": "Feature", "properties": { "geogrid_id": "855281786016725226", "seqnum": 19842.0, "lat_c": 55.281786351746369, "lon_c": 16.72522593741995, "res": 8.0, "count_Insects": 0, "count_Flowering Plants": 2, "count_Birds": 1, "count_Mosses": 0, "count_Basidiomycota": 0, "count_Sac Fungi": 0, "count_Ferns": 0, "count_Gymnosperms": 0, "count_Mammals": 1, "count_Molluscs": 0, "count_Arachnids": 0, "count_Amphibians": 0, "count_Reptiles": 0, "unique_species_count": 4.0, "countryCode": "SE" }, "geometry": { "type": "MultiPolygon", "coordinates": [ [ [ [ 16.807226249943866, 55.742332145395864 ], [ 17.578454973740119, 55.555552159763671 ], [ 17.487566730507332, 55.095023177220526 ], [ 16.649450049831838, 54.819990344474249 ], [ 15.887833156468533, 55.002193131583049 ], [ 15.954769006416889, 55.463892018396443 ], [ 16.807226249943866, 55.742332145395864 ] ] ] ] } },
{ "type": "Feature", "properties": { "geogrid_id": "855634406012813466", "seqnum": 13447.0, "lat_c": 55.634406411285902, "lon_c": 12.813465957558169, "res": 8.0, "count_Insects": 12230, "count_Flowering Plants": 2957, "count_Birds": 497, "count_Mosses": 367, "count_Basidiomycota": 1946, "count_Sac Fungi": 1699, "count_Ferns": 31, "count_Gymnosperms": 59, "count_Mammals": 64, "count_Molluscs": 201, "count_Arachnids": 632, "count_Amphibians": 13, "count_Reptiles": 10, "unique_species_count": 20706.0, "countryCode": "SE" }, "geometry": { "type": "MultiPolygon", "coordinates": [ [ [ [ 13.613046421266542, 55.965586622309168 ], [ 13.587478272076172, 55.490455407050753 ], [ 12.796784479041357, 55.159723308731188 ], [ 12.02576861767635, 55.295529957738893 ], [ 12.034178810515142, 55.770364322794158 ], [ 12.83066041693856, 56.109698971141313 ], [ 13.613046421266542, 55.965586622309168 ] ] ] ] } },
{ "type": "Feature", "properties": { "geogrid_id": "855813760014389658", "seqnum": 19762.0, "lat_c": 55.813759871988573, "lon_c": 14.389658224843357, "res": 8.0, "count_Insects": 10909, "count_Flowering Plants": 2517, "count_Birds": 431, "count_Mosses": 380, "count_Basidiomycota": 2165, "count_Sac Fungi": 1398, "count_Ferns": 27, "count_Gymnosperms": 68, "count_Mammals": 58, "count_Molluscs": 158, "count_Arachnids": 571, "count_Amphibians": 14, "count_Reptiles": 9, "unique_species_count": 18705.0, "countryCode": "SE" }, "geometry": { "type": "MultiPolygon", "coordinates": [ [ [ [ 14.443701557066593, 56.273988578420251 ], [ 15.239806677814826, 56.101645812611991 ], [ 15.176231328853133, 55.641247557797314 ], [ 14.355872257174168, 55.338796148707431 ], [ 13.587478272076172, 55.490455407050753 ], [ 13.613046421266542, 55.965586622309168 ], [ 14.443701557066593, 56.273988578420251 ] ] ] ] } },
{ "type": "Feature", "properties": { "geogrid_id": "855924395016027664", "seqnum": 19843.0, "lat_c": 55.924395102653051, "lon_c": 16.027664276947167, "res": 8.0, "count_Insects": 6331, "count_Flowering Plants": 1838, "count_Birds": 487, "count_Mosses": 214, "count_Basidiomycota": 891, "count_Sac Fungi": 964, "count_Ferns": 20, "count_Gymnosperms": 28, "count_Mammals": 50, "count_Molluscs": 90, "count_Arachnids": 338, "count_Amphibians": 11, "count_Reptiles": 7, "unique_species_count": 11269.0, "countryCode": "SE" }, "geometry": { "type": "MultiPolygon", "coordinates": [ [ [ [ 16.107082791074959, 56.383583266832453 ], [ 16.896026573847095, 56.201501869047448 ], [ 16.807226249943866, 55.742332145395864 ], [ 15.954769006416889, 55.463892018396443 ], [ 15.176231328853133, 55.641247557797314 ], [ 15.239806677814826, 56.101645812611991 ], [ 16.107082791074959, 56.383583266832453 ] ] ] ] } },
{ "type": "Feature", "properties": { "geogrid_id": "856014642017676411", "seqnum": 19924.0, "lat_c": 56.014641517518392, "lon_c": 17.676411128911127, "res": 8.0, "count_Insects": 3, "count_Flowering Plants": 2, "count_Birds": 8, "count_Mosses": 0, "count_Basidiomycota": 1, "count_Sac Fungi": 0, "count_Ferns": 0, "count_Gymnosperms": 0, "count_Mammals": 2, "count_Molluscs": 1, "count_Arachnids": 0, "count_Amphibians": 0, "count_Reptiles": 0, "unique_species_count": 17.0, "countryCode": "SE" }, "geometry": { "type": "MultiPolygon", "coordinates": [ [ [ [ 17.782068641080272, 56.472146841129934 ], [ 18.56306313733387, 56.280391439175446 ], [ 18.448207202272549, 55.823099516383486 ], [ 17.578454973740119, 55.555552159763671 ], [ 16.807226249943866, 55.742332145395864 ], [ 16.896026573847095, 56.201501869047448 ], [ 17.782068641080272, 56.472146841129934 ] ] ] ] } },
{ "type": "Feature", "properties": { "geogrid_id": "856083992019335212", "seqnum": 20005.0, "lat_c": 56.083991900597681, "lon_c": 19.335211904321049, "res": 8.0, "count_Insects": 1, "count_Flowering Plants": 1, "count_Birds": 8, "count_Mosses": 0, "count_Basidiomycota": 1, "count_Sac Fungi": 0, "count_Ferns": 0, "count_Gymnosperms": 0, "count_Mammals": 0, "count_Molluscs": 0, "count_Arachnids": 0, "count_Amphibians": 0, "count_Reptiles": 0, "unique_species_count": 11.0, "countryCode": "SE" }, "geometry": { "type": "MultiPolygon", "coordinates": [ [ [ [ 19.467966988352611, 56.539102473318223 ], [ 20.240243909834078, 56.337740463618005 ], [ 20.098505050095905, 55.883046722686935 ], [ 19.211395735490701, 55.626972461022561 ], [ 18.448207202272549, 55.823099516383486 ], [ 18.56306313733387, 56.280391439175446 ], [ 19.467966988352611, 56.539102473318223 ] ] ] ] } },
{ "type": "Feature", "properties": { "geogrid_id": "856245816012042849", "seqnum": 13366.0, "lat_c": 56.245815722707391, "lon_c": 12.042848730198255, "res": 8.0, "count_Insects": 5824, "count_Flowering Plants": 1801, "count_Birds": 412, "count_Mosses": 327, "count_Basidiomycota": 1544, "count_Sac Fungi": 1733, "count_Ferns": 28, "count_Gymnosperms": 45, "count_Mammals": 52, "count_Molluscs": 244, "count_Arachnids": 476, "count_Amphibians": 9, "count_Reptiles": 7, "unique_species_count": 12502.0, "countryCode": "SE" }, "geometry": { "type": "MultiPolygon", "coordinates": [ [ [ [ 12.848390908334947, 56.585611565601667 ], [ 12.83066041693856, 56.109698971141313 ], [ 12.034178810515142, 55.770364322794158 ], [ 11.249999997643346, 55.898036484475426 ], [ 11.249999997585803, 56.373648341875317 ], [ 12.051790098359794, 56.72189479197732 ], [ 12.848390908334947, 56.585611565601667 ] ] ] ] } },
{ "type": "Feature", "properties": { "geogrid_id": "856441327013639408", "seqnum": 19763.0, "lat_c": 56.441327344680936, "lon_c": 13.639407893071075, "res": 8.0, "count_Insects": 9424, "count_Flowering Plants": 2442, "count_Birds": 392, "count_Mosses": 426, "count_Basidiomycota": 1763, "count_Sac Fungi": 1416, "count_Ferns": 31, "count_Gymnosperms": 54, "count_Mammals": 60, "count_Molluscs": 161, "count_Arachnids": 601, "count_Amphibians": 10, "count_Reptiles": 7, "unique_species_count": 16787.0, "countryCode": "SE" }, "geometry": { "type": "MultiPolygon", "coordinates": [ [ [ [ 13.689350820686567, 56.900172452210839 ], [ 14.503688197328307, 56.73301711531095 ], [ 14.443701557066593, 56.273988578420251 ], [ 13.613046421266542, 55.965586622309168 ], [ 12.83066041693856, 56.109698971141313 ], [ 12.848390908334947, 56.585611565601667 ], [ 13.689350820686567, 56.900172452210839 ] ] ] ] } },
{ "type": "Feature", "properties": { "geogrid_id": "856560788015309620", "seqnum": 19844.0, "lat_c": 56.560787809126055, "lon_c": 15.309619675569563, "res": 8.0, "count_Insects": 8514, "count_Flowering Plants": 2221, "count_Birds": 355, "count_Mosses": 357, "count_Basidiomycota": 1506, "count_Sac Fungi": 1103, "count_Ferns": 24, "count_Gymnosperms": 49, "count_Mammals": 61, "count_Molluscs": 115, "count_Arachnids": 433, "count_Amphibians": 9, "count_Reptiles": 7, "unique_species_count": 14754.0, "countryCode": "SE" }, "geometry": { "type": "MultiPolygon", "coordinates": [ [ [ [ 15.386266881879864, 57.018551396660939 ], [ 16.193633940631489, 56.841327181300464 ], [ 16.107082791074959, 56.383583266832453 ], [ 15.239806677814826, 56.101645812611991 ], [ 14.443701557066593, 56.273988578420251 ], [ 14.503688197328307, 56.73301711531095 ], [ 15.386266881879864, 57.018551396660939 ] ] ] ] } },
{ "type": "Feature", "properties": { "geogrid_id": "856659159016992249", "seqnum": 19925.0, "lat_c": 56.659158774342082, "lon_c": 16.992248592689101, "res": 8.0, "count_Insects": 10154, "count_Flowering Plants": 2502, "count_Birds": 484, "count_Mosses": 356, "count_Basidiomycota": 1969, "count_Sac Fungi": 1395, "count_Ferns": 25, "count_Gymnosperms": 42, "count_Mammals": 51, "count_Molluscs": 108, "count_Arachnids": 574, "count_Amphibians": 10, "count_Reptiles": 8, "unique_species_count": 17678.0, "countryCode": "SE" }, "geometry": { "type": "MultiPolygon", "coordinates": [ [ [ [ 17.096563617425506, 57.115154226282392 ], [ 17.896111052459215, 56.927911061214836 ], [ 17.782068641080272, 56.472146841129934 ], [ 16.896026573847095, 56.201501869047448 ], [ 16.107082791074959, 56.383583266832453 ], [ 16.193633940631489, 56.841327181300464 ], [ 17.096563617425506, 57.115154226282392 ] ] ] ] } },
{ "type": "Feature", "properties": { "geogrid_id": "856735860018686586", "seqnum": 20006.0, "lat_c": 56.735859764314, "lon_c": 18.686585917488429, "res": 8.0, "count_Insects": 4408, "count_Flowering Plants": 1222, "count_Birds": 414, "count_Mosses": 162, "count_Basidiomycota": 579, "count_Sac Fungi": 420, "count_Ferns": 17, "count_Gymnosperms": 12, "count_Mammals": 35, "count_Molluscs": 52, "count_Arachnids": 231, "count_Amphibians": 6, "count_Reptiles": 5, "unique_species_count": 7563.0, "countryCode": "SE" }, "geometry": { "type": "MultiPolygon", "coordinates": [ [ [ [ 18.435883545240301, 57.282463038745611 ], [ 19.231274413266384, 57.087535267359499 ], [ 19.467966988352611, 56.539102473318223 ], [ 18.56306313733387, 56.280391439175446 ], [ 17.782068641080272, 56.472146841129934 ], [ 17.896111052459215, 56.927911061214836 ], [ 18.435883545240301, 57.282463038745611 ] ] ] ] } },
{ "type": "Feature", "properties": { "geogrid_id": "856849892011250000", "seqnum": 13285.0, "lat_c": 56.849892335553157, "lon_c": 11.249999997526725, "res": 8.0, "count_Insects": 0, "count_Flowering Plants": 0, "count_Birds": 20, "count_Mosses": 0, "count_Basidiomycota": 0, "count_Sac Fungi": 1, "count_Ferns": 0, "count_Gymnosperms": 0, "count_Mammals": 2, "count_Molluscs": 113, "count_Arachnids": 0, "count_Amphibians": 0, "count_Reptiles": 0, "unique_species_count": 136.0, "countryCode": "SE" }, "geometry": { "type": "MultiPolygon", "coordinates": [ [ [ [ 12.061015362822467, 57.198612275290742 ], [ 12.051790098359794, 56.72189479197732 ], [ 11.249999997585803, 56.373648341875317 ], [ 10.448209899193486, 56.721894790092911 ], [ 10.438984634671888, 57.19861227337978 ], [ 11.249999997466041, 57.326779251844691 ], [ 12.061015362822467, 57.198612275290742 ] ] ] ] } },
{ "type": "Feature", "properties": { "geogrid_id": "856887891020017306", "seqnum": 20087.0, "lat_c": 56.887890842260113, "lon_c": 20.017305916990004, "res": 8.0, "count_Insects": 34, "count_Flowering Plants": 1, "count_Birds": 5, "count_Mosses": 0, "count_Basidiomycota": 0, "count_Sac Fungi": 0, "count_Ferns": 0, "count_Gymnosperms": 0, "count_Mammals": 0, "count_Molluscs": 0, "count_Arachnids": 0, "count_Amphibians": 0, "count_Reptiles": 0, "unique_species_count": 40.0, "countryCode": "SE" }, "geometry": { "type": "MultiPolygon", "coordinates": [ [ [ [ 19.792676134127888, 57.435463490788045 ], [ 20.583353349008888, 57.232801842985282 ], [ 20.79397311766601, 56.683633366691375 ], [ 20.240243909834078, 56.337740463618005 ], [ 19.467966988352611, 56.539102473318223 ], [ 19.231274413266384, 57.087535267359499 ], [ 19.792676134127888, 57.435463490788045 ] ] ] ] } },
{ "type": "Feature", "properties": { "geogrid_id": "857062155012866682", "seqnum": 19764.0, "lat_c": 57.062154867901704, "lon_c": 12.866681905386441, "res": 8.0, "count_Insects": 8353, "count_Flowering Plants": 2554, "count_Birds": 462, "count_Mosses": 406, "count_Basidiomycota": 1434, "count_Sac Fungi": 1055, "count_Ferns": 21, "count_Gymnosperms": 49, "count_Mammals": 66, "count_Molluscs": 205, "count_Arachnids": 495, "count_Amphibians": 7, "count_Reptiles": 8, "unique_species_count": 15115.0, "countryCode": "SE" }, "geometry": { "type": "MultiPolygon", "coordinates": [ [ [ [ 12.912251604284926, 57.519545819000129 ], [ 13.745503346687123, 57.357762314450873 ], [ 13.689350820686567, 56.900172452210839 ], [ 12.848390908334947, 56.585611565601667 ], [ 12.051790098359794, 56.72189479197732 ], [ 12.061015362822467, 57.198612275290742 ], [ 12.912251604284926, 57.519545819000129 ] ] ] ] } },
{ "type": "Feature", "properties": { "geogrid_id": "857190730014570201", "seqnum": 19845.0, "lat_c": 57.190730272959037, "lon_c": 14.570201326599109, "res": 8.0, "count_Insects": 7579, "count_Flowering Plants": 1999, "count_Birds": 358, "count_Mosses": 338, "count_Basidiomycota": 1605, "count_Sac Fungi": 1333, "count_Ferns": 21, "count_Gymnosperms": 34, "count_Mammals": 49, "count_Molluscs": 76, "count_Arachnids": 550, "count_Amphibians": 7, "count_Reptiles": 7, "unique_species_count": 13956.0, "countryCode": "SE" }, "geometry": { "type": "MultiPolygon", "coordinates": [ [ [ [ 14.64387204617119, 57.647003112195627 ], [ 15.470393397635871, 57.47480400215327 ], [ 15.386266881879864, 57.018551396660939 ], [ 14.503688197328307, 56.73301711531095 ], [ 13.689350820686567, 56.900172452210839 ], [ 13.745503346687123, 57.357762314450873 ], [ 14.64387204617119, 57.647003112195627 ] ] ] ] } },
{ "type": "Feature", "properties": { "geogrid_id": "857297486016287976", "seqnum": 19926.0, "lat_c": 57.297486375297908, "lon_c": 16.287976226947556, "res": 8.0, "count_Insects": 10014, "count_Flowering Plants": 2258, "count_Birds": 368, "count_Mosses": 386, "count_Basidiomycota": 1740, "count_Sac Fungi": 1330, "count_Ferns": 21, "count_Gymnosperms": 39, "count_Mammals": 52, "count_Molluscs": 103, "count_Arachnids": 446, "count_Amphibians": 8, "count_Reptiles": 6, "unique_species_count": 16771.0, "countryCode": "SE" }, "geometry": { "type": "MultiPolygon", "coordinates": [ [ [ [ 15.993775557861754, 57.837896774796725 ], [ 16.81710004863287, 57.65774954502831 ], [ 17.096563617425506, 57.115154226282392 ], [ 16.193633940631489, 56.841327181300464 ], [ 15.386266881879864, 57.018551396660939 ], [ 15.470393397635871, 57.47480400215327 ], [ 15.993775557861754, 57.837896774796725 ] ] ] ] } },
{ "type": "Feature", "properties": { "geogrid_id": "857472570017631149", "seqnum": 20007.0, "lat_c": 57.472569597072209, "lon_c": 17.631149454363332, "res": 8.0, "count_Insects": 6964, "count_Flowering Plants": 1598, "count_Birds": 397, "count_Mosses": 225, "count_Basidiomycota": 1486, "count_Sac Fungi": 1031, "count_Ferns": 17, "count_Gymnosperms": 18, "count_Mammals": 38, "count_Molluscs": 100, "count_Arachnids": 421, "count_Amphibians": 6, "count_Reptiles": 5, "unique_species_count": 12306.0, "countryCode": "SE" }, "geometry": { "type": "MultiPolygon", "coordinates": [ [ [ [ 17.362896007572445, 58.014655010347781 ], [ 18.182430961755184, 57.826497534912711 ], [ 18.435883545240301, 57.282463038745611 ], [ 17.896111052459215, 56.927911061214836 ], [ 17.096563617425506, 57.115154226282392 ], [ 16.81710004863287, 57.65774954502831 ], [ 17.362896007572445, 58.014655010347781 ] ] ] ] } },
{ "type": "Feature", "properties": { "geogrid_id": "857633398018992365", "seqnum": 20088.0, "lat_c": 57.633397718235237, "lon_c": 18.992365195498994, "res": 8.0, "count_Insects": 7825, "count_Flowering Plants": 1875, "count_Birds": 404, "count_Mosses": 307, "count_Basidiomycota": 1648, "count_Sac Fungi": 1272, "count_Ferns": 22, "count_Gymnosperms": 24, "count_Mammals": 39, "count_Molluscs": 131, "count_Arachnids": 532, "count_Amphibians": 4, "count_Reptiles": 5, "unique_species_count": 14088.0, "countryCode": "SE" }, "geometry": { "type": "MultiPolygon", "coordinates": [ [ [ [ 18.750354990267972, 58.176846348486549 ], [ 19.565481762929352, 57.980624936480297 ], [ 19.792676134127888, 57.435463490788045 ], [ 19.231274413266384, 57.087535267359499 ], [ 18.435883545240301, 57.282463038745611 ], [ 18.182430961755184, 57.826497534912711 ], [ 18.750354990267972, 58.176846348486549 ] ] ] ] } },
{ "type": "Feature", "properties": { "geogrid_id": "857675979010429462", "seqnum": 13204.0, "lat_c": 57.675979028241024, "lon_c": 10.429462242805849, "res": 8.0, "count_Insects": 0, "count_Flowering Plants": 0, "count_Birds": 10, "count_Mosses": 0, "count_Basidiomycota": 0, "count_Sac Fungi": 0, "count_Ferns": 0, "count_Gymnosperms": 0, "count_Mammals": 1, "count_Molluscs": 18, "count_Arachnids": 0, "count_Amphibians": 0, "count_Reptiles": 0, "unique_species_count": 29.0, "countryCode": "SE" }, "geometry": { "type": "MultiPolygon", "coordinates": [ [ [ [ 11.249999997403673, 57.804319994724175 ], [ 11.249999997466041, 57.326779251844691 ], [ 10.438984634671888, 57.19861227337978 ], [ 9.587748398188575, 57.51954582093142 ], [ 9.535693698643341, 57.975628223464021 ], [ 10.388558047355533, 58.131845112363834 ], [ 11.249999997403673, 57.804319994724175 ] ] ] ] } },
{ "type": "Feature", "properties": { "geogrid_id": "857675979012070538", "seqnum": 19765.0, "lat_c": 57.675979027865473, "lon_c": 12.070537756202356, "res": 8.0, "count_Insects": 8727, "count_Flowering Plants": 2782, "count_Birds": 473, "count_Mosses": 460, "count_Basidiomycota": 1864, "count_Sac Fungi": 1953, "count_Ferns": 34, "count_Gymnosperms": 57, "count_Mammals": 69, "count_Molluscs": 310, "count_Arachnids": 489, "count_Amphibians": 10, "count_Reptiles": 10, "unique_species_count": 17238.0, "countryCode": "SE" }, "geometry": { "type": "MultiPolygon", "coordinates": [ [ [ [ 12.111441955208754, 58.131845110443997 ], [ 12.964306303826703, 57.975628221550537 ], [ 12.912251604284926, 57.519545819000129 ], [ 12.061015362822467, 57.198612275290742 ], [ 11.25, 57.326779253717056 ], [ 11.25, 57.804319996622866 ], [ 12.111441955208754, 58.131845110443997 ] ] ] ] } },
{ "type": "Feature", "properties": { "geogrid_id": "857779556020370695", "seqnum": 20169.0, "lat_c": 57.779556072969655, "lon_c": 20.370695247642079, "res": 8.0, "count_Insects": 1, "count_Flowering Plants": 0, "count_Birds": 2, "count_Mosses": 0, "count_Basidiomycota": 0, "count_Sac Fungi": 0, "count_Ferns": 0, "count_Gymnosperms": 0, "count_Mammals": 0, "count_Molluscs": 0, "count_Arachnids": 0, "count_Amphibians": 0, "count_Reptiles": 0, "unique_species_count": 3.0, "countryCode": "SE" }, "geometry": { "type": "MultiPolygon", "coordinates": [ [ [ [ 20.155175313752519, 58.324054169519485 ], [ 20.965252172125325, 58.119724364660797 ], [ 21.165991392174725, 57.573749195121565 ], [ 20.583353349008888, 57.232801842985282 ], [ 19.792676134127888, 57.435463490788045 ], [ 19.565481762929352, 57.980624936480297 ], [ 20.155175313752519, 58.324054169519485 ] ] ] ] } },
{ "type": "Feature", "properties": { "geogrid_id": "857813979013808482", "seqnum": 19846.0, "lat_c": 57.813979364296323, "lon_c": 13.808481969629337, "res": 8.0, "count_Insects": 6773, "count_Flowering Plants": 2077, "count_Birds": 400, "count_Mosses": 474, "count_Basidiomycota": 1718, "count_Sac Fungi": 1155, "count_Ferns": 27, "count_Gymnosperms": 41, "count_Mammals": 51, "count_Molluscs": 119, "count_Arachnids": 382, "count_Amphibians": 6, "count_Reptiles": 7, "unique_species_count": 13230.0, "countryCode": "SE" }, "geometry": { "type": "MultiPolygon", "coordinates": [ [ [ [ 13.468749972081287, 58.347073358561218 ], [ 14.319527088253714, 58.182665926417627 ], [ 14.64387204617119, 57.647003112195627 ], [ 13.745503346687123, 57.357762314450873 ], [ 12.912251604284926, 57.519545819000129 ], [ 12.964306303826703, 57.975628221550537 ], [ 13.468749972081287, 58.347073358561218 ] ] ] ] } },
{ "type": "Feature", "properties": { "geogrid_id": "858012905015161229", "seqnum": 19927.0, "lat_c": 58.012904604897457, "lon_c": 15.161229076300236, "res": 8.0, "count_Insects": 9370, "count_Flowering Plants": 2552, "count_Birds": 382, "count_Mosses": 418, "count_Basidiomycota": 1729, "count_Sac Fungi": 1225, "count_Ferns": 28, "count_Gymnosperms": 41, "count_Mammals": 51, "count_Molluscs": 132, "count_Arachnids": 547, "count_Amphibians": 6, "count_Reptiles": 6, "unique_species_count": 16487.0, "countryCode": "SE" }, "geometry": { "type": "MultiPolygon", "coordinates": [ [ [ [ 14.847107322707256, 58.548382790958961 ], [ 15.695178568915262, 58.375707307356244 ], [ 15.993775557861754, 57.837896774796725 ], [ 15.470393397635871, 57.47480400215327 ], [ 14.64387204617119, 57.647003112195627 ], [ 14.319527088253714, 58.182665926417627 ], [ 14.847107322707256, 58.548382790958961 ] ] ] ] } },
{ "type": "Feature", "properties": { "geogrid_id": "858197761016533796", "seqnum": 20008.0, "lat_c": 58.19776140434336, "lon_c": 16.53379565591592, "res": 8.0, "count_Insects": 7102, "count_Flowering Plants": 2530, "count_Birds": 361, "count_Mosses": 345, "count_Basidiomycota": 1495, "count_Sac Fungi": 1097, "count_Ferns": 27, "count_Gymnosperms": 42, "count_Mammals": 56, "count_Molluscs": 131, "count_Arachnids": 429, "count_Amphibians": 8, "count_Reptiles": 7, "unique_species_count": 13630.0, "countryCode": "SE" }, "geometry": { "type": "MultiPolygon", "coordinates": [ [ [ [ 16.245727255527346, 58.735316522174017 ], [ 17.09044106997931, 58.554303938731628 ], [ 17.362896007572445, 58.014655010347781 ], [ 16.81710004863287, 57.65774954502831 ], [ 15.993775557861754, 57.837896774796725 ], [ 15.695178568915262, 58.375707307356244 ], [ 16.245727255527346, 58.735316522174017 ] ] ] ] } },
{ "type": "Feature", "properties": { "geogrid_id": "858368110017925332", "seqnum": 20089.0, "lat_c": 58.368109819078342, "lon_c": 17.925331507312304, "res": 8.0, "count_Insects": 2204, "count_Flowering Plants": 1029, "count_Birds": 354, "count_Mosses": 150, "count_Basidiomycota": 545, "count_Sac Fungi": 448, "count_Ferns": 19, "count_Gymnosperms": 10, "count_Mammals": 31, "count_Molluscs": 31, "count_Arachnids": 170, "count_Amphibians": 4, "count_Reptiles": 5, "unique_species_count": 5000.0, "countryCode": "SE" }, "geometry": { "type": "MultiPolygon", "coordinates": [ [ [ [ 17.663716064485143, 58.907429860088278 ], [ 18.504390581242369, 58.718020518122714 ], [ 18.750354990267972, 58.176846348486549 ], [ 18.182430961755184, 57.826497534912711 ], [ 17.362896007572445, 58.014655010347781 ], [ 17.09044106997931, 58.554303938731628 ], [ 17.663716064485143, 58.907429860088278 ] ] ] ] } },
{ "type": "Feature", "properties": { "geogrid_id": "858506019009891008", "seqnum": 6643.0, "lat_c": 58.506019414065655, "lon_c": 9.8910075179216665, "res": 8.0, "count_Insects": 0, "count_Flowering Plants": 0, "count_Birds": 5, "count_Mosses": 0, "count_Basidiomycota": 0, "count_Sac Fungi": 0, "count_Ferns": 0, "count_Gymnosperms": 0, "count_Mammals": 2, "count_Molluscs": 58, "count_Arachnids": 0, "count_Amphibians": 0, "count_Reptiles": 0, "unique_species_count": 65.0, "countryCode": "SE" }, "geometry": { "type": "MultiPolygon", "coordinates": [ [ [ [ 10.388558043108345, 58.131845113064159 ], [ 9.535693694454814, 57.975628224130212 ], [ 9.031250023629061, 58.347073359214555 ], [ 9.33202528003129, 58.884903699221105 ], [ 10.157618450710991, 59.051172407265724 ], [ 10.709447451895068, 58.668272570776097 ], [ 10.388558043108345, 58.131845113064159 ] ] ] ] } },
{ "type": "Feature", "properties": { "geogrid_id": "858506019012608992", "seqnum": 26326.0, "lat_c": 58.506019413443703, "lon_c": 12.608992482438746, "res": 8.0, "count_Insects": 5542, "count_Flowering Plants": 1821, "count_Birds": 366, "count_Mosses": 458, "count_Basidiomycota": 1951, "count_Sac Fungi": 1198, "count_Ferns": 31, "count_Gymnosperms": 25, "count_Mammals": 52, "count_Molluscs": 117, "count_Arachnids": 289, "count_Amphibians": 9, "count_Reptiles": 8, "unique_species_count": 11867.0, "countryCode": "SE" }, "geometry": { "type": "MultiPolygon", "coordinates": [ [ [ [ 11.790552552414459, 58.668272571481054 ], [ 12.342381553602921, 59.051172407940406 ], [ 13.16797472432253, 58.884903699878613 ], [ 13.468749972081287, 58.347073358561218 ], [ 12.964306301356659, 57.975628223464021 ], [ 12.111441952644467, 58.131845112363834 ], [ 11.790552552414459, 58.668272571481054 ] ] ] ] } },
{ "type": "Feature", "properties": { "geogrid_id": "858523524019334885", "seqnum": 20170.0, "lat_c": 58.523523914252173, "lon_c": 19.334884825270976, "res": 8.0, "count_Insects": 1600, "count_Flowering Plants": 428, "count_Birds": 303, "count_Mosses": 66, "count_Basidiomycota": 220, "count_Sac Fungi": 255, "count_Ferns": 9, "count_Gymnosperms": 9, "count_Mammals": 8, "count_Molluscs": 12, "count_Arachnids": 173, "count_Amphibians": 1, "count_Reptiles": 2, "unique_species_count": 3086.0, "countryCode": "SE" }, "geometry": { "type": "MultiPolygon", "coordinates": [ [ [ [ 19.100072757944083, 59.064292960421348 ], [ 19.935998979962068, 58.866437488678798 ], [ 20.155175313752519, 58.324054169519485 ], [ 19.565481762929352, 57.980624936480297 ], [ 18.750354990267972, 58.176846348486549 ], [ 18.504390581242369, 58.718020518122714 ], [ 19.100072757944083, 59.064292960421348 ] ] ] ] } },
{ "type": "Feature", "properties": { "geogrid_id": "858663594020761403", "seqnum": 20251.0, "lat_c": 58.663594349995208, "lon_c": 20.761402943908575, "res": 8.0, "count_Insects": 0, "count_Flowering Plants": 1, "count_Birds": 1, "count_Mosses": 0, "count_Basidiomycota": 0, "count_Sac Fungi": 0, "count_Ferns": 0, "count_Gymnosperms": 0, "count_Mammals": 0, "count_Molluscs": 1, "count_Arachnids": 0, "count_Amphibians": 0, "count_Reptiles": 0, "unique_species_count": 3.0, "countryCode": "SE" }, "geometry": { "type": "MultiPolygon", "coordinates": [ [ [ [ 20.553689981026032, 59.205493526063798 ], [ 21.384135498656917, 58.999153690976605 ], [ 21.576282231841372, 58.455879251278894 ], [ 20.965252172125325, 58.119724364660797 ], [ 20.155175313752519, 58.324054169519485 ], [ 19.935998979962068, 58.866437488678798 ], [ 20.553689981026032, 59.205493526063798 ] ] ] ] } },
{ "type": "Feature", "properties": { "geogrid_id": "858715678013989659", "seqnum": 26325.0, "lat_c": 58.71567756837657, "lon_c": 13.989658966005855, "res": 8.0, "count_Insects": 6361, "count_Flowering Plants": 1843, "count_Birds": 365, "count_Mosses": 403, "count_Basidiomycota": 2440, "count_Sac Fungi": 1420, "count_Ferns": 25, "count_Gymnosperms": 52, "count_Mammals": 52, "count_Molluscs": 129, "count_Arachnids": 359, "count_Amphibians": 6, "count_Reptiles": 7, "unique_species_count": 13462.0, "countryCode": "SE" }, "geometry": { "type": "MultiPolygon", "coordinates": [ [ [ [ 13.16797472432253, 58.884903699878613 ], [ 13.738548168168368, 59.260796848004397 ], [ 14.567134818576356, 59.087471852966601 ], [ 14.847107322707256, 58.548382790958961 ], [ 14.319527088253714, 58.182665926417627 ], [ 13.468749972081287, 58.347073358561218 ], [ 13.16797472432253, 58.884903699878613 ] ] ] ] } },
{ "type": "Feature", "properties": { "geogrid_id": "858911035015391248", "seqnum": 26324.0, "lat_c": 58.911034763052847, "lon_c": 15.391248095632015, "res": 8.0, "count_Insects": 7975, "count_Flowering Plants": 2518, "count_Birds": 420, "count_Mosses": 456, "count_Basidiomycota": 2163, "count_Sac Fungi": 1536, "count_Ferns": 26, "count_Gymnosperms": 47, "count_Mammals": 53, "count_Molluscs": 137, "count_Arachnids": 525, "count_Amphibians": 6, "count_Reptiles": 6, "unique_species_count": 15868.0, "countryCode": "SE" }, "geometry": { "type": "MultiPolygon", "coordinates": [ [ [ [ 14.567134818576356, 59.087471852966601 ], [ 15.156494070240861, 59.45612621131621 ], [ 15.987221143801259, 59.275507439272268 ], [ 16.245727255527346, 58.735316522174017 ], [ 15.695178568915262, 58.375707307356244 ], [ 14.847107322707256, 58.548382790958961 ], [ 14.567134818576356, 59.087471852966601 ] ] ] ] } },
{ "type": "Feature", "properties": { "geogrid_id": "859028962011250000", "seqnum": 82.0, "lat_c": 59.028962195544608, "lon_c": 11.250000000631383, "res": 8.0, "count_Insects": 3715, "count_Flowering Plants": 1457, "count_Birds": 335, "count_Mosses": 363, "count_Basidiomycota": 1133, "count_Sac Fungi": 651, "count_Ferns": 24, "count_Gymnosperms": 17, "count_Mammals": 48, "count_Molluscs": 371, "count_Arachnids": 207, "count_Amphibians": 5, "count_Reptiles": 7, "unique_species_count": 8333.0, "countryCode": "SE" }, "geometry": { "type": "MultiPolygon", "coordinates": [ [ [ [ 10.709447451864767, 58.668272573125236 ], [ 10.15761845064951, 59.05117240958436 ], [ 10.699535834477992, 59.414401745219287 ], [ 11.800464165489958, 59.414401742875363 ], [ 12.342381549289009, 59.051172407265724 ], [ 11.790552548104932, 58.668272570776097 ], [ 10.709447451864767, 58.668272573125236 ] ] ] ] } },
{ "type": "Feature", "properties": { "geogrid_id": "859091637016812899", "seqnum": 26323.0, "lat_c": 59.091636925957744, "lon_c": 16.812899070329461, "res": 8.0, "count_Insects": 7856, "count_Flowering Plants": 2260, "count_Birds": 402, "count_Mosses": 407, "count_Basidiomycota": 1891, "count_Sac Fungi": 1511, "count_Ferns": 29, "count_Gymnosperms": 48, "count_Mammals": 60, "count_Molluscs": 129, "count_Arachnids": 539, "count_Amphibians": 6, "count_Reptiles": 9, "unique_species_count": 15147.0, "countryCode": "SE" }, "geometry": { "type": "MultiPolygon", "coordinates": [ [ [ [ 15.987221143801259, 59.275507439272268 ], [ 16.59534373039617, 59.636686972988677 ], [ 17.42730861374918, 59.448553338323684 ], [ 17.663716064485143, 58.907429860088278 ], [ 17.09044106997931, 58.554303938731628 ], [ 16.245727255527346, 58.735316522174017 ], [ 15.987221143801259, 59.275507439272268 ] ] ] ] } },
{ "type": "Feature", "properties": { "geogrid_id": "859257044018253641", "seqnum": 26322.0, "lat_c": 59.257043886219336, "lon_c": 18.25364073499324, "res": 8.0, "count_Insects": 10030, "count_Flowering Plants": 2807, "count_Birds": 430, "count_Mosses": 453, "count_Basidiomycota": 2108, "count_Sac Fungi": 1851, "count_Ferns": 34, "count_Gymnosperms": 54, "count_Mammals": 62, "count_Molluscs": 146, "count_Arachnids": 600, "count_Amphibians": 11, "count_Reptiles": 9, "unique_species_count": 18595.0, "countryCode": "SE" }, "geometry": { "type": "MultiPolygon", "coordinates": [ [ [ [ 17.42730861374918, 59.448553338323684 ], [ 18.054104292563576, 59.802019412488946 ], [ 18.88635829241581, 59.606167695600071 ], [ 19.100072757944083, 59.064292960421348 ], [ 18.504390581242369, 58.718020518122714 ], [ 17.663716064485143, 58.907429860088278 ], [ 17.42730861374918, 59.448553338323684 ] ] ] ] } },
{ "type": "Feature", "properties": { "geogrid_id": "859406832019712392", "seqnum": 26321.0, "lat_c": 59.40683211643605, "lon_c": 19.712391920588392, "res": 8.0, "count_Insects": 1055, "count_Flowering Plants": 849, "count_Birds": 295, "count_Mosses": 111, "count_Basidiomycota": 141, "count_Sac Fungi": 166, "count_Ferns": 15, "count_Gymnosperms": 8, "count_Mammals": 24, "count_Molluscs": 23, "count_Arachnids": 120, "count_Amphibians": 5, "count_Reptiles": 4, "unique_species_count": 2816.0, "countryCode": "SE" }, "geometry": { "type": "MultiPolygon", "coordinates": [ [ [ [ 18.886358292415807, 59.606167695600071 ], [ 19.531665642239524, 59.951680524247394 ], [ 20.363218298017692, 59.747926769918806 ], [ 20.553689981026032, 59.205493526063798 ], [ 19.935998979962068, 58.866437488678798 ], [ 19.100072757944083, 59.064292960421348 ], [ 18.886358292415807, 59.606167695600071 ] ] ] ] } },
{ "type": "Feature", "properties": { "geogrid_id": "859431156012905829", "seqnum": 26407.0, "lat_c": 59.431156112258201, "lon_c": 12.905828551025142, "res": 8.0, "count_Insects": 5722, "count_Flowering Plants": 1490, "count_Birds": 353, "count_Mosses": 394, "count_Basidiomycota": 1214, "count_Sac Fungi": 720, "count_Ferns": 23, "count_Gymnosperms": 23, "count_Mammals": 48, "count_Molluscs": 148, "count_Arachnids": 373, "count_Amphibians": 6, "count_Reptiles": 6, "unique_species_count": 10520.0, "countryCode": "SE" }, "geometry": { "type": "MultiPolygon", "coordinates": [ [ [ [ 11.800464165489958, 59.414401742875363 ], [ 12.362751430114074, 59.79696508151666 ], [ 13.481244105257129, 59.808151271910333 ], [ 13.738548168168368, 59.260796848004397 ], [ 13.16797472432253, 58.884903699878613 ], [ 12.342381553602921, 59.051172407940406 ], [ 11.800464165489958, 59.414401742875363 ] ] ] ] } },
{ "type": "Feature", "properties": { "geogrid_id": "859633625014321052", "seqnum": 26406.0, "lat_c": 59.633625042092945, "lon_c": 14.321051844858999, "res": 8.0, "count_Insects": 5896, "count_Flowering Plants": 1695, "count_Birds": 353, "count_Mosses": 449, "count_Basidiomycota": 1682, "count_Sac Fungi": 1070, "count_Ferns": 27, "count_Gymnosperms": 36, "count_Mammals": 48, "count_Molluscs": 91, "count_Arachnids": 446, "count_Amphibians": 5, "count_Reptiles": 6, "unique_species_count": 11804.0, "countryCode": "SE" }, "geometry": { "type": "MultiPolygon", "coordinates": [ [ [ [ 13.481244105257129, 59.808151271910333 ], [ 14.068987744126186, 60.182081915933622 ], [ 14.915832721308227, 60.003310948070926 ], [ 15.156494070240861, 59.45612621131621 ], [ 14.567134818576356, 59.087471852966601 ], [ 13.738548168168368, 59.260796848004397 ], [ 13.481244105257129, 59.808151271910333 ] ] ] ] } },
{ "type": "Feature", "properties": { "geogrid_id": "859778004011250000", "seqnum": 81.0, "lat_c": 59.778003516306988, "lon_c": 11.250000000634511, "res": 8.0, "count_Insects": 1166, "count_Flowering Plants": 508, "count_Birds": 173, "count_Mosses": 171, "count_Basidiomycota": 412, "count_Sac Fungi": 291, "count_Ferns": 15, "count_Gymnosperms": 5, "count_Mammals": 27, "count_Molluscs": 24, "count_Arachnids": 104, "count_Amphibians": 5, "count_Reptiles": 4, "unique_species_count": 2905.0, "countryCode": "SE" }, "geometry": { "type": "MultiPolygon", "coordinates": [ [ [ [ 10.699535834477992, 59.414401745219287 ], [ 10.137248569820862, 59.796965083830166 ], [ 10.688986354642966, 60.163195870422101 ], [ 11.811013645323102, 60.163195868083413 ], [ 12.362751430114074, 59.79696508151666 ], [ 11.800464165489958, 59.414401742875363 ], [ 10.699535834477992, 59.414401745219287 ] ] ] ] } },
{ "type": "Feature", "properties": { "geogrid_id": "859821562015758071", "seqnum": 26405.0, "lat_c": 59.821562069558588, "lon_c": 15.758071065848288, "res": 8.0, "count_Insects": 7590, "count_Flowering Plants": 1638, "count_Birds": 355, "count_Mosses": 399, "count_Basidiomycota": 1949, "count_Sac Fungi": 1397, "count_Ferns": 25, "count_Gymnosperms": 26, "count_Mammals": 47, "count_Molluscs": 101, "count_Arachnids": 395, "count_Amphibians": 6, "count_Reptiles": 7, "unique_species_count": 13935.0, "countryCode": "SE" }, "geometry": { "type": "MultiPolygon", "coordinates": [ [ [ [ 14.915832721308227, 60.003310948070926 ], [ 15.523245532179089, 60.369773585987964 ], [ 16.372206859085036, 60.183697263784175 ], [ 16.59534373039617, 59.636686972988677 ], [ 15.987221143801259, 59.275507439272268 ], [ 15.156494070240861, 59.45612621131621 ], [ 14.915832721308227, 60.003310948070926 ] ] ] ] } },
{ "type": "Feature", "properties": { "geogrid_id": "859994490017215943", "seqnum": 26404.0, "lat_c": 59.994490145565209, "lon_c": 17.215943208660764, "res": 8.0, "count_Insects": 9711, "count_Flowering Plants": 2336, "count_Birds": 394, "count_Mosses": 449, "count_Basidiomycota": 2412, "count_Sac Fungi": 2145, "count_Ferns": 26, "count_Gymnosperms": 48, "count_Mammals": 52, "count_Molluscs": 120, "count_Arachnids": 563, "count_Amphibians": 7, "count_Reptiles": 6, "unique_species_count": 18269.0, "countryCode": "SE" }, "geometry": { "type": "MultiPolygon", "coordinates": [ [ [ [ 16.372206859085036, 60.183697263784175 ], [ 16.999248920563783, 60.542445920617631 ], [ 17.849352272815803, 60.348830101263907 ], [ 18.054104292563576, 59.802019412488946 ], [ 17.42730861374918, 59.448553338323684 ], [ 16.59534373039617, 59.636686972988677 ], [ 16.372206859085036, 60.183697263784175 ] ] ] ] } },
{ "type": "Feature", "properties": { "geogrid_id": "860151947018693604", "seqnum": 26403.0, "lat_c": 60.151947445167373, "lon_c": 18.693604058795465, "res": 8.0, "count_Insects": 7161, "count_Flowering Plants": 1722, "count_Birds": 365, "count_Mosses": 345, "count_Basidiomycota": 1546, "count_Sac Fungi": 958, "count_Ferns": 24, "count_Gymnosperms": 27, "count_Mammals": 47, "count_Molluscs": 108, "count_Arachnids": 402, "count_Amphibians": 7, "count_Reptiles": 6, "unique_species_count": 12718.0, "countryCode": "SE" }, "geometry": { "type": "MultiPolygon", "coordinates": [ [ [ [ 17.849352272815803, 60.348830101263907 ], [ 18.495908539857968, 60.699616238350409 ], [ 19.346129706889581, 60.498246076554594 ], [ 19.531665642239524, 59.951680524247394 ], [ 18.88635829241581, 59.606167695600071 ], [ 18.054104292563576, 59.802019412488946 ], [ 17.849352272815803, 60.348830101263907 ] ] ] ] } },
{ "type": "Feature", "properties": { "geogrid_id": "860176579012937229", "seqnum": 26488.0, "lat_c": 60.176579469370886, "lon_c": 12.937228983330574, "res": 8.0, "count_Insects": 3406, "count_Flowering Plants": 858, "count_Birds": 299, "count_Mosses": 310, "count_Basidiomycota": 856, "count_Sac Fungi": 542, "count_Ferns": 16, "count_Gymnosperms": 10, "count_Mammals": 39, "count_Molluscs": 46, "count_Arachnids": 288, "count_Amphibians": 5, "count_Reptiles": 5, "unique_species_count": 6680.0, "countryCode": "SE" }, "geometry": { "type": "MultiPolygon", "coordinates": [ [ [ [ 11.811013645323102, 60.163195868083413 ], [ 12.384445061127259, 60.545480829909351 ], [ 13.524274044019238, 60.553168499815854 ], [ 14.068987744126186, 60.182081915933622 ], [ 13.481244105257129, 59.808151271910333 ], [ 12.362751430114074, 59.79696508151666 ], [ 11.811013645323102, 60.163195868083413 ] ] ] ] } },
{ "type": "Feature", "properties": { "geogrid_id": "860552868014669428", "seqnum": 26487.0, "lat_c": 60.552868378250558, "lon_c": 14.66942786448533, "res": 8.0, "count_Insects": 5142, "count_Flowering Plants": 1152, "count_Birds": 332, "count_Mosses": 313, "count_Basidiomycota": 1457, "count_Sac Fungi": 1145, "count_Ferns": 24, "count_Gymnosperms": 11, "count_Mammals": 46, "count_Molluscs": 56, "count_Arachnids": 163, "count_Amphibians": 5, "count_Reptiles": 4, "unique_species_count": 9850.0, "countryCode": "SE" }, "geometry": { "type": "MultiPolygon", "coordinates": [ [ [ [ 13.524274044019238, 60.553168499815854 ], [ 14.124273812387553, 60.926651951502627 ], [ 15.282941578544046, 60.920427157970998 ], [ 15.523245532179089, 60.369773585987964 ], [ 14.915832721308227, 60.003310948070926 ], [ 14.068987744126186, 60.182081915933622 ], [ 13.524274044019238, 60.553168499815854 ] ] ] ] } },
{ "type": "Feature", "properties": { "geogrid_id": "860732928016143653", "seqnum": 26486.0, "lat_c": 60.732928200434429, "lon_c": 16.143652553444873, "res": 8.0, "count_Insects": 7279, "count_Flowering Plants": 1357, "count_Birds": 339, "count_Mosses": 332, "count_Basidiomycota": 1231, "count_Sac Fungi": 999, "count_Ferns": 24, "count_Gymnosperms": 15, "count_Mammals": 50, "count_Molluscs": 84, "count_Arachnids": 419, "count_Amphibians": 6, "count_Reptiles": 7, "unique_species_count": 12142.0, "countryCode": "SE" }, "geometry": { "type": "MultiPolygon", "coordinates": [ [ [ [ 15.282941578544046, 60.920427157970998 ], [ 15.909914497338182, 61.284670777089097 ], [ 16.777423310641542, 61.092686129399439 ], [ 16.999248920563783, 60.542445920617631 ], [ 16.372206859085036, 60.183697263784175 ], [ 15.523245532179089, 60.369773585987964 ], [ 15.282941578544046, 60.920427157970998 ] ] ] ] } },
{ "type": "Feature", "properties": { "geogrid_id": "860897718017639551", "seqnum": 26485.0, "lat_c": 60.897718337220859, "lon_c": 17.639550779006282, "res": 8.0, "count_Insects": 6043, "count_Flowering Plants": 1419, "count_Birds": 386, "count_Mosses": 277, "count_Basidiomycota": 1320, "count_Sac Fungi": 744, "count_Ferns": 19, "count_Gymnosperms": 20, "count_Mammals": 43, "count_Molluscs": 98, "count_Arachnids": 444, "count_Amphibians": 6, "count_Reptiles": 6, "unique_species_count": 10825.0, "countryCode": "SE" }, "geometry": { "type": "MultiPolygon", "coordinates": [ [ [ [ 16.777423310641542, 61.092686129399439 ], [ 17.424934214058169, 61.448954672153562 ], [ 18.293471588188236, 61.249420861368137 ], [ 18.495908539857968, 60.699616238350409 ], [ 17.849352272815803, 60.348830101263907 ], [ 16.999248920563783, 60.542445920617631 ], [ 16.777423310641542, 61.092686129399439 ] ] ] ] } },
{ "type": "Feature", "properties": { "geogrid_id": "860924782012970690", "seqnum": 26569.0, "lat_c": 60.924781605162039, "lon_c": 12.970690199188878, "res": 8.0, "count_Insects": 2991, "count_Flowering Plants": 852, "count_Birds": 267, "count_Mosses": 315, "count_Basidiomycota": 871, "count_Sac Fungi": 715, "count_Ferns": 19, "count_Gymnosperms": 10, "count_Mammals": 35, "count_Molluscs": 30, "count_Arachnids": 126, "count_Amphibians": 5, "count_Reptiles": 4, "unique_species_count": 6240.0, "countryCode": "SE" }, "geometry": { "type": "MultiPolygon", "coordinates": [ [ [ [ 11.822251624753466, 60.914604895061537 ], [ 12.407569036676636, 61.296667402309318 ], [ 13.57015621757828, 61.301017461472789 ], [ 14.124273812387553, 60.926651951502627 ], [ 13.524274044019238, 60.553168499815854 ], [ 12.384445061127259, 60.545480829909351 ], [ 11.822251624753466, 60.914604895061537 ] ] ] ] } },
{ "type": "Feature", "properties": { "geogrid_id": "861046754019155954", "seqnum": 26484.0, "lat_c": 61.046754101247885, "lon_c": 19.155954056760901, "res": 8.0, "count_Insects": 0, "count_Flowering Plants": 1, "count_Birds": 4, "count_Mosses": 0, "count_Basidiomycota": 1, "count_Sac Fungi": 0, "count_Ferns": 0, "count_Gymnosperms": 0, "count_Mammals": 0, "count_Molluscs": 1, "count_Arachnids": 0, "count_Amphibians": 0, "count_Reptiles": 0, "unique_species_count": 7.0, "countryCode": "SE" }, "geometry": { "type": "MultiPolygon", "coordinates": [ [ [ [ 18.293471588188236, 61.249420861368137 ], [ 18.961375611801991, 61.597455772342947 ], [ 19.829834725807171, 61.390145274537815 ], [ 20.012006329169242, 60.840820194417972 ], [ 19.346129706889581, 60.498246076554594 ], [ 18.495908539857968, 60.699616238350409 ], [ 18.293471588188236, 61.249420861368137 ] ] ] ] } },
{ "type": "Feature", "properties": { "geogrid_id": "861296946014737625", "seqnum": 26568.0, "lat_c": 61.296945636648516, "lon_c": 14.73762536677911, "res": 8.0, "count_Insects": 4118, "count_Flowering Plants": 1054, "count_Birds": 323, "count_Mosses": 329, "count_Basidiomycota": 1216, "count_Sac Fungi": 866, "count_Ferns": 24, "count_Gymnosperms": 15, "count_Mammals": 42, "count_Molluscs": 63, "count_Arachnids": 280, "count_Amphibians": 6, "count_Reptiles": 5, "unique_species_count": 8341.0, "countryCode": "SE" }, "geometry": { "type": "MultiPolygon", "coordinates": [ [ [ [ 13.57015621757828, 61.301017461472789 ], [ 14.183261437104338, 61.674103563712997 ], [ 15.364735496749153, 61.663961245831466 ], [ 15.909914497338182, 61.284670777089097 ], [ 15.282941578544046, 60.920427157970998 ], [ 14.124273812387553, 60.926651951502627 ], [ 13.57015621757828, 61.301017461472789 ] ] ] ] } },
{ "type": "Feature", "properties": { "geogrid_id": "861645508016550740", "seqnum": 26567.0, "lat_c": 61.645507636086705, "lon_c": 16.550740443229479, "res": 8.0, "count_Insects": 4768, "count_Flowering Plants": 1489, "count_Birds": 326, "count_Mosses": 313, "count_Basidiomycota": 1235, "count_Sac Fungi": 902, "count_Ferns": 18, "count_Gymnosperms": 14, "count_Mammals": 41, "count_Molluscs": 77, "count_Arachnids": 290, "count_Amphibians": 5, "count_Reptiles": 6, "unique_species_count": 9484.0, "countryCode": "SE" }, "geometry": { "type": "MultiPolygon", "coordinates": [ [ [ [ 15.364735496749153, 61.663961245831466 ], [ 16.006020463598315, 62.027606189762423 ], [ 17.205821082603208, 62.002841868058574 ], [ 17.424934214058169, 61.448954672153562 ], [ 16.777423310641542, 61.092686129399439 ], [ 15.909914497338182, 61.284670777089097 ], [ 15.364735496749153, 61.663961245831466 ] ] ] ] } },
{ "type": "Feature", "properties": { "geogrid_id": "861675708013006381", "seqnum": 26650.0, "lat_c": 61.675707714035177, "lon_c": 13.006380505729719, "res": 8.0, "count_Insects": 1722, "count_Flowering Plants": 624, "count_Birds": 227, "count_Mosses": 334, "count_Basidiomycota": 789, "count_Sac Fungi": 890, "count_Ferns": 20, "count_Gymnosperms": 7, "count_Mammals": 31, "count_Molluscs": 21, "count_Arachnids": 44, "count_Amphibians": 4, "count_Reptiles": 4, "unique_species_count": 4717.0, "countryCode": "SE" }, "geometry": { "type": "MultiPolygon", "coordinates": [ [ [ [ 11.834234394926217, 61.668577507272708 ], [ 12.432242012432109, 62.050471177195611 ], [ 13.619126878437523, 62.051640392793168 ], [ 14.183261437104338, 61.674103563712997 ], [ 13.57015621757828, 61.301017461472789 ], [ 12.407569036676636, 61.296667402309318 ], [ 11.834234394926217, 61.668577507272708 ] ] ] ] } },
{ "type": "Feature", "properties": { "geogrid_id": "861801637018086568", "seqnum": 26566.0, "lat_c": 61.801636956845506, "lon_c": 18.086568112495574, "res": 8.0, "count_Insects": 1927, "count_Flowering Plants": 739, "count_Birds": 295, "count_Mosses": 139, "count_Basidiomycota": 387, "count_Sac Fungi": 331, "count_Ferns": 15, "count_Gymnosperms": 5, "count_Mammals": 24, "count_Molluscs": 45, "count_Arachnids": 262, "count_Amphibians": 5, "count_Reptiles": 4, "unique_species_count": 4178.0, "countryCode": "SE" }, "geometry": { "type": "MultiPolygon", "coordinates": [ [ [ [ 17.205821082603208, 62.002841868058574 ], [ 17.875565469187304, 62.356573192092746 ], [ 18.762713756600192, 62.150631808618847 ], [ 18.961375611801991, 61.597455772342947 ], [ 18.293471588188236, 61.249420861368137 ], [ 17.424934214058169, 61.448954672153562 ], [ 17.205821082603208, 62.002841868058574 ] ] ] ] } },
{ "type": "Feature", "properties": { "geogrid_id": "861941721019643632", "seqnum": 26565.0, "lat_c": 61.941721163520526, "lon_c": 19.643631617888282, "res": 8.0, "count_Insects": 1, "count_Flowering Plants": 0, "count_Birds": 1, "count_Mosses": 0, "count_Basidiomycota": 0, "count_Sac Fungi": 8, "count_Ferns": 0, "count_Gymnosperms": 0, "count_Mammals": 0, "count_Molluscs": 1, "count_Arachnids": 0, "count_Amphibians": 0, "count_Reptiles": 0, "unique_species_count": 11.0, "countryCode": "SE" }, "geometry": { "type": "MultiPolygon", "coordinates": [ [ [ [ 18.762713756600192, 62.150631808618847 ], [ 19.453765162161108, 62.495833619184097 ], [ 20.340612174003628, 62.282110827625296 ], [ 20.517899640389512, 61.729687279715712 ], [ 19.829834725807171, 61.390145274537815 ], [ 18.961375611801991, 61.597455772342947 ], [ 18.762713756600192, 62.150631808618847 ] ] ] ] } },
{ "type": "Feature", "properties": { "geogrid_id": "862040268011250000", "seqnum": 78.0, "lat_c": 62.0402681757324, "lon_c": 11.250000000647454, "res": 8.0, "count_Insects": 294, "count_Flowering Plants": 279, "count_Birds": 132, "count_Mosses": 49, "count_Basidiomycota": 103, "count_Sac Fungi": 291, "count_Ferns": 11, "count_Gymnosperms": 4, "count_Mammals": 18, "count_Molluscs": 0, "count_Arachnids": 4, "count_Amphibians": 1, "count_Reptiles": 2, "unique_species_count": 1188.0, "countryCode": "SE" }, "geometry": { "type": "MultiPolygon", "coordinates": [ [ [ [ 10.665765605035636, 61.668577509600937 ], [ 10.067757987490319, 62.050471179493655 ], [ 10.652975291364211, 62.425061134563592 ], [ 11.847024708595272, 62.425061132240565 ], [ 12.432242012432109, 62.050471177195611 ], [ 11.834234394926217, 61.668577507272708 ], [ 10.665765605035636, 61.668577509600937 ] ] ] ] } },
{ "type": "Feature", "properties": { "geogrid_id": "862043951014810435", "seqnum": 26649.0, "lat_c": 62.043950804829713, "lon_c": 14.810435234365851, "res": 8.0, "count_Insects": 3592, "count_Flowering Plants": 851, "count_Birds": 232, "count_Mosses": 260, "count_Basidiomycota": 682, "count_Sac Fungi": 530, "count_Ferns": 17, "count_Gymnosperms": 9, "count_Mammals": 28, "count_Molluscs": 44, "count_Arachnids": 108, "count_Amphibians": 5, "count_Reptiles": 2, "unique_species_count": 6360.0, "countryCode": "SE" }, "geometry": { "type": "MultiPolygon", "coordinates": [ [ [ [ 13.619126878437523, 62.051640392793168 ], [ 14.246261541812038, 62.424375573387174 ], [ 15.452117861243254, 62.410465632591261 ], [ 16.006020463598315, 62.027606189762423 ], [ 15.364735496749153, 61.663961245831466 ], [ 14.183261437104338, 61.674103563712997 ], [ 13.619126878437523, 62.051640392793168 ] ] ] ] } },
{ "type": "Feature", "properties": { "geogrid_id": "862387783016661906", "seqnum": 26648.0, "lat_c": 62.387783438621987, "lon_c": 16.661905678706439, "res": 8.0, "count_Insects": 5554, "count_Flowering Plants": 1822, "count_Birds": 340, "count_Mosses": 297, "count_Basidiomycota": 1659, "count_Sac Fungi": 741, "count_Ferns": 28, "count_Gymnosperms": 23, "count_Mammals": 41, "count_Molluscs": 67, "count_Arachnids": 442, "count_Amphibians": 5, "count_Reptiles": 5, "unique_species_count": 11024.0, "countryCode": "SE" }, "geometry": { "type": "MultiPolygon", "coordinates": [ [ [ [ 15.452117861243254, 62.410465632591261 ], [ 16.10876018030627, 62.77354987278639 ], [ 17.332825289121299, 62.744391359672157 ], [ 17.875565469187304, 62.356573192092746 ], [ 17.205821082603208, 62.002841868058574 ], [ 16.006020463598315, 62.027606189762423 ], [ 15.452117861243254, 62.410465632591261 ] ] ] ] } },
{ "type": "Feature", "properties": { "geogrid_id": "862429301013044488", "seqnum": 26731.0, "lat_c": 62.429301474598894, "lon_c": 13.044487512526157, "res": 8.0, "count_Insects": 2559, "count_Flowering Plants": 845, "count_Birds": 255, "count_Mosses": 386, "count_Basidiomycota": 998, "count_Sac Fungi": 811, "count_Ferns": 22, "count_Gymnosperms": 7, "count_Mammals": 31, "count_Molluscs": 30, "count_Arachnids": 108, "count_Amphibians": 3, "count_Reptiles": 4, "unique_species_count": 6059.0, "countryCode": "SE" }, "geometry": { "type": "MultiPolygon", "coordinates": [ [ [ [ 11.847024708595272, 62.425061132240565 ], [ 12.458596452366516, 62.806837165560466 ], [ 13.67144972978878, 62.804977823184494 ], [ 14.246261541812038, 62.424375573387174 ], [ 13.619126878437523, 62.051640392793168 ], [ 12.432242012432109, 62.050471177195611 ], [ 11.847024708595272, 62.425061132240565 ] ] ] ] } },
{ "type": "Feature", "properties": { "geogrid_id": "862706597018560389", "seqnum": 26647.0, "lat_c": 62.706596766770694, "lon_c": 18.560389487657158, "res": 8.0, "count_Insects": 4813, "count_Flowering Plants": 1171, "count_Birds": 316, "count_Mosses": 241, "count_Basidiomycota": 1084, "count_Sac Fungi": 537, "count_Ferns": 23, "count_Gymnosperms": 10, "count_Mammals": 44, "count_Molluscs": 50, "count_Arachnids": 204, "count_Amphibians": 6, "count_Reptiles": 5, "unique_species_count": 8504.0, "countryCode": "SE" }, "geometry": { "type": "MultiPolygon", "coordinates": [ [ [ [ 17.332825289121299, 62.744391359672157 ], [ 18.019221658939816, 63.097323553994102 ], [ 19.26071518642863, 63.052803044798694 ], [ 19.453765162161108, 62.495833619184097 ], [ 18.762713756600192, 62.150631808618847 ], [ 17.875565469187304, 62.356573192092746 ], [ 17.332825289121299, 62.744391359672157 ] ] ] ] } },
{ "type": "Feature", "properties": { "geogrid_id": "862793819014888250", "seqnum": 26730.0, "lat_c": 62.793818773345116, "lon_c": 14.888250314019924, "res": 8.0, "count_Insects": 3010, "count_Flowering Plants": 1150, "count_Birds": 261, "count_Mosses": 353, "count_Basidiomycota": 1278, "count_Sac Fungi": 529, "count_Ferns": 24, "count_Gymnosperms": 10, "count_Mammals": 34, "count_Molluscs": 58, "count_Arachnids": 201, "count_Amphibians": 5, "count_Reptiles": 2, "unique_species_count": 6915.0, "countryCode": "SE" }, "geometry": { "type": "MultiPolygon", "coordinates": [ [ [ [ 13.67144972978878, 62.804977823184494 ], [ 14.313621648280639, 63.17740485083494 ], [ 15.545571249732024, 63.159870698568049 ], [ 16.10876018030627, 62.77354987278639 ], [ 15.452117861243254, 62.410465632591261 ], [ 14.246261541812038, 62.424375573387174 ], [ 13.67144972978878, 62.804977823184494 ] ] ] ] } },
{ "type": "Feature", "properties": { "geogrid_id": "862799235011250000", "seqnum": 77.0, "lat_c": 62.799234842504816, "lon_c": 11.250000000653117, "res": 8.0, "count_Insects": 415, "count_Flowering Plants": 312, "count_Birds": 121, "count_Mosses": 78, "count_Basidiomycota": 72, "count_Sac Fungi": 45, "count_Ferns": 10, "count_Gymnosperms": 4, "count_Mammals": 12, "count_Molluscs": 2, "count_Arachnids": 2, "count_Amphibians": 1, "count_Reptiles": 1, "unique_species_count": 1075.0, "countryCode": "SE" }, "geometry": { "type": "MultiPolygon", "coordinates": [ [ [ [ 10.652975291364211, 62.425061134563592 ], [ 10.04140354755104, 62.806837167853381 ], [ 10.639307269729784, 63.184001954146346 ], [ 11.860692730227127, 63.184001951828485 ], [ 12.458596452366516, 62.806837165560466 ], [ 11.847024708595272, 62.425061132240565 ], [ 10.652975291364211, 62.425061134563592 ] ] ] ] } },
{ "type": "Feature", "properties": { "geogrid_id": "862837132020160121", "seqnum": 26646.0, "lat_c": 62.83713221892387, "lon_c": 20.160120863155942, "res": 8.0, "count_Insects": 1, "count_Flowering Plants": 3, "count_Birds": 39, "count_Mosses": 0, "count_Basidiomycota": 0, "count_Sac Fungi": 0, "count_Ferns": 0, "count_Gymnosperms": 0, "count_Mammals": 0, "count_Molluscs": 3, "count_Arachnids": 0, "count_Amphibians": 0, "count_Reptiles": 0, "unique_species_count": 46.0, "countryCode": "SE" }, "geometry": { "type": "MultiPolygon", "coordinates": [ [ [ [ 19.26071518642863, 63.052803044798694 ], [ 19.97696998779282, 63.395077629943927 ], [ 20.882183043762442, 63.1744127527651 ], [ 21.052692833838449, 62.618514145789028 ], [ 20.340612174003628, 62.282110827625296 ], [ 19.453765162161108, 62.495833619184097 ], [ 19.26071518642863, 63.052803044798694 ] ] ] ] } },
{ "type": "Feature", "properties": { "geogrid_id": "863133101016780823", "seqnum": 26729.0, "lat_c": 63.133100549551145, "lon_c": 16.780823304563782, "res": 8.0, "count_Insects": 4080, "count_Flowering Plants": 1127, "count_Birds": 258, "count_Mosses": 288, "count_Basidiomycota": 1084, "count_Sac Fungi": 581, "count_Ferns": 26, "count_Gymnosperms": 11, "count_Mammals": 38, "count_Molluscs": 40, "count_Arachnids": 253, "count_Amphibians": 5, "count_Reptiles": 3, "unique_species_count": 7794.0, "countryCode": "SE" }, "geometry": { "type": "MultiPolygon", "coordinates": [ [ [ [ 15.545571249732024, 63.159870698568049 ], [ 16.21871434749686, 63.522427044775284 ], [ 17.468778128883333, 63.489009703646254 ], [ 18.019221658939816, 63.097323553994102 ], [ 17.332825289121299, 62.744391359672157 ], [ 16.10876018030627, 62.77354987278639 ], [ 15.545571249732024, 63.159870698568049 ] ] ] ] } },
{ "type": "Feature", "properties": { "geogrid_id": "863185505013085221", "seqnum": 26812.0, "lat_c": 63.185505042324252, "lon_c": 13.085220961174432, "res": 8.0, "count_Insects": 2347, "count_Flowering Plants": 997, "count_Birds": 266, "count_Mosses": 439, "count_Basidiomycota": 1112, "count_Sac Fungi": 1123, "count_Ferns": 25, "count_Gymnosperms": 6, "count_Mammals": 34, "count_Molluscs": 46, "count_Arachnids": 146, "count_Amphibians": 5, "count_Reptiles": 2, "unique_species_count": 6548.0, "countryCode": "SE" }, "geometry": { "type": "MultiPolygon", "coordinates": [ [ [ [ 11.860692730227127, 63.184001951828485 ], [ 12.486780688373376, 63.565709014834901 ], [ 13.727420006730968, 63.56096855122 ], [ 14.313621648280639, 63.17740485083494 ], [ 13.67144972978878, 62.804977823184494 ], [ 12.458596452366516, 62.806837165560466 ], [ 11.860692730227127, 63.184001951828485 ] ] ] ] } },
{ "type": "Feature", "properties": { "geogrid_id": "863446469018721545", "seqnum": 26728.0, "lat_c": 63.446468693360693, "lon_c": 18.721544734084194, "res": 8.0, "count_Insects": 4917, "count_Flowering Plants": 1027, "count_Birds": 329, "count_Mosses": 247, "count_Basidiomycota": 883, "count_Sac Fungi": 792, "count_Ferns": 16, "count_Gymnosperms": 11, "count_Mammals": 43, "count_Molluscs": 41, "count_Arachnids": 204, "count_Amphibians": 5, "count_Reptiles": 4, "unique_species_count": 8519.0, "countryCode": "SE" }, "geometry": { "type": "MultiPolygon", "coordinates": [ [ [ [ 17.468778128883333, 63.489009703646254 ], [ 18.173104739269892, 63.841164209676506 ], [ 19.440251277136539, 63.791710358428425 ], [ 19.97696998779282, 63.395077629943927 ], [ 19.26071518642863, 63.052803044798694 ], [ 18.019221658939816, 63.097323553994102 ], [ 17.468778128883333, 63.489009703646254 ] ] ] ] } },
{ "type": "Feature", "properties": { "geogrid_id": "863546482014971510", "seqnum": 26811.0, "lat_c": 63.546482176246172, "lon_c": 14.971510291362916, "res": 8.0, "count_Insects": 2649, "count_Flowering Plants": 1054, "count_Birds": 287, "count_Mosses": 345, "count_Basidiomycota": 1013, "count_Sac Fungi": 512, "count_Ferns": 25, "count_Gymnosperms": 9, "count_Mammals": 33, "count_Molluscs": 57, "count_Arachnids": 174, "count_Amphibians": 5, "count_Reptiles": 3, "unique_species_count": 6166.0, "countryCode": "SE" }, "geometry": { "type": "MultiPolygon", "coordinates": [ [ [ [ 13.727420006730968, 63.56096855122 ], [ 14.385731392678567, 63.933126266745901 ], [ 15.645636511996919, 63.912104189822365 ], [ 16.21871434749686, 63.522427044775284 ], [ 15.545571249732024, 63.159870698568049 ], [ 14.313621648280639, 63.17740485083494 ], [ 13.727420006730968, 63.56096855122 ] ] ] ] } },
{ "type": "Feature", "properties": { "geogrid_id": "863560554011250000", "seqnum": 76.0, "lat_c": 63.560553589047089, "lon_c": 11.250000000659551, "res": 8.0, "count_Insects": 201, "count_Flowering Plants": 303, "count_Birds": 145, "count_Mosses": 154, "count_Basidiomycota": 37, "count_Sac Fungi": 215, "count_Ferns": 16, "count_Gymnosperms": 3, "count_Mammals": 10, "count_Molluscs": 3, "count_Arachnids": 4, "count_Amphibians": 1, "count_Reptiles": 0, "unique_species_count": 1092.0, "countryCode": "SE" }, "geometry": { "type": "MultiPolygon", "coordinates": [ [ [ [ 10.639307269729784, 63.184001954146346 ], [ 10.013219311538881, 63.565709017122714 ], [ 10.624682841139974, 63.945344915792873 ], [ 11.875317158814138, 63.945344913480142 ], [ 12.486780688373376, 63.565709014834901 ], [ 11.860692730227127, 63.184001951828485 ], [ 10.639307269729784, 63.184001954146346 ] ] ] ] } },
{ "type": "Feature", "properties": { "geogrid_id": "863733301020709586", "seqnum": 26727.0, "lat_c": 63.733301137627535, "lon_c": 20.709585762828581, "res": 8.0, "count_Insects": 6246, "count_Flowering Plants": 1196, "count_Birds": 392, "count_Mosses": 290, "count_Basidiomycota": 1256, "count_Sac Fungi": 889, "count_Ferns": 15, "count_Gymnosperms": 21, "count_Mammals": 49, "count_Molluscs": 58, "count_Arachnids": 277, "count_Amphibians": 5, "count_Reptiles": 5, "unique_species_count": 10699.0, "countryCode": "SE" }, "geometry": { "type": "MultiPolygon", "coordinates": [ [ [ [ 19.440251277136539, 63.791710358428425 ], [ 20.175803957973411, 64.132926879628741 ], [ 21.458997757865944, 64.067349060722592 ], [ 21.620356538036514, 63.507555561221821 ], [ 20.882183043762442, 63.1744127527651 ], [ 19.97696998779282, 63.395077629943927 ], [ 19.440251277136539, 63.791710358428425 ] ] ] ] } },
{ "type": "Feature", "properties": { "geogrid_id": "863836436022375048", "seqnum": 26726.0, "lat_c": 63.836436068196335, "lon_c": 22.375047685518311, "res": 8.0, "count_Insects": 0, "count_Flowering Plants": 0, "count_Birds": 20, "count_Mosses": 0, "count_Basidiomycota": 0, "count_Sac Fungi": 0, "count_Ferns": 0, "count_Gymnosperms": 0, "count_Mammals": 2, "count_Molluscs": 1, "count_Arachnids": 0, "count_Amphibians": 0, "count_Reptiles": 0, "unique_species_count": 23.0, "countryCode": "SE" }, "geometry": { "type": "MultiPolygon", "coordinates": [ [ [ [ 21.458997757865944, 64.067349060722592 ], [ 22.225643358693635, 64.39709164231742 ], [ 23.146663030693279, 64.160924677323536 ], [ 23.283315292600623, 63.602631486006779 ], [ 22.523665892144205, 63.27889658216116 ], [ 21.620356538036514, 63.507555561221821 ], [ 21.458997757865944, 64.067349060722592 ] ] ] ] } },
{ "type": "Feature", "properties": { "geogrid_id": "863881378016908181", "seqnum": 26810.0, "lat_c": 63.881378295522914, "lon_c": 16.908181145172495, "res": 8.0, "count_Insects": 2490, "count_Flowering Plants": 731, "count_Birds": 235, "count_Mosses": 247, "count_Basidiomycota": 801, "count_Sac Fungi": 389, "count_Ferns": 15, "count_Gymnosperms": 9, "count_Mammals": 29, "count_Molluscs": 19, "count_Arachnids": 90, "count_Amphibians": 4, "count_Reptiles": 2, "unique_species_count": 5061.0, "countryCode": "SE" }, "geometry": { "type": "MultiPolygon", "coordinates": [ [ [ [ 15.645636511996919, 63.912104189822365 ], [ 16.336534668187134, 64.274159829544644 ], [ 17.614484188078489, 64.236609517752342 ], [ 18.173104739269892, 63.841164209676506 ], [ 17.468778128883333, 63.489009703646254 ], [ 16.21871434749686, 63.522427044775284 ], [ 15.645636511996919, 63.912104189822365 ] ] ] ] } },
{ "type": "Feature", "properties": { "geogrid_id": "863944259013128816", "seqnum": 26893.0, "lat_c": 63.944259040895027, "lon_c": 13.12881607347768, "res": 8.0, "count_Insects": 812, "count_Flowering Plants": 600, "count_Birds": 198, "count_Mosses": 359, "count_Basidiomycota": 482, "count_Sac Fungi": 836, "count_Ferns": 22, "count_Gymnosperms": 8, "count_Mammals": 20, "count_Molluscs": 12, "count_Arachnids": 112, "count_Amphibians": 3, "count_Reptiles": 1, "unique_species_count": 3465.0, "countryCode": "SE" }, "geometry": { "type": "MultiPolygon", "coordinates": [ [ [ [ 11.875317158814138, 63.945344913480142 ], [ 12.516961359793529, 64.327029012544514 ], [ 13.787369313479845, 64.319549615752052 ], [ 14.385731392678567, 63.933126266745901 ], [ 13.727420006730968, 63.56096855122 ], [ 12.486780688373376, 63.565709014834901 ], [ 11.875317158814138, 63.945344913480142 ] ] ] ] } },
{ "type": "Feature", "properties": { "geogrid_id": "864189446018894292", "seqnum": 26809.0, "lat_c": 64.189445593433291, "lon_c": 18.894291685031501, "res": 8.0, "count_Insects": 4990, "count_Flowering Plants": 783, "count_Birds": 237, "count_Mosses": 237, "count_Basidiomycota": 829, "count_Sac Fungi": 440, "count_Ferns": 16, "count_Gymnosperms": 12, "count_Mammals": 36, "count_Molluscs": 24, "count_Arachnids": 263, "count_Amphibians": 4, "count_Reptiles": 4, "unique_species_count": 7875.0, "countryCode": "SE" }, "geometry": { "type": "MultiPolygon", "coordinates": [ [ [ [ 17.614484188078489, 64.236609517752342 ], [ 18.33814635310549, 64.588000156028855 ], [ 19.632835097693, 64.533729850754071 ], [ 20.175803957973411, 64.132926879628741 ], [ 19.440251277136539, 63.791710358428425 ], [ 18.173104739269892, 63.841164209676506 ], [ 17.614484188078489, 64.236609517752342 ] ] ] ] } },
{ "type": "Feature", "properties": { "geogrid_id": "864301871015060709", "seqnum": 26892.0, "lat_c": 64.30187130782474, "lon_c": 15.060708845249202, "res": 8.0, "count_Insects": 1586, "count_Flowering Plants": 699, "count_Birds": 226, "count_Mosses": 248, "count_Basidiomycota": 587, "count_Sac Fungi": 441, "count_Ferns": 23, "count_Gymnosperms": 9, "count_Mammals": 27, "count_Molluscs": 27, "count_Arachnids": 40, "count_Amphibians": 3, "count_Reptiles": 2, "unique_species_count": 3918.0, "countryCode": "SE" }, "geometry": { "type": "MultiPolygon", "coordinates": [ [ [ [ 13.787369313479845, 64.319549615752052 ], [ 14.463029075462989, 64.691472633727386 ], [ 15.752921787083155, 64.667091089547895 ], [ 16.336534668187134, 64.274159829544644 ], [ 15.645636511996919, 63.912104189822365 ], [ 14.385731392678567, 63.933126266745901 ], [ 13.787369313479845, 64.319549615752052 ] ] ] ] } },
{ "type": "Feature", "properties": { "geogrid_id": "864469991020928670", "seqnum": 26808.0, "lat_c": 64.469991182354377, "lon_c": 20.928670285060132, "res": 8.0, "count_Insects": 3643, "count_Flowering Plants": 770, "count_Birds": 301, "count_Mosses": 173, "count_Basidiomycota": 746, "count_Sac Fungi": 425, "count_Ferns": 14, "count_Gymnosperms": 10, "count_Mammals": 37, "count_Molluscs": 35, "count_Arachnids": 162, "count_Amphibians": 4, "count_Reptiles": 4, "unique_species_count": 6324.0, "countryCode": "SE" }, "geometry": { "type": "MultiPolygon", "coordinates": [ [ [ [ 19.632835097693, 64.533729850754071 ], [ 20.389237639373672, 64.873887269529632 ], [ 21.699321361454892, 64.802770638273117 ], [ 22.225643358693635, 64.39709164231742 ], [ 21.458997757865944, 64.067349060722592 ], [ 20.175803957973411, 64.132926879628741 ], [ 19.632835097693, 64.533729850754071 ] ] ] ] } },
{ "type": "Feature", "properties": { "geogrid_id": "864632532017044752", "seqnum": 26891.0, "lat_c": 64.632532352714179, "lon_c": 17.044752166587809, "res": 8.0, "count_Insects": 1806, "count_Flowering Plants": 550, "count_Birds": 232, "count_Mosses": 213, "count_Basidiomycota": 562, "count_Sac Fungi": 288, "count_Ferns": 14, "count_Gymnosperms": 9, "count_Mammals": 27, "count_Molluscs": 33, "count_Arachnids": 38, "count_Amphibians": 4, "count_Reptiles": 2, "unique_species_count": 3778.0, "countryCode": "SE" }, "geometry": { "type": "MultiPolygon", "coordinates": [ [ [ [ 15.752921787083155, 64.667091089547895 ], [ 16.462954975479718, 65.028667068868771 ], [ 17.770848855562949, 64.98709910468736 ], [ 18.33814635310549, 64.588000156028855 ], [ 17.614484188078489, 64.236609517752342 ], [ 16.336534668187134, 64.274159829544644 ], [ 15.752921787083155, 64.667091089547895 ] ] ] ] } },
{ "type": "Feature", "properties": { "geogrid_id": "864705503013175538", "seqnum": 26974.0, "lat_c": 64.705502550849758, "lon_c": 13.175537526164707, "res": 8.0, "count_Insects": 713, "count_Flowering Plants": 453, "count_Birds": 167, "count_Mosses": 266, "count_Basidiomycota": 335, "count_Sac Fungi": 645, "count_Ferns": 20, "count_Gymnosperms": 4, "count_Mammals": 21, "count_Molluscs": 8, "count_Arachnids": 40, "count_Amphibians": 1, "count_Reptiles": 1, "unique_species_count": 2674.0, "countryCode": "SE" }, "geometry": { "type": "MultiPolygon", "coordinates": [ [ [ [ 11.890986561168077, 64.709033742342953 ], [ 12.549326317188372, 65.090738089319274 ], [ 13.851671378603164, 65.080656260346444 ], [ 14.463029075462989, 64.691472633727386 ], [ 13.787369313479845, 64.319549615752052 ], [ 12.516961359793529, 64.327029012544514 ], [ 11.890986561168077, 64.709033742342953 ] ] ] ] } },
{ "type": "Feature", "properties": { "geogrid_id": "864722394023009961", "seqnum": 26807.0, "lat_c": 64.722393757433963, "lon_c": 23.009960678240546, "res": 8.0, "count_Insects": 0, "count_Flowering Plants": 0, "count_Birds": 11, "count_Mosses": 0, "count_Basidiomycota": 0, "count_Sac Fungi": 0, "count_Ferns": 0, "count_Gymnosperms": 0, "count_Mammals": 0, "count_Molluscs": 0, "count_Arachnids": 0, "count_Amphibians": 0, "count_Reptiles": 0, "unique_species_count": 11.0, "countryCode": "SE" }, "geometry": { "type": "MultiPolygon", "coordinates": [ [ [ [ 21.699321361454892, 64.802770638273117 ], [ 22.488230448871164, 65.131126924858293 ], [ 23.812386953154054, 65.04311480593698 ], [ 23.935607854038192, 64.480886678853636 ], [ 23.146663030693279, 64.160924677323536 ], [ 22.225643358693635, 64.39709164231742 ], [ 21.699321361454892, 64.802770638273117 ] ] ] ] } },
{ "type": "Feature", "properties": { "geogrid_id": "864935424019079700", "seqnum": 26890.0, "lat_c": 64.935423826860614, "lon_c": 19.079700010563709, "res": 8.0, "count_Insects": 2870, "count_Flowering Plants": 572, "count_Birds": 257, "count_Mosses": 202, "count_Basidiomycota": 566, "count_Sac Fungi": 281, "count_Ferns": 15, "count_Gymnosperms": 9, "count_Mammals": 33, "count_Molluscs": 34, "count_Arachnids": 44, "count_Amphibians": 4, "count_Reptiles": 3, "unique_species_count": 4890.0, "countryCode": "SE" }, "geometry": { "type": "MultiPolygon", "coordinates": [ [ [ [ 17.770848855562949, 64.98709910468736 ], [ 18.515396247190434, 65.337731285968218 ], [ 19.839686004088616, 65.278748114747074 ], [ 20.389237639373672, 64.873887269529632 ], [ 19.632835097693, 64.533729850754071 ], [ 18.33814635310549, 64.588000156028855 ], [ 17.770848855562949, 64.98709910468736 ] ] ] ] } },
{ "type": "Feature", "properties": { "geogrid_id": "865059914015156402", "seqnum": 26973.0, "lat_c": 65.059914023291896, "lon_c": 15.156402158950046, "res": 8.0, "count_Insects": 1970, "count_Flowering Plants": 583, "count_Birds": 225, "count_Mosses": 337, "count_Basidiomycota": 687, "count_Sac Fungi": 693, "count_Ferns": 22, "count_Gymnosperms": 8, "count_Mammals": 25, "count_Molluscs": 30, "count_Arachnids": 61, "count_Amphibians": 2, "count_Reptiles": 2, "unique_species_count": 4645.0, "countryCode": "SE" }, "geometry": { "type": "MultiPolygon", "coordinates": [ [ [ [ 13.851671378603164, 65.080656260346444 ], [ 14.546009471591015, 65.452374635272562 ], [ 15.868113251033892, 65.424753464363448 ], [ 16.462954975479718, 65.028667068868771 ], [ 15.752921787083155, 64.667091089547895 ], [ 14.463029075462989, 64.691472633727386 ], [ 13.851671378603164, 65.080656260346444 ] ] ] ] } },
{ "type": "Feature", "properties": { "geogrid_id": "865209782021164007", "seqnum": 26889.0, "lat_c": 65.209782256751339, "lon_c": 21.16400726225293, "res": 8.0, "count_Insects": 3148, "count_Flowering Plants": 1140, "count_Birds": 301, "count_Mosses": 170, "count_Basidiomycota": 598, "count_Sac Fungi": 233, "count_Ferns": 17, "count_Gymnosperms": 17, "count_Mammals": 32, "count_Molluscs": 24, "count_Arachnids": 151, "count_Amphibians": 4, "count_Reptiles": 2, "unique_species_count": 5837.0, "countryCode": "SE" }, "geometry": { "type": "MultiPolygon", "coordinates": [ [ [ [ 19.839686004088616, 65.278748114747074 ], [ 20.618652427487277, 65.617834371895057 ], [ 21.957655759750867, 65.541273172779484 ], [ 22.488230448871164, 65.131126924858293 ], [ 21.699321361454892, 64.802770638273117 ], [ 20.389237639373672, 64.873887269529632 ], [ 19.839686004088616, 65.278748114747074 ] ] ] ] } },
{ "type": "Feature", "properties": { "geogrid_id": "865386474017191408", "seqnum": 26972.0, "lat_c": 65.386474485294485, "lon_c": 17.191407984266213, "res": 8.0, "count_Insects": 1487, "count_Flowering Plants": 499, "count_Birds": 266, "count_Mosses": 171, "count_Basidiomycota": 556, "count_Sac Fungi": 276, "count_Ferns": 14, "count_Gymnosperms": 6, "count_Mammals": 23, "count_Molluscs": 31, "count_Arachnids": 41, "count_Amphibians": 4, "count_Reptiles": 2, "unique_species_count": 3376.0, "countryCode": "SE" }, "geometry": { "type": "MultiPolygon", "coordinates": [ [ [ [ 15.868113251033892, 65.424753464363448 ], [ 16.59880452027766, 65.785864098280996 ], [ 17.938894506269847, 65.740382097890347 ], [ 18.515396247190434, 65.337731285968218 ], [ 17.770848855562949, 64.98709910468736 ], [ 16.462954975479718, 65.028667068868771 ], [ 15.868113251033892, 65.424753464363448 ] ] ] ] } },
{ "type": "Feature", "properties": { "geogrid_id": "865454916023295871", "seqnum": 26888.0, "lat_c": 65.454915895504087, "lon_c": 23.295871322598899, "res": 8.0, "count_Insects": 2587, "count_Flowering Plants": 934, "count_Birds": 311, "count_Mosses": 143, "count_Basidiomycota": 736, "count_Sac Fungi": 251, "count_Ferns": 13, "count_Gymnosperms": 10, "count_Mammals": 34, "count_Molluscs": 29, "count_Arachnids": 187, "count_Amphibians": 4, "count_Reptiles": 3, "unique_species_count": 5242.0, "countryCode": "SE" }, "geometry": { "type": "MultiPolygon", "coordinates": [ [ [ [ 21.957655759750867, 65.541273172779484 ], [ 22.770697089196428, 65.868212175326633 ], [ 24.12271639974276, 65.773987462891114 ], [ 24.633356734593509, 65.359108619129302 ], [ 23.812386953154054, 65.04311480593698 ], [ 22.488230448871164, 65.131126924858293 ], [ 21.957655759750867, 65.541273172779484 ] ] ] ] } },
{ "type": "Feature", "properties": { "geogrid_id": "865469173013225684", "seqnum": 27055.0, "lat_c": 65.469173094558343, "lon_c": 13.225684193283884, "res": 8.0, "count_Insects": 24, "count_Flowering Plants": 19, "count_Birds": 2, "count_Mosses": 0, "count_Basidiomycota": 8, "count_Sac Fungi": 25, "count_Ferns": 1, "count_Gymnosperms": 0, "count_Mammals": 0, "count_Molluscs": 0, "count_Arachnids": 0, "count_Amphibians": 0, "count_Reptiles": 0, "unique_species_count": 79.0, "countryCode": "SE" }, "geometry": { "type": "MultiPolygon", "coordinates": [ [ [ [ 11.907800963209192, 65.475010954171452 ], [ 12.58408809679211, 65.856775820777472 ], [ 13.92074893806056, 65.844221889129031 ], [ 14.546009471591015, 65.452374635272562 ], [ 13.851671378603164, 65.080656260346444 ], [ 12.549326317188372, 65.090738089319274 ], [ 11.907800963209192, 65.475010954171452 ] ] ] ] } },
{ "type": "Feature", "properties": { "geogrid_id": "865670223025473300", "seqnum": 26887.0, "lat_c": 65.670223382802462, "lon_c": 25.473299858708643, "res": 8.0, "count_Insects": 0, "count_Flowering Plants": 14, "count_Birds": 9, "count_Mosses": 0, "count_Basidiomycota": 0, "count_Sac Fungi": 0, "count_Ferns": 1, "count_Gymnosperms": 0, "count_Mammals": 1, "count_Molluscs": 0, "count_Arachnids": 0, "count_Amphibians": 0, "count_Reptiles": 0, "unique_species_count": 25.0, "countryCode": "SE" }, "geometry": { "type": "MultiPolygon", "coordinates": [ [ [ [ 24.12271639974276, 65.773987462891114 ], [ 24.969234623160752, 66.088185498583528 ], [ 26.332639182739047, 65.976301579793741 ], [ 26.41041703360651, 65.412187661107026 ], [ 25.567090646334574, 65.106665986232443 ], [ 24.633356734593509, 65.359108619129302 ], [ 24.12271639974276, 65.773987462891114 ] ] ] ] } },
{ "type": "Feature", "properties": { "geogrid_id": "865684294019278977", "seqnum": 26971.0, "lat_c": 65.684293719305188, "lon_c": 19.278976545858466, "res": 8.0, "count_Insects": 1437, "count_Flowering Plants": 731, "count_Birds": 227, "count_Mosses": 183, "count_Basidiomycota": 480, "count_Sac Fungi": 292, "count_Ferns": 15, "count_Gymnosperms": 8, "count_Mammals": 21, "count_Molluscs": 11, "count_Arachnids": 44, "count_Amphibians": 3, "count_Reptiles": 2, "unique_species_count": 3454.0, "countryCode": "SE" }, "geometry": { "type": "MultiPolygon", "coordinates": [ [ [ [ 17.938894506269847, 65.740382097890347 ], [ 18.706041451082349, 66.090251920215692 ], [ 20.062181459250816, 66.026644618756393 ], [ 20.618652427487277, 65.617834371895057 ], [ 19.839686004088616, 65.278748114747074 ], [ 18.515396247190434, 65.337731285968218 ], [ 17.938894506269847, 65.740382097890347 ] ] ] ] } },
{ "type": "Feature", "properties": { "geogrid_id": "865820536015259219", "seqnum": 27054.0, "lat_c": 65.820535618618862, "lon_c": 15.259219091188877, "res": 8.0, "count_Insects": 2118, "count_Flowering Plants": 561, "count_Birds": 235, "count_Mosses": 357, "count_Basidiomycota": 704, "count_Sac Fungi": 411, "count_Ferns": 21, "count_Gymnosperms": 11, "count_Mammals": 30, "count_Molluscs": 29, "count_Arachnids": 65, "count_Amphibians": 3, "count_Reptiles": 1, "unique_species_count": 4546.0, "countryCode": "SE" }, "geometry": { "type": "MultiPolygon", "coordinates": [ [ [ [ 13.92074893806056, 65.844221889129031 ], [ 14.635233193070066, 66.215760738822908 ], [ 15.991987988122546, 66.18501027858396 ], [ 16.59880452027766, 65.785864098280996 ], [ 15.868113251033892, 65.424753464363448 ], [ 14.546009471591015, 65.452374635272562 ], [ 13.92074893806056, 65.844221889129031 ] ] ] ] } },
{ "type": "Feature", "properties": { "geogrid_id": "865952538021417153", "seqnum": 26970.0, "lat_c": 65.952537523861466, "lon_c": 21.417153176044568, "res": 8.0, "count_Insects": 3537, "count_Flowering Plants": 1033, "count_Birds": 303, "count_Mosses": 251, "count_Basidiomycota": 848, "count_Sac Fungi": 373, "count_Ferns": 15, "count_Gymnosperms": 14, "count_Mammals": 39, "count_Molluscs": 28, "count_Arachnids": 182, "count_Amphibians": 3, "count_Reptiles": 3, "unique_species_count": 6629.0, "countryCode": "SE" }, "geometry": { "type": "MultiPolygon", "coordinates": [ [ [ [ 20.062181459250816, 66.026644618756393 ], [ 20.865610765702421, 66.364635363043803 ], [ 22.235746248569889, 66.282705883734579 ], [ 22.770697089196428, 65.868212175326633 ], [ 21.957655759750867, 65.541273172779484 ], [ 20.618652427487277, 65.617834371895057 ], [ 20.062181459250816, 66.026644618756393 ] ] ] ] } },
{ "type": "Feature", "properties": { "geogrid_id": "866143112017349135", "seqnum": 27053.0, "lat_c": 66.143112231685919, "lon_c": 17.349135023649797, "res": 8.0, "count_Insects": 1437, "count_Flowering Plants": 701, "count_Birds": 217, "count_Mosses": 201, "count_Basidiomycota": 367, "count_Sac Fungi": 265, "count_Ferns": 18, "count_Gymnosperms": 9, "count_Mammals": 22, "count_Molluscs": 20, "count_Arachnids": 99, "count_Amphibians": 3, "count_Reptiles": 2, "unique_species_count": 3361.0, "countryCode": "SE" }, "geometry": { "type": "MultiPolygon", "coordinates": [ [ [ [ 15.991987988122546, 66.18501027858396 ], [ 16.745023917527185, 66.545662476128484 ], [ 18.119779897929281, 66.496357035869153 ], [ 18.706041451082349, 66.090251920215692 ], [ 17.938894506269847, 65.740382097890347 ], [ 16.59880452027766, 65.785864098280996 ], [ 15.991987988122546, 66.18501027858396 ] ] ] ] } },
{ "type": "Feature", "properties": { "geogrid_id": "866190445023603645", "seqnum": 26969.0, "lat_c": 66.190445075990354, "lon_c": 23.603645445105798, "res": 8.0, "count_Insects": 2726, "count_Flowering Plants": 978, "count_Birds": 235, "count_Mosses": 171, "count_Basidiomycota": 433, "count_Sac Fungi": 157, "count_Ferns": 12, "count_Gymnosperms": 10, "count_Mammals": 30, "count_Molluscs": 8, "count_Arachnids": 82, "count_Amphibians": 3, "count_Reptiles": 2, "unique_species_count": 4847.0, "countryCode": "SE" }, "geometry": { "type": "MultiPolygon", "coordinates": [ [ [ [ 22.235746248569889, 66.282705883734579 ], [ 23.074991775418514, 66.608180977851788 ], [ 24.457013061817172, 66.507811212532829 ], [ 24.969234623160752, 66.088185498583528 ], [ 24.12271639974276, 65.773987462891114 ], [ 22.770697089196428, 65.868212175326633 ], [ 22.235746248569889, 66.282705883734579 ] ] ] ] } },
{ "type": "Feature", "properties": { "geogrid_id": "866435939019493488", "seqnum": 27052.0, "lat_c": 66.435938955156615, "lon_c": 19.493487810453598, "res": 8.0, "count_Insects": 2948, "count_Flowering Plants": 575, "count_Birds": 236, "count_Mosses": 232, "count_Basidiomycota": 945, "count_Sac Fungi": 471, "count_Ferns": 14, "count_Gymnosperms": 9, "count_Mammals": 30, "count_Molluscs": 28, "count_Arachnids": 143, "count_Amphibians": 3, "count_Reptiles": 2, "unique_species_count": 5636.0, "countryCode": "SE" }, "geometry": { "type": "MultiPolygon", "coordinates": [ [ [ [ 18.119779897929281, 66.496357035869153 ], [ 18.911429304061265, 66.845450243519338 ], [ 20.301883261283972, 66.777290932014708 ], [ 20.865610765702421, 66.364635363043803 ], [ 20.062181459250816, 66.026644618756393 ], [ 18.706041451082349, 66.090251920215692 ], [ 18.119779897929281, 66.496357035869153 ] ] ] ] } },
{ "type": "Feature", "properties": { "geogrid_id": "866583659015369873", "seqnum": 27135.0, "lat_c": 66.583658684174111, "lon_c": 15.369873396801545, "res": 8.0, "count_Insects": 709, "count_Flowering Plants": 459, "count_Birds": 134, "count_Mosses": 346, "count_Basidiomycota": 66, "count_Sac Fungi": 279, "count_Ferns": 20, "count_Gymnosperms": 3, "count_Mammals": 17, "count_Molluscs": 13, "count_Arachnids": 25, "count_Amphibians": 2, "count_Reptiles": 1, "unique_species_count": 2074.0, "countryCode": "SE" }, "geometry": { "type": "MultiPolygon", "coordinates": [ [ [ [ 13.995082012424383, 66.610178011614181 ], [ 14.731337975755137, 66.98155708866841 ], [ 16.125429490680439, 66.947777168320158 ], [ 16.745023917527185, 66.545662476128484 ], [ 15.991987988122546, 66.18501027858396 ], [ 14.635233193070066, 66.215760738822908 ], [ 13.995082012424383, 66.610178011614181 ] ] ] ] } },
{ "type": "Feature", "properties": { "geogrid_id": "866698110021689871", "seqnum": 27051.0, "lat_c": 66.698110275912242, "lon_c": 21.689870610186809, "res": 8.0, "count_Insects": 1885, "count_Flowering Plants": 640, "count_Birds": 191, "count_Mosses": 156, "count_Basidiomycota": 478, "count_Sac Fungi": 241, "count_Ferns": 11, "count_Gymnosperms": 8, "count_Mammals": 21, "count_Molluscs": 12, "count_Arachnids": 47, "count_Amphibians": 3, "count_Reptiles": 2, "unique_species_count": 3695.0, "countryCode": "SE" }, "geometry": { "type": "MultiPolygon", "coordinates": [ [ [ [ 20.301883261283972, 66.777290932014708 ], [ 21.131886473867844, 67.11414804865268 ], [ 22.53557149964605, 67.026906416646852 ], [ 23.074991775418514, 66.608180977851788 ], [ 22.235746248569889, 66.282705883734579 ], [ 20.865610765702421, 66.364635363043803 ], [ 20.301883261283972, 66.777290932014708 ] ] ] ] } },
{ "type": "Feature", "properties": { "geogrid_id": "866902349017519054", "seqnum": 27134.0, "lat_c": 66.902348525086254, "lon_c": 17.519053953235044, "res": 8.0, "count_Insects": 915, "count_Flowering Plants": 479, "count_Birds": 187, "count_Mosses": 385, "count_Basidiomycota": 433, "count_Sac Fungi": 372, "count_Ferns": 23, "count_Gymnosperms": 4, "count_Mammals": 21, "count_Molluscs": 6, "count_Arachnids": 14, "count_Amphibians": 1, "count_Reptiles": 2, "unique_species_count": 2842.0, "countryCode": "SE" }, "geometry": { "type": "MultiPolygon", "coordinates": [ [ [ [ 16.125429490680439, 66.947777168320158 ], [ 16.902684391130915, 67.307969654012624 ], [ 18.314823540821667, 67.254916846697711 ], [ 18.911429304061265, 66.845450243519338 ], [ 18.119779897929281, 66.496357035869153 ], [ 16.745023917527185, 66.545662476128484 ], [ 16.125429490680439, 66.947777168320158 ] ] ] ] } },
{ "type": "Feature", "properties": { "geogrid_id": "866928797023935450", "seqnum": 27050.0, "lat_c": 66.928797386469611, "lon_c": 23.93544974694823, "res": 8.0, "count_Insects": 1734, "count_Flowering Plants": 600, "count_Birds": 190, "count_Mosses": 132, "count_Basidiomycota": 224, "count_Sac Fungi": 185, "count_Ferns": 11, "count_Gymnosperms": 7, "count_Mammals": 20, "count_Molluscs": 7, "count_Arachnids": 36, "count_Amphibians": 3, "count_Reptiles": 2, "unique_species_count": 3151.0, "countryCode": "SE" }, "geometry": { "type": "MultiPolygon", "coordinates": [ [ [ [ 22.53557149964605, 67.026906416646852 ], [ 23.403325967083308, 67.350853384380187 ], [ 24.817677416467411, 67.244382603248823 ], [ 25.331307724208457, 66.820143340490276 ], [ 24.457013061817172, 66.507811212532829 ], [ 23.074991775418514, 66.608180977851788 ], [ 22.53557149964605, 67.026906416646852 ] ] ] ] } },
{ "type": "Feature", "properties": { "geogrid_id": "867190236019724787", "seqnum": 27133.0, "lat_c": 67.190235845239712, "lon_c": 19.724787089907075, "res": 8.0, "count_Insects": 1418, "count_Flowering Plants": 566, "count_Birds": 235, "count_Mosses": 177, "count_Basidiomycota": 788, "count_Sac Fungi": 502, "count_Ferns": 15, "count_Gymnosperms": 9, "count_Mammals": 32, "count_Molluscs": 32, "count_Arachnids": 140, "count_Amphibians": 3, "count_Reptiles": 2, "unique_species_count": 3919.0, "countryCode": "SE" }, "geometry": { "type": "MultiPolygon", "coordinates": [ [ [ [ 18.314823540821667, 67.254916846697711 ], [ 19.133095249781633, 67.603207620903433 ], [ 20.56056913377914, 67.530549788693349 ], [ 21.131886473867844, 67.11414804865268 ], [ 20.301883261283972, 66.777290932014708 ], [ 18.911429304061265, 66.845450243519338 ], [ 18.314823540821667, 67.254916846697711 ] ] ] ] } },
{ "type": "Feature", "properties": { "geogrid_id": "867349203015489178", "seqnum": 27216.0, "lat_c": 67.349202925291507, "lon_c": 15.489178494857745, "res": 8.0, "count_Insects": 444, "count_Flowering Plants": 338, "count_Birds": 109, "count_Mosses": 348, "count_Basidiomycota": 207, "count_Sac Fungi": 475, "count_Ferns": 16, "count_Gymnosperms": 2, "count_Mammals": 9, "count_Molluscs": 14, "count_Arachnids": 29, "count_Amphibians": 2, "count_Reptiles": 1, "unique_species_count": 1994.0, "countryCode": "SE" }, "geometry": { "type": "MultiPolygon", "coordinates": [ [ [ [ 14.075217919019952, 67.378454173400726 ], [ 14.83505236761934, 67.749687373214584 ], [ 16.26944643443025, 67.712966164950004 ], [ 16.902684391130915, 67.307969654012624 ], [ 16.125429490680439, 66.947777168320158 ], [ 14.731337975755137, 66.98155708866841 ], [ 14.075217919019952, 67.378454173400726 ] ] ] ] } },
{ "type": "Feature", "properties": { "geogrid_id": "867446343021984163", "seqnum": 27132.0, "lat_c": 67.446342721991655, "lon_c": 21.984163090852807, "res": 8.0, "count_Insects": 1427, "count_Flowering Plants": 635, "count_Birds": 213, "count_Mosses": 280, "count_Basidiomycota": 482, "count_Sac Fungi": 198, "count_Ferns": 15, "count_Gymnosperms": 7, "count_Mammals": 21, "count_Molluscs": 16, "count_Arachnids": 44, "count_Amphibians": 2, "count_Reptiles": 2, "unique_species_count": 3342.0, "countryCode": "SE" }, "geometry": { "type": "MultiPolygon", "coordinates": [ [ [ [ 20.56056913377914, 67.530549788693349 ], [ 21.419501328165545, 67.866219683791201 ], [ 22.859383340422561, 67.773699350700767 ], [ 23.403325967083308, 67.350853384380187 ], [ 22.53557149964605, 67.026906416646852 ], [ 21.131886473867844, 67.11414804865268 ], [ 20.56056913377914, 67.530549788693349 ] ] ] ] } },
{ "type": "Feature", "properties": { "geogrid_id": "867664081017702443", "seqnum": 27215.0, "lat_c": 67.664081231522815, "lon_c": 17.702443187241784, "res": 8.0, "count_Insects": 843, "count_Flowering Plants": 441, "count_Birds": 188, "count_Mosses": 337, "count_Basidiomycota": 433, "count_Sac Fungi": 544, "count_Ferns": 18, "count_Gymnosperms": 4, "count_Mammals": 13, "count_Molluscs": 18, "count_Arachnids": 21, "count_Amphibians": 1, "count_Reptiles": 1, "unique_species_count": 2862.0, "countryCode": "SE" }, "geometry": { "type": "MultiPolygon", "coordinates": [ [ [ [ 16.26944643443025, 67.712966164950004 ], [ 17.073011139540025, 68.072688573344351 ], [ 18.525532018764235, 68.015948219700419 ], [ 19.133095249781633, 67.603207620903433 ], [ 18.314823540821667, 67.254916846697711 ], [ 16.902684391130915, 67.307969654012624 ], [ 16.26944643443025, 67.712966164950004 ] ] ] ] } },
{ "type": "Feature", "properties": { "geogrid_id": "867669773024293746", "seqnum": 27131.0, "lat_c": 67.669773140339387, "lon_c": 24.293745872918336, "res": 8.0, "count_Insects": 498, "count_Flowering Plants": 445, "count_Birds": 153, "count_Mosses": 121, "count_Basidiomycota": 135, "count_Sac Fungi": 58, "count_Ferns": 9, "count_Gymnosperms": 5, "count_Mammals": 12, "count_Molluscs": 4, "count_Arachnids": 6, "count_Amphibians": 2, "count_Reptiles": 2, "unique_species_count": 1450.0, "countryCode": "SE" }, "geometry": { "type": "MultiPolygon", "coordinates": [ [ [ [ 22.859383340422561, 67.773699350700767 ], [ 23.758219245612199, 68.096034094518842 ], [ 25.207439311689708, 67.983479852738668 ], [ 25.722226351807524, 67.554756917891808 ], [ 24.817677416467411, 67.244382603248823 ], [ 23.403325967083308, 67.350853384380187 ], [ 22.859383340422561, 67.773699350700767 ] ] ] ] } },
{ "type": "Feature", "properties": { "geogrid_id": "867947052019974647", "seqnum": 27214.0, "lat_c": 67.94705243727978, "lon_c": 19.974647181250113, "res": 8.0, "count_Insects": 1534, "count_Flowering Plants": 594, "count_Birds": 235, "count_Mosses": 192, "count_Basidiomycota": 456, "count_Sac Fungi": 237, "count_Ferns": 17, "count_Gymnosperms": 6, "count_Mammals": 27, "count_Molluscs": 13, "count_Arachnids": 173, "count_Amphibians": 2, "count_Reptiles": 2, "unique_species_count": 3488.0, "countryCode": "SE" }, "geometry": { "type": "MultiPolygon", "coordinates": [ [ [ [ 18.525532018764235, 68.015948219700419 ], [ 19.372796584120049, 68.363397763042144 ], [ 20.8402709837092, 68.2862739491204 ], [ 21.419501328165545, 67.866219683791201 ], [ 20.56056913377914, 67.530549788693349 ], [ 19.133095249781633, 67.603207620903433 ], [ 18.525532018764235, 68.015948219700419 ] ] ] ] } },
{ "type": "Feature", "properties": { "geogrid_id": "868197065022302317", "seqnum": 27213.0, "lat_c": 68.197064517959475, "lon_c": 22.302317160242758, "res": 8.0, "count_Insects": 1564, "count_Flowering Plants": 472, "count_Birds": 183, "count_Mosses": 187, "count_Basidiomycota": 184, "count_Sac Fungi": 204, "count_Ferns": 16, "count_Gymnosperms": 5, "count_Mammals": 19, "count_Molluscs": 4, "count_Arachnids": 34, "count_Amphibians": 1, "count_Reptiles": 2, "unique_species_count": 2875.0, "countryCode": "SE" }, "geometry": { "type": "MultiPolygon", "coordinates": [ [ [ [ 20.8402709837092, 68.2862739491204 ], [ 21.730769425237323, 68.620685534872578 ], [ 23.209754843290408, 68.52289438621213 ], [ 23.758219245612199, 68.096034094518842 ], [ 22.859383340422561, 67.773699350700767 ], [ 21.419501328165545, 67.866219683791201 ], [ 20.8402709837092, 68.2862739491204 ] ] ] ] } },
{ "type": "Feature", "properties": { "geogrid_id": "868428203017900767", "seqnum": 27296.0, "lat_c": 68.428202583850648, "lon_c": 17.900767483942197, "res": 8.0, "count_Insects": 2025, "count_Flowering Plants": 616, "count_Birds": 214, "count_Mosses": 386, "count_Basidiomycota": 486, "count_Sac Fungi": 673, "count_Ferns": 22, "count_Gymnosperms": 5, "count_Mammals": 25, "count_Molluscs": 26, "count_Arachnids": 167, "count_Amphibians": 2, "count_Reptiles": 1, "unique_species_count": 4648.0, "countryCode": "SE" }, "geometry": { "type": "MultiPolygon", "coordinates": [ [ [ [ 16.425195564355871, 68.480485354442564 ], [ 17.25741188595978, 68.839717168212232 ], [ 18.75363452326425, 68.779330834592514 ], [ 19.372796584120049, 68.363397763042144 ], [ 18.525532018764235, 68.015948219700419 ], [ 17.073011139540025, 68.072688573344351 ], [ 16.425195564355871, 68.480485354442564 ] ] ] ] } },
{ "type": "Feature", "properties": { "geogrid_id": "868706247020245100", "seqnum": 27295.0, "lat_c": 68.706247428320239, "lon_c": 20.245100222897797, "res": 8.0, "count_Insects": 1012, "count_Flowering Plants": 362, "count_Birds": 135, "count_Mosses": 136, "count_Basidiomycota": 14, "count_Sac Fungi": 226, "count_Ferns": 15, "count_Gymnosperms": 2, "count_Mammals": 11, "count_Molluscs": 12, "count_Arachnids": 107, "count_Amphibians": 1, "count_Reptiles": 1, "unique_species_count": 2034.0, "countryCode": "SE" }, "geometry": { "type": "MultiPolygon", "coordinates": [ [ [ [ 18.75363452326425, 68.779330834592514 ], [ 19.632553688497033, 69.125885700679618 ], [ 21.143321512086455, 69.044304805116212 ], [ 21.730769425237323, 68.620685534872578 ], [ 20.8402709837092, 68.2862739491204 ], [ 19.372796584120049, 68.363397763042144 ], [ 18.75363452326425, 68.779330834592514 ] ] ] ] } }
]
}
