{
"type": "FeatureCollection",
"name": "SK",
"crs": { "type": "name", "properties": { "name": "urn:ogc:def:crs:OGC:1.3:CRS84" } },
"features": [
{ "type": "Feature", "properties": { "geogrid_id": "947695068017921092", "seqnum": 42605.0, "lat_c": 47.695068063697747, "lon_c": 17.921091870127292, "res": 9.0, "count_Molluscs": 24, "count_Basidiomycota": 5, "count_Mosses": 0, "count_Birds": 20, "count_Mammals": 6, "count_Sac Fungi": 2, "count_Arachnids": 9, "count_Amphibians": 4, "count_Insects": 604, "count_Flowering Plants": 569, "count_Reptiles": 4, "count_Gymnosperms": 5, "count_Ferns": 0, "unique_species_count": 1252.0, "countryCode": "SK" }, "geometry": { "type": "MultiPolygon", "coordinates": [ [ [ [ 18.172628598184332, 47.942048662061936 ], [ 18.367857842634152, 47.720396960577219 ], [ 18.116667351533067, 47.474109590054773 ], [ 17.671768250657642, 47.447625377648016 ], [ 17.474329801240213, 47.667252930875854 ], [ 17.723967035835077, 47.915408898078141 ], [ 18.172628598184332, 47.942048662061936 ] ] ] ] } },
{ "type": "Feature", "properties": { "geogrid_id": "947886242017275338", "seqnum": 42442.0, "lat_c": 47.886242273791304, "lon_c": 17.275337655408105, "res": 9.0, "count_Molluscs": 27, "count_Basidiomycota": 33, "count_Mosses": 8, "count_Birds": 206, "count_Mammals": 22, "count_Sac Fungi": 40, "count_Arachnids": 40, "count_Amphibians": 7, "count_Insects": 591, "count_Flowering Plants": 787, "count_Reptiles": 11, "count_Gymnosperms": 13, "count_Ferns": 1, "unique_species_count": 1786.0, "countryCode": "SK" }, "geometry": { "type": "MultiPolygon", "coordinates": [ [ [ [ 17.525275444884294, 48.135124656119402 ], [ 17.723967035835077, 47.915408898078141 ], [ 17.474329801240213, 47.667252930875854 ], [ 17.027613261120994, 47.636881047005012 ], [ 16.82678416519996, 47.854476901949973 ], [ 17.074774888454794, 48.104585857654982 ], [ 17.525275444884294, 48.135124656119402 ] ] ] ] } },
{ "type": "Feature", "properties": { "geogrid_id": "947966229018621281", "seqnum": 42686.0, "lat_c": 47.966229430965434, "lon_c": 18.621281380908844, "res": 9.0, "count_Molluscs": 38, "count_Basidiomycota": 16, "count_Mosses": 7, "count_Birds": 131, "count_Mammals": 15, "count_Sac Fungi": 11, "count_Arachnids": 36, "count_Amphibians": 8, "count_Insects": 588, "count_Flowering Plants": 920, "count_Reptiles": 7, "count_Gymnosperms": 3, "count_Ferns": 1, "unique_species_count": 1781.0, "countryCode": "SK" }, "geometry": { "type": "MultiPolygon", "coordinates": [ [ [ [ 18.876978903296855, 48.211606577563757 ], [ 19.069886945884484, 47.988015320595714 ], [ 18.814588730384337, 47.743306180340994 ], [ 18.367857842634152, 47.720396960577219 ], [ 18.172628598184332, 47.942048662061936 ], [ 18.426419132747007, 48.188567747565621 ], [ 18.876978903296855, 48.211606577563757 ] ] ] ] } },
{ "type": "Feature", "properties": { "geogrid_id": "948024642019966814", "seqnum": 42930.0, "lat_c": 48.024641671428689, "lon_c": 19.966814085248895, "res": 9.0, "count_Molluscs": 8, "count_Basidiomycota": 26, "count_Mosses": 20, "count_Birds": 42, "count_Mammals": 5, "count_Sac Fungi": 26, "count_Arachnids": 10, "count_Amphibians": 4, "count_Insects": 237, "count_Flowering Plants": 405, "count_Reptiles": 4, "count_Gymnosperms": 2, "count_Ferns": 5, "unique_species_count": 794.0, "countryCode": "SK" }, "geometry": { "type": "MultiPolygon", "coordinates": [ [ [ [ 20.22816066578914, 48.266724623942366 ], [ 20.415069659321038, 48.03959379247253 ], [ 20.154216147894644, 47.798127528473415 ], [ 19.707801204435107, 47.782113635899393 ], [ 19.518409175063113, 48.007466949365934 ], [ 19.777884365260896, 48.250628078300672 ], [ 20.22816066578914, 48.266724623942366 ] ] ] ] } },
{ "type": "Feature", "properties": { "geogrid_id": "948071406016624382", "seqnum": 42280.0, "lat_c": 48.071405904557203, "lon_c": 16.624382041834167, "res": 9.0, "count_Molluscs": 8, "count_Basidiomycota": 33, "count_Mosses": 4, "count_Birds": 67, "count_Mammals": 13, "count_Sac Fungi": 25, "count_Arachnids": 12, "count_Amphibians": 6, "count_Insects": 300, "count_Flowering Plants": 614, "count_Reptiles": 9, "count_Gymnosperms": 5, "count_Ferns": 5, "unique_species_count": 1101.0, "countryCode": "SK" }, "geometry": { "type": "MultiPolygon", "coordinates": [ [ [ [ 16.872624424728045, 48.322276093186687 ], [ 17.074774888454794, 48.104585857654982 ], [ 16.82678416519996, 47.854476901949973 ], [ 16.378353265619136, 47.820036578199996 ], [ 16.174145870159414, 48.035507149179708 ], [ 16.420390351990765, 48.287660364304408 ], [ 16.872624424728045, 48.322276093186687 ] ] ] ] } },
{ "type": "Feature", "properties": { "geogrid_id": "948163096017975838", "seqnum": 42524.0, "lat_c": 48.163095561393085, "lon_c": 17.975837857830793, "res": 9.0, "count_Molluscs": 31, "count_Basidiomycota": 31, "count_Mosses": 3, "count_Birds": 107, "count_Mammals": 10, "count_Sac Fungi": 23, "count_Arachnids": 19, "count_Amphibians": 3, "count_Insects": 375, "count_Flowering Plants": 963, "count_Reptiles": 6, "count_Gymnosperms": 15, "count_Ferns": 5, "unique_species_count": 1591.0, "countryCode": "SK" }, "geometry": { "type": "MultiPolygon", "coordinates": [ [ [ [ 18.229983535403719, 48.41031388688441 ], [ 18.426419132747007, 48.188567747565621 ], [ 18.172628598184332, 47.942048662061936 ], [ 17.723967035835077, 47.915408898078141 ], [ 17.525275444884294, 48.135124656119402 ], [ 17.777467590821491, 48.383530293626656 ], [ 18.229983535403719, 48.41031388688441 ] ] ] ] } },
{ "type": "Feature", "properties": { "geogrid_id": "948232274019327479", "seqnum": 42768.0, "lat_c": 48.232273858558607, "lon_c": 19.327479221299317, "res": 9.0, "count_Molluscs": 15, "count_Basidiomycota": 28, "count_Mosses": 5, "count_Birds": 195, "count_Mammals": 23, "count_Sac Fungi": 8, "count_Arachnids": 15, "count_Amphibians": 13, "count_Insects": 608, "count_Flowering Plants": 872, "count_Reptiles": 10, "count_Gymnosperms": 8, "count_Ferns": 6, "unique_species_count": 1806.0, "countryCode": "SK" }, "geometry": { "type": "MultiPolygon", "coordinates": [ [ [ [ 19.587407500808776, 48.476079901382725 ], [ 19.777884365260896, 48.250628078300672 ], [ 19.518409175063113, 48.007466949365934 ], [ 19.069886945884484, 47.988015320595714 ], [ 18.876978903296855, 48.211606577563757 ], [ 19.134992165234316, 48.456527379423427 ], [ 19.587407500808776, 48.476079901382725 ] ] ] ] } },
{ "type": "Feature", "properties": { "geogrid_id": "948280616020678276", "seqnum": 43012.0, "lat_c": 48.280615984770691, "lon_c": 20.678276346342962, "res": 9.0, "count_Molluscs": 3, "count_Basidiomycota": 5, "count_Mosses": 2, "count_Birds": 7, "count_Mammals": 10, "count_Sac Fungi": 2, "count_Arachnids": 2, "count_Amphibians": 0, "count_Insects": 104, "count_Flowering Plants": 233, "count_Reptiles": 4, "count_Gymnosperms": 2, "count_Ferns": 0, "unique_species_count": 374.0, "countryCode": "SK" }, "geometry": { "type": "MultiPolygon", "coordinates": [ [ [ [ 20.943878538820002, 48.521189991761204 ], [ 21.128201377922778, 48.292351940148002 ], [ 20.86314569238775, 48.052374769596092 ], [ 20.415069659321038, 48.03959379247253 ], [ 20.22816066578914, 48.266724623942366 ], [ 20.491883174763359, 48.508359060890825 ], [ 20.943878538820002, 48.521189991761204 ] ] ] ] } },
{ "type": "Feature", "properties": { "geogrid_id": "948312224022025566", "seqnum": 59197.0, "lat_c": 48.312224457593778, "lon_c": 22.025566477391845, "res": 9.0, "count_Molluscs": 5, "count_Basidiomycota": 1, "count_Mosses": 1, "count_Birds": 78, "count_Mammals": 3, "count_Sac Fungi": 6, "count_Arachnids": 3, "count_Amphibians": 7, "count_Insects": 114, "count_Flowering Plants": 766, "count_Reptiles": 6, "count_Gymnosperms": 0, "count_Ferns": 6, "unique_species_count": 996.0, "countryCode": "SK" }, "geometry": { "type": "MultiPolygon", "coordinates": [ [ [ [ 21.845655085519468, 48.542865034199799 ], [ 22.295661720280016, 48.552236993667556 ], [ 22.473229089634632, 48.320870215546876 ], [ 22.204010267575768, 48.081125957206162 ], [ 21.758646548609505, 48.071615973244 ], [ 21.577907347355659, 48.301979731567585 ], [ 21.845655085519468, 48.542865034199799 ] ] ] ] } },
{ "type": "Feature", "properties": { "geogrid_id": "948354208017325000", "seqnum": 42362.0, "lat_c": 48.354207857309156, "lon_c": 17.324999524583834, "res": 9.0, "count_Molluscs": 65, "count_Basidiomycota": 327, "count_Mosses": 14, "count_Birds": 204, "count_Mammals": 42, "count_Sac Fungi": 183, "count_Arachnids": 181, "count_Amphibians": 14, "count_Insects": 1495, "count_Flowering Plants": 1584, "count_Reptiles": 12, "count_Gymnosperms": 22, "count_Ferns": 16, "unique_species_count": 4159.0, "countryCode": "SK" }, "geometry": { "type": "MultiPolygon", "coordinates": [ [ [ [ 17.577499579980199, 48.60334544702463 ], [ 17.777467590821491, 48.383530293626656 ], [ 17.525275444884294, 48.135124656119402 ], [ 17.074774888454794, 48.104585857654982 ], [ 16.872624424728045, 48.322276093186687 ], [ 17.123121533685381, 48.572650976987838 ], [ 17.577499579980199, 48.60334544702463 ] ] ] ] } },
{ "type": "Feature", "properties": { "geogrid_id": "948434625018682505", "seqnum": 42606.0, "lat_c": 48.43462524932432, "lon_c": 18.682505005211649, "res": 9.0, "count_Molluscs": 9, "count_Basidiomycota": 68, "count_Mosses": 4, "count_Birds": 97, "count_Mammals": 15, "count_Sac Fungi": 43, "count_Arachnids": 17, "count_Amphibians": 9, "count_Insects": 335, "count_Flowering Plants": 1234, "count_Reptiles": 8, "count_Gymnosperms": 39, "count_Ferns": 14, "unique_species_count": 1892.0, "countryCode": "SK" }, "geometry": { "type": "MultiPolygon", "coordinates": [ [ [ [ 18.94092859302685, 48.680220475039576 ], [ 19.134992165234316, 48.456527379423427 ], [ 18.876978903296855, 48.211606577563757 ], [ 18.426419132747007, 48.188567747565621 ], [ 18.229983535403719, 48.41031388688441 ], [ 18.486446198854704, 48.657064168645398 ], [ 18.94092859302685, 48.680220475039576 ] ] ] ] } },
{ "type": "Feature", "properties": { "geogrid_id": "948493339020039716", "seqnum": 42850.0, "lat_c": 48.493339286933441, "lon_c": 20.039715637173611, "res": 9.0, "count_Molluscs": 17, "count_Basidiomycota": 72, "count_Mosses": 50, "count_Birds": 138, "count_Mammals": 17, "count_Sac Fungi": 48, "count_Arachnids": 31, "count_Amphibians": 11, "count_Insects": 776, "count_Flowering Plants": 837, "count_Reptiles": 7, "count_Gymnosperms": 7, "count_Ferns": 14, "unique_species_count": 2025.0, "countryCode": "SK" }, "geometry": { "type": "MultiPolygon", "coordinates": [ [ [ [ 20.303945898286045, 48.735597377328716 ], [ 20.491883174763359, 48.508359060890825 ], [ 20.22816066578914, 48.266724623942366 ], [ 19.777884365260896, 48.250628078300672 ], [ 19.587407500808776, 48.476079901382725 ], [ 19.84971454715204, 48.719431018357255 ], [ 20.303945898286045, 48.735597377328716 ] ] ] ] } },
{ "type": "Feature", "properties": { "geogrid_id": "948531880021395672", "seqnum": 59117.0, "lat_c": 48.531880266315227, "lon_c": 21.395671842961647, "res": 9.0, "count_Molluscs": 7, "count_Basidiomycota": 18, "count_Mosses": 1, "count_Birds": 105, "count_Mammals": 8, "count_Sac Fungi": 14, "count_Arachnids": 65, "count_Amphibians": 4, "count_Insects": 584, "count_Flowering Plants": 1112, "count_Reptiles": 6, "count_Gymnosperms": 26, "count_Ferns": 9, "unique_species_count": 1959.0, "countryCode": "SK" }, "geometry": { "type": "MultiPolygon", "coordinates": [ [ [ [ 21.211919352123452, 48.761311250452003 ], [ 21.664255710964095, 48.77304144196107 ], [ 21.845655085519468, 48.542865034199799 ], [ 21.577907347355659, 48.301979731567585 ], [ 21.128201377922778, 48.292351940148002 ], [ 20.943878538820002, 48.521189991761204 ], [ 21.211919352123452, 48.761311250452003 ] ] ] ] } },
{ "type": "Feature", "properties": { "geogrid_id": "948539305016668869", "seqnum": 42199.0, "lat_c": 48.539305349941543, "lon_c": 16.668869038504763, "res": 9.0, "count_Molluscs": 13, "count_Basidiomycota": 25, "count_Mosses": 2, "count_Birds": 57, "count_Mammals": 9, "count_Sac Fungi": 4, "count_Arachnids": 8, "count_Amphibians": 11, "count_Insects": 264, "count_Flowering Plants": 587, "count_Reptiles": 2, "count_Gymnosperms": 3, "count_Ferns": 2, "unique_species_count": 987.0, "countryCode": "SK" }, "geometry": { "type": "MultiPolygon", "coordinates": [ [ [ [ 16.919623562864203, 48.790446445629584 ], [ 17.123121533685381, 48.572650976987838 ], [ 16.872624424728045, 48.322276093186687 ], [ 16.420390351990765, 48.287660364304408 ], [ 16.214792425625756, 48.503232552837495 ], [ 16.463491354995163, 48.755665955681131 ], [ 16.919623562864203, 48.790446445629584 ] ] ] ] } },
{ "type": "Feature", "properties": { "geogrid_id": "948631461018031956", "seqnum": 42443.0, "lat_c": 48.631460556544951, "lon_c": 18.031955934752379, "res": 9.0, "count_Molluscs": 23, "count_Basidiomycota": 70, "count_Mosses": 22, "count_Birds": 125, "count_Mammals": 20, "count_Sac Fungi": 49, "count_Arachnids": 24, "count_Amphibians": 6, "count_Insects": 720, "count_Flowering Plants": 1149, "count_Reptiles": 9, "count_Gymnosperms": 16, "count_Ferns": 9, "unique_species_count": 2242.0, "countryCode": "SK" }, "geometry": { "type": "MultiPolygon", "coordinates": [ [ [ [ 18.288783210188704, 48.878916116198532 ], [ 18.486446198854704, 48.657064168645398 ], [ 18.229983535403719, 48.41031388688441 ], [ 17.777467590821491, 48.383530293626656 ], [ 17.577499579980199, 48.60334544702463 ], [ 17.832317472451003, 48.852000414167151 ], [ 18.288783210188704, 48.878916116198532 ] ] ] ] } },
{ "type": "Feature", "properties": { "geogrid_id": "948700990019395364", "seqnum": 42687.0, "lat_c": 48.700990238650704, "lon_c": 19.395363753801313, "res": 9.0, "count_Molluscs": 13, "count_Basidiomycota": 160, "count_Mosses": 45, "count_Birds": 94, "count_Mammals": 59, "count_Sac Fungi": 105, "count_Arachnids": 58, "count_Amphibians": 9, "count_Insects": 731, "count_Flowering Plants": 1350, "count_Reptiles": 10, "count_Gymnosperms": 12, "count_Ferns": 21, "unique_species_count": 2667.0, "countryCode": "SK" }, "geometry": { "type": "MultiPolygon", "coordinates": [ [ [ [ 19.658137101463559, 48.944992998475819 ], [ 19.84971454715204, 48.719431018357255 ], [ 19.587407500808776, 48.476079901382725 ], [ 19.134992165234316, 48.456527379423427 ], [ 18.94092859302685, 48.680220475039576 ], [ 19.20173313299675, 48.925352132675336 ], [ 19.658137101463559, 48.944992998475819 ] ] ] ] } },
{ "type": "Feature", "properties": { "geogrid_id": "948749541020758025", "seqnum": 42931.0, "lat_c": 48.749541076264052, "lon_c": 20.758024636127981, "res": 9.0, "count_Molluscs": 18, "count_Basidiomycota": 44, "count_Mosses": 21, "count_Birds": 121, "count_Mammals": 11, "count_Sac Fungi": 49, "count_Arachnids": 156, "count_Amphibians": 8, "count_Insects": 529, "count_Flowering Plants": 1110, "count_Reptiles": 8, "count_Gymnosperms": 11, "count_Ferns": 18, "unique_species_count": 2104.0, "countryCode": "SK" }, "geometry": { "type": "MultiPolygon", "coordinates": [ [ [ [ 21.026628883129444, 48.990266300311397 ], [ 21.211919351183347, 48.761311252732433 ], [ 20.943878538820002, 48.521189991761204 ], [ 20.491883174763359, 48.508359060890825 ], [ 20.303945898286045, 48.735597377328716 ], [ 20.570618876675738, 48.977398660141823 ], [ 21.026628883129444, 48.990266300311397 ] ] ] ] } },
{ "type": "Feature", "properties": { "geogrid_id": "948783145022116636", "seqnum": 59279.0, "lat_c": 48.783144725799716, "lon_c": 22.116636107857747, "res": 9.0, "count_Molluscs": 10, "count_Basidiomycota": 47, "count_Mosses": 9, "count_Birds": 172, "count_Mammals": 18, "count_Sac Fungi": 27, "count_Arachnids": 12, "count_Amphibians": 10, "count_Insects": 204, "count_Flowering Plants": 959, "count_Reptiles": 7, "count_Gymnosperms": 8, "count_Ferns": 15, "unique_species_count": 1498.0, "countryCode": "SK" }, "geometry": { "type": "MultiPolygon", "coordinates": [ [ [ [ 21.936131888735769, 49.013587193596443 ], [ 22.390962407703608, 49.022784446827806 ], [ 22.569041619934584, 48.791620081286666 ], [ 22.295661720280016, 48.552236993667556 ], [ 21.845655085519468, 48.542865034199799 ], [ 21.664255710964095, 48.77304144196107 ], [ 21.936131888735769, 49.013587193596443 ] ] ] ] } },
{ "type": "Feature", "properties": { "geogrid_id": "948822534017375915", "seqnum": 42281.0, "lat_c": 48.822533562250982, "lon_c": 17.375915421656885, "res": 9.0, "count_Molluscs": 17, "count_Basidiomycota": 43, "count_Mosses": 7, "count_Birds": 82, "count_Mammals": 11, "count_Sac Fungi": 22, "count_Arachnids": 11, "count_Amphibians": 8, "count_Insects": 281, "count_Flowering Plants": 859, "count_Reptiles": 4, "count_Gymnosperms": 9, "count_Ferns": 8, "unique_species_count": 1362.0, "countryCode": "SK" }, "geometry": { "type": "MultiPolygon", "coordinates": [ [ [ [ 17.631049085459001, 49.071926066471605 ], [ 17.832317472451003, 48.852000414167151 ], [ 17.577499579980199, 48.60334544702463 ], [ 17.123121533685381, 48.572650976987838 ], [ 16.919623562864203, 48.790446445629584 ], [ 17.172696525791505, 49.041087131557752 ], [ 17.631049085459001, 49.071926066471605 ] ] ] ] } },
{ "type": "Feature", "properties": { "geogrid_id": "948903346018745269", "seqnum": 42525.0, "lat_c": 48.903346054594017, "lon_c": 18.745268853251435, "res": 9.0, "count_Molluscs": 15, "count_Basidiomycota": 101, "count_Mosses": 31, "count_Birds": 198, "count_Mammals": 29, "count_Sac Fungi": 89, "count_Arachnids": 76, "count_Amphibians": 13, "count_Insects": 484, "count_Flowering Plants": 1280, "count_Reptiles": 12, "count_Gymnosperms": 15, "count_Ferns": 20, "unique_species_count": 2363.0, "countryCode": "SK" }, "geometry": { "type": "MultiPolygon", "coordinates": [ [ [ [ 19.006495391878509, 49.149158569514341 ], [ 19.20173313299675, 48.925352132675336 ], [ 18.94092859302685, 48.680220475039576 ], [ 18.486446198854704, 48.657064168645398 ], [ 18.288783210188704, 48.878916116198532 ], [ 18.547993055318248, 49.125896972338246 ], [ 19.006495391878509, 49.149158569514341 ] ] ] ] } },
{ "type": "Feature", "properties": { "geogrid_id": "948962324020114444", "seqnum": 42769.0, "lat_c": 48.962324255816952, "lon_c": 20.11444395561956, "res": 9.0, "count_Molluscs": 28, "count_Basidiomycota": 160, "count_Mosses": 130, "count_Birds": 121, "count_Mammals": 28, "count_Sac Fungi": 242, "count_Arachnids": 51, "count_Amphibians": 6, "count_Insects": 951, "count_Flowering Plants": 1181, "count_Reptiles": 9, "count_Gymnosperms": 13, "count_Ferns": 27, "unique_species_count": 2947.0, "countryCode": "SK" }, "geometry": { "type": "MultiPolygon", "coordinates": [ [ [ [ 20.381640168476874, 49.204756150224249 ], [ 20.570618876675738, 48.977398660141823 ], [ 20.303945898286045, 48.735597377328716 ], [ 19.84971454715204, 48.719431018357255 ], [ 19.658137101463559, 48.944992998475819 ], [ 19.923356500352316, 49.188532959229235 ], [ 20.381640168476874, 49.204756150224249 ] ] ] ] } },
{ "type": "Feature", "properties": { "geogrid_id": "949002747021481348", "seqnum": 59198.0, "lat_c": 49.002747380374039, "lon_c": 21.481347666598811, "res": 9.0, "count_Molluscs": 12, "count_Basidiomycota": 52, "count_Mosses": 3, "count_Birds": 85, "count_Mammals": 13, "count_Sac Fungi": 32, "count_Arachnids": 29, "count_Amphibians": 6, "count_Insects": 323, "count_Flowering Plants": 1148, "count_Reptiles": 7, "count_Gymnosperms": 11, "count_Ferns": 21, "unique_species_count": 1742.0, "countryCode": "SK" }, "geometry": { "type": "MultiPolygon", "coordinates": [ [ [ [ 21.296909954812758, 49.231976492240015 ], [ 21.754128390580046, 49.243558125605716 ], [ 21.936131888735769, 49.013587193596443 ], [ 21.664255710964095, 48.77304144196107 ], [ 21.211919352123452, 48.761311250452003 ], [ 21.026628884080047, 48.990266298029951 ], [ 21.296909954812758, 49.231976492240015 ] ] ] ] } },
{ "type": "Feature", "properties": { "geogrid_id": "949030338022845820", "seqnum": 59441.0, "lat_c": 49.030337816747164, "lon_c": 22.845820300435054, "res": 9.0, "count_Molluscs": 2, "count_Basidiomycota": 38, "count_Mosses": 0, "count_Birds": 4, "count_Mammals": 1, "count_Sac Fungi": 15, "count_Arachnids": 2, "count_Amphibians": 4, "count_Insects": 40, "count_Flowering Plants": 189, "count_Reptiles": 2, "count_Gymnosperms": 2, "count_Ferns": 8, "unique_species_count": 307.0, "countryCode": "SK" }, "geometry": { "type": "MultiPolygon", "coordinates": [ [ [ [ 22.668750886035554, 49.261747371738075 ], [ 23.126116921689402, 49.268351701138052 ], [ 23.300686889161451, 49.036245934744535 ], [ 23.021453538349618, 48.798466463753229 ], [ 22.569041619934584, 48.791620081286666 ], [ 22.390962407703608, 49.022784446827806 ], [ 22.668750886035554, 49.261747371738075 ] ] ] ] } },
{ "type": "Feature", "properties": { "geogrid_id": "949100174018089497", "seqnum": 42363.0, "lat_c": 49.100173819586232, "lon_c": 18.089496542881022, "res": 9.0, "count_Molluscs": 40, "count_Basidiomycota": 121, "count_Mosses": 9, "count_Birds": 91, "count_Mammals": 15, "count_Sac Fungi": 61, "count_Arachnids": 17, "count_Amphibians": 7, "count_Insects": 398, "count_Flowering Plants": 865, "count_Reptiles": 6, "count_Gymnosperms": 12, "count_Ferns": 13, "unique_species_count": 1655.0, "countryCode": "SK" }, "geometry": { "type": "MultiPolygon", "coordinates": [ [ [ [ 18.349081067971021, 49.347866026527385 ], [ 18.547993055318248, 49.125896972338246 ], [ 18.288783210188704, 48.878916116198532 ], [ 17.832317472451003, 48.852000414167151 ], [ 17.631049085459001, 49.071926066471605 ], [ 17.888566477364421, 49.320829952354373 ], [ 18.349081067971021, 49.347866026527385 ] ] ] ] } },
{ "type": "Feature", "properties": { "geogrid_id": "949170018019464963", "seqnum": 42607.0, "lat_c": 49.170018349735045, "lon_c": 19.464962735246612, "res": 9.0, "count_Molluscs": 65, "count_Basidiomycota": 149, "count_Mosses": 131, "count_Birds": 207, "count_Mammals": 34, "count_Sac Fungi": 217, "count_Arachnids": 67, "count_Amphibians": 8, "count_Insects": 1260, "count_Flowering Plants": 1230, "count_Reptiles": 9, "count_Gymnosperms": 15, "count_Ferns": 21, "unique_species_count": 3413.0, "countryCode": "SK" }, "geometry": { "type": "MultiPolygon", "coordinates": [ [ [ [ 19.730662397789914, 49.414216690335927 ], [ 19.923356500352316, 49.188532959229235 ], [ 19.658137101463559, 48.944992998475819 ], [ 19.20173313299675, 48.925352132675336 ], [ 19.006495391878509, 49.149158569514341 ], [ 19.270170610422529, 49.394500135575392 ], [ 19.730662397789914, 49.414216690335927 ] ] ] ] } },
{ "type": "Feature", "properties": { "geogrid_id": "949218739020839779", "seqnum": 59118.0, "lat_c": 49.218738962881282, "lon_c": 20.839779136397713, "res": 9.0, "count_Molluscs": 14, "count_Basidiomycota": 55, "count_Mosses": 16, "count_Birds": 52, "count_Mammals": 14, "count_Sac Fungi": 47, "count_Arachnids": 23, "count_Amphibians": 5, "count_Insects": 203, "count_Flowering Plants": 1059, "count_Reptiles": 7, "count_Gymnosperms": 9, "count_Ferns": 19, "unique_species_count": 1523.0, "countryCode": "SK" }, "geometry": { "type": "MultiPolygon", "coordinates": [ [ [ [ 20.651348490748084, 49.446722737282023 ], [ 21.110921263143794, 49.460722362381091 ], [ 21.296909954812758, 49.231976492240015 ], [ 21.026628884080047, 48.990266298029951 ], [ 20.570618876675738, 48.977398660141823 ], [ 20.381640168476874, 49.204756150224249 ], [ 20.651348490748084, 49.446722737282023 ] ] ] ] } },
{ "type": "Feature", "properties": { "geogrid_id": "949253482022211415", "seqnum": 59361.0, "lat_c": 49.253482290162268, "lon_c": 22.211415080331541, "res": 9.0, "count_Molluscs": 4, "count_Basidiomycota": 8, "count_Mosses": 2, "count_Birds": 15, "count_Mammals": 10, "count_Sac Fungi": 7, "count_Arachnids": 2, "count_Amphibians": 3, "count_Insects": 63, "count_Flowering Plants": 536, "count_Reptiles": 1, "count_Gymnosperms": 2, "count_Ferns": 12, "unique_species_count": 665.0, "countryCode": "SK" }, "geometry": { "type": "MultiPolygon", "coordinates": [ [ [ [ 22.030379000248061, 49.483707371477962 ], [ 22.490225026506064, 49.492688971202561 ], [ 22.668750886035554, 49.261747371738075 ], [ 22.390962407703608, 49.022784446827806 ], [ 21.936131888735769, 49.013587193596443 ], [ 21.754128390580046, 49.243558125605716 ], [ 22.030379000248061, 49.483707371477962 ] ] ] ] } },
{ "type": "Feature", "properties": { "geogrid_id": "949372402018809630", "seqnum": 42444.0, "lat_c": 49.372402477584195, "lon_c": 18.809630026593094, "res": 9.0, "count_Molluscs": 47, "count_Basidiomycota": 469, "count_Mosses": 82, "count_Birds": 100, "count_Mammals": 23, "count_Sac Fungi": 326, "count_Arachnids": 51, "count_Amphibians": 10, "count_Insects": 737, "count_Flowering Plants": 1031, "count_Reptiles": 8, "count_Gymnosperms": 15, "count_Ferns": 20, "unique_species_count": 2919.0, "countryCode": "SK" }, "geometry": { "type": "MultiPolygon", "coordinates": [ [ [ [ 19.073739613130197, 49.618431359219571 ], [ 19.270170610422529, 49.394500135575392 ], [ 19.006495391878509, 49.149158569514341 ], [ 18.547993055318248, 49.125896972338246 ], [ 18.349081067971021, 49.347866026527385 ], [ 18.611116273955922, 49.595076726511678 ], [ 19.073739613130197, 49.618431359219571 ] ] ] ] } },
{ "type": "Feature", "properties": { "geogrid_id": "949431607020191067", "seqnum": 42688.0, "lat_c": 49.431606892392125, "lon_c": 20.191067117031004, "res": 9.0, "count_Molluscs": 9, "count_Basidiomycota": 67, "count_Mosses": 141, "count_Birds": 79, "count_Mammals": 11, "count_Sac Fungi": 164, "count_Arachnids": 15, "count_Amphibians": 5, "count_Insects": 213, "count_Flowering Plants": 999, "count_Reptiles": 7, "count_Gymnosperms": 11, "count_Ferns": 22, "unique_species_count": 1743.0, "countryCode": "SK" }, "geometry": { "type": "MultiPolygon", "coordinates": [ [ [ [ 20.461315007700499, 49.674211052870348 ], [ 20.651348489775938, 49.446722739565509 ], [ 20.381640168476874, 49.204756150224249 ], [ 19.923356500352316, 49.188532959229235 ], [ 19.730662397789914, 49.414216690335927 ], [ 19.998878021640927, 49.657944170256236 ], [ 20.461315007700499, 49.674211052870348 ] ] ] ] } },
{ "type": "Feature", "properties": { "geogrid_id": "949473051021570605", "seqnum": 59280.0, "lat_c": 49.47305119604092, "lon_c": 21.570604627860376, "res": 9.0, "count_Molluscs": 6, "count_Basidiomycota": 8, "count_Mosses": 0, "count_Birds": 16, "count_Mammals": 5, "count_Sac Fungi": 3, "count_Arachnids": 0, "count_Amphibians": 5, "count_Insects": 210, "count_Flowering Plants": 549, "count_Reptiles": 1, "count_Gymnosperms": 4, "count_Ferns": 13, "unique_species_count": 820.0, "countryCode": "SK" }, "geometry": { "type": "MultiPolygon", "coordinates": [ [ [ [ 21.385539297334347, 49.702060023521923 ], [ 21.847833214323579, 49.713453399136547 ], [ 22.030379000248061, 49.483707371477962 ], [ 21.754128390580046, 49.243558125605716 ], [ 21.296909954812758, 49.231976492240015 ], [ 21.110921263143794, 49.460722362381091 ], [ 21.385539297334347, 49.702060023521923 ] ] ] ] } },
{ "type": "Feature", "properties": { "geogrid_id": "949639369019536340", "seqnum": 42526.0, "lat_c": 49.639368590534239, "lon_c": 19.53634022182613, "res": 9.0, "count_Molluscs": 5, "count_Basidiomycota": 7, "count_Mosses": 9, "count_Birds": 30, "count_Mammals": 2, "count_Sac Fungi": 4, "count_Arachnids": 5, "count_Amphibians": 6, "count_Insects": 44, "count_Flowering Plants": 352, "count_Reptiles": 3, "count_Gymnosperms": 6, "count_Ferns": 8, "unique_species_count": 481.0, "countryCode": "SK" }, "geometry": { "type": "MultiPolygon", "coordinates": [ [ [ [ 19.805050871750296, 49.88376120380827 ], [ 19.998878021640927, 49.657944170256236 ], [ 19.730662397789914, 49.414216690335927 ], [ 19.270170610422529, 49.394500135575392 ], [ 19.073739613130197, 49.618431359219571 ], [ 19.340368251852745, 49.863981738552972 ], [ 19.805050871750296, 49.88376120380827 ] ] ] ] } }
]
}
