{
"type": "FeatureCollection",
"name": "SL",
"crs": { "type": "name", "properties": { "name": "urn:ogc:def:crs:OGC:1.3:CRS84" } },
"features": [
{ "type": "Feature", "properties": { "geogrid_id": "5204992688013561473", "seqnum": 13622.0, "lat_c": 4.9926883616592317, "lon_c": -13.561472700555155, "res": 8.0, "count_Mammals": 1, "count_Molluscs": 1, "count_Insects": 0, "count_Reptiles": 0, "count_Basidiomycota": 0, "count_Arachnids": 0, "count_Birds": 0, "count_Flowering Plants": 0, "count_Ferns": 0, "count_Amphibians": 0, "unique_species_count": 2.0, "countryCode": "SL" }, "geometry": { "type": "MultiPolygon", "coordinates": [ [ [ [ -13.179936182029929, 5.265567599862435 ], [ -13.198276156829646, 4.701185938086502 ], [ -13.580085473316656, 4.428435421302731 ], [ -13.943092516486331, 4.719301694620208 ], [ -14.104359533774364, 5.154875730559771 ], [ -13.722901529130077, 5.428691967478799 ], [ -13.179936182029929, 5.265567599862435 ] ] ] ] } },
{ "type": "Feature", "properties": { "geogrid_id": "5205482694015180278", "seqnum": 13459.0, "lat_c": 5.4826936822672376, "lon_c": -15.180278355739206, "res": 8.0, "count_Mammals": 1, "count_Molluscs": 0, "count_Insects": 0, "count_Reptiles": 0, "count_Basidiomycota": 0, "count_Arachnids": 0, "count_Birds": 0, "count_Flowering Plants": 0, "count_Ferns": 0, "count_Amphibians": 0, "unique_species_count": 1.0, "countryCode": "SL" }, "geometry": { "type": "MultiPolygon", "coordinates": [ [ [ [ -14.798797387961626, 5.758497545351362 ], [ -14.643819138223611, 5.318330829789938 ], [ -15.025355693782521, 5.043044450245885 ], [ -15.561854731673064, 5.206406672934073 ], [ -15.714118267265786, 5.647651086766011 ], [ -15.332558202105478, 5.92448805662306 ], [ -14.798797387961626, 5.758497545351362 ] ] ] ] } },
{ "type": "Feature", "properties": { "geogrid_id": "5206090817015864008", "seqnum": 13378.0, "lat_c": 6.0908169819481293, "lon_c": -15.864007781445682, "res": 8.0, "count_Mammals": 1, "count_Molluscs": 0, "count_Insects": 0, "count_Reptiles": 0, "count_Basidiomycota": 0, "count_Arachnids": 0, "count_Birds": 0, "count_Flowering Plants": 0, "count_Ferns": 0, "count_Amphibians": 0, "unique_species_count": 1.0, "countryCode": "SL" }, "geometry": { "type": "MultiPolygon", "coordinates": [ [ [ [ -15.482407111085227, 6.368234287690183 ], [ -15.332558202105478, 5.92448805662306 ], [ -15.714118267265786, 5.647651086766011 ], [ -16.245680134907932, 5.812929449431622 ], [ -16.393459739768449, 6.257239497532633 ], [ -16.011720522266188, 6.535729399743597 ], [ -15.482407111085227, 6.368234287690183 ] ] ] ] } },
{ "type": "Feature", "properties": { "geogrid_id": "5206308632014036022", "seqnum": 13542.0, "lat_c": 6.308632267321868, "lon_c": -14.036021977360052, "res": 8.0, "count_Mammals": 1, "count_Molluscs": 0, "count_Insects": 0, "count_Reptiles": 0, "count_Basidiomycota": 0, "count_Arachnids": 0, "count_Birds": 0, "count_Flowering Plants": 0, "count_Ferns": 0, "count_Amphibians": 0, "unique_species_count": 1.0, "countryCode": "SL" }, "geometry": { "type": "MultiPolygon", "coordinates": [ [ [ [ -13.65467797234362, 6.582951320143612 ], [ -13.499669297861351, 6.14121386513922 ], [ -13.881000449770074, 5.867421548342048 ], [ -14.417386874002199, 6.03381237297826 ], [ -14.569627070101681, 6.476717123300213 ], [ -14.188205559157774, 6.75209766979066 ], [ -13.65467797234362, 6.582951320143612 ] ] ] ] } },
{ "type": "Feature", "properties": { "geogrid_id": "5206518832012197478", "seqnum": 13706.0, "lat_c": 6.5188322447534466, "lon_c": -12.197477839932381, "res": 8.0, "count_Mammals": 1, "count_Molluscs": 0, "count_Insects": 0, "count_Reptiles": 0, "count_Basidiomycota": 0, "count_Arachnids": 0, "count_Birds": 0, "count_Flowering Plants": 0, "count_Ferns": 0, "count_Amphibians": 0, "unique_species_count": 1.0, "countryCode": "SL" }, "geometry": { "type": "MultiPolygon", "coordinates": [ [ [ [ -11.816104401394078, 6.79005538393891 ], [ -11.654144440111967, 6.351886915655657 ], [ -12.035586737808252, 6.081099126767895 ], [ -12.578820481636685, 6.247078156558214 ], [ -12.737041776137193, 6.68726223873385 ], [ -12.355697118204509, 6.959506169180792 ], [ -11.816104401394078, 6.79005538393891 ] ] ] ] } },
{ "type": "Feature", "properties": { "geogrid_id": "5206622136011272667", "seqnum": 13788.0, "lat_c": 6.6221362806465596, "lon_c": -11.272666643541822, "res": 8.0, "count_Mammals": 0, "count_Molluscs": 1, "count_Insects": 1, "count_Reptiles": 0, "count_Basidiomycota": 0, "count_Arachnids": 0, "count_Birds": 0, "count_Flowering Plants": 0, "count_Ferns": 0, "count_Amphibians": 0, "unique_species_count": 2.0, "countryCode": "SL" }, "geometry": { "type": "MultiPolygon", "coordinates": [ [ [ [ -10.891129985874958, 6.891840937171577 ], [ -10.90840170465305, 6.32675936187932 ], [ -11.290049307250213, 6.057162437930148 ], [ -11.654144440111967, 6.351886915655657 ], [ -11.816104401394078, 6.79005538393891 ], [ -11.434676559352724, 7.060741355657225 ], [ -10.891129985874958, 6.891840937171577 ] ] ] ] } },
{ "type": "Feature", "properties": { "geogrid_id": "5206813753015630027", "seqnum": 13379.0, "lat_c": 6.8137529901638274, "lon_c": -15.630026625775624, "res": 8.0, "count_Mammals": 0, "count_Molluscs": 1, "count_Insects": 0, "count_Reptiles": 0, "count_Basidiomycota": 0, "count_Arachnids": 0, "count_Birds": 0, "count_Flowering Plants": 0, "count_Ferns": 0, "count_Amphibians": 0, "unique_species_count": 1.0, "countryCode": "SL" }, "geometry": { "type": "MultiPolygon", "coordinates": [ [ [ [ -15.24835192497593, 7.091304727683983 ], [ -15.100852398682729, 6.6451757136516 ], [ -15.482407111085227, 6.368234287690183 ], [ -16.011720522266188, 6.535729399743597 ], [ -16.157444343481295, 6.982225785477081 ], [ -15.775608553843201, 7.260877679596279 ], [ -15.24835192497593, 7.091304727683983 ] ] ] ] } },
{ "type": "Feature", "properties": { "geogrid_id": "5207026981013806780", "seqnum": 13543.0, "lat_c": 7.0269811820259847, "lon_c": -13.806779939431285, "res": 8.0, "count_Mammals": 2, "count_Molluscs": 0, "count_Insects": 0, "count_Reptiles": 0, "count_Basidiomycota": 0, "count_Arachnids": 0, "count_Birds": 0, "count_Flowering Plants": 0, "count_Ferns": 0, "count_Amphibians": 0, "unique_species_count": 2.0, "countryCode": "SL" }, "geometry": { "type": "MultiPolygon", "coordinates": [ [ [ [ -13.42532520215237, 7.301361868631146 ], [ -13.273330236974218, 6.856763611101152 ], [ -13.65467797234362, 6.582951320143612 ], [ -14.188205559157774, 6.75209766979066 ], [ -14.337778335401149, 7.197608312127699 ], [ -13.95620789400116, 7.473088172908555 ], [ -13.42532520215237, 7.301361868631146 ] ] ] ] } },
{ "type": "Feature", "properties": { "geogrid_id": "5207130063012891954", "seqnum": 13625.0, "lat_c": 7.1300632061665246, "lon_c": -12.891954245798411, "res": 8.0, "count_Mammals": 1, "count_Molluscs": 10, "count_Insects": 0, "count_Reptiles": 0, "count_Basidiomycota": 0, "count_Arachnids": 0, "count_Birds": 0, "count_Flowering Plants": 0, "count_Ferns": 0, "count_Amphibians": 0, "unique_species_count": 11.0, "countryCode": "SL" }, "geometry": { "type": "MultiPolygon", "coordinates": [ [ [ [ -12.510525562583888, 7.402844156160641 ], [ -12.355697118204509, 6.959506169180792 ], [ -12.737041776137193, 6.68726223873385 ], [ -13.273330236974218, 6.856763611101152 ], [ -13.42532520215237, 7.301361868631146 ], [ -13.04381640846629, 7.575233929529731 ], [ -12.510525562583888, 7.402844156160641 ] ] ] ] } },
{ "type": "Feature", "properties": { "geogrid_id": "5207231222011974300", "seqnum": 13707.0, "lat_c": 7.2312218087089342, "lon_c": -11.974299852260819, "res": 8.0, "count_Mammals": 0, "count_Molluscs": 4, "count_Insects": 53, "count_Reptiles": 2, "count_Basidiomycota": 0, "count_Arachnids": 1, "count_Birds": 19, "count_Flowering Plants": 13, "count_Ferns": 0, "count_Amphibians": 0, "unique_species_count": 92.0, "countryCode": "SL" }, "geometry": { "type": "MultiPolygon", "coordinates": [ [ [ [ -11.592826098417589, 7.502403037751964 ], [ -11.434676559352724, 7.060741355657225 ], [ -11.816104401394078, 6.79005538393891 ], [ -12.355697118204509, 6.959506169180792 ], [ -12.510525562583888, 7.402844156160641 ], [ -12.12901983287056, 7.675100495412209 ], [ -11.592826098417589, 7.502403037751964 ] ] ] ] } },
{ "type": "Feature", "properties": { "geogrid_id": "5207330884011053171", "seqnum": 13789.0, "lat_c": 7.3308839106555528, "lon_c": -11.053170822791635, "res": 8.0, "count_Mammals": 17, "count_Molluscs": 1, "count_Insects": 163, "count_Reptiles": 5, "count_Basidiomycota": 1, "count_Arachnids": 4, "count_Birds": 89, "count_Flowering Plants": 28, "count_Ferns": 1, "count_Amphibians": 9, "unique_species_count": 318.0, "countryCode": "SL" }, "geometry": { "type": "MultiPolygon", "coordinates": [ [ [ [ -10.671563811580869, 7.600476766716898 ], [ -10.509511227002861, 7.160994566411733 ], [ -10.891129985874958, 6.891840937171577 ], [ -11.434676559352724, 7.060741355657225 ], [ -11.592826098417589, 7.502403037751964 ], [ -11.211252071593355, 7.773043711060592 ], [ -10.671563811580869, 7.600476766716898 ] ] ] ] } },
{ "type": "Feature", "properties": { "geogrid_id": "5207539062015393764", "seqnum": 13380.0, "lat_c": 7.5390618133050173, "lon_c": -15.393764061936936, "res": 8.0, "count_Mammals": 0, "count_Molluscs": 0, "count_Insects": 0, "count_Reptiles": 0, "count_Basidiomycota": 0, "count_Arachnids": 0, "count_Birds": 1, "count_Flowering Plants": 0, "count_Ferns": 0, "count_Amphibians": 0, "unique_species_count": 1.0, "countryCode": "SL" }, "geometry": { "type": "MultiPolygon", "coordinates": [ [ [ [ -15.01188432951137, 7.816772749765733 ], [ -14.866670348355283, 7.368379073333175 ], [ -15.24835192497593, 7.091304727683983 ], [ -15.775608553843201, 7.260877679596279 ], [ -15.919335540318396, 7.709453842945686 ], [ -15.537275237181026, 7.988288859183087 ], [ -15.01188432951137, 7.816772749765733 ] ] ] ] } },
{ "type": "Feature", "properties": { "geogrid_id": "5207644970014484956", "seqnum": 13462.0, "lat_c": 7.6449704892067123, "lon_c": -14.484955867450269, "res": 8.0, "count_Mammals": 0, "count_Molluscs": 1, "count_Insects": 0, "count_Reptiles": 0, "count_Basidiomycota": 0, "count_Arachnids": 0, "count_Birds": 0, "count_Flowering Plants": 0, "count_Ferns": 0, "count_Amphibians": 0, "unique_species_count": 1.0, "countryCode": "SL" }, "geometry": { "type": "MultiPolygon", "coordinates": [ [ [ [ -14.10318248570484, 7.92107343753421 ], [ -13.95620789400116, 7.473088172908555 ], [ -14.337778335401149, 7.197608312127699 ], [ -14.866670348355283, 7.368379073333175 ], [ -15.01188432951137, 7.816772749765733 ], [ -14.62994283302146, 8.094005054402416 ], [ -14.10318248570484, 7.92107343753421 ] ] ] ] } },
{ "type": "Feature", "properties": { "geogrid_id": "5207848592012662229", "seqnum": 13626.0, "lat_c": 7.8485915549344343, "lon_c": -12.662228680505809, "res": 8.0, "count_Mammals": 1, "count_Molluscs": 10, "count_Insects": 4, "count_Reptiles": 7, "count_Basidiomycota": 0, "count_Arachnids": 0, "count_Birds": 19, "count_Flowering Plants": 4, "count_Ferns": 0, "count_Amphibians": 7, "unique_species_count": 52.0, "countryCode": "SL" }, "geometry": { "type": "MultiPolygon", "coordinates": [ [ [ [ -12.280537192163875, 8.121428924495079 ], [ -12.12901983287056, 7.675100495412209 ], [ -12.510525562583888, 7.402844156160641 ], [ -13.04381640846629, 7.575233929529731 ], [ -13.192872858688016, 8.022546713415078 ], [ -12.811057445487121, 8.296514058114157 ], [ -12.280537192163875, 8.121428924495079 ] ] ] ] } },
{ "type": "Feature", "properties": { "geogrid_id": "5207946826011747413", "seqnum": 13708.0, "lat_c": 7.9468262405503536, "lon_c": -11.747412776345143, "res": 8.0, "count_Mammals": 13, "count_Molluscs": 0, "count_Insects": 58, "count_Reptiles": 1, "count_Basidiomycota": 0, "count_Arachnids": 0, "count_Birds": 5, "count_Flowering Plants": 11, "count_Ferns": 0, "count_Amphibians": 0, "unique_species_count": 88.0, "countryCode": "SL" }, "geometry": { "type": "MultiPolygon", "coordinates": [ [ [ [ -11.36568017900351, 8.218015389441586 ], [ -11.211252071593355, 7.773043711060592 ], [ -11.592826098417589, 7.502403037751964 ], [ -12.12901983287056, 7.675100495412209 ], [ -12.280537192163875, 8.121428924495079 ], [ -11.898717159517991, 8.393740206616386 ], [ -11.36568017900351, 8.218015389441586 ] ] ] ] } },
{ "type": "Feature", "properties": { "geogrid_id": "5208043138010829554", "seqnum": 13790.0, "lat_c": 8.0431376561188141, "lon_c": -10.829554075386275, "res": 8.0, "count_Mammals": 25, "count_Molluscs": 2, "count_Insects": 32, "count_Reptiles": 4, "count_Basidiomycota": 2, "count_Arachnids": 2, "count_Birds": 26, "count_Flowering Plants": 7, "count_Ferns": 0, "count_Amphibians": 10, "unique_species_count": 110.0, "countryCode": "SL" }, "geometry": { "type": "MultiPolygon", "coordinates": [ [ [ [ -10.447708495853693, 8.312678671669651 ], [ -10.289832251767212, 7.869513606542941 ], [ -10.671563811580869, 7.600476766716898 ], [ -11.211252071593355, 7.773043711060592 ], [ -11.36568017900351, 8.218015389441586 ], [ -10.983797885060465, 8.488661920283363 ], [ -10.447708495853693, 8.312678671669651 ] ] ] ] } },
{ "type": "Feature", "properties": { "geogrid_id": "5208137988009907953", "seqnum": 13872.0, "lat_c": 8.1379880756907514, "lon_c": -9.9079529709111753, "res": 8.0, "count_Mammals": 0, "count_Molluscs": 0, "count_Insects": 1, "count_Reptiles": 0, "count_Basidiomycota": 0, "count_Arachnids": 0, "count_Birds": 0, "count_Flowering Plants": 0, "count_Ferns": 0, "count_Amphibians": 0, "unique_species_count": 1.0, "countryCode": "SL" }, "geometry": { "type": "MultiPolygon", "coordinates": [ [ [ [ -9.525902893461321, 8.405893780566297 ], [ -9.363931687363433, 7.96508553815447 ], [ -9.745935030975627, 7.697623282108706 ], [ -10.289832251767212, 7.869513606542941 ], [ -10.447708495853693, 8.312678671669651 ], [ -10.06569179517153, 8.581660526359778 ], [ -9.525902893461321, 8.405893780566297 ] ] ] ] } },
{ "type": "Feature", "properties": { "geogrid_id": "5208370753014247913", "seqnum": 13463.0, "lat_c": 8.3707532940253113, "lon_c": -14.247913050975509, "res": 8.0, "count_Mammals": 1, "count_Molluscs": 0, "count_Insects": 0, "count_Reptiles": 0, "count_Basidiomycota": 0, "count_Arachnids": 0, "count_Birds": 0, "count_Flowering Plants": 0, "count_Ferns": 0, "count_Amphibians": 0, "unique_species_count": 1.0, "countryCode": "SL" }, "geometry": { "type": "MultiPolygon", "coordinates": [ [ [ [ -13.865768450725099, 8.647012036091576 ], [ -13.721324226895833, 8.196682379895497 ], [ -14.10318248570484, 7.92107343753421 ], [ -14.62994283302146, 8.094005054402416 ], [ -14.772933688507079, 8.544546326059145 ], [ -14.390598309717518, 8.821958077610265 ], [ -13.865768450725099, 8.647012036091576 ] ] ] ] } },
{ "type": "Feature", "properties": { "geogrid_id": "5208471792013339355", "seqnum": 13545.0, "lat_c": 8.4717917765925961, "lon_c": -13.339355123066035, "res": 8.0, "count_Mammals": 8, "count_Molluscs": 120, "count_Insects": 181, "count_Reptiles": 25, "count_Basidiomycota": 0, "count_Arachnids": 7, "count_Birds": 63, "count_Flowering Plants": 120, "count_Ferns": 1, "count_Amphibians": 10, "unique_species_count": 535.0, "countryCode": "SL" }, "geometry": { "type": "MultiPolygon", "coordinates": [ [ [ [ -12.957249201898971, 8.746396086186847 ], [ -12.811057445487121, 8.296514058114157 ], [ -13.192872858688016, 8.022546713415078 ], [ -13.721324226895833, 8.196682379895497 ], [ -13.865768450725099, 8.647012036091576 ], [ -13.483482474627415, 8.922775848107506 ], [ -12.957249201898971, 8.746396086186847 ] ] ] ] } },
{ "type": "Feature", "properties": { "geogrid_id": "5208569966012429110", "seqnum": 13627.0, "lat_c": 8.5699658869331881, "lon_c": -12.429109593602664, "res": 8.0, "count_Mammals": 3, "count_Molluscs": 0, "count_Insects": 7, "count_Reptiles": 5, "count_Basidiomycota": 2, "count_Arachnids": 0, "count_Birds": 19, "count_Flowering Plants": 35, "count_Ferns": 0, "count_Amphibians": 3, "unique_species_count": 74.0, "countryCode": "SL" }, "geometry": { "type": "MultiPolygon", "coordinates": [ [ [ [ -12.047003932873308, 8.84289651858353 ], [ -11.898717159517991, 8.393740206616386 ], [ -12.280537192163875, 8.121428924495079 ], [ -12.811057445487121, 8.296514058114157 ], [ -12.957249201898971, 8.746396086186847 ], [ -12.574980473461766, 9.02048976521116 ], [ -12.047003932873308, 8.84289651858353 ] ] ] ] } },
{ "type": "Feature", "properties": { "geogrid_id": "5208665520011516744", "seqnum": 13709.0, "lat_c": 8.6655195579591808, "lon_c": -11.516743830851606, "res": 8.0, "count_Mammals": 21, "count_Molluscs": 19, "count_Insects": 20, "count_Reptiles": 30, "count_Basidiomycota": 0, "count_Arachnids": 1, "count_Birds": 41, "count_Flowering Plants": 53, "count_Ferns": 2, "count_Amphibians": 18, "unique_species_count": 205.0, "countryCode": "SL" }, "geometry": { "type": "MultiPolygon", "coordinates": [ [ [ [ -11.134592476210717, 8.936761123140684 ], [ -10.983797885060465, 8.488661920283363 ], [ -11.36568017900351, 8.218015389441586 ], [ -11.898717159517991, 8.393740206616386 ], [ -12.047003932873308, 8.84289651858353 ], [ -11.664715087324273, 9.115300265901567 ], [ -11.134592476210717, 8.936761123140684 ] ] ] ] } },
{ "type": "Feature", "properties": { "geogrid_id": "5208758760010601742", "seqnum": 13791.0, "lat_c": 8.7587597908682469, "lon_c": -10.601741788561224, "res": 8.0, "count_Mammals": 1, "count_Molluscs": 0, "count_Insects": 70, "count_Reptiles": 3, "count_Basidiomycota": 0, "count_Arachnids": 1, "count_Birds": 11, "count_Flowering Plants": 22, "count_Ferns": 0, "count_Amphibians": 0, "unique_species_count": 108.0, "countryCode": "SL" }, "geometry": { "type": "MultiPolygon", "coordinates": [ [ [ [ -10.219487824642677, 9.028302938034727 ], [ -10.06569179517153, 8.581660526359778 ], [ -10.447708495853693, 8.312678671669651 ], [ -10.983797885060465, 8.488661920283363 ], [ -11.134592476210717, 8.936761123140684 ], [ -10.752238376425726, 9.207459034651407 ], [ -10.219487824642677, 9.028302938034727 ] ] ] ] } },
{ "type": "Feature", "properties": { "geogrid_id": "5209198039013101029", "seqnum": 13546.0, "lat_c": 9.1980392971782265, "lon_c": -13.101028525501587, "res": 8.0, "count_Mammals": 0, "count_Molluscs": 2, "count_Insects": 17, "count_Reptiles": 5, "count_Basidiomycota": 0, "count_Arachnids": 2, "count_Birds": 9, "count_Flowering Plants": 10, "count_Ferns": 0, "count_Amphibians": 4, "unique_species_count": 49.0, "countryCode": "SL" }, "geometry": { "type": "MultiPolygon", "coordinates": [ [ [ [ -12.718379951291594, 9.472796949711137 ], [ -12.574980473461766, 9.02048976521116 ], [ -12.957249201898971, 8.746396086186847 ], [ -13.483482474627415, 8.922775848107506 ], [ -13.625462706342844, 9.375320871235964 ], [ -13.242608039941175, 9.651261212703018 ], [ -12.718379951291594, 9.472796949711137 ] ] ] ] } },
{ "type": "Feature", "properties": { "geogrid_id": "5209294067012192523", "seqnum": 13628.0, "lat_c": 9.2940672680683534, "lon_c": -12.192522916233568, "res": 8.0, "count_Mammals": 15, "count_Molluscs": 0, "count_Insects": 49, "count_Reptiles": 10, "count_Basidiomycota": 1, "count_Arachnids": 2, "count_Birds": 60, "count_Flowering Plants": 32, "count_Ferns": 0, "count_Amphibians": 2, "unique_species_count": 171.0, "countryCode": "SL" }, "geometry": { "type": "MultiPolygon", "coordinates": [ [ [ [ -11.809850462326814, 9.567123047127478 ], [ -11.664715087324273, 9.115300265901567 ], [ -12.047003932873308, 8.84289651858353 ], [ -12.574980473461766, 9.02048976521116 ], [ -12.718379951291594, 9.472796949711137 ], [ -12.335510028837868, 9.747043371279501 ], [ -11.809850462326814, 9.567123047127478 ] ] ] ] } },
{ "type": "Feature", "properties": { "geogrid_id": "5209387171011282218", "seqnum": 13710.0, "lat_c": 9.3871714359760734, "lon_c": -11.282217662147168, "res": 8.0, "count_Mammals": 34, "count_Molluscs": 0, "count_Insects": 4, "count_Reptiles": 0, "count_Basidiomycota": 1, "count_Arachnids": 0, "count_Birds": 4, "count_Flowering Plants": 31, "count_Ferns": 0, "count_Amphibians": 0, "unique_species_count": 74.0, "countryCode": "SL" }, "geometry": { "type": "MultiPolygon", "coordinates": [ [ [ [ -10.899486229896709, 9.658504330512224 ], [ -10.752238376425726, 9.207459034651407 ], [ -11.134592476210717, 8.936761123140684 ], [ -11.664715087324273, 9.115300265901567 ], [ -11.809850462326814, 9.567123047127478 ], [ -11.426936981796979, 9.839651553031064 ], [ -10.899486229896709, 9.658504330512224 ] ] ] ] } },
{ "type": "Feature", "properties": { "geogrid_id": "5209926700012859526", "seqnum": 13547.0, "lat_c": 9.9267003808473149, "lon_c": -12.859525692829815, "res": 8.0, "count_Mammals": 0, "count_Molluscs": 0, "count_Insects": 0, "count_Reptiles": 0, "count_Basidiomycota": 0, "count_Arachnids": 0, "count_Birds": 4, "count_Flowering Plants": 0, "count_Ferns": 0, "count_Amphibians": 0, "unique_species_count": 4.0, "countryCode": "SL" }, "geometry": { "type": "MultiPolygon", "coordinates": [ [ [ [ -12.476188202444227, 10.201633020660116 ], [ -12.335510028837868, 9.747043371279501 ], [ -12.718379951291594, 9.472796949711137 ], [ -13.242608039941175, 9.651261212703018 ], [ -13.38218918988286, 10.105893952016942 ], [ -12.998623726153523, 10.382028207722586 ], [ -12.476188202444227, 10.201633020660116 ] ] ] ] } },
{ "type": "Feature", "properties": { "geogrid_id": "5210020773011952392", "seqnum": 13629.0, "lat_c": 10.020773126652797, "lon_c": -11.952391946647877, "res": 8.0, "count_Mammals": 2, "count_Molluscs": 0, "count_Insects": 8, "count_Reptiles": 1, "count_Basidiomycota": 0, "count_Arachnids": 1, "count_Birds": 8, "count_Flowering Plants": 8, "count_Ferns": 0, "count_Amphibians": 0, "unique_species_count": 28.0, "countryCode": "SL" }, "geometry": { "type": "MultiPolygon", "coordinates": [ [ [ [ -11.568998786542465, 10.293980780000414 ], [ -11.426936981796979, 9.839651553031064 ], [ -11.809850462326814, 9.567123047127478 ], [ -12.335510028837868, 9.747043371279501 ], [ -12.476188202444227, 10.201633020660116 ], [ -12.09256797540689, 10.47605377459559 ], [ -11.568998786542465, 10.293980780000414 ] ] ] ] } },
{ "type": "Feature", "properties": { "geogrid_id": "5210111647011043756", "seqnum": 13711.0, "lat_c": 10.111647235227343, "lon_c": -11.043756265923058, "res": 8.0, "count_Mammals": 1, "count_Molluscs": 0, "count_Insects": 0, "count_Reptiles": 0, "count_Basidiomycota": 0, "count_Arachnids": 0, "count_Birds": 0, "count_Flowering Plants": 5, "count_Ferns": 0, "count_Amphibians": 0, "unique_species_count": 6.0, "countryCode": "SL" }, "geometry": { "type": "MultiPolygon", "coordinates": [ [ [ [ -10.660282009325645, 10.383104542742471 ], [ -10.516495315797215, 9.929293246451968 ], [ -10.899486229896709, 9.658504330512224 ], [ -11.426936981796979, 9.839651553031064 ], [ -11.568998786542465, 10.293980780000414 ], [ -11.185303504039265, 10.566660895275097 ], [ -10.660282009325645, 10.383104542742471 ] ] ] ] } }
]
}
