{
"type": "FeatureCollection",
"name": "SN",
"crs": { "type": "name", "properties": { "name": "urn:ogc:def:crs:OGC:1.3:CRS84" } },
"features": [
{ "type": "Feature", "properties": { "geogrid_id": "5211257519019370028", "seqnum": 11906.0, "lat_c": 11.257519264378011, "lon_c": -19.370027575104327, "res": 8.0, "count_Ferns": 0, "count_Mammals": 1, "count_Reptiles": 0, "count_Birds": 0, "count_Flowering Plants": 0, "count_Insects": 0, "count_Molluscs": 0, "count_Amphibians": 0, "count_Arachnids": 0, "count_Basidiomycota": 0, "count_Sac Fungi": 0, "unique_species_count": 1.0, "countryCode": "SN" }, "geometry": { "type": "MultiPolygon", "coordinates": [ [ [ [ -18.843215287770839, 11.092083387489879 ], [ -19.23028379195085, 10.808540080982429 ], [ -19.757932286318201, 10.97487081288342 ], [ -19.898576821408444, 11.422861412225565 ], [ -19.509892701131136, 11.706141196955153 ], [ -18.982181590059298, 11.541690907120431 ], [ -18.843215287770839, 11.092083387489879 ] ] ] ] } },
{ "type": "Feature", "properties": { "geogrid_id": "5211870485020039369", "seqnum": 11824.0, "lat_c": 11.870485015916962, "lon_c": -20.039368950367884, "res": 8.0, "count_Ferns": 0, "count_Mammals": 0, "count_Reptiles": 0, "count_Birds": 0, "count_Flowering Plants": 0, "count_Insects": 0, "count_Molluscs": 3, "count_Amphibians": 0, "count_Arachnids": 0, "count_Basidiomycota": 0, "count_Sac Fungi": 0, "unique_species_count": 3.0, "countryCode": "SN" }, "geometry": { "type": "MultiPolygon", "coordinates": [ [ [ [ -19.509892701131136, 11.706141196955153 ], [ -19.898576821408444, 11.422861412225565 ], [ -20.428967295639634, 11.588328395460206 ], [ -20.570716719247816, 12.034944113658149 ], [ -20.180330826154091, 12.317750550948848 ], [ -19.649901410892042, 12.154415119280495 ], [ -19.509892701131136, 11.706141196955153 ] ] ] ] } },
{ "type": "Feature", "properties": { "geogrid_id": "5212113825018206381", "seqnum": 11826.0, "lat_c": 12.113825431412129, "lon_c": -18.206380854321107, "res": 8.0, "count_Ferns": 0, "count_Mammals": 1, "count_Reptiles": 0, "count_Birds": 1, "count_Flowering Plants": 0, "count_Insects": 0, "count_Molluscs": 0, "count_Amphibians": 0, "count_Arachnids": 0, "count_Basidiomycota": 0, "count_Sac Fungi": 0, "unique_species_count": 2.0, "countryCode": "SN" }, "geometry": { "type": "MultiPolygon", "coordinates": [ [ [ [ -17.681681390606943, 11.949877642644221 ], [ -18.068982564663148, 11.662928950513217 ], [ -18.59432283231132, 11.827188140108726 ], [ -18.732621452340361, 12.277115475200127 ], [ -18.343889295066866, 12.564419585621977 ], [ -17.818286294324558, 12.401428467093995 ], [ -17.681681390606943, 11.949877642644221 ] ] ] ] } },
{ "type": "Feature", "properties": { "geogrid_id": "5212126002012115162", "seqnum": 13550.0, "lat_c": 12.126002244396332, "lon_c": -12.115162153692424, "res": 8.0, "count_Ferns": 6, "count_Mammals": 19, "count_Reptiles": 17, "count_Birds": 147, "count_Flowering Plants": 361, "count_Insects": 54, "count_Molluscs": 0, "count_Amphibians": 4, "count_Arachnids": 4, "count_Basidiomycota": 0, "count_Sac Fungi": 0, "unique_species_count": 612.0, "countryCode": "SN" }, "geometry": { "type": "MultiPolygon", "coordinates": [ [ [ [ -11.728867735366222, 12.401541539332834 ], [ -11.595942614583976, 11.940943639195755 ], [ -11.981515953160896, 11.666129584717455 ], [ -12.501003143822906, 11.849951667218368 ], [ -12.633761435110326, 12.31009791215979 ], [ -12.247198673407047, 12.586873325933777 ], [ -11.728867735366222, 12.401541539332834 ] ] ] ] } },
{ "type": "Feature", "properties": { "geogrid_id": "5212215238011209925", "seqnum": 13632.0, "lat_c": 12.215237927858011, "lon_c": -11.20992500204529, "res": 8.0, "count_Ferns": 0, "count_Mammals": 2, "count_Reptiles": 0, "count_Birds": 0, "count_Flowering Plants": 6, "count_Insects": 0, "count_Molluscs": 0, "count_Amphibians": 0, "count_Arachnids": 2, "count_Basidiomycota": 0, "count_Sac Fungi": 0, "unique_species_count": 10.0, "countryCode": "SN" }, "geometry": { "type": "MultiPolygon", "coordinates": [ [ [ [ -10.823432752104596, 12.489007043460298 ], [ -10.690139057553157, 12.02810101842342 ], [ -11.075874983967271, 11.755059945240971 ], [ -11.595942614583976, 11.940943639195755 ], [ -11.728867735366222, 12.401541539332834 ], [ -11.342088883511721, 12.676564076842521 ], [ -10.823432752104596, 12.489007043460298 ] ] ] ] } },
{ "type": "Feature", "properties": { "geogrid_id": "5212237625017294167", "seqnum": 11827.0, "lat_c": 12.23762523264214, "lon_c": -17.294167457347974, "res": 8.0, "count_Ferns": 0, "count_Mammals": 1, "count_Reptiles": 0, "count_Birds": 2, "count_Flowering Plants": 0, "count_Insects": 1, "count_Molluscs": 1, "count_Amphibians": 0, "count_Arachnids": 0, "count_Basidiomycota": 0, "count_Sac Fungi": 0, "unique_species_count": 5.0, "countryCode": "SN" }, "geometry": { "type": "MultiPolygon", "coordinates": [ [ [ [ -16.771458758490091, 12.072892487461717 ], [ -17.158443999162131, 11.785139143018343 ], [ -17.681681390606943, 11.949877642644221 ], [ -17.818286294324558, 12.401428467093995 ], [ -17.429970901467311, 12.689833359670759 ], [ -16.906374947025853, 12.526019858592337 ], [ -16.771458758490091, 12.072892487461717 ] ] ] ] } },
{ "type": "Feature", "properties": { "geogrid_id": "5212361151016384141", "seqnum": 13141.0, "lat_c": 12.361150734394966, "lon_c": -16.384140831728427, "res": 8.0, "count_Ferns": 1, "count_Mammals": 18, "count_Reptiles": 14, "count_Birds": 222, "count_Flowering Plants": 173, "count_Insects": 70, "count_Molluscs": 55, "count_Amphibians": 2, "count_Arachnids": 4, "count_Basidiomycota": 0, "count_Sac Fungi": 0, "unique_species_count": 559.0, "countryCode": "SN" }, "geometry": { "type": "MultiPolygon", "coordinates": [ [ [ [ -15.997809432767827, 12.645363848951209 ], [ -15.865432259625772, 12.186942721453715 ], [ -16.251191527664702, 11.903444348193259 ], [ -16.771458758490091, 12.072892487461717 ], [ -16.906374947025853, 12.526019858592337 ], [ -16.518239133023691, 12.814918399792845 ], [ -15.997809432767827, 12.645363848951209 ] ] ] ] } },
{ "type": "Feature", "properties": { "geogrid_id": "5212469982015479286", "seqnum": 13223.0, "lat_c": 12.469982449906409, "lon_c": -15.479285610826691, "res": 8.0, "count_Ferns": 0, "count_Mammals": 4, "count_Reptiles": 0, "count_Birds": 29, "count_Flowering Plants": 17, "count_Insects": 4, "count_Molluscs": 3, "count_Amphibians": 0, "count_Arachnids": 0, "count_Basidiomycota": 0, "count_Sac Fungi": 0, "unique_species_count": 57.0, "countryCode": "SN" }, "geometry": { "type": "MultiPolygon", "coordinates": [ [ [ [ -15.092719201755989, 12.752557754935577 ], [ -14.96093274851542, 12.293181263381202 ], [ -15.346879809850966, 12.011322455886328 ], [ -15.865432259625772, 12.186942721453715 ], [ -15.997809432767827, 12.645363848951209 ], [ -15.611055238859993, 12.929118735125044 ], [ -15.092719201755989, 12.752557754935577 ] ] ] ] } },
{ "type": "Feature", "properties": { "geogrid_id": "5212574569014574570", "seqnum": 13305.0, "lat_c": 12.574569183019163, "lon_c": -14.574569753771677, "res": 8.0, "count_Ferns": 0, "count_Mammals": 3, "count_Reptiles": 0, "count_Birds": 25, "count_Flowering Plants": 3, "count_Insects": 2, "count_Molluscs": 0, "count_Amphibians": 0, "count_Arachnids": 0, "count_Basidiomycota": 0, "count_Sac Fungi": 0, "unique_species_count": 33.0, "countryCode": "SN" }, "geometry": { "type": "MultiPolygon", "coordinates": [ [ [ [ -14.187758522382987, 12.855480460292434 ], [ -14.056476198915279, 12.395226630862132 ], [ -14.442621156906636, 12.115034180461768 ], [ -14.96093274851542, 12.293181263381202 ], [ -15.092719201755989, 12.752557754935577 ], [ -14.705700342028699, 13.034662773503783 ], [ -14.187758522382987, 12.855480460292434 ] ] ] ] } },
{ "type": "Feature", "properties": { "geogrid_id": "5212674936013669888", "seqnum": 13387.0, "lat_c": 12.674935761556176, "lon_c": -13.669888066168939, "res": 8.0, "count_Ferns": 0, "count_Mammals": 11, "count_Reptiles": 3, "count_Birds": 53, "count_Flowering Plants": 94, "count_Insects": 4, "count_Molluscs": 0, "count_Amphibians": 0, "count_Arachnids": 0, "count_Basidiomycota": 0, "count_Sac Fungi": 0, "unique_species_count": 165.0, "countryCode": "SN" }, "geometry": { "type": "MultiPolygon", "coordinates": [ [ [ [ -13.282824543214579, 12.95415585212891 ], [ -13.151943094080307, 12.493110742260717 ], [ -13.538293951836085, 12.214612404313677 ], [ -14.056476198915279, 12.395226630862132 ], [ -14.187758522382987, 12.855480460292434 ], [ -13.800466413149746, 13.135909259182446 ], [ -13.282824543214579, 12.95415585212891 ] ] ] ] } },
{ "type": "Feature", "properties": { "geogrid_id": "5212726732018871057", "seqnum": 11744.0, "lat_c": 12.726732367750882, "lon_c": -18.871056584655967, "res": 8.0, "count_Ferns": 0, "count_Mammals": 0, "count_Reptiles": 0, "count_Birds": 1, "count_Flowering Plants": 0, "count_Insects": 0, "count_Molluscs": 0, "count_Amphibians": 0, "count_Arachnids": 0, "count_Basidiomycota": 0, "count_Sac Fungi": 0, "unique_species_count": 1.0, "countryCode": "SN" }, "geometry": { "type": "MultiPolygon", "coordinates": [ [ [ [ -18.343889295066866, 12.564419585621977 ], [ -18.732621452340361, 12.277115475200127 ], [ -19.260488857017226, 12.439899365984916 ], [ -19.399875144498907, 12.888519626667639 ], [ -19.009651349267088, 13.176048884263164 ], [ -18.481531051416276, 13.01472167486714 ], [ -18.343889295066866, 12.564419585621977 ] ] ] ] } },
{ "type": "Feature", "properties": { "geogrid_id": "5212771113012765123", "seqnum": 13469.0, "lat_c": 12.771113094538672, "lon_c": -12.765123242636099, "res": 8.0, "count_Ferns": 4, "count_Mammals": 29, "count_Reptiles": 11, "count_Birds": 153, "count_Flowering Plants": 440, "count_Insects": 23, "count_Molluscs": 1, "count_Amphibians": 0, "count_Arachnids": 1, "count_Basidiomycota": 0, "count_Sac Fungi": 0, "unique_species_count": 662.0, "countryCode": "SN" }, "geometry": { "type": "MultiPolygon", "coordinates": [ [ [ [ -12.377802288550118, 13.048613784852423 ], [ -12.247198673407047, 12.586873325933777 ], [ -12.633761435110326, 12.31009791215979 ], [ -13.151943094080307, 12.493110742260717 ], [ -13.282824543214579, 12.95415585212891 ], [ -12.895253048367023, 13.232881105180709 ], [ -12.377802288550118, 13.048613784852423 ] ] ] ] } },
{ "type": "Feature", "properties": { "geogrid_id": "5212852695017954998", "seqnum": 11745.0, "lat_c": 12.852694683474592, "lon_c": -17.95499797194179, "res": 8.0, "count_Ferns": 0, "count_Mammals": 2, "count_Reptiles": 0, "count_Birds": 0, "count_Flowering Plants": 0, "count_Insects": 0, "count_Molluscs": 1, "count_Amphibians": 0, "count_Arachnids": 0, "count_Basidiomycota": 0, "count_Sac Fungi": 0, "unique_species_count": 3.0, "countryCode": "SN" }, "geometry": { "type": "MultiPolygon", "coordinates": [ [ [ [ -17.429970901467311, 12.689833359670759 ], [ -17.818286294324558, 12.401428467093995 ], [ -18.343889295066866, 12.564419585621977 ], [ -18.481531051416276, 13.01472167486714 ], [ -18.091839910366392, 13.303686836466222 ], [ -17.56587782296231, 13.141774192712546 ], [ -17.429970901467311, 12.689833359670759 ] ] ] ] } },
{ "type": "Feature", "properties": { "geogrid_id": "5212863140011860143", "seqnum": 13551.0, "lat_c": 12.863139794916425, "lon_c": -11.860142652656709, "res": 8.0, "count_Ferns": 0, "count_Mammals": 26, "count_Reptiles": 1, "count_Birds": 54, "count_Flowering Plants": 78, "count_Insects": 6, "count_Molluscs": 0, "count_Amphibians": 0, "count_Arachnids": 1, "count_Basidiomycota": 0, "count_Sac Fungi": 0, "unique_species_count": 166.0, "countryCode": "SN" }, "geometry": { "type": "MultiPolygon", "coordinates": [ [ [ [ -11.472561398525176, 13.13889169627994 ], [ -11.342088883511721, 12.676564076842521 ], [ -11.728867735366222, 12.401541539332834 ], [ -12.247198673407047, 12.586873325933777 ], [ -12.377802288550118, 13.048613784852423 ], [ -11.989947727361457, 13.325607066330139 ], [ -11.472561398525176, 13.13889169627994 ] ] ] ] } },
{ "type": "Feature", "properties": { "geogrid_id": "5212978886017041368", "seqnum": 11746.0, "lat_c": 12.978885912085893, "lon_c": -17.041367552933455, "res": 8.0, "count_Ferns": 0, "count_Mammals": 15, "count_Reptiles": 7, "count_Birds": 226, "count_Flowering Plants": 105, "count_Insects": 43, "count_Molluscs": 38, "count_Amphibians": 2, "count_Arachnids": 1, "count_Basidiomycota": 0, "count_Sac Fungi": 0, "unique_species_count": 437.0, "countryCode": "SN" }, "geometry": { "type": "MultiPolygon", "coordinates": [ [ [ [ -16.518239133023691, 12.814918399792843 ], [ -16.906374947025853, 12.526019858592337 ], [ -17.429970901467311, 12.689833359670759 ], [ -17.56587782296231, 13.141774192712546 ], [ -17.176460367479894, 13.431501535190673 ], [ -16.652410264222564, 13.26844093340048 ], [ -16.518239133023691, 12.814918399792843 ] ] ] ] } },
{ "type": "Feature", "properties": { "geogrid_id": "5213104186016129696", "seqnum": 13142.0, "lat_c": 13.104185865832779, "lon_c": -16.129696386980548, "res": 8.0, "count_Ferns": 0, "count_Mammals": 7, "count_Reptiles": 6, "count_Birds": 47, "count_Flowering Plants": 50, "count_Insects": 11, "count_Molluscs": 1, "count_Amphibians": 0, "count_Arachnids": 0, "count_Basidiomycota": 0, "count_Sac Fungi": 0, "unique_species_count": 122.0, "countryCode": "SN" }, "geometry": { "type": "MultiPolygon", "coordinates": [ [ [ [ -15.742312367558544, 13.388654526416147 ], [ -15.611055238859993, 12.929118735125044 ], [ -15.997809432767827, 12.645363848951209 ], [ -16.518239133023691, 12.814918399792845 ], [ -16.652410264222564, 13.26844093340048 ], [ -16.263034193596216, 13.55836160262294 ], [ -15.742312367558544, 13.388654526416147 ] ] ] ] } },
{ "type": "Feature", "properties": { "geogrid_id": "5213211244020462854", "seqnum": 11661.0, "lat_c": 13.211243561746752, "lon_c": -20.462853545246688, "res": 8.0, "count_Ferns": 0, "count_Mammals": 0, "count_Reptiles": 0, "count_Birds": 0, "count_Flowering Plants": 0, "count_Insects": 0, "count_Molluscs": 1, "count_Amphibians": 0, "count_Arachnids": 0, "count_Basidiomycota": 0, "count_Sac Fungi": 0, "unique_species_count": 1.0, "countryCode": "SN" }, "geometry": { "type": "MultiPolygon", "coordinates": [ [ [ [ -19.930439670252834, 13.049956366534698 ], [ -20.321484819843086, 12.76466702995975 ], [ -20.854825653829078, 12.927077578803221 ], [ -20.997229945740191, 13.372612700697717 ], [ -20.604459884859846, 13.657489362581323 ], [ -20.071014904404155, 13.497242675481958 ], [ -19.930439670252834, 13.049956366534698 ] ] ] ] } },
{ "type": "Feature", "properties": { "geogrid_id": "5213212409015223845", "seqnum": 13224.0, "lat_c": 13.212409419517298, "lon_c": -15.223845204769288, "res": 8.0, "count_Ferns": 0, "count_Mammals": 3, "count_Reptiles": 0, "count_Birds": 20, "count_Flowering Plants": 35, "count_Insects": 3, "count_Molluscs": 0, "count_Amphibians": 1, "count_Arachnids": 0, "count_Basidiomycota": 0, "count_Sac Fungi": 0, "unique_species_count": 62.0, "countryCode": "SN" }, "geometry": { "type": "MultiPolygon", "coordinates": [ [ [ [ -14.836145948127129, 13.495229825568794 ], [ -14.705700342028699, 13.034662773503783 ], [ -15.092719201755989, 12.752557754935577 ], [ -15.611055238859993, 12.929118735125044 ], [ -15.742312367558544, 13.388654526416147 ], [ -15.354436210285662, 13.672658648060656 ], [ -14.836145948127129, 13.495229825568794 ] ] ] ] } },
{ "type": "Feature", "properties": { "geogrid_id": "5213316292014318196", "seqnum": 13306.0, "lat_c": 13.316291549886815, "lon_c": -14.3181960029292, "res": 8.0, "count_Ferns": 0, "count_Mammals": 2, "count_Reptiles": 1, "count_Birds": 48, "count_Flowering Plants": 22, "count_Insects": 9, "count_Molluscs": 0, "count_Amphibians": 0, "count_Arachnids": 0, "count_Basidiomycota": 0, "count_Sac Fungi": 0, "unique_species_count": 82.0, "countryCode": "SN" }, "geometry": { "type": "MultiPolygon", "coordinates": [ [ [ [ -13.930172788363707, 13.597438026656937 ], [ -13.800466413149746, 13.135909259182446 ], [ -14.187758522382987, 12.855480460292434 ], [ -14.705700342028699, 13.034662773503783 ], [ -14.836145948127129, 13.495229825568794 ], [ -14.447923721229152, 13.777573763825561 ], [ -13.930172788363707, 13.597438026656937 ] ] ] ] } },
{ "type": "Feature", "properties": { "geogrid_id": "5213415850013412660", "seqnum": 13388.0, "lat_c": 13.415849653974698, "lon_c": -13.412660417059632, "res": 8.0, "count_Ferns": 0, "count_Mammals": 40, "count_Reptiles": 16, "count_Birds": 253, "count_Flowering Plants": 443, "count_Insects": 83, "count_Molluscs": 3, "count_Amphibians": 3, "count_Arachnids": 1, "count_Basidiomycota": 0, "count_Sac Fungi": 0, "unique_species_count": 842.0, "countryCode": "SN" }, "geometry": { "type": "MultiPolygon", "coordinates": [ [ [ [ -13.024307125564322, 13.695295620266911 ], [ -12.895253048367023, 13.232881105180709 ], [ -13.282824543214579, 12.95415585212891 ], [ -13.800466413149746, 13.135909259182446 ], [ -13.930172788363707, 13.597438026656937 ], [ -13.541596904078338, 13.878096034810769 ], [ -13.024307125564322, 13.695295620266911 ] ] ] ] } },
{ "type": "Feature", "properties": { "geogrid_id": "5213511106012507141", "seqnum": 13470.0, "lat_c": 13.511105638348548, "lon_c": -12.507140601115303, "res": 8.0, "count_Ferns": 0, "count_Mammals": 6, "count_Reptiles": 0, "count_Birds": 2, "count_Flowering Plants": 20, "count_Insects": 0, "count_Molluscs": 0, "count_Amphibians": 0, "count_Arachnids": 0, "count_Basidiomycota": 0, "count_Sac Fungi": 0, "unique_species_count": 28.0, "countryCode": "SN" }, "geometry": { "type": "MultiPolygon", "coordinates": [ [ [ [ -12.11845378731652, 13.788823475470585 ], [ -11.989947727361457, 13.325607066330139 ], [ -12.377802288550118, 13.048613784852423 ], [ -12.895253048367023, 13.232881105180709 ], [ -13.024307125564322, 13.695295620266911 ], [ -12.635372696806249, 13.974241025052878 ], [ -12.11845378731652, 13.788823475470585 ] ] ] ] } },
{ "type": "Feature", "properties": { "geogrid_id": "5213593459017701912", "seqnum": 11664.0, "lat_c": 13.593458528745105, "lon_c": -17.701912033649975, "res": 8.0, "count_Ferns": 0, "count_Mammals": 1, "count_Reptiles": 0, "count_Birds": 0, "count_Flowering Plants": 0, "count_Insects": 0, "count_Molluscs": 0, "count_Amphibians": 0, "count_Arachnids": 0, "count_Basidiomycota": 0, "count_Sac Fungi": 0, "unique_species_count": 1.0, "countryCode": "SN" }, "geometry": { "type": "MultiPolygon", "coordinates": [ [ [ [ -17.176460367479894, 13.431501535190673 ], [ -17.56587782296231, 13.141774192712546 ], [ -18.091839910366392, 13.303686836466222 ], [ -18.228835923228566, 13.754415604229463 ], [ -17.838097699145194, 14.044897302705117 ], [ -17.311677527429893, 13.883877746361989 ], [ -17.176460367479894, 13.431501535190673 ] ] ] ] } },
{ "type": "Feature", "properties": { "geogrid_id": "5213602087011601527", "seqnum": 13552.0, "lat_c": 13.602087113922201, "lon_c": -11.601526623376198, "res": 8.0, "count_Ferns": 0, "count_Mammals": 0, "count_Reptiles": 1, "count_Birds": 0, "count_Flowering Plants": 0, "count_Insects": 0, "count_Molluscs": 0, "count_Amphibians": 0, "count_Arachnids": 0, "count_Basidiomycota": 0, "count_Sac Fungi": 0, "unique_species_count": 1.0, "countryCode": "SN" }, "geometry": { "type": "MultiPolygon", "coordinates": [ [ [ [ -11.212505571322763, 13.878048015904071 ], [ -11.08442251123653, 13.41412334519082 ], [ -11.472561398525176, 13.13889169627994 ], [ -11.989947727361457, 13.325607066330139 ], [ -12.11845378731652, 13.788823475470585 ], [ -11.729158721959543, 14.066028536761452 ], [ -11.212505571322763, 13.878048015904071 ] ] ] ] } },
{ "type": "Feature", "properties": { "geogrid_id": "5213721729016786678", "seqnum": 11665.0, "lat_c": 13.721729414496274, "lon_c": -16.786678313205528, "res": 8.0, "count_Ferns": 1, "count_Mammals": 36, "count_Reptiles": 26, "count_Birds": 272, "count_Flowering Plants": 397, "count_Insects": 81, "count_Molluscs": 16, "count_Amphibians": 2, "count_Arachnids": 3, "count_Basidiomycota": 0, "count_Sac Fungi": 0, "unique_species_count": 834.0, "countryCode": "SN" }, "geometry": { "type": "MultiPolygon", "coordinates": [ [ [ [ -16.263034193596216, 13.55836160262294 ], [ -16.652410264222564, 13.26844093340048 ], [ -17.176460367479894, 13.431501535190673 ], [ -17.311677527429893, 13.883877746361989 ], [ -16.921067739463975, 14.174795052520285 ], [ -16.396465559192979, 14.012319150970713 ], [ -16.263034193596216, 13.55836160262294 ] ] ] ] } },
{ "type": "Feature", "properties": { "geogrid_id": "5213848519015873176", "seqnum": 13143.0, "lat_c": 13.848518875312488, "lon_c": -15.87317564284532, "res": 8.0, "count_Ferns": 0, "count_Mammals": 16, "count_Reptiles": 6, "count_Birds": 158, "count_Flowering Plants": 156, "count_Insects": 29, "count_Molluscs": 0, "count_Amphibians": 1, "count_Arachnids": 0, "count_Basidiomycota": 0, "count_Sac Fungi": 0, "unique_species_count": 366.0, "countryCode": "SN" }, "geometry": { "type": "MultiPolygon", "coordinates": [ [ [ [ -15.484612487705874, 14.133233832404112 ], [ -15.354436210285662, 13.672658648060656 ], [ -15.742312367558544, 13.388654526416147 ], [ -16.263034193596216, 13.55836160262294 ], [ -16.396465559192979, 14.012319150970713 ], [ -16.005757193753752, 14.303140064280816 ], [ -15.484612487705874, 14.133233832404112 ] ] ] ] } },
{ "type": "Feature", "properties": { "geogrid_id": "5213956192014966034", "seqnum": 13225.0, "lat_c": 13.956191911433262, "lon_c": -14.966033846966187, "res": 8.0, "count_Ferns": 0, "count_Mammals": 4, "count_Reptiles": 3, "count_Birds": 63, "count_Flowering Plants": 24, "count_Insects": 2, "count_Molluscs": 0, "count_Amphibians": 0, "count_Arachnids": 0, "count_Basidiomycota": 0, "count_Sac Fungi": 0, "unique_species_count": 96.0, "countryCode": "SN" }, "geometry": { "type": "MultiPolygon", "coordinates": [ [ [ [ -14.577070818561568, 14.239247862738591 ], [ -14.447923721229152, 13.777573763825561 ], [ -14.836145948127129, 13.495229825568794 ], [ -15.354436210285662, 13.672658648060656 ], [ -15.484612487705874, 14.133233832404112 ], [ -15.09548596717724, 14.417476773580461 ], [ -14.577070818561568, 14.239247862738591 ] ] ] ] } },
{ "type": "Feature", "properties": { "geogrid_id": "5214059435014059144", "seqnum": 13307.0, "lat_c": 14.059434921314155, "lon_c": -14.05914438123175, "res": 8.0, "count_Ferns": 0, "count_Mammals": 5, "count_Reptiles": 1, "count_Birds": 54, "count_Flowering Plants": 56, "count_Insects": 5, "count_Molluscs": 23, "count_Amphibians": 0, "count_Arachnids": 1, "count_Basidiomycota": 0, "count_Sac Fungi": 0, "unique_species_count": 145.0, "countryCode": "SN" }, "geometry": { "type": "MultiPolygon", "coordinates": [ [ [ [ -13.669773358607642, 14.340806849909359 ], [ -13.541596904078338, 13.878096034810769 ], [ -13.930172788363707, 13.597438026656937 ], [ -14.447923721229152, 13.777573763825561 ], [ -14.577070818561568, 14.239247862738591 ], [ -14.187512244778457, 14.521819901433615 ], [ -13.669773358607642, 14.340806849909359 ] ] ] ] } },
{ "type": "Feature", "properties": { "geogrid_id": "5214158259013152434", "seqnum": 13389.0, "lat_c": 14.158259282923302, "lon_c": -13.152434124985165, "res": 8.0, "count_Ferns": 0, "count_Mammals": 4, "count_Reptiles": 1, "count_Birds": 2, "count_Flowering Plants": 0, "count_Insects": 0, "count_Molluscs": 0, "count_Amphibians": 0, "count_Arachnids": 0, "count_Basidiomycota": 0, "count_Sac Fungi": 0, "unique_species_count": 7.0, "countryCode": "SN" }, "geometry": { "type": "MultiPolygon", "coordinates": [ [ [ [ -12.762649760423786, 14.437921345192624 ], [ -12.635372696806249, 13.974241025052878 ], [ -13.024307125564322, 13.695295620266911 ], [ -13.541596904078338, 13.878096034810769 ], [ -13.669773358607642, 14.340806849909359 ], [ -13.27977562370762, 14.621682953560317 ], [ -12.762649760423786, 14.437921345192624 ] ] ] ] } },
{ "type": "Feature", "properties": { "geogrid_id": "5214204892018366010", "seqnum": 11582.0, "lat_c": 14.204891808892796, "lon_c": -18.366010184368996, "res": 8.0, "count_Ferns": 0, "count_Mammals": 1, "count_Reptiles": 0, "count_Birds": 0, "count_Flowering Plants": 14, "count_Insects": 0, "count_Molluscs": 0, "count_Amphibians": 0, "count_Arachnids": 0, "count_Basidiomycota": 0, "count_Sac Fungi": 0, "unique_species_count": 15.0, "countryCode": "SN" }, "geometry": { "type": "MultiPolygon", "coordinates": [ [ [ [ -17.838097699145194, 14.044897302705117 ], [ -18.228835923228566, 13.754415604229463 ], [ -18.757308698565751, 13.914491349776176 ], [ -18.895492544359474, 14.363980136196313 ], [ -18.503387263410684, 14.65512642760395 ], [ -17.974459374310737, 14.496101597540676 ], [ -17.838097699145194, 14.044897302705117 ] ] ] ] } },
{ "type": "Feature", "properties": { "geogrid_id": "5214252680012245823", "seqnum": 13471.0, "lat_c": 14.252679615746844, "lon_c": -12.245822819601321, "res": 8.0, "count_Ferns": 0, "count_Mammals": 13, "count_Reptiles": 5, "count_Birds": 77, "count_Flowering Plants": 11, "count_Insects": 11, "count_Molluscs": 0, "count_Amphibians": 1, "count_Arachnids": 1, "count_Basidiomycota": 0, "count_Sac Fungi": 0, "unique_species_count": 119.0, "countryCode": "SN" }, "geometry": { "type": "MultiPolygon", "coordinates": [ [ [ [ -11.855622674964131, 14.530605007992671 ], [ -11.729158721959543, 14.066028536761452 ], [ -12.11845378731652, 13.788823475470585 ], [ -12.635372696806249, 13.974241025052878 ], [ -12.762649760423786, 14.437921345192624 ], [ -12.37220861716953, 14.717075648220158 ], [ -11.855622674964131, 14.530605007992671 ] ] ] ] } },
{ "type": "Feature", "properties": { "geogrid_id": "5214336026017447044", "seqnum": 11583.0, "lat_c": 14.336025704349922, "lon_c": -17.447043550241645, "res": 8.0, "count_Ferns": 0, "count_Mammals": 27, "count_Reptiles": 16, "count_Birds": 231, "count_Flowering Plants": 170, "count_Insects": 97, "count_Molluscs": 252, "count_Amphibians": 4, "count_Arachnids": 8, "count_Basidiomycota": 0, "count_Sac Fungi": 0, "unique_species_count": 805.0, "countryCode": "SN" }, "geometry": { "type": "MultiPolygon", "coordinates": [ [ [ [ -16.921067739463975, 14.174795052520285 ], [ -17.311677527429893, 13.883877746361989 ], [ -17.838097699145194, 14.044897302705117 ], [ -17.974459374310737, 14.496101597540676 ], [ -17.582583371433586, 14.787956717665825 ], [ -17.055603409767993, 14.627649197547221 ], [ -16.921067739463975, 14.174795052520285 ] ] ] ] } },
{ "type": "Feature", "properties": { "geogrid_id": "5214466070016530015", "seqnum": 11584.0, "lat_c": 14.466069883526425, "lon_c": -16.530015260460143, "res": 8.0, "count_Ferns": 0, "count_Mammals": 45, "count_Reptiles": 26, "count_Birds": 196, "count_Flowering Plants": 139, "count_Insects": 117, "count_Molluscs": 106, "count_Amphibians": 6, "count_Arachnids": 3, "count_Basidiomycota": 0, "count_Sac Fungi": 0, "unique_species_count": 638.0, "countryCode": "SN" }, "geometry": { "type": "MultiPolygon", "coordinates": [ [ [ [ -16.005757193753752, 14.303140064280816 ], [ -16.396465559192979, 14.012319150970713 ], [ -16.921067739463975, 14.174795052520285 ], [ -17.055603409767993, 14.627649197547221 ], [ -16.663708508778914, 14.919625310072593 ], [ -16.13845392021959, 14.757569903876638 ], [ -16.005757193753752, 14.303140064280816 ] ] ] ] } },
{ "type": "Feature", "properties": { "geogrid_id": "5214594069015614489", "seqnum": 13144.0, "lat_c": 14.594068898132335, "lon_c": -15.614489489390063, "res": 8.0, "count_Ferns": 0, "count_Mammals": 2, "count_Reptiles": 1, "count_Birds": 45, "count_Flowering Plants": 9, "count_Insects": 5, "count_Molluscs": 0, "count_Amphibians": 0, "count_Arachnids": 0, "count_Basidiomycota": 0, "count_Sac Fungi": 0, "unique_species_count": 62.0, "countryCode": "SN" }, "geometry": { "type": "MultiPolygon", "coordinates": [ [ [ [ -15.224619272293209, 14.879017837841602 ], [ -15.09548596717724, 14.417476773580461 ], [ -15.484612487705874, 14.133233832404112 ], [ -16.005757193753752, 14.303140064280816 ], [ -16.13845392021959, 14.757569903876638 ], [ -15.746318779453199, 15.049170408186979 ], [ -15.224619272293209, 14.879017837841602 ] ] ] ] } },
{ "type": "Feature", "properties": { "geogrid_id": "5214680005019959513", "seqnum": 11499.0, "lat_c": 14.680005198825659, "lon_c": -19.959513150203279, "res": 8.0, "count_Ferns": 0, "count_Mammals": 2, "count_Reptiles": 2, "count_Birds": 2, "count_Flowering Plants": 0, "count_Insects": 1, "count_Molluscs": 0, "count_Amphibians": 0, "count_Arachnids": 0, "count_Basidiomycota": 0, "count_Sac Fungi": 0, "unique_species_count": 7.0, "countryCode": "SN" }, "geometry": { "type": "MultiPolygon", "coordinates": [ [ [ [ -19.426629357996493, 14.522298839170542 ], [ -19.819242313708223, 14.232562920133674 ], [ -20.352894005977976, 14.390895048288089 ], [ -20.494245454699549, 14.83728088929921 ], [ -20.100065315512701, 15.127178630983778 ], [ -19.566100374296049, 14.970517262797525 ], [ -19.426629357996493, 14.522298839170542 ] ] ] ] } },
{ "type": "Feature", "properties": { "geogrid_id": "5214701241014705761", "seqnum": 13226.0, "lat_c": 14.701240952120605, "lon_c": -14.705760919317983, "res": 8.0, "count_Ferns": 0, "count_Mammals": 0, "count_Reptiles": 0, "count_Birds": 1, "count_Flowering Plants": 1, "count_Insects": 1, "count_Molluscs": 0, "count_Amphibians": 0, "count_Arachnids": 0, "count_Basidiomycota": 0, "count_Sac Fungi": 0, "unique_species_count": 3.0, "countryCode": "SN" }, "geometry": { "type": "MultiPolygon", "coordinates": [ [ [ [ -14.315401736431355, 14.984519450121107 ], [ -14.187512244778457, 14.521819901433615 ], [ -14.577070818561568, 14.239247862738591 ], [ -15.09548596717724, 14.417476773580461 ], [ -15.224619272293209, 14.879017837841602 ], [ -14.834112527935583, 15.163485974644423 ], [ -14.315401736431355, 14.984519450121107 ] ] ] ] } },
{ "type": "Feature", "properties": { "geogrid_id": "5214803901013797323", "seqnum": 13308.0, "lat_c": 14.803901266783331, "lon_c": -13.797322791923271, "res": 8.0, "count_Ferns": 0, "count_Mammals": 3, "count_Reptiles": 1, "count_Birds": 1, "count_Flowering Plants": 0, "count_Insects": 0, "count_Molluscs": 0, "count_Amphibians": 0, "count_Arachnids": 0, "count_Basidiomycota": 0, "count_Sac Fungi": 0, "unique_species_count": 5.0, "countryCode": "SN" }, "geometry": { "type": "MultiPolygon", "coordinates": [ [ [ [ -13.406466638876335, 15.085485023108584 ], [ -13.27977562370762, 14.621682953560317 ], [ -13.669773358607642, 14.340806849909359 ], [ -14.187512244778457, 14.521819901433615 ], [ -14.315401736431355, 14.984519450121107 ], [ -13.924372332471068, 15.26730516320724 ], [ -13.406466638876335, 15.085485023108584 ] ] ] ] } },
{ "type": "Feature", "properties": { "geogrid_id": "5214813219019033906", "seqnum": 11500.0, "lat_c": 14.813219282614179, "lon_c": -19.03390568468086, "res": 8.0, "count_Ferns": 0, "count_Mammals": 0, "count_Reptiles": 0, "count_Birds": 2, "count_Flowering Plants": 0, "count_Insects": 0, "count_Molluscs": 0, "count_Amphibians": 0, "count_Arachnids": 0, "count_Basidiomycota": 0, "count_Sac Fungi": 0, "unique_species_count": 2.0, "countryCode": "SN" }, "geometry": { "type": "MultiPolygon", "coordinates": [ [ [ [ -18.503387263410684, 14.65512642760395 ], [ -18.895492544359474, 14.363980136196313 ], [ -19.426629357996493, 14.522298839170542 ], [ -19.566100374296049, 14.970517262797525 ], [ -19.17257311727338, 15.262219798491104 ], [ -18.64099216364545, 15.105130604172647 ], [ -18.503387263410684, 14.65512642760395 ] ] ] ] } },
{ "type": "Feature", "properties": { "geogrid_id": "5214902056012889116", "seqnum": 13390.0, "lat_c": 14.902056474222343, "lon_c": -12.889115651261685, "res": 8.0, "count_Ferns": 0, "count_Mammals": 1, "count_Reptiles": 1, "count_Birds": 4, "count_Flowering Plants": 7, "count_Insects": 0, "count_Molluscs": 0, "count_Amphibians": 0, "count_Arachnids": 0, "count_Basidiomycota": 0, "count_Sac Fungi": 0, "unique_species_count": 13.0, "countryCode": "SN" }, "geometry": { "type": "MultiPolygon", "coordinates": [ [ [ [ -12.497757382637776, 15.1819204763201 ], [ -12.37220861716953, 14.717075648220158 ], [ -12.762649760423786, 14.437921345192624 ], [ -13.27977562370762, 14.621682953560317 ], [ -13.406466638876335, 15.085485023108584 ], [ -13.014907441026043, 15.366564043556963 ], [ -12.497757382637776, 15.1819204763201 ] ] ] ] } },
{ "type": "Feature", "properties": { "geogrid_id": "5214947083018111022", "seqnum": 11501.0, "lat_c": 14.947082654742687, "lon_c": -18.111022040954829, "res": 8.0, "count_Ferns": 0, "count_Mammals": 1, "count_Reptiles": 0, "count_Birds": 0, "count_Flowering Plants": 0, "count_Insects": 0, "count_Molluscs": 1, "count_Amphibians": 0, "count_Arachnids": 0, "count_Basidiomycota": 0, "count_Sac Fungi": 0, "unique_species_count": 2.0, "countryCode": "SN" }, "geometry": { "type": "MultiPolygon", "coordinates": [ [ [ [ -17.582583371433586, 14.787956717665825 ], [ -17.974459374310737, 14.496101597540676 ], [ -18.503387263410684, 14.65512642760395 ], [ -18.64099216364545, 15.105130604172647 ], [ -18.247811148021661, 15.397851885370279 ], [ -17.718322384355133, 15.239682254432536 ], [ -17.582583371433586, 14.787956717665825 ] ] ] ] } },
{ "type": "Feature", "properties": { "geogrid_id": "5214995715011981075", "seqnum": 13472.0, "lat_c": 14.995715456348373, "lon_c": -11.981074959981331, "res": 8.0, "count_Ferns": 0, "count_Mammals": 0, "count_Reptiles": 0, "count_Birds": 1, "count_Flowering Plants": 2, "count_Insects": 0, "count_Molluscs": 0, "count_Amphibians": 0, "count_Arachnids": 0, "count_Basidiomycota": 0, "count_Sac Fungi": 0, "unique_species_count": 3.0, "countryCode": "SN" }, "geometry": { "type": "MultiPolygon", "coordinates": [ [ [ [ -11.589212469462282, 15.273833855351404 ], [ -11.464736894940639, 14.808010672078202 ], [ -11.855622674964131, 14.530605007992671 ], [ -12.37220861716953, 14.717075648220158 ], [ -12.497757382637776, 15.1819204763201 ], [ -12.105664185659474, 15.4612678295428 ], [ -11.589212469462282, 15.273833855351404 ] ] ] ] } },
{ "type": "Feature", "properties": { "geogrid_id": "5215080303017190311", "seqnum": 11502.0, "lat_c": 15.080303349036596, "lon_c": -17.190310637396799, "res": 8.0, "count_Ferns": 0, "count_Mammals": 24, "count_Reptiles": 12, "count_Birds": 169, "count_Flowering Plants": 234, "count_Insects": 41, "count_Molluscs": 97, "count_Amphibians": 1, "count_Arachnids": 2, "count_Basidiomycota": 1, "count_Sac Fungi": 1, "unique_species_count": 582.0, "countryCode": "SN" }, "geometry": { "type": "MultiPolygon", "coordinates": [ [ [ [ -16.663708508778914, 14.919625310072593 ], [ -17.055603409767993, 14.627649197547221 ], [ -17.582583371433586, 14.787956717665825 ], [ -17.718322384355133, 15.239682254432536 ], [ -17.325215223921582, 15.532769164863035 ], [ -16.797570990005735, 15.372997087454197 ], [ -16.663708508778914, 14.919625310072593 ] ] ] ] } },
{ "type": "Feature", "properties": { "geogrid_id": "5215211820016271291", "seqnum": 11503.0, "lat_c": 15.211820035154572, "lon_c": -16.271291370318934, "res": 8.0, "count_Ferns": 0, "count_Mammals": 17, "count_Reptiles": 7, "count_Birds": 83, "count_Flowering Plants": 28, "count_Insects": 17, "count_Molluscs": 2, "count_Amphibians": 0, "count_Arachnids": 0, "count_Basidiomycota": 0, "count_Sac Fungi": 0, "unique_species_count": 154.0, "countryCode": "SN" }, "geometry": { "type": "MultiPolygon", "coordinates": [ [ [ [ -15.746318779453199, 15.049170408186979 ], [ -16.13845392021959, 14.757569903876638 ], [ -16.663708508778914, 14.919625310072593 ], [ -16.797570990005735, 15.372997087454197 ], [ -16.404295595233286, 15.665902240146206 ], [ -15.878285799183587, 15.504107207277194 ], [ -15.746318779453199, 15.049170408186979 ] ] ] ] } },
{ "type": "Feature", "properties": { "geogrid_id": "5215340754015353546", "seqnum": 13145.0, "lat_c": 15.340753764530932, "lon_c": -15.353546119293167, "res": 8.0, "count_Ferns": 0, "count_Mammals": 4, "count_Reptiles": 2, "count_Birds": 19, "count_Flowering Plants": 7, "count_Insects": 0, "count_Molluscs": 0, "count_Amphibians": 0, "count_Arachnids": 0, "count_Basidiomycota": 0, "count_Sac Fungi": 0, "unique_species_count": 32.0, "countryCode": "SN" }, "geometry": { "type": "MultiPolygon", "coordinates": [ [ [ [ -14.962239401862293, 15.625921242779036 ], [ -14.834112527935583, 15.163485974644423 ], [ -15.224619272293209, 14.879017837841602 ], [ -15.746318779453199, 15.049170408186979 ], [ -15.878285799183587, 15.504107207277194 ], [ -15.484626868073015, 15.796367924008379 ], [ -14.962239401862293, 15.625921242779036 ] ] ] ] } },
{ "type": "Feature", "properties": { "geogrid_id": "5215418488019705852", "seqnum": 11418.0, "lat_c": 15.41848781142671, "lon_c": -19.705851809327037, "res": 8.0, "count_Ferns": 0, "count_Mammals": 1, "count_Reptiles": 0, "count_Birds": 0, "count_Flowering Plants": 0, "count_Insects": 0, "count_Molluscs": 0, "count_Amphibians": 0, "count_Arachnids": 0, "count_Basidiomycota": 0, "count_Sac Fungi": 0, "unique_species_count": 1.0, "countryCode": "SN" }, "geometry": { "type": "MultiPolygon", "coordinates": [ [ [ [ -19.17257311727338, 15.262219798491104 ], [ -19.566100374296049, 14.970517262797525 ], [ -20.100065315512701, 15.127178630983778 ], [ -20.240923707741203, 15.574093819191461 ], [ -19.845909106152263, 15.86622151065062 ], [ -19.311520318365936, 15.71099288053472 ], [ -19.17257311727338, 15.262219798491104 ] ] ] ] } },
{ "type": "Feature", "properties": { "geogrid_id": "5215447466014442933", "seqnum": 13227.0, "lat_c": 15.447466045782011, "lon_c": -14.442932931663174, "res": 8.0, "count_Ferns": 0, "count_Mammals": 4, "count_Reptiles": 0, "count_Birds": 1, "count_Flowering Plants": 2, "count_Insects": 0, "count_Molluscs": 0, "count_Amphibians": 0, "count_Arachnids": 0, "count_Basidiomycota": 0, "count_Sac Fungi": 0, "unique_species_count": 7.0, "countryCode": "SN" }, "geometry": { "type": "MultiPolygon", "coordinates": [ [ [ [ -14.051043657232892, 15.730950574720442 ], [ -13.924372332471068, 15.26730516320724 ], [ -14.315401736431355, 14.984519450121107 ], [ -14.834112527935583, 15.163485974644423 ], [ -14.962239401862293, 15.625921242779036 ], [ -14.570221012218443, 15.910597675310344 ], [ -14.051043657232892, 15.730950574720442 ] ] ] ] } },
{ "type": "Feature", "properties": { "geogrid_id": "5215549591013532636", "seqnum": 13309.0, "lat_c": 15.549590783773439, "lon_c": -13.532636108593879, "res": 8.0, "count_Ferns": 0, "count_Mammals": 6, "count_Reptiles": 2, "count_Birds": 28, "count_Flowering Plants": 10, "count_Insects": 7, "count_Molluscs": 0, "count_Amphibians": 2, "count_Arachnids": 0, "count_Basidiomycota": 0, "count_Sac Fungi": 0, "unique_species_count": 55.0, "countryCode": "SN" }, "geometry": { "type": "MultiPolygon", "coordinates": [ [ [ [ -13.140155916707721, 15.831368782568543 ], [ -13.014907441026043, 15.366564043556963 ], [ -13.406466638876335, 15.085485023108584 ], [ -13.924372332471068, 15.26730516320724 ], [ -14.051043657232892, 15.730950574720442 ], [ -13.658407342098226, 16.013931852373769 ], [ -13.140155916707721, 15.831368782568543 ] ] ] ] } },
{ "type": "Feature", "properties": { "geogrid_id": "5215554916018778850", "seqnum": 11419.0, "lat_c": 15.554915661331888, "lon_c": -18.778850362492658, "res": 8.0, "count_Ferns": 0, "count_Mammals": 1, "count_Reptiles": 0, "count_Birds": 5, "count_Flowering Plants": 0, "count_Insects": 0, "count_Molluscs": 0, "count_Amphibians": 0, "count_Arachnids": 0, "count_Basidiomycota": 0, "count_Sac Fungi": 0, "unique_species_count": 6.0, "countryCode": "SN" }, "geometry": { "type": "MultiPolygon", "coordinates": [ [ [ [ -18.247811148021661, 15.397851885370279 ], [ -18.64099216364545, 15.105130604172647 ], [ -19.17257311727338, 15.262219798491104 ], [ -19.311520318365936, 15.71099288053472 ], [ -18.916987854818139, 16.004493113643882 ], [ -18.384852654548293, 15.848420881582941 ], [ -18.247811148021661, 15.397851885370279 ] ] ] ] } },
{ "type": "Feature", "properties": { "geogrid_id": "5215647131012622608", "seqnum": 13391.0, "lat_c": 15.6471309922043, "lon_c": -12.622608291989691, "res": 8.0, "count_Ferns": 0, "count_Mammals": 0, "count_Reptiles": 0, "count_Birds": 1, "count_Flowering Plants": 0, "count_Insects": 0, "count_Molluscs": 0, "count_Amphibians": 0, "count_Arachnids": 0, "count_Basidiomycota": 0, "count_Sac Fungi": 0, "unique_species_count": 1.0, "countryCode": "SN" }, "geometry": { "type": "MultiPolygon", "coordinates": [ [ [ [ -12.229531682932562, 15.927178304267429 ], [ -12.105664185659474, 15.4612678295428 ], [ -12.497757382637776, 15.1819204763201 ], [ -13.014907441026043, 15.366564043556963 ], [ -13.140155916707721, 15.831368782568543 ], [ -12.746894020851864, 16.112631388416435 ], [ -12.229531682932562, 15.927178304267429 ] ] ] ] } },
{ "type": "Feature", "properties": { "geogrid_id": "5215691214017854286", "seqnum": 11420.0, "lat_c": 15.691213952619973, "lon_c": -17.854286482620054, "res": 8.0, "count_Ferns": 0, "count_Mammals": 1, "count_Reptiles": 0, "count_Birds": 1, "count_Flowering Plants": 0, "count_Insects": 0, "count_Molluscs": 3, "count_Amphibians": 0, "count_Arachnids": 0, "count_Basidiomycota": 0, "count_Sac Fungi": 0, "unique_species_count": 5.0, "countryCode": "SN" }, "geometry": { "type": "MultiPolygon", "coordinates": [ [ [ [ -17.325215223921582, 15.532769164863035 ], [ -17.718322384355133, 15.239682254432536 ], [ -18.247811148021661, 15.397851885370279 ], [ -18.384852654548293, 15.848420881582941 ], [ -17.990502105490549, 16.14256363066378 ], [ -17.460343503811782, 15.985058470614909 ], [ -17.325215223921582, 15.532769164863035 ] ] ] ] } },
{ "type": "Feature", "properties": { "geogrid_id": "5215826197016931629", "seqnum": 11421.0, "lat_c": 15.826197027672452, "lon_c": -16.931628908199723, "res": 8.0, "count_Ferns": 0, "count_Mammals": 7, "count_Reptiles": 9, "count_Birds": 150, "count_Flowering Plants": 77, "count_Insects": 24, "count_Molluscs": 15, "count_Amphibians": 0, "count_Arachnids": 2, "count_Basidiomycota": 0, "count_Sac Fungi": 0, "unique_species_count": 284.0, "countryCode": "SN" }, "geometry": { "type": "MultiPolygon", "coordinates": [ [ [ [ -16.404295595233286, 15.665902240146206 ], [ -16.797570990005735, 15.372997087454197 ], [ -17.325215223921582, 15.532769164863035 ], [ -17.460343503811782, 15.985058470614909 ], [ -17.065909032324985, 16.279237106123951 ], [ -16.537493193600117, 16.119828450926221 ], [ -16.404295595233286, 15.665902240146206 ] ] ] ] } },
{ "type": "Feature", "properties": { "geogrid_id": "5215958891016010417", "seqnum": 11422.0, "lat_c": 15.958891174016157, "lon_c": -16.010416954720629, "res": 8.0, "count_Ferns": 0, "count_Mammals": 20, "count_Reptiles": 9, "count_Birds": 227, "count_Flowering Plants": 215, "count_Insects": 40, "count_Molluscs": 2, "count_Amphibians": 2, "count_Arachnids": 3, "count_Basidiomycota": 0, "count_Sac Fungi": 0, "unique_species_count": 518.0, "countryCode": "SN" }, "geometry": { "type": "MultiPolygon", "coordinates": [ [ [ [ -15.484626868073015, 15.796367924008379 ], [ -15.878285799183587, 15.504107207277194 ], [ -16.404295595233286, 15.665902240146206 ], [ -16.537493193600117, 16.119828450926221 ], [ -16.142739229412392, 16.41353432829974 ], [ -15.615868889617568, 16.251843712728181 ], [ -15.484626868073015, 15.796367924008379 ] ] ] ] } },
{ "type": "Feature", "properties": { "geogrid_id": "5216088490015090251", "seqnum": 13146.0, "lat_c": 16.088490008404648, "lon_c": -15.090250902096374, "res": 8.0, "count_Ferns": 0, "count_Mammals": 3, "count_Reptiles": 0, "count_Birds": 40, "count_Flowering Plants": 29, "count_Insects": 2, "count_Molluscs": 0, "count_Amphibians": 0, "count_Arachnids": 0, "count_Basidiomycota": 0, "count_Sac Fungi": 0, "unique_species_count": 74.0, "countryCode": "SN" }, "geometry": { "type": "MultiPolygon", "coordinates": [ [ [ [ -14.69737663059025, 16.37385738643129 ], [ -14.570221012218443, 15.910597675310344 ], [ -14.962239401862293, 15.625921242779036 ], [ -15.484626868073015, 15.796367924008379 ], [ -15.615868889617568, 16.251843712728181 ], [ -15.220586521510594, 16.544646578895925 ], [ -14.69737663059025, 16.37385738643129 ] ] ] ] } },
{ "type": "Feature", "properties": { "geogrid_id": "5216194775014177453", "seqnum": 13228.0, "lat_c": 16.194775187427012, "lon_c": -14.177453396114343, "res": 8.0, "count_Ferns": 0, "count_Mammals": 8, "count_Reptiles": 5, "count_Birds": 12, "count_Flowering Plants": 5, "count_Insects": 0, "count_Molluscs": 1, "count_Amphibians": 1, "count_Arachnids": 0, "count_Basidiomycota": 0, "count_Sac Fungi": 0, "unique_species_count": 32.0, "countryCode": "SN" }, "geometry": { "type": "MultiPolygon", "coordinates": [ [ [ [ -13.783898441274538, 16.478445641742336 ], [ -13.658407342098226, 16.013931852373769 ], [ -14.051043657232892, 15.730950574720442 ], [ -14.570221012218443, 15.910597675310344 ], [ -14.69737663059025, 16.37385738643129 ], [ -14.303713511155905, 16.658721872252933 ], [ -13.783898441274538, 16.478445641742336 ] ] ] ] } },
{ "type": "Feature", "properties": { "geogrid_id": "5216296402013264986", "seqnum": 13310.0, "lat_c": 16.296401916499605, "lon_c": -13.264986050739292, "res": 8.0, "count_Ferns": 0, "count_Mammals": 0, "count_Reptiles": 0, "count_Birds": 0, "count_Flowering Plants": 2, "count_Insects": 0, "count_Molluscs": 0, "count_Amphibians": 0, "count_Arachnids": 0, "count_Basidiomycota": 0, "count_Sac Fungi": 0, "unique_species_count": 2.0, "countryCode": "SN" }, "geometry": { "type": "MultiPolygon", "coordinates": [ [ [ [ -12.870741235884559, 16.578352529042245 ], [ -12.746894020851864, 16.112631388416435 ], [ -13.140155916707721, 15.831368782568543 ], [ -13.658407342098226, 16.013931852373769 ], [ -13.783898441274538, 16.478445641742336 ], [ -13.389517440662027, 16.761600615400916 ], [ -12.870741235884559, 16.578352529042245 ] ] ] ] } },
{ "type": "Feature", "properties": { "geogrid_id": "5216573611016670911", "seqnum": 11340.0, "lat_c": 16.573610756692879, "lon_c": -16.670911360229429, "res": 8.0, "count_Ferns": 0, "count_Mammals": 17, "count_Reptiles": 7, "count_Birds": 232, "count_Flowering Plants": 36, "count_Insects": 49, "count_Molluscs": 0, "count_Amphibians": 1, "count_Arachnids": 1, "count_Basidiomycota": 0, "count_Sac Fungi": 0, "unique_species_count": 343.0, "countryCode": "SN" }, "geometry": { "type": "MultiPolygon", "coordinates": [ [ [ [ -16.142739229412392, 16.41353432829974 ], [ -16.537493193600117, 16.119828450926221 ], [ -17.065909032324985, 16.279237106123951 ], [ -17.200438746241066, 16.732129469952067 ], [ -16.804577938261321, 17.027261410819115 ], [ -16.275280233213788, 16.868048839152571 ], [ -16.142739229412392, 16.41353432829974 ] ] ] ] } },
{ "type": "Feature", "properties": { "geogrid_id": "5216707193015747300", "seqnum": 11341.0, "lat_c": 16.707193210110646, "lon_c": -15.747299539110575, "res": 8.0, "count_Ferns": 0, "count_Mammals": 16, "count_Reptiles": 8, "count_Birds": 171, "count_Flowering Plants": 55, "count_Insects": 19, "count_Molluscs": 0, "count_Amphibians": 1, "count_Arachnids": 1, "count_Basidiomycota": 0, "count_Sac Fungi": 0, "unique_species_count": 271.0, "countryCode": "SN" }, "geometry": { "type": "MultiPolygon", "coordinates": [ [ [ [ -15.220586521510594, 16.544646578895925 ], [ -15.615868889617568, 16.251843712728181 ], [ -16.142739229412392, 16.41353432829974 ], [ -16.275280233213788, 16.868048839152571 ], [ -15.878946829111825, 17.162428633213263 ], [ -15.351107998735792, 17.000690722167281 ], [ -15.220586521510594, 16.544646578895925 ] ] ] ] } },
{ "type": "Feature", "properties": { "geogrid_id": "5216837193014824506", "seqnum": 13147.0, "lat_c": 16.837192875926128, "lon_c": -14.824506252334514, "res": 8.0, "count_Ferns": 0, "count_Mammals": 8, "count_Reptiles": 7, "count_Birds": 138, "count_Flowering Plants": 11, "count_Insects": 20, "count_Molluscs": 0, "count_Amphibians": 0, "count_Arachnids": 1, "count_Basidiomycota": 0, "count_Sac Fungi": 0, "unique_species_count": 185.0, "countryCode": "SN" }, "geometry": { "type": "MultiPolygon", "coordinates": [ [ [ [ -14.429931652280599, 17.122738257140902 ], [ -14.303713511155905, 16.658721872252933 ], [ -14.69737663059025, 16.37385738643129 ], [ -15.220586521510594, 16.544646578895925 ], [ -15.351107998735792, 17.000690722167285 ], [ -14.954099813036608, 17.293919028702778 ], [ -14.429931652280599, 17.122738257140902 ] ] ] ] } }
]
}
