{
"type": "FeatureCollection",
"name": "SR",
"crs": { "type": "name", "properties": { "name": "urn:ogc:def:crs:OGC:1.3:CRS84" } },
"features": [
{ "type": "Feature", "properties": { "geogrid_id": "5201793316056337602", "seqnum": 10885.0, "lat_c": 1.7933156085338271, "lon_c": -56.337602008701921, "res": 8.0, "count_Reptiles": 12, "count_Mammals": 5, "count_Birds": 38, "count_Flowering Plants": 0, "count_Molluscs": 5, "count_Amphibians": 20, "count_Insects": 2, "count_Sac Fungi": 0, "count_Arachnids": 0, "count_Ferns": 0, "count_Mosses": 0, "count_Basidiomycota": 0, "count_Gymnosperms": 0, "unique_species_count": 82.0, "countryCode": "SR" }, "geometry": { "type": "MultiPolygon", "coordinates": [ [ [ [ -55.860928299005487, 1.804058675165214 ], [ -56.120197687868099, 1.357260549060656 ], [ -56.595186819958265, 1.348008308331857 ], [ -56.817821223613642, 1.778186738237961 ], [ -56.560795204645018, 2.222733356951225 ], [ -56.080085149211854, 2.238335242587414 ], [ -55.860928299005487, 1.804058675165214 ] ] ] ] } },
{ "type": "Feature", "properties": { "geogrid_id": "5202201572057044587", "seqnum": 10803.0, "lat_c": 2.2015719372324072, "lon_c": -57.04458682966262, "res": 8.0, "count_Reptiles": 7, "count_Mammals": 0, "count_Birds": 22, "count_Flowering Plants": 4, "count_Molluscs": 0, "count_Amphibians": 13, "count_Insects": 0, "count_Sac Fungi": 0, "count_Arachnids": 1, "count_Ferns": 0, "count_Mosses": 0, "count_Basidiomycota": 0, "count_Gymnosperms": 0, "unique_species_count": 47.0, "countryCode": "SR" }, "geometry": { "type": "MultiPolygon", "coordinates": [ [ [ [ -56.560795204645018, 2.222733356951225 ], [ -56.817821223613642, 1.778186738237961 ], [ -57.301883107375168, 1.756065217943257 ], [ -57.531253820608228, 2.172028753792057 ], [ -57.273400716090137, 2.619718378867336 ], [ -56.787258265334351, 2.646741377869291 ], [ -56.560795204645018, 2.222733356951225 ] ] ] ] } },
{ "type": "Feature", "properties": { "geogrid_id": "5202250115055602274", "seqnum": 10886.0, "lat_c": 2.250114941767166, "lon_c": -55.60227430468354, "res": 8.0, "count_Reptiles": 10, "count_Mammals": 5, "count_Birds": 42, "count_Flowering Plants": 6, "count_Molluscs": 0, "count_Amphibians": 1, "count_Insects": 0, "count_Sac Fungi": 1, "count_Arachnids": 0, "count_Ferns": 0, "count_Mosses": 0, "count_Basidiomycota": 0, "count_Gymnosperms": 0, "unique_species_count": 65.0, "countryCode": "SR" }, "geometry": { "type": "MultiPolygon", "coordinates": [ [ [ [ -55.127053849362468, 2.259183725781776 ], [ -55.387305262461886, 1.811918720642903 ], [ -55.860928299005487, 1.804058675165214 ], [ -56.080085149211854, 2.238335242587414 ], [ -55.822484573912519, 2.68319249366806 ], [ -55.343824492458836, 2.695721595308203 ], [ -55.127053849362468, 2.259183725781776 ] ] ] ] } },
{ "type": "Feature", "properties": { "geogrid_id": "5202271894054183089", "seqnum": 10969.0, "lat_c": 2.2718944939416881, "lon_c": -54.183089038002507, "res": 8.0, "count_Reptiles": 5, "count_Mammals": 1, "count_Birds": 6, "count_Flowering Plants": 16, "count_Molluscs": 0, "count_Amphibians": 10, "count_Insects": 0, "count_Sac Fungi": 0, "count_Arachnids": 0, "count_Ferns": 1, "count_Mosses": 0, "count_Basidiomycota": 0, "count_Gymnosperms": 0, "unique_species_count": 39.0, "countryCode": "SR" }, "geometry": { "type": "MultiPolygon", "coordinates": [ [ [ [ -53.713762816395857, 2.276387228610499 ], [ -53.980139060124948, 1.825777724451981 ], [ -54.447306199250399, 1.822300464010534 ], [ -54.654094792408358, 2.266276666204151 ], [ -54.392982364892092, 2.713787799772523 ], [ -53.9203416672336, 2.720355433274095 ], [ -53.713762816395857, 2.276387228610499 ] ] ] ] } },
{ "type": "Feature", "properties": { "geogrid_id": "5202667280056303589", "seqnum": 10804.0, "lat_c": 2.6672798841943952, "lon_c": -56.303588512676441, "res": 8.0, "count_Reptiles": 13, "count_Mammals": 1, "count_Birds": 3, "count_Flowering Plants": 1, "count_Molluscs": 0, "count_Amphibians": 19, "count_Insects": 4, "count_Sac Fungi": 0, "count_Arachnids": 0, "count_Ferns": 1, "count_Mosses": 4, "count_Basidiomycota": 0, "count_Gymnosperms": 0, "unique_species_count": 46.0, "countryCode": "SR" }, "geometry": { "type": "MultiPolygon", "coordinates": [ [ [ [ -55.822484573912519, 2.68319249366806 ], [ -56.080085149211854, 2.238335242587414 ], [ -56.560795204645018, 2.222733356951225 ], [ -56.787258265334351, 2.646741377869291 ], [ -56.529810248052542, 3.091736093813808 ], [ -56.046164797559108, 3.111826254194002 ], [ -55.822484573912519, 2.68319249366806 ] ] ] ] } },
{ "type": "Feature", "properties": { "geogrid_id": "5202705720054867401", "seqnum": 10887.0, "lat_c": 2.705720122408628, "lon_c": -54.867400902242068, "res": 8.0, "count_Reptiles": 7, "count_Mammals": 0, "count_Birds": 1, "count_Flowering Plants": 12, "count_Molluscs": 0, "count_Amphibians": 11, "count_Insects": 3, "count_Sac Fungi": 0, "count_Arachnids": 0, "count_Ferns": 0, "count_Mosses": 0, "count_Basidiomycota": 0, "count_Gymnosperms": 0, "unique_species_count": 34.0, "countryCode": "SR" }, "geometry": { "type": "MultiPolygon", "coordinates": [ [ [ [ -54.392982364892092, 2.713787799772523 ], [ -54.654094792408358, 2.266276666204151 ], [ -55.127053849362468, 2.259183725781776 ], [ -55.343824492458836, 2.695721595308203 ], [ -55.085366928878223, 3.141032880146243 ], [ -54.607980291921699, 3.151756981489102 ], [ -54.392982364892092, 2.713787799772523 ] ] ] ] } },
{ "type": "Feature", "properties": { "geogrid_id": "5203066360057015604", "seqnum": 10722.0, "lat_c": 3.06636002200691, "lon_c": -57.015604055428213, "res": 8.0, "count_Reptiles": 1, "count_Mammals": 0, "count_Birds": 5, "count_Flowering Plants": 0, "count_Molluscs": 0, "count_Amphibians": 2, "count_Insects": 2, "count_Sac Fungi": 0, "count_Arachnids": 0, "count_Ferns": 1, "count_Mosses": 0, "count_Basidiomycota": 0, "count_Gymnosperms": 0, "unique_species_count": 11.0, "countryCode": "SR" }, "geometry": { "type": "MultiPolygon", "coordinates": [ [ [ [ -56.529810248052542, 3.091736093813808 ], [ -56.787258265334351, 2.646741377869291 ], [ -57.273400716090137, 2.619718378867336 ], [ -57.503233376365102, 3.033799192536275 ], [ -57.245049527493414, 3.482405639327312 ], [ -56.757761804248325, 3.512424480530096 ], [ -56.529810248052542, 3.091736093813808 ] ] ] ] } },
{ "type": "Feature", "properties": { "geogrid_id": "5203127947055564713", "seqnum": 10805.0, "lat_c": 3.1279474445471531, "lon_c": -55.56471268519585, "res": 8.0, "count_Reptiles": 23, "count_Mammals": 9, "count_Birds": 126, "count_Flowering Plants": 18, "count_Molluscs": 0, "count_Amphibians": 14, "count_Insects": 146, "count_Sac Fungi": 0, "count_Arachnids": 13, "count_Ferns": 0, "count_Mosses": 0, "count_Basidiomycota": 1, "count_Gymnosperms": 0, "unique_species_count": 350.0, "countryCode": "SR" }, "geometry": { "type": "MultiPolygon", "coordinates": [ [ [ [ -55.085366928878223, 3.141032880146243 ], [ -55.343824492458836, 2.695721595308203 ], [ -55.822484573912519, 2.68319249366806 ], [ -56.046164797559108, 3.111826254194002 ], [ -55.788487591205588, 3.556372375160374 ], [ -55.306706822133727, 3.572632435055517 ], [ -55.085366928878223, 3.141032880146243 ] ] ] ] } },
{ "type": "Feature", "properties": { "geogrid_id": "5203160616054132383", "seqnum": 10888.0, "lat_c": 3.160615939062656, "lon_c": -54.13238310656687, "res": 8.0, "count_Reptiles": 9, "count_Mammals": 5, "count_Birds": 7, "count_Flowering Plants": 56, "count_Molluscs": 5, "count_Amphibians": 19, "count_Insects": 160, "count_Sac Fungi": 0, "count_Arachnids": 7, "count_Ferns": 3, "count_Mosses": 0, "count_Basidiomycota": 0, "count_Gymnosperms": 0, "unique_species_count": 271.0, "countryCode": "SR" }, "geometry": { "type": "MultiPolygon", "coordinates": [ [ [ [ -53.65840293897665, 3.167980802797281 ], [ -53.9203416672336, 2.720355433274095 ], [ -54.392982364892092, 2.713787799772523 ], [ -54.607980291921699, 3.151756981489102 ], [ -54.348574892139382, 3.597434129285958 ], [ -53.871985745163798, 3.606938210575747 ], [ -53.65840293897665, 3.167980802797281 ] ] ] ] } },
{ "type": "Feature", "properties": { "geogrid_id": "5203444689057733565", "seqnum": 10640.0, "lat_c": 3.4446887934561499, "lon_c": -57.733564909586228, "res": 8.0, "count_Reptiles": 4, "count_Mammals": 0, "count_Birds": 18, "count_Flowering Plants": 2, "count_Molluscs": 0, "count_Amphibians": 5, "count_Insects": 0, "count_Sac Fungi": 0, "count_Arachnids": 1, "count_Ferns": 1, "count_Mosses": 0, "count_Basidiomycota": 0, "count_Gymnosperms": 0, "unique_species_count": 31.0, "countryCode": "SR" }, "geometry": { "type": "MultiPolygon", "coordinates": [ [ [ [ -57.245049527493414, 3.482405639327312 ], [ -57.503233376365102, 3.033799192536275 ], [ -57.991857705640577, 2.991251125796047 ], [ -58.222300887585554, 3.396589621217933 ], [ -57.964133997210673, 3.853041633467341 ], [ -57.475146612341803, 3.895523807543142 ], [ -57.245049527493414, 3.482405639327312 ] ] ] ] } },
{ "type": "Feature", "properties": { "geogrid_id": "5203536630056272180", "seqnum": 10723.0, "lat_c": 3.5366304513442608, "lon_c": -56.272179853621736, "res": 8.0, "count_Reptiles": 23, "count_Mammals": 8, "count_Birds": 57, "count_Flowering Plants": 14, "count_Molluscs": 0, "count_Amphibians": 26, "count_Insects": 28, "count_Sac Fungi": 1, "count_Arachnids": 1, "count_Ferns": 2, "count_Mosses": 23, "count_Basidiomycota": 0, "count_Gymnosperms": 0, "unique_species_count": 183.0, "countryCode": "SR" }, "geometry": { "type": "MultiPolygon", "coordinates": [ [ [ [ -55.788487591205588, 3.556372375160374 ], [ -56.046164797559108, 3.111826254194002 ], [ -56.529810248052542, 3.091736093813808 ], [ -56.757761804248325, 3.512424480530096 ], [ -56.499791568680699, 3.958140862503582 ], [ -56.01431549538443, 3.98146322919653 ], [ -55.788487591205588, 3.556372375160374 ] ] ] ] } },
{ "type": "Feature", "properties": { "geogrid_id": "5203586138054826772", "seqnum": 10806.0, "lat_c": 3.5861376030372751, "lon_c": -54.826772340940863, "res": 8.0, "count_Reptiles": 1, "count_Mammals": 3, "count_Birds": 30, "count_Flowering Plants": 10, "count_Molluscs": 0, "count_Amphibians": 2, "count_Insects": 7, "count_Sac Fungi": 0, "count_Arachnids": 1, "count_Ferns": 1, "count_Mosses": 0, "count_Basidiomycota": 0, "count_Gymnosperms": 0, "unique_species_count": 55.0, "countryCode": "SR" }, "geometry": { "type": "MultiPolygon", "coordinates": [ [ [ [ -54.348574892139382, 3.597434129285958 ], [ -54.607980291921699, 3.151756981489102 ], [ -55.085366928878223, 3.141032880146243 ], [ -55.306706822133727, 3.572632435055517 ], [ -55.048415596959678, 4.017266357225508 ], [ -54.567950564230486, 4.0310903767189 ], [ -54.348574892139382, 3.597434129285958 ] ] ] ] } },
{ "type": "Feature", "properties": { "geogrid_id": "5203929944056986833", "seqnum": 10641.0, "lat_c": 3.929944431749806, "lon_c": -56.986833447908261, "res": 8.0, "count_Reptiles": 1, "count_Mammals": 0, "count_Birds": 3, "count_Flowering Plants": 0, "count_Molluscs": 0, "count_Amphibians": 0, "count_Insects": 0, "count_Sac Fungi": 0, "count_Arachnids": 0, "count_Ferns": 0, "count_Mosses": 0, "count_Basidiomycota": 0, "count_Gymnosperms": 0, "unique_species_count": 4.0, "countryCode": "SR" }, "geometry": { "type": "MultiPolygon", "coordinates": [ [ [ [ -56.499791568680699, 3.958140862503582 ], [ -56.757761804248325, 3.512424480530096 ], [ -57.245049527493414, 3.482405639327312 ], [ -57.475146612341803, 3.895523807543142 ], [ -57.216645933777983, 4.344789399486044 ], [ -56.728514995335857, 4.376815613042162 ], [ -56.499791568680699, 3.958140862503582 ] ] ] ] } },
{ "type": "Feature", "properties": { "geogrid_id": "5204000918055530520", "seqnum": 10724.0, "lat_c": 4.0009181248526726, "lon_c": -55.530520287627169, "res": 8.0, "count_Reptiles": 39, "count_Mammals": 12, "count_Birds": 104, "count_Flowering Plants": 29, "count_Molluscs": 4, "count_Amphibians": 11, "count_Insects": 145, "count_Sac Fungi": 4, "count_Arachnids": 9, "count_Ferns": 0, "count_Mosses": 0, "count_Basidiomycota": 1, "count_Gymnosperms": 0, "unique_species_count": 358.0, "countryCode": "SR" }, "geometry": { "type": "MultiPolygon", "coordinates": [ [ [ [ -55.048415596959678, 4.017266357225508 ], [ -55.306706822133727, 3.572632435055517 ], [ -55.788487591205588, 3.556372375160374 ], [ -56.01431549538443, 3.98146322919653 ], [ -55.756171342655854, 4.426256579727468 ], [ -55.272226122829089, 4.445463346097879 ], [ -55.048415596959678, 4.017266357225508 ] ] ] ] } },
{ "type": "Feature", "properties": { "geogrid_id": "5204042841054089041", "seqnum": 10807.0, "lat_c": 4.0428414438815956, "lon_c": -54.089041162943452, "res": 8.0, "count_Reptiles": 1, "count_Mammals": 16, "count_Birds": 5, "count_Flowering Plants": 54, "count_Molluscs": 1, "count_Amphibians": 2, "count_Insects": 27, "count_Sac Fungi": 0, "count_Arachnids": 1, "count_Ferns": 1, "count_Mosses": 0, "count_Basidiomycota": 0, "count_Gymnosperms": 0, "unique_species_count": 108.0, "countryCode": "SR" }, "geometry": { "type": "MultiPolygon", "coordinates": [ [ [ [ -53.611586854821759, 4.052873080630864 ], [ -53.871985745163798, 3.606938210575747 ], [ -54.348574892139382, 3.597434129285958 ], [ -54.567950564230486, 4.0310903767189 ], [ -54.308831783668751, 4.475926545252734 ], [ -53.829275118839362, 4.488039172408611 ], [ -53.611586854821759, 4.052873080630864 ] ] ] ] } },
{ "type": "Feature", "properties": { "geogrid_id": "5204306225057705639", "seqnum": 10559.0, "lat_c": 4.30622483850384, "lon_c": -57.705639136828779, "res": 8.0, "count_Reptiles": 2, "count_Mammals": 6, "count_Birds": 55, "count_Flowering Plants": 1, "count_Molluscs": 0, "count_Amphibians": 0, "count_Insects": 13, "count_Sac Fungi": 0, "count_Arachnids": 1, "count_Ferns": 0, "count_Mosses": 0, "count_Basidiomycota": 1, "count_Gymnosperms": 0, "unique_species_count": 79.0, "countryCode": "SR" }, "geometry": { "type": "MultiPolygon", "coordinates": [ [ [ [ -57.216645933777983, 4.344789399486044 ], [ -57.475146612341803, 3.895523807543142 ], [ -57.964133997210673, 3.853041633467341 ], [ -58.1948155489196, 4.259352609091287 ], [ -57.936383892557856, 4.714914011455158 ], [ -57.446963606235606, 4.757364673400122 ], [ -57.216645933777983, 4.344789399486044 ] ] ] ] } },
{ "type": "Feature", "properties": { "geogrid_id": "5204403634056241626", "seqnum": 10642.0, "lat_c": 4.4036338446453298, "lon_c": -56.241626044039663, "res": 8.0, "count_Reptiles": 14, "count_Mammals": 7, "count_Birds": 117, "count_Flowering Plants": 51, "count_Molluscs": 0, "count_Amphibians": 9, "count_Insects": 63, "count_Sac Fungi": 1, "count_Arachnids": 7, "count_Ferns": 1, "count_Mosses": 0, "count_Basidiomycota": 1, "count_Gymnosperms": 1, "unique_species_count": 272.0, "countryCode": "SR" }, "geometry": { "type": "MultiPolygon", "coordinates": [ [ [ [ -55.756171342655854, 4.426256579727468 ], [ -56.01431549538443, 3.98146322919653 ], [ -56.499791568680699, 3.958140862503582 ], [ -56.728514995335857, 4.376815613042162 ], [ -56.470026510224145, 4.82324543387826 ], [ -55.9832077051705, 4.848976992205976 ], [ -55.756171342655854, 4.426256579727468 ] ] ] ] } },
{ "type": "Feature", "properties": { "geogrid_id": "5204461861054789793", "seqnum": 10725.0, "lat_c": 4.4618609278619576, "lon_c": -54.789793260928178, "res": 8.0, "count_Reptiles": 13, "count_Mammals": 14, "count_Birds": 49, "count_Flowering Plants": 41, "count_Molluscs": 2, "count_Amphibians": 10, "count_Insects": 124, "count_Sac Fungi": 0, "count_Arachnids": 6, "count_Ferns": 0, "count_Mosses": 0, "count_Basidiomycota": 0, "count_Gymnosperms": 1, "unique_species_count": 260.0, "countryCode": "SR" }, "geometry": { "type": "MultiPolygon", "coordinates": [ [ [ [ -54.308831783668751, 4.475926545252734 ], [ -54.567950564230486, 4.0310903767189 ], [ -55.048415596959678, 4.017266357225508 ], [ -55.272226122829089, 4.445463346097879 ], [ -55.013568154542725, 4.890007842256925 ], [ -54.530797082855251, 4.906423738783837 ], [ -54.308831783668751, 4.475926545252734 ] ] ] ] } },
{ "type": "Feature", "properties": { "geogrid_id": "5204793043056958030", "seqnum": 10560.0, "lat_c": 4.7930429372597692, "lon_c": -56.958029991099046, "res": 8.0, "count_Reptiles": 29, "count_Mammals": 19, "count_Birds": 189, "count_Flowering Plants": 55, "count_Molluscs": 1, "count_Amphibians": 26, "count_Insects": 189, "count_Sac Fungi": 1, "count_Arachnids": 23, "count_Ferns": 2, "count_Mosses": 1, "count_Basidiomycota": 0, "count_Gymnosperms": 0, "unique_species_count": 535.0, "countryCode": "SR" }, "geometry": { "type": "MultiPolygon", "coordinates": [ [ [ [ -56.470026510224145, 4.82324543387826 ], [ -56.728514995335857, 4.376815613042162 ], [ -57.216645933777983, 4.344789399486044 ], [ -57.446963606235606, 4.757364673400122 ], [ -57.188125613402171, 5.207150817664751 ], [ -56.699245837916841, 5.240610832832589 ], [ -56.470026510224145, 4.82324543387826 ] ] ] ] } },
{ "type": "Feature", "properties": { "geogrid_id": "5204871024055497705", "seqnum": 10643.0, "lat_c": 4.8710240249099153, "lon_c": -55.49770467161887, "res": 8.0, "count_Reptiles": 75, "count_Mammals": 53, "count_Birds": 355, "count_Flowering Plants": 209, "count_Molluscs": 7, "count_Amphibians": 56, "count_Insects": 1075, "count_Sac Fungi": 5, "count_Arachnids": 56, "count_Ferns": 9, "count_Mosses": 5, "count_Basidiomycota": 14, "count_Gymnosperms": 0, "unique_species_count": 1919.0, "countryCode": "SR" }, "geometry": { "type": "MultiPolygon", "coordinates": [ [ [ [ -55.013568154542725, 4.890007842256925 ], [ -55.272226122829089, 4.445463346097879 ], [ -55.756171342655854, 4.426256579727468 ], [ -55.9832077051705, 4.848976992205976 ], [ -55.72448522874587, 5.29421644834293 ], [ -55.238874500058202, 5.315774231894376 ], [ -55.013568154542725, 4.890007842256925 ] ] ] ] } },
{ "type": "Feature", "properties": { "geogrid_id": "5204920670054049358", "seqnum": 10726.0, "lat_c": 4.9206699192203356, "lon_c": -54.049357549366945, "res": 8.0, "count_Reptiles": 2, "count_Mammals": 0, "count_Birds": 6, "count_Flowering Plants": 18, "count_Molluscs": 0, "count_Amphibians": 1, "count_Insects": 55, "count_Sac Fungi": 0, "count_Arachnids": 3, "count_Ferns": 0, "count_Mosses": 0, "count_Basidiomycota": 0, "count_Gymnosperms": 0, "unique_species_count": 85.0, "countryCode": "SR" }, "geometry": { "type": "MultiPolygon", "coordinates": [ [ [ [ -53.569195469570815, 4.933069106442209 ], [ -53.829275118839362, 4.488039172408611 ], [ -54.308831783668751, 4.475926545252734 ], [ -54.530797082855251, 4.906423738783837 ], [ -54.271386010089543, 5.350959861912864 ], [ -53.789476103951394, 5.365337054832695 ], [ -53.569195469570815, 4.933069106442209 ] ] ] ] } },
{ "type": "Feature", "properties": { "geogrid_id": "5205168004057677642", "seqnum": 10478.0, "lat_c": 5.1680037154989966, "lon_c": -57.677642117177037, "res": 8.0, "count_Reptiles": 0, "count_Mammals": 2, "count_Birds": 21, "count_Flowering Plants": 0, "count_Molluscs": 0, "count_Amphibians": 1, "count_Insects": 5, "count_Sac Fungi": 0, "count_Arachnids": 1, "count_Ferns": 0, "count_Mosses": 0, "count_Basidiomycota": 0, "count_Gymnosperms": 0, "unique_species_count": 30.0, "countryCode": "SR" }, "geometry": { "type": "MultiPolygon", "coordinates": [ [ [ [ -57.188125613402171, 5.207150817664751 ], [ -57.446963606235606, 4.757364673400122 ], [ -57.936383892557856, 4.714914011455158 ], [ -58.167305673576976, 5.121915453419475 ], [ -57.90859621364509, 5.576981961388557 ], [ -57.418664441299015, 5.619416380282572 ], [ -57.188125613402171, 5.207150817664751 ] ] ] ] } },
{ "type": "Feature", "properties": { "geogrid_id": "5205269371056211306", "seqnum": 10561.0, "lat_c": 5.2693712926046503, "lon_c": -56.21130647990546, "res": 8.0, "count_Reptiles": 7, "count_Mammals": 8, "count_Birds": 42, "count_Flowering Plants": 15, "count_Molluscs": 1, "count_Amphibians": 3, "count_Insects": 39, "count_Sac Fungi": 0, "count_Arachnids": 1, "count_Ferns": 0, "count_Mosses": 0, "count_Basidiomycota": 0, "count_Gymnosperms": 0, "unique_species_count": 116.0, "countryCode": "SR" }, "geometry": { "type": "MultiPolygon", "coordinates": [ [ [ [ -55.72448522874587, 5.29421644834293 ], [ -55.9832077051705, 4.848976992205976 ], [ -56.470026510224145, 4.82324543387826 ], [ -56.699245837916841, 5.240610832832589 ], [ -56.440237036244035, 5.687696618567259 ], [ -55.952298935018042, 5.715281346682072 ], [ -55.72448522874587, 5.29421644834293 ] ] ] ] } },
{ "type": "Feature", "properties": { "geogrid_id": "5205334551054754509", "seqnum": 10644.0, "lat_c": 5.3345513726309761, "lon_c": -54.754509241773746, "res": 8.0, "count_Reptiles": 55, "count_Mammals": 17, "count_Birds": 271, "count_Flowering Plants": 138, "count_Molluscs": 0, "count_Amphibians": 39, "count_Insects": 959, "count_Sac Fungi": 3, "count_Arachnids": 28, "count_Ferns": 3, "count_Mosses": 1, "count_Basidiomycota": 15, "count_Gymnosperms": 0, "unique_species_count": 1529.0, "countryCode": "SR" }, "geometry": { "type": "MultiPolygon", "coordinates": [ [ [ [ -54.271386010089543, 5.350959861912864 ], [ -54.530797082855251, 4.906423738783837 ], [ -55.013568154542725, 4.890007842256925 ], [ -55.238874500058202, 5.315774231894376 ], [ -54.979640832012926, 5.760512955165368 ], [ -54.495012024144714, 5.779093647800839 ], [ -54.271386010089543, 5.350959861912864 ] ] ] ] } },
{ "type": "Feature", "properties": { "geogrid_id": "5205656000056929097", "seqnum": 10479.0, "lat_c": 5.6560000708600571, "lon_c": -56.929097497594867, "res": 8.0, "count_Reptiles": 17, "count_Mammals": 16, "count_Birds": 193, "count_Flowering Plants": 19, "count_Molluscs": 14, "count_Amphibians": 5, "count_Insects": 34, "count_Sac Fungi": 0, "count_Arachnids": 6, "count_Ferns": 2, "count_Mosses": 0, "count_Basidiomycota": 0, "count_Gymnosperms": 0, "unique_species_count": 306.0, "countryCode": "SR" }, "geometry": { "type": "MultiPolygon", "coordinates": [ [ [ [ -56.440237036244035, 5.687696618567259 ], [ -56.699245837916841, 5.240610832832589 ], [ -57.188125613402171, 5.207150817664751 ], [ -57.418664441299015, 5.619416380282572 ], [ -57.159454438455683, 6.069646060386951 ], [ -56.669835291813136, 6.104178702836423 ], [ -56.440237036244035, 5.687696618567259 ] ] ] ] } },
{ "type": "Feature", "properties": { "geogrid_id": "5205739383055465411", "seqnum": 10562.0, "lat_c": 5.7393825626059911, "lon_c": -55.465411253111803, "res": 8.0, "count_Reptiles": 76, "count_Mammals": 50, "count_Birds": 479, "count_Flowering Plants": 274, "count_Molluscs": 69, "count_Amphibians": 34, "count_Insects": 615, "count_Sac Fungi": 2, "count_Arachnids": 46, "count_Ferns": 1, "count_Mosses": 4, "count_Basidiomycota": 32, "count_Gymnosperms": 0, "unique_species_count": 1682.0, "countryCode": "SR" }, "geometry": { "type": "MultiPolygon", "coordinates": [ [ [ [ -54.979640832012926, 5.760512955165368 ], [ -55.238874500058202, 5.315774231894376 ], [ -55.72448522874587, 5.29421644834293 ], [ -55.952298935018042, 5.715281346682072 ], [ -55.69295217128716, 6.161034681308277 ], [ -55.205940974437368, 6.184496057237695 ], [ -54.979640832012926, 5.760512955165368 ] ] ] ] } },
{ "type": "Feature", "properties": { "geogrid_id": "5205795473054011520", "seqnum": 10645.0, "lat_c": 5.7954727482751727, "lon_c": -54.011519930525324, "res": 8.0, "count_Reptiles": 12, "count_Mammals": 7, "count_Birds": 77, "count_Flowering Plants": 12, "count_Molluscs": 4, "count_Amphibians": 5, "count_Insects": 48, "count_Sac Fungi": 0, "count_Arachnids": 3, "count_Ferns": 0, "count_Mosses": 0, "count_Basidiomycota": 1, "count_Gymnosperms": 0, "unique_species_count": 169.0, "countryCode": "SR" }, "geometry": { "type": "MultiPolygon", "coordinates": [ [ [ [ -53.529139785068267, 5.809939750651695 ], [ -53.789476103951394, 5.365337054832695 ], [ -54.271386010089543, 5.350959861912864 ], [ -54.495012024144714, 5.779093647800839 ], [ -54.235038901010554, 6.223634324892254 ], [ -53.751159238548851, 6.239964757494518 ], [ -53.529139785068267, 5.809939750651695 ] ] ] ] } },
{ "type": "Feature", "properties": { "geogrid_id": "5206134434056180948", "seqnum": 10480.0, "lat_c": 6.134433632234253, "lon_c": -56.180948498899731, "res": 8.0, "count_Reptiles": 6, "count_Mammals": 7, "count_Birds": 115, "count_Flowering Plants": 3, "count_Molluscs": 3, "count_Amphibians": 5, "count_Insects": 16, "count_Sac Fungi": 0, "count_Arachnids": 0, "count_Ferns": 0, "count_Mosses": 0, "count_Basidiomycota": 0, "count_Gymnosperms": 1, "unique_species_count": 156.0, "countryCode": "SR" }, "geometry": { "type": "MultiPolygon", "coordinates": [ [ [ [ -55.69295217128716, 6.161034681308277 ], [ -55.952298935018042, 5.715281346682072 ], [ -56.440237036244035, 5.687696618567259 ], [ -56.669835291813136, 6.104178702836423 ], [ -56.410289847999174, 6.551864549010245 ], [ -55.921327609959725, 6.580912772470149 ], [ -55.69295217128716, 6.161034681308277 ] ] ] ] } },
{ "type": "Feature", "properties": { "geogrid_id": "5206205244054719964", "seqnum": 10563.0, "lat_c": 6.2052441049120626, "lon_c": -54.719964212981296, "res": 8.0, "count_Reptiles": 14, "count_Mammals": 10, "count_Birds": 167, "count_Flowering Plants": 14, "count_Molluscs": 50, "count_Amphibians": 7, "count_Insects": 104, "count_Sac Fungi": 0, "count_Arachnids": 12, "count_Ferns": 0, "count_Mosses": 0, "count_Basidiomycota": 1, "count_Gymnosperms": 0, "unique_species_count": 379.0, "countryCode": "SR" }, "geometry": { "type": "MultiPolygon", "coordinates": [ [ [ [ -54.235038901010554, 6.223634324892254 ], [ -54.495012024144714, 5.779093647800839 ], [ -54.979640832012926, 5.760512955165368 ], [ -55.205940974437368, 6.184496057237695 ], [ -54.946031248136684, 6.62957150484228 ], [ -54.459805452720538, 6.649970367188075 ], [ -54.235038901010554, 6.223634324892254 ] ] ] ] } },
{ "type": "Feature", "properties": { "geogrid_id": "5206519015056899986", "seqnum": 10398.0, "lat_c": 6.5190154699770133, "lon_c": -56.89998567118149, "res": 8.0, "count_Reptiles": 1, "count_Mammals": 1, "count_Birds": 0, "count_Flowering Plants": 0, "count_Molluscs": 0, "count_Amphibians": 0, "count_Insects": 0, "count_Sac Fungi": 0, "count_Arachnids": 0, "count_Ferns": 0, "count_Mosses": 0, "count_Basidiomycota": 0, "count_Gymnosperms": 0, "unique_species_count": 2.0, "countryCode": "SR" }, "geometry": { "type": "MultiPolygon", "coordinates": [ [ [ [ -56.410289847999174, 6.551864549010245 ], [ -56.669835291813136, 6.104178702836423 ], [ -57.159454438455683, 6.069646060386951 ], [ -57.390231951300478, 6.481749879123123 ], [ -57.130608299486639, 6.932380492649812 ], [ -56.640218834862345, 6.967744030264551 ], [ -56.410289847999174, 6.551864549010245 ] ] ] ] } },
{ "type": "Feature", "properties": { "geogrid_id": "5206606672055433218", "seqnum": 10481.0, "lat_c": 6.6066723154733209, "lon_c": -55.433217603248437, "res": 8.0, "count_Reptiles": 3, "count_Mammals": 3, "count_Birds": 12, "count_Flowering Plants": 0, "count_Molluscs": 0, "count_Amphibians": 0, "count_Insects": 0, "count_Sac Fungi": 0, "count_Arachnids": 0, "count_Ferns": 0, "count_Mosses": 0, "count_Basidiomycota": 0, "count_Gymnosperms": 0, "unique_species_count": 18.0, "countryCode": "SR" }, "geometry": { "type": "MultiPolygon", "coordinates": [ [ [ [ -54.946031248136684, 6.62957150484228 ], [ -55.205940974437368, 6.184496057237695 ], [ -55.69295217128716, 6.161034681308277 ], [ -55.921327609959725, 6.580912772470149 ], [ -55.66132416559995, 7.027198060371008 ], [ -55.17304887751942, 7.052223554732837 ], [ -54.946031248136684, 6.62957150484228 ] ] ] ] } },
{ "type": "Feature", "properties": { "geogrid_id": "5206668173053974552", "seqnum": 10564.0, "lat_c": 6.6681730027597226, "lon_c": -53.974552010324949, "res": 8.0, "count_Reptiles": 3, "count_Mammals": 4, "count_Birds": 6, "count_Flowering Plants": 0, "count_Molluscs": 6, "count_Amphibians": 0, "count_Insects": 0, "count_Sac Fungi": 0, "count_Arachnids": 0, "count_Ferns": 0, "count_Mosses": 0, "count_Basidiomycota": 0, "count_Gymnosperms": 0, "unique_species_count": 19.0, "countryCode": "SR" }, "geometry": { "type": "MultiPolygon", "coordinates": [ [ [ [ -53.490264564433005, 6.684437482693366 ], [ -53.751159238548851, 6.239964757494518 ], [ -54.235038901010554, 6.223634324892254 ], [ -54.459805452720538, 6.649970367188075 ], [ -54.199125443028478, 7.094693579961585 ], [ -53.71351320723528, 7.112709217081349 ], [ -53.490264564433005, 6.684437482693366 ] ] ] ] } },
{ "type": "Feature", "properties": { "geogrid_id": "5206999181056150411", "seqnum": 10399.0, "lat_c": 6.99918077153146, "lon_c": -56.150411090993188, "res": 8.0, "count_Reptiles": 2, "count_Mammals": 2, "count_Birds": 0, "count_Flowering Plants": 0, "count_Molluscs": 0, "count_Amphibians": 0, "count_Insects": 0, "count_Sac Fungi": 0, "count_Arachnids": 0, "count_Ferns": 0, "count_Mosses": 0, "count_Basidiomycota": 0, "count_Gymnosperms": 0, "unique_species_count": 4.0, "countryCode": "SR" }, "geometry": { "type": "MultiPolygon", "coordinates": [ [ [ [ -55.66132416559995, 7.027198060371008 ], [ -55.921327609959725, 6.580912772470149 ], [ -56.410289847999174, 6.551864549010245 ], [ -56.640218834862345, 6.967744030264551 ], [ -56.380109307071976, 7.41598595871865 ], [ -55.890149570726166, 7.446215274169381 ], [ -55.66132416559995, 7.027198060371008 ] ] ] ] } },
{ "type": "Feature", "properties": { "geogrid_id": "5207074619054685640", "seqnum": 10482.0, "lat_c": 7.0746193909106454, "lon_c": -54.685639997641211, "res": 8.0, "count_Reptiles": 2, "count_Mammals": 4, "count_Birds": 4, "count_Flowering Plants": 0, "count_Molluscs": 11, "count_Amphibians": 0, "count_Insects": 0, "count_Sac Fungi": 0, "count_Arachnids": 0, "count_Ferns": 0, "count_Mosses": 0, "count_Basidiomycota": 0, "count_Gymnosperms": 0, "unique_species_count": 21.0, "countryCode": "SR" }, "geometry": { "type": "MultiPolygon", "coordinates": [ [ [ [ -54.199125443028478, 7.094693579961585 ], [ -54.459805452720538, 6.649970367188075 ], [ -54.946031248136684, 6.62957150484228 ], [ -55.17304887751942, 7.052223554732837 ], [ -54.912401215124284, 7.497709832161639 ], [ -54.424725813729857, 7.519647389234139 ], [ -54.199125443028478, 7.094693579961585 ] ] ] ] } },
{ "type": "Feature", "properties": { "geogrid_id": "5207128892053228797", "seqnum": 10565.0, "lat_c": 7.1288919566307394, "lon_c": -53.2287965962065, "res": 8.0, "count_Reptiles": 0, "count_Mammals": 4, "count_Birds": 1, "count_Flowering Plants": 0, "count_Molluscs": 0, "count_Amphibians": 0, "count_Insects": 0, "count_Sac Fungi": 0, "count_Arachnids": 0, "count_Ferns": 0, "count_Mosses": 0, "count_Basidiomycota": 0, "count_Gymnosperms": 0, "unique_species_count": 5.0, "countryCode": "SR" }, "geometry": { "type": "MultiPolygon", "coordinates": [ [ [ [ -52.744958190945937, 7.143436106413636 ], [ -53.006923781394271, 6.698983805431197 ], [ -53.490264564433005, 6.684437482693366 ], [ -53.71351320723528, 7.112709217081349 ], [ -53.451884042383362, 7.557242435356978 ], [ -52.966715956104927, 7.573328786065588 ], [ -52.744958190945937, 7.143436106413636 ] ] ] ] } },
{ "type": "Feature", "properties": { "geogrid_id": "5207473336055400890", "seqnum": 10400.0, "lat_c": 7.4733358217543131, "lon_c": -55.400889984870076, "res": 8.0, "count_Reptiles": 0, "count_Mammals": 8, "count_Birds": 2, "count_Flowering Plants": 0, "count_Molluscs": 0, "count_Amphibians": 0, "count_Insects": 0, "count_Sac Fungi": 0, "count_Arachnids": 0, "count_Ferns": 0, "count_Mosses": 0, "count_Basidiomycota": 0, "count_Gymnosperms": 0, "unique_species_count": 10.0, "countryCode": "SR" }, "geometry": { "type": "MultiPolygon", "coordinates": [ [ [ [ -54.912401215124284, 7.497709832161639 ], [ -55.17304887751942, 7.052223554732837 ], [ -55.66132416559995, 7.027198060371008 ], [ -55.890149570726166, 7.446215274169381 ], [ -55.629456923307963, 7.893032399377016 ], [ -55.139978475653599, 7.919360341463428 ], [ -54.912401215124284, 7.497709832161639 ] ] ] ] } },
{ "type": "Feature", "properties": { "geogrid_id": "5207539415053937885", "seqnum": 10483.0, "lat_c": 7.5394149694133317, "lon_c": -53.937885031626706, "res": 8.0, "count_Reptiles": 0, "count_Mammals": 6, "count_Birds": 11, "count_Flowering Plants": 0, "count_Molluscs": 0, "count_Amphibians": 0, "count_Insects": 0, "count_Sac Fungi": 0, "count_Arachnids": 0, "count_Ferns": 0, "count_Mosses": 0, "count_Basidiomycota": 0, "count_Gymnosperms": 0, "unique_species_count": 17.0, "countryCode": "SR" }, "geometry": { "type": "MultiPolygon", "coordinates": [ [ [ [ -53.451884042383362, 7.557242435356978 ], [ -53.71351320723528, 7.112709217081349 ], [ -54.199125443028478, 7.094693579961585 ], [ -54.424725813729857, 7.519647389234139 ], [ -54.163247674682211, 7.964661178777191 ], [ -53.676044930358493, 7.984135302770087 ], [ -53.451884042383362, 7.557242435356978 ] ] ] ] } },
{ "type": "Feature", "properties": { "geogrid_id": "5207863853056119611", "seqnum": 10318.0, "lat_c": 7.8638526974626872, "lon_c": -56.119610539073676, "res": 8.0, "count_Reptiles": 0, "count_Mammals": 4, "count_Birds": 1, "count_Flowering Plants": 0, "count_Molluscs": 0, "count_Amphibians": 0, "count_Insects": 0, "count_Sac Fungi": 0, "count_Arachnids": 0, "count_Ferns": 0, "count_Mosses": 0, "count_Basidiomycota": 0, "count_Gymnosperms": 0, "unique_species_count": 5.0, "countryCode": "SR" }, "geometry": { "type": "MultiPolygon", "coordinates": [ [ [ [ -55.629456923307963, 7.893032399377016 ], [ -55.890149570726166, 7.446215274169381 ], [ -56.380109307071976, 7.41598595871865 ], [ -56.610354622106584, 7.831460574979551 ], [ -56.349645737983003, 8.28022697540449 ], [ -55.858675565723139, 8.311426693753159 ], [ -55.629456923307963, 7.893032399377016 ] ] ] ] } },
{ "type": "Feature", "properties": { "geogrid_id": "5207943147054651231", "seqnum": 10401.0, "lat_c": 7.9431471228587949, "lon_c": -54.651230927647994, "res": 8.0, "count_Reptiles": 1, "count_Mammals": 13, "count_Birds": 24, "count_Flowering Plants": 0, "count_Molluscs": 0, "count_Amphibians": 0, "count_Insects": 0, "count_Sac Fungi": 0, "count_Arachnids": 0, "count_Ferns": 0, "count_Mosses": 0, "count_Basidiomycota": 0, "count_Gymnosperms": 0, "unique_species_count": 38.0, "countryCode": "SR" }, "geometry": { "type": "MultiPolygon", "coordinates": [ [ [ [ -54.163247674682211, 7.964661178777191 ], [ -54.424725813729857, 7.519647389234139 ], [ -54.912401215124284, 7.497709832161639 ], [ -55.139978475653599, 7.919360341463428 ], [ -54.87854424462904, 8.365297473415788 ], [ -54.389495059104327, 8.388547512850835 ], [ -54.163247674682211, 7.964661178777191 ] ] ] ] } },
{ "type": "Feature", "properties": { "geogrid_id": "5208001772053189626", "seqnum": 10484.0, "lat_c": 8.0017720518017263, "lon_c": -53.189625739888974, "res": 8.0, "count_Reptiles": 0, "count_Mammals": 4, "count_Birds": 4, "count_Flowering Plants": 0, "count_Molluscs": 0, "count_Amphibians": 0, "count_Insects": 0, "count_Sac Fungi": 0, "count_Arachnids": 0, "count_Ferns": 0, "count_Mosses": 0, "count_Basidiomycota": 0, "count_Gymnosperms": 0, "unique_species_count": 8.0, "countryCode": "SR" }, "geometry": { "type": "MultiPolygon", "coordinates": [ [ [ [ -52.703983110401232, 8.017748241204902 ], [ -52.966715956104927, 7.573328786065588 ], [ -53.451884042383362, 7.557242435356978 ], [ -53.676044930358493, 7.984135302770087 ], [ -53.413565645000858, 8.428854989441337 ], [ -52.926699174992493, 8.446297382126767 ], [ -52.703983110401232, 8.017748241204902 ] ] ] ] } },
{ "type": "Feature", "properties": { "geogrid_id": "5208339680055368286", "seqnum": 10319.0, "lat_c": 8.3396802578157576, "lon_c": -55.368285894446444, "res": 8.0, "count_Reptiles": 0, "count_Mammals": 4, "count_Birds": 5, "count_Flowering Plants": 0, "count_Molluscs": 0, "count_Amphibians": 0, "count_Insects": 0, "count_Sac Fungi": 0, "count_Arachnids": 0, "count_Ferns": 0, "count_Mosses": 0, "count_Basidiomycota": 0, "count_Gymnosperms": 0, "unique_species_count": 9.0, "countryCode": "SR" }, "geometry": { "type": "MultiPolygon", "coordinates": [ [ [ [ -54.87854424462904, 8.365297473415788 ], [ -55.139978475653599, 7.919360341463428 ], [ -55.629456923307963, 7.893032399377016 ], [ -55.858675565723139, 8.311426693753159 ], [ -55.597257639060665, 8.75877017900611 ], [ -55.106590198325428, 8.786195477840026 ], [ -54.87854424462904, 8.365297473415788 ] ] ] ] } },
{ "type": "Feature", "properties": { "geogrid_id": "5208409665053901165", "seqnum": 10402.0, "lat_c": 8.4096649826730694, "lon_c": -53.901164744776196, "res": 8.0, "count_Reptiles": 0, "count_Mammals": 8, "count_Birds": 15, "count_Flowering Plants": 0, "count_Molluscs": 0, "count_Amphibians": 0, "count_Insects": 0, "count_Sac Fungi": 0, "count_Arachnids": 0, "count_Ferns": 0, "count_Mosses": 0, "count_Basidiomycota": 0, "count_Gymnosperms": 0, "unique_species_count": 23.0, "countryCode": "SR" }, "geometry": { "type": "MultiPolygon", "coordinates": [ [ [ [ -53.413565645000858, 8.428854989441337 ], [ -53.676044930358493, 7.984135302770087 ], [ -54.163247674682211, 7.964661178777191 ], [ -54.389495059104327, 8.388547512850835 ], [ -54.127151117382482, 8.833920247922581 ], [ -53.63843622466964, 8.85466193299202 ], [ -53.413565645000858, 8.428854989441337 ] ] ] ] } },
{ "type": "Feature", "properties": { "geogrid_id": "5208462150052440558", "seqnum": 10485.0, "lat_c": 8.4621503161717246, "lon_c": -52.440558300262815, "res": 8.0, "count_Reptiles": 0, "count_Mammals": 2, "count_Birds": 2, "count_Flowering Plants": 0, "count_Molluscs": 0, "count_Amphibians": 0, "count_Insects": 0, "count_Sac Fungi": 0, "count_Arachnids": 0, "count_Ferns": 0, "count_Mosses": 0, "count_Basidiomycota": 0, "count_Gymnosperms": 0, "unique_species_count": 4.0, "countryCode": "SR" }, "geometry": { "type": "MultiPolygon", "coordinates": [ [ [ [ -51.955129497976337, 8.476553257082717 ], [ -52.219102455637973, 8.0322186958751 ], [ -52.703983110401232, 8.017748241204902 ], [ -52.926699174992493, 8.446297382126767 ], [ -52.663064851332656, 8.890817658199033 ], [ -52.17640148617938, 8.906534770258633 ], [ -51.955129497976337, 8.476553257082717 ] ] ] ] } },
{ "type": "Feature", "properties": { "geogrid_id": "5208728622056088491", "seqnum": 10237.0, "lat_c": 8.7286222536190294, "lon_c": -56.088490660087274, "res": 8.0, "count_Reptiles": 0, "count_Mammals": 1, "count_Birds": 1, "count_Flowering Plants": 0, "count_Molluscs": 0, "count_Amphibians": 0, "count_Insects": 0, "count_Sac Fungi": 0, "count_Arachnids": 0, "count_Ferns": 0, "count_Mosses": 0, "count_Basidiomycota": 0, "count_Gymnosperms": 0, "unique_species_count": 2.0, "countryCode": "SR" }, "geometry": { "type": "MultiPolygon", "coordinates": [ [ [ [ -55.597257639060665, 8.75877017900611 ], [ -55.858675565723139, 8.311426693753159 ], [ -56.349645737983003, 8.28022697540449 ], [ -56.580211257357199, 8.695443779594269 ], [ -56.318862183075858, 9.144713596559214 ], [ -55.826844207506944, 9.17672257353604 ], [ -55.597257639060665, 8.75877017900611 ] ] ] ] } },
{ "type": "Feature", "properties": { "geogrid_id": "5208811167054616543", "seqnum": 10320.0, "lat_c": 8.8111670180408179, "lon_c": -54.616542771058896, "res": 8.0, "count_Reptiles": 1, "count_Mammals": 8, "count_Birds": 18, "count_Flowering Plants": 0, "count_Molluscs": 0, "count_Amphibians": 0, "count_Insects": 0, "count_Sac Fungi": 0, "count_Arachnids": 0, "count_Ferns": 0, "count_Mosses": 0, "count_Basidiomycota": 0, "count_Gymnosperms": 0, "unique_species_count": 27.0, "countryCode": "SR" }, "geometry": { "type": "MultiPolygon", "coordinates": [ [ [ [ -54.127151117382482, 8.833920247922581 ], [ -54.389495059104327, 8.388547512850835 ], [ -54.87854424462904, 8.365297473415788 ], [ -55.106590198325428, 8.786195477840026 ], [ -54.844324327014647, 9.232606373598118 ], [ -54.353930141114738, 9.2569843305308 ], [ -54.127151117382482, 8.833920247922581 ] ] ] ] } },
{ "type": "Feature", "properties": { "geogrid_id": "5208873574053150407", "seqnum": 10403.0, "lat_c": 8.873574149100385, "lon_c": -53.150407419024404, "res": 8.0, "count_Reptiles": 0, "count_Mammals": 0, "count_Birds": 3, "count_Flowering Plants": 0, "count_Molluscs": 0, "count_Amphibians": 0, "count_Insects": 0, "count_Sac Fungi": 0, "count_Arachnids": 0, "count_Ferns": 0, "count_Mosses": 0, "count_Basidiomycota": 0, "count_Gymnosperms": 0, "unique_species_count": 3.0, "countryCode": "SR" }, "geometry": { "type": "MultiPolygon", "coordinates": [ [ [ [ -52.663064851332656, 8.890817658199033 ], [ -52.926699174992493, 8.446297382126767 ], [ -53.413565645000858, 8.428854989441337 ], [ -53.63843622466964, 8.85466193299202 ], [ -53.375021236809175, 9.299654322971206 ], [ -52.886530186528184, 9.318292658024749 ], [ -52.663064851332656, 8.890817658199033 ] ] ] ] } },
{ "type": "Feature", "properties": { "geogrid_id": "5209205931055335310", "seqnum": 10238.0, "lat_c": 9.2059309385325658, "lon_c": -55.335310448347784, "res": 8.0, "count_Reptiles": 1, "count_Mammals": 3, "count_Birds": 5, "count_Flowering Plants": 0, "count_Molluscs": 0, "count_Amphibians": 0, "count_Insects": 0, "count_Sac Fungi": 0, "count_Arachnids": 0, "count_Ferns": 0, "count_Mosses": 0, "count_Basidiomycota": 0, "count_Gymnosperms": 0, "unique_species_count": 9.0, "countryCode": "SR" }, "geometry": { "type": "MultiPolygon", "coordinates": [ [ [ [ -54.844324327014647, 9.232606373598118 ], [ -55.106590198325428, 8.786195477840026 ], [ -55.597257639060665, 8.75877017900611 ], [ -55.826844207506944, 9.17672257353604 ], [ -55.564660865977082, 9.624586881937153 ], [ -55.072788146189538, 9.652946207568325 ], [ -54.844324327014647, 9.232606373598118 ] ] ] ] } },
{ "type": "Feature", "properties": { "geogrid_id": "5209279272053864157", "seqnum": 10321.0, "lat_c": 9.2792724522033829, "lon_c": -53.864156869444379, "res": 8.0, "count_Reptiles": 0, "count_Mammals": 1, "count_Birds": 3, "count_Flowering Plants": 0, "count_Molluscs": 1, "count_Amphibians": 0, "count_Insects": 0, "count_Sac Fungi": 0, "count_Arachnids": 0, "count_Ferns": 0, "count_Mosses": 0, "count_Basidiomycota": 0, "count_Gymnosperms": 0, "unique_species_count": 5.0, "countryCode": "SR" }, "geometry": { "type": "MultiPolygon", "coordinates": [ [ [ [ -53.375021236809175, 9.299654322971206 ], [ -53.63843622466964, 8.85466193299202 ], [ -54.127151117382482, 8.833920247922581 ], [ -54.353930141114738, 9.2569843305308 ], [ -54.090662833023238, 9.702761434494475 ], [ -53.600470182107976, 9.724609631092202 ], [ -53.375021236809175, 9.299654322971206 ] ] ] ] } }
]
}
