{
"type": "FeatureCollection",
"name": "SS",
"crs": { "type": "name", "properties": { "name": "urn:ogc:def:crs:OGC:1.3:CRS84" } },
"features": [
{ "type": "Feature", "properties": { "geogrid_id": "803254916032304946", "seqnum": 18458.0, "lat_c": 3.2549157888356168, "lon_c": 32.304946315904033, "res": 8.0, "count_Birds": 2, "count_Amphibians": 0, "count_Reptiles": 0, "count_Flowering Plants": 0, "count_Mammals": 0, "count_Insects": 0, "count_Ferns": 0, "count_Arachnids": 0, "count_Basidiomycota": 0, "count_Molluscs": 0, "unique_species_count": 2.0, "countryCode": "SS" }, "geometry": { "type": "MultiPolygon", "coordinates": [ [ [ [ 32.687969932709869, 3.533801678053302 ], [ 32.689321114431245, 2.986354354868877 ], [ 32.304930506720041, 2.709274411453812 ], [ 31.920051001885248, 2.977533227983667 ], [ 31.920587214611679, 3.522969307054319 ], [ 32.304103843948788, 3.802184513892095 ], [ 32.687969932709869, 3.533801678053302 ] ] ] ] } },
{ "type": "Feature", "properties": { "geogrid_id": "804057535031151814", "seqnum": 18295.0, "lat_c": 4.0575349746650051, "lon_c": 31.151814122037855, "res": 8.0, "count_Birds": 0, "count_Amphibians": 0, "count_Reptiles": 0, "count_Flowering Plants": 0, "count_Mammals": 0, "count_Insects": 1, "count_Ferns": 0, "count_Arachnids": 0, "count_Basidiomycota": 0, "count_Molluscs": 0, "unique_species_count": 1.0, "countryCode": "SS" }, "geometry": { "type": "MultiPolygon", "coordinates": [ [ [ [ 31.536335213090055, 4.337393427643194 ], [ 31.536218310210955, 3.790510481295491 ], [ 31.150295588905557, 3.512538658544094 ], [ 30.76536809584751, 3.779277256824201 ], [ 30.767349175510763, 4.324038548190807 ], [ 31.152382382529396, 4.604210167994389 ], [ 31.536335213090055, 4.337393427643194 ] ] ] ] } },
{ "type": "Feature", "properties": { "geogrid_id": "804070050031920234", "seqnum": 18377.0, "lat_c": 4.0700499991754819, "lon_c": 31.920233989268251, "res": 8.0, "count_Birds": 1, "count_Amphibians": 0, "count_Reptiles": 1, "count_Flowering Plants": 1, "count_Mammals": 0, "count_Insects": 0, "count_Ferns": 0, "count_Arachnids": 0, "count_Basidiomycota": 0, "count_Molluscs": 0, "unique_species_count": 3.0, "countryCode": "SS" }, "geometry": { "type": "MultiPolygon", "coordinates": [ [ [ [ 32.302140882440561, 4.351270368252905 ], [ 32.304103843948788, 3.802184513892095 ], [ 31.920587214611679, 3.522969307054319 ], [ 31.536218310210955, 3.790510481295491 ], [ 31.536335213090055, 4.337393427643194 ], [ 31.918724010834914, 4.618968780959221 ], [ 32.302140882440561, 4.351270368252905 ] ] ] ] } },
{ "type": "Feature", "properties": { "geogrid_id": "804083045032685535", "seqnum": 18459.0, "lat_c": 4.0830452133865673, "lon_c": 32.685534845178019, "res": 8.0, "count_Birds": 0, "count_Amphibians": 0, "count_Reptiles": 11, "count_Flowering Plants": 1, "count_Mammals": 24, "count_Insects": 2, "count_Ferns": 0, "count_Arachnids": 0, "count_Basidiomycota": 0, "count_Molluscs": 0, "unique_species_count": 38.0, "countryCode": "SS" }, "geometry": { "type": "MultiPolygon", "coordinates": [ [ [ [ 33.064667002190504, 4.365667972887186 ], [ 33.068930722353784, 3.814298369907279 ], [ 32.687969932709869, 3.533801678053302 ], [ 32.304103843948788, 3.802184513892095 ], [ 32.302140882440561, 4.351270368252905 ], [ 32.681719643890276, 4.634291288630029 ], [ 33.064667002190504, 4.365667972887186 ] ] ] ] } },
{ "type": "Feature", "properties": { "geogrid_id": "804096519033447621", "seqnum": 18541.0, "lat_c": 4.0965194193993151, "lon_c": 33.447621360351924, "res": 8.0, "count_Birds": 0, "count_Amphibians": 0, "count_Reptiles": 0, "count_Flowering Plants": 1, "count_Mammals": 0, "count_Insects": 1, "count_Ferns": 0, "count_Arachnids": 0, "count_Basidiomycota": 0, "count_Molluscs": 1, "unique_species_count": 3.0, "countryCode": "SS" }, "geometry": { "type": "MultiPolygon", "coordinates": [ [ [ [ 33.823817024992266, 4.380584796393974 ], [ 33.830607285597139, 3.826851030110588 ], [ 33.452353390102047, 3.545034940679381 ], [ 33.068930722353784, 3.814298369907279 ], [ 33.064667002190504, 4.365667972887186 ], [ 33.441268838791139, 4.650176016056448 ], [ 33.823817024992266, 4.380584796393974 ] ] ] ] } },
{ "type": "Feature", "properties": { "geogrid_id": "804110471034206401", "seqnum": 18623.0, "lat_c": 4.1104713786674703, "lon_c": 34.206400696920731, "res": 8.0, "count_Birds": 0, "count_Amphibians": 0, "count_Reptiles": 0, "count_Flowering Plants": 3, "count_Mammals": 0, "count_Insects": 0, "count_Ferns": 0, "count_Arachnids": 0, "count_Basidiomycota": 0, "count_Molluscs": 0, "unique_species_count": 3.0, "countryCode": "SS" }, "geometry": { "type": "MultiPolygon", "coordinates": [ [ [ [ 34.579497083215479, 4.396019346215661 ], [ 34.589044231752581, 3.839841441110676 ], [ 34.213649426361798, 3.556668235322002 ], [ 33.830607285597139, 3.826851030110588 ], [ 33.823817024992266, 4.380584796393974 ], [ 34.19727398812649, 4.666621232686137 ], [ 34.579497083215479, 4.396019346215661 ] ] ] ] } },
{ "type": "Feature", "properties": { "geogrid_id": "804855467029998135", "seqnum": 18132.0, "lat_c": 4.855466515349927, "lon_c": 29.99813505336537, "res": 8.0, "count_Birds": 1, "count_Amphibians": 0, "count_Reptiles": 0, "count_Flowering Plants": 0, "count_Mammals": 0, "count_Insects": 0, "count_Ferns": 0, "count_Arachnids": 0, "count_Basidiomycota": 0, "count_Molluscs": 0, "unique_species_count": 1.0, "countryCode": "SS" }, "geometry": { "type": "MultiPolygon", "coordinates": [ [ [ [ 30.384214059935307, 5.136245469469746 ], [ 30.382797987896328, 4.590017068309391 ], [ 29.995284534688654, 4.311207078412797 ], [ 29.610076787235911, 4.576391043349039 ], [ 29.613334827258807, 5.120382993127132 ], [ 29.999948292816764, 5.401455199123784 ], [ 30.384214059935307, 5.136245469469746 ] ] ] ] } },
{ "type": "Feature", "properties": { "geogrid_id": "804886135031535259", "seqnum": 18296.0, "lat_c": 4.886135450754618, "lon_c": 31.535259448362609, "res": 8.0, "count_Birds": 72, "count_Amphibians": 3, "count_Reptiles": 13, "count_Flowering Plants": 34, "count_Mammals": 6, "count_Insects": 66, "count_Ferns": 1, "count_Arachnids": 4, "count_Basidiomycota": 1, "count_Molluscs": 0, "unique_species_count": 200.0, "countryCode": "SS" }, "geometry": { "type": "MultiPolygon", "coordinates": [ [ [ [ 31.915748004788661, 5.169940750711747 ], [ 31.918724010834914, 4.618968780959221 ], [ 31.536335213090055, 4.337393427643194 ], [ 31.152382382529396, 4.604210167994389 ], [ 31.151722442296943, 5.152765433779341 ], [ 31.532674905398537, 5.436956251231702 ], [ 31.915748004788661, 5.169940750711747 ] ] ] ] } },
{ "type": "Feature", "properties": { "geogrid_id": "804902384032298755", "seqnum": 18378.0, "lat_c": 4.9023839946061374, "lon_c": 32.298754789625384, "res": 8.0, "count_Birds": 3, "count_Amphibians": 0, "count_Reptiles": 0, "count_Flowering Plants": 1, "count_Mammals": 4, "count_Insects": 0, "count_Ferns": 0, "count_Arachnids": 0, "count_Basidiomycota": 0, "count_Molluscs": 0, "unique_species_count": 8.0, "countryCode": "SS" }, "geometry": { "type": "MultiPolygon", "coordinates": [ [ [ [ 32.676181899462868, 5.187769208414463 ], [ 32.681719643890276, 4.634291288630029 ], [ 32.302140882440561, 4.351270368252905 ], [ 31.918724010834914, 4.618968780959221 ], [ 31.915748004788661, 5.169940750711747 ], [ 32.293594850925935, 5.455759886041965 ], [ 32.676181899462868, 5.187769208414463 ] ] ] ] } },
{ "type": "Feature", "properties": { "geogrid_id": "804919239033058732", "seqnum": 18460.0, "lat_c": 4.9192393713911944, "lon_c": 33.05873185975414, "res": 8.0, "count_Birds": 0, "count_Amphibians": 0, "count_Reptiles": 0, "count_Flowering Plants": 0, "count_Mammals": 0, "count_Insects": 1, "count_Ferns": 0, "count_Arachnids": 0, "count_Basidiomycota": 0, "count_Molluscs": 0, "unique_species_count": 1.0, "countryCode": "SS" }, "geometry": { "type": "MultiPolygon", "coordinates": [ [ [ [ 33.432918458151988, 5.206248519729059 ], [ 33.441268838791139, 4.650176016056448 ], [ 33.064667002190504, 4.365667972887186 ], [ 32.681719643890276, 4.634291288630029 ], [ 32.676181899462868, 5.187769208414463 ], [ 33.050738074837753, 5.475262141958185 ], [ 33.432918458151988, 5.206248519729059 ] ] ] ] } },
{ "type": "Feature", "properties": { "geogrid_id": "804936700033815089", "seqnum": 18542.0, "lat_c": 4.9366995864155996, "lon_c": 33.815089122479499, "res": 8.0, "count_Birds": 0, "count_Amphibians": 0, "count_Reptiles": 0, "count_Flowering Plants": 7, "count_Mammals": 2, "count_Insects": 0, "count_Ferns": 0, "count_Arachnids": 0, "count_Basidiomycota": 0, "count_Molluscs": 0, "unique_species_count": 9.0, "countryCode": "SS" }, "geometry": { "type": "MultiPolygon", "coordinates": [ [ [ [ 34.185855244432709, 5.225376323426651 ], [ 34.19727398812649, 4.666621232686137 ], [ 33.823817024992266, 4.380584796393974 ], [ 33.441268838791139, 4.650176016056448 ], [ 33.432918458151988, 5.206248519729059 ], [ 33.803997985272296, 5.495460323118466 ], [ 34.185855244432709, 5.225376323426651 ] ] ] ] } },
{ "type": "Feature", "properties": { "geogrid_id": "804954763034567728", "seqnum": 18624.0, "lat_c": 4.9547625811185343, "lon_c": 34.567728091393008, "res": 8.0, "count_Birds": 7, "count_Amphibians": 0, "count_Reptiles": 1, "count_Flowering Plants": 0, "count_Mammals": 0, "count_Insects": 0, "count_Ferns": 0, "count_Arachnids": 0, "count_Basidiomycota": 0, "count_Molluscs": 0, "unique_species_count": 8.0, "countryCode": "SS" }, "geometry": { "type": "MultiPolygon", "coordinates": [ [ [ [ 34.934893099409905, 5.245150185475 ], [ 34.949640364296918, 4.683625153160562 ], [ 34.579497083215479, 4.396019346215661 ], [ 34.19727398812649, 4.666621232686137 ], [ 34.185855244432709, 5.225376323426651 ], [ 34.553271466372202, 5.516351649676824 ], [ 34.934893099409905, 5.245150185475 ] ] ] ] } },
{ "type": "Feature", "properties": { "geogrid_id": "805615846027288597", "seqnum": 17805.0, "lat_c": 5.6158462585714766, "lon_c": 27.288597299325758, "res": 8.0, "count_Birds": 0, "count_Amphibians": 0, "count_Reptiles": 0, "count_Flowering Plants": 0, "count_Mammals": 0, "count_Insects": 2, "count_Ferns": 0, "count_Arachnids": 0, "count_Basidiomycota": 0, "count_Molluscs": 0, "unique_species_count": 2.0, "countryCode": "SS" }, "geometry": { "type": "MultiPolygon", "coordinates": [ [ [ [ 27.681339169458582, 5.894370498564252 ], [ 27.675391572965975, 5.353505676592224 ], [ 27.281637151436929, 5.076760673444189 ], [ 26.894237280881377, 5.338945486678014 ], [ 26.901517214316112, 5.877658668020393 ], [ 27.294868444478489, 6.156358365823472 ], [ 27.681339169458582, 5.894370498564252 ] ] ] ] } },
{ "type": "Feature", "properties": { "geogrid_id": "805631843028067534", "seqnum": 17887.0, "lat_c": 5.6318431765337271, "lon_c": 28.067533677484537, "res": 8.0, "count_Birds": 0, "count_Amphibians": 0, "count_Reptiles": 0, "count_Flowering Plants": 0, "count_Mammals": 0, "count_Insects": 0, "count_Ferns": 0, "count_Arachnids": 0, "count_Basidiomycota": 0, "count_Molluscs": 2, "unique_species_count": 2.0, "countryCode": "SS" }, "geometry": { "type": "MultiPolygon", "coordinates": [ [ [ [ 28.457854014652806, 5.911897738509422 ], [ 28.453478438758072, 5.368778814485045 ], [ 28.061926904680057, 5.090638656206253 ], [ 27.675391572965975, 5.353505676592224 ], [ 27.681339169458582, 5.894370498564252 ], [ 28.072247796378576, 6.17464625619155 ], [ 28.457854014652806, 5.911897738509422 ] ] ] ] } },
{ "type": "Feature", "properties": { "geogrid_id": "805723206031910947", "seqnum": 18297.0, "lat_c": 5.72320577704971, "lon_c": 31.910946679568845, "res": 8.0, "count_Birds": 8, "count_Amphibians": 0, "count_Reptiles": 1, "count_Flowering Plants": 2, "count_Mammals": 1, "count_Insects": 1, "count_Ferns": 0, "count_Arachnids": 0, "count_Basidiomycota": 0, "count_Molluscs": 0, "unique_species_count": 13.0, "countryCode": "SS" }, "geometry": { "type": "MultiPolygon", "coordinates": [ [ [ [ 32.286252965492203, 6.011659872195601 ], [ 32.293594850925935, 5.455759886041965 ], [ 31.915748004788661, 5.169940750711747 ], [ 31.532674905398537, 5.436956251231702 ], [ 31.528213413883691, 5.990101269412551 ], [ 31.903900871921078, 6.279032179704108 ], [ 32.286252965492203, 6.011659872195601 ] ] ] ] } },
{ "type": "Feature", "properties": { "geogrid_id": "805743735032668524", "seqnum": 18379.0, "lat_c": 5.7437345588498561, "lon_c": 32.668524152804387, "res": 8.0, "count_Birds": 1, "count_Amphibians": 0, "count_Reptiles": 0, "count_Flowering Plants": 0, "count_Mammals": 0, "count_Insects": 0, "count_Ferns": 0, "count_Arachnids": 0, "count_Basidiomycota": 0, "count_Molluscs": 0, "unique_species_count": 1.0, "countryCode": "SS" }, "geometry": { "type": "MultiPolygon", "coordinates": [ [ [ [ 33.040235485652495, 6.034014789313257 ], [ 33.050738074837753, 5.475262141958185 ], [ 32.676181899462868, 5.187769208414463 ], [ 32.293594850925935, 5.455759886041965 ], [ 32.286252965492203, 6.011659872195601 ], [ 32.658283159051926, 6.302473059825116 ], [ 33.040235485652495, 6.034014789313257 ] ] ] ] } },
{ "type": "Feature", "properties": { "geogrid_id": "805787024034171665", "seqnum": 18543.0, "lat_c": 5.7870244629243093, "lon_c": 34.171664737259093, "res": 8.0, "count_Birds": 0, "count_Amphibians": 0, "count_Reptiles": 0, "count_Flowering Plants": 0, "count_Mammals": 0, "count_Insects": 1, "count_Ferns": 0, "count_Arachnids": 0, "count_Basidiomycota": 0, "count_Molluscs": 0, "unique_species_count": 1.0, "countryCode": "SS" }, "geometry": { "type": "MultiPolygon", "coordinates": [ [ [ [ 34.535586737302054, 6.081099128413035 ], [ 34.553271466372202, 5.516351649676824 ], [ 34.185855244432709, 5.225376323426651 ], [ 33.803997985272296, 5.495460323118466 ], [ 33.790049308975817, 6.057162437984485 ], [ 34.154144439614562, 6.351886917272612 ], [ 34.535586737302054, 6.081099128413035 ] ] ] ] } },
{ "type": "Feature", "properties": { "geogrid_id": "806436845027686375", "seqnum": 17806.0, "lat_c": 6.43684460680978, "lon_c": 27.686375362881709, "res": 8.0, "count_Birds": 0, "count_Amphibians": 0, "count_Reptiles": 0, "count_Flowering Plants": 0, "count_Mammals": 0, "count_Insects": 14, "count_Ferns": 0, "count_Arachnids": 0, "count_Basidiomycota": 0, "count_Molluscs": 0, "unique_species_count": 14.0, "countryCode": "SS" }, "geometry": { "type": "MultiPolygon", "coordinates": [ [ [ [ 28.075794135893737, 6.719257737522979 ], [ 28.072247796378576, 6.17464625619155 ], [ 27.681339169458582, 5.894370498564252 ], [ 27.294868444478489, 6.156358365823472 ], [ 27.300210549526305, 6.698489916991654 ], [ 27.690220407225016, 6.981141871852521 ], [ 28.075794135893737, 6.719257737522979 ] ] ] ] } },
{ "type": "Feature", "properties": { "geogrid_id": "806518832034697478", "seqnum": 18544.0, "lat_c": 6.5188322464217894, "lon_c": 34.697477839412812, "res": 8.0, "count_Birds": 21, "count_Amphibians": 3, "count_Reptiles": 7, "count_Flowering Plants": 32, "count_Mammals": 11, "count_Insects": 53, "count_Ferns": 1, "count_Arachnids": 2, "count_Basidiomycota": 0, "count_Molluscs": 0, "unique_species_count": 130.0, "countryCode": "SS" }, "geometry": { "type": "MultiPolygon", "coordinates": [ [ [ [ 35.237041775595799, 6.687262240453473 ], [ 35.07882048110833, 6.247078158254729 ], [ 34.535586737302054, 6.081099128413035 ], [ 34.154144439614562, 6.351886917272612 ], [ 34.316104400883184, 6.790055385579073 ], [ 34.855697117671774, 6.959506170872247 ], [ 35.237041775595799, 6.687262240453473 ] ] ] ] } },
{ "type": "Feature", "properties": { "geogrid_id": "806545846031521444", "seqnum": 18216.0, "lat_c": 6.545845575142379, "lon_c": 31.521444308867192, "res": 8.0, "count_Birds": 143, "count_Amphibians": 0, "count_Reptiles": 2, "count_Flowering Plants": 0, "count_Mammals": 12, "count_Insects": 10, "count_Ferns": 0, "count_Arachnids": 0, "count_Basidiomycota": 0, "count_Molluscs": 0, "unique_species_count": 167.0, "countryCode": "SS" }, "geometry": { "type": "MultiPolygon", "coordinates": [ [ [ [ 31.894119432929116, 6.837721041480344 ], [ 31.903900871921078, 6.279032179704108 ], [ 31.528213413883691, 5.990101269412551 ], [ 31.145371135685082, 6.256440768062111 ], [ 31.138859782766744, 6.812094148775047 ], [ 31.511861558658097, 7.104498436352925 ], [ 31.894119432929116, 6.837721041480344 ] ] ] ] } },
{ "type": "Feature", "properties": { "geogrid_id": "806570377032276252", "seqnum": 18298.0, "lat_c": 6.5703771929767063, "lon_c": 32.276252236062824, "res": 8.0, "count_Birds": 1, "count_Amphibians": 0, "count_Reptiles": 0, "count_Flowering Plants": 0, "count_Mammals": 0, "count_Insects": 0, "count_Ferns": 0, "count_Arachnids": 0, "count_Basidiomycota": 0, "count_Molluscs": 0, "unique_species_count": 1.0, "countryCode": "SS" }, "geometry": { "type": "MultiPolygon", "coordinates": [ [ [ [ 32.644916688129861, 6.864305063368385 ], [ 32.658283159051926, 6.302473059825116 ], [ 32.286252965492203, 6.011659872195601 ], [ 31.903900871921078, 6.279032179704108 ], [ 31.894119432929116, 6.837721041480344 ], [ 32.263032918739583, 7.132241267245591 ], [ 32.644916688129861, 6.864305063368385 ] ] ] ] } },
{ "type": "Feature", "properties": { "geogrid_id": "806595809033026699", "seqnum": 18380.0, "lat_c": 6.595808993988773, "lon_c": 33.026698577309304, "res": 8.0, "count_Birds": 3, "count_Amphibians": 0, "count_Reptiles": 0, "count_Flowering Plants": 0, "count_Mammals": 0, "count_Insects": 1, "count_Ferns": 0, "count_Arachnids": 0, "count_Basidiomycota": 0, "count_Molluscs": 0, "unique_species_count": 4.0, "countryCode": "SS" }, "geometry": { "type": "MultiPolygon", "coordinates": [ [ [ [ 33.391129985394855, 6.891840938732154 ], [ 33.408401706349757, 6.326759361935371 ], [ 33.040235485652495, 6.034014789313257 ], [ 32.658283159051926, 6.302473059825116 ], [ 32.644916688129861, 6.864305063368385 ], [ 33.009511226531274, 7.160994567944117 ], [ 33.391129985394855, 6.891840938732154 ] ] ] ] } },
{ "type": "Feature", "properties": { "geogrid_id": "806622136033772667", "seqnum": 18462.0, "lat_c": 6.622136282235326, "lon_c": 33.772666643053114, "res": 8.0, "count_Birds": 2, "count_Amphibians": 0, "count_Reptiles": 1, "count_Flowering Plants": 10, "count_Mammals": 0, "count_Insects": 5, "count_Ferns": 0, "count_Arachnids": 1, "count_Basidiomycota": 0, "count_Molluscs": 0, "unique_species_count": 19.0, "countryCode": "SS" }, "geometry": { "type": "MultiPolygon", "coordinates": [ [ [ [ 34.316104400883184, 6.790055385579073 ], [ 34.154144439614562, 6.351886917272612 ], [ 33.790049308975817, 6.057162437984485 ], [ 33.408401706349757, 6.326759361935371 ], [ 33.391129985394855, 6.891840938732154 ], [ 33.934676558850406, 7.060741357269206 ], [ 34.316104400883184, 6.790055385579073 ] ] ] ] } },
{ "type": "Feature", "properties": { "geogrid_id": "807265915028077847", "seqnum": 17807.0, "lat_c": 7.2659146488110213, "lon_c": 28.077847079553244, "res": 8.0, "count_Birds": 2, "count_Amphibians": 0, "count_Reptiles": 1, "count_Flowering Plants": 0, "count_Mammals": 0, "count_Insects": 3, "count_Ferns": 0, "count_Arachnids": 0, "count_Basidiomycota": 0, "count_Molluscs": 0, "unique_species_count": 6.0, "countryCode": "SS" }, "geometry": { "type": "MultiPolygon", "coordinates": [ [ [ [ 28.462784085346026, 7.552972691284839 ], [ 28.462855732111777, 7.003747338550325 ], [ 28.075794135893737, 6.719257737522979 ], [ 27.690220407225016, 6.981141871852521 ], [ 27.692542181800096, 7.527504424277218 ], [ 28.078019244749967, 7.814885827769112 ], [ 28.462784085346026, 7.552972691284839 ] ] ] ] } },
{ "type": "Feature", "properties": { "geogrid_id": "807290473028847263", "seqnum": 17889.0, "lat_c": 7.2904728197401312, "lon_c": 28.84726338960165, "res": 8.0, "count_Birds": 0, "count_Amphibians": 0, "count_Reptiles": 0, "count_Flowering Plants": 3, "count_Mammals": 0, "count_Insects": 0, "count_Ferns": 0, "count_Arachnids": 0, "count_Basidiomycota": 0, "count_Molluscs": 0, "unique_species_count": 3.0, "countryCode": "SS" }, "geometry": { "type": "MultiPolygon", "coordinates": [ [ [ [ 29.228689821243126, 7.579604041832479 ], [ 29.231481667236778, 7.027390987026515 ], [ 28.847593296447673, 6.741006596921373 ], [ 28.462855732111777, 7.003747338550325 ], [ 28.462784085346026, 7.552972691284839 ], [ 28.844692814310136, 7.842491383255312 ], [ 29.228689821243126, 7.579604041832479 ] ] ] ] } },
{ "type": "Feature", "properties": { "geogrid_id": "807316128029612435", "seqnum": 17971.0, "lat_c": 7.3161276574066214, "lon_c": 29.61243481394375, "res": 8.0, "count_Birds": 3, "count_Amphibians": 0, "count_Reptiles": 0, "count_Flowering Plants": 0, "count_Mammals": 0, "count_Insects": 0, "count_Ferns": 0, "count_Arachnids": 0, "count_Basidiomycota": 0, "count_Molluscs": 0, "unique_species_count": 3.0, "countryCode": "SS" }, "geometry": { "type": "MultiPolygon", "coordinates": [ [ [ [ 29.990104355969599, 7.607391807801879 ], [ 29.995951626084516, 7.052067655849609 ], [ 29.615463351846685, 6.763732056673964 ], [ 29.231481667236778, 7.027390987026515 ], [ 29.228689821243126, 7.579604041832479 ], [ 29.606774132249733, 7.87132196195155 ], [ 29.990104355969599, 7.607391807801879 ] ] ] ] } },
{ "type": "Feature", "properties": { "geogrid_id": "807330884033553171", "seqnum": 18381.0, "lat_c": 7.330883912239349, "lon_c": 33.553170822297801, "res": 8.0, "count_Birds": 2, "count_Amphibians": 0, "count_Reptiles": 0, "count_Flowering Plants": 11, "count_Mammals": 2, "count_Insects": 1, "count_Ferns": 0, "count_Arachnids": 0, "count_Basidiomycota": 0, "count_Molluscs": 0, "unique_species_count": 16.0, "countryCode": "SS" }, "geometry": { "type": "MultiPolygon", "coordinates": [ [ [ [ 34.09282609790187, 7.502403039387069 ], [ 33.934676558850406, 7.060741357269206 ], [ 33.391129985394855, 6.891840938732154 ], [ 33.009511226531274, 7.160994567944117 ], [ 33.171563811095432, 7.600476768272507 ], [ 33.711252071086001, 7.773043712667516 ], [ 34.09282609790187, 7.502403039387069 ] ] ] ] } },
{ "type": "Feature", "properties": { "geogrid_id": "807342873030373213", "seqnum": 18053.0, "lat_c": 7.3428731791716277, "lon_c": 30.373213164586467, "res": 8.0, "count_Birds": 0, "count_Amphibians": 0, "count_Reptiles": 0, "count_Flowering Plants": 1, "count_Mammals": 0, "count_Insects": 1, "count_Ferns": 0, "count_Arachnids": 0, "count_Basidiomycota": 0, "count_Molluscs": 0, "unique_species_count": 2.0, "countryCode": "SS" }, "geometry": { "type": "MultiPolygon", "coordinates": [ [ [ [ 30.746878258837089, 7.63632907595544 ], [ 30.756123861298025, 7.07777198813598 ], [ 30.379264073904217, 6.787429502605663 ], [ 29.995951626084516, 7.052067655849609 ], [ 29.990104355969599, 7.607391807801879 ], [ 30.364106857981579, 7.90136986768042 ], [ 30.746878258837089, 7.63632907595544 ] ] ] ] } },
{ "type": "Feature", "properties": { "geogrid_id": "807370703031129456", "seqnum": 18135.0, "lat_c": 7.37070318607707, "lon_c": 31.129455508760241, "res": 8.0, "count_Birds": 38, "count_Amphibians": 0, "count_Reptiles": 1, "count_Flowering Plants": 0, "count_Mammals": 0, "count_Insects": 0, "count_Ferns": 0, "count_Arachnids": 0, "count_Basidiomycota": 0, "count_Molluscs": 0, "unique_species_count": 39.0, "countryCode": "SS" }, "geometry": { "type": "MultiPolygon", "coordinates": [ [ [ [ 31.498867799488739, 7.66640869495997 ], [ 31.511861558658097, 7.104498436352925 ], [ 31.138859782766744, 6.812094148775047 ], [ 30.756123861298025, 7.07777198813598 ], [ 30.746878258837089, 7.63632907595544 ], [ 31.116540736164421, 7.932627135172819 ], [ 31.498867799488739, 7.66640869495997 ] ] ] ] } },
{ "type": "Feature", "properties": { "geogrid_id": "807399611031881024", "seqnum": 18217.0, "lat_c": 7.3996112687359412, "lon_c": 31.881024258076646, "res": 8.0, "count_Birds": 2, "count_Amphibians": 0, "count_Reptiles": 0, "count_Flowering Plants": 0, "count_Mammals": 0, "count_Insects": 0, "count_Ferns": 0, "count_Arachnids": 0, "count_Basidiomycota": 0, "count_Molluscs": 0, "unique_species_count": 2.0, "countryCode": "SS" }, "geometry": { "type": "MultiPolygon", "coordinates": [ [ [ [ 32.245935030520819, 7.697623283584704 ], [ 32.263032918739583, 7.132241267245591 ], [ 31.894119432929116, 6.837721041480344 ], [ 31.511861558658097, 7.104498436352925 ], [ 31.498867799488739, 7.66640869495997 ], [ 31.863931686916903, 7.965085539602273 ], [ 32.245935030520819, 7.697623283584704 ] ] ] ] } },
{ "type": "Feature", "properties": { "geogrid_id": "808043138033329554", "seqnum": 18300.0, "lat_c": 8.0431376576975513, "lon_c": 33.329554074887199, "res": 8.0, "count_Birds": 0, "count_Amphibians": 0, "count_Reptiles": 0, "count_Flowering Plants": 1, "count_Mammals": 0, "count_Insects": 0, "count_Ferns": 0, "count_Arachnids": 0, "count_Basidiomycota": 0, "count_Molluscs": 0, "unique_species_count": 1.0, "countryCode": "SS" }, "geometry": { "type": "MultiPolygon", "coordinates": [ [ [ [ 33.865680178482833, 8.218015391071562 ], [ 33.711252071086001, 7.773043712667516 ], [ 33.171563811095432, 7.600476768272507 ], [ 32.789832251290086, 7.869513608070359 ], [ 32.947708495362811, 8.3126786732202 ], [ 33.48379788454794, 8.488661921885154 ], [ 33.865680178482833, 8.218015391071562 ] ] ] ] } },
{ "type": "Feature", "properties": { "geogrid_id": "808076208027692944", "seqnum": 17726.0, "lat_c": 8.0762075567329656, "lon_c": 27.692944262342966, "res": 8.0, "count_Birds": 0, "count_Amphibians": 0, "count_Reptiles": 0, "count_Flowering Plants": 1, "count_Mammals": 0, "count_Insects": 0, "count_Ferns": 0, "count_Arachnids": 0, "count_Basidiomycota": 0, "count_Molluscs": 0, "unique_species_count": 1.0, "countryCode": "SS" }, "geometry": { "type": "MultiPolygon", "coordinates": [ [ [ [ 28.075847246270762, 8.366477471771955 ], [ 28.078019244749967, 7.814885827769112 ], [ 27.692542181800096, 7.527504424277218 ], [ 27.306915742610087, 7.788512714222374 ], [ 27.307534415575603, 8.336933320677735 ], [ 27.69095079190129, 8.627565629412402 ], [ 28.075847246270762, 8.366477471771955 ] ] ] ] } },
{ "type": "Feature", "properties": { "geogrid_id": "808165819029981118", "seqnum": 17972.0, "lat_c": 8.1658192991450704, "lon_c": 29.981118421949908, "res": 8.0, "count_Birds": 0, "count_Amphibians": 0, "count_Reptiles": 0, "count_Flowering Plants": 1, "count_Mammals": 0, "count_Insects": 0, "count_Ferns": 0, "count_Arachnids": 0, "count_Basidiomycota": 0, "count_Molluscs": 0, "unique_species_count": 1.0, "countryCode": "SS" }, "geometry": { "type": "MultiPolygon", "coordinates": [ [ [ [ 30.351284039981348, 8.463301214562303 ], [ 30.364106857981579, 7.90136986768042 ], [ 29.990104355969599, 7.607391807801879 ], [ 29.606774132249733, 7.87132196195155 ], [ 29.597890126057973, 8.429671084525681 ], [ 29.968309251786827, 8.727743827168052 ], [ 30.351284039981348, 8.463301214562303 ] ] ] ] } },
{ "type": "Feature", "properties": { "geogrid_id": "808231971031481754", "seqnum": 18136.0, "lat_c": 8.2319711028170968, "lon_c": 31.481754421450155, "res": 8.0, "count_Birds": 1, "count_Amphibians": 0, "count_Reptiles": 1, "count_Flowering Plants": 1, "count_Mammals": 0, "count_Insects": 1, "count_Ferns": 0, "count_Arachnids": 1, "count_Basidiomycota": 0, "count_Molluscs": 0, "unique_species_count": 5.0, "countryCode": "SS" }, "geometry": { "type": "MultiPolygon", "coordinates": [ [ [ [ 32.025902893000591, 8.40589378203733 ], [ 31.863931686916903, 7.965085539602273 ], [ 31.498867799488739, 7.66640869495997 ], [ 31.116540736164421, 7.932627135172819 ], [ 31.099380544539908, 8.498273447547533 ], [ 31.643659035702409, 8.673224287921164 ], [ 32.025902893000591, 8.40589378203733 ] ] ] ] } },
{ "type": "Feature", "properties": { "geogrid_id": "808850077032183481", "seqnum": 18137.0, "lat_c": 8.8500769590081774, "lon_c": 32.183480504667855, "res": 8.0, "count_Birds": 2, "count_Amphibians": 0, "count_Reptiles": 0, "count_Flowering Plants": 0, "count_Mammals": 0, "count_Insects": 0, "count_Ferns": 0, "count_Arachnids": 0, "count_Basidiomycota": 0, "count_Molluscs": 0, "unique_species_count": 2.0, "countryCode": "SS" }, "geometry": { "type": "MultiPolygon", "coordinates": [ [ [ [ 32.719487824146213, 9.028302939580136 ], [ 32.56569179468876, 8.581660527882134 ], [ 32.025902893000591, 8.40589378203733 ], [ 31.643659035702409, 8.673224287921164 ], [ 31.801051220051718, 9.117921671518401 ], [ 32.337011959896678, 9.297285278840306 ], [ 32.719487824146213, 9.028302939580136 ] ] ] ] } },
{ "type": "Feature", "properties": { "geogrid_id": "808888044027305707", "seqnum": 17645.0, "lat_c": 8.8880435843129924, "lon_c": 27.305706500648174, "res": 8.0, "count_Birds": 1, "count_Amphibians": 0, "count_Reptiles": 0, "count_Flowering Plants": 0, "count_Mammals": 0, "count_Insects": 0, "count_Ferns": 0, "count_Arachnids": 0, "count_Basidiomycota": 0, "count_Molluscs": 0, "unique_species_count": 1.0, "countryCode": "SS" }, "geometry": { "type": "MultiPolygon", "coordinates": [ [ [ [ 27.685987152455855, 9.181939210200879 ], [ 27.69095079190129, 8.627565629412402 ], [ 27.307534415575603, 8.336933320677735 ], [ 26.921764841554751, 8.597058692583397 ], [ 26.920090204114626, 9.147906230798149 ], [ 27.300839544959601, 9.442214883006656 ], [ 27.685987152455855, 9.181939210200879 ] ] ] ] } },
{ "type": "Feature", "properties": { "geogrid_id": "808991581029585074", "seqnum": 17891.0, "lat_c": 8.991581397464623, "lon_c": 29.585073539058055, "res": 8.0, "count_Birds": 2, "count_Amphibians": 0, "count_Reptiles": 0, "count_Flowering Plants": 2, "count_Mammals": 0, "count_Insects": 0, "count_Ferns": 0, "count_Arachnids": 0, "count_Basidiomycota": 0, "count_Molluscs": 0, "unique_species_count": 4.0, "countryCode": "SS" }, "geometry": { "type": "MultiPolygon", "coordinates": [ [ [ [ 29.950853811676698, 9.29361517515979 ], [ 29.968309251786827, 8.727743827168052 ], [ 29.597890126057973, 8.429671084525681 ], [ 29.214399197748055, 8.692918914671498 ], [ 29.20155452585384, 9.254807300177706 ], [ 29.567468519062, 9.557518388113674 ], [ 29.950853811676698, 9.29361517515979 ] ] ] ] } },
{ "type": "Feature", "properties": { "geogrid_id": "809029102030333953", "seqnum": 17973.0, "lat_c": 9.0291021348175029, "lon_c": 30.333952688962214, "res": 8.0, "count_Birds": 0, "count_Amphibians": 2, "count_Reptiles": 3, "count_Flowering Plants": 0, "count_Mammals": 0, "count_Insects": 0, "count_Ferns": 0, "count_Arachnids": 0, "count_Basidiomycota": 0, "count_Molluscs": 0, "unique_species_count": 5.0, "countryCode": "SS" }, "geometry": { "type": "MultiPolygon", "coordinates": [ [ [ [ 30.878498482419435, 9.206133747328801 ], [ 30.716787465482092, 8.763985999765698 ], [ 30.351284039981348, 8.463301214562303 ], [ 29.968309251786827, 8.727743827168052 ], [ 29.950853811676698, 9.29361517515979 ], [ 30.495536240070958, 9.471699609407686 ], [ 30.878498482419435, 9.206133747328801 ] ] ] ] } },
{ "type": "Feature", "properties": { "geogrid_id": "809565701031954290", "seqnum": 18056.0, "lat_c": 9.565700704346435, "lon_c": 31.954290184706782, "res": 8.0, "count_Birds": 55, "count_Amphibians": 0, "count_Reptiles": 3, "count_Flowering Plants": 3, "count_Mammals": 1, "count_Insects": 4, "count_Ferns": 0, "count_Arachnids": 0, "count_Basidiomycota": 0, "count_Molluscs": 0, "unique_species_count": 66.0, "countryCode": "SS" }, "geometry": { "type": "MultiPolygon", "coordinates": [ [ [ [ 32.486823047906519, 9.747200368709148 ], [ 32.337011959896678, 9.297285278840306 ], [ 31.801051220051718, 9.117921671518401 ], [ 31.41838059163576, 9.385188337002665 ], [ 31.571298500113315, 9.833543088938635 ], [ 32.103712327308102, 10.016231996737169 ], [ 32.486823047906519, 9.747200368709148 ] ] ] ] } },
{ "type": "Feature", "properties": { "geogrid_id": "809736664030112289", "seqnum": 17892.0, "lat_c": 9.7366640862467371, "lon_c": 30.112289115900879, "res": 8.0, "count_Birds": 1, "count_Amphibians": 0, "count_Reptiles": 0, "count_Flowering Plants": 0, "count_Mammals": 0, "count_Insects": 1, "count_Ferns": 0, "count_Arachnids": 0, "count_Basidiomycota": 0, "count_Molluscs": 0, "unique_species_count": 2.0, "countryCode": "SS" }, "geometry": { "type": "MultiPolygon", "coordinates": [ [ [ [ 30.652222143406505, 9.91796204229175 ], [ 30.495536240070958, 9.471699609407686 ], [ 29.950853811676698, 9.29361517515979 ], [ 29.567468519062, 9.557518388113674 ], [ 29.728734519054466, 10.001020510949376 ], [ 30.26868783909682, 10.183456252865156 ], [ 30.652222143406505, 9.91796204229175 ] ] ] ] } },
{ "type": "Feature", "properties": { "geogrid_id": "809820805029183775", "seqnum": 17810.0, "lat_c": 9.8208049836332272, "lon_c": 29.183774582131189, "res": 8.0, "count_Birds": 0, "count_Amphibians": 0, "count_Reptiles": 1, "count_Flowering Plants": 0, "count_Mammals": 0, "count_Insects": 0, "count_Ferns": 0, "count_Arachnids": 0, "count_Basidiomycota": 0, "count_Molluscs": 0, "unique_species_count": 1.0, "countryCode": "SS" }, "geometry": { "type": "MultiPolygon", "coordinates": [ [ [ [ 29.728734519054466, 10.001020510949376 ], [ 29.567468519062, 9.557518388113674 ], [ 29.20155452585384, 9.254807300177706 ], [ 28.817729908542159, 9.517414862781093 ], [ 28.799749854417513, 10.08346811208863 ], [ 29.344849923089878, 10.264762165428905 ], [ 29.728734519054466, 10.001020510949376 ] ] ] ] } },
{ "type": "Feature", "properties": { "geogrid_id": "810111647033543756", "seqnum": 18139.0, "lat_c": 10.111647236869828, "lon_c": 33.543756265378939, "res": 8.0, "count_Birds": 1, "count_Amphibians": 0, "count_Reptiles": 0, "count_Flowering Plants": 2, "count_Mammals": 1, "count_Insects": 0, "count_Ferns": 0, "count_Arachnids": 0, "count_Basidiomycota": 0, "count_Molluscs": 0, "unique_species_count": 4.0, "countryCode": "SS" }, "geometry": { "type": "MultiPolygon", "coordinates": [ [ [ [ 34.068998785977897, 10.29398078169401 ], [ 33.92693698124517, 9.83965155470174 ], [ 33.39948622936565, 9.658504332131781 ], [ 33.016495315273893, 9.929293248043326 ], [ 33.160282008789139, 10.383104544356758 ], [ 33.685303503482245, 10.566660896940503 ], [ 34.068998785977897, 10.29398078169401 ] ] ] ] } },
{ "type": "Feature", "properties": { "geogrid_id": "810284696031720300", "seqnum": 17975.0, "lat_c": 10.2846963869004, "lon_c": 31.720299849681954, "res": 8.0, "count_Birds": 0, "count_Amphibians": 0, "count_Reptiles": 1, "count_Flowering Plants": 0, "count_Mammals": 0, "count_Insects": 0, "count_Ferns": 0, "count_Arachnids": 0, "count_Basidiomycota": 0, "count_Molluscs": 0, "unique_species_count": 1.0, "countryCode": "SS" }, "geometry": { "type": "MultiPolygon", "coordinates": [ [ [ [ 32.249632810405693, 10.469216313723205 ], [ 32.103712327308102, 10.016231996737169 ], [ 31.571298500113315, 9.833543088938635 ], [ 31.188012908967192, 10.100806284583234 ], [ 31.336560760163785, 10.552587618940464 ], [ 31.865709886167494, 10.738339043186663 ], [ 32.249632810405693, 10.469216313723205 ] ] ] ] } },
{ "type": "Feature", "properties": { "geogrid_id": "810437819024985572", "seqnum": 17319.0, "lat_c": 10.43781901804469, "lon_c": 24.985572337123021, "res": 8.0, "count_Birds": 1, "count_Amphibians": 0, "count_Reptiles": 0, "count_Flowering Plants": 0, "count_Mammals": 0, "count_Insects": 0, "count_Ferns": 0, "count_Arachnids": 0, "count_Basidiomycota": 0, "count_Molluscs": 0, "unique_species_count": 1.0, "countryCode": "SS" }, "geometry": { "type": "MultiPolygon", "coordinates": [ [ [ [ 25.368861707180372, 10.734036871647767 ], [ 25.37341658746805, 10.181105427612032 ], [ 24.986637603786605, 9.88853633792772 ], [ 24.598176128547532, 10.144976307560126 ], [ 24.597207410616296, 10.693889397720765 ], [ 24.981052157277169, 10.990450771511261 ], [ 25.368861707180372, 10.734036871647767 ] ] ] ] } },
{ "type": "Feature", "properties": { "geogrid_id": "810924382032392347", "seqnum": 17976.0, "lat_c": 10.924381835725146, "lon_c": 32.392347051973658, "res": 8.0, "count_Birds": 1, "count_Amphibians": 0, "count_Reptiles": 0, "count_Flowering Plants": 0, "count_Mammals": 0, "count_Insects": 1, "count_Ferns": 0, "count_Arachnids": 0, "count_Basidiomycota": 0, "count_Molluscs": 0, "unique_species_count": 2.0, "countryCode": "SS" }, "geometry": { "type": "MultiPolygon", "coordinates": [ [ [ [ 32.916897634039785, 11.110416771549177 ], [ 32.776487790242804, 10.654017926795014 ], [ 32.249632810405693, 10.469216313723205 ], [ 31.865709886167494, 10.738339043186663 ], [ 32.007833077322765, 11.194190726188952 ], [ 32.532132129107431, 11.381481663817098 ], [ 32.916897634039785, 11.110416771549177 ] ] ] ] } }
]
}
