{
"type": "FeatureCollection",
"name": "SY",
"crs": { "type": "name", "properties": { "name": "urn:ogc:def:crs:OGC:1.3:CRS84" } },
"features": [
{ "type": "Feature", "properties": { "geogrid_id": "832722023036839402", "seqnum": 20216.0, "lat_c": 32.722023399821879, "lon_c": 36.83940232360068, "res": 8.0, "count_Insects": 181, "count_Molluscs": 0, "count_Flowering Plants": 99, "count_Arachnids": 7, "count_Reptiles": 5, "count_Mammals": 8, "count_Amphibians": 1, "count_Birds": 19, "count_Ferns": 0, "count_Gymnosperms": 2, "count_Sac Fungi": 2, "count_Basidiomycota": 1, "unique_species_count": 325.0, "countryCode": "SY" }, "geometry": { "type": "MultiPolygon", "coordinates": [ [ [ [ 36.981242621624169, 33.188401504027418 ], [ 37.42453406733248, 32.886074540154475 ], [ 37.281447218698936, 32.420280665663107 ], [ 36.69938879726616, 32.255813924908324 ], [ 36.256043617353249, 32.55522905743404 ], [ 36.394742210952657, 33.022003799790518 ], [ 36.981242621624169, 33.188401504027418 ] ] ] ] } },
{ "type": "Feature", "properties": { "geogrid_id": "832852859035810066", "seqnum": 20135.0, "lat_c": 32.852858973917598, "lon_c": 35.810066369918033, "res": 8.0, "count_Insects": 18, "count_Molluscs": 0, "count_Flowering Plants": 87, "count_Arachnids": 0, "count_Reptiles": 1, "count_Mammals": 34, "count_Amphibians": 0, "count_Birds": 0, "count_Ferns": 0, "count_Gymnosperms": 0, "count_Sac Fungi": 3, "count_Basidiomycota": 0, "unique_species_count": 143.0, "countryCode": "SY" }, "geometry": { "type": "MultiPolygon", "coordinates": [ [ [ [ 35.947386282000117, 33.320173161625121 ], [ 36.394742210952657, 33.022003799790518 ], [ 36.256043617353249, 32.55522905743404 ], [ 35.674460367445569, 32.385709576694104 ], [ 35.227216355310794, 32.680985468708641 ], [ 35.361379848730749, 33.148655917258345 ], [ 35.947386282000117, 33.320173161625121 ] ] ] ] } },
{ "type": "Feature", "properties": { "geogrid_id": "833352034037569566", "seqnum": 20298.0, "lat_c": 33.352033623764839, "lon_c": 37.569565570243306, "res": 8.0, "count_Insects": 0, "count_Molluscs": 0, "count_Flowering Plants": 2, "count_Arachnids": 0, "count_Reptiles": 0, "count_Mammals": 0, "count_Amphibians": 0, "count_Birds": 0, "count_Ferns": 0, "count_Gymnosperms": 0, "count_Sac Fungi": 0, "count_Basidiomycota": 0, "unique_species_count": 2.0, "countryCode": "SY" }, "geometry": { "type": "MultiPolygon", "coordinates": [ [ [ [ 37.716674375008679, 33.818143223072958 ], [ 38.159708280467449, 33.512881683491187 ], [ 38.011435584200164, 33.047364407364604 ], [ 37.42453406733248, 32.886074540154475 ], [ 36.981242621624169, 33.188401504027418 ], [ 37.125034485368758, 33.654935729343357 ], [ 37.716674375008679, 33.818143223072958 ] ] ] ] } },
{ "type": "Feature", "properties": { "geogrid_id": "833488939036535271", "seqnum": 20217.0, "lat_c": 33.488939398153349, "lon_c": 36.535271367107377, "res": 8.0, "count_Insects": 56, "count_Molluscs": 7, "count_Flowering Plants": 82, "count_Arachnids": 6, "count_Reptiles": 4, "count_Mammals": 2, "count_Amphibians": 1, "count_Birds": 26, "count_Ferns": 0, "count_Gymnosperms": 0, "count_Sac Fungi": 1, "count_Basidiomycota": 3, "unique_species_count": 188.0, "countryCode": "SY" }, "geometry": { "type": "MultiPolygon", "coordinates": [ [ [ [ 36.677756675410997, 33.956022237157299 ], [ 37.125034485368758, 33.654935729343357 ], [ 36.981242621624169, 33.188401504027418 ], [ 36.394742210952657, 33.022003799790518 ], [ 35.947386282000117, 33.320173161625121 ], [ 36.086538328031047, 33.787640600711214 ], [ 36.677756675410997, 33.956022237157299 ] ] ] ] } },
{ "type": "Feature", "properties": { "geogrid_id": "833616485035497256", "seqnum": 20136.0, "lat_c": 33.616484669425169, "lon_c": 35.497256010776084, "res": 8.0, "count_Insects": 17, "count_Molluscs": 0, "count_Flowering Plants": 9, "count_Arachnids": 0, "count_Reptiles": 0, "count_Mammals": 26, "count_Amphibians": 0, "count_Birds": 0, "count_Ferns": 0, "count_Gymnosperms": 0, "count_Sac Fungi": 0, "count_Basidiomycota": 0, "unique_species_count": 52.0, "countryCode": "SY" }, "geometry": { "type": "MultiPolygon", "coordinates": [ [ [ [ 35.634963651871018, 34.084459284491444 ], [ 36.086538328031047, 33.787640600711214 ], [ 35.947386282000117, 33.320173161625121 ], [ 35.361379848730749, 33.148655917258345 ], [ 34.909908774311376, 33.442573823986926 ], [ 35.044274843392671, 33.910893117316064 ], [ 35.634963651871018, 34.084459284491444 ] ] ] ] } },
{ "type": "Feature", "properties": { "geogrid_id": "833978543038310189", "seqnum": 20380.0, "lat_c": 33.978542916623695, "lon_c": 38.310189190359402, "res": 8.0, "count_Insects": 0, "count_Molluscs": 0, "count_Flowering Plants": 2, "count_Arachnids": 0, "count_Reptiles": 0, "count_Mammals": 0, "count_Amphibians": 0, "count_Birds": 0, "count_Ferns": 0, "count_Gymnosperms": 0, "count_Sac Fungi": 0, "count_Basidiomycota": 0, "unique_species_count": 2.0, "countryCode": "SY" }, "geometry": { "type": "MultiPolygon", "coordinates": [ [ [ [ 38.463029954178786, 34.444326595717946 ], [ 38.905576576808322, 34.136115818996856 ], [ 38.751667270647644, 33.670927202487434 ], [ 38.159708280467449, 33.512881683491187 ], [ 37.716674375008679, 33.818143223072958 ], [ 37.86600269158307, 34.284384779713477 ], [ 38.463029954178786, 34.444326595717946 ] ] ] ] } },
{ "type": "Feature", "properties": { "geogrid_id": "834121610037270911", "seqnum": 20299.0, "lat_c": 34.121610133637475, "lon_c": 37.270911472912594, "res": 8.0, "count_Insects": 1, "count_Molluscs": 0, "count_Flowering Plants": 6, "count_Arachnids": 0, "count_Reptiles": 0, "count_Mammals": 0, "count_Amphibians": 0, "count_Birds": 10, "count_Ferns": 0, "count_Gymnosperms": 0, "count_Sac Fungi": 0, "count_Basidiomycota": 0, "unique_species_count": 17.0, "countryCode": "SY" }, "geometry": { "type": "MultiPolygon", "coordinates": [ [ [ [ 37.419016697190337, 34.588404869951333 ], [ 37.86600269158307, 34.284384779713477 ], [ 37.716674375008679, 33.818143223072958 ], [ 37.125034485368758, 33.654935729343357 ], [ 36.677756675410997, 33.956022237157299 ], [ 36.822332487378461, 34.423235232914948 ], [ 37.419016697190337, 34.588404869951333 ] ] ] ] } },
{ "type": "Feature", "properties": { "geogrid_id": "834255247036227649", "seqnum": 20218.0, "lat_c": 34.255246662172794, "lon_c": 36.227648785273544, "res": 8.0, "count_Insects": 15, "count_Molluscs": 0, "count_Flowering Plants": 20, "count_Arachnids": 0, "count_Reptiles": 1, "count_Mammals": 0, "count_Amphibians": 0, "count_Birds": 0, "count_Ferns": 0, "count_Gymnosperms": 0, "count_Sac Fungi": 0, "count_Basidiomycota": 0, "unique_species_count": 36.0, "countryCode": "SY" }, "geometry": { "type": "MultiPolygon", "coordinates": [ [ [ [ 36.370852686133645, 34.72297322454407 ], [ 36.822332487378461, 34.423235232914948 ], [ 36.677756675410997, 33.956022237157299 ], [ 36.086538328031047, 33.787640600711214 ], [ 35.634963651871018, 34.084459284491444 ], [ 35.774629632593637, 34.552564211047354 ], [ 36.370852686133645, 34.72297322454407 ] ] ] ] } },
{ "type": "Feature", "properties": { "geogrid_id": "834274714041137575", "seqnum": 20624.0, "lat_c": 34.27471441703441, "lon_c": 41.137574985245351, "res": 8.0, "count_Insects": 1, "count_Molluscs": 0, "count_Flowering Plants": 0, "count_Arachnids": 0, "count_Reptiles": 0, "count_Mammals": 0, "count_Amphibians": 0, "count_Birds": 0, "count_Ferns": 0, "count_Gymnosperms": 0, "count_Sac Fungi": 0, "count_Basidiomycota": 0, "unique_species_count": 1.0, "countryCode": "SY" }, "geometry": { "type": "MultiPolygon", "coordinates": [ [ [ [ 41.305792997084971, 34.737758600641911 ], [ 41.738542935674189, 34.418470235036345 ], [ 41.569726007010054, 33.956106319932836 ], [ 40.972318874538537, 33.811762822846781 ], [ 40.538397693875687, 34.128063762989591 ], [ 40.702945155283409, 34.591683419307813 ], [ 41.305792997084971, 34.737758600641911 ] ] ] ] } },
{ "type": "Feature", "properties": { "geogrid_id": "834442705040101958", "seqnum": 20543.0, "lat_c": 34.442705141175338, "lon_c": 40.101957693489034, "res": 8.0, "count_Insects": 0, "count_Molluscs": 1, "count_Flowering Plants": 0, "count_Arachnids": 0, "count_Reptiles": 0, "count_Mammals": 0, "count_Amphibians": 0, "count_Birds": 0, "count_Ferns": 0, "count_Gymnosperms": 0, "count_Sac Fungi": 0, "count_Basidiomycota": 0, "unique_species_count": 1.0, "countryCode": "SY" }, "geometry": { "type": "MultiPolygon", "coordinates": [ [ [ [ 40.265721890903407, 34.906958018214723 ], [ 40.702945155283409, 34.591683419307813 ], [ 40.538397693875687, 34.128063762989591 ], [ 39.941016956335588, 33.978536708632532 ], [ 39.502833765553078, 34.290842910855879 ], [ 39.66289014947219, 34.755633018886343 ], [ 40.265721890903407, 34.906958018214723 ] ] ] ] } },
{ "type": "Feature", "properties": { "geogrid_id": "834601416039061993", "seqnum": 20462.0, "lat_c": 34.601415924718715, "lon_c": 39.061992661260426, "res": 8.0, "count_Insects": 0, "count_Molluscs": 0, "count_Flowering Plants": 3, "count_Arachnids": 0, "count_Reptiles": 0, "count_Mammals": 0, "count_Amphibians": 0, "count_Birds": 6, "count_Ferns": 0, "count_Gymnosperms": 0, "count_Sac Fungi": 0, "count_Basidiomycota": 0, "unique_species_count": 9.0, "countryCode": "SY" }, "geometry": { "type": "MultiPolygon", "coordinates": [ [ [ [ 39.221090083204572, 35.066796976697333 ], [ 39.66289014947219, 34.755633018886343 ], [ 39.502833765553078, 34.290842910855879 ], [ 38.905576576808322, 34.136115818996856 ], [ 38.463029954178786, 34.444326595717946 ], [ 38.618393665024286, 34.910206211894625 ], [ 39.221090083204572, 35.066796976697333 ] ] ] ] } },
{ "type": "Feature", "properties": { "geogrid_id": "834750735038017703", "seqnum": 20381.0, "lat_c": 34.750735325343605, "lon_c": 38.017703175929533, "res": 8.0, "count_Insects": 9, "count_Molluscs": 3, "count_Flowering Plants": 12, "count_Arachnids": 1, "count_Reptiles": 13, "count_Mammals": 0, "count_Amphibians": 1, "count_Birds": 44, "count_Ferns": 0, "count_Gymnosperms": 0, "count_Sac Fungi": 0, "count_Basidiomycota": 1, "unique_species_count": 84.0, "countryCode": "SY" }, "geometry": { "type": "MultiPolygon", "coordinates": [ [ [ [ 38.17193990495926, 35.217166858403445 ], [ 38.618393665024286, 34.910206211894625 ], [ 38.463029954178786, 34.444326595717946 ], [ 37.86600269158307, 34.284384779713477 ], [ 37.419016697190337, 34.588404869951333 ], [ 37.569503696439995, 35.055295650105982 ], [ 38.17193990495926, 35.217166858403445 ] ] ] ] } },
{ "type": "Feature", "properties": { "geogrid_id": "834890557036969143", "seqnum": 20300.0, "lat_c": 34.890557369289645, "lon_c": 36.969142696801597, "res": 8.0, "count_Insects": 27, "count_Molluscs": 3, "count_Flowering Plants": 23, "count_Arachnids": 1, "count_Reptiles": 3, "count_Mammals": 1, "count_Amphibians": 1, "count_Birds": 43, "count_Ferns": 1, "count_Gymnosperms": 0, "count_Sac Fungi": 1, "count_Basidiomycota": 0, "unique_species_count": 104.0, "countryCode": "SY" }, "geometry": { "type": "MultiPolygon", "coordinates": [ [ [ [ 37.118341597302873, 35.35796317108764 ], [ 37.569503696439995, 35.055295650105982 ], [ 37.419016697190337, 34.588404869951333 ], [ 36.822332487378461, 34.423235232914948 ], [ 36.370852686133645, 34.72297322454407 ], [ 36.516294588261914, 35.190798218115035 ], [ 37.118341597302873, 35.35796317108764 ] ] ] ] } },
{ "type": "Feature", "properties": { "geogrid_id": "835020780035916390", "seqnum": 20219.0, "lat_c": 35.020780391068477, "lon_c": 35.916389557717039, "res": 8.0, "count_Insects": 279, "count_Molluscs": 19, "count_Flowering Plants": 281, "count_Arachnids": 48, "count_Reptiles": 24, "count_Mammals": 10, "count_Amphibians": 5, "count_Birds": 71, "count_Ferns": 8, "count_Gymnosperms": 5, "count_Sac Fungi": 7, "count_Basidiomycota": 40, "unique_species_count": 797.0, "countryCode": "SY" }, "geometry": { "type": "MultiPolygon", "coordinates": [ [ [ [ 36.060388536293338, 35.489084812743727 ], [ 36.516294588261914, 35.190798218115035 ], [ 36.370852686133645, 34.72297322454407 ], [ 35.774629632593637, 34.552564211047354 ], [ 35.318620095090935, 34.847931508321011 ], [ 35.45886269254067, 35.31661432376692 ], [ 36.060388536293338, 35.489084812743727 ] ] ] ] } },
{ "type": "Feature", "properties": { "geogrid_id": "835055371040870488", "seqnum": 20625.0, "lat_c": 35.055370918717948, "lon_c": 40.870487745391081, "res": 8.0, "count_Insects": 1, "count_Molluscs": 0, "count_Flowering Plants": 2, "count_Arachnids": 0, "count_Reptiles": 1, "count_Mammals": 0, "count_Amphibians": 0, "count_Birds": 1, "count_Ferns": 0, "count_Gymnosperms": 0, "count_Sac Fungi": 0, "count_Basidiomycota": 0, "unique_species_count": 5.0, "countryCode": "SY" }, "geometry": { "type": "MultiPolygon", "coordinates": [ [ [ [ 41.041242408161061, 35.519079620023199 ], [ 41.477188281742258, 35.200851526018923 ], [ 41.305792997084971, 34.737758600641911 ], [ 40.702945155283409, 34.591683419307813 ], [ 40.265721890903407, 34.906958018214723 ], [ 40.432510813045077, 35.37125485906008 ], [ 41.041242408161061, 35.519079620023199 ] ] ] ] } },
{ "type": "Feature", "properties": { "geogrid_id": "835220487039825795", "seqnum": 20544.0, "lat_c": 35.220486863392068, "lon_c": 39.825794773329562, "res": 8.0, "count_Insects": 3, "count_Molluscs": 0, "count_Flowering Plants": 1, "count_Arachnids": 0, "count_Reptiles": 0, "count_Mammals": 0, "count_Amphibians": 0, "count_Birds": 21, "count_Ferns": 0, "count_Gymnosperms": 0, "count_Sac Fungi": 0, "count_Basidiomycota": 0, "unique_species_count": 25.0, "countryCode": "SY" }, "geometry": { "type": "MultiPolygon", "coordinates": [ [ [ [ 39.991750167981365, 35.685361778147765 ], [ 40.432510813045077, 35.37125485906008 ], [ 40.265721890903407, 34.906958018214723 ], [ 39.66289014947219, 34.755633018886343 ], [ 39.221090083204572, 35.066796976697333 ], [ 39.383057238682042, 35.532221892080599 ], [ 39.991750167981365, 35.685361778147765 ] ] ] ] } },
{ "type": "Feature", "properties": { "geogrid_id": "835376150038776456", "seqnum": 20463.0, "lat_c": 35.376149530752045, "lon_c": 38.776455965693835, "res": 8.0, "count_Insects": 1, "count_Molluscs": 0, "count_Flowering Plants": 7, "count_Arachnids": 0, "count_Reptiles": 0, "count_Mammals": 0, "count_Amphibians": 0, "count_Birds": 1, "count_Ferns": 0, "count_Gymnosperms": 0, "count_Sac Fungi": 0, "count_Basidiomycota": 0, "unique_species_count": 9.0, "countryCode": "SY" }, "geometry": { "type": "MultiPolygon", "coordinates": [ [ [ [ 38.937406262813283, 35.84211775599335 ], [ 39.383057238682042, 35.532221892080599 ], [ 39.221090083204572, 35.066796976697333 ], [ 38.618393665024286, 34.910206211894625 ], [ 38.17193990495926, 35.217166858403445 ], [ 38.328889452873078, 35.683645630767749 ], [ 38.937406262813283, 35.84211775599335 ] ] ] ] } },
{ "type": "Feature", "properties": { "geogrid_id": "835522253037722537", "seqnum": 20382.0, "lat_c": 35.522253133132288, "lon_c": 37.722537392885243, "res": 8.0, "count_Insects": 2, "count_Molluscs": 0, "count_Flowering Plants": 1, "count_Arachnids": 0, "count_Reptiles": 2, "count_Mammals": 0, "count_Amphibians": 0, "count_Birds": 0, "count_Ferns": 0, "count_Gymnosperms": 0, "count_Sac Fungi": 0, "count_Basidiomycota": 0, "unique_species_count": 5.0, "countryCode": "SY" }, "geometry": { "type": "MultiPolygon", "coordinates": [ [ [ [ 37.878295149161062, 35.989242227350708 ], [ 38.328889452873078, 35.683645630767749 ], [ 38.17193990495926, 35.217166858403445 ], [ 37.569503696439995, 35.055295650105982 ], [ 37.118341597302873, 35.35796317108764 ], [ 37.270094825228796, 35.825422105078808 ], [ 37.878295149161062, 35.989242227350708 ] ] ] ] } },
{ "type": "Feature", "properties": { "geogrid_id": "835658695036664129", "seqnum": 20301.0, "lat_c": 35.658695108490363, "lon_c": 36.664129419550392, "res": 8.0, "count_Insects": 196, "count_Molluscs": 1, "count_Flowering Plants": 145, "count_Arachnids": 7, "count_Reptiles": 8, "count_Mammals": 4, "count_Amphibians": 4, "count_Birds": 43, "count_Ferns": 1, "count_Gymnosperms": 4, "count_Sac Fungi": 3, "count_Basidiomycota": 11, "unique_species_count": 427.0, "countryCode": "SY" }, "geometry": { "type": "MultiPolygon", "coordinates": [ [ [ [ 36.814523405745241, 36.126632310936273 ], [ 37.270094825228796, 35.825422105078808 ], [ 37.118341597302873, 35.35796317108764 ], [ 36.516294588261914, 35.190798218115035 ], [ 36.060388536293338, 35.489084812743727 ], [ 36.206782014462704, 35.957450005034417 ], [ 36.814523405745241, 36.126632310936273 ] ] ] ] } },
{ "type": "Feature", "properties": { "geogrid_id": "835785376035601343", "seqnum": 20220.0, "lat_c": 35.785375740042866, "lon_c": 35.601342847093726, "res": 8.0, "count_Insects": 508, "count_Molluscs": 33, "count_Flowering Plants": 220, "count_Arachnids": 34, "count_Reptiles": 19, "count_Mammals": 15, "count_Amphibians": 5, "count_Birds": 141, "count_Ferns": 2, "count_Gymnosperms": 1, "count_Sac Fungi": 4, "count_Basidiomycota": 24, "unique_species_count": 1006.0, "countryCode": "SY" }, "geometry": { "type": "MultiPolygon", "coordinates": [ [ [ [ 35.746216411566699, 36.254187466620458 ], [ 36.206782014462704, 35.957450005034417 ], [ 36.060388536293338, 35.489084812743727 ], [ 35.45886269254067, 35.31661432376692 ], [ 34.998193677735998, 35.610433684584798 ], [ 35.139077857761066, 36.079630544300706 ], [ 35.746216411566699, 36.254187466620458 ] ] ] ] } },
{ "type": "Feature", "properties": { "geogrid_id": "835835547040602543", "seqnum": 20626.0, "lat_c": 35.835546529808482, "lon_c": 40.602542744492574, "res": 8.0, "count_Insects": 0, "count_Molluscs": 0, "count_Flowering Plants": 1, "count_Arachnids": 0, "count_Reptiles": 2, "count_Mammals": 0, "count_Amphibians": 0, "count_Birds": 0, "count_Ferns": 0, "count_Gymnosperms": 0, "count_Sac Fungi": 0, "count_Basidiomycota": 0, "unique_species_count": 3.0, "countryCode": "SY" }, "geometry": { "type": "MultiPolygon", "coordinates": [ [ [ [ 40.776054790813433, 36.299773846111094 ], [ 41.215445093226144, 35.98275284851411 ], [ 41.041242408161061, 35.519079620023199 ], [ 40.432510813045077, 35.37125485906008 ], [ 39.991750167981365, 35.685361778147765 ], [ 40.16097574777563, 36.150206423051046 ], [ 40.776054790813433, 36.299773846111094 ] ] ] ] } },
{ "type": "Feature", "properties": { "geogrid_id": "835997646039548098", "seqnum": 20545.0, "lat_c": 35.99764606197401, "lon_c": 39.54809773719078, "res": 8.0, "count_Insects": 9, "count_Molluscs": 0, "count_Flowering Plants": 1, "count_Arachnids": 0, "count_Reptiles": 2, "count_Mammals": 0, "count_Amphibians": 0, "count_Birds": 2, "count_Ferns": 0, "count_Gymnosperms": 0, "count_Sac Fungi": 2, "count_Basidiomycota": 0, "unique_species_count": 16.0, "countryCode": "SY" }, "geometry": { "type": "MultiPolygon", "coordinates": [ [ [ [ 39.716431930491318, 36.463016211604277 ], [ 40.16097574777563, 36.150206423051046 ], [ 39.991750167981365, 35.685361778147765 ], [ 39.383057238682042, 35.532221892080599 ], [ 38.937406262813283, 35.84211775599335 ], [ 39.101449071427361, 36.308064567109781 ], [ 39.716431930491318, 36.463016211604277 ] ] ] ] } },
{ "type": "Feature", "properties": { "geogrid_id": "836150131038488742", "seqnum": 20464.0, "lat_c": 36.150131330454428, "lon_c": 38.488742080083, "res": 8.0, "count_Insects": 1, "count_Molluscs": 0, "count_Flowering Plants": 4, "count_Arachnids": 0, "count_Reptiles": 0, "count_Mammals": 1, "count_Amphibians": 0, "count_Birds": 6, "count_Ferns": 0, "count_Gymnosperms": 0, "count_Sac Fungi": 0, "count_Basidiomycota": 0, "unique_species_count": 12.0, "countryCode": "SY" }, "geometry": { "type": "MultiPolygon", "coordinates": [ [ [ [ 38.651703047061588, 36.616576144290669 ], [ 39.101449071427361, 36.308064567109781 ], [ 38.937406262813283, 35.84211775599335 ], [ 38.328889452873078, 35.683645630767749 ], [ 37.878295149161062, 35.989242227350708 ], [ 38.03696793297204, 36.456221293155146 ], [ 38.651703047061588, 36.616576144290669 ] ] ] ] } },
{ "type": "Feature", "properties": { "geogrid_id": "836292898037424580", "seqnum": 20383.0, "lat_c": 36.292897898359691, "lon_c": 37.424580396853614, "res": 8.0, "count_Insects": 13, "count_Molluscs": 1, "count_Flowering Plants": 23, "count_Arachnids": 0, "count_Reptiles": 0, "count_Mammals": 0, "count_Amphibians": 0, "count_Birds": 17, "count_Ferns": 0, "count_Gymnosperms": 0, "count_Sac Fungi": 0, "count_Basidiomycota": 0, "unique_species_count": 54.0, "countryCode": "SY" }, "geometry": { "type": "MultiPolygon", "coordinates": [ [ [ [ 37.581989849754564, 36.760347761950641 ], [ 38.03696793297204, 36.456221293155146 ], [ 37.878295149161062, 35.989242227350708 ], [ 37.270094825228796, 35.825422105078808 ], [ 36.814523405745241, 36.126632310936273 ], [ 36.967655089154611, 36.59457252567951 ], [ 37.581989849754564, 36.760347761950641 ] ] ] ] } },
{ "type": "Feature", "properties": { "geogrid_id": "836425843036355737", "seqnum": 20302.0, "lat_c": 36.42584346592168, "lon_c": 36.355736688321088, "res": 8.0, "count_Insects": 4, "count_Molluscs": 0, "count_Flowering Plants": 12, "count_Arachnids": 1, "count_Reptiles": 2, "count_Mammals": 0, "count_Amphibians": 1, "count_Birds": 21, "count_Ferns": 0, "count_Gymnosperms": 1, "count_Sac Fungi": 6, "count_Basidiomycota": 0, "unique_species_count": 48.0, "countryCode": "SY" }, "geometry": { "type": "MultiPolygon", "coordinates": [ [ [ [ 36.507431504876507, 36.894227015119206 ], [ 36.967655089154611, 36.59457252567951 ], [ 36.814523405745241, 36.126632310936273 ], [ 36.206782014462704, 35.957450005034417 ], [ 35.746216411566699, 36.254187466620458 ], [ 35.893650438285533, 36.723016211822959 ], [ 36.507431504876507, 36.894227015119206 ] ] ] ] } },
{ "type": "Feature", "properties": { "geogrid_id": "836446322041393353", "seqnum": 20708.0, "lat_c": 36.446322214909337, "lon_c": 41.393352836075195, "res": 8.0, "count_Insects": 1, "count_Molluscs": 0, "count_Flowering Plants": 0, "count_Arachnids": 0, "count_Reptiles": 1, "count_Mammals": 0, "count_Amphibians": 0, "count_Birds": 2, "count_Ferns": 0, "count_Gymnosperms": 0, "count_Sac Fungi": 0, "count_Basidiomycota": 0, "unique_species_count": 4.0, "countryCode": "SY" }, "geometry": { "type": "MultiPolygon", "coordinates": [ [ [ [ 41.575246091148692, 36.909705640926347 ], [ 42.012892416750915, 36.589823940876883 ], [ 41.830470224456342, 36.126956597931361 ], [ 41.215445093226144, 35.98275284851411 ], [ 40.776054790813433, 36.299773846111094 ], [ 40.95330489119965, 36.763865941543422 ], [ 41.575246091148692, 36.909705640926347 ] ] ] ] } },
{ "type": "Feature", "properties": { "geogrid_id": "836614959040333710", "seqnum": 20627.0, "lat_c": 36.614959425219887, "lon_c": 40.333709559038425, "res": 8.0, "count_Insects": 4, "count_Molluscs": 1, "count_Flowering Plants": 0, "count_Arachnids": 0, "count_Reptiles": 0, "count_Mammals": 1, "count_Amphibians": 1, "count_Birds": 2, "count_Ferns": 0, "count_Gymnosperms": 0, "count_Sac Fungi": 1, "count_Basidiomycota": 0, "unique_species_count": 10.0, "countryCode": "SY" }, "geometry": { "type": "MultiPolygon", "coordinates": [ [ [ [ 40.510210228462491, 37.079547798529113 ], [ 40.95330489119965, 36.763865941543422 ], [ 40.776054790813433, 36.299773846111094 ], [ 40.16097574777563, 36.150206423051046 ], [ 39.716431930491318, 36.463016211604277 ], [ 39.888298611098172, 36.928269081279417 ], [ 40.510210228462491, 37.079547798529113 ] ] ] ] } },
{ "type": "Feature", "properties": { "geogrid_id": "836773935039268806", "seqnum": 20546.0, "lat_c": 36.773935010939958, "lon_c": 39.268805504693702, "res": 8.0, "count_Insects": 0, "count_Molluscs": 0, "count_Flowering Plants": 1, "count_Arachnids": 0, "count_Reptiles": 0, "count_Mammals": 7, "count_Amphibians": 0, "count_Birds": 1, "count_Ferns": 0, "count_Gymnosperms": 0, "count_Sac Fungi": 0, "count_Basidiomycota": 0, "unique_species_count": 9.0, "countryCode": "SY" }, "geometry": { "type": "MultiPolygon", "coordinates": [ [ [ [ 39.439714924812307, 37.23966422348294 ], [ 39.888298611098172, 36.928269081279417 ], [ 39.716431930491318, 36.463016211604277 ], [ 39.101449071427361, 36.308064567109781 ], [ 38.651703047061588, 36.616576144290669 ], [ 38.817994066714029, 37.082923681783264 ], [ 39.439714924812307, 37.23966422348294 ] ] ] ] } },
{ "type": "Feature", "properties": { "geogrid_id": "836923141038198762", "seqnum": 20465.0, "lat_c": 36.923141231489417, "lon_c": 38.19876160152306, "res": 8.0, "count_Insects": 2, "count_Molluscs": 0, "count_Flowering Plants": 4, "count_Arachnids": 0, "count_Reptiles": 0, "count_Mammals": 0, "count_Amphibians": 1, "count_Birds": 0, "count_Ferns": 0, "count_Gymnosperms": 0, "count_Sac Fungi": 0, "count_Basidiomycota": 0, "unique_species_count": 7.0, "countryCode": "SY" }, "geometry": { "type": "MultiPolygon", "coordinates": [ [ [ [ 38.363898318372065, 37.38994444059184 ], [ 38.817994066714029, 37.082923681783264 ], [ 38.651703047061588, 36.616576144290669 ], [ 38.03696793297204, 36.456221293155146 ], [ 37.581989849754564, 36.760347761950641 ], [ 37.742529499164675, 37.227721505632871 ], [ 38.363898318372065, 37.38994444059184 ] ] ] ] } },
{ "type": "Feature", "properties": { "geogrid_id": "837052446042199568", "seqnum": 20790.0, "lat_c": 37.052445969642477, "lon_c": 42.199568096716519, "res": 8.0, "count_Insects": 0, "count_Molluscs": 0, "count_Flowering Plants": 4, "count_Arachnids": 0, "count_Reptiles": 0, "count_Mammals": 0, "count_Amphibians": 0, "count_Birds": 0, "count_Ferns": 0, "count_Gymnosperms": 0, "count_Sac Fungi": 0, "count_Basidiomycota": 0, "unique_species_count": 4.0, "countryCode": "SY" }, "geometry": { "type": "MultiPolygon", "coordinates": [ [ [ [ 42.390832940164309, 37.514708250001966 ], [ 42.826314629386005, 37.192051138477758 ], [ 42.634702042125475, 36.730249481783424 ], [ 42.012892416750915, 36.589823940876883 ], [ 41.575246091148692, 36.909705640926347 ], [ 41.76143134932159, 37.372805036793388 ], [ 42.390832940164309, 37.514708250001966 ] ] ] ] } },
{ "type": "Feature", "properties": { "geogrid_id": "837062472037123716", "seqnum": 20384.0, "lat_c": 37.062471982836236, "lon_c": 37.123716447739973, "res": 8.0, "count_Insects": 1, "count_Molluscs": 0, "count_Flowering Plants": 0, "count_Arachnids": 0, "count_Reptiles": 0, "count_Mammals": 0, "count_Amphibians": 0, "count_Birds": 0, "count_Ferns": 0, "count_Gymnosperms": 0, "count_Sac Fungi": 0, "count_Basidiomycota": 0, "unique_species_count": 1.0, "countryCode": "SY" }, "geometry": { "type": "MultiPolygon", "coordinates": [ [ [ [ 37.282914124731832, 37.530279583926685 ], [ 37.742529499164675, 37.227721505632871 ], [ 37.581989849754564, 36.760347761950641 ], [ 36.967655089154611, 36.59457252567951 ], [ 36.507431504876507, 36.894227015119206 ], [ 36.662058759860834, 37.362556060665831 ], [ 37.282914124731832, 37.530279583926685 ] ] ] ] } },
{ "type": "Feature", "properties": { "geogrid_id": "837227738041134574", "seqnum": 20709.0, "lat_c": 37.227738359614534, "lon_c": 41.134574068498559, "res": 8.0, "count_Insects": 0, "count_Molluscs": 0, "count_Flowering Plants": 1, "count_Arachnids": 0, "count_Reptiles": 0, "count_Mammals": 0, "count_Amphibians": 0, "count_Birds": 1, "count_Ferns": 0, "count_Gymnosperms": 0, "count_Sac Fungi": 0, "count_Basidiomycota": 0, "unique_species_count": 2.0, "countryCode": "SY" }, "geometry": { "type": "MultiPolygon", "coordinates": [ [ [ [ 41.320168944940683, 37.691290819453464 ], [ 41.76143134932159, 37.372805036793388 ], [ 41.575246091148692, 36.909705640926347 ], [ 40.95330489119965, 36.763865941543422 ], [ 40.510210228462491, 37.079547798529113 ], [ 40.690759134661363, 37.543885103059836 ], [ 41.320168944940683, 37.691290819453464 ] ] ] ] } }
]
}
