{
"type": "FeatureCollection",
"name": "TD",
"crs": { "type": "name", "properties": { "name": "urn:ogc:def:crs:OGC:1.3:CRS84" } },
"features": [
{ "type": "Feature", "properties": { "geogrid_id": "707032486016142502", "seqnum": 5527.0, "lat_c": 7.0324864914891521, "lon_c": 16.14250228319645, "res": 7.0, "count_Birds": 1, "count_Mammals": 0, "count_Reptiles": 0, "count_Insects": 0, "count_Arachnids": 0, "count_Flowering Plants": 0, "count_Ferns": 0, "count_Amphibians": 0, "count_Molluscs": 0, "count_Basidiomycota": 0, "unique_species_count": 1.0, "countryCode": "TD" }, "geometry": { "type": "MultiPolygon", "coordinates": [ [ [ [ 16.560959391959418, 7.816272922230959 ], [ 16.954665767057477, 7.040039834311366 ], [ 16.537100048204682, 6.255914274702617 ], [ 15.725779481256382, 6.250133365855325 ], [ 15.329055018639979, 7.026092016272895 ], [ 15.746585087248963, 7.807938620227328 ], [ 16.560959391959418, 7.816272922230959 ] ] ] ] } },
{ "type": "Feature", "properties": { "geogrid_id": "707800989014930866", "seqnum": 5472.0, "lat_c": 7.800989426883322, "lon_c": 14.930865846873159, "res": 7.0, "count_Birds": 0, "count_Mammals": 0, "count_Reptiles": 0, "count_Insects": 0, "count_Arachnids": 0, "count_Flowering Plants": 1, "count_Ferns": 0, "count_Amphibians": 0, "count_Molluscs": 0, "count_Basidiomycota": 0, "unique_species_count": 1.0, "countryCode": "TD" }, "geometry": { "type": "MultiPolygon", "coordinates": [ [ [ [ 15.349168960186624, 8.582303196857689 ], [ 15.746585087248963, 7.807938620227328 ], [ 15.329055018639979, 7.026092016272895 ], [ 14.514535155654476, 7.02085799867616 ], [ 14.114043254759812, 7.795427488807056 ], [ 14.531029224958335, 8.574876034873199 ], [ 15.349168960186624, 8.582303196857689 ] ] ] ] } },
{ "type": "Feature", "properties": { "geogrid_id": "707825990017373749", "seqnum": 5554.0, "lat_c": 7.8259897631670627, "lon_c": 17.373749318938486, "res": 7.0, "count_Birds": 3, "count_Mammals": 0, "count_Reptiles": 0, "count_Insects": 3, "count_Arachnids": 0, "count_Flowering Plants": 1, "count_Ferns": 0, "count_Amphibians": 0, "count_Molluscs": 0, "count_Basidiomycota": 0, "unique_species_count": 7.0, "countryCode": "TD" }, "geometry": { "type": "MultiPolygon", "coordinates": [ [ [ [ 17.794052841599552, 8.614438274649942 ], [ 18.184717938206376, 7.837086153543162 ], [ 17.765336089838463, 7.048750169643379 ], [ 16.954665767057477, 7.040039834311366 ], [ 16.560959391959418, 7.816272922230959 ], [ 16.980954797496405, 8.6020880915577 ], [ 17.794052841599552, 8.614438274649942 ] ] ] ] } },
{ "type": "Feature", "properties": { "geogrid_id": "708591375016165903", "seqnum": 5500.0, "lat_c": 8.5913750378476212, "lon_c": 16.165902668015036, "res": 7.0, "count_Birds": 12, "count_Mammals": 1, "count_Reptiles": 0, "count_Insects": 12, "count_Arachnids": 0, "count_Flowering Plants": 16, "count_Ferns": 0, "count_Amphibians": 1, "count_Molluscs": 0, "count_Basidiomycota": 0, "unique_species_count": 42.0, "countryCode": "TD" }, "geometry": { "type": "MultiPolygon", "coordinates": [ [ [ [ 16.586779009336372, 9.377057853179547 ], [ 16.980954797496405, 8.6020880915577 ], [ 16.560959391959418, 7.816272922230959 ], [ 15.746585087248963, 7.807938620227328 ], [ 15.349168960186624, 8.582303196857689 ], [ 15.769317717191129, 9.365368123736276 ], [ 16.586779009336372, 9.377057853179547 ] ] ] ] } },
{ "type": "Feature", "properties": { "geogrid_id": "708628421018604928", "seqnum": 5582.0, "lat_c": 8.6284208932432929, "lon_c": 18.604927811334832, "res": 7.0, "count_Birds": 1, "count_Mammals": 0, "count_Reptiles": 0, "count_Insects": 0, "count_Arachnids": 0, "count_Flowering Plants": 1, "count_Ferns": 0, "count_Amphibians": 0, "count_Molluscs": 0, "count_Basidiomycota": 0, "unique_species_count": 2.0, "countryCode": "TD" }, "geometry": { "type": "MultiPolygon", "coordinates": [ [ [ [ 19.025317031513229, 9.423706199295411 ], [ 19.413314695038626, 8.644030650363268 ], [ 18.993631192723281, 7.84955868798972 ], [ 18.184717938206376, 7.837086153543162 ], [ 17.794052841599552, 8.614438274649942 ], [ 18.215087564532972, 9.406233744599771 ], [ 19.025317031513229, 9.423706199295411 ] ] ] ] } },
{ "type": "Feature", "properties": { "geogrid_id": "708680107021021587", "seqnum": 5664.0, "lat_c": 8.6801074278879184, "lon_c": 21.021586681974586, "res": 7.0, "count_Birds": 2, "count_Mammals": 0, "count_Reptiles": 0, "count_Insects": 0, "count_Arachnids": 0, "count_Flowering Plants": 0, "count_Ferns": 0, "count_Amphibians": 0, "count_Molluscs": 0, "count_Basidiomycota": 0, "unique_species_count": 2.0, "countryCode": "TD" }, "geometry": { "type": "MultiPolygon", "coordinates": [ [ [ [ 21.436715697296894, 9.487561177834353 ], [ 21.820965539436827, 8.700560918550426 ], [ 21.405748562048146, 7.895192960112343 ], [ 20.604371833506285, 7.878616515212622 ], [ 20.218952901029613, 8.661261654305966 ], [ 20.636422543374433, 9.464379342919626 ], [ 21.436715697296894, 9.487561177834353 ] ] ] ] } },
{ "type": "Feature", "properties": { "geogrid_id": "709355618014950071", "seqnum": 5446.0, "lat_c": 9.3556181971695747, "lon_c": 14.950071266581718, "res": 7.0, "count_Birds": 10, "count_Mammals": 10, "count_Reptiles": 4, "count_Insects": 2, "count_Arachnids": 0, "count_Flowering Plants": 8, "count_Ferns": 0, "count_Amphibians": 0, "count_Molluscs": 0, "count_Basidiomycota": 0, "unique_species_count": 34.0, "countryCode": "TD" }, "geometry": { "type": "MultiPolygon", "coordinates": [ [ [ [ 15.371023638305095, 10.138277009546288 ], [ 15.769317717191129, 9.365368123736276 ], [ 15.349168960186624, 8.582303196857689 ], [ 14.531029224958335, 8.574876034873199 ], [ 14.129359098685825, 9.347812690877138 ], [ 14.549105546673006, 10.127929283974876 ], [ 15.371023638305095, 10.138277009546288 ] ] ] ] } },
{ "type": "Feature", "properties": { "geogrid_id": "709390682017402139", "seqnum": 5528.0, "lat_c": 9.3906818646446943, "lon_c": 17.402139417619264, "res": 7.0, "count_Birds": 1, "count_Mammals": 0, "count_Reptiles": 0, "count_Insects": 0, "count_Arachnids": 0, "count_Flowering Plants": 1, "count_Ferns": 0, "count_Amphibians": 0, "count_Molluscs": 0, "count_Basidiomycota": 0, "unique_species_count": 2.0, "countryCode": "TD" }, "geometry": { "type": "MultiPolygon", "coordinates": [ [ [ [ 17.823935690450746, 10.183011612471656 ], [ 18.215087564532972, 9.406233744599771 ], [ 17.794052841599552, 8.614438274649942 ], [ 16.980954797496405, 8.6020880915577 ], [ 16.586779009336372, 9.377057853179547 ], [ 17.008804926366302, 10.165826238375981 ], [ 17.823935690450746, 10.183011612471656 ] ] ] ] } },
{ "type": "Feature", "properties": { "geogrid_id": "709443091019832527", "seqnum": 5610.0, "lat_c": 9.4430910688525724, "lon_c": 19.832526946198637, "res": 7.0, "count_Birds": 4, "count_Mammals": 0, "count_Reptiles": 0, "count_Insects": 0, "count_Arachnids": 0, "count_Flowering Plants": 0, "count_Ferns": 0, "count_Amphibians": 0, "count_Molluscs": 0, "count_Basidiomycota": 0, "unique_species_count": 4.0, "countryCode": "TD" }, "geometry": { "type": "MultiPolygon", "coordinates": [ [ [ [ 20.25002503023401, 10.248087043056586 ], [ 20.636422543374433, 9.464379342919626 ], [ 20.218952901029613, 8.661261654305966 ], [ 19.413314695038626, 8.644030650363268 ], [ 19.025317031513229, 9.423706199295411 ], [ 19.444892034815219, 10.224153894712343 ], [ 20.25002503023401, 10.248087043056586 ] ] ] ] } },
{ "type": "Feature", "properties": { "geogrid_id": "710119875013725666", "seqnum": 5391.0, "lat_c": 10.11987471045151, "lon_c": 13.725665639327801, "res": 7.0, "count_Birds": 1, "count_Mammals": 0, "count_Reptiles": 1, "count_Insects": 0, "count_Arachnids": 0, "count_Flowering Plants": 3, "count_Ferns": 0, "count_Amphibians": 0, "count_Molluscs": 0, "count_Basidiomycota": 0, "unique_species_count": 5.0, "countryCode": "TD" }, "geometry": { "type": "MultiPolygon", "coordinates": [ [ [ [ 14.146080731003753, 10.899293117579072 ], [ 14.549105546673006, 10.127929283974876 ], [ 14.129359098685825, 9.347812690877138 ], [ 13.307503720201716, 9.341955309745472 ], [ 12.901081112604553, 10.114118040090148 ], [ 13.31975491888897, 10.891157824372549 ], [ 14.146080731003753, 10.899293117579072 ] ] ] ] } },
{ "type": "Feature", "properties": { "geogrid_id": "710150912016191046", "seqnum": 5473.0, "lat_c": 10.150911798320427, "lon_c": 16.191046408748662, "res": 7.0, "count_Birds": 5, "count_Mammals": 0, "count_Reptiles": 0, "count_Insects": 1, "count_Arachnids": 0, "count_Flowering Plants": 1, "count_Ferns": 0, "count_Amphibians": 0, "count_Molluscs": 0, "count_Basidiomycota": 0, "unique_species_count": 7.0, "countryCode": "TD" }, "geometry": { "type": "MultiPolygon", "coordinates": [ [ [ [ 16.613874844106043, 10.939879813858001 ], [ 17.008804926366302, 10.165826238375981 ], [ 16.586779009336372, 9.377057853179547 ], [ 15.769317717191129, 9.365368123736276 ], [ 15.371023638305095, 10.138277009546288 ], [ 15.79357896858402, 10.923663046438424 ], [ 16.613874844106043, 10.939879813858001 ] ] ] ] } },
{ "type": "Feature", "properties": { "geogrid_id": "710202458018636081", "seqnum": 5555.0, "lat_c": 10.202457918811351, "lon_c": 18.636081457845432, "res": 7.0, "count_Birds": 52, "count_Mammals": 12, "count_Reptiles": 2, "count_Insects": 12, "count_Arachnids": 0, "count_Flowering Plants": 5, "count_Ferns": 0, "count_Amphibians": 0, "count_Molluscs": 0, "count_Basidiomycota": 1, "unique_species_count": 84.0, "countryCode": "TD" }, "geometry": { "type": "MultiPolygon", "coordinates": [ [ [ [ 19.055834102890774, 11.004509908402097 ], [ 19.444892034815219, 10.224153894712343 ], [ 19.025317031513229, 9.423706199295411 ], [ 18.215087564532972, 9.406233744599771 ], [ 17.823935690450746, 10.183011612471656 ], [ 18.245418420586677, 10.980317871346042 ], [ 19.055834102890774, 11.004509908402097 ] ] ] ] } },
{ "type": "Feature", "properties": { "geogrid_id": "710274244021051147", "seqnum": 5637.0, "lat_c": 10.274243661392585, "lon_c": 21.051146566534484, "res": 7.0, "count_Birds": 8, "count_Mammals": 3, "count_Reptiles": 1, "count_Insects": 0, "count_Arachnids": 0, "count_Flowering Plants": 0, "count_Ferns": 0, "count_Amphibians": 0, "count_Molluscs": 0, "count_Basidiomycota": 0, "unique_species_count": 12.0, "countryCode": "TD" }, "geometry": { "type": "MultiPolygon", "coordinates": [ [ [ [ 21.460876812677981, 11.092764827338089 ], [ 21.847931945270538, 10.302608873543628 ], [ 21.436715697296894, 9.487561177834353 ], [ 20.636422543374433, 9.464379342919626 ], [ 20.25002503023401, 10.248087043056586 ], [ 20.66394754697825, 11.060753325440782 ], [ 21.460876812677981, 11.092764827338089 ] ] ] ] } },
{ "type": "Feature", "properties": { "geogrid_id": "710910131014970836", "seqnum": 5419.0, "lat_c": 10.910130845337235, "lon_c": 14.97083578634574, "res": 7.0, "count_Birds": 6, "count_Mammals": 0, "count_Reptiles": 0, "count_Insects": 0, "count_Arachnids": 0, "count_Flowering Plants": 1, "count_Ferns": 0, "count_Amphibians": 0, "count_Molluscs": 0, "count_Basidiomycota": 0, "unique_species_count": 7.0, "countryCode": "TD" }, "geometry": { "type": "MultiPolygon", "coordinates": [ [ [ [ 15.394195650686171, 11.695325585786797 ], [ 15.79357896858402, 10.923663046438424 ], [ 15.371023638305095, 10.138277009546288 ], [ 14.549105546673006, 10.127929283974876 ], [ 14.146080731003753, 10.899293117579072 ], [ 14.568564879812088, 11.680965278446475 ], [ 15.394195650686171, 11.695325585786797 ] ] ] ] } },
{ "type": "Feature", "properties": { "geogrid_id": "710958769017431295", "seqnum": 5501.0, "lat_c": 10.958769323994721, "lon_c": 17.431294847271683, "res": 7.0, "count_Birds": 8, "count_Mammals": 1, "count_Reptiles": 0, "count_Insects": 2, "count_Arachnids": 0, "count_Flowering Plants": 2, "count_Ferns": 0, "count_Amphibians": 0, "count_Molluscs": 0, "count_Basidiomycota": 0, "unique_species_count": 13.0, "countryCode": "TD" }, "geometry": { "type": "MultiPolygon", "coordinates": [ [ [ [ 17.853130445374198, 11.757324526104338 ], [ 18.245418420586677, 10.980317871346042 ], [ 17.823935690450746, 10.183011612471656 ], [ 17.008804926366302, 10.165826238375981 ], [ 16.613874844106043, 10.939879813858001 ], [ 17.036984422459145, 11.733522650923485 ], [ 17.853130445374198, 11.757324526104338 ] ] ] ] } },
{ "type": "Feature", "properties": { "geogrid_id": "711031328019862141", "seqnum": 5583.0, "lat_c": 11.031328090511019, "lon_c": 19.862140559258918, "res": 7.0, "count_Birds": 164, "count_Mammals": 31, "count_Reptiles": 17, "count_Insects": 65, "count_Arachnids": 2, "count_Flowering Plants": 33, "count_Ferns": 0, "count_Amphibians": 6, "count_Molluscs": 0, "count_Basidiomycota": 0, "unique_species_count": 318.0, "countryCode": "TD" }, "geometry": { "type": "MultiPolygon", "coordinates": [ [ [ [ 20.274753489154957, 11.847277355877385 ], [ 20.66394754697825, 11.060753325440782 ], [ 20.25002503023401, 10.248087043056586 ], [ 19.444892034815219, 10.224153894712343 ], [ 19.055834102890774, 11.004509908402097 ], [ 19.472483056651566, 11.814227329165513 ], [ 20.274753489154957, 11.847277355877385 ] ] ] ] } },
{ "type": "Feature", "properties": { "geogrid_id": "711712850016217173", "seqnum": 5447.0, "lat_c": 11.712850060556239, "lon_c": 16.217172564620746, "res": 7.0, "count_Birds": 1, "count_Mammals": 0, "count_Reptiles": 0, "count_Insects": 0, "count_Arachnids": 0, "count_Flowering Plants": 0, "count_Ferns": 0, "count_Amphibians": 0, "count_Molluscs": 0, "count_Basidiomycota": 1, "unique_species_count": 2.0, "countryCode": "TD" }, "geometry": { "type": "MultiPolygon", "coordinates": [ [ [ [ 16.640819613984988, 12.507289087623356 ], [ 17.036984422459145, 11.733522650923485 ], [ 16.613874844106043, 10.939879813858001 ], [ 15.79357896858402, 10.923663046438424 ], [ 15.394195650686171, 11.695325585786797 ], [ 15.818519095513826, 12.484743445357054 ], [ 16.640819613984988, 12.507289087623356 ] ] ] ] } },
{ "type": "Feature", "properties": { "geogrid_id": "711784234018665122", "seqnum": 5529.0, "lat_c": 11.78423414422152, "lon_c": 18.6651218039169, "res": 7.0, "count_Birds": 7, "count_Mammals": 5, "count_Reptiles": 1, "count_Insects": 0, "count_Arachnids": 0, "count_Flowering Plants": 50, "count_Ferns": 0, "count_Amphibians": 0, "count_Molluscs": 0, "count_Basidiomycota": 0, "unique_species_count": 63.0, "countryCode": "TD" }, "geometry": { "type": "MultiPolygon", "coordinates": [ [ [ [ 19.080718103179663, 12.596949239568236 ], [ 19.472483056651566, 11.814227329165513 ], [ 19.055834102890774, 11.004509908402097 ], [ 18.245418420586677, 10.980317871346042 ], [ 17.853130445374198, 11.757324526104338 ], [ 18.272498469927015, 12.563424007818906 ], [ 19.080718103179663, 12.596949239568236 ] ] ] ] } },
{ "type": "Feature", "properties": { "geogrid_id": "711883355021071488", "seqnum": 5611.0, "lat_c": 11.883355043421336, "lon_c": 21.071488345466793, "res": 7.0, "count_Birds": 8, "count_Mammals": 0, "count_Reptiles": 1, "count_Insects": 0, "count_Arachnids": 0, "count_Flowering Plants": 1, "count_Ferns": 0, "count_Amphibians": 0, "count_Molluscs": 0, "count_Basidiomycota": 0, "unique_species_count": 10.0, "countryCode": "TD" }, "geometry": { "type": "MultiPolygon", "coordinates": [ [ [ [ 21.468364324781213, 12.718893004139398 ], [ 21.86225994545681, 11.92242885516929 ], [ 21.460876812677981, 11.092764827338089 ], [ 20.66394754697825, 11.060753325440782 ], [ 20.274753489154957, 11.847277355877385 ], [ 20.679167979283591, 12.674726765067142 ], [ 21.468364324781213, 12.718893004139398 ] ] ] ] } },
{ "type": "Feature", "properties": { "geogrid_id": "712465915014992712", "seqnum": 5392.0, "lat_c": 12.465915072954431, "lon_c": 14.992711754899632, "res": 7.0, "count_Birds": 55, "count_Mammals": 7, "count_Reptiles": 2, "count_Insects": 15, "count_Arachnids": 0, "count_Flowering Plants": 40, "count_Ferns": 0, "count_Amphibians": 1, "count_Molluscs": 0, "count_Basidiomycota": 0, "unique_species_count": 120.0, "countryCode": "TD" }, "geometry": { "type": "MultiPolygon", "coordinates": [ [ [ [ 15.417732748484637, 13.255565375955694 ], [ 15.818519095513826, 12.484743445357054 ], [ 15.394195650686171, 11.695325585786797 ], [ 14.568564879812088, 11.680965278446475 ], [ 14.164015860836033, 12.450825850137145 ], [ 14.588938072138095, 13.235450144359135 ], [ 15.417732748484637, 13.255565375955694 ] ] ] ] } },
{ "type": "Feature", "properties": { "geogrid_id": "712533526017459009", "seqnum": 5474.0, "lat_c": 12.533525965578555, "lon_c": 17.459008872451399, "res": 7.0, "count_Birds": 2, "count_Mammals": 2, "count_Reptiles": 0, "count_Insects": 4, "count_Arachnids": 1, "count_Flowering Plants": 1, "count_Ferns": 0, "count_Amphibians": 1, "count_Molluscs": 0, "count_Basidiomycota": 0, "unique_species_count": 11.0, "countryCode": "TD" }, "geometry": { "type": "MultiPolygon", "coordinates": [ [ [ [ 17.877668993978627, 13.342210596525039 ], [ 18.272498469927015, 12.563424007818906 ], [ 17.853130445374198, 11.757324526104338 ], [ 17.036984422459145, 11.733522650923485 ], [ 16.640819613984988, 12.507289087623356 ], [ 17.062828674744168, 13.308985021024391 ], [ 17.877668993978627, 13.342210596525039 ] ] ] ] } },
{ "type": "Feature", "properties": { "geogrid_id": "712634064019883117", "seqnum": 5556.0, "lat_c": 12.634063931915914, "lon_c": 19.883117466793344, "res": 7.0, "count_Birds": 2, "count_Mammals": 0, "count_Reptiles": 0, "count_Insects": 0, "count_Arachnids": 0, "count_Flowering Plants": 0, "count_Ferns": 0, "count_Amphibians": 0, "count_Molluscs": 0, "count_Basidiomycota": 0, "unique_species_count": 2.0, "countryCode": "TD" }, "geometry": { "type": "MultiPolygon", "coordinates": [ [ [ [ 20.283119616573011, 13.467354157621623 ], [ 20.679167979283591, 12.674726765067142 ], [ 20.274753489154957, 11.847277355877385 ], [ 19.472483056651566, 11.814227329165513 ], [ 19.080718103179663, 12.596949239568236 ], [ 19.488465662819479, 13.421451776350152 ], [ 20.283119616573011, 13.467354157621623 ] ] ] ] } },
{ "type": "Feature", "properties": { "geogrid_id": "712766515022250226", "seqnum": 5638.0, "lat_c": 12.766514685963749, "lon_c": 22.250225802512411, "res": 7.0, "count_Birds": 1, "count_Mammals": 0, "count_Reptiles": 0, "count_Insects": 2, "count_Arachnids": 0, "count_Flowering Plants": 2, "count_Ferns": 0, "count_Amphibians": 0, "count_Molluscs": 0, "count_Basidiomycota": 0, "unique_species_count": 5.0, "countryCode": "TD" }, "geometry": { "type": "MultiPolygon", "coordinates": [ [ [ [ 22.616970843674892, 13.629404318854048 ], [ 23.024297479022447, 12.817540815296921 ], [ 22.646658682992634, 11.964465005382634 ], [ 21.86225994545681, 11.92242885516929 ], [ 21.468364324781213, 12.718893004139398 ], [ 21.847923315270318, 13.571401512306963 ], [ 22.616970843674892, 13.629404318854048 ] ] ] ] } },
{ "type": "Feature", "properties": { "geogrid_id": "713219773013756986", "seqnum": 5338.0, "lat_c": 13.219773470803364, "lon_c": 13.756986402155857, "res": 7.0, "count_Birds": 8, "count_Mammals": 1, "count_Reptiles": 0, "count_Insects": 0, "count_Arachnids": 0, "count_Flowering Plants": 0, "count_Ferns": 0, "count_Amphibians": 0, "count_Molluscs": 0, "count_Basidiomycota": 0, "unique_species_count": 9.0, "countryCode": "TD" }, "geometry": { "type": "MultiPolygon", "coordinates": [ [ [ [ 14.182679709423008, 14.003954641021739 ], [ 14.588938072138095, 13.235450144359135 ], [ 14.164015860836033, 12.450825850137145 ], [ 13.333061179620737, 12.439493402695049 ], [ 12.922653357347224, 13.208558905818041 ], [ 13.347264925754112, 13.987893598676706 ], [ 14.182679709423008, 14.003954641021739 ] ] ] ] } },
{ "type": "Feature", "properties": { "geogrid_id": "713280089016242610", "seqnum": 5420.0, "lat_c": 13.280089122429246, "lon_c": 16.242610119147937, "res": 7.0, "count_Birds": 3, "count_Mammals": 0, "count_Reptiles": 1, "count_Insects": 2, "count_Arachnids": 0, "count_Flowering Plants": 4, "count_Ferns": 0, "count_Amphibians": 0, "count_Molluscs": 0, "count_Basidiomycota": 0, "unique_species_count": 10.0, "countryCode": "TD" }, "geometry": { "type": "MultiPolygon", "coordinates": [ [ [ [ 16.664339756052861, 14.083787817267423 ], [ 17.062828674744168, 13.308985021024391 ], [ 16.640819613984988, 12.507289087623356 ], [ 15.818519095513826, 12.484743445357054 ], [ 15.417732748484637, 13.255565375955694 ], [ 15.84215811416405, 14.051948385468439 ], [ 16.664339756052861, 14.083787817267423 ] ] ] ] } },
{ "type": "Feature", "properties": { "geogrid_id": "713517360021069795", "seqnum": 5584.0, "lat_c": 13.51736037874219, "lon_c": 21.069795188750419, "res": 7.0, "count_Birds": 23, "count_Mammals": 3, "count_Reptiles": 1, "count_Insects": 7, "count_Arachnids": 0, "count_Flowering Plants": 2, "count_Ferns": 0, "count_Amphibians": 0, "count_Molluscs": 0, "count_Basidiomycota": 0, "unique_species_count": 36.0, "countryCode": "TD" }, "geometry": { "type": "MultiPolygon", "coordinates": [ [ [ [ 21.437673390375551, 14.380239607901748 ], [ 21.847923315270318, 13.571401512306963 ], [ 21.468364324781213, 12.718893004139398 ], [ 20.679167979283591, 12.674726765067142 ], [ 20.283119616573011, 13.467354157621623 ], [ 20.665004969630395, 14.318711992774357 ], [ 21.437673390375551, 14.380239607901748 ] ] ] ] } },
{ "type": "Feature", "properties": { "geogrid_id": "714025320015014629", "seqnum": 5366.0, "lat_c": 14.025320141385642, "lon_c": 15.01462882257513, "res": 7.0, "count_Birds": 20, "count_Mammals": 5, "count_Reptiles": 0, "count_Insects": 0, "count_Arachnids": 0, "count_Flowering Plants": 1, "count_Ferns": 0, "count_Amphibians": 0, "count_Molluscs": 0, "count_Basidiomycota": 0, "unique_species_count": 26.0, "countryCode": "TD" }, "geometry": { "type": "MultiPolygon", "coordinates": [ [ [ [ 15.439254874928128, 14.822901436767651 ], [ 15.84215811416405, 14.051948385468439 ], [ 15.417732748484637, 13.255565375955694 ], [ 14.588938072138095, 13.235450144359135 ], [ 14.182679709423008, 14.003954641021739 ], [ 14.609019279368276, 14.794010849398902 ], [ 15.439254874928128, 14.822901436767651 ] ] ] ] } },
{ "type": "Feature", "properties": { "geogrid_id": "714120777017480277", "seqnum": 5448.0, "lat_c": 14.120777416711492, "lon_c": 17.480277328929219, "res": 7.0, "count_Birds": 2, "count_Mammals": 0, "count_Reptiles": 0, "count_Insects": 0, "count_Arachnids": 0, "count_Flowering Plants": 2, "count_Ferns": 0, "count_Amphibians": 0, "count_Molluscs": 0, "count_Basidiomycota": 0, "unique_species_count": 4.0, "countryCode": "TD" }, "geometry": { "type": "MultiPolygon", "coordinates": [ [ [ [ 17.888008202748392, 14.946799788662219 ], [ 18.289110480462973, 14.162847139685192 ], [ 17.877668993978627, 13.342210596525039 ], [ 17.062828674744168, 13.308985021024391 ], [ 16.664339756052861, 14.083787817267423 ], [ 17.079865610078006, 14.899392778135859 ], [ 17.888008202748392, 14.946799788662219 ] ] ] ] } },
{ "type": "Feature", "properties": { "geogrid_id": "714261905019882227", "seqnum": 5530.0, "lat_c": 14.261904683103703, "lon_c": 19.882226996686107, "res": 7.0, "count_Birds": 10, "count_Mammals": 3, "count_Reptiles": 1, "count_Insects": 0, "count_Arachnids": 0, "count_Flowering Plants": 2, "count_Ferns": 0, "count_Amphibians": 0, "count_Molluscs": 0, "count_Basidiomycota": 0, "unique_species_count": 16.0, "countryCode": "TD" }, "geometry": { "type": "MultiPolygon", "coordinates": [ [ [ [ 20.251653069739049, 15.12422531019746 ], [ 20.665004969630395, 14.318711992774357 ], [ 20.283119616573011, 13.467354157621623 ], [ 19.488465662819479, 13.421451776350152 ], [ 19.090019103926835, 14.209918413859787 ], [ 19.474829371628847, 15.059351122938169 ], [ 20.251653069739049, 15.12422531019746 ] ] ] ] } },
{ "type": "Feature", "properties": { "geogrid_id": "714446381022199604", "seqnum": 5612.0, "lat_c": 14.446380656468493, "lon_c": 22.199604154970409, "res": 7.0, "count_Birds": 2, "count_Mammals": 1, "count_Reptiles": 1, "count_Insects": 3, "count_Arachnids": 0, "count_Flowering Plants": 0, "count_Ferns": 0, "count_Amphibians": 0, "count_Molluscs": 0, "count_Basidiomycota": 0, "unique_species_count": 7.0, "countryCode": "TD" }, "geometry": { "type": "MultiPolygon", "coordinates": [ [ [ [ 22.891402800086912, 15.105598816242681 ], [ 23.139598594174956, 14.395325875438751 ], [ 22.616970843674892, 13.629404318854048 ], [ 21.847923315270318, 13.571401512306963 ], [ 21.437673390375551, 14.380239607901748 ], [ 21.958658541142668, 15.149713066372756 ], [ 22.891402800086912, 15.105598816242681 ] ] ] ] } },
{ "type": "Feature", "properties": { "geogrid_id": "714858059016263251", "seqnum": 5393.0, "lat_c": 14.858058662126682, "lon_c": 16.26325140003588, "res": 7.0, "count_Birds": 0, "count_Mammals": 0, "count_Reptiles": 0, "count_Insects": 0, "count_Arachnids": 0, "count_Flowering Plants": 1, "count_Ferns": 0, "count_Amphibians": 0, "count_Molluscs": 0, "count_Basidiomycota": 0, "unique_species_count": 1.0, "countryCode": "TD" }, "geometry": { "type": "MultiPolygon", "coordinates": [ [ [ [ 16.67579466824251, 15.678469047836021 ], [ 17.079865610078006, 14.899392778135859 ], [ 16.664339756052861, 14.083787817267423 ], [ 15.84215811416405, 14.051948385468439 ], [ 15.439254874928128, 14.822901436767651 ], [ 15.859202415417307, 15.631987500885684 ], [ 16.67579466824251, 15.678469047836021 ] ] ] ] } },
{ "type": "Feature", "properties": { "geogrid_id": "715000162018686650", "seqnum": 5475.0, "lat_c": 15.000162409347711, "lon_c": 18.686650370563751, "res": 7.0, "count_Birds": 2, "count_Mammals": 1, "count_Reptiles": 0, "count_Insects": 3, "count_Arachnids": 2, "count_Flowering Plants": 0, "count_Ferns": 0, "count_Amphibians": 0, "count_Molluscs": 0, "count_Basidiomycota": 0, "unique_species_count": 8.0, "countryCode": "TD" }, "geometry": { "type": "MultiPolygon", "coordinates": [ [ [ [ 19.058284616030747, 15.861169733344788 ], [ 19.474829371628847, 15.059351122938169 ], [ 19.090019103926835, 14.209918413859787 ], [ 18.289110480462973, 14.162847139685192 ], [ 17.888008202748392, 14.946799788662219 ], [ 18.276603789956482, 15.793250761224044 ], [ 19.058284616030747, 15.861169733344788 ] ] ] ] } },
{ "type": "Feature", "properties": { "geogrid_id": "715194634021016303", "seqnum": 5557.0, "lat_c": 15.194634436969144, "lon_c": 21.016303422646963, "res": 7.0, "count_Birds": 2, "count_Mammals": 0, "count_Reptiles": 0, "count_Insects": 0, "count_Arachnids": 0, "count_Flowering Plants": 2, "count_Ferns": 0, "count_Amphibians": 0, "count_Molluscs": 0, "count_Basidiomycota": 0, "unique_species_count": 4.0, "countryCode": "TD" }, "geometry": { "type": "MultiPolygon", "coordinates": [ [ [ [ 21.704845956594806, 15.859864377903659 ], [ 21.958658541142668, 15.149713066372756 ], [ 21.437673390375551, 14.380239607901748 ], [ 20.665004969630395, 14.318711992774357 ], [ 20.251653069739049, 15.12422531019746 ], [ 20.770716832047889, 15.897260316372909 ], [ 21.704845956594806, 15.859864377903659 ] ] ] ] } },
{ "type": "Feature", "properties": { "geogrid_id": "715592999015033675", "seqnum": 5339.0, "lat_c": 15.592998824646715, "lon_c": 15.033674604121721, "res": 7.0, "count_Birds": 1, "count_Mammals": 0, "count_Reptiles": 0, "count_Insects": 0, "count_Arachnids": 0, "count_Flowering Plants": 0, "count_Ferns": 0, "count_Amphibians": 0, "count_Molluscs": 0, "count_Basidiomycota": 0, "unique_species_count": 1.0, "countryCode": "TD" }, "geometry": { "type": "MultiPolygon", "coordinates": [ [ [ [ 15.451698670593744, 16.405884237864068 ], [ 15.859202415417307, 15.631987500885684 ], [ 15.439254874928128, 14.822901436767651 ], [ 14.609019279368276, 14.794010849398902 ], [ 14.200712409092612, 15.561639360391652 ], [ 14.625161991053499, 16.362321196860666 ], [ 15.451698670593744, 16.405884237864068 ] ] ] ] } },
{ "type": "Feature", "properties": { "geogrid_id": "715821523022631710", "seqnum": 5585.0, "lat_c": 15.821523444601777, "lon_c": 22.631709917117981, "res": 7.0, "count_Birds": 2, "count_Mammals": 2, "count_Reptiles": 1, "count_Insects": 1, "count_Arachnids": 0, "count_Flowering Plants": 3, "count_Ferns": 1, "count_Amphibians": 1, "count_Molluscs": 0, "count_Basidiomycota": 0, "unique_species_count": 11.0, "countryCode": "TD" }, "geometry": { "type": "MultiPolygon", "coordinates": [ [ [ [ 23.27909152340014, 16.505750029689388 ], [ 23.5534345016132, 15.781009663634574 ], [ 22.891402800086912, 15.105598816242681 ], [ 21.958658541142668, 15.149713066372756 ], [ 21.704845956594806, 15.859864377903659 ], [ 22.360388466416545, 16.542476685986905 ], [ 23.27909152340014, 16.505750029689388 ] ] ] ] } },
{ "type": "Feature", "properties": { "geogrid_id": "715935824019825973", "seqnum": 5503.0, "lat_c": 15.935823661032684, "lon_c": 19.82597325355551, "res": 7.0, "count_Birds": 0, "count_Mammals": 1, "count_Reptiles": 0, "count_Insects": 0, "count_Arachnids": 0, "count_Flowering Plants": 1, "count_Ferns": 0, "count_Amphibians": 0, "count_Molluscs": 0, "count_Basidiomycota": 0, "unique_species_count": 2.0, "countryCode": "TD" }, "geometry": { "type": "MultiPolygon", "coordinates": [ [ [ [ 20.510416267187111, 16.607405549263884 ], [ 20.770716832047889, 15.897260316372909 ], [ 20.251653069739049, 15.12422531019746 ], [ 19.474829371628847, 15.059351122938169 ], [ 19.058284616030747, 15.861169733344788 ], [ 19.575133411278749, 16.637765903784839 ], [ 20.510416267187111, 16.607405549263884 ] ] ] ] } },
{ "type": "Feature", "properties": { "geogrid_id": "716458679016267076", "seqnum": 5367.0, "lat_c": 16.45867868259246, "lon_c": 16.267076043029945, "res": 7.0, "count_Birds": 3, "count_Mammals": 0, "count_Reptiles": 0, "count_Insects": 0, "count_Arachnids": 0, "count_Flowering Plants": 0, "count_Ferns": 0, "count_Amphibians": 0, "count_Molluscs": 0, "count_Basidiomycota": 0, "unique_species_count": 3.0, "countryCode": "TD" }, "geometry": { "type": "MultiPolygon", "coordinates": [ [ [ [ 16.646768431603029, 17.313286490137898 ], [ 17.069391320747396, 16.520447860789861 ], [ 16.67579466824251, 15.678469047836021 ], [ 15.859202415417307, 15.631987500885684 ], [ 15.451698670593744, 16.405884237864068 ], [ 15.851977380778228, 17.241201850401971 ], [ 16.646768431603029, 17.313286490137898 ] ] ] ] } },
{ "type": "Feature", "properties": { "geogrid_id": "716576098021438015", "seqnum": 5531.0, "lat_c": 16.576098416011064, "lon_c": 21.438015168978531, "res": 7.0, "count_Birds": 31, "count_Mammals": 6, "count_Reptiles": 4, "count_Insects": 12, "count_Arachnids": 1, "count_Flowering Plants": 12, "count_Ferns": 0, "count_Amphibians": 3, "count_Molluscs": 0, "count_Basidiomycota": 0, "unique_species_count": 69.0, "countryCode": "TD" }, "geometry": { "type": "MultiPolygon", "coordinates": [ [ [ [ 22.0773210440938, 17.267800872390485 ], [ 22.360388466416545, 16.542476685986905 ], [ 21.704845956594806, 15.859864377903659 ], [ 20.770716832047889, 15.897260316372909 ], [ 20.510416267187111, 16.607405549263884 ], [ 21.158037443396022, 17.297630294109176 ], [ 22.0773210440938, 17.267800872390485 ] ] ] ] } },
{ "type": "Feature", "properties": { "geogrid_id": "716669710018628051", "seqnum": 5449.0, "lat_c": 16.669710464265098, "lon_c": 18.628050857054237, "res": 7.0, "count_Birds": 0, "count_Mammals": 0, "count_Reptiles": 0, "count_Insects": 1, "count_Arachnids": 0, "count_Flowering Plants": 0, "count_Ferns": 0, "count_Amphibians": 0, "count_Molluscs": 0, "count_Basidiomycota": 0, "unique_species_count": 1.0, "countryCode": "TD" }, "geometry": { "type": "MultiPolygon", "coordinates": [ [ [ [ 19.307261105981439, 17.348089805380305 ], [ 19.575133411278749, 16.637765903784839 ], [ 19.058284616030747, 15.861169733344788 ], [ 18.276603789956482, 15.793250761224044 ], [ 17.856904155297766, 16.59089948762778 ], [ 18.371224772462288, 17.37103960738909 ], [ 19.307261105981439, 17.348089805380305 ] ] ] ] } },
{ "type": "Feature", "properties": { "geogrid_id": "717234170022994170", "seqnum": 5558.0, "lat_c": 17.234169551069826, "lon_c": 22.994169884649612, "res": 7.0, "count_Birds": 3, "count_Mammals": 2, "count_Reptiles": 0, "count_Insects": 2, "count_Arachnids": 0, "count_Flowering Plants": 2, "count_Ferns": 0, "count_Amphibians": 0, "count_Molluscs": 0, "count_Basidiomycota": 0, "unique_species_count": 9.0, "countryCode": "TD" }, "geometry": { "type": "MultiPolygon", "coordinates": [ [ [ [ 23.613737757289357, 17.930128061078467 ], [ 23.909292455176949, 17.196453592276232 ], [ 23.27909152340014, 16.505750029689388 ], [ 22.360388466416545, 16.542476685986905 ], [ 22.0773210440938, 17.267800872390485 ], [ 22.698566572894851, 17.965687356636217 ], [ 23.613737757289357, 17.930128061078467 ] ] ] ] } },
{ "type": "Feature", "properties": { "geogrid_id": "717324123020235249", "seqnum": 5476.0, "lat_c": 17.32412330767724, "lon_c": 20.235249111704874, "res": 7.0, "count_Birds": 6, "count_Mammals": 0, "count_Reptiles": 0, "count_Insects": 2, "count_Arachnids": 0, "count_Flowering Plants": 1, "count_Ferns": 0, "count_Amphibians": 0, "count_Molluscs": 0, "count_Basidiomycota": 0, "unique_species_count": 9.0, "countryCode": "TD" }, "geometry": { "type": "MultiPolygon", "coordinates": [ [ [ [ 20.864808399318544, 18.02362895648184 ], [ 21.158037443396022, 17.297630294109176 ], [ 20.510416267187111, 16.607405549263884 ], [ 19.575133411278749, 16.637765903784839 ], [ 19.307261105981439, 17.348089805380305 ], [ 19.945101303519408, 18.046398919714274 ], [ 20.864808399318544, 18.02362895648184 ] ] ] ] } },
{ "type": "Feature", "properties": { "geogrid_id": "717996806021782405", "seqnum": 5504.0, "lat_c": 17.996805580027601, "lon_c": 21.782405462887592, "res": 7.0, "count_Birds": 5, "count_Mammals": 0, "count_Reptiles": 1, "count_Insects": 4, "count_Arachnids": 0, "count_Flowering Plants": 0, "count_Ferns": 0, "count_Amphibians": 0, "count_Molluscs": 0, "count_Basidiomycota": 0, "unique_species_count": 10.0, "countryCode": "TD" }, "geometry": { "type": "MultiPolygon", "coordinates": [ [ [ [ 22.392188488355995, 18.6997000488151 ], [ 22.698566572894851, 17.965687356636217 ], [ 22.0773210440938, 17.267800872390485 ], [ 21.158037443396022, 17.297630294109176 ], [ 20.864808399318544, 18.02362895648184 ], [ 21.475555896225192, 18.728769808982193 ], [ 22.392188488355995, 18.6997000488151 ] ] ] ] } },
{ "type": "Feature", "properties": { "geogrid_id": "718114580016207195", "seqnum": 5340.0, "lat_c": 18.114579546110942, "lon_c": 16.207195186976161, "res": 7.0, "count_Birds": 1, "count_Mammals": 0, "count_Reptiles": 0, "count_Insects": 0, "count_Arachnids": 0, "count_Flowering Plants": 0, "count_Ferns": 0, "count_Amphibians": 0, "count_Molluscs": 0, "count_Basidiomycota": 0, "unique_species_count": 1.0, "countryCode": "TD" }, "geometry": { "type": "MultiPolygon", "coordinates": [ [ [ [ 16.87028156887002, 18.808657761647851 ], [ 17.158217583202564, 18.09692108693789 ], [ 16.646768431603029, 17.313286490137898 ], [ 15.851977380778228, 17.241201850401971 ], [ 15.426956162674868, 18.028317229829501 ], [ 15.935133522926101, 18.815323537654173 ], [ 16.87028156887002, 18.808657761647851 ] ] ] ] } },
{ "type": "Feature", "properties": { "geogrid_id": "718753220020558250", "seqnum": 5450.0, "lat_c": 18.753220309739795, "lon_c": 20.558249830868895, "res": 7.0, "count_Birds": 3, "count_Mammals": 0, "count_Reptiles": 0, "count_Insects": 0, "count_Arachnids": 0, "count_Flowering Plants": 0, "count_Ferns": 0, "count_Amphibians": 0, "count_Molluscs": 0, "count_Basidiomycota": 0, "unique_species_count": 3.0, "countryCode": "TD" }, "geometry": { "type": "MultiPolygon", "coordinates": [ [ [ [ 21.156704016993491, 19.462944497357096 ], [ 21.475555896225192, 18.728769808982193 ], [ 20.864808399318544, 18.02362895648184 ], [ 19.945101303519408, 18.046398919714274 ], [ 19.639900379450189, 18.773154410837655 ], [ 20.238311470001566, 19.485490933617978 ], [ 21.156704016993491, 19.462944497357096 ] ] ] ] } },
{ "type": "Feature", "properties": { "geogrid_id": "718800352017797317", "seqnum": 5368.0, "lat_c": 18.800352391050172, "lon_c": 17.797317294017613, "res": 7.0, "count_Birds": 0, "count_Mammals": 0, "count_Reptiles": 1, "count_Insects": 2, "count_Arachnids": 0, "count_Flowering Plants": 0, "count_Ferns": 0, "count_Amphibians": 0, "count_Molluscs": 0, "count_Basidiomycota": 0, "unique_species_count": 3.0, "countryCode": "TD" }, "geometry": { "type": "MultiPolygon", "coordinates": [ [ [ [ 18.400373831915772, 19.516288245776437 ], [ 18.719920039181627, 18.788752099069061 ], [ 18.094347327302255, 18.08183552473988 ], [ 17.158217583202564, 18.09692108693789 ], [ 16.87028156887002, 18.808657761647851 ], [ 17.48015334446292, 19.524694834658579 ], [ 18.400373831915772, 19.516288245776437 ] ] ] ] } },
{ "type": "Feature", "properties": { "geogrid_id": "719503254019319618", "seqnum": 5395.0, "lat_c": 19.503254107400103, "lon_c": 19.319618341944434, "res": 7.0, "count_Birds": 0, "count_Mammals": 0, "count_Reptiles": 1, "count_Insects": 1, "count_Arachnids": 0, "count_Flowering Plants": 0, "count_Ferns": 0, "count_Amphibians": 0, "count_Molluscs": 0, "count_Basidiomycota": 0, "unique_species_count": 2.0, "countryCode": "TD" }, "geometry": { "type": "MultiPolygon", "coordinates": [ [ [ [ 19.904972670939642, 20.219492349405343 ], [ 20.238311470001566, 19.485490933617978 ], [ 19.639900379450189, 18.773154410837655 ], [ 18.719920039181627, 18.788752099069061 ], [ 18.400373831915772, 19.516288245776437 ], [ 18.984274293798677, 20.23551126762974 ], [ 19.904972670939642, 20.219492349405343 ] ] ] ] } },
{ "type": "Feature", "properties": { "geogrid_id": "720246621018063650", "seqnum": 5341.0, "lat_c": 20.246620902893262, "lon_c": 18.063649723340195, "res": 7.0, "count_Birds": 2, "count_Mammals": 0, "count_Reptiles": 2, "count_Insects": 3, "count_Arachnids": 0, "count_Flowering Plants": 2, "count_Ferns": 0, "count_Amphibians": 0, "count_Molluscs": 0, "count_Basidiomycota": 0, "unique_species_count": 9.0, "countryCode": "TD" }, "geometry": { "type": "MultiPolygon", "coordinates": [ [ [ [ 18.633936786124355, 20.968695676886373 ], [ 18.984274293798677, 20.23551126762974 ], [ 18.400373831915772, 19.516288245776437 ], [ 17.48015334446292, 19.524694834658579 ], [ 17.143002365220052, 20.252835913243242 ], [ 17.709901168462434, 20.978158921644983 ], [ 18.633936786124355, 20.968695676886373 ] ] ] ] } },
{ "type": "Feature", "properties": { "geogrid_id": "720954246019558244", "seqnum": 5369.0, "lat_c": 20.954245812038248, "lon_c": 19.558243993283771, "res": 7.0, "count_Birds": 0, "count_Mammals": 1, "count_Reptiles": 1, "count_Insects": 1, "count_Arachnids": 0, "count_Flowering Plants": 0, "count_Ferns": 0, "count_Amphibians": 0, "count_Molluscs": 0, "count_Basidiomycota": 1, "unique_species_count": 4.0, "countryCode": "TD" }, "geometry": { "type": "MultiPolygon", "coordinates": [ [ [ [ 20.127737180408335, 21.670881411478046 ], [ 20.482814237029487, 20.93480601095801 ], [ 19.904972670939642, 20.219492349405343 ], [ 18.984274293798677, 20.23551126762974 ], [ 18.633936786124355, 20.968695676886373 ], [ 19.198168660546045, 21.688747579745261 ], [ 20.127737180408335, 21.670881411478046 ] ] ] ] } },
{ "type": "Feature", "properties": { "geogrid_id": "720982639016786146", "seqnum": 5287.0, "lat_c": 20.98263935034808, "lon_c": 16.786145900463065, "res": 7.0, "count_Birds": 1, "count_Mammals": 1, "count_Reptiles": 0, "count_Insects": 0, "count_Arachnids": 0, "count_Flowering Plants": 0, "count_Ferns": 0, "count_Amphibians": 0, "count_Molluscs": 1, "count_Basidiomycota": 0, "unique_species_count": 3.0, "countryCode": "TD" }, "geometry": { "type": "MultiPolygon", "coordinates": [ [ [ [ 17.339364426398543, 21.709259198645885 ], [ 17.709901168462434, 20.978158921644983 ], [ 17.143002365220052, 20.252835913243242 ], [ 16.222151912077504, 20.254184188026059 ], [ 15.862679876563803, 20.982141256260224 ], [ 16.410004365100697, 21.711885600094494 ], [ 17.339364426398543, 21.709259198645885 ] ] ] ] } }
]
}
