{
"type": "FeatureCollection",
"name": "TG",
"crs": { "type": "name", "properties": { "name": "urn:ogc:def:crs:OGC:1.3:CRS84" } },
"features": [
{ "type": "Feature", "properties": { "geogrid_id": "5210333167000140066", "seqnum": 14777.0, "lat_c": 10.333166663519075, "lon_c": -0.14006626335118599, "res": 8.0, "count_Arachnids": 0, "count_Ferns": 0, "count_Reptiles": 0, "count_Flowering Plants": 1, "count_Mammals": 0, "count_Insects": 0, "count_Birds": 0, "count_Sac Fungi": 0, "count_Amphibians": 0, "count_Molluscs": 0, "count_Basidiomycota": 0, "unique_species_count": 1.0, "countryCode": "TG" }, "geometry": { "type": "MultiPolygon", "coordinates": [ [ [ [ 0.252282799387476, 10.586940802411851 ], [ 0.258903653633104, 10.048812611107794 ], [ -0.133567796198787, 9.794465175822394 ], [ -0.53174402422946, 10.078812886707048 ], [ -0.536342251652272, 10.620319683963087 ], [ -0.144791733222306, 10.874132709666464 ], [ 0.252282799387476, 10.586940802411851 ] ] ] ] } },
{ "type": "Feature", "properties": { "geogrid_id": "803149072001987984", "seqnum": 15342.0, "lat_c": 3.1490718015836152, "lon_c": 1.9879839970522799, "res": 8.0, "count_Arachnids": 0, "count_Ferns": 0, "count_Reptiles": 1, "count_Flowering Plants": 0, "count_Mammals": 0, "count_Insects": 0, "count_Birds": 0, "count_Sac Fungi": 0, "count_Amphibians": 0, "count_Molluscs": 0, "count_Basidiomycota": 0, "unique_species_count": 1.0, "countryCode": "TG" }, "geometry": { "type": "MultiPolygon", "coordinates": [ [ [ [ 2.383843867835932, 3.409085154901342 ], [ 2.392591993619037, 2.884862190767171 ], [ 1.996747685454942, 2.624419183938153 ], [ 1.592559861484727, 2.888713506803001 ], [ 1.583417364574531, 3.413821134260559 ], [ 1.978837555400579, 3.673742050316888 ], [ 2.383843867835932, 3.409085154901342 ] ] ] ] } },
{ "type": "Feature", "properties": { "geogrid_id": "803933315002374724", "seqnum": 15343.0, "lat_c": 3.9333148959207058, "lon_c": 2.3747235752747828, "res": 8.0, "count_Arachnids": 0, "count_Ferns": 0, "count_Reptiles": 1, "count_Flowering Plants": 0, "count_Mammals": 0, "count_Insects": 0, "count_Birds": 0, "count_Sac Fungi": 0, "count_Amphibians": 0, "count_Molluscs": 0, "count_Basidiomycota": 0, "unique_species_count": 1.0, "countryCode": "TG" }, "geometry": { "type": "MultiPolygon", "coordinates": [ [ [ [ 2.771101565430796, 4.192550005648602 ], [ 2.780165181397574, 3.66876343445779 ], [ 2.383843867835932, 3.409085154901342 ], [ 1.978837555400579, 3.673742050316888 ], [ 1.969330875415411, 4.198477522698126 ], [ 2.365252251072309, 4.457597966014325 ], [ 2.771101565430796, 4.192550005648602 ] ] ] ] } },
{ "type": "Feature", "properties": { "geogrid_id": "803939005001573905", "seqnum": 15261.0, "lat_c": 3.939005270023491, "lon_c": 1.573905416565333, "res": 8.0, "count_Arachnids": 0, "count_Ferns": 0, "count_Reptiles": 1, "count_Flowering Plants": 0, "count_Mammals": 0, "count_Insects": 0, "count_Birds": 0, "count_Sac Fungi": 0, "count_Amphibians": 0, "count_Molluscs": 0, "count_Basidiomycota": 0, "unique_species_count": 1.0, "countryCode": "TG" }, "geometry": { "type": "MultiPolygon", "coordinates": [ [ [ [ 1.969330875415411, 4.198477522698126 ], [ 1.978837555400579, 3.673742050316888 ], [ 1.583417364574531, 3.413821134260559 ], [ 1.178949150986656, 3.67917145935532 ], [ 1.169112039895014, 4.204941319673385 ], [ 1.56405177043637, 4.464319018502719 ], [ 1.969330875415411, 4.198477522698126 ] ] ] ] } },
{ "type": "Feature", "properties": { "geogrid_id": "804723330001959490", "seqnum": 15262.0, "lat_c": 4.7233303186583884, "lon_c": 1.959490229252594, "res": 8.0, "count_Arachnids": 0, "count_Ferns": 0, "count_Reptiles": 1, "count_Flowering Plants": 0, "count_Mammals": 0, "count_Insects": 0, "count_Birds": 0, "count_Sac Fungi": 0, "count_Amphibians": 0, "count_Molluscs": 0, "count_Basidiomycota": 0, "unique_species_count": 1.0, "countryCode": "TG" }, "geometry": { "type": "MultiPolygon", "coordinates": [ [ [ [ 2.355454644193308, 4.98198537074216 ], [ 2.365252251072309, 4.457597966014325 ], [ 1.969330875415411, 4.198477522698126 ], [ 1.56405177043637, 4.464319018502719 ], [ 1.553888886457115, 4.989820763574254 ], [ 1.949346450477179, 5.248357780681114 ], [ 2.355454644193308, 4.98198537074216 ] ] ] ] } },
{ "type": "Feature", "properties": { "geogrid_id": "805515575001543455", "seqnum": 15181.0, "lat_c": 5.515575038594938, "lon_c": 1.5434549431789819, "res": 8.0, "count_Arachnids": 0, "count_Ferns": 0, "count_Reptiles": 1, "count_Flowering Plants": 0, "count_Mammals": 0, "count_Insects": 0, "count_Birds": 0, "count_Sac Fungi": 0, "count_Amphibians": 0, "count_Molluscs": 0, "count_Basidiomycota": 0, "unique_species_count": 1.0, "countryCode": "TG" }, "geometry": { "type": "MultiPolygon", "coordinates": [ [ [ [ 1.938935930753446, 5.773623373287516 ], [ 1.949346450477179, 5.248357780681114 ], [ 1.553888886457115, 4.989820763574254 ], [ 1.148531202628314, 5.257148138893375 ], [ 1.137874379136204, 5.783723270609443 ], [ 1.532795094060587, 6.041653569451372 ], [ 1.938935930753446, 5.773623373287516 ] ] ] ] } },
{ "type": "Feature", "properties": { "geogrid_id": "806299198001928302", "seqnum": 15182.0, "lat_c": 6.2991977408140603, "lon_c": 1.92830186329103, "res": 8.0, "count_Arachnids": 0, "count_Ferns": 3, "count_Reptiles": 1, "count_Flowering Plants": 195, "count_Mammals": 0, "count_Insects": 1, "count_Birds": 7, "count_Sac Fungi": 0, "count_Amphibians": 0, "count_Molluscs": 13, "count_Basidiomycota": 0, "unique_species_count": 220.0, "countryCode": "TG" }, "geometry": { "type": "MultiPolygon", "coordinates": [ [ [ [ 2.324423746703781, 6.556367043678294 ], [ 2.335002560381475, 6.031304056565871 ], [ 1.938935930753446, 5.773623373287516 ], [ 1.532795094060587, 6.041653569451372 ], [ 1.521963039930005, 6.568136531878747 ], [ 1.91749580495729, 6.82515998684243 ], [ 2.324423746703781, 6.556367043678294 ] ] ] ] } },
{ "type": "Feature", "properties": { "geogrid_id": "806310718001127045", "seqnum": 15100.0, "lat_c": 6.3107182160299802, "lon_c": 1.12704467556121, "res": 8.0, "count_Arachnids": 0, "count_Ferns": 18, "count_Reptiles": 11, "count_Flowering Plants": 849, "count_Mammals": 6, "count_Insects": 50, "count_Birds": 80, "count_Sac Fungi": 0, "count_Amphibians": 2, "count_Molluscs": 15, "count_Basidiomycota": 0, "unique_species_count": 1031.0, "countryCode": "TG" }, "geometry": { "type": "MultiPolygon", "coordinates": [ [ [ [ 1.521963039930005, 6.568136531878747 ], [ 1.532795094060587, 6.041653569451372 ], [ 1.137874379136204, 5.783723270609443 ], [ 0.732711117262977, 6.052894760698991 ], [ 0.721805817889073, 6.580918521177075 ], [ 1.116108494437767, 6.838223994081273 ], [ 1.521963039930005, 6.568136531878747 ] ] ] ] } },
{ "type": "Feature", "properties": { "geogrid_id": "807095114001511023", "seqnum": 15101.0, "lat_c": 7.0951140757793034, "lon_c": 1.511023010707762, "res": 8.0, "count_Arachnids": 0, "count_Ferns": 2, "count_Reptiles": 6, "count_Flowering Plants": 464, "count_Mammals": 0, "count_Insects": 4, "count_Birds": 0, "count_Sac Fungi": 0, "count_Amphibians": 1, "count_Molluscs": 2, "count_Basidiomycota": 0, "unique_species_count": 479.0, "countryCode": "TG" }, "geometry": { "type": "MultiPolygon", "coordinates": [ [ [ [ 1.906579653242899, 7.351599230991781 ], [ 1.91749580495729, 6.82515998684243 ], [ 1.521963039930005, 6.568136531878747 ], [ 1.116108494437767, 6.838223994081273 ], [ 1.10514542622222, 7.366343348199805 ], [ 1.500052281837013, 7.622688184446944 ], [ 1.906579653242899, 7.351599230991781 ] ] ] ] } },
{ "type": "Feature", "properties": { "geogrid_id": "807109571000710877", "seqnum": 15019.0, "lat_c": 7.1095714248247051, "lon_c": 0.71087658978631796, "res": 8.0, "count_Arachnids": 7, "count_Ferns": 36, "count_Reptiles": 21, "count_Flowering Plants": 804, "count_Mammals": 3, "count_Insects": 192, "count_Birds": 41, "count_Sac Fungi": 1, "count_Amphibians": 4, "count_Molluscs": 6, "count_Basidiomycota": 1, "unique_species_count": 1116.0, "countryCode": "TG" }, "geometry": { "type": "MultiPolygon", "coordinates": [ [ [ [ 1.10514542622222, 7.366343348199805 ], [ 1.116108494437767, 6.838223994081273 ], [ 0.721805817889073, 6.580918521177075 ], [ 0.317215105714894, 6.852363120859298 ], [ 0.306423523624146, 7.382298472316451 ], [ 0.700021589490943, 7.638970553777318 ], [ 1.10514542622222, 7.366343348199805 ] ] ] ] } },
{ "type": "Feature", "properties": { "geogrid_id": "807878617001895628", "seqnum": 15102.0, "lat_c": 7.8786165151838352, "lon_c": 1.8956281679475191, "res": 8.0, "count_Arachnids": 0, "count_Ferns": 0, "count_Reptiles": 0, "count_Flowering Plants": 30, "count_Mammals": 0, "count_Insects": 0, "count_Birds": 0, "count_Sac Fungi": 0, "count_Amphibians": 0, "count_Molluscs": 0, "count_Basidiomycota": 0, "unique_species_count": 30.0, "countryCode": "TG" }, "geometry": { "type": "MultiPolygon", "coordinates": [ [ [ [ 2.29190444314209, 8.134140348803761 ], [ 2.302808968513149, 7.607691281650869 ], [ 1.906579653242899, 7.351599230991781 ], [ 1.500052281837013, 7.622688184446944 ], [ 1.48914439548274, 8.150974956803466 ], [ 1.884732214676568, 8.406327153452896 ], [ 2.29190444314209, 8.134140348803761 ] ] ] ] } },
{ "type": "Feature", "properties": { "geogrid_id": "807895193001094251", "seqnum": 15020.0, "lat_c": 7.8951929600809221, "lon_c": 1.094251439408346, "res": 8.0, "count_Arachnids": 0, "count_Ferns": 19, "count_Reptiles": 2, "count_Flowering Plants": 511, "count_Mammals": 0, "count_Insects": 8, "count_Birds": 3, "count_Sac Fungi": 0, "count_Amphibians": 0, "count_Molluscs": 2, "count_Basidiomycota": 0, "unique_species_count": 545.0, "countryCode": "TG" }, "geometry": { "type": "MultiPolygon", "coordinates": [ [ [ [ 1.48914439548274, 8.150974956803466 ], [ 1.500052281837013, 7.622688184446944 ], [ 1.10514542622222, 7.366343348199805 ], [ 0.700021589490943, 7.638970553777318 ], [ 0.689359447150633, 8.169249362286104 ], [ 1.083542978821401, 8.424906173673907 ], [ 1.48914439548274, 8.150974956803466 ] ] ] ] } },
{ "type": "Feature", "properties": { "geogrid_id": "807913128000295831", "seqnum": 14938.0, "lat_c": 7.9131278646176622, "lon_c": 0.29583075419378502, "res": 8.0, "count_Arachnids": 0, "count_Ferns": 14, "count_Reptiles": 1, "count_Flowering Plants": 190, "count_Mammals": 0, "count_Insects": 8, "count_Birds": 2, "count_Sac Fungi": 0, "count_Amphibians": 0, "count_Molluscs": 0, "count_Basidiomycota": 0, "unique_species_count": 215.0, "countryCode": "TG" }, "geometry": { "type": "MultiPolygon", "coordinates": [ [ [ [ 0.689359447150633, 8.169249362286104 ], [ 0.700021589490943, 7.638970553777318 ], [ 0.306423523624146, 7.382298472316451 ], [ -0.097074560493643, 7.65653380280356 ], [ -0.107224580901269, 8.188957642882333 ], [ 0.285582835259277, 8.445003867340404 ], [ 0.689359447150633, 8.169249362286104 ] ] ] ] } },
{ "type": "Feature", "properties": { "geogrid_id": "808680107001478413", "seqnum": 15021.0, "lat_c": 8.6801074278541961, "lon_c": 1.478413319400071, "res": 8.0, "count_Arachnids": 0, "count_Ferns": 2, "count_Reptiles": 0, "count_Flowering Plants": 138, "count_Mammals": 0, "count_Insects": 2, "count_Birds": 4, "count_Sac Fungi": 0, "count_Amphibians": 0, "count_Molluscs": 1, "count_Basidiomycota": 0, "unique_species_count": 147.0, "countryCode": "TG" }, "geometry": { "type": "MultiPolygon", "coordinates": [ [ [ [ 1.874002974209023, 8.93486364903406 ], [ 1.884732214676568, 8.406327153452896 ], [ 1.48914439548274, 8.150974956803466 ], [ 1.083542978821401, 8.424906173673907 ], [ 1.073162277152769, 8.955636369916823 ], [ 1.467998865904556, 9.210239079244705 ], [ 1.874002974209023, 8.93486364903406 ] ] ] ] } },
{ "type": "Feature", "properties": { "geogrid_id": "808700561000679034", "seqnum": 14939.0, "lat_c": 8.7005609185137214, "lon_c": 0.67903446194062, "res": 8.0, "count_Arachnids": 0, "count_Ferns": 19, "count_Reptiles": 1, "count_Flowering Plants": 348, "count_Mammals": 0, "count_Insects": 70, "count_Birds": 6, "count_Sac Fungi": 0, "count_Amphibians": 0, "count_Molluscs": 0, "count_Basidiomycota": 0, "unique_species_count": 444.0, "countryCode": "TG" }, "geometry": { "type": "MultiPolygon", "coordinates": [ [ [ [ 1.073162277152769, 8.955636369916823 ], [ 1.083542978821401, 8.424906173673907 ], [ 0.689359447150633, 8.169249362286104 ], [ 0.285582835259277, 8.445003867340404 ], [ 0.275857865269183, 8.978102078979163 ], [ 0.669223361625742, 9.233081930299202 ], [ 1.073162277152769, 8.955636369916823 ] ] ] ] } },
{ "type": "Feature", "properties": { "geogrid_id": "809487561001063284", "seqnum": 14940.0, "lat_c": 9.4875611777952109, "lon_c": 1.0632843039984601, "res": 8.0, "count_Arachnids": 1, "count_Ferns": 2, "count_Reptiles": 3, "count_Flowering Plants": 791, "count_Mammals": 2, "count_Insects": 3, "count_Birds": 21, "count_Sac Fungi": 2, "count_Amphibians": 0, "count_Molluscs": 0, "count_Basidiomycota": 0, "unique_species_count": 825.0, "countryCode": "TG" }, "geometry": { "type": "MultiPolygon", "coordinates": [ [ [ [ 1.458073822525241, 9.741548241859917 ], [ 1.467998865904556, 9.210239079244705 ], [ 1.073162277152769, 8.955636369916823 ], [ 0.669223361625742, 9.233081930299202 ], [ 0.66014418246479, 9.767017780583302 ], [ 1.054125949460879, 10.020887768920744 ], [ 1.458073822525241, 9.741548241859917 ] ] ] ] } },
{ "type": "Feature", "properties": { "geogrid_id": "809512626000266875", "seqnum": 14858.0, "lat_c": 9.5126259151783863, "lon_c": 0.26687457796414998, "res": 8.0, "count_Arachnids": 0, "count_Ferns": 0, "count_Reptiles": 0, "count_Flowering Plants": 24, "count_Mammals": 0, "count_Insects": 0, "count_Birds": 0, "count_Sac Fungi": 0, "count_Amphibians": 0, "count_Molluscs": 0, "count_Basidiomycota": 0, "unique_species_count": 24.0, "countryCode": "TG" }, "geometry": { "type": "MultiPolygon", "coordinates": [ [ [ [ 0.66014418246479, 9.767017780583302 ], [ 0.669223361625742, 9.233081930299202 ], [ 0.275857865269183, 8.978102078979163 ], [ -0.125715606547704, 9.257705702882403 ], [ -0.133567796198787, 9.794465175822394 ], [ 0.258903653633104, 10.048812611107794 ], [ 0.66014418246479, 9.767017780583302 ] ] ] ] } },
{ "type": "Feature", "properties": { "geogrid_id": "810274244001448853", "seqnum": 14941.0, "lat_c": 10.274243661351194, "lon_c": 1.448853434678514, "res": 8.0, "count_Arachnids": 0, "count_Ferns": 0, "count_Reptiles": 0, "count_Flowering Plants": 8, "count_Mammals": 0, "count_Insects": 0, "count_Birds": 4, "count_Sac Fungi": 0, "count_Amphibians": 0, "count_Molluscs": 1, "count_Basidiomycota": 0, "unique_species_count": 13.0, "countryCode": "TG" }, "geometry": { "type": "MultiPolygon", "coordinates": [ [ [ [ 1.844361076740971, 10.527094724183263 ], [ 1.853625809182644, 9.99505301338373 ], [ 1.458073822525241, 9.741548241859917 ], [ 1.054125949460879, 10.020887768920744 ], [ 1.045958293237452, 10.555859567721971 ], [ 1.440608160483976, 10.808571593292738 ], [ 1.844361076740971, 10.527094724183263 ] ] ] ] } },
{ "type": "Feature", "properties": { "geogrid_id": "810302609000652068", "seqnum": 14859.0, "lat_c": 10.302608873498539, "lon_c": 0.65206805594528605, "res": 8.0, "count_Arachnids": 0, "count_Ferns": 0, "count_Reptiles": 1, "count_Flowering Plants": 161, "count_Mammals": 0, "count_Insects": 2, "count_Birds": 0, "count_Sac Fungi": 0, "count_Amphibians": 0, "count_Molluscs": 0, "count_Basidiomycota": 0, "unique_species_count": 164.0, "countryCode": "TG" }, "geometry": { "type": "MultiPolygon", "coordinates": [ [ [ [ 1.045958293237452, 10.555859567721971 ], [ 1.054125949460879, 10.020887768920744 ], [ 0.66014418246479, 9.767017780583302 ], [ 0.258903653633104, 10.048812611107794 ], [ 0.252282799387476, 10.586940802411851 ], [ 0.645335028905203, 10.840138695842105 ], [ 1.045958293237452, 10.555859567721971 ] ] ] ] } },
{ "type": "Feature", "properties": { "geogrid_id": "811092765001039123", "seqnum": 14860.0, "lat_c": 11.092764827290591, "lon_c": 1.0391231884551431, "res": 8.0, "count_Arachnids": 0, "count_Ferns": 0, "count_Reptiles": 0, "count_Flowering Plants": 1, "count_Mammals": 0, "count_Insects": 0, "count_Birds": 0, "count_Sac Fungi": 0, "count_Amphibians": 0, "count_Molluscs": 0, "count_Basidiomycota": 0, "unique_species_count": 1.0, "countryCode": "TG" }, "geometry": { "type": "MultiPolygon", "coordinates": [ [ [ [ 1.433681038833997, 11.344824929032789 ], [ 1.440608160483976, 10.808571593292738 ], [ 1.045958293237452, 10.555859567721971 ], [ 0.645335028905203, 10.840138695842105 ], [ 0.640375553106607, 11.3799441424968 ], [ 1.034055962025619, 11.631947686098739 ], [ 1.433681038833997, 11.344824929032789 ] ] ] ] } },
{ "type": "Feature", "properties": { "geogrid_id": "811127340000247437", "seqnum": 14778.0, "lat_c": 11.127340174711669, "lon_c": 0.24743708469505399, "res": 8.0, "count_Arachnids": 0, "count_Ferns": 0, "count_Reptiles": 0, "count_Flowering Plants": 396, "count_Mammals": 0, "count_Insects": 0, "count_Birds": 1, "count_Sac Fungi": 0, "count_Amphibians": 0, "count_Molluscs": 0, "count_Basidiomycota": 0, "unique_species_count": 397.0, "countryCode": "TG" }, "geometry": { "type": "MultiPolygon", "coordinates": [ [ [ [ 0.640375553106607, 11.3799441424968 ], [ 0.645335028905203, 10.840138695842105 ], [ 0.252282799387476, 10.586940802411851 ], [ -0.144791733222306, 10.874132709666464 ], [ -0.147214502715277, 11.417746172161348 ], [ 0.244906701839524, 11.670403845120266 ], [ 0.640375553106607, 11.3799441424968 ] ] ] ] } }
]
}
