{
"type": "FeatureCollection",
"name": "TJ",
"crs": { "type": "name", "properties": { "name": "urn:ogc:def:crs:OGC:1.3:CRS84" } },
"features": [
{ "type": "Feature", "properties": { "geogrid_id": "836901293071590252", "seqnum": 23394.0, "lat_c": 36.90129311978297, "lon_c": 71.59025236993952, "res": 8.0, "count_Flowering Plants": 39, "count_Mammals": 1, "count_Reptiles": 0, "count_Gymnosperms": 0, "count_Molluscs": 0, "count_Birds": 51, "count_Basidiomycota": 0, "count_Sac Fungi": 0, "count_Mosses": 0, "count_Arachnids": 1, "count_Insects": 21, "count_Amphibians": 0, "count_Ferns": 0, "unique_species_count": 113.0, "countryCode": "TJ" }, "geometry": { "type": "MultiPolygon", "coordinates": [ [ [ [ 71.994244610490554, 37.352015341453416 ], [ 72.161378037680791, 36.889941899267598 ], [ 71.747412301030096, 36.439240104290072 ], [ 71.180435077286219, 36.448470094635375 ], [ 71.019159028674665, 36.909947562137326 ], [ 71.418629858746101, 37.362710846315323 ], [ 71.994244610490554, 37.352015341453416 ] ] ] ] } },
{ "type": "Feature", "properties": { "geogrid_id": "836912791068164968", "seqnum": 23068.0, "lat_c": 36.912791233358817, "lon_c": 68.164968019870841, "res": 8.0, "count_Flowering Plants": 23, "count_Mammals": 2, "count_Reptiles": 15, "count_Gymnosperms": 0, "count_Molluscs": 0, "count_Birds": 59, "count_Basidiomycota": 0, "count_Sac Fungi": 5, "count_Mosses": 0, "count_Arachnids": 1, "count_Insects": 76, "count_Amphibians": 2, "count_Ferns": 1, "unique_species_count": 184.0, "countryCode": "TJ" }, "geometry": { "type": "MultiPolygon", "coordinates": [ [ [ [ 68.540481939681626, 37.375096081205712 ], [ 68.735567031248095, 36.917610913260603 ], [ 68.34764067556533, 36.454722502668531 ], [ 67.781683217148156, 36.448009710678178 ], [ 67.594524163907508, 36.905278065571949 ], [ 67.96494086363478, 37.369340282819898 ], [ 68.540481939681626, 37.375096081205712 ] ] ] ] } },
{ "type": "Feature", "properties": { "geogrid_id": "837281880074295998", "seqnum": 23639.0, "lat_c": 37.281879987989043, "lon_c": 74.295998221094663, "res": 8.0, "count_Flowering Plants": 2, "count_Mammals": 0, "count_Reptiles": 0, "count_Gymnosperms": 0, "count_Molluscs": 0, "count_Birds": 1, "count_Basidiomycota": 0, "count_Sac Fungi": 0, "count_Mosses": 0, "count_Arachnids": 0, "count_Insects": 2, "count_Amphibians": 0, "count_Ferns": 0, "unique_species_count": 5.0, "countryCode": "TJ" }, "geometry": { "type": "MultiPolygon", "coordinates": [ [ [ [ 74.714409852938573, 37.721976689068505 ], [ 74.871145665797542, 37.257512791850431 ], [ 74.445704756884879, 36.817559562470443 ], [ 73.874700804058335, 36.839702404925454 ], [ 73.720710635609777, 37.303514849641559 ], [ 74.134730271251215, 37.745780596265959 ], [ 74.714409852938573, 37.721976689068505 ] ] ] ] } },
{ "type": "Feature", "properties": { "geogrid_id": "837338584072569811", "seqnum": 23476.0, "lat_c": 37.338583503798432, "lon_c": 72.56981084576222, "res": 8.0, "count_Flowering Plants": 50, "count_Mammals": 7, "count_Reptiles": 1, "count_Gymnosperms": 0, "count_Molluscs": 0, "count_Birds": 89, "count_Basidiomycota": 0, "count_Sac Fungi": 0, "count_Mosses": 0, "count_Arachnids": 0, "count_Insects": 22, "count_Amphibians": 1, "count_Ferns": 0, "unique_species_count": 170.0, "countryCode": "TJ" }, "geometry": { "type": "MultiPolygon", "coordinates": [ [ [ [ 72.974816985850623, 37.785070126508245 ], [ 73.145307038912065, 37.322416348600477 ], [ 72.732511529985601, 36.875893325937625 ], [ 72.161378037680791, 36.889941899267598 ], [ 71.994244610490554, 37.352015341453416 ], [ 72.39462529775092, 37.800550612338142 ], [ 72.974816985850623, 37.785070126508245 ] ] ] ] } },
{ "type": "Feature", "properties": { "geogrid_id": "837378104069116068", "seqnum": 23150.0, "lat_c": 37.378104007389034, "lon_c": 69.116068223108996, "res": 8.0, "count_Flowering Plants": 5, "count_Mammals": 1, "count_Reptiles": 8, "count_Gymnosperms": 0, "count_Molluscs": 0, "count_Birds": 32, "count_Basidiomycota": 0, "count_Sac Fungi": 0, "count_Mosses": 0, "count_Arachnids": 0, "count_Insects": 20, "count_Amphibians": 0, "count_Ferns": 0, "unique_species_count": 66.0, "countryCode": "TJ" }, "geometry": { "type": "MultiPolygon", "coordinates": [ [ [ [ 69.492032420954246, 37.836185064251346 ], [ 69.69168997549427, 37.378367231176057 ], [ 69.306304875715554, 36.919736909812528 ], [ 68.735567031248095, 36.917610913260603 ], [ 68.540481939681626, 37.375096081205712 ], [ 68.911282264383402, 37.834929078020664 ], [ 69.492032420954246, 37.836185064251346 ] ] ] ] } },
{ "type": "Feature", "properties": { "geogrid_id": "837695403075293875", "seqnum": 23721.0, "lat_c": 37.695403281134446, "lon_c": 75.293875079574264, "res": 8.0, "count_Flowering Plants": 3, "count_Mammals": 0, "count_Reptiles": 0, "count_Gymnosperms": 0, "count_Molluscs": 0, "count_Birds": 1, "count_Basidiomycota": 0, "count_Sac Fungi": 0, "count_Mosses": 0, "count_Arachnids": 0, "count_Insects": 1, "count_Amphibians": 0, "count_Ferns": 0, "unique_species_count": 5.0, "countryCode": "TJ" }, "geometry": { "type": "MultiPolygon", "coordinates": [ [ [ [ 75.715300705174585, 38.131158132618197 ], [ 75.873102718447811, 37.666062773153961 ], [ 75.446128252260479, 37.230414369238297 ], [ 74.871145665797542, 37.257512791850431 ], [ 74.714409852938573, 37.721976689068505 ], [ 75.131398461432099, 38.159926172898054 ], [ 75.715300705174585, 38.131158132618197 ] ] ] ] } },
{ "type": "Feature", "properties": { "geogrid_id": "837766813073554859", "seqnum": 23558.0, "lat_c": 37.766812575974505, "lon_c": 73.554858799129164, "res": 8.0, "count_Flowering Plants": 37, "count_Mammals": 5, "count_Reptiles": 0, "count_Gymnosperms": 1, "count_Molluscs": 0, "count_Birds": 27, "count_Basidiomycota": 0, "count_Sac Fungi": 0, "count_Mosses": 0, "count_Arachnids": 0, "count_Insects": 5, "count_Amphibians": 0, "count_Ferns": 0, "unique_species_count": 75.0, "countryCode": "TJ" }, "geometry": { "type": "MultiPolygon", "coordinates": [ [ [ [ 73.962749008668141, 38.209031241135314 ], [ 74.134730271251215, 37.745780596265959 ], [ 73.720710635609777, 37.303514849641559 ], [ 73.145307038912065, 37.322416348600477 ], [ 72.974816985850623, 37.785070126508245 ], [ 73.378043424796573, 38.229360224758565 ], [ 73.962749008668141, 38.209031241135314 ] ] ] ] } },
{ "type": "Feature", "properties": { "geogrid_id": "837813251071814303", "seqnum": 23395.0, "lat_c": 37.81325119287137, "lon_c": 71.814302926382737, "res": 8.0, "count_Flowering Plants": 80, "count_Mammals": 0, "count_Reptiles": 4, "count_Gymnosperms": 0, "count_Molluscs": 0, "count_Birds": 66, "count_Basidiomycota": 1, "count_Sac Fungi": 2, "count_Mosses": 1, "count_Arachnids": 2, "count_Insects": 125, "count_Amphibians": 1, "count_Ferns": 0, "unique_species_count": 282.0, "countryCode": "TJ" }, "geometry": { "type": "MultiPolygon", "coordinates": [ [ [ [ 72.207965829253766, 38.261549061863327 ], [ 72.39462529775092, 37.800550612338142 ], [ 71.994244610490554, 37.352015341453416 ], [ 71.418629858746101, 37.362710846315323 ], [ 71.233867567690865, 37.823168736028791 ], [ 71.622627588056616, 38.273398954358044 ], [ 72.207965829253766, 38.261549061863327 ] ] ] ] } },
{ "type": "Feature", "properties": { "geogrid_id": "837830865068330475", "seqnum": 23069.0, "lat_c": 37.830865361308277, "lon_c": 68.330474542228174, "res": 8.0, "count_Flowering Plants": 67, "count_Mammals": 0, "count_Reptiles": 8, "count_Gymnosperms": 0, "count_Molluscs": 0, "count_Birds": 69, "count_Basidiomycota": 0, "count_Sac Fungi": 1, "count_Mosses": 0, "count_Arachnids": 3, "count_Insects": 23, "count_Amphibians": 1, "count_Ferns": 0, "unique_species_count": 172.0, "countryCode": "TJ" }, "geometry": { "type": "MultiPolygon", "coordinates": [ [ [ [ 68.693435378089731, 38.289942840841384 ], [ 68.911282264383402, 37.834929078020664 ], [ 68.540481939681626, 37.375096081205712 ], [ 67.96494086363478, 37.369340282819898 ], [ 67.749610771923287, 37.82398572848971 ], [ 68.107140319556436, 38.284647952897203 ], [ 68.693435378089731, 38.289942840841384 ] ] ] ] } },
{ "type": "Feature", "properties": { "geogrid_id": "837834640070072720", "seqnum": 23232.0, "lat_c": 37.834640068814373, "lon_c": 70.072719618100308, "res": 8.0, "count_Flowering Plants": 65, "count_Mammals": 3, "count_Reptiles": 4, "count_Gymnosperms": 0, "count_Molluscs": 0, "count_Birds": 71, "count_Basidiomycota": 0, "count_Sac Fungi": 0, "count_Mosses": 0, "count_Arachnids": 2, "count_Insects": 45, "count_Amphibians": 1, "count_Ferns": 0, "unique_species_count": 191.0, "countryCode": "TJ" }, "geometry": { "type": "MultiPolygon", "coordinates": [ [ [ [ 70.451422884622929, 38.288580468625732 ], [ 70.653335166357905, 37.830299712916975 ], [ 70.267334556564478, 37.375888216227182 ], [ 69.69168997549427, 37.378367231176057 ], [ 69.492032420954246, 37.836185064251346 ], [ 69.865577940423293, 38.291898005310017 ], [ 70.451422884622929, 38.288580468625732 ] ] ] ] } },
{ "type": "Feature", "properties": { "geogrid_id": "838185885074547207", "seqnum": 23640.0, "lat_c": 38.185885184204132, "lon_c": 74.547207453846084, "res": 8.0, "count_Flowering Plants": 3, "count_Mammals": 2, "count_Reptiles": 0, "count_Gymnosperms": 0, "count_Molluscs": 0, "count_Birds": 7, "count_Basidiomycota": 0, "count_Sac Fungi": 0, "count_Mosses": 0, "count_Arachnids": 0, "count_Insects": 10, "count_Amphibians": 0, "count_Ferns": 0, "unique_species_count": 22.0, "countryCode": "TJ" }, "geometry": { "type": "MultiPolygon", "coordinates": [ [ [ [ 74.959370757118023, 38.623799744356603 ], [ 75.131398461432099, 38.159926172898054 ], [ 74.714409852938573, 37.721976689068505 ], [ 74.134730271251215, 37.745780596265959 ], [ 73.962749008668141, 38.209031241135314 ], [ 74.370246750020229, 38.649052007582917 ], [ 74.959370757118023, 38.623799744356603 ] ] ] ] } },
{ "type": "Feature", "properties": { "geogrid_id": "838246868072793110", "seqnum": 23477.0, "lat_c": 38.246867747277292, "lon_c": 72.79310979919461, "res": 8.0, "count_Flowering Plants": 32, "count_Mammals": 3, "count_Reptiles": 2, "count_Gymnosperms": 0, "count_Molluscs": 0, "count_Birds": 7, "count_Basidiomycota": 0, "count_Sac Fungi": 0, "count_Mosses": 0, "count_Arachnids": 0, "count_Insects": 30, "count_Amphibians": 0, "count_Ferns": 0, "unique_species_count": 74.0, "countryCode": "TJ" }, "geometry": { "type": "MultiPolygon", "coordinates": [ [ [ [ 73.191052863050658, 38.690966124430602 ], [ 73.378043424796573, 38.229360224758565 ], [ 72.974816985850623, 37.785070126508245 ], [ 72.39462529775092, 37.800550612338142 ], [ 72.207965829253766, 38.261549061863327 ], [ 72.601018454343119, 38.70761521300323 ], [ 73.191052863050658, 38.690966124430602 ] ] ] ] } },
{ "type": "Feature", "properties": { "geogrid_id": "838282412071037109", "seqnum": 23314.0, "lat_c": 38.282411612678118, "lon_c": 71.037109267672889, "res": 8.0, "count_Flowering Plants": 59, "count_Mammals": 0, "count_Reptiles": 1, "count_Gymnosperms": 0, "count_Molluscs": 0, "count_Birds": 39, "count_Basidiomycota": 1, "count_Sac Fungi": 1, "count_Mosses": 0, "count_Arachnids": 0, "count_Insects": 156, "count_Amphibians": 0, "count_Ferns": 1, "unique_species_count": 258.0, "countryCode": "TJ" }, "geometry": { "type": "MultiPolygon", "coordinates": [ [ [ [ 71.420151376051138, 38.732261074449099 ], [ 71.622627588056616, 38.273398954358044 ], [ 71.233867567690865, 37.823168736028791 ], [ 70.653335166357905, 37.830299712916975 ], [ 70.451422884622929, 38.288580468625732 ], [ 70.829343549806325, 38.740240882079682 ], [ 71.420151376051138, 38.732261074449099 ] ] ] ] } },
{ "type": "Feature", "properties": { "geogrid_id": "838292356069279581", "seqnum": 23151.0, "lat_c": 38.292355521407245, "lon_c": 69.279581028642895, "res": 8.0, "count_Flowering Plants": 78, "count_Mammals": 0, "count_Reptiles": 3, "count_Gymnosperms": 0, "count_Molluscs": 0, "count_Birds": 36, "count_Basidiomycota": 1, "count_Sac Fungi": 0, "count_Mosses": 0, "count_Arachnids": 0, "count_Insects": 40, "count_Amphibians": 2, "count_Ferns": 0, "unique_species_count": 160.0, "countryCode": "TJ" }, "geometry": { "type": "MultiPolygon", "coordinates": [ [ [ [ 69.647023355644293, 38.747463428753889 ], [ 69.865577940423293, 38.291898005310017 ], [ 69.492032420954246, 37.836185064251346 ], [ 68.911282264383402, 37.834929078020664 ], [ 68.693435378089731, 38.289942840841384 ], [ 69.055519881492074, 38.746681373154502 ], [ 69.647023355644293, 38.747463428753889 ] ] ] ] } },
{ "type": "Feature", "properties": { "geogrid_id": "838671443073780801", "seqnum": 23559.0, "lat_c": 38.671442846388828, "lon_c": 73.780801302541434, "res": 8.0, "count_Flowering Plants": 17, "count_Mammals": 1, "count_Reptiles": 0, "count_Gymnosperms": 0, "count_Molluscs": 0, "count_Birds": 10, "count_Basidiomycota": 0, "count_Sac Fungi": 0, "count_Mosses": 0, "count_Arachnids": 0, "count_Insects": 9, "count_Amphibians": 0, "count_Ferns": 0, "unique_species_count": 37.0, "countryCode": "TJ" }, "geometry": { "type": "MultiPolygon", "coordinates": [ [ [ [ 74.184152732155411, 39.111323682876261 ], [ 74.370246750020229, 38.649052007582917 ], [ 73.962749008668141, 38.209031241135314 ], [ 73.378043424796573, 38.229360224758565 ], [ 73.191052863050658, 38.690966124430602 ], [ 73.589544214062883, 39.132860978254186 ], [ 74.184152732155411, 39.111323682876261 ] ] ] ] } },
{ "type": "Feature", "properties": { "geogrid_id": "838721383072010713", "seqnum": 23396.0, "lat_c": 38.721382866625696, "lon_c": 72.010713458752107, "res": 8.0, "count_Flowering Plants": 49, "count_Mammals": 3, "count_Reptiles": 0, "count_Gymnosperms": 1, "count_Molluscs": 0, "count_Birds": 5, "count_Basidiomycota": 2, "count_Sac Fungi": 9, "count_Mosses": 0, "count_Arachnids": 0, "count_Insects": 58, "count_Amphibians": 0, "count_Ferns": 0, "unique_species_count": 127.0, "countryCode": "TJ" }, "geometry": { "type": "MultiPolygon", "coordinates": [ [ [ [ 72.399270951407061, 39.16715726752841 ], [ 72.601018454343119, 38.70761521300323 ], [ 72.207965829253766, 38.261549061863327 ], [ 71.622627588056616, 38.273398954358044 ], [ 71.420151376051138, 38.732261074449099 ], [ 71.803635388571649, 39.179897051518999 ], [ 72.399270951407061, 39.16715726752841 ] ] ] ] } },
{ "type": "Feature", "properties": { "geogrid_id": "838742951068463788", "seqnum": 23070.0, "lat_c": 38.74295062545017, "lon_c": 68.463787589150058, "res": 8.0, "count_Flowering Plants": 273, "count_Mammals": 11, "count_Reptiles": 7, "count_Gymnosperms": 1, "count_Molluscs": 1, "count_Birds": 135, "count_Basidiomycota": 8, "count_Sac Fungi": 24, "count_Mosses": 1, "count_Arachnids": 6, "count_Insects": 271, "count_Amphibians": 3, "count_Ferns": 2, "unique_species_count": 743.0, "countryCode": "TJ" }, "geometry": { "type": "MultiPolygon", "coordinates": [ [ [ [ 68.820857100682417, 39.199020288209816 ], [ 69.055519881492074, 38.746681373154502 ], [ 68.693435378089731, 38.289942840841384 ], [ 68.107140319556436, 38.284647952897203 ], [ 67.87182142514915, 38.736253204406061 ], [ 68.223405625181968, 39.193815985936418 ], [ 68.820857100682417, 39.199020288209816 ] ] ] ] } },
{ "type": "Feature", "properties": { "geogrid_id": "838745312070238299", "seqnum": 23233.0, "lat_c": 38.745312176980669, "lon_c": 70.238298857094222, "res": 8.0, "count_Flowering Plants": 30, "count_Mammals": 1, "count_Reptiles": 3, "count_Gymnosperms": 0, "count_Molluscs": 0, "count_Birds": 8, "count_Basidiomycota": 3, "count_Sac Fungi": 26, "count_Mosses": 0, "count_Arachnids": 1, "count_Insects": 125, "count_Amphibians": 0, "count_Ferns": 0, "unique_species_count": 197.0, "countryCode": "TJ" }, "geometry": { "type": "MultiPolygon", "coordinates": [ [ [ [ 70.61142439991248, 39.196503983571354 ], [ 70.829343549806325, 38.740240882079682 ], [ 70.451422884622929, 38.288580468625732 ], [ 69.865577940423293, 38.291898005310017 ], [ 69.647023355644293, 38.747463428753889 ], [ 70.014865045448815, 39.200344650692337 ], [ 70.61142439991248, 39.196503983571354 ] ] ] ] } },
{ "type": "Feature", "properties": { "geogrid_id": "839151475072994578", "seqnum": 23478.0, "lat_c": 39.151475225581855, "lon_c": 72.994578457706396, "res": 8.0, "count_Flowering Plants": 12, "count_Mammals": 1, "count_Reptiles": 0, "count_Gymnosperms": 0, "count_Molluscs": 0, "count_Birds": 4, "count_Basidiomycota": 0, "count_Sac Fungi": 0, "count_Mosses": 0, "count_Arachnids": 0, "count_Insects": 4, "count_Amphibians": 0, "count_Ferns": 0, "unique_species_count": 21.0, "countryCode": "TJ" }, "geometry": { "type": "MultiPolygon", "coordinates": [ [ [ [ 73.389555059554894, 39.593160373375916 ], [ 73.589544214062883, 39.132860978254186 ], [ 73.191052863050658, 38.690966124430602 ], [ 72.601018454343119, 38.70761521300323 ], [ 72.399270951407061, 39.16715726752841 ], [ 72.789225752976421, 39.610763120581481 ], [ 73.389555059554894, 39.593160373375916 ] ] ] ] } },
{ "type": "Feature", "properties": { "geogrid_id": "839185552067625647", "seqnum": 22989.0, "lat_c": 39.185552195146613, "lon_c": 67.625647149344616, "res": 8.0, "count_Flowering Plants": 56, "count_Mammals": 8, "count_Reptiles": 2, "count_Gymnosperms": 0, "count_Molluscs": 0, "count_Birds": 47, "count_Basidiomycota": 0, "count_Sac Fungi": 1, "count_Mosses": 0, "count_Arachnids": 2, "count_Insects": 54, "count_Amphibians": 0, "count_Ferns": 0, "unique_species_count": 170.0, "countryCode": "TJ" }, "geometry": { "type": "MultiPolygon", "coordinates": [ [ [ [ 67.973192337065385, 39.642447701799426 ], [ 68.223405625181968, 39.193815985936418 ], [ 67.87182142514915, 38.736253204406061 ], [ 67.279611524647905, 38.72656794234296 ], [ 67.027569353938887, 39.174200425082844 ], [ 67.369567613797173, 39.632463290494485 ], [ 67.973192337065385, 39.642447701799426 ] ] ] ] } },
{ "type": "Feature", "properties": { "geogrid_id": "839189683071207683", "seqnum": 23315.0, "lat_c": 39.189683439909203, "lon_c": 71.207683423645648, "res": 8.0, "count_Flowering Plants": 18, "count_Mammals": 6, "count_Reptiles": 0, "count_Gymnosperms": 0, "count_Molluscs": 0, "count_Birds": 1, "count_Basidiomycota": 0, "count_Sac Fungi": 4, "count_Mosses": 0, "count_Arachnids": 0, "count_Insects": 132, "count_Amphibians": 0, "count_Ferns": 0, "unique_species_count": 161.0, "countryCode": "TJ" }, "geometry": { "type": "MultiPolygon", "coordinates": [ [ [ [ 71.587399015049542, 39.636970471043846 ], [ 71.803635388571649, 39.179897051518999 ], [ 71.420151376051138, 38.732261074449099 ], [ 70.829343549806325, 38.740240882079682 ], [ 70.61142439991248, 39.196503983571354 ], [ 70.985924947221648, 39.645547485332507 ], [ 71.587399015049542, 39.636970471043846 ] ] ] ] } },
{ "type": "Feature", "properties": { "geogrid_id": "839201189069418009", "seqnum": 23152.0, "lat_c": 39.201189500423446, "lon_c": 69.418009133181002, "res": 8.0, "count_Flowering Plants": 36, "count_Mammals": 1, "count_Reptiles": 0, "count_Gymnosperms": 0, "count_Molluscs": 0, "count_Birds": 24, "count_Basidiomycota": 0, "count_Sac Fungi": 0, "count_Mosses": 0, "count_Arachnids": 0, "count_Insects": 50, "count_Amphibians": 0, "count_Ferns": 0, "unique_species_count": 111.0, "countryCode": "TJ" }, "geometry": { "type": "MultiPolygon", "coordinates": [ [ [ [ 69.781896571985158, 39.653566927317186 ], [ 70.014865045448815, 39.200344650692337 ], [ 69.647023355644293, 38.747463428753889 ], [ 69.055519881492074, 38.746681373154502 ], [ 68.820857100682417, 39.199020288209816 ], [ 69.179350655256215, 39.652970554105117 ], [ 69.781896571985158, 39.653566927317186 ] ] ] ] } },
{ "type": "Feature", "properties": { "geogrid_id": "839625371072188503", "seqnum": 23397.0, "lat_c": 39.625370849039747, "lon_c": 72.188502828671389, "res": 8.0, "count_Flowering Plants": 1, "count_Mammals": 0, "count_Reptiles": 0, "count_Gymnosperms": 0, "count_Molluscs": 0, "count_Birds": 0, "count_Basidiomycota": 0, "count_Sac Fungi": 0, "count_Mosses": 0, "count_Arachnids": 0, "count_Insects": 1, "count_Amphibians": 0, "count_Ferns": 0, "unique_species_count": 2.0, "countryCode": "TJ" }, "geometry": { "type": "MultiPolygon", "coordinates": [ [ [ [ 72.575524312727111, 40.068730987101773 ], [ 72.789225752976421, 39.610763120581481 ], [ 72.399270951407061, 39.16715726752841 ], [ 71.803635388571649, 39.179897051518999 ], [ 71.587399015049542, 39.636970471043846 ], [ 71.969268080460608, 40.082159588439183 ], [ 72.575524312727111, 40.068730987101773 ] ] ] ] } },
{ "type": "Feature", "properties": { "geogrid_id": "839649273068576451", "seqnum": 23071.0, "lat_c": 39.649273114004856, "lon_c": 68.576450629014786, "res": 8.0, "count_Flowering Plants": 116, "count_Mammals": 2, "count_Reptiles": 1, "count_Gymnosperms": 4, "count_Molluscs": 0, "count_Birds": 31, "count_Basidiomycota": 0, "count_Sac Fungi": 2, "count_Mosses": 0, "count_Arachnids": 0, "count_Insects": 44, "count_Amphibians": 1, "count_Ferns": 0, "unique_species_count": 201.0, "countryCode": "TJ" }, "geometry": { "type": "MultiPolygon", "coordinates": [ [ [ [ 68.931744689639004, 40.102733538469757 ], [ 69.179350655256215, 39.652970554105117 ], [ 68.820857100682417, 39.199020288209816 ], [ 68.223405625181968, 39.193815985936418 ], [ 67.973192337065385, 39.642447701799426 ], [ 68.323030002491308, 40.097374493995048 ], [ 68.931744689639004, 40.102733538469757 ] ] ] ] } },
{ "type": "Feature", "properties": { "geogrid_id": "839651086070384089", "seqnum": 23234.0, "lat_c": 39.651085704031516, "lon_c": 70.384088912560898, "res": 8.0, "count_Flowering Plants": 4, "count_Mammals": 3, "count_Reptiles": 1, "count_Gymnosperms": 0, "count_Molluscs": 0, "count_Birds": 2, "count_Basidiomycota": 0, "count_Sac Fungi": 0, "count_Mosses": 0, "count_Arachnids": 0, "count_Insects": 15, "count_Amphibians": 0, "count_Ferns": 0, "unique_species_count": 25.0, "countryCode": "TJ" }, "geometry": { "type": "MultiPolygon", "coordinates": [ [ [ [ 70.755482843144662, 40.099763653748475 ], [ 70.985924947221648, 39.645547485332507 ], [ 70.61142439991248, 39.196503983571354 ], [ 70.014865045448815, 39.200344650692337 ], [ 69.781896571985158, 39.653566927317186 ], [ 70.147972523169344, 40.103901034120533 ], [ 70.755482843144662, 40.099763653748475 ] ] ] ] } },
{ "type": "Feature", "properties": { "geogrid_id": "840104899069540059", "seqnum": 23153.0, "lat_c": 40.104899455249331, "lon_c": 69.54005882951796, "res": 8.0, "count_Flowering Plants": 64, "count_Mammals": 1, "count_Reptiles": 1, "count_Gymnosperms": 0, "count_Molluscs": 0, "count_Birds": 19, "count_Basidiomycota": 0, "count_Sac Fungi": 1, "count_Mosses": 0, "count_Arachnids": 1, "count_Insects": 7, "count_Amphibians": 1, "count_Ferns": 0, "unique_species_count": 95.0, "countryCode": "TJ" }, "geometry": { "type": "MultiPolygon", "coordinates": [ [ [ [ 69.903622096786833, 40.554889297983671 ], [ 70.147972523169344, 40.103901034120533 ], [ 69.781896571985158, 39.653566927317186 ], [ 69.179350655256215, 39.652970554105117 ], [ 68.931744689639004, 40.102733538469757 ], [ 69.289922103048951, 40.554287725768162 ], [ 69.903622096786833, 40.554889297983671 ] ] ] ] } },
{ "type": "Feature", "properties": { "geogrid_id": "840550431068675786", "seqnum": 23072.0, "lat_c": 40.550431105538081, "lon_c": 68.675785762282644, "res": 8.0, "count_Flowering Plants": 1, "count_Mammals": 0, "count_Reptiles": 0, "count_Gymnosperms": 0, "count_Molluscs": 0, "count_Birds": 1, "count_Basidiomycota": 0, "count_Sac Fungi": 0, "count_Mosses": 0, "count_Arachnids": 0, "count_Insects": 0, "count_Amphibians": 0, "count_Ferns": 0, "unique_species_count": 2.0, "countryCode": "TJ" }, "geometry": { "type": "MultiPolygon", "coordinates": [ [ [ [ 69.031974063348045, 41.001697086988969 ], [ 69.289922103048951, 40.554287725768162 ], [ 68.931744689639004, 40.102733538469757 ], [ 68.323030002491308, 40.097374493995048 ], [ 68.061214727816264, 40.543285363405502 ], [ 68.411980066345578, 40.996036032667647 ], [ 69.031974063348045, 41.001697086988969 ] ] ] ] } },
{ "type": "Feature", "properties": { "geogrid_id": "840552266070516881", "seqnum": 23235.0, "lat_c": 40.552265981429173, "lon_c": 70.516881431361256, "res": 8.0, "count_Flowering Plants": 21, "count_Mammals": 0, "count_Reptiles": 0, "count_Gymnosperms": 0, "count_Molluscs": 0, "count_Birds": 2, "count_Basidiomycota": 0, "count_Sac Fungi": 0, "count_Mosses": 0, "count_Arachnids": 0, "count_Insects": 5, "count_Amphibians": 0, "count_Ferns": 0, "unique_species_count": 28.0, "countryCode": "TJ" }, "geometry": { "type": "MultiPolygon", "coordinates": [ [ [ [ 70.889161440666214, 40.99872305179494 ], [ 71.129693317347801, 40.546444610360851 ], [ 70.755482843144662, 40.099763653748475 ], [ 70.147972523169344, 40.103901034120533 ], [ 69.903622096786833, 40.554889297983671 ], [ 70.270572594518427, 41.003007616265265 ], [ 70.889161440666214, 40.99872305179494 ] ] ] ] } },
{ "type": "Feature", "properties": { "geogrid_id": "841004009069651507", "seqnum": 23154.0, "lat_c": 41.004009332396237, "lon_c": 69.651507172182946, "res": 8.0, "count_Flowering Plants": 2, "count_Mammals": 0, "count_Reptiles": 0, "count_Gymnosperms": 1, "count_Molluscs": 0, "count_Birds": 0, "count_Basidiomycota": 0, "count_Sac Fungi": 0, "count_Mosses": 0, "count_Arachnids": 0, "count_Insects": 0, "count_Amphibians": 0, "count_Ferns": 0, "unique_species_count": 3.0, "countryCode": "TJ" }, "geometry": { "type": "MultiPolygon", "coordinates": [ [ [ [ 70.016944531249777, 41.451957110267784 ], [ 70.270572594518427, 41.003007616265265 ], [ 69.903622096786833, 40.554889297983671 ], [ 69.289922103048951, 40.554287725768162 ], [ 69.031974063348045, 41.001697086988969 ], [ 69.392029621873675, 41.451235529524965 ], [ 70.016944531249777, 41.451957110267784 ] ] ] ] } }
]
}
