{
"type": "FeatureCollection",
"name": "TM",
"crs": { "type": "name", "properties": { "name": "urn:ogc:def:crs:OGC:1.3:CRS84" } },
"features": [
{ "type": "Feature", "properties": { "geogrid_id": "835315308062224923", "seqnum": 22496.0, "lat_c": 35.31530847287209, "lon_c": 62.224922968165501, "res": 8.0, "count_Insects": 50, "count_Arachnids": 0, "count_Birds": 1, "count_Flowering Plants": 35, "count_Mammals": 3, "count_Reptiles": 0, "count_Sac Fungi": 0, "count_Basidiomycota": 1, "count_Gymnosperms": 0, "count_Molluscs": 0, "count_Ferns": 0, "unique_species_count": 90.0, "countryCode": "TM" }, "geometry": { "type": "MultiPolygon", "coordinates": [ [ [ [ 62.346274847711953, 35.785396283164062 ], [ 62.78111213104323, 35.348046560915193 ], [ 62.63059569813646, 34.87873549569975 ], [ 62.074432109418986, 34.845404151877112 ], [ 61.669041402681188, 35.28001322936808 ], [ 61.788740565065304, 35.750749045507824 ], [ 62.346274847711953, 35.785396283164062 ] ] ] ] } },
{ "type": "Feature", "properties": { "geogrid_id": "835713538061231797", "seqnum": 22415.0, "lat_c": 35.713537668833297, "lon_c": 61.231796744898269, "res": 8.0, "count_Insects": 12, "count_Arachnids": 0, "count_Birds": 0, "count_Flowering Plants": 1, "count_Mammals": 0, "count_Reptiles": 0, "count_Sac Fungi": 0, "count_Basidiomycota": 1, "count_Gymnosperms": 0, "count_Molluscs": 0, "count_Ferns": 0, "unique_species_count": 14.0, "countryCode": "TM" }, "geometry": { "type": "MultiPolygon", "coordinates": [ [ [ [ 61.577070151171043, 36.199905975480647 ], [ 61.788740565065304, 35.750749045507824 ], [ 61.669041402681188, 35.28001322936808 ], [ 61.113418780761045, 35.242166753414288 ], [ 60.675469084649691, 35.673768627786743 ], [ 61.015053162118939, 36.161519488374346 ], [ 61.577070151171043, 36.199905975480647 ] ] ] ] } },
{ "type": "Feature", "properties": { "geogrid_id": "835817473062904374", "seqnum": 22578.0, "lat_c": 35.817473135148688, "lon_c": 62.90437358923112, "res": 8.0, "count_Insects": 0, "count_Arachnids": 0, "count_Birds": 1, "count_Flowering Plants": 6, "count_Mammals": 0, "count_Reptiles": 0, "count_Sac Fungi": 0, "count_Basidiomycota": 0, "count_Gymnosperms": 0, "count_Molluscs": 0, "count_Ferns": 0, "unique_species_count": 7.0, "countryCode": "TM" }, "geometry": { "type": "MultiPolygon", "coordinates": [ [ [ [ 63.265007660548051, 36.29919509276769 ], [ 63.463010496156706, 35.846973586111361 ], [ 63.337636661704956, 35.378222285157648 ], [ 62.78111213104323, 35.348046560915193 ], [ 62.346274847711953, 35.785396283164062 ], [ 62.702012427036735, 36.268735657874167 ], [ 63.265007660548051, 36.29919509276769 ] ] ] ] } },
{ "type": "Feature", "properties": { "geogrid_id": "836235641062139375", "seqnum": 22497.0, "lat_c": 36.235641143740025, "lon_c": 62.139374880993856, "res": 8.0, "count_Insects": 15, "count_Arachnids": 0, "count_Birds": 1, "count_Flowering Plants": 11, "count_Mammals": 0, "count_Reptiles": 0, "count_Sac Fungi": 0, "count_Basidiomycota": 0, "count_Gymnosperms": 0, "count_Molluscs": 0, "count_Ferns": 0, "unique_species_count": 27.0, "countryCode": "TM" }, "geometry": { "type": "MultiPolygon", "coordinates": [ [ [ [ 62.46828944527163, 36.716068981239317 ], [ 62.702012427036735, 36.268735657874167 ], [ 62.346274847711953, 35.785396283164062 ], [ 61.788740565065304, 35.750749045507824 ], [ 61.577070151171043, 36.199905975480647 ], [ 61.899252303797212, 36.681375318011682 ], [ 62.46828944527163, 36.716068981239317 ] ] ] ] } },
{ "type": "Feature", "properties": { "geogrid_id": "836327022063828372", "seqnum": 22660.0, "lat_c": 36.327021851980767, "lon_c": 63.828371689526207, "res": 8.0, "count_Insects": 0, "count_Arachnids": 0, "count_Birds": 1, "count_Flowering Plants": 0, "count_Mammals": 0, "count_Reptiles": 0, "count_Sac Fungi": 0, "count_Basidiomycota": 0, "count_Gymnosperms": 0, "count_Molluscs": 0, "count_Ferns": 0, "unique_species_count": 1.0, "countryCode": "TM" }, "geometry": { "type": "MultiPolygon", "coordinates": [ [ [ [ 64.175625274705453, 36.803568873571209 ], [ 64.392105967589316, 36.352216318688072 ], [ 64.022159001849872, 35.873891855146503 ], [ 63.463010496156706, 35.846973586111361 ], [ 63.265007660548051, 36.29919509276769 ], [ 63.606413360382781, 36.777141468536847 ], [ 64.175625274705453, 36.803568873571209 ] ] ] ] } },
{ "type": "Feature", "properties": { "geogrid_id": "836643858061330102", "seqnum": 22416.0, "lat_c": 36.643858415040732, "lon_c": 61.330102061646073, "res": 8.0, "count_Insects": 0, "count_Arachnids": 0, "count_Birds": 2, "count_Flowering Plants": 3, "count_Mammals": 0, "count_Reptiles": 0, "count_Sac Fungi": 0, "count_Basidiomycota": 0, "count_Gymnosperms": 0, "count_Molluscs": 0, "count_Ferns": 0, "unique_species_count": 5.0, "countryCode": "TM" }, "geometry": { "type": "MultiPolygon", "coordinates": [ [ [ [ 61.634143496268322, 37.121768169789682 ], [ 61.899252303797212, 36.681375318011682 ], [ 61.577070151171043, 36.199905975480647 ], [ 61.015053162118939, 36.161519488374346 ], [ 60.760690451692966, 36.603455812095063 ], [ 61.057373584716558, 37.081779704708111 ], [ 61.634143496268322, 37.121768169789682 ] ] ] ] } },
{ "type": "Feature", "properties": { "geogrid_id": "836747981063037318", "seqnum": 22579.0, "lat_c": 36.747981449485337, "lon_c": 63.03731848573694, "res": 8.0, "count_Insects": 1, "count_Arachnids": 0, "count_Birds": 2, "count_Flowering Plants": 0, "count_Mammals": 0, "count_Reptiles": 0, "count_Sac Fungi": 0, "count_Basidiomycota": 0, "count_Gymnosperms": 0, "count_Molluscs": 0, "count_Ferns": 0, "unique_species_count": 3.0, "countryCode": "TM" }, "geometry": { "type": "MultiPolygon", "coordinates": [ [ [ [ 63.361842662572919, 37.223486167348071 ], [ 63.606413360382781, 36.777141468536847 ], [ 63.265007660548051, 36.29919509276769 ], [ 62.702012427036735, 36.268735657874167 ], [ 62.46828944527163, 36.716068981239317 ], [ 62.786236061469225, 37.192539362343737 ], [ 63.361842662572919, 37.223486167348071 ] ] ] ] } },
{ "type": "Feature", "properties": { "geogrid_id": "837038555060479856", "seqnum": 22335.0, "lat_c": 37.03855519168949, "lon_c": 60.479855743939432, "res": 8.0, "count_Insects": 14, "count_Arachnids": 0, "count_Birds": 3, "count_Flowering Plants": 4, "count_Mammals": 0, "count_Reptiles": 0, "count_Sac Fungi": 0, "count_Basidiomycota": 0, "count_Gymnosperms": 0, "count_Molluscs": 0, "count_Ferns": 0, "unique_species_count": 21.0, "countryCode": "TM" }, "geometry": { "type": "MultiPolygon", "coordinates": [ [ [ [ 60.765376448311507, 37.51352355544239 ], [ 61.057373584716558, 37.081779704708111 ], [ 60.760690451692966, 36.603455812095063 ], [ 60.190807715168823, 36.560072624064951 ], [ 59.901312212752885, 36.991897473340039 ], [ 60.179834488883692, 37.466821577189073 ], [ 60.765376448311507, 37.51352355544239 ] ] ] ] } },
{ "type": "Feature", "properties": { "geogrid_id": "837158656062210377", "seqnum": 22498.0, "lat_c": 37.15865621854114, "lon_c": 62.210377224409015, "res": 8.0, "count_Insects": 11, "count_Arachnids": 0, "count_Birds": 2, "count_Flowering Plants": 1, "count_Mammals": 0, "count_Reptiles": 2, "count_Sac Fungi": 0, "count_Basidiomycota": 0, "count_Gymnosperms": 0, "count_Molluscs": 0, "count_Ferns": 0, "unique_species_count": 16.0, "countryCode": "TM" }, "geometry": { "type": "MultiPolygon", "coordinates": [ [ [ [ 62.516426955878764, 37.632509950376708 ], [ 62.786236061469225, 37.192539362343737 ], [ 62.46828944527163, 36.716068981239317 ], [ 61.899252303797212, 36.681375318011682 ], [ 61.634143496268322, 37.121768169789682 ], [ 61.933468665924494, 37.596182604291592 ], [ 62.516426955878764, 37.632509950376708 ] ] ] ] } },
{ "type": "Feature", "properties": { "geogrid_id": "837215639055078265", "seqnum": 21847.0, "lat_c": 37.215639252801409, "lon_c": 55.078265381311653, "res": 8.0, "count_Insects": 0, "count_Arachnids": 0, "count_Birds": 1, "count_Flowering Plants": 0, "count_Mammals": 0, "count_Reptiles": 0, "count_Sac Fungi": 0, "count_Basidiomycota": 0, "count_Gymnosperms": 0, "count_Molluscs": 0, "count_Ferns": 0, "unique_species_count": 1.0, "countryCode": "TM" }, "geometry": { "type": "MultiPolygon", "coordinates": [ [ [ [ 55.311053934679521, 37.716049814409217 ], [ 55.67073283354798, 37.349252308757286 ], [ 55.434185003064442, 36.855083003356469 ], [ 54.865318161928691, 36.690103268365782 ], [ 54.511135822942542, 37.044031579248767 ], [ 54.719797839263052, 37.573753021645729 ], [ 55.311053934679521, 37.716049814409217 ] ] ] ] } },
{ "type": "Feature", "properties": { "geogrid_id": "837318735065663286", "seqnum": 22824.0, "lat_c": 37.318735169879801, "lon_c": 65.6632859813663, "res": 8.0, "count_Insects": 0, "count_Arachnids": 0, "count_Birds": 1, "count_Flowering Plants": 0, "count_Mammals": 0, "count_Reptiles": 0, "count_Sac Fungi": 0, "count_Basidiomycota": 0, "count_Gymnosperms": 0, "count_Molluscs": 0, "count_Ferns": 0, "unique_species_count": 1.0, "countryCode": "TM" }, "geometry": { "type": "MultiPolygon", "coordinates": [ [ [ [ 66.006624526304918, 37.786338887998397 ], [ 66.23862982488761, 37.335537993301642 ], [ 65.88424501221958, 36.866572555651182 ], [ 65.314524540613277, 36.848276473420917 ], [ 65.087967145256442, 37.299146981411837 ], [ 65.425446542503167, 37.768068702918576 ], [ 66.006624526304918, 37.786338887998397 ] ] ] ] } },
{ "type": "Feature", "properties": { "geogrid_id": "837396925054153612", "seqnum": 21766.0, "lat_c": 37.396924847677596, "lon_c": 54.153612264606593, "res": 8.0, "count_Insects": 2, "count_Arachnids": 0, "count_Birds": 3, "count_Flowering Plants": 0, "count_Mammals": 0, "count_Reptiles": 0, "count_Sac Fungi": 0, "count_Basidiomycota": 0, "count_Gymnosperms": 0, "count_Molluscs": 0, "count_Ferns": 0, "unique_species_count": 5.0, "countryCode": "TM" }, "geometry": { "type": "MultiPolygon", "coordinates": [ [ [ [ 54.358469919245103, 37.929935217855828 ], [ 54.719797839263052, 37.573753021645729 ], [ 54.511135822942542, 37.044031579248767 ], [ 53.818652801891247, 36.994530116368594 ], [ 53.455308996726778, 37.347602858061457 ], [ 53.792677122089778, 37.748764531457837 ], [ 54.358469919245103, 37.929935217855828 ] ] ] ] } },
{ "type": "Feature", "properties": { "geogrid_id": "837416164059592945", "seqnum": 22254.0, "lat_c": 37.416164096602067, "lon_c": 59.592944787512167, "res": 8.0, "count_Insects": 23, "count_Arachnids": 1, "count_Birds": 5, "count_Flowering Plants": 1, "count_Mammals": 0, "count_Reptiles": 0, "count_Sac Fungi": 0, "count_Basidiomycota": 0, "count_Gymnosperms": 0, "count_Molluscs": 0, "count_Ferns": 0, "unique_species_count": 30.0, "countryCode": "TM" }, "geometry": { "type": "MultiPolygon", "coordinates": [ [ [ [ 59.8654509601784, 37.888615385958182 ], [ 60.179834488883692, 37.466821577189073 ], [ 59.901312212752885, 36.991897473340039 ], [ 59.32137949883051, 36.941511722243213 ], [ 59.004378948561943, 37.361114844236781 ], [ 59.270880189429057, 37.833455566105435 ], [ 59.8654509601784, 37.888615385958182 ] ] ] ] } },
{ "type": "Feature", "properties": { "geogrid_id": "837556572061349846", "seqnum": 22417.0, "lat_c": 37.556572346201115, "lon_c": 61.349845989719014, "res": 8.0, "count_Insects": 4, "count_Arachnids": 0, "count_Birds": 5, "count_Flowering Plants": 2, "count_Mammals": 0, "count_Reptiles": 0, "count_Sac Fungi": 0, "count_Basidiomycota": 0, "count_Gymnosperms": 0, "count_Molluscs": 0, "count_Ferns": 0, "unique_species_count": 11.0, "countryCode": "TM" }, "geometry": { "type": "MultiPolygon", "coordinates": [ [ [ [ 61.641347349032621, 38.028623798374596 ], [ 61.933468665924494, 37.596182604291592 ], [ 61.634143496268322, 37.121768169789682 ], [ 61.057373584716558, 37.081779704708111 ], [ 60.765376448311507, 37.51352355544239 ], [ 61.050473347438128, 37.985856906026441 ], [ 61.641347349032621, 38.028623798374596 ] ] ] ] } },
{ "type": "Feature", "properties": { "geogrid_id": "837665669063098867", "seqnum": 22580.0, "lat_c": 37.665669241199161, "lon_c": 63.098867320249525, "res": 8.0, "count_Insects": 1, "count_Arachnids": 0, "count_Birds": 0, "count_Flowering Plants": 0, "count_Mammals": 0, "count_Reptiles": 0, "count_Sac Fungi": 0, "count_Basidiomycota": 0, "count_Gymnosperms": 0, "count_Molluscs": 0, "count_Ferns": 0, "unique_species_count": 1.0, "countryCode": "TM" }, "geometry": { "type": "MultiPolygon", "coordinates": [ [ [ [ 63.409418503409746, 38.135983381641616 ], [ 63.68090655197328, 37.695746561916884 ], [ 63.361842662572919, 37.223486167348071 ], [ 62.786236061469225, 37.192539362343737 ], [ 62.516426955878764, 37.632509950376708 ], [ 62.820685542516081, 38.103544229983093 ], [ 63.409418503409746, 38.135983381641616 ] ] ] ] } },
{ "type": "Feature", "properties": { "geogrid_id": "837746902064844132", "seqnum": 22743.0, "lat_c": 37.746901681005973, "lon_c": 64.844131709007911, "res": 8.0, "count_Insects": 0, "count_Arachnids": 0, "count_Birds": 2, "count_Flowering Plants": 2, "count_Mammals": 0, "count_Reptiles": 0, "count_Sac Fungi": 0, "count_Basidiomycota": 0, "count_Gymnosperms": 0, "count_Molluscs": 0, "count_Ferns": 0, "unique_species_count": 4.0, "countryCode": "TM" }, "geometry": { "type": "MultiPolygon", "coordinates": [ [ [ [ 65.173038817582238, 38.2143238363916 ], [ 65.425446542503167, 37.768068702918576 ], [ 65.087967145256442, 37.299146981411837 ], [ 64.512647534644955, 37.276757720181983 ], [ 64.26263714554274, 37.722807296457219 ], [ 64.585520375195699, 38.191305981560049 ], [ 65.173038817582238, 38.2143238363916 ] ] ] ] } },
{ "type": "Feature", "properties": { "geogrid_id": "837773250058674630", "seqnum": 22173.0, "lat_c": 37.773249607428902, "lon_c": 58.674630202391327, "res": 8.0, "count_Insects": 49, "count_Arachnids": 2, "count_Birds": 17, "count_Flowering Plants": 43, "count_Mammals": 1, "count_Reptiles": 2, "count_Sac Fungi": 0, "count_Basidiomycota": 5, "count_Gymnosperms": 0, "count_Molluscs": 1, "count_Ferns": 0, "unique_species_count": 120.0, "countryCode": "TM" }, "geometry": { "type": "MultiPolygon", "coordinates": [ [ [ [ 58.938445796019373, 38.244450200844902 ], [ 59.270880189429057, 37.833455566105435 ], [ 59.004378948561943, 37.361114844236781 ], [ 58.413763571786347, 37.301025983798468 ], [ 58.076495199318032, 37.707202518692284 ], [ 58.335474444467287, 38.17881818935561 ], [ 58.938445796019373, 38.244450200844902 ] ] ] ] } },
{ "type": "Feature", "properties": { "geogrid_id": "837801736066587697", "seqnum": 22906.0, "lat_c": 37.801736326054822, "lon_c": 66.587697450443684, "res": 8.0, "count_Insects": 1, "count_Arachnids": 0, "count_Birds": 2, "count_Flowering Plants": 7, "count_Mammals": 0, "count_Reptiles": 0, "count_Sac Fungi": 0, "count_Basidiomycota": 0, "count_Gymnosperms": 0, "count_Molluscs": 0, "count_Ferns": 0, "unique_species_count": 10.0, "countryCode": "TM" }, "geometry": { "type": "MultiPolygon", "coordinates": [ [ [ [ 66.934075952226905, 38.265351527039591 ], [ 67.168687897807288, 37.81428016506451 ], [ 66.814015229965676, 37.349567398981542 ], [ 66.23862982488761, 37.335537993301642 ], [ 66.006624526304918, 37.786338887998397 ], [ 66.347279618844908, 38.25131213514539 ], [ 66.934075952226905, 38.265351527039591 ] ] ] ] } },
{ "type": "Feature", "properties": { "geogrid_id": "837834867055912955", "seqnum": 21929.0, "lat_c": 37.834867063469069, "lon_c": 55.91295528743283, "res": 8.0, "count_Insects": 0, "count_Arachnids": 0, "count_Birds": 1, "count_Flowering Plants": 3, "count_Mammals": 0, "count_Reptiles": 0, "count_Sac Fungi": 0, "count_Basidiomycota": 0, "count_Gymnosperms": 0, "count_Molluscs": 0, "count_Ferns": 0, "unique_species_count": 4.0, "countryCode": "TM" }, "geometry": { "type": "MultiPolygon", "coordinates": [ [ [ [ 56.158863256281421, 38.316471242941319 ], [ 56.518736539412508, 37.93697632208594 ], [ 56.271717441749537, 37.458858625790384 ], [ 55.67073283354798, 37.349252308757286 ], [ 55.311053934679521, 37.716049814409217 ], [ 55.551013908506931, 38.206424744199147 ], [ 56.158863256281421, 38.316471242941319 ] ] ] ] } },
{ "type": "Feature", "properties": { "geogrid_id": "837939284060458574", "seqnum": 22336.0, "lat_c": 37.939283751021932, "lon_c": 60.458574449011266, "res": 8.0, "count_Insects": 0, "count_Arachnids": 0, "count_Birds": 1, "count_Flowering Plants": 0, "count_Mammals": 0, "count_Reptiles": 0, "count_Sac Fungi": 0, "count_Basidiomycota": 0, "count_Gymnosperms": 0, "count_Molluscs": 0, "count_Ferns": 0, "unique_species_count": 1.0, "countryCode": "TM" }, "geometry": { "type": "MultiPolygon", "coordinates": [ [ [ [ 60.738968415327435, 38.409852642166868 ], [ 61.050473347438128, 37.985856906026441 ], [ 60.765376448311507, 37.51352355544239 ], [ 60.179834488883692, 37.466821577189073 ], [ 59.8654509601784, 37.888615385958182 ], [ 60.140068761057748, 38.35940875154953 ], [ 60.738968415327435, 38.409852642166868 ] ] ] ] } },
{ "type": "Feature", "properties": { "geogrid_id": "838067799062231369", "seqnum": 22499.0, "lat_c": 38.067798963721337, "lon_c": 62.231369269094337, "res": 8.0, "count_Insects": 26, "count_Arachnids": 1, "count_Birds": 4, "count_Flowering Plants": 4, "count_Mammals": 0, "count_Reptiles": 2, "count_Sac Fungi": 0, "count_Basidiomycota": 1, "count_Gymnosperms": 1, "count_Molluscs": 0, "count_Ferns": 0, "unique_species_count": 39.0, "countryCode": "TM" }, "geometry": { "type": "MultiPolygon", "coordinates": [ [ [ [ 62.529738792055866, 38.537114198488005 ], [ 62.820685542516081, 38.103544229983093 ], [ 62.516426955878764, 37.632509950376708 ], [ 61.933468665924494, 37.596182604291592 ], [ 61.641347349032621, 38.028623798374596 ], [ 61.933669213442883, 38.498468782274983 ], [ 62.529738792055866, 38.537114198488005 ] ] ] ] } },
{ "type": "Feature", "properties": { "geogrid_id": "838079522054948717", "seqnum": 21848.0, "lat_c": 38.079522453091457, "lon_c": 54.948716862887238, "res": 8.0, "count_Insects": 0, "count_Arachnids": 0, "count_Birds": 2, "count_Flowering Plants": 0, "count_Mammals": 0, "count_Reptiles": 0, "count_Sac Fungi": 0, "count_Basidiomycota": 0, "count_Gymnosperms": 0, "count_Molluscs": 0, "count_Ferns": 0, "unique_species_count": 2.0, "countryCode": "TM" }, "geometry": { "type": "MultiPolygon", "coordinates": [ [ [ [ 55.186026302098462, 38.574391490559314 ], [ 55.551013908506931, 38.206424744199147 ], [ 55.311053934679521, 37.716049814409217 ], [ 54.719797839263052, 37.573753021645729 ], [ 54.358469919245103, 37.929935217855828 ], [ 54.583553233029733, 38.440322056268997 ], [ 55.186026302098462, 38.574391490559314 ] ] ] ] } },
{ "type": "Feature", "properties": { "geogrid_id": "838106640057731010", "seqnum": 22092.0, "lat_c": 38.106640312187473, "lon_c": 57.731010152033427, "res": 8.0, "count_Insects": 87, "count_Arachnids": 0, "count_Birds": 7, "count_Flowering Plants": 62, "count_Mammals": 12, "count_Reptiles": 2, "count_Sac Fungi": 1, "count_Basidiomycota": 9, "count_Gymnosperms": 0, "count_Molluscs": 0, "count_Ferns": 0, "unique_species_count": 180.0, "countryCode": "TM" }, "geometry": { "type": "MultiPolygon", "coordinates": [ [ [ [ 57.988986762455511, 38.578637120954227 ], [ 58.335474444467287, 38.17881818935561 ], [ 58.076495199318032, 37.707202518692284 ], [ 57.476378144281774, 37.63414367126127 ], [ 57.125233326837062, 38.0266438910011 ], [ 57.379191114115585, 38.500324739436856 ], [ 57.988986762455511, 38.578637120954227 ] ] ] ] } },
{ "type": "Feature", "properties": { "geogrid_id": "838165212063997669", "seqnum": 22662.0, "lat_c": 38.165212279809133, "lon_c": 63.997669226683911, "res": 8.0, "count_Insects": 22, "count_Arachnids": 0, "count_Birds": 1, "count_Flowering Plants": 0, "count_Mammals": 0, "count_Reptiles": 0, "count_Sac Fungi": 0, "count_Basidiomycota": 0, "count_Gymnosperms": 0, "count_Molluscs": 0, "count_Ferns": 0, "unique_species_count": 23.0, "countryCode": "TM" }, "geometry": { "type": "MultiPolygon", "coordinates": [ [ [ [ 64.314127956022844, 38.632249065480927 ], [ 64.585520375195699, 38.191305981560049 ], [ 64.26263714554274, 37.722807296457219 ], [ 63.68090655197328, 37.695746561916884 ], [ 63.409418503409746, 38.135983381641616 ], [ 63.719878410023085, 38.603891333418069 ], [ 64.314127956022844, 38.632249065480927 ] ] ] ] } },
{ "type": "Feature", "properties": { "geogrid_id": "838284464053994052", "seqnum": 21767.0, "lat_c": 38.284463889252855, "lon_c": 53.994051930315251, "res": 8.0, "count_Insects": 0, "count_Arachnids": 0, "count_Birds": 1, "count_Flowering Plants": 0, "count_Mammals": 0, "count_Reptiles": 0, "count_Sac Fungi": 0, "count_Basidiomycota": 0, "count_Gymnosperms": 0, "count_Molluscs": 0, "count_Ferns": 0, "unique_species_count": 1.0, "countryCode": "TM" }, "geometry": { "type": "MultiPolygon", "coordinates": [ [ [ [ 54.215382501786486, 38.798865380916659 ], [ 54.583553233029733, 38.440322056268997 ], [ 54.358469919245103, 37.929935217855828 ], [ 53.792677122089778, 37.748764531457837 ], [ 53.428258782469278, 38.099531468412202 ], [ 53.62636562980942, 38.637498753720976 ], [ 54.215382501786486, 38.798865380916659 ] ] ] ] } },
{ "type": "Feature", "properties": { "geogrid_id": "838304432059539942", "seqnum": 22255.0, "lat_c": 38.304432211364791, "lon_c": 59.539941616547004, "res": 8.0, "count_Insects": 0, "count_Arachnids": 0, "count_Birds": 1, "count_Flowering Plants": 0, "count_Mammals": 0, "count_Reptiles": 0, "count_Sac Fungi": 0, "count_Basidiomycota": 0, "count_Gymnosperms": 0, "count_Molluscs": 0, "count_Ferns": 0, "unique_species_count": 1.0, "countryCode": "TM" }, "geometry": { "type": "MultiPolygon", "coordinates": [ [ [ [ 59.812034252341142, 38.774302388843537 ], [ 60.140068761057748, 38.35940875154953 ], [ 59.8654509601784, 37.888615385958182 ], [ 59.270880189429057, 37.833455566105435 ], [ 58.938445796019373, 38.244450200844902 ], [ 59.205503121163645, 38.714794188024655 ], [ 59.812034252341142, 38.774302388843537 ] ] ] ] } },
{ "type": "Feature", "properties": { "geogrid_id": "838413553056768849", "seqnum": 22011.0, "lat_c": 38.413553084443642, "lon_c": 56.768849371210493, "res": 8.0, "count_Insects": 173, "count_Arachnids": 0, "count_Birds": 6, "count_Flowering Plants": 58, "count_Mammals": 3, "count_Reptiles": 1, "count_Sac Fungi": 1, "count_Basidiomycota": 2, "count_Gymnosperms": 0, "count_Molluscs": 0, "count_Ferns": 0, "unique_species_count": 244.0, "countryCode": "TM" }, "geometry": { "type": "MultiPolygon", "coordinates": [ [ [ [ 57.022150167704325, 38.889058663390081 ], [ 57.379191114115585, 38.500324739436856 ], [ 57.125233326837062, 38.0266438910011 ], [ 56.518736539412508, 37.93697632208594 ], [ 56.158863256281421, 38.316471242941319 ], [ 56.408069920002049, 38.795755890381486 ], [ 57.022150167704325, 38.889058663390081 ] ] ] ] } },
{ "type": "Feature", "properties": { "geogrid_id": "838456117061336788", "seqnum": 22418.0, "lat_c": 38.456116806998303, "lon_c": 61.336788316700627, "res": 8.0, "count_Insects": 0, "count_Arachnids": 0, "count_Birds": 1, "count_Flowering Plants": 0, "count_Mammals": 0, "count_Reptiles": 0, "count_Sac Fungi": 0, "count_Basidiomycota": 0, "count_Gymnosperms": 0, "count_Molluscs": 0, "count_Ferns": 0, "unique_species_count": 1.0, "countryCode": "TM" }, "geometry": { "type": "MultiPolygon", "coordinates": [ [ [ [ 61.62528955862993, 38.924670192431051 ], [ 61.933669213442883, 38.498468782274983 ], [ 61.641347349032621, 38.028623798374596 ], [ 61.050473347438128, 37.985856906026441 ], [ 60.738968415327435, 38.409852642166868 ], [ 61.021839564601848, 38.878881969832264 ], [ 61.62528955862993, 38.924670192431051 ] ] ] ] } },
{ "type": "Feature", "properties": { "geogrid_id": "838572213063125110", "seqnum": 22581.0, "lat_c": 38.572213075142322, "lon_c": 63.125109507011111, "res": 8.0, "count_Insects": 37, "count_Arachnids": 1, "count_Birds": 5, "count_Flowering Plants": 27, "count_Mammals": 3, "count_Reptiles": 6, "count_Sac Fungi": 0, "count_Basidiomycota": 0, "count_Gymnosperms": 0, "count_Molluscs": 0, "count_Ferns": 0, "unique_species_count": 79.0, "countryCode": "TM" }, "geometry": { "type": "MultiPolygon", "coordinates": [ [ [ [ 63.430949474849072, 39.038850462555864 ], [ 63.719878410023085, 38.603891333418069 ], [ 63.409418503409746, 38.135983381641616 ], [ 62.820685542516081, 38.103544229983093 ], [ 62.529738792055866, 38.537114198488005 ], [ 62.829757472126126, 39.004481044907266 ], [ 63.430949474849072, 39.038850462555864 ] ] ] ] } },
{ "type": "Feature", "properties": { "geogrid_id": "838649808058597812", "seqnum": 22174.0, "lat_c": 38.64980805775474, "lon_c": 58.597812247068845, "res": 8.0, "count_Insects": 1, "count_Arachnids": 0, "count_Birds": 2, "count_Flowering Plants": 0, "count_Mammals": 1, "count_Reptiles": 0, "count_Sac Fungi": 0, "count_Basidiomycota": 0, "count_Gymnosperms": 0, "count_Molluscs": 0, "count_Ferns": 0, "unique_species_count": 4.0, "countryCode": "TM" }, "geometry": { "type": "MultiPolygon", "coordinates": [ [ [ [ 58.86364029045437, 39.120199265774652 ], [ 59.205503121163645, 38.714794188024655 ], [ 58.938445796019373, 38.244450200844902 ], [ 58.335474444467287, 38.17881818935561 ], [ 57.988986762455511, 38.578637120954227 ], [ 58.250411208631583, 39.050126442983952 ], [ 58.86364029045437, 39.120199265774652 ] ] ] ] } },
{ "type": "Feature", "properties": { "geogrid_id": "838657367064907927", "seqnum": 22744.0, "lat_c": 38.657366564872952, "lon_c": 64.907927236434745, "res": 8.0, "count_Insects": 0, "count_Arachnids": 0, "count_Birds": 1, "count_Flowering Plants": 0, "count_Mammals": 0, "count_Reptiles": 0, "count_Sac Fungi": 0, "count_Basidiomycota": 0, "count_Gymnosperms": 0, "count_Molluscs": 0, "count_Ferns": 0, "unique_species_count": 1.0, "countryCode": "TM" }, "geometry": { "type": "MultiPolygon", "coordinates": [ [ [ [ 65.231212803417435, 39.121250557816971 ], [ 65.501333348147909, 38.679308785946212 ], [ 65.173038817582238, 38.2143238363916 ], [ 64.585520375195699, 38.191305981560049 ], [ 64.314127956022844, 38.632249065480927 ], [ 64.631617773155455, 39.097143701833687 ], [ 65.231212803417435, 39.121250557816971 ] ] ] ] } },
{ "type": "Feature", "properties": { "geogrid_id": "838691698055795363", "seqnum": 21930.0, "lat_c": 38.691698420473578, "lon_c": 55.795362853878743, "res": 8.0, "count_Insects": 8, "count_Arachnids": 0, "count_Birds": 3, "count_Flowering Plants": 5, "count_Mammals": 0, "count_Reptiles": 1, "count_Sac Fungi": 0, "count_Basidiomycota": 0, "count_Gymnosperms": 0, "count_Molluscs": 0, "count_Ferns": 0, "unique_species_count": 17.0, "countryCode": "TM" }, "geometry": { "type": "MultiPolygon", "coordinates": [ [ [ [ 56.043342920058116, 39.173931431382996 ], [ 56.408069920002049, 38.795755890381486 ], [ 56.158863256281421, 38.316471242941319 ], [ 55.551013908506931, 38.206424744199147 ], [ 55.186026302098462, 38.574391490559314 ], [ 55.428444577582212, 39.0633275039064 ], [ 56.043342920058116, 39.173931431382996 ] ] ] ] } },
{ "type": "Feature", "properties": { "geogrid_id": "838828863060417453", "seqnum": 22337.0, "lat_c": 38.828863484193619, "lon_c": 60.417452623773563, "res": 8.0, "count_Insects": 0, "count_Arachnids": 0, "count_Birds": 0, "count_Flowering Plants": 2, "count_Mammals": 0, "count_Reptiles": 0, "count_Sac Fungi": 0, "count_Basidiomycota": 0, "count_Gymnosperms": 0, "count_Molluscs": 0, "count_Ferns": 0, "unique_species_count": 2.0, "countryCode": "TM" }, "geometry": { "type": "MultiPolygon", "coordinates": [ [ [ [ 60.698020475275428, 39.297176339199467 ], [ 61.021839564601848, 38.878881969832264 ], [ 60.738968415327435, 38.409852642166868 ], [ 60.140068761057748, 38.35940875154953 ], [ 59.812034252341142, 38.774302388843537 ], [ 60.087465050913792, 39.243216607618564 ], [ 60.698020475275428, 39.297176339199467 ] ] ] ] } },
{ "type": "Feature", "properties": { "geogrid_id": "838939358054817969", "seqnum": 21849.0, "lat_c": 38.93935787390145, "lon_c": 54.817969388432289, "res": 8.0, "count_Insects": 5, "count_Arachnids": 0, "count_Birds": 1, "count_Flowering Plants": 1, "count_Mammals": 0, "count_Reptiles": 0, "count_Sac Fungi": 0, "count_Basidiomycota": 0, "count_Gymnosperms": 0, "count_Molluscs": 0, "count_Ferns": 0, "unique_species_count": 7.0, "countryCode": "TM" }, "geometry": { "type": "MultiPolygon", "coordinates": [ [ [ [ 55.058165591591816, 39.431852724163683 ], [ 55.428444577582212, 39.0633275039064 ], [ 55.186026302098462, 38.574391490559314 ], [ 54.583553233029733, 38.440322056268997 ], [ 54.215382501786486, 38.798865380916659 ], [ 54.446754459516988, 39.301738594712781 ], [ 55.058165591591816, 39.431852724163683 ] ] ] ] } },
{ "type": "Feature", "properties": { "geogrid_id": "838966472062227899", "seqnum": 22500.0, "lat_c": 38.966472259908748, "lon_c": 62.22789851307342, "res": 8.0, "count_Insects": 0, "count_Arachnids": 0, "count_Birds": 0, "count_Flowering Plants": 2, "count_Mammals": 0, "count_Reptiles": 0, "count_Sac Fungi": 0, "count_Basidiomycota": 0, "count_Gymnosperms": 0, "count_Molluscs": 0, "count_Ferns": 0, "unique_species_count": 2.0, "countryCode": "TM" }, "geometry": { "type": "MultiPolygon", "coordinates": [ [ [ [ 62.524750417860751, 39.432887223575584 ], [ 62.829757472126126, 39.004481044907266 ], [ 62.529738792055866, 38.537114198488005 ], [ 61.933669213442883, 38.498468782274983 ], [ 61.62528955862993, 38.924670192431051 ], [ 61.916604237062373, 39.391762815490743 ], [ 62.524750417860751, 39.432887223575584 ] ] ] ] } },
{ "type": "Feature", "properties": { "geogrid_id": "838973408057636472", "seqnum": 22093.0, "lat_c": 38.973408124878674, "lon_c": 57.636472222353937, "res": 8.0, "count_Insects": 4, "count_Arachnids": 0, "count_Birds": 0, "count_Flowering Plants": 0, "count_Mammals": 0, "count_Reptiles": 0, "count_Sac Fungi": 0, "count_Basidiomycota": 0, "count_Gymnosperms": 0, "count_Molluscs": 0, "count_Ferns": 0, "unique_species_count": 4.0, "countryCode": "TM" }, "geometry": { "type": "MultiPolygon", "coordinates": [ [ [ [ 57.897192929602568, 39.445927155225029 ], [ 58.250411208631583, 39.050126442983952 ], [ 57.988986762455511, 38.578637120954227 ], [ 57.379191114115585, 38.500324739436856 ], [ 57.022150167704325, 38.889058663390081 ], [ 57.278756091520108, 39.363719979143148 ], [ 57.897192929602568, 39.445927155225029 ] ] ] ] } },
{ "type": "Feature", "properties": { "geogrid_id": "839069704064031548", "seqnum": 22663.0, "lat_c": 39.069704462508462, "lon_c": 64.031548222476019, "res": 8.0, "count_Insects": 5, "count_Arachnids": 0, "count_Birds": 1, "count_Flowering Plants": 23, "count_Mammals": 0, "count_Reptiles": 0, "count_Sac Fungi": 0, "count_Basidiomycota": 0, "count_Gymnosperms": 0, "count_Molluscs": 0, "count_Ferns": 0, "unique_species_count": 29.0, "countryCode": "TM" }, "geometry": { "type": "MultiPolygon", "coordinates": [ [ [ [ 64.345328490611493, 39.533657852694304 ], [ 64.631617773155455, 39.097143701833687 ], [ 64.314127956022844, 38.632249065480927 ], [ 63.719878410023085, 38.603891333418069 ], [ 63.430949474849072, 39.038850462555864 ], [ 63.739056769259513, 39.503702054498611 ], [ 64.345328490611493, 39.533657852694304 ] ] ] ] } },
{ "type": "Feature", "properties": { "geogrid_id": "839155428053844034", "seqnum": 21768.0, "lat_c": 39.155427577292386, "lon_c": 53.844034311024146, "res": 8.0, "count_Insects": 2, "count_Arachnids": 0, "count_Birds": 0, "count_Flowering Plants": 15, "count_Mammals": 0, "count_Reptiles": 1, "count_Sac Fungi": 0, "count_Basidiomycota": 0, "count_Gymnosperms": 0, "count_Molluscs": 0, "count_Ferns": 0, "unique_species_count": 18.0, "countryCode": "TM" }, "geometry": { "type": "MultiPolygon", "coordinates": [ [ [ [ 54.072266414602595, 39.66183025770281 ], [ 54.446754459516988, 39.301738594712781 ], [ 54.215382501786486, 38.798865380916659 ], [ 53.62636562980942, 38.637498753720976 ], [ 53.255264518064145, 38.989134136823189 ], [ 53.469352709540381, 39.51019453641441 ], [ 54.072266414602595, 39.66183025770281 ] ] ] ] } },
{ "type": "Feature", "properties": { "geogrid_id": "839273488056660545", "seqnum": 22012.0, "lat_c": 39.273487640954876, "lon_c": 56.660544881339447, "res": 8.0, "count_Insects": 9, "count_Arachnids": 0, "count_Birds": 4, "count_Flowering Plants": 2, "count_Mammals": 0, "count_Reptiles": 0, "count_Sac Fungi": 0, "count_Basidiomycota": 0, "count_Gymnosperms": 0, "count_Molluscs": 0, "count_Ferns": 0, "unique_species_count": 15.0, "countryCode": "TM" }, "geometry": { "type": "MultiPolygon", "coordinates": [ [ [ [ 56.916357903434196, 39.750061204182849 ], [ 57.278756091520108, 39.363719979143148 ], [ 57.022150167704325, 38.889058663390081 ], [ 56.408069920002049, 38.795755890381486 ], [ 56.043342920058116, 39.173931431382996 ], [ 56.294757414592794, 39.654128708529278 ], [ 56.916357903434196, 39.750061204182849 ] ] ] ] } },
{ "type": "Feature", "properties": { "geogrid_id": "839339426052880622", "seqnum": 21687.0, "lat_c": 39.339425716616276, "lon_c": 52.880621955621649, "res": 8.0, "count_Insects": 0, "count_Arachnids": 0, "count_Birds": 1, "count_Flowering Plants": 0, "count_Mammals": 1, "count_Reptiles": 0, "count_Sac Fungi": 0, "count_Basidiomycota": 0, "count_Gymnosperms": 0, "count_Molluscs": 0, "count_Ferns": 0, "unique_species_count": 2.0, "countryCode": "TM" }, "geometry": { "type": "MultiPolygon", "coordinates": [ [ [ [ 53.091195002380303, 39.863293633319451 ], [ 53.469352709540381, 39.51019453641441 ], [ 53.255264518064145, 38.989134136823189 ], [ 52.6886797117903, 38.797767247764902 ], [ 52.313369354965857, 39.145194506022044 ], [ 52.502323918436474, 39.68840501970007 ], [ 53.091195002380303, 39.863293633319451 ] ] ] ] } },
{ "type": "Feature", "properties": { "geogrid_id": "839470152063132215", "seqnum": 22582.0, "lat_c": 39.4701517253446, "lon_c": 63.132215138910368, "res": 8.0, "count_Insects": 5, "count_Arachnids": 0, "count_Birds": 1, "count_Flowering Plants": 0, "count_Mammals": 0, "count_Reptiles": 0, "count_Sac Fungi": 0, "count_Basidiomycota": 0, "count_Gymnosperms": 0, "count_Molluscs": 0, "count_Ferns": 0, "unique_species_count": 6.0, "countryCode": "TM" }, "geometry": { "type": "MultiPolygon", "coordinates": [ [ [ [ 63.437675682322997, 39.934308261935129 ], [ 63.739056769259513, 39.503702054498611 ], [ 63.430949474849072, 39.038850462555864 ], [ 62.829757472126126, 39.004481044907266 ], [ 62.524750417860751, 39.432887223575584 ], [ 62.824731243527296, 39.897891644363952 ], [ 63.437675682322997, 39.934308261935129 ] ] ] ] } },
{ "type": "Feature", "properties": { "geogrid_id": "839521100058515390", "seqnum": 22175.0, "lat_c": 39.521099987450782, "lon_c": 58.515390206585643, "res": 8.0, "count_Insects": 0, "count_Arachnids": 0, "count_Birds": 1, "count_Flowering Plants": 0, "count_Mammals": 1, "count_Reptiles": 0, "count_Sac Fungi": 0, "count_Basidiomycota": 0, "count_Gymnosperms": 0, "count_Molluscs": 0, "count_Ferns": 0, "unique_species_count": 2.0, "countryCode": "TM" }, "geometry": { "type": "MultiPolygon", "coordinates": [ [ [ [ 58.784034107549715, 39.991548798373863 ], [ 59.133082066938968, 39.590003513189004 ], [ 58.86364029045437, 39.120199265774652 ], [ 58.250411208631583, 39.050126442983952 ], [ 57.897192929602568, 39.445927155225029 ], [ 58.161468790504664, 39.917897033644167 ], [ 58.784034107549715, 39.991548798373863 ] ] ] ] } },
{ "type": "Feature", "properties": { "geogrid_id": "839548603055674892", "seqnum": 21931.0, "lat_c": 39.548603036291851, "lon_c": 55.674891795369618, "res": 8.0, "count_Insects": 69, "count_Arachnids": 0, "count_Birds": 2, "count_Flowering Plants": 2, "count_Mammals": 0, "count_Reptiles": 0, "count_Sac Fungi": 0, "count_Basidiomycota": 0, "count_Gymnosperms": 1, "count_Molluscs": 0, "count_Ferns": 0, "unique_species_count": 74.0, "countryCode": "TM" }, "geometry": { "type": "MultiPolygon", "coordinates": [ [ [ [ 55.924999001703078, 40.031396144027568 ], [ 56.294757414592794, 39.654128708529278 ], [ 56.043342920058116, 39.173931431382996 ], [ 55.428444577582212, 39.0633275039064 ], [ 55.058165591591816, 39.431852724163683 ], [ 55.30280911130798, 39.920176399681687 ], [ 55.924999001703078, 40.031396144027568 ] ] ] ] } },
{ "type": "Feature", "properties": { "geogrid_id": "839711266060366463", "seqnum": 22338.0, "lat_c": 39.711266300151529, "lon_c": 60.366462567593807, "res": 8.0, "count_Insects": 0, "count_Arachnids": 0, "count_Birds": 3, "count_Flowering Plants": 3, "count_Mammals": 0, "count_Reptiles": 7, "count_Sac Fungi": 0, "count_Basidiomycota": 0, "count_Gymnosperms": 0, "count_Molluscs": 0, "count_Ferns": 0, "unique_species_count": 13.0, "countryCode": "TM" }, "geometry": { "type": "MultiPolygon", "coordinates": [ [ [ [ 60.649215322694381, 40.17850803483271 ], [ 60.982071463325994, 39.764472704039918 ], [ 60.698020475275428, 39.297176339199467 ], [ 60.087465050913792, 39.243216607618564 ], [ 59.750127384779681, 39.65323513688778 ], [ 60.028010087738664, 40.121411952557786 ], [ 60.649215322694381, 40.17850803483271 ] ] ] ] } },
{ "type": "Feature", "properties": { "geogrid_id": "839797643054684503", "seqnum": 21850.0, "lat_c": 39.797643260681483, "lon_c": 54.684502810894124, "res": 8.0, "count_Insects": 9, "count_Arachnids": 0, "count_Birds": 2, "count_Flowering Plants": 27, "count_Mammals": 2, "count_Reptiles": 0, "count_Sac Fungi": 0, "count_Basidiomycota": 0, "count_Gymnosperms": 1, "count_Molluscs": 0, "count_Ferns": 1, "unique_species_count": 42.0, "countryCode": "TM" }, "geometry": { "type": "MultiPolygon", "coordinates": [ [ [ [ 54.927109438458153, 40.288968030606917 ], [ 55.30280911130798, 39.920176399681687 ], [ 55.058165591591816, 39.431852724163683 ], [ 54.446754459516988, 39.301738594712781 ], [ 54.072266414602595, 39.66183025770281 ], [ 54.30739020257041, 40.160977800450574 ], [ 54.927109438458153, 40.288968030606917 ] ] ] ] } },
{ "type": "Feature", "properties": { "geogrid_id": "839857563062211174", "seqnum": 22501.0, "lat_c": 39.857562700225365, "lon_c": 62.211174142434331, "res": 8.0, "count_Insects": 2, "count_Arachnids": 0, "count_Birds": 2, "count_Flowering Plants": 0, "count_Mammals": 0, "count_Reptiles": 0, "count_Sac Fungi": 0, "count_Basidiomycota": 0, "count_Gymnosperms": 0, "count_Molluscs": 0, "count_Ferns": 0, "unique_species_count": 4.0, "countryCode": "TM" }, "geometry": { "type": "MultiPolygon", "coordinates": [ [ [ [ 62.509334723925207, 40.322186391330206 ], [ 62.824731243527296, 39.897891644363952 ], [ 62.524750417860751, 39.432887223575584 ], [ 61.916604237062373, 39.391762815490743 ], [ 61.596966070013934, 39.813156489063715 ], [ 61.88987875661104, 40.278654183487127 ], [ 62.509334723925207, 40.322186391330206 ] ] ] ] } },
{ "type": "Feature", "properties": { "geogrid_id": "840019848053694381", "seqnum": 21769.0, "lat_c": 40.019848046482515, "lon_c": 53.694381096719653, "res": 8.0, "count_Insects": 0, "count_Arachnids": 0, "count_Birds": 0, "count_Flowering Plants": 1, "count_Mammals": 0, "count_Reptiles": 0, "count_Sac Fungi": 0, "count_Basidiomycota": 0, "count_Gymnosperms": 0, "count_Molluscs": 0, "count_Ferns": 0, "unique_species_count": 1.0, "countryCode": "TM" }, "geometry": { "type": "MultiPolygon", "coordinates": [ [ [ [ 53.926738665548797, 40.522068494681115 ], [ 54.30739020257041, 40.160977800450574 ], [ 54.072266414602595, 39.66183025770281 ], [ 53.469352709540381, 39.51019453641441 ], [ 53.091195002380303, 39.863293633319451 ], [ 53.312972871414921, 40.375949615333688 ], [ 53.926738665548797, 40.522068494681115 ] ] ] ] } },
{ "type": "Feature", "properties": { "geogrid_id": "840214813052709429", "seqnum": 21688.0, "lat_c": 40.214812539951268, "lon_c": 52.709429317092408, "res": 8.0, "count_Insects": 20, "count_Arachnids": 1, "count_Birds": 4, "count_Flowering Plants": 4, "count_Mammals": 0, "count_Reptiles": 1, "count_Sac Fungi": 0, "count_Basidiomycota": 0, "count_Gymnosperms": 0, "count_Molluscs": 0, "count_Ferns": 0, "unique_species_count": 30.0, "countryCode": "TM" }, "geometry": { "type": "MultiPolygon", "coordinates": [ [ [ [ 52.927917741489935, 40.730251040294853 ], [ 53.312972871414921, 40.375949615333688 ], [ 53.091195002380303, 39.863293633319451 ], [ 52.502323918436474, 39.68840501970007 ], [ 52.120264470642397, 40.03608773781891 ], [ 52.323932177659771, 40.564811154219548 ], [ 52.927917741489935, 40.730251040294853 ] ] ] ] } },
{ "type": "Feature", "properties": { "geogrid_id": "840389323058429417", "seqnum": 22176.0, "lat_c": 40.389323323422708, "lon_c": 58.429416604934801, "res": 8.0, "count_Insects": 1, "count_Arachnids": 0, "count_Birds": 2, "count_Flowering Plants": 0, "count_Mammals": 3, "count_Reptiles": 4, "count_Sac Fungi": 0, "count_Basidiomycota": 0, "count_Gymnosperms": 0, "count_Molluscs": 0, "count_Ferns": 0, "unique_species_count": 10.0, "countryCode": "TM" }, "geometry": { "type": "MultiPolygon", "coordinates": [ [ [ [ 58.701155564260041, 40.860205850221391 ], [ 59.056457057385103, 40.461463224072624 ], [ 58.784034107549715, 39.991548798373863 ], [ 58.161468790504664, 39.917897033644167 ], [ 57.802368143274727, 40.310939889638057 ], [ 58.069618924083841, 40.783605786813744 ], [ 58.701155564260041, 40.860205850221391 ] ] ] ] } },
{ "type": "Feature", "properties": { "geogrid_id": "840588918060309796", "seqnum": 22339.0, "lat_c": 40.588917745144556, "lon_c": 60.309796491760956, "res": 8.0, "count_Insects": 3, "count_Arachnids": 0, "count_Birds": 4, "count_Flowering Plants": 0, "count_Mammals": 0, "count_Reptiles": 1, "count_Sac Fungi": 0, "count_Basidiomycota": 0, "count_Gymnosperms": 0, "count_Molluscs": 0, "count_Ferns": 0, "unique_species_count": 8.0, "countryCode": "TM" }, "geometry": { "type": "MultiPolygon", "coordinates": [ [ [ [ 60.595623773861718, 41.055758885913093 ], [ 60.935890719811638, 40.644976593347273 ], [ 60.649215322694381, 40.17850803483271 ], [ 60.028010087738664, 40.121411952557786 ], [ 59.683292497790347, 40.527858653401232 ], [ 59.964307018645556, 40.995902074965279 ], [ 60.595623773861718, 41.055758885913093 ] ] ] ] } },
{ "type": "Feature", "properties": { "geogrid_id": "840655226054547760", "seqnum": 21851.0, "lat_c": 40.655226284791446, "lon_c": 54.547759984517477, "res": 8.0, "count_Insects": 0, "count_Arachnids": 1, "count_Birds": 4, "count_Flowering Plants": 5, "count_Mammals": 0, "count_Reptiles": 1, "count_Sac Fungi": 0, "count_Basidiomycota": 0, "count_Gymnosperms": 0, "count_Molluscs": 0, "count_Ferns": 0, "unique_species_count": 11.0, "countryCode": "TM" }, "geometry": { "type": "MultiPolygon", "coordinates": [ [ [ [ 54.792600707733527, 41.145973356203733 ], [ 55.173910812373158, 40.777076257106707 ], [ 54.927109438458153, 40.288968030606917 ], [ 54.30739020257041, 40.160977800450574 ], [ 53.926738665548797, 40.522068494681115 ], [ 54.164698738718215, 41.019146929003028 ], [ 54.792600707733527, 41.145973356203733 ] ] ] ] } },
{ "type": "Feature", "properties": { "geogrid_id": "840700531057438422", "seqnum": 22095.0, "lat_c": 40.700530685368129, "lon_c": 57.438422160787802, "res": 8.0, "count_Insects": 1, "count_Arachnids": 0, "count_Birds": 3, "count_Flowering Plants": 0, "count_Mammals": 0, "count_Reptiles": 0, "count_Sac Fungi": 0, "count_Basidiomycota": 0, "count_Gymnosperms": 0, "count_Molluscs": 0, "count_Ferns": 0, "unique_species_count": 4.0, "countryCode": "TM" }, "geometry": { "type": "MultiPolygon", "coordinates": [ [ [ [ 57.704910805460031, 41.174640482929377 ], [ 58.069618924083841, 40.783605786813744 ], [ 57.802368143274727, 40.310939889638057 ], [ 57.175611798611499, 40.225698196276291 ], [ 56.807930685929193, 40.610369692951437 ], [ 57.069851393685347, 41.08692919426295 ], [ 57.704910805460031, 41.174640482929377 ] ] ] ] } },
{ "type": "Feature", "properties": { "geogrid_id": "840743162062186688", "seqnum": 22502.0, "lat_c": 40.743161696187023, "lon_c": 62.186688471144613, "res": 8.0, "count_Insects": 0, "count_Arachnids": 0, "count_Birds": 1, "count_Flowering Plants": 0, "count_Mammals": 0, "count_Reptiles": 0, "count_Sac Fungi": 0, "count_Basidiomycota": 0, "count_Gymnosperms": 0, "count_Molluscs": 0, "count_Ferns": 0, "unique_species_count": 1.0, "countryCode": "TM" }, "geometry": { "type": "MultiPolygon", "coordinates": [ [ [ [ 62.487601096555807, 41.206725546040879 ], [ 62.811357964013453, 40.785715263199059 ], [ 62.509334723925207, 40.322186391330206 ], [ 61.88987875661104, 40.278654183487127 ], [ 61.561529405587258, 40.696313789157379 ], [ 61.85731619589734, 41.160946048973329 ], [ 62.487601096555807, 41.206725546040879 ] ] ] ] } },
{ "type": "Feature", "properties": { "geogrid_id": "841110692061226645", "seqnum": 22421.0, "lat_c": 41.110692440867545, "lon_c": 61.226645131788025, "res": 8.0, "count_Insects": 0, "count_Arachnids": 0, "count_Birds": 1, "count_Flowering Plants": 0, "count_Mammals": 0, "count_Reptiles": 0, "count_Sac Fungi": 0, "count_Basidiomycota": 0, "count_Gymnosperms": 0, "count_Molluscs": 0, "count_Ferns": 0, "unique_species_count": 1.0, "countryCode": "TM" }, "geometry": { "type": "MultiPolygon", "coordinates": [ [ [ [ 61.521629645218155, 41.575666194008839 ], [ 61.85731619589734, 41.160946048973329 ], [ 61.561529405587258, 40.696313789157379 ], [ 60.935890719811638, 40.644976593347273 ], [ 60.595623773861718, 41.055758885913093 ], [ 60.885628809683865, 41.521935717370688 ], [ 61.521629645218155, 41.575666194008839 ] ] ] ] } },
{ "type": "Feature", "properties": { "geogrid_id": "841255678058340665", "seqnum": 22177.0, "lat_c": 41.255677795002526, "lon_c": 58.340665126649476, "res": 8.0, "count_Insects": 0, "count_Arachnids": 0, "count_Birds": 0, "count_Flowering Plants": 0, "count_Mammals": 1, "count_Reptiles": 0, "count_Sac Fungi": 0, "count_Basidiomycota": 0, "count_Gymnosperms": 0, "count_Molluscs": 0, "count_Ferns": 0, "unique_species_count": 1.0, "countryCode": "TM" }, "geometry": { "type": "MultiPolygon", "coordinates": [ [ [ [ 58.615633938620562, 41.727167674104308 ], [ 58.976807981475872, 41.330540700830802 ], [ 58.701155564260041, 40.860205850221391 ], [ 58.069618924083841, 40.783605786813744 ], [ 57.704910805460031, 41.174640482929377 ], [ 57.975203689818734, 41.648079279156676 ], [ 58.615633938620562, 41.727167674104308 ] ] ] ] } },
{ "type": "Feature", "properties": { "geogrid_id": "841463346060249429", "seqnum": 22340.0, "lat_c": 41.463346280073551, "lon_c": 60.249429418798762, "res": 8.0, "count_Insects": 0, "count_Arachnids": 0, "count_Birds": 6, "count_Flowering Plants": 0, "count_Mammals": 0, "count_Reptiles": 0, "count_Sac Fungi": 0, "count_Basidiomycota": 0, "count_Gymnosperms": 0, "count_Molluscs": 0, "count_Ferns": 0, "unique_species_count": 6.0, "countryCode": "TM" }, "geometry": { "type": "MultiPolygon", "coordinates": [ [ [ [ 60.538790329016116, 41.930181350634555 ], [ 60.885628809683865, 41.521935717370688 ], [ 60.595623773861718, 41.055758885913093 ], [ 59.964307018645556, 40.995902074965279 ], [ 59.613116669743668, 41.399646639039723 ], [ 59.897602139347633, 41.867892546578958 ], [ 60.538790329016116, 41.930181350634555 ] ] ] ] } },
{ "type": "Feature", "properties": { "geogrid_id": "841562640057335473", "seqnum": 22096.0, "lat_c": 41.56264035259187, "lon_c": 57.335473254685006, "res": 8.0, "count_Insects": 0, "count_Arachnids": 0, "count_Birds": 2, "count_Flowering Plants": 0, "count_Mammals": 0, "count_Reptiles": 0, "count_Sac Fungi": 0, "count_Basidiomycota": 0, "count_Gymnosperms": 0, "count_Molluscs": 0, "count_Ferns": 0, "unique_species_count": 2.0, "countryCode": "TM" }, "geometry": { "type": "MultiPolygon", "coordinates": [ [ [ [ 57.604918324227043, 42.037586717584233 ], [ 57.975203689818734, 41.648079279156676 ], [ 57.704910805460031, 41.174640482929377 ], [ 57.069851393685347, 41.08692919426295 ], [ 56.696794129119098, 41.470357992667672 ], [ 56.961420712810082, 41.947790251658375 ], [ 57.604918324227043, 42.037586717584233 ] ] ] ] } },
{ "type": "Feature", "properties": { "geogrid_id": "841740562053387108", "seqnum": 21771.0, "lat_c": 41.740562101725345, "lon_c": 53.387108134337808, "res": 8.0, "count_Insects": 0, "count_Arachnids": 0, "count_Birds": 1, "count_Flowering Plants": 0, "count_Mammals": 0, "count_Reptiles": 0, "count_Sac Fungi": 0, "count_Basidiomycota": 0, "count_Gymnosperms": 0, "count_Molluscs": 0, "count_Ferns": 0, "unique_species_count": 1.0, "countryCode": "TM" }, "geometry": { "type": "MultiPolygon", "coordinates": [ [ [ [ 53.625042464183622, 42.238916581434431 ], [ 54.018238595839939, 41.876765259213272 ], [ 53.777845413452951, 41.380884722592349 ], [ 53.154406880270272, 41.238130423247014 ], [ 52.762507928092482, 41.59332209632457 ], [ 52.992387570345258, 42.09827574748352 ], [ 53.625042464183622, 42.238916581434431 ] ] ] ] } },
{ "type": "Feature", "properties": { "geogrid_id": "841800321059256500", "seqnum": 22259.0, "lat_c": 41.800321310931452, "lon_c": 59.256499803313112, "res": 8.0, "count_Insects": 0, "count_Arachnids": 0, "count_Birds": 1, "count_Flowering Plants": 0, "count_Mammals": 0, "count_Reptiles": 0, "count_Sac Fungi": 0, "count_Basidiomycota": 0, "count_Gymnosperms": 0, "count_Molluscs": 0, "count_Ferns": 0, "unique_species_count": 1.0, "countryCode": "TM" }, "geometry": { "type": "MultiPolygon", "coordinates": [ [ [ [ 59.540361004779648, 42.269539083376863 ], [ 59.897602139347633, 41.867892546578958 ], [ 59.613116669743668, 41.399646639039723 ], [ 58.976807981475872, 41.330540700830802 ], [ 58.615633938620562, 41.727167674104308 ], [ 58.894655725992529, 42.198080099515721 ], [ 59.540361004779648, 42.269539083376863 ] ] ] ] } },
{ "type": "Feature", "properties": { "geogrid_id": "842120880058249430", "seqnum": 22178.0, "lat_c": 42.12087968248548, "lon_c": 58.249430402273589, "res": 8.0, "count_Insects": 0, "count_Arachnids": 0, "count_Birds": 1, "count_Flowering Plants": 0, "count_Mammals": 0, "count_Reptiles": 0, "count_Sac Fungi": 0, "count_Basidiomycota": 0, "count_Gymnosperms": 0, "count_Molluscs": 0, "count_Ferns": 0, "unique_species_count": 1.0, "countryCode": "TM" }, "geometry": { "type": "MultiPolygon", "coordinates": [ [ [ [ 58.527724219745053, 42.593061609808657 ], [ 58.894655725992529, 42.198080099515721 ], [ 58.615633938620562, 41.727167674104308 ], [ 57.975203689818734, 41.648079279156676 ], [ 57.604918324227043, 42.037586717584233 ], [ 57.878315116371034, 42.511824127837883 ], [ 58.527724219745053, 42.593061609808657 ] ] ] ] } },
{ "type": "Feature", "properties": { "geogrid_id": "842335558060186365", "seqnum": 22341.0, "lat_c": 42.335557831195409, "lon_c": 60.186364646852368, "res": 8.0, "count_Insects": 0, "count_Arachnids": 0, "count_Birds": 1, "count_Flowering Plants": 0, "count_Mammals": 0, "count_Reptiles": 0, "count_Sac Fungi": 0, "count_Basidiomycota": 0, "count_Gymnosperms": 0, "count_Molluscs": 0, "count_Ferns": 0, "unique_species_count": 1.0, "countryCode": "TM" }, "geometry": { "type": "MultiPolygon", "coordinates": [ [ [ [ 60.479539978909514, 42.802628839871105 ], [ 60.832524441137835, 42.396395733310904 ], [ 60.538790329016116, 41.930181350634555 ], [ 59.897602139347633, 41.867892546578958 ], [ 59.540361004779648, 42.269539083376863 ], [ 59.828525919465818, 42.738183749247177 ], [ 60.479539978909514, 42.802628839871105 ] ] ] ] } },
{ "type": "Feature", "properties": { "geogrid_id": "842668415059177865", "seqnum": 22260.0, "lat_c": 42.668414755233478, "lon_c": 59.177864553190801, "res": 8.0, "count_Insects": 1, "count_Arachnids": 0, "count_Birds": 1, "count_Flowering Plants": 0, "count_Mammals": 0, "count_Reptiles": 0, "count_Sac Fungi": 0, "count_Basidiomycota": 0, "count_Gymnosperms": 0, "count_Molluscs": 0, "count_Ferns": 0, "unique_species_count": 2.0, "countryCode": "TM" }, "geometry": { "type": "MultiPolygon", "coordinates": [ [ [ [ 59.46539862304283, 43.138167617510554 ], [ 59.828525919465818, 42.738183749247177 ], [ 59.540361004779648, 42.269539083376863 ], [ 58.894655725992529, 42.198080099515721 ], [ 58.527724219745053, 42.593061609808657 ], [ 58.810222368008993, 43.064636152668704 ], [ 59.46539862304283, 43.138167617510554 ] ] ] ] } }
]
}
