{
"type": "FeatureCollection",
"name": "TN",
"crs": { "type": "name", "properties": { "name": "urn:ogc:def:crs:OGC:1.3:CRS84" } },
"features": [
{ "type": "Feature", "properties": { "geogrid_id": "830004154009656903", "seqnum": 14722.0, "lat_c": 30.004154474272163, "lon_c": 9.656902871531166, "res": 8.0, "count_Reptiles": 0, "count_Molluscs": 0, "count_Basidiomycota": 0, "count_Mammals": 0, "count_Insects": 0, "count_Gymnosperms": 0, "count_Flowering Plants": 1, "count_Amphibians": 0, "count_Arachnids": 0, "count_Birds": 0, "count_Sac Fungi": 0, "count_Mosses": 0, "count_Ferns": 0, "unique_species_count": 1.0, "countryCode": "TN" }, "geometry": { "type": "MultiPolygon", "coordinates": [ [ [ [ 10.185113025315179, 30.163398545330224 ], [ 10.189759407312675, 29.707263727049824 ], [ 9.66399991330284, 29.546650015768062 ], [ 9.132342698073257, 29.832381268206589 ], [ 9.122568005324384, 30.291305381183594 ], [ 9.649704018497474, 30.461580863266835 ], [ 10.185113025315179, 30.163398545330224 ] ] ] ] } },
{ "type": "Feature", "properties": { "geogrid_id": "830619563010180386", "seqnum": 14723.0, "lat_c": 30.619562701681904, "lon_c": 10.180385891714634, "res": 8.0, "count_Reptiles": 0, "count_Molluscs": 2, "count_Basidiomycota": 0, "count_Mammals": 0, "count_Insects": 0, "count_Gymnosperms": 0, "count_Flowering Plants": 1, "count_Amphibians": 0, "count_Arachnids": 0, "count_Birds": 0, "count_Sac Fungi": 0, "count_Mosses": 0, "count_Ferns": 0, "unique_species_count": 3.0, "countryCode": "TN" }, "geometry": { "type": "MultiPolygon", "coordinates": [ [ [ [ 10.714071600206251, 30.763331419244114 ], [ 10.716412699133921, 30.308052675557622 ], [ 10.185113025315179, 30.163398545330224 ], [ 9.649704018497474, 30.461580863266835 ], [ 9.642394549643344, 30.918960872015127 ], [ 10.175573881458947, 31.075777139658307 ], [ 10.714071600206251, 30.763331419244114 ] ] ] ] } },
{ "type": "Feature", "properties": { "geogrid_id": "831376323009634967", "seqnum": 14642.0, "lat_c": 31.37632277396877, "lon_c": 9.6349665994485498, "res": 8.0, "count_Reptiles": 0, "count_Molluscs": 0, "count_Basidiomycota": 0, "count_Mammals": 0, "count_Insects": 0, "count_Gymnosperms": 0, "count_Flowering Plants": 3, "count_Amphibians": 0, "count_Arachnids": 0, "count_Birds": 1, "count_Sac Fungi": 0, "count_Mosses": 0, "count_Ferns": 0, "unique_species_count": 4.0, "countryCode": "TN" }, "geometry": { "type": "MultiPolygon", "coordinates": [ [ [ [ 10.170673188141976, 31.532060785658039 ], [ 10.175573881458947, 31.075777139658307 ], [ 9.642394549643344, 30.918960872015127 ], [ 9.102635864981584, 31.208739199163784 ], [ 9.092452943918808, 31.667319550304441 ], [ 9.627413016782855, 31.833692008496925 ], [ 10.170673188141976, 31.532060785658039 ] ] ] ] } },
{ "type": "Feature", "properties": { "geogrid_id": "831988431010165680", "seqnum": 14643.0, "lat_c": 31.988430916324145, "lon_c": 10.165680235849877, "res": 8.0, "count_Reptiles": 0, "count_Molluscs": 0, "count_Basidiomycota": 0, "count_Mammals": 0, "count_Insects": 2, "count_Gymnosperms": 0, "count_Flowering Plants": 0, "count_Amphibians": 0, "count_Arachnids": 0, "count_Birds": 0, "count_Sac Fungi": 0, "count_Mosses": 0, "count_Ferns": 0, "unique_species_count": 2.0, "countryCode": "TN" }, "geometry": { "type": "MultiPolygon", "coordinates": [ [ [ [ 10.706762581690716, 32.129963188104767 ], [ 10.709247861006377, 31.674275986029443 ], [ 10.170673188141976, 31.532060785658039 ], [ 9.627413016782855, 31.833692008496925 ], [ 9.619727192368178, 32.291091649466594 ], [ 10.160591611788545, 32.44490344988904 ], [ 10.706762581690716, 32.129963188104767 ] ] ] ] } },
{ "type": "Feature", "properties": { "geogrid_id": "832585807010704227", "seqnum": 14644.0, "lat_c": 32.585807147172659, "lon_c": 10.704226607618713, "res": 8.0, "count_Reptiles": 4, "count_Molluscs": 0, "count_Basidiomycota": 0, "count_Mammals": 3, "count_Insects": 35, "count_Gymnosperms": 0, "count_Flowering Plants": 30, "count_Amphibians": 1, "count_Arachnids": 1, "count_Birds": 32, "count_Sac Fungi": 0, "count_Mosses": 0, "count_Ferns": 0, "unique_species_count": 106.0, "countryCode": "TN" }, "geometry": { "type": "MultiPolygon", "coordinates": [ [ [ [ 11.249999999439698, 32.712095439863496 ], [ 11.249999999463752, 32.256461065124391 ], [ 10.706762581690716, 32.129963188104767 ], [ 10.160591611788545, 32.44490344988904 ], [ 10.155404014000633, 32.901493179232624 ], [ 10.70163861038713, 33.04181752174096 ], [ 11.249999999439698, 32.712095439863496 ] ] ] ] } },
{ "type": "Feature", "properties": { "geogrid_id": "832585807011795773", "seqnum": 14726.0, "lat_c": 32.585807147789914, "lon_c": 11.795773391813805, "res": 8.0, "count_Reptiles": 0, "count_Molluscs": 0, "count_Basidiomycota": 0, "count_Mammals": 0, "count_Insects": 0, "count_Gymnosperms": 0, "count_Flowering Plants": 0, "count_Amphibians": 0, "count_Arachnids": 0, "count_Birds": 1, "count_Sac Fungi": 0, "count_Mosses": 0, "count_Ferns": 0, "unique_species_count": 1.0, "countryCode": "TN" }, "geometry": { "type": "MultiPolygon", "coordinates": [ [ [ [ 12.344595985401238, 32.901493179901486 ], [ 12.339408387637254, 32.444903450534795 ], [ 11.793237417765676, 32.129963188699058 ], [ 11.249999999463752, 32.256461065124391 ], [ 11.249999999439698, 32.712095439863496 ], [ 11.798361389021265, 33.041817522381201 ], [ 12.344595985401238, 32.901493179901486 ] ] ] ] } },
{ "type": "Feature", "properties": { "geogrid_id": "832748543009611903", "seqnum": 14562.0, "lat_c": 32.74854278541838, "lon_c": 9.6119029245890282, "res": 8.0, "count_Reptiles": 11, "count_Molluscs": 0, "count_Basidiomycota": 0, "count_Mammals": 1, "count_Insects": 17, "count_Gymnosperms": 0, "count_Flowering Plants": 8, "count_Amphibians": 2, "count_Arachnids": 2, "count_Birds": 21, "count_Sac Fungi": 0, "count_Mosses": 0, "count_Ferns": 0, "unique_species_count": 62.0, "countryCode": "TN" }, "geometry": { "type": "MultiPolygon", "coordinates": [ [ [ [ 10.155404014000633, 32.901493179232624 ], [ 10.160591611788545, 32.44490344988904 ], [ 9.619727192368178, 32.291091649466594 ], [ 9.071598587850543, 32.584358549758818 ], [ 9.060907722368725, 33.0428697448775 ], [ 9.603934313822791, 33.206064830130394 ], [ 10.155404014000633, 32.901493179232624 ] ] ] ] } },
{ "type": "Feature", "properties": { "geogrid_id": "833167917011250000", "seqnum": 14645.0, "lat_c": 33.167917222182695, "lon_c": 11.249999999415385, "res": 8.0, "count_Reptiles": 7, "count_Molluscs": 18, "count_Basidiomycota": 0, "count_Mammals": 3, "count_Insects": 21, "count_Gymnosperms": 0, "count_Flowering Plants": 18, "count_Amphibians": 1, "count_Arachnids": 0, "count_Birds": 63, "count_Sac Fungi": 0, "count_Mosses": 0, "count_Ferns": 0, "unique_species_count": 131.0, "countryCode": "TN" }, "geometry": { "type": "MultiPolygon", "coordinates": [ [ [ [ 11.801002757190348, 33.498003691293626 ], [ 11.798361389021265, 33.041817522381201 ], [ 11.249999999439698, 32.712095439863496 ], [ 10.70163861038713, 33.04181752174096 ], [ 10.698997242193668, 33.498003690630355 ], [ 11.249999999390809, 33.623933865036001 ], [ 11.801002757190348, 33.498003691293626 ] ] ] ] } },
{ "type": "Feature", "properties": { "geogrid_id": "833358214010150114", "seqnum": 14563.0, "lat_c": 33.358213959842345, "lon_c": 10.15011421015906, "res": 8.0, "count_Reptiles": 16, "count_Molluscs": 1, "count_Basidiomycota": 0, "count_Mammals": 8, "count_Insects": 52, "count_Gymnosperms": 0, "count_Flowering Plants": 54, "count_Amphibians": 2, "count_Arachnids": 2, "count_Birds": 44, "count_Sac Fungi": 0, "count_Mosses": 0, "count_Ferns": 0, "unique_species_count": 179.0, "countryCode": "TN" }, "geometry": { "type": "MultiPolygon", "coordinates": [ [ [ [ 10.698997242193668, 33.498003690630355 ], [ 10.70163861038713, 33.04181752174096 ], [ 10.155404014000633, 32.901493179232624 ], [ 9.603934313822791, 33.206064830130394 ], [ 9.595815678182586, 33.663675777962148 ], [ 10.14471900456857, 33.815078862568008 ], [ 10.698997242193668, 33.498003690630355 ] ] ] ] } },
{ "type": "Feature", "properties": { "geogrid_id": "833501407009050029", "seqnum": 14481.0, "lat_c": 33.501406871215679, "lon_c": 9.0500290690588834, "res": 8.0, "count_Reptiles": 6, "count_Molluscs": 0, "count_Basidiomycota": 0, "count_Mammals": 4, "count_Insects": 38, "count_Gymnosperms": 0, "count_Flowering Plants": 13, "count_Amphibians": 1, "count_Arachnids": 2, "count_Birds": 90, "count_Sac Fungi": 0, "count_Mosses": 0, "count_Ferns": 0, "unique_species_count": 154.0, "countryCode": "TN" }, "geometry": { "type": "MultiPolygon", "coordinates": [ [ [ [ 9.595815678182586, 33.663675777962148 ], [ 9.603934313822791, 33.206064830130394 ], [ 9.060907722368725, 33.0428697448775 ], [ 8.507694884131514, 33.329365337222889 ], [ 8.493783431435521, 33.788936623218362 ], [ 9.038954144352322, 33.959991305272354 ], [ 9.595815678182586, 33.663675777962148 ] ] ] ] } },
{ "type": "Feature", "properties": { "geogrid_id": "833609149007952280", "seqnum": 14399.0, "lat_c": 33.609149077985954, "lon_c": 7.9522799990157607, "res": 8.0, "count_Reptiles": 6, "count_Molluscs": 1, "count_Basidiomycota": 0, "count_Mammals": 4, "count_Insects": 50, "count_Gymnosperms": 1, "count_Flowering Plants": 21, "count_Amphibians": 3, "count_Arachnids": 2, "count_Birds": 19, "count_Sac Fungi": 2, "count_Mosses": 0, "count_Ferns": 0, "unique_species_count": 109.0, "countryCode": "TN" }, "geometry": { "type": "MultiPolygon", "coordinates": [ [ [ [ 8.493783431435521, 33.788936623218362 ], [ 8.507694884131514, 33.329365337222889 ], [ 7.96906489961293, 33.148514962650921 ], [ 7.414628826439627, 33.421444973784922 ], [ 7.39463503297998, 33.883078322965673 ], [ 7.935221199573468, 34.069734661659197 ], [ 8.493783431435521, 33.788936623218362 ] ] ] ] } },
{ "type": "Feature", "properties": { "geogrid_id": "833954375010696301", "seqnum": 14564.0, "lat_c": 33.954374804666692, "lon_c": 10.696301129376776, "res": 8.0, "count_Reptiles": 11, "count_Molluscs": 192, "count_Basidiomycota": 1, "count_Mammals": 3, "count_Insects": 76, "count_Gymnosperms": 1, "count_Flowering Plants": 82, "count_Amphibians": 2, "count_Arachnids": 14, "count_Birds": 89, "count_Sac Fungi": 1, "count_Mosses": 1, "count_Ferns": 0, "unique_species_count": 473.0, "countryCode": "TN" }, "geometry": { "type": "MultiPolygon", "coordinates": [ [ [ [ 11.24999999936596, 34.080152849673937 ], [ 11.249999999390809, 33.623933865036001 ], [ 10.698997242193668, 33.498003690630355 ], [ 10.14471900456857, 33.815078862568008 ], [ 10.139215211298408, 34.272100298665073 ], [ 10.693548866882683, 34.410939828696797 ], [ 11.24999999936596, 34.080152849673937 ] ] ] ] } },
{ "type": "Feature", "properties": { "geogrid_id": "833954375011803699", "seqnum": 14646.0, "lat_c": 33.954374805353012, "lon_c": 11.803698869982593, "res": 8.0, "count_Reptiles": 1, "count_Molluscs": 0, "count_Basidiomycota": 0, "count_Mammals": 0, "count_Insects": 0, "count_Gymnosperms": 0, "count_Flowering Plants": 0, "count_Amphibians": 0, "count_Arachnids": 0, "count_Birds": 0, "count_Sac Fungi": 0, "count_Mosses": 0, "count_Ferns": 0, "unique_species_count": 1.0, "countryCode": "TN" }, "geometry": { "type": "MultiPolygon", "coordinates": [ [ [ [ 12.360784788030148, 34.272100299403419 ], [ 12.355280994784687, 33.815078863283162 ], [ 11.801002757190348, 33.498003691293626 ], [ 11.249999999390809, 33.623933865036001 ], [ 11.24999999936596, 34.080152849673937 ], [ 11.80645113245177, 34.41093982940621 ], [ 12.360784788030148, 34.272100299403419 ] ] ] ] } },
{ "type": "Feature", "properties": { "geogrid_id": "834121392009587541", "seqnum": 14482.0, "lat_c": 34.121392415087726, "lon_c": 9.5875414854727499, "res": 8.0, "count_Reptiles": 16, "count_Molluscs": 14, "count_Basidiomycota": 0, "count_Mammals": 7, "count_Insects": 25, "count_Gymnosperms": 3, "count_Flowering Plants": 90, "count_Amphibians": 2, "count_Arachnids": 1, "count_Birds": 36, "count_Sac Fungi": 0, "count_Mosses": 0, "count_Ferns": 0, "unique_species_count": 194.0, "countryCode": "TN" }, "geometry": { "type": "MultiPolygon", "coordinates": [ [ [ [ 10.139215211298408, 34.272100298665073 ], [ 10.14471900456857, 33.815078862568008 ], [ 9.595815678182586, 33.663675777962148 ], [ 9.038954144352322, 33.959991305272354 ], [ 9.027674746986959, 34.418642936423211 ], [ 9.579106297510192, 34.579230495258578 ], [ 10.139215211298408, 34.272100298665073 ] ] ] ] } },
{ "type": "Feature", "properties": { "geogrid_id": "834248517008479630", "seqnum": 14400.0, "lat_c": 34.248517494109322, "lon_c": 8.4796299361714009, "res": 8.0, "count_Reptiles": 7, "count_Molluscs": 3, "count_Basidiomycota": 0, "count_Mammals": 9, "count_Insects": 61, "count_Gymnosperms": 1, "count_Flowering Plants": 85, "count_Amphibians": 3, "count_Arachnids": 1, "count_Birds": 48, "count_Sac Fungi": 0, "count_Mosses": 0, "count_Ferns": 1, "unique_species_count": 219.0, "countryCode": "TN" }, "geometry": { "type": "MultiPolygon", "coordinates": [ [ [ [ 9.027674746986959, 34.418642936423211 ], [ 9.038954144352322, 33.959991305272354 ], [ 8.493783431435521, 33.788936623218362 ], [ 7.935221199573468, 34.069734661659197 ], [ 7.917874042449459, 34.53029721306433 ], [ 8.465223351064193, 34.708130171727241 ], [ 9.027674746986959, 34.418642936423211 ] ] ] ] } },
{ "type": "Feature", "properties": { "geogrid_id": "834344635007374323", "seqnum": 14318.0, "lat_c": 34.344634851761228, "lon_c": 7.3743226167160092, "res": 8.0, "count_Reptiles": 2, "count_Molluscs": 0, "count_Basidiomycota": 0, "count_Mammals": 1, "count_Insects": 2, "count_Gymnosperms": 0, "count_Flowering Plants": 3, "count_Amphibians": 1, "count_Arachnids": 0, "count_Birds": 16, "count_Sac Fungi": 0, "count_Mosses": 0, "count_Ferns": 1, "unique_species_count": 26.0, "countryCode": "TN" }, "geometry": { "type": "MultiPolygon", "coordinates": [ [ [ [ 7.917874042449459, 34.53029721306433 ], [ 7.935221199573468, 34.069734661659197 ], [ 7.39463503297998, 33.883078322965673 ], [ 6.834706496657319, 34.151817137925015 ], [ 6.811041725882784, 34.614287488071881 ], [ 7.353674159792525, 34.806141010183296 ], [ 7.917874042449459, 34.53029721306433 ] ] ] ] } },
{ "type": "Feature", "properties": { "geogrid_id": "834536582011250000", "seqnum": 14565.0, "lat_c": 34.536581686797859, "lon_c": 11.24999999934083, "res": 8.0, "count_Reptiles": 4, "count_Molluscs": 125, "count_Basidiomycota": 0, "count_Mammals": 2, "count_Insects": 9, "count_Gymnosperms": 0, "count_Flowering Plants": 57, "count_Amphibians": 1, "count_Arachnids": 0, "count_Birds": 73, "count_Sac Fungi": 0, "count_Mosses": 0, "count_Ferns": 0, "unique_species_count": 271.0, "countryCode": "TN" }, "geometry": { "type": "MultiPolygon", "coordinates": [ [ [ [ 11.809260985907462, 34.867707576758946 ], [ 11.80645113245177, 34.41093982940621 ], [ 11.24999999936596, 34.080152849673937 ], [ 10.693548866882683, 34.410939828696797 ], [ 10.690739013401791, 34.867707576026412 ], [ 11.24999999931541, 34.993227917726458 ], [ 11.809260985907462, 34.867707576758946 ] ] ] ] } },
{ "type": "Feature", "properties": { "geogrid_id": "834729290010133600", "seqnum": 14483.0, "lat_c": 34.729290122854572, "lon_c": 10.133599631924072, "res": 8.0, "count_Reptiles": 14, "count_Molluscs": 2, "count_Basidiomycota": 0, "count_Mammals": 2, "count_Insects": 15, "count_Gymnosperms": 0, "count_Flowering Plants": 13, "count_Amphibians": 1, "count_Arachnids": 0, "count_Birds": 43, "count_Sac Fungi": 0, "count_Mosses": 0, "count_Ferns": 0, "unique_species_count": 90.0, "countryCode": "TN" }, "geometry": { "type": "MultiPolygon", "coordinates": [ [ [ [ 10.690739013401791, 34.867707576026412 ], [ 10.693548866882683, 34.410939828696797 ], [ 10.139215211298408, 34.272100298665073 ], [ 9.579106297510192, 34.579230495258578 ], [ 9.570504723935858, 35.037204886864458 ], [ 10.127869036749358, 35.186659718816706 ], [ 10.690739013401791, 34.867707576026412 ] ] ] ] } },
{ "type": "Feature", "properties": { "geogrid_id": "834729290012366400", "seqnum": 14647.0, "lat_c": 34.72929012361616, "lon_c": 12.366400367379514, "res": 8.0, "count_Reptiles": 1, "count_Molluscs": 1, "count_Basidiomycota": 0, "count_Mammals": 0, "count_Insects": 0, "count_Gymnosperms": 0, "count_Flowering Plants": 0, "count_Amphibians": 0, "count_Arachnids": 0, "count_Birds": 0, "count_Sac Fungi": 0, "count_Mosses": 0, "count_Ferns": 0, "unique_species_count": 2.0, "countryCode": "TN" }, "geometry": { "type": "MultiPolygon", "coordinates": [ [ [ [ 12.929495275337471, 35.037204887678293 ], [ 12.920893701788145, 34.579230496049021 ], [ 12.360784788030148, 34.272100299403419 ], [ 11.80645113245177, 34.41093982940621 ], [ 11.809260985907462, 34.867707576758946 ], [ 12.372130962528976, 35.186659719601558 ], [ 12.929495275337471, 35.037204887678293 ] ] ] ] } },
{ "type": "Feature", "properties": { "geogrid_id": "834877380009016183", "seqnum": 14401.0, "lat_c": 34.877380366406598, "lon_c": 9.016182872628411, "res": 8.0, "count_Reptiles": 4, "count_Molluscs": 1, "count_Basidiomycota": 0, "count_Mammals": 5, "count_Insects": 46, "count_Gymnosperms": 1, "count_Flowering Plants": 63, "count_Amphibians": 1, "count_Arachnids": 0, "count_Birds": 10, "count_Sac Fungi": 0, "count_Mosses": 0, "count_Ferns": 0, "unique_species_count": 131.0, "countryCode": "TN" }, "geometry": { "type": "MultiPolygon", "coordinates": [ [ [ [ 9.570504723935858, 35.037204886864458 ], [ 9.579106297510192, 34.579230495258578 ], [ 9.027674746986959, 34.418642936423211 ], [ 8.465223351064193, 34.708130171727241 ], [ 8.450552923546176, 35.167795447610033 ], [ 9.004470642457624, 35.336221078624931 ], [ 9.570504723935858, 35.037204886864458 ] ] ] ] } },
{ "type": "Feature", "properties": { "geogrid_id": "834877380013483817", "seqnum": 14729.0, "lat_c": 34.877380367249245, "lon_c": 13.483817126640288, "res": 8.0, "count_Reptiles": 1, "count_Molluscs": 0, "count_Basidiomycota": 0, "count_Mammals": 0, "count_Insects": 0, "count_Gymnosperms": 0, "count_Flowering Plants": 0, "count_Amphibians": 0, "count_Arachnids": 0, "count_Birds": 0, "count_Sac Fungi": 0, "count_Mosses": 0, "count_Ferns": 0, "unique_species_count": 1.0, "countryCode": "TN" }, "geometry": { "type": "MultiPolygon", "coordinates": [ [ [ [ 14.04944707569347, 35.167795448505025 ], [ 14.034776648200205, 34.70813017259858 ], [ 13.472325252306495, 34.418642937242353 ], [ 12.920893701788145, 34.579230496049021 ], [ 12.929495275337471, 35.037204887678293 ], [ 13.495529356786053, 35.336221079491118 ], [ 14.04944707569347, 35.167795448505025 ] ] ] ] } },
{ "type": "Feature", "properties": { "geogrid_id": "834990861007900225", "seqnum": 14319.0, "lat_c": 34.990860554515926, "lon_c": 7.9002245738408217, "res": 8.0, "count_Reptiles": 1, "count_Molluscs": 0, "count_Basidiomycota": 0, "count_Mammals": 0, "count_Insects": 7, "count_Gymnosperms": 0, "count_Flowering Plants": 0, "count_Amphibians": 0, "count_Arachnids": 0, "count_Birds": 0, "count_Sac Fungi": 0, "count_Mosses": 0, "count_Ferns": 0, "unique_species_count": 8.0, "countryCode": "TN" }, "geometry": { "type": "MultiPolygon", "coordinates": [ [ [ [ 8.450552923546176, 35.167795447610033 ], [ 8.465223351064193, 34.708130171727241 ], [ 7.917874042449459, 34.53029721306433 ], [ 7.353674159792525, 34.806141010183296 ], [ 7.332672816506154, 35.267621597527111 ], [ 7.88225921300969, 35.451447024150717 ], [ 8.450552923546176, 35.167795447610033 ] ] ] ] } },
{ "type": "Feature", "properties": { "geogrid_id": "835324687010687870", "seqnum": 14484.0, "lat_c": 35.324686736874831, "lon_c": 10.687870086983761, "res": 8.0, "count_Reptiles": 6, "count_Molluscs": 14, "count_Basidiomycota": 0, "count_Mammals": 3, "count_Insects": 44, "count_Gymnosperms": 0, "count_Flowering Plants": 71, "count_Amphibians": 1, "count_Arachnids": 7, "count_Birds": 52, "count_Sac Fungi": 3, "count_Mosses": 0, "count_Ferns": 0, "unique_species_count": 201.0, "countryCode": "TN" }, "geometry": { "type": "MultiPolygon", "coordinates": [ [ [ [ 11.249999999289694, 35.450099115574879 ], [ 11.24999999931541, 34.993227917726458 ], [ 10.690739013401791, 34.867707576026412 ], [ 10.127869036749358, 35.186659718816706 ], [ 10.122020148662264, 35.644220070550958 ], [ 10.68494056098811, 35.781885902069867 ], [ 11.249999999289694, 35.450099115574879 ] ] ] ] } },
{ "type": "Feature", "properties": { "geogrid_id": "835324687011812130", "seqnum": 14566.0, "lat_c": 35.324686737630529, "lon_c": 11.812129912300005, "res": 8.0, "count_Reptiles": 1, "count_Molluscs": 0, "count_Basidiomycota": 0, "count_Mammals": 0, "count_Insects": 0, "count_Gymnosperms": 0, "count_Flowering Plants": 0, "count_Amphibians": 0, "count_Arachnids": 0, "count_Birds": 0, "count_Sac Fungi": 0, "count_Mosses": 0, "count_Ferns": 0, "unique_species_count": 1.0, "countryCode": "TN" }, "geometry": { "type": "MultiPolygon", "coordinates": [ [ [ [ 12.377979850590531, 35.644220071359122 ], [ 12.372130962528976, 35.186659719601558 ], [ 11.809260985907462, 34.867707576758946 ], [ 11.24999999931541, 34.993227917726458 ], [ 11.249999999289694, 35.450099115574879 ], [ 11.815059438269868, 35.781885902848757 ], [ 12.377979850590531, 35.644220071359122 ] ] ] ] } },
{ "type": "Feature", "properties": { "geogrid_id": "835495330009561731", "seqnum": 14402.0, "lat_c": 35.495329696630968, "lon_c": 9.5617313833446556, "res": 8.0, "count_Reptiles": 2, "count_Molluscs": 0, "count_Basidiomycota": 1, "count_Mammals": 3, "count_Insects": 35, "count_Gymnosperms": 0, "count_Flowering Plants": 22, "count_Amphibians": 2, "count_Arachnids": 0, "count_Birds": 28, "count_Sac Fungi": 0, "count_Mosses": 0, "count_Ferns": 0, "unique_species_count": 93.0, "countryCode": "TN" }, "geometry": { "type": "MultiPolygon", "coordinates": [ [ [ [ 10.122020148662264, 35.644220070550958 ], [ 10.127869036749358, 35.186659718816706 ], [ 9.570504723935858, 35.037204886864458 ], [ 9.004470642457624, 35.336221078624931 ], [ 8.992530242700347, 35.795181582447213 ], [ 9.552780870077806, 35.953618374191848 ], [ 10.122020148662264, 35.644220070550958 ] ] ] ] } },
{ "type": "Feature", "properties": { "geogrid_id": "835495330012938269", "seqnum": 14648.0, "lat_c": 35.495329697468222, "lon_c": 12.938268615903388, "res": 8.0, "count_Reptiles": 1, "count_Molluscs": 0, "count_Basidiomycota": 0, "count_Mammals": 1, "count_Insects": 0, "count_Gymnosperms": 0, "count_Flowering Plants": 0, "count_Amphibians": 0, "count_Arachnids": 0, "count_Birds": 0, "count_Sac Fungi": 0, "count_Mosses": 0, "count_Ferns": 0, "unique_species_count": 2.0, "countryCode": "TN" }, "geometry": { "type": "MultiPolygon", "coordinates": [ [ [ [ 13.507469756518027, 35.795181583336991 ], [ 13.495529356786053, 35.336221079491118 ], [ 12.929495275337471, 35.037204887678293 ], [ 12.372130962528976, 35.186659719601558 ], [ 12.377979850590531, 35.644220071359122 ], [ 12.947219129144663, 35.953618375052578 ], [ 13.507469756518027, 35.795181583336991 ] ] ] ] } },
{ "type": "Feature", "properties": { "geogrid_id": "835627533008435608", "seqnum": 14320.0, "lat_c": 35.627532857327587, "lon_c": 8.435608101622611, "res": 8.0, "count_Reptiles": 5, "count_Molluscs": 0, "count_Basidiomycota": 0, "count_Mammals": 6, "count_Insects": 8, "count_Gymnosperms": 0, "count_Flowering Plants": 15, "count_Amphibians": 1, "count_Arachnids": 0, "count_Birds": 5, "count_Sac Fungi": 0, "count_Mosses": 0, "count_Ferns": 0, "unique_species_count": 40.0, "countryCode": "TN" }, "geometry": { "type": "MultiPolygon", "coordinates": [ [ [ [ 8.992530242700347, 35.795181582447213 ], [ 9.004470642457624, 35.336221078624931 ], [ 8.450552923546176, 35.167795447610033 ], [ 7.88225921300969, 35.451447024150717 ], [ 7.863964639611628, 35.912077643908155 ], [ 8.420378453455907, 36.087360830923345 ], [ 8.992530242700347, 35.795181582447213 ] ] ] ] } },
{ "type": "Feature", "properties": { "geogrid_id": "835907203011250000", "seqnum": 14485.0, "lat_c": 35.90720288644696, "lon_c": 11.24999999926367, "res": 8.0, "count_Reptiles": 5, "count_Molluscs": 8, "count_Basidiomycota": 0, "count_Mammals": 4, "count_Insects": 18, "count_Gymnosperms": 0, "count_Flowering Plants": 44, "count_Amphibians": 1, "count_Arachnids": 2, "count_Birds": 57, "count_Sac Fungi": 0, "count_Mosses": 0, "count_Ferns": 0, "unique_species_count": 139.0, "countryCode": "TN" }, "geometry": { "type": "MultiPolygon", "coordinates": [ [ [ [ 11.818051138970791, 36.239313583731587 ], [ 11.815059438269868, 35.781885902848757 ], [ 11.249999999289694, 35.450099115574879 ], [ 10.68494056098811, 35.781885902069867 ], [ 10.681948860261096, 36.239313582929469 ], [ 11.249999999237328, 36.364546870641206 ], [ 11.818051138970791, 36.239313583731587 ] ] ] ] } },
{ "type": "Feature", "properties": { "geogrid_id": "836101982010116050", "seqnum": 14403.0, "lat_c": 36.101981822291812, "lon_c": 10.116049628982667, "res": 8.0, "count_Reptiles": 9, "count_Molluscs": 201, "count_Basidiomycota": 2, "count_Mammals": 5, "count_Insects": 146, "count_Gymnosperms": 4, "count_Flowering Plants": 147, "count_Amphibians": 2, "count_Arachnids": 1, "count_Birds": 123, "count_Sac Fungi": 0, "count_Mosses": 0, "count_Ferns": 1, "unique_species_count": 641.0, "countryCode": "TN" }, "geometry": { "type": "MultiPolygon", "coordinates": [ [ [ [ 10.681948860261096, 36.239313582929469 ], [ 10.68494056098811, 35.781885902069867 ], [ 10.122020148662264, 35.644220070550958 ], [ 9.552780870077806, 35.953618374191848 ], [ 9.543647725402565, 36.412083800921415 ], [ 10.109954064809312, 36.559955329101022 ], [ 10.681948860261096, 36.239313582929469 ] ] ] ] } },
{ "type": "Feature", "properties": { "geogrid_id": "836101982012383950", "seqnum": 14567.0, "lat_c": 36.101981823123332, "lon_c": 12.383950370244291, "res": 8.0, "count_Reptiles": 1, "count_Molluscs": 0, "count_Basidiomycota": 0, "count_Mammals": 0, "count_Insects": 0, "count_Gymnosperms": 0, "count_Flowering Plants": 0, "count_Amphibians": 0, "count_Arachnids": 0, "count_Birds": 0, "count_Sac Fungi": 0, "count_Mosses": 0, "count_Ferns": 0, "unique_species_count": 1.0, "countryCode": "TN" }, "geometry": { "type": "MultiPolygon", "coordinates": [ [ [ [ 12.956352273794035, 36.412083801805657 ], [ 12.947219129144663, 35.953618375052578 ], [ 12.377979850590531, 35.644220071359122 ], [ 11.815059438269868, 35.781885902848757 ], [ 11.818051138970791, 36.239313583731587 ], [ 12.390045934391502, 36.559955329955933 ], [ 12.956352273794035, 36.412083801805657 ] ] ] ] } },
{ "type": "Feature", "properties": { "geogrid_id": "836254278008980354", "seqnum": 14321.0, "lat_c": 36.254277536713573, "lon_c": 8.9803538727553267, "res": 8.0, "count_Reptiles": 10, "count_Molluscs": 5, "count_Basidiomycota": 0, "count_Mammals": 4, "count_Insects": 82, "count_Gymnosperms": 1, "count_Flowering Plants": 111, "count_Amphibians": 4, "count_Arachnids": 4, "count_Birds": 40, "count_Sac Fungi": 5, "count_Mosses": 2, "count_Ferns": 2, "unique_species_count": 270.0, "countryCode": "TN" }, "geometry": { "type": "MultiPolygon", "coordinates": [ [ [ [ 9.543647725402565, 36.412083800921415 ], [ 9.552780870077806, 35.953618374191848 ], [ 8.992530242700347, 35.795181582447213 ], [ 8.420378453455907, 36.087360830923345 ], [ 8.404853597865451, 36.547296823177902 ], [ 8.967933700090377, 36.713523855861347 ], [ 9.543647725402565, 36.412083800921415 ] ] ] ] } },
{ "type": "Feature", "properties": { "geogrid_id": "836372772007845328", "seqnum": 14239.0, "lat_c": 36.372772266195675, "lon_c": 7.8453276965098331, "res": 8.0, "count_Reptiles": 7, "count_Molluscs": 4, "count_Basidiomycota": 0, "count_Mammals": 1, "count_Insects": 6, "count_Gymnosperms": 0, "count_Flowering Plants": 32, "count_Amphibians": 1, "count_Arachnids": 2, "count_Birds": 11, "count_Sac Fungi": 0, "count_Mosses": 0, "count_Ferns": 2, "unique_species_count": 66.0, "countryCode": "TN" }, "geometry": { "type": "MultiPolygon", "coordinates": [ [ [ [ 8.404853597865451, 36.547296823177902 ], [ 8.420378453455907, 36.087360830923345 ], [ 7.863964639611628, 35.912077643908155 ], [ 7.289546087765034, 36.190598037707538 ], [ 7.267388646846795, 36.652136717741676 ], [ 7.826335305038829, 36.833549702277956 ], [ 8.404853597865451, 36.547296823177902 ] ] ] ] } },
{ "type": "Feature", "properties": { "geogrid_id": "836696978010678893", "seqnum": 14404.0, "lat_c": 36.69697822806824, "lon_c": 10.678893357454198, "res": 8.0, "count_Reptiles": 13, "count_Molluscs": 273, "count_Basidiomycota": 17, "count_Mammals": 19, "count_Insects": 223, "count_Gymnosperms": 6, "count_Flowering Plants": 320, "count_Amphibians": 4, "count_Arachnids": 19, "count_Birds": 185, "count_Sac Fungi": 15, "count_Mosses": 0, "count_Ferns": 1, "unique_species_count": 1095.0, "countryCode": "TN" }, "geometry": { "type": "MultiPolygon", "coordinates": [ [ [ [ 11.249999999210662, 36.822138743870994 ], [ 11.249999999237328, 36.364546870641206 ], [ 10.681948860261096, 36.239313582929469 ], [ 10.109954064809312, 36.559955329101022 ], [ 10.1037299574839, 37.018150699821 ], [ 10.675772369417272, 37.15488823770886 ], [ 11.249999999210662, 36.822138743870994 ] ] ] ] } },
{ "type": "Feature", "properties": { "geogrid_id": "836696978011821107", "seqnum": 14486.0, "lat_c": 36.696978228893634, "lon_c": 11.821106641751278, "res": 8.0, "count_Reptiles": 1, "count_Molluscs": 0, "count_Basidiomycota": 0, "count_Mammals": 0, "count_Insects": 0, "count_Gymnosperms": 0, "count_Flowering Plants": 0, "count_Amphibians": 0, "count_Arachnids": 0, "count_Birds": 0, "count_Sac Fungi": 0, "count_Mosses": 0, "count_Ferns": 0, "unique_species_count": 1.0, "countryCode": "TN" }, "geometry": { "type": "MultiPolygon", "coordinates": [ [ [ [ 12.396270041690455, 37.018150700699351 ], [ 12.390045934391502, 36.559955329955933 ], [ 11.818051138970791, 36.239313583731587 ], [ 11.249999999237328, 36.364546870641206 ], [ 11.249999999210662, 36.822138743870994 ], [ 11.82422762976147, 37.154888238557568 ], [ 12.396270041690455, 37.018150700699351 ] ] ] ] } },
{ "type": "Feature", "properties": { "geogrid_id": "836870738009534326", "seqnum": 14322.0, "lat_c": 36.870738365747265, "lon_c": 9.5343264120880953, "res": 8.0, "count_Reptiles": 17, "count_Molluscs": 3, "count_Basidiomycota": 1, "count_Mammals": 8, "count_Insects": 48, "count_Gymnosperms": 2, "count_Flowering Plants": 167, "count_Amphibians": 7, "count_Arachnids": 4, "count_Birds": 98, "count_Sac Fungi": 1, "count_Mosses": 0, "count_Ferns": 3, "unique_species_count": 359.0, "countryCode": "TN" }, "geometry": { "type": "MultiPolygon", "coordinates": [ [ [ [ 10.1037299574839, 37.018150699821 ], [ 10.109954064809312, 36.559955329101022 ], [ 9.543647725402565, 36.412083800921415 ], [ 8.967933700090377, 36.713523855861347 ], [ 8.955261820463585, 37.172934801469346 ], [ 9.524811291599422, 37.329594030141273 ], [ 10.1037299574839, 37.018150699821 ] ] ] ] } },
{ "type": "Feature", "properties": { "geogrid_id": "837007357008389023", "seqnum": 14240.0, "lat_c": 37.007357426767641, "lon_c": 8.38902314352279, "res": 8.0, "count_Reptiles": 13, "count_Molluscs": 19, "count_Basidiomycota": 1, "count_Mammals": 7, "count_Insects": 84, "count_Gymnosperms": 2, "count_Flowering Plants": 96, "count_Amphibians": 5, "count_Arachnids": 2, "count_Birds": 52, "count_Sac Fungi": 2, "count_Mosses": 0, "count_Ferns": 2, "unique_species_count": 285.0, "countryCode": "TN" }, "geometry": { "type": "MultiPolygon", "coordinates": [ [ [ [ 8.955261820463585, 37.172934801469346 ], [ 8.967933700090377, 36.713523855861347 ], [ 8.404853597865451, 36.547296823177902 ], [ 7.826335305038829, 36.833549702277956 ], [ 7.806974390281201, 37.294427834957027 ], [ 8.372876635069538, 37.467558470874962 ], [ 8.955261820463585, 37.172934801469346 ] ] ] ] } },
{ "type": "Feature", "properties": { "geogrid_id": "837279986011250000", "seqnum": 14405.0, "lat_c": 37.279986218499666, "lon_c": 11.249999999183659, "res": 8.0, "count_Reptiles": 4, "count_Molluscs": 4, "count_Basidiomycota": 0, "count_Mammals": 5, "count_Insects": 10, "count_Gymnosperms": 0, "count_Flowering Plants": 115, "count_Amphibians": 1, "count_Arachnids": 0, "count_Birds": 99, "count_Sac Fungi": 1, "count_Mosses": 0, "count_Ferns": 1, "unique_species_count": 240.0, "countryCode": "TN" }, "geometry": { "type": "MultiPolygon", "coordinates": [ [ [ [ 11.827415845539294, 37.613051976829603 ], [ 11.82422762976147, 37.154888238557568 ], [ 11.249999999210662, 36.822138743870994 ], [ 10.675772369417272, 37.15488823770886 ], [ 10.672584153612378, 37.613051975957532 ], [ 11.24999999915631, 37.738097044790926 ], [ 11.827415845539294, 37.613051976829603 ] ] ] ] } },
{ "type": "Feature", "properties": { "geogrid_id": "837476578010097374", "seqnum": 14323.0, "lat_c": 37.476577833735981, "lon_c": 10.097373711872072, "res": 8.0, "count_Reptiles": 8, "count_Molluscs": 10, "count_Basidiomycota": 4, "count_Mammals": 8, "count_Insects": 32, "count_Gymnosperms": 3, "count_Flowering Plants": 106, "count_Amphibians": 4, "count_Arachnids": 7, "count_Birds": 40, "count_Sac Fungi": 2, "count_Mosses": 0, "count_Ferns": 0, "unique_species_count": 224.0, "countryCode": "TN" }, "geometry": { "type": "MultiPolygon", "coordinates": [ [ [ [ 10.672584153612378, 37.613051975957532 ], [ 10.675772369417272, 37.15488823770886 ], [ 10.1037299574839, 37.018150699821 ], [ 9.524811291599422, 37.329594030141273 ], [ 9.515096603292466, 37.788662384074577 ], [ 10.090881626222373, 37.935246452023549 ], [ 10.672584153612378, 37.613051975957532 ] ] ] ] } },
{ "type": "Feature", "properties": { "geogrid_id": "837632524008942330", "seqnum": 14241.0, "lat_c": 37.632524061517614, "lon_c": 8.9423302223227576, "res": 8.0, "count_Reptiles": 1, "count_Molluscs": 1, "count_Basidiomycota": 0, "count_Mammals": 3, "count_Insects": 2, "count_Gymnosperms": 0, "count_Flowering Plants": 6, "count_Amphibians": 1, "count_Arachnids": 0, "count_Birds": 2, "count_Sac Fungi": 0, "count_Mosses": 0, "count_Ferns": 0, "unique_species_count": 16.0, "countryCode": "TN" }, "geometry": { "type": "MultiPolygon", "coordinates": [ [ [ [ 9.515096603292466, 37.788662384074577 ], [ 9.524811291599422, 37.329594030141273 ], [ 8.955261820463585, 37.172934801469346 ], [ 8.372876635069538, 37.467558470874962 ], [ 8.356403504731396, 37.927915107384607 ], [ 8.929130754463177, 38.092304819258345 ], [ 9.515096603292466, 37.788662384074577 ] ] ] ] } },
{ "type": "Feature", "properties": { "geogrid_id": "838071478010669327", "seqnum": 14324.0, "lat_c": 38.071477781409193, "lon_c": 10.66932690450381, "res": 8.0, "count_Reptiles": 1, "count_Molluscs": 0, "count_Basidiomycota": 0, "count_Mammals": 4, "count_Insects": 1, "count_Gymnosperms": 0, "count_Flowering Plants": 0, "count_Amphibians": 0, "count_Arachnids": 0, "count_Birds": 0, "count_Sac Fungi": 0, "count_Mosses": 0, "count_Ferns": 0, "unique_species_count": 6.0, "countryCode": "TN" }, "geometry": { "type": "MultiPolygon", "coordinates": [ [ [ [ 11.249999999128605, 38.196479012175367 ], [ 11.24999999915631, 37.738097044790926 ], [ 10.672584153612378, 37.613051975957532 ], [ 10.090881626222373, 37.935246452023549 ], [ 10.084249882410351, 38.394166124872463 ], [ 10.665998749886699, 38.530173976375849 ], [ 11.249999999128605, 38.196479012175367 ] ] ] ] } },
{ "type": "Feature", "properties": { "geogrid_id": "838247955009505176", "seqnum": 14242.0, "lat_c": 38.247954694394345, "lon_c": 9.5051764451156924, "res": 8.0, "count_Reptiles": 1, "count_Molluscs": 0, "count_Basidiomycota": 0, "count_Mammals": 0, "count_Insects": 0, "count_Gymnosperms": 0, "count_Flowering Plants": 0, "count_Amphibians": 0, "count_Arachnids": 0, "count_Birds": 0, "count_Sac Fungi": 0, "count_Mosses": 0, "count_Ferns": 0, "unique_species_count": 1.0, "countryCode": "TN" }, "geometry": { "type": "MultiPolygon", "coordinates": [ [ [ [ 10.084249882410351, 38.394166124872463 ], [ 10.090881626222373, 37.935246452023549 ], [ 9.515096603292466, 37.788662384074577 ], [ 8.929130754463177, 38.092304819258345 ], [ 8.915655096198781, 38.552289813268359 ], [ 9.495044755417489, 38.707481946818696 ], [ 10.084249882410351, 38.394166124872463 ] ] ] ] } },
{ "type": "Feature", "properties": { "geogrid_id": "838388442008339593", "seqnum": 14160.0, "lat_c": 38.388441886453784, "lon_c": 8.3395930282706114, "res": 8.0, "count_Reptiles": 1, "count_Molluscs": 0, "count_Basidiomycota": 0, "count_Mammals": 1, "count_Insects": 0, "count_Gymnosperms": 0, "count_Flowering Plants": 0, "count_Amphibians": 0, "count_Arachnids": 0, "count_Birds": 0, "count_Sac Fungi": 0, "count_Mosses": 0, "count_Ferns": 0, "unique_species_count": 2.0, "countryCode": "TN" }, "geometry": { "type": "MultiPolygon", "coordinates": [ [ [ [ 8.915655096198781, 38.552289813268359 ], [ 8.929130754463177, 38.092304819258345 ], [ 8.356403504731396, 37.927915107384607 ], [ 7.767094316339659, 38.216553662169297 ], [ 7.746548456829355, 38.677833315386337 ], [ 8.322434284329162, 38.849152822958587 ], [ 8.915655096198781, 38.552289813268359 ] ] ] ] } }
]
}
