{
"type": "FeatureCollection",
"name": "UG",
"crs": { "type": "name", "properties": { "name": "urn:ogc:def:crs:OGC:1.3:CRS84" } },
"features": [
{ "type": "Feature", "properties": { "geogrid_id": "3000803224029575133", "seqnum": 18371.0, "lat_c": -0.80322406630922605, "lon_c": 29.575133368890437, "res": 8.0, "count_Flowering Plants": 162, "count_Insects": 437, "count_Amphibians": 13, "count_Reptiles": 27, "count_Ferns": 8, "count_Basidiomycota": 3, "count_Birds": 409, "count_Molluscs": 9, "count_Mammals": 80, "count_Sac Fungi": 21, "count_Arachnids": 4, "count_Gymnosperms": 1, "count_Mosses": 1, "unique_species_count": 1175.0, "countryCode": "UG" }, "geometry": { "type": "MultiPolygon", "coordinates": [ [ [ [ 29.963721487773935, -0.535936205365533 ], [ 29.968380003095636, -1.072502588213932 ], [ 29.580321136526859, -1.339477473171065 ], [ 29.186546301766498, -1.070055867437002 ], [ 29.181081768052685, -0.534756374336223 ], [ 29.570188562155302, -0.267602152478765 ], [ 29.963721487773935, -0.535936205365533 ] ] ] ] } },
{ "type": "Feature", "properties": { "geogrid_id": "3000805065030356444", "seqnum": 18453.0, "lat_c": -0.80506509154924699, "lon_c": 30.356443798677645, "res": 8.0, "count_Flowering Plants": 84, "count_Insects": 51, "count_Amphibians": 7, "count_Reptiles": 1, "count_Ferns": 0, "count_Basidiomycota": 2, "count_Birds": 101, "count_Molluscs": 1, "count_Mammals": 3, "count_Sac Fungi": 5, "count_Arachnids": 1, "count_Gymnosperms": 0, "count_Mosses": 0, "unique_species_count": 256.0, "countryCode": "UG" }, "geometry": { "type": "MultiPolygon", "coordinates": [ [ [ [ 30.744539527820447, -0.537167191569737 ], [ 30.74826094680558, -1.075055215335742 ], [ 30.360725407991129, -1.34265972976997 ], [ 29.968380003095636, -1.072502588213932 ], [ 29.963721487773935, -0.535936205365533 ], [ 30.352337759585424, -0.268194154055803 ], [ 30.744539527820447, -0.537167191569737 ] ] ] ] } },
{ "type": "Feature", "properties": { "geogrid_id": "3000806984031135833", "seqnum": 18535.0, "lat_c": -0.80698416573585097, "lon_c": 31.1358326154464, "res": 8.0, "count_Flowering Plants": 284, "count_Insects": 97, "count_Amphibians": 8, "count_Reptiles": 10, "count_Ferns": 0, "count_Basidiomycota": 0, "count_Birds": 294, "count_Molluscs": 2, "count_Mammals": 46, "count_Sac Fungi": 13, "count_Arachnids": 3, "count_Gymnosperms": 0, "count_Mosses": 0, "unique_species_count": 757.0, "countryCode": "UG" }, "geometry": { "type": "MultiPolygon", "coordinates": [ [ [ [ 31.523467311140653, -0.538449314873349 ], [ 31.526116150979451, -1.077713688649945 ], [ 31.139070128816609, -1.345976645692866 ], [ 30.74826094680558, -1.075055215335742 ], [ 30.744539527820447, -0.537167191569737 ], [ 31.132694213710423, -0.268811294918532 ], [ 31.523467311140653, -0.538449314873349 ] ] ] ] } },
{ "type": "Feature", "properties": { "geogrid_id": "3000808981031913230", "seqnum": 18617.0, "lat_c": -0.80898125239640895, "lon_c": 31.913229618670531, "res": 8.0, "count_Flowering Plants": 58, "count_Insects": 29, "count_Amphibians": 6, "count_Reptiles": 3, "count_Ferns": 1, "count_Basidiomycota": 4, "count_Birds": 59, "count_Molluscs": 2, "count_Mammals": 3, "count_Sac Fungi": 26, "count_Arachnids": 0, "count_Gymnosperms": 0, "count_Mosses": 0, "unique_species_count": 191.0, "countryCode": "UG" }, "geometry": { "type": "MultiPolygon", "coordinates": [ [ [ [ 32.300437308807723, -0.539782556454249 ], [ 32.301873815288012, -1.080477945541019 ], [ 31.915280656917176, -1.349428126889402 ], [ 31.526116150979451, -1.077713688649945 ], [ 31.523467311140653, -0.538449314873349 ], [ 31.911191961768907, -0.269453568538318 ], [ 32.300437308807723, -0.539782556454249 ] ] ] ] } },
{ "type": "Feature", "properties": { "geogrid_id": "3000811056032688566", "seqnum": 18699.0, "lat_c": -0.81105631358950303, "lon_c": 32.688565735965433, "res": 8.0, "count_Flowering Plants": 0, "count_Insects": 5, "count_Amphibians": 0, "count_Reptiles": 0, "count_Ferns": 0, "count_Basidiomycota": 0, "count_Birds": 0, "count_Molluscs": 0, "count_Mammals": 0, "count_Sac Fungi": 0, "count_Arachnids": 0, "count_Gymnosperms": 0, "count_Mosses": 0, "unique_species_count": 5.0, "countryCode": "UG" }, "geometry": { "type": "MultiPolygon", "coordinates": [ [ [ [ 33.075383069371668, -0.541166896744476 ], [ 33.075463353295021, -1.083347920935664 ], [ 32.689283622940074, -1.353014075558198 ], [ 32.301873815288012, -1.080477945541019 ], [ 32.300437308807723, -0.539782556454249 ], [ 32.687766043130097, -0.27012096812137 ], [ 33.075383069371668, -0.541166896744476 ] ] ] ] } },
{ "type": "Feature", "properties": { "geogrid_id": "3000813209033461773", "seqnum": 18781.0, "lat_c": -0.81320930990729501, "lon_c": 33.461773053121497, "res": 8.0, "count_Flowering Plants": 0, "count_Insects": 1, "count_Amphibians": 0, "count_Reptiles": 0, "count_Ferns": 0, "count_Basidiomycota": 0, "count_Birds": 0, "count_Molluscs": 0, "count_Mammals": 0, "count_Sac Fungi": 0, "count_Arachnids": 0, "count_Gymnosperms": 0, "count_Mosses": 0, "unique_species_count": 1.0, "countryCode": "UG" }, "geometry": { "type": "MultiPolygon", "coordinates": [ [ [ [ 33.848239246802244, -0.542602315431057 ], [ 33.846815423103813, -1.08632354730826 ], [ 33.461006963251911, -1.356734390157251 ], [ 33.075463353295021, -1.083347920935664 ], [ 33.075383069371668, -0.541166896744476 ], [ 33.462352526622269, -0.270813486608901 ], [ 33.848239246802244, -0.542602315431057 ] ] ] ] } },
{ "type": "Feature", "properties": { "geogrid_id": "3001609795029973199", "seqnum": 18452.0, "lat_c": -1.6097951570574709, "lon_c": 29.973199119781572, "res": 8.0, "count_Flowering Plants": 149, "count_Insects": 48, "count_Amphibians": 7, "count_Reptiles": 8, "count_Ferns": 3, "count_Basidiomycota": 1, "count_Birds": 204, "count_Molluscs": 0, "count_Mammals": 30, "count_Sac Fungi": 20, "count_Arachnids": 1, "count_Gymnosperms": 0, "count_Mosses": 0, "unique_species_count": 471.0, "countryCode": "UG" }, "geometry": { "type": "MultiPolygon", "coordinates": [ [ [ [ 30.360725407991129, -1.34265972976997 ], [ 30.365073461793649, -1.881082032818977 ], [ 29.978069372488363, -2.147918840939839 ], [ 29.585655208022985, -1.876459138268838 ], [ 29.580321136526859, -1.339477473171065 ], [ 29.968380003095636, -1.072502588213932 ], [ 30.360725407991129, -1.34265972976997 ] ] ] ] } },
{ "type": "Feature", "properties": { "geogrid_id": "800000000029959320", "seqnum": 18372.0, "lat_c": 4.020153e-09, "lon_c": 29.959320174944793, "res": 8.0, "count_Flowering Plants": 269, "count_Insects": 255, "count_Amphibians": 7, "count_Reptiles": 31, "count_Ferns": 5, "count_Basidiomycota": 2, "count_Birds": 406, "count_Molluscs": 13, "count_Mammals": 44, "count_Sac Fungi": 41, "count_Arachnids": 4, "count_Gymnosperms": 0, "count_Mosses": 2, "unique_species_count": 1079.0, "countryCode": "UG" }, "geometry": { "type": "MultiPolygon", "coordinates": [ [ [ [ 30.352337761786686, 0.26819416212964 ], [ 30.352337759585424, -0.268194154055803 ], [ 29.963721487773935, -0.535936205365533 ], [ 29.570188562155302, -0.267602152478765 ], [ 29.570188564351913, 0.267602160351723 ], [ 29.96372148987729, 0.535936213341487 ], [ 30.352337761786686, 0.26819416212964 ] ] ] ] } },
{ "type": "Feature", "properties": { "geogrid_id": "800000000030741009", "seqnum": 18454.0, "lat_c": 4.22351e-09, "lon_c": 30.741009306660057, "res": 8.0, "count_Flowering Plants": 51, "count_Insects": 7, "count_Amphibians": 0, "count_Reptiles": 0, "count_Ferns": 0, "count_Basidiomycota": 0, "count_Birds": 18, "count_Molluscs": 0, "count_Mammals": 4, "count_Sac Fungi": 3, "count_Arachnids": 0, "count_Gymnosperms": 1, "count_Mosses": 0, "unique_species_count": 84.0, "countryCode": "UG" }, "geometry": { "type": "MultiPolygon", "coordinates": [ [ [ [ 31.132694215916452, 0.268811303191289 ], [ 31.132694213710423, -0.268811294918532 ], [ 30.744539527820447, -0.537167191569737 ], [ 30.352337759585424, -0.268194154055803 ], [ 30.352337761786686, 0.26819416212964 ], [ 30.744539529928847, 0.53716719974556 ], [ 31.132694215916452, 0.268811303191289 ] ] ] ] } },
{ "type": "Feature", "properties": { "geogrid_id": "800000000031520935", "seqnum": 18536.0, "lat_c": 4.425004e-09, "lon_c": 31.520934910448769, "res": 8.0, "count_Flowering Plants": 71, "count_Insects": 47, "count_Amphibians": 0, "count_Reptiles": 0, "count_Ferns": 0, "count_Basidiomycota": 0, "count_Birds": 74, "count_Molluscs": 0, "count_Mammals": 0, "count_Sac Fungi": 19, "count_Arachnids": 0, "count_Gymnosperms": 0, "count_Mosses": 0, "unique_species_count": 211.0, "countryCode": "UG" }, "geometry": { "type": "MultiPolygon", "coordinates": [ [ [ [ 31.911191963979828, 0.269453577007994 ], [ 31.911191961768907, -0.269453568538318 ], [ 31.523467311140653, -0.538449314873349 ], [ 31.132694213710423, -0.268811294918532 ], [ 31.132694215916452, 0.268811303191289 ], [ 31.523467313254219, 0.538449323247048 ], [ 31.911191963979828, 0.269453577007994 ] ] ] ] } },
{ "type": "Feature", "properties": { "geogrid_id": "800000000032299034", "seqnum": 18618.0, "lat_c": 4.624587e-09, "lon_c": 32.299033538243464, "res": 8.0, "count_Flowering Plants": 292, "count_Insects": 434, "count_Amphibians": 15, "count_Reptiles": 32, "count_Ferns": 3, "count_Basidiomycota": 24, "count_Birds": 325, "count_Molluscs": 18, "count_Mammals": 32, "count_Sac Fungi": 53, "count_Arachnids": 17, "count_Gymnosperms": 2, "count_Mosses": 0, "unique_species_count": 1247.0, "countryCode": "UG" }, "geometry": { "type": "MultiPolygon", "coordinates": [ [ [ [ 32.687766045346017, 0.270120976785922 ], [ 32.687766043130097, -0.27012096812137 ], [ 32.300437308807723, -0.539782556454249 ], [ 31.911191961768907, -0.269453568538318 ], [ 31.911191963979828, 0.269453577007994 ], [ 32.300437310926569, 0.539782565023787 ], [ 32.687766045346017, 0.270120976785922 ] ] ] ] } },
{ "type": "Feature", "properties": { "geogrid_id": "800000000033075243", "seqnum": 18700.0, "lat_c": 4.822216e-09, "lon_c": 33.075242700473289, "res": 8.0, "count_Flowering Plants": 216, "count_Insects": 129, "count_Amphibians": 4, "count_Reptiles": 11, "count_Ferns": 29, "count_Basidiomycota": 8, "count_Birds": 210, "count_Molluscs": 7, "count_Mammals": 16, "count_Sac Fungi": 7, "count_Arachnids": 3, "count_Gymnosperms": 0, "count_Mosses": 0, "unique_species_count": 640.0, "countryCode": "UG" }, "geometry": { "type": "MultiPolygon", "coordinates": [ [ [ [ 33.46235252884329, 0.270813495466247 ], [ 33.462352526622269, -0.270813486608901 ], [ 33.075383069371668, -0.541166896744476 ], [ 32.687766043130097, -0.27012096812137 ], [ 32.687766045346017, 0.270120976785922 ], [ 33.075383071495914, 0.541166905507777 ], [ 33.46235252884329, 0.270813495466247 ] ] ] ] } },
{ "type": "Feature", "properties": { "geogrid_id": "800000000033849501", "seqnum": 18782.0, "lat_c": 5.017844e-09, "lon_c": 33.849500891528869, "res": 8.0, "count_Flowering Plants": 4, "count_Insects": 9, "count_Amphibians": 0, "count_Reptiles": 0, "count_Ferns": 0, "count_Basidiomycota": 0, "count_Birds": 1, "count_Molluscs": 0, "count_Mammals": 0, "count_Sac Fungi": 0, "count_Arachnids": 0, "count_Gymnosperms": 0, "count_Mosses": 0, "unique_species_count": 14.0, "countryCode": "UG" }, "geometry": { "type": "MultiPolygon", "coordinates": [ [ [ [ 34.234888538777291, 0.271531125725307 ], [ 34.234888536551068, -0.271531116677289 ], [ 33.848239246802244, -0.542602315431057 ], [ 33.462352526622269, -0.270813486608901 ], [ 33.46235252884329, 0.270813495466247 ], [ 33.848239248931989, 0.542602324386006 ], [ 34.234888538777291, 0.271531125725307 ] ] ] ] } },
{ "type": "Feature", "properties": { "geogrid_id": "800803224029575133", "seqnum": 18291.0, "lat_c": 0.80322407418687802, "lon_c": 29.575133370895564, "res": 8.0, "count_Flowering Plants": 0, "count_Insects": 0, "count_Amphibians": 0, "count_Reptiles": 0, "count_Ferns": 0, "count_Basidiomycota": 0, "count_Birds": 0, "count_Molluscs": 0, "count_Mammals": 1, "count_Sac Fungi": 0, "count_Arachnids": 0, "count_Gymnosperms": 0, "count_Mosses": 0, "unique_species_count": 1.0, "countryCode": "UG" }, "geometry": { "type": "MultiPolygon", "coordinates": [ [ [ [ 29.968380005007766, 1.072502596194628 ], [ 29.96372148987729, 0.535936213341487 ], [ 29.570188564351913, 0.267602160351723 ], [ 29.181081770151128, 0.534756382110357 ], [ 29.186546303673076, 1.07005587521593 ], [ 29.580321138340366, 1.339477481053562 ], [ 29.968380005007766, 1.072502596194628 ] ] ] ] } },
{ "type": "Feature", "properties": { "geogrid_id": "800805065030356444", "seqnum": 18373.0, "lat_c": 0.80506509962771799, "lon_c": 30.356443800688073, "res": 8.0, "count_Flowering Plants": 286, "count_Insects": 609, "count_Amphibians": 13, "count_Reptiles": 31, "count_Ferns": 3, "count_Basidiomycota": 79, "count_Birds": 413, "count_Molluscs": 12, "count_Mammals": 54, "count_Sac Fungi": 23, "count_Arachnids": 11, "count_Gymnosperms": 2, "count_Mosses": 0, "unique_species_count": 1536.0, "countryCode": "UG" }, "geometry": { "type": "MultiPolygon", "coordinates": [ [ [ [ 30.748260948723399, 1.075055223516228 ], [ 30.744539529928847, 0.53716719974556 ], [ 30.352337761786686, 0.26819416212964 ], [ 29.96372148987729, 0.535936213341487 ], [ 29.968380005007766, 1.072502596194628 ], [ 30.36072540981057, 1.342659737853213 ], [ 30.748260948723399, 1.075055223516228 ] ] ] ] } },
{ "type": "Feature", "properties": { "geogrid_id": "800806984031135833", "seqnum": 18455.0, "lat_c": 0.80698417401315403, "lon_c": 31.135832617462263, "res": 8.0, "count_Flowering Plants": 22, "count_Insects": 32, "count_Amphibians": 1, "count_Reptiles": 3, "count_Ferns": 0, "count_Basidiomycota": 0, "count_Birds": 87, "count_Molluscs": 0, "count_Mammals": 4, "count_Sac Fungi": 3, "count_Arachnids": 1, "count_Gymnosperms": 0, "count_Mosses": 0, "unique_species_count": 153.0, "countryCode": "UG" }, "geometry": { "type": "MultiPolygon", "coordinates": [ [ [ [ 31.526116152903096, 1.077713697028197 ], [ 31.523467313254219, 0.538449323247048 ], [ 31.132694215916452, 0.268811303191289 ], [ 30.744539529928847, 0.53716719974556 ], [ 30.748260948723399, 1.075055223516228 ], [ 31.139070130642121, 1.34597665397484 ], [ 31.526116152903096, 1.077713697028197 ] ] ] ] } },
{ "type": "Feature", "properties": { "geogrid_id": "800808981031913230", "seqnum": 18537.0, "lat_c": 0.80898126087051503, "lon_c": 31.913229620691954, "res": 8.0, "count_Flowering Plants": 29, "count_Insects": 3, "count_Amphibians": 0, "count_Reptiles": 2, "count_Ferns": 0, "count_Basidiomycota": 0, "count_Birds": 50, "count_Molluscs": 1, "count_Mammals": 0, "count_Sac Fungi": 10, "count_Arachnids": 0, "count_Gymnosperms": 0, "count_Mosses": 0, "unique_species_count": 95.0, "countryCode": "UG" }, "geometry": { "type": "MultiPolygon", "coordinates": [ [ [ [ 32.301873817217597, 1.080477954114973 ], [ 32.300437310926569, 0.539782565023787 ], [ 31.911191963979828, 0.269453577007994 ], [ 31.523467313254219, 0.538449323247048 ], [ 31.526116152903096, 1.077713697028197 ], [ 31.915280658748891, 1.349428135368048 ], [ 32.301873817217597, 1.080477954114973 ] ] ] ] } },
{ "type": "Feature", "properties": { "geogrid_id": "800811056032688566", "seqnum": 18619.0, "lat_c": 0.81105632225834101, "lon_c": 32.688565737992533, "res": 8.0, "count_Flowering Plants": 186, "count_Insects": 158, "count_Amphibians": 9, "count_Reptiles": 16, "count_Ferns": 14, "count_Basidiomycota": 2, "count_Birds": 114, "count_Molluscs": 0, "count_Mammals": 11, "count_Sac Fungi": 8, "count_Arachnids": 6, "count_Gymnosperms": 1, "count_Mosses": 0, "unique_species_count": 525.0, "countryCode": "UG" }, "geometry": { "type": "MultiPolygon", "coordinates": [ [ [ [ 33.075463355230667, 1.083347929703214 ], [ 33.075383071495914, 0.541166905507777 ], [ 32.687766045346017, 0.270120976785922 ], [ 32.300437310926569, 0.539782565023787 ], [ 32.301873817217597, 1.080477954114973 ], [ 32.689283624778113, 1.353014084231414 ], [ 33.075463355230667, 1.083347929703214 ] ] ] ] } },
{ "type": "Feature", "properties": { "geogrid_id": "800813209033461773", "seqnum": 18701.0, "lat_c": 0.81320931876875502, "lon_c": 33.461773055154381, "res": 8.0, "count_Flowering Plants": 65, "count_Insects": 34, "count_Amphibians": 3, "count_Reptiles": 13, "count_Ferns": 0, "count_Basidiomycota": 3, "count_Birds": 87, "count_Molluscs": 3, "count_Mammals": 12, "count_Sac Fungi": 0, "count_Arachnids": 5, "count_Gymnosperms": 0, "count_Mosses": 0, "unique_species_count": 225.0, "countryCode": "UG" }, "geometry": { "type": "MultiPolygon", "coordinates": [ [ [ [ 33.846815425045627, 1.086323556267261 ], [ 33.848239248931989, 0.542602324386006 ], [ 33.46235252884329, 0.270813495466247 ], [ 33.075383071495914, 0.541166905507777 ], [ 33.075463355230667, 1.083347929703214 ], [ 33.461006965096388, 1.356734399022897 ], [ 33.846815425045627, 1.086323556267261 ] ] ] ] } },
{ "type": "Feature", "properties": { "geogrid_id": "800815440034232785", "seqnum": 18783.0, "lat_c": 0.81544020952992102, "lon_c": 34.232784844637578, "res": 8.0, "count_Flowering Plants": 119, "count_Insects": 45, "count_Amphibians": 3, "count_Reptiles": 7, "count_Ferns": 0, "count_Basidiomycota": 1, "count_Birds": 84, "count_Molluscs": 3, "count_Mammals": 14, "count_Sac Fungi": 39, "count_Arachnids": 2, "count_Gymnosperms": 0, "count_Mosses": 1, "unique_species_count": 318.0, "countryCode": "UG" }, "geometry": { "type": "MultiPolygon", "coordinates": [ [ [ [ 34.615861958272603, 1.089404763834796 ], [ 34.61894162913854, 0.544088800601301 ], [ 34.234888538777291, 0.271531125725307 ], [ 33.848239248931989, 0.542602324386006 ], [ 33.846815425045627, 1.086323556267261 ], [ 34.230379952962728, 1.360588974470626 ], [ 34.615861958272603, 1.089404763834796 ] ] ] ] } },
{ "type": "Feature", "properties": { "geogrid_id": "801613767030752065", "seqnum": 18374.0, "lat_c": 1.61376706812093, "lon_c": 30.752064809245951, "res": 8.0, "count_Flowering Plants": 6, "count_Insects": 249, "count_Amphibians": 0, "count_Reptiles": 7, "count_Ferns": 1, "count_Basidiomycota": 0, "count_Birds": 160, "count_Molluscs": 0, "count_Mammals": 9, "count_Sac Fungi": 0, "count_Arachnids": 9, "count_Gymnosperms": 0, "count_Mosses": 0, "unique_species_count": 441.0, "countryCode": "UG" }, "geometry": { "type": "MultiPolygon", "coordinates": [ [ [ [ 31.142284256418382, 1.885900152083679 ], [ 31.139070130642121, 1.34597665397484 ], [ 30.748260948723399, 1.075055223516228 ], [ 30.36072540981057, 1.342659737853213 ], [ 30.365073463421883, 1.881082040907109 ], [ 30.755827902883205, 2.153415347557095 ], [ 31.142284256418382, 1.885900152083679 ] ] ] ] } },
{ "type": "Feature", "properties": { "geogrid_id": "801617903031528760", "seqnum": 18456.0, "lat_c": 1.61790333263317, "lon_c": 31.528759660563015, "res": 8.0, "count_Flowering Plants": 70, "count_Insects": 187, "count_Amphibians": 17, "count_Reptiles": 39, "count_Ferns": 1, "count_Basidiomycota": 2, "count_Birds": 347, "count_Molluscs": 5, "count_Mammals": 76, "count_Sac Fungi": 1, "count_Arachnids": 4, "count_Gymnosperms": 1, "count_Mosses": 0, "unique_species_count": 750.0, "countryCode": "UG" }, "geometry": { "type": "MultiPolygon", "coordinates": [ [ [ [ 31.917208292381051, 1.890913293127325 ], [ 31.915280658748891, 1.349428135368048 ], [ 31.526116152903096, 1.077713697028197 ], [ 31.139070130642121, 1.34597665397484 ], [ 31.142284256418382, 1.885900152083679 ], [ 31.53125992242067, 2.159138779799925 ], [ 31.917208292381051, 1.890913293127325 ] ] ] ] } },
{ "type": "Feature", "properties": { "geogrid_id": "801622204032303207", "seqnum": 18538.0, "lat_c": 1.6222038204669491, "lon_c": 32.303207405374671, "res": 8.0, "count_Flowering Plants": 39, "count_Insects": 63, "count_Amphibians": 1, "count_Reptiles": 3, "count_Ferns": 0, "count_Basidiomycota": 0, "count_Birds": 143, "count_Molluscs": 3, "count_Mammals": 22, "count_Sac Fungi": 0, "count_Arachnids": 1, "count_Gymnosperms": 0, "count_Mosses": 0, "unique_species_count": 275.0, "countryCode": "UG" }, "geometry": { "type": "MultiPolygon", "coordinates": [ [ [ [ 32.689767713830264, 1.896121270118724 ], [ 32.689283624778113, 1.353014084231414 ], [ 32.301873817217597, 1.080477954114973 ], [ 31.915280658748891, 1.349428135368048 ], [ 31.917208292381051, 1.890913293127325 ], [ 32.304284487613934, 2.16508889216175 ], [ 32.689767713830264, 1.896121270118724 ] ] ] ] } },
{ "type": "Feature", "properties": { "geogrid_id": "801626668033075333", "seqnum": 18620.0, "lat_c": 1.626668388145688, "lon_c": 33.075333143999103, "res": 8.0, "count_Flowering Plants": 20, "count_Insects": 2, "count_Amphibians": 1, "count_Reptiles": 4, "count_Ferns": 0, "count_Basidiomycota": 1, "count_Birds": 23, "count_Molluscs": 6, "count_Mammals": 1, "count_Sac Fungi": 6, "count_Arachnids": 0, "count_Gymnosperms": 0, "count_Mosses": 0, "unique_species_count": 64.0, "countryCode": "UG" }, "geometry": { "type": "MultiPolygon", "coordinates": [ [ [ [ 33.459886138242744, 1.901523881807897 ], [ 33.461006965096388, 1.356734399022897 ], [ 33.075463355230667, 1.083347929703214 ], [ 32.689283624778113, 1.353014084231414 ], [ 32.689767713830264, 1.896121270118724 ], [ 33.074822203537188, 2.171265421416611 ], [ 33.459886138242744, 1.901523881807897 ] ] ] ] } },
{ "type": "Feature", "properties": { "geogrid_id": "801631297033845063", "seqnum": 18702.0, "lat_c": 1.63129688684767, "lon_c": 33.845063380723552, "res": 8.0, "count_Flowering Plants": 46, "count_Insects": 12, "count_Amphibians": 1, "count_Reptiles": 3, "count_Ferns": 0, "count_Basidiomycota": 0, "count_Birds": 48, "count_Molluscs": 1, "count_Mammals": 1, "count_Sac Fungi": 4, "count_Arachnids": 0, "count_Gymnosperms": 0, "count_Mosses": 0, "unique_species_count": 116.0, "countryCode": "UG" }, "geometry": { "type": "MultiPolygon", "coordinates": [ [ [ [ 34.227488692091725, 1.907120919645252 ], [ 34.230379952962728, 1.360588974470626 ], [ 33.846815425045627, 1.086323556267261 ], [ 33.461006965096388, 1.356734399022897 ], [ 33.459886138242744, 1.901523881807897 ], [ 33.842795262060378, 2.17766809465711 ], [ 34.227488692091725, 1.907120919645252 ] ] ] ] } },
{ "type": "Feature", "properties": { "geogrid_id": "801636089034612326", "seqnum": 18784.0, "lat_c": 1.6360891624253391, "lon_c": 34.612326055396188, "res": 8.0, "count_Flowering Plants": 177, "count_Insects": 65, "count_Amphibians": 0, "count_Reptiles": 9, "count_Ferns": 2, "count_Basidiomycota": 1, "count_Birds": 317, "count_Molluscs": 11, "count_Mammals": 22, "count_Sac Fungi": 10, "count_Arachnids": 2, "count_Gymnosperms": 1, "count_Mosses": 1, "unique_species_count": 618.0, "countryCode": "UG" }, "geometry": { "type": "MultiPolygon", "coordinates": [ [ [ [ 34.992502042725626, 1.912912167813687 ], [ 34.997333227870037, 1.364577701584076 ], [ 34.615861958272603, 1.089404763834796 ], [ 34.230379952962728, 1.360588974470626 ], [ 34.227488692091725, 1.907120919645252 ], [ 34.608127476212736, 2.184296629343419 ], [ 34.992502042725626, 1.912912167813687 ] ] ] ] } },
{ "type": "Feature", "properties": { "geogrid_id": "802426877031145336", "seqnum": 18375.0, "lat_c": 2.4268766880092452, "lon_c": 31.145335960480519, "res": 8.0, "count_Flowering Plants": 31, "count_Insects": 54, "count_Amphibians": 0, "count_Reptiles": 15, "count_Ferns": 0, "count_Basidiomycota": 0, "count_Birds": 229, "count_Molluscs": 12, "count_Mammals": 23, "count_Sac Fungi": 0, "count_Arachnids": 3, "count_Gymnosperms": 0, "count_Mosses": 0, "unique_species_count": 367.0, "countryCode": "UG" }, "geometry": { "type": "MultiPolygon", "coordinates": [ [ [ [ 31.533460129874602, 2.701552281331588 ], [ 31.53125992242067, 2.159138779799925 ], [ 31.142284256418382, 1.885900152083679 ], [ 30.755827902883205, 2.153415347557095 ], [ 30.759410086593526, 2.694123563161102 ], [ 31.148066816736225, 2.969040297649823 ], [ 31.533460129874602, 2.701552281331588 ] ] ] ] } },
{ "type": "Feature", "properties": { "geogrid_id": "802433567031918857", "seqnum": 18457.0, "lat_c": 2.4335672074958312, "lon_c": 31.918857327053495, "res": 8.0, "count_Flowering Plants": 66, "count_Insects": 89, "count_Amphibians": 5, "count_Reptiles": 12, "count_Ferns": 2, "count_Basidiomycota": 0, "count_Birds": 259, "count_Molluscs": 0, "count_Mammals": 36, "count_Sac Fungi": 0, "count_Arachnids": 3, "count_Gymnosperms": 0, "count_Mosses": 0, "unique_species_count": 472.0, "countryCode": "UG" }, "geometry": { "type": "MultiPolygon", "coordinates": [ [ [ [ 32.304930506720041, 2.709274411453812 ], [ 32.304284487613934, 2.16508889216175 ], [ 31.917208292381051, 1.890913293127325 ], [ 31.53125992242067, 2.159138779799925 ], [ 31.533460129874602, 2.701552281331588 ], [ 31.920051001885248, 2.977533227983667 ], [ 32.304930506720041, 2.709274411453812 ] ] ] ] } },
{ "type": "Feature", "properties": { "geogrid_id": "802440517032689846", "seqnum": 18539.0, "lat_c": 2.4405170526139992, "lon_c": 32.689845624435563, "res": 8.0, "count_Flowering Plants": 38, "count_Insects": 11, "count_Amphibians": 0, "count_Reptiles": 1, "count_Ferns": 0, "count_Basidiomycota": 3, "count_Birds": 4, "count_Molluscs": 0, "count_Mammals": 0, "count_Sac Fungi": 6, "count_Arachnids": 0, "count_Gymnosperms": 0, "count_Mosses": 0, "unique_species_count": 63.0, "countryCode": "UG" }, "geometry": { "type": "MultiPolygon", "coordinates": [ [ [ [ 33.07373714324148, 2.717289518945614 ], [ 33.074822203537188, 2.171265421416611 ], [ 32.689767713830264, 1.896121270118724 ], [ 32.304284487613934, 2.16508889216175 ], [ 32.304930506720041, 2.709274411453812 ], [ 32.689321114431245, 2.986354354868877 ], [ 33.07373714324148, 2.717289518945614 ] ] ] ] } },
{ "type": "Feature", "properties": { "geogrid_id": "802447726033458220", "seqnum": 18621.0, "lat_c": 2.4477258753830311, "lon_c": 33.458219980602529, "res": 8.0, "count_Flowering Plants": 15, "count_Insects": 1, "count_Amphibians": 0, "count_Reptiles": 0, "count_Ferns": 0, "count_Basidiomycota": 0, "count_Birds": 0, "count_Molluscs": 0, "count_Mammals": 1, "count_Sac Fungi": 0, "count_Arachnids": 0, "count_Gymnosperms": 0, "count_Mosses": 0, "unique_species_count": 17.0, "countryCode": "UG" }, "geometry": { "type": "MultiPolygon", "coordinates": [ [ [ [ 33.839797762175792, 2.725597153467263 ], [ 33.842795262060378, 2.17766809465711 ], [ 33.459886138242744, 1.901523881807897 ], [ 33.074822203537188, 2.171265421416611 ], [ 33.07373714324148, 2.717289518945614 ], [ 33.455791623767581, 2.995503125100002 ], [ 33.839797762175792, 2.725597153467263 ] ] ] ] } },
{ "type": "Feature", "properties": { "geogrid_id": "802455193034223901", "seqnum": 18703.0, "lat_c": 2.4551933153764991, "lon_c": 34.22390122983338, "res": 8.0, "count_Flowering Plants": 51, "count_Insects": 0, "count_Amphibians": 0, "count_Reptiles": 2, "count_Ferns": 0, "count_Basidiomycota": 0, "count_Birds": 44, "count_Molluscs": 6, "count_Mammals": 3, "count_Sac Fungi": 0, "count_Arachnids": 0, "count_Gymnosperms": 0, "count_Mosses": 0, "unique_species_count": 106.0, "countryCode": "UG" }, "geometry": { "type": "MultiPolygon", "coordinates": [ [ [ [ 34.603031920126064, 2.734196849026737 ], [ 34.608127476212736, 2.184296629343419 ], [ 34.227488692091725, 1.907120919645252 ], [ 33.842795262060378, 2.17766809465711 ], [ 33.839797762175792, 2.725597153467263 ], [ 34.219378931974383, 3.004978965992972 ], [ 34.603031920126064, 2.734196849026737 ] ] ] ] } },
{ "type": "Feature", "properties": { "geogrid_id": "802462919034986812", "seqnum": 18785.0, "lat_c": 2.4629189997964689, "lon_c": 34.986811947221703, "res": 8.0, "count_Flowering Plants": 68, "count_Insects": 8, "count_Amphibians": 0, "count_Reptiles": 2, "count_Ferns": 0, "count_Basidiomycota": 0, "count_Birds": 81, "count_Molluscs": 0, "count_Mammals": 1, "count_Sac Fungi": 11, "count_Arachnids": 0, "count_Gymnosperms": 0, "count_Mosses": 0, "unique_species_count": 171.0, "countryCode": "UG" }, "geometry": { "type": "MultiPolygon", "coordinates": [ [ [ [ 35.363361042010638, 2.743088124088336 ], [ 35.370744312188563, 2.191150733353903 ], [ 34.992502042725626, 1.912912167813687 ], [ 34.608127476212736, 2.184296629343419 ], [ 34.603031920126064, 2.734196849026737 ], [ 34.980001410999236, 3.014781285535211 ], [ 35.363361042010638, 2.743088124088336 ] ] ] ] } },
{ "type": "Feature", "properties": { "geogrid_id": "803236028030762651", "seqnum": 18294.0, "lat_c": 3.236027566851797, "lon_c": 30.762651317662993, "res": 8.0, "count_Flowering Plants": 30, "count_Insects": 2, "count_Amphibians": 1, "count_Reptiles": 5, "count_Ferns": 0, "count_Basidiomycota": 0, "count_Birds": 16, "count_Molluscs": 0, "count_Mammals": 2, "count_Sac Fungi": 0, "count_Arachnids": 0, "count_Gymnosperms": 0, "count_Mosses": 0, "unique_species_count": 56.0, "countryCode": "UG" }, "geometry": { "type": "MultiPolygon", "coordinates": [ [ [ [ 31.150295588905557, 3.512538658544094 ], [ 31.148066816736225, 2.969040297649823 ], [ 30.759410086593526, 2.694123563161102 ], [ 30.373455982060356, 2.960876097448716 ], [ 30.377187557948655, 3.502510534366004 ], [ 30.76536809584751, 3.779277256824201 ], [ 31.150295588905557, 3.512538658544094 ] ] ] ] } },
{ "type": "Feature", "properties": { "geogrid_id": "803245289031535181", "seqnum": 18376.0, "lat_c": 3.245289331828217, "lon_c": 31.535181294469002, "res": 8.0, "count_Flowering Plants": 23, "count_Insects": 0, "count_Amphibians": 0, "count_Reptiles": 2, "count_Ferns": 0, "count_Basidiomycota": 0, "count_Birds": 9, "count_Molluscs": 0, "count_Mammals": 11, "count_Sac Fungi": 0, "count_Arachnids": 0, "count_Gymnosperms": 0, "count_Mosses": 0, "unique_species_count": 45.0, "countryCode": "UG" }, "geometry": { "type": "MultiPolygon", "coordinates": [ [ [ [ 31.920587214611679, 3.522969307054319 ], [ 31.920051001885248, 2.977533227983667 ], [ 31.533460129874602, 2.701552281331588 ], [ 31.148066816736225, 2.969040297649823 ], [ 31.150295588905557, 3.512538658544094 ], [ 31.536218310210955, 3.790510481295491 ], [ 31.920587214611679, 3.522969307054319 ] ] ] ] } },
{ "type": "Feature", "properties": { "geogrid_id": "803254916032304946", "seqnum": 18458.0, "lat_c": 3.2549157888356168, "lon_c": 32.304946315904033, "res": 8.0, "count_Flowering Plants": 26, "count_Insects": 5, "count_Amphibians": 2, "count_Reptiles": 5, "count_Ferns": 1, "count_Basidiomycota": 0, "count_Birds": 16, "count_Molluscs": 1, "count_Mammals": 1, "count_Sac Fungi": 0, "count_Arachnids": 0, "count_Gymnosperms": 0, "count_Mosses": 0, "unique_species_count": 57.0, "countryCode": "UG" }, "geometry": { "type": "MultiPolygon", "coordinates": [ [ [ [ 32.687969932709869, 3.533801678053302 ], [ 32.689321114431245, 2.986354354868877 ], [ 32.304930506720041, 2.709274411453812 ], [ 31.920051001885248, 2.977533227983667 ], [ 31.920587214611679, 3.522969307054319 ], [ 32.304103843948788, 3.802184513892095 ], [ 32.687969932709869, 3.533801678053302 ] ] ] ] } },
{ "type": "Feature", "properties": { "geogrid_id": "803264906033071857", "seqnum": 18540.0, "lat_c": 3.264906267856555, "lon_c": 33.071857446496487, "res": 8.0, "count_Flowering Plants": 19, "count_Insects": 1, "count_Amphibians": 0, "count_Reptiles": 4, "count_Ferns": 0, "count_Basidiomycota": 0, "count_Birds": 6, "count_Molluscs": 0, "count_Mammals": 0, "count_Sac Fungi": 0, "count_Arachnids": 0, "count_Gymnosperms": 0, "count_Mosses": 0, "unique_species_count": 30.0, "countryCode": "UG" }, "geometry": { "type": "MultiPolygon", "coordinates": [ [ [ [ 33.452353390102047, 3.545034940679381 ], [ 33.455791623767581, 2.995503125100002 ], [ 33.07373714324148, 2.717289518945614 ], [ 32.689321114431245, 2.986354354868877 ], [ 32.687969932709869, 3.533801678053302 ], [ 33.068930722353784, 3.814298369907279 ], [ 33.452353390102047, 3.545034940679381 ] ] ] ] } },
{ "type": "Feature", "properties": { "geogrid_id": "803275260033835828", "seqnum": 18622.0, "lat_c": 3.2752600749623082, "lon_c": 33.835827788448697, "res": 8.0, "count_Flowering Plants": 66, "count_Insects": 15, "count_Amphibians": 0, "count_Reptiles": 8, "count_Ferns": 0, "count_Basidiomycota": 0, "count_Birds": 164, "count_Molluscs": 0, "count_Mammals": 16, "count_Sac Fungi": 0, "count_Arachnids": 1, "count_Gymnosperms": 0, "count_Mosses": 0, "unique_species_count": 270.0, "countryCode": "UG" }, "geometry": { "type": "MultiPolygon", "coordinates": [ [ [ [ 34.213649426361798, 3.556668235322002 ], [ 34.219378931974383, 3.004978965992972 ], [ 33.839797762175792, 2.725597153467263 ], [ 33.455791623767581, 2.995503125100002 ], [ 33.452353390102047, 3.545034940679381 ], [ 33.830607285597139, 3.826851030110588 ], [ 34.213649426361798, 3.556668235322002 ] ] ] ] } },
{ "type": "Feature", "properties": { "geogrid_id": "804057535031151814", "seqnum": 18295.0, "lat_c": 4.0575349746650051, "lon_c": 31.151814122037855, "res": 8.0, "count_Flowering Plants": 2, "count_Insects": 2, "count_Amphibians": 6, "count_Reptiles": 7, "count_Ferns": 0, "count_Basidiomycota": 0, "count_Birds": 11, "count_Molluscs": 0, "count_Mammals": 4, "count_Sac Fungi": 0, "count_Arachnids": 1, "count_Gymnosperms": 0, "count_Mosses": 0, "unique_species_count": 33.0, "countryCode": "UG" }, "geometry": { "type": "MultiPolygon", "coordinates": [ [ [ [ 31.536335213090055, 4.337393427643194 ], [ 31.536218310210955, 3.790510481295491 ], [ 31.150295588905557, 3.512538658544094 ], [ 30.76536809584751, 3.779277256824201 ], [ 30.767349175510763, 4.324038548190807 ], [ 31.152382382529396, 4.604210167994389 ], [ 31.536335213090055, 4.337393427643194 ] ] ] ] } },
{ "type": "Feature", "properties": { "geogrid_id": "804070050031920234", "seqnum": 18377.0, "lat_c": 4.0700499991754819, "lon_c": 31.920233989268251, "res": 8.0, "count_Flowering Plants": 6, "count_Insects": 9, "count_Amphibians": 0, "count_Reptiles": 1, "count_Ferns": 0, "count_Basidiomycota": 0, "count_Birds": 11, "count_Molluscs": 0, "count_Mammals": 0, "count_Sac Fungi": 0, "count_Arachnids": 0, "count_Gymnosperms": 0, "count_Mosses": 0, "unique_species_count": 27.0, "countryCode": "UG" }, "geometry": { "type": "MultiPolygon", "coordinates": [ [ [ [ 32.302140882440561, 4.351270368252905 ], [ 32.304103843948788, 3.802184513892095 ], [ 31.920587214611679, 3.522969307054319 ], [ 31.536218310210955, 3.790510481295491 ], [ 31.536335213090055, 4.337393427643194 ], [ 31.918724010834914, 4.618968780959221 ], [ 32.302140882440561, 4.351270368252905 ] ] ] ] } },
{ "type": "Feature", "properties": { "geogrid_id": "804083045032685535", "seqnum": 18459.0, "lat_c": 4.0830452133865673, "lon_c": 32.685534845178019, "res": 8.0, "count_Flowering Plants": 1, "count_Insects": 4, "count_Amphibians": 0, "count_Reptiles": 1, "count_Ferns": 0, "count_Basidiomycota": 0, "count_Birds": 1, "count_Molluscs": 0, "count_Mammals": 0, "count_Sac Fungi": 0, "count_Arachnids": 0, "count_Gymnosperms": 0, "count_Mosses": 0, "unique_species_count": 7.0, "countryCode": "UG" }, "geometry": { "type": "MultiPolygon", "coordinates": [ [ [ [ 33.064667002190504, 4.365667972887186 ], [ 33.068930722353784, 3.814298369907279 ], [ 32.687969932709869, 3.533801678053302 ], [ 32.304103843948788, 3.802184513892095 ], [ 32.302140882440561, 4.351270368252905 ], [ 32.681719643890276, 4.634291288630029 ], [ 33.064667002190504, 4.365667972887186 ] ] ] ] } },
{ "type": "Feature", "properties": { "geogrid_id": "804096519033447621", "seqnum": 18541.0, "lat_c": 4.0965194193993151, "lon_c": 33.447621360351924, "res": 8.0, "count_Flowering Plants": 19, "count_Insects": 9, "count_Amphibians": 0, "count_Reptiles": 11, "count_Ferns": 0, "count_Basidiomycota": 0, "count_Birds": 169, "count_Molluscs": 0, "count_Mammals": 19, "count_Sac Fungi": 2, "count_Arachnids": 1, "count_Gymnosperms": 0, "count_Mosses": 0, "unique_species_count": 230.0, "countryCode": "UG" }, "geometry": { "type": "MultiPolygon", "coordinates": [ [ [ [ 33.823817024992266, 4.380584796393974 ], [ 33.830607285597139, 3.826851030110588 ], [ 33.452353390102047, 3.545034940679381 ], [ 33.068930722353784, 3.814298369907279 ], [ 33.064667002190504, 4.365667972887186 ], [ 33.441268838791139, 4.650176016056448 ], [ 33.823817024992266, 4.380584796393974 ] ] ] ] } },
{ "type": "Feature", "properties": { "geogrid_id": "804110471034206401", "seqnum": 18623.0, "lat_c": 4.1104713786674703, "lon_c": 34.206400696920731, "res": 8.0, "count_Flowering Plants": 30, "count_Insects": 8, "count_Amphibians": 0, "count_Reptiles": 0, "count_Ferns": 0, "count_Basidiomycota": 0, "count_Birds": 15, "count_Molluscs": 0, "count_Mammals": 0, "count_Sac Fungi": 0, "count_Arachnids": 0, "count_Gymnosperms": 0, "count_Mosses": 0, "unique_species_count": 53.0, "countryCode": "UG" }, "geometry": { "type": "MultiPolygon", "coordinates": [ [ [ [ 34.579497083215479, 4.396019346215661 ], [ 34.589044231752581, 3.839841441110676 ], [ 34.213649426361798, 3.556668235322002 ], [ 33.830607285597139, 3.826851030110588 ], [ 33.823817024992266, 4.380584796393974 ], [ 34.19727398812649, 4.666621232686137 ], [ 34.579497083215479, 4.396019346215661 ] ] ] ] } }
]
}
