{
"type": "FeatureCollection",
"name": "UY",
"crs": { "type": "name", "properties": { "name": "urn:ogc:def:crs:OGC:1.3:CRS84" } },
"features": [
{ "type": "Feature", "properties": { "geogrid_id": "7430059493057712006", "seqnum": 39961.0, "lat_c": -30.059492699595793, "lon_c": -57.712005745053766, "res": 8.0, "count_Ferns": 1, "count_Molluscs": 12, "count_Flowering Plants": 158, "count_Mammals": 10, "count_Arachnids": 21, "count_Birds": 187, "count_Insects": 92, "count_Basidiomycota": 0, "count_Amphibians": 18, "count_Gymnosperms": 0, "count_Sac Fungi": 0, "count_Reptiles": 18, "count_Mosses": 0, "unique_species_count": 517.0, "countryCode": "UY" }, "geometry": { "type": "MultiPolygon", "coordinates": [ [ [ [ -57.175535287127914, -30.106536649267749 ], [ -57.428113525263406, -30.536522483326937 ], [ -57.966064174280426, -30.488306638555436 ], [ -58.248075891606369, -30.010047685338105 ], [ -57.992213719281345, -29.582666748169757 ], [ -57.457586786834376, -29.630943597963814 ], [ -57.175535287127914, -30.106536649267749 ] ] ] ] } },
{ "type": "Feature", "properties": { "geogrid_id": "7430193426056101418", "seqnum": 40044.0, "lat_c": -30.19342572440728, "lon_c": -56.101417839932246, "res": 8.0, "count_Ferns": 0, "count_Molluscs": 1, "count_Flowering Plants": 37, "count_Mammals": 2, "count_Arachnids": 2, "count_Birds": 9, "count_Insects": 12, "count_Basidiomycota": 0, "count_Amphibians": 2, "count_Gymnosperms": 0, "count_Sac Fungi": 0, "count_Reptiles": 7, "count_Mosses": 0, "unique_species_count": 72.0, "countryCode": "UY" }, "geometry": { "type": "MultiPolygon", "coordinates": [ [ [ [ -55.563781768390719, -30.233273988910685 ], [ -55.811953974929466, -30.666646479482264 ], [ -56.35105163708257, -30.625691436754661 ], [ -56.638670740417744, -30.151180534233429 ], [ -56.387127315272764, -29.720358721175931 ], [ -55.851304379897606, -29.761500563892348 ], [ -55.563781768390719, -30.233273988910685 ] ] ] ] } },
{ "type": "Feature", "properties": { "geogrid_id": "7430582317056889774", "seqnum": 40043.0, "lat_c": -30.582317153375062, "lon_c": -56.889773664157566, "res": 8.0, "count_Ferns": 0, "count_Molluscs": 1, "count_Flowering Plants": 78, "count_Mammals": 12, "count_Arachnids": 4, "count_Birds": 24, "count_Insects": 22, "count_Basidiomycota": 0, "count_Amphibians": 8, "count_Gymnosperms": 0, "count_Sac Fungi": 0, "count_Reptiles": 19, "count_Mosses": 0, "unique_species_count": 168.0, "countryCode": "UY" }, "geometry": { "type": "MultiPolygon", "coordinates": [ [ [ [ -56.35105163708257, -30.625691436754661 ], [ -56.599930989313314, -31.058318511300481 ], [ -57.140168596356609, -31.013789429969343 ], [ -57.428113525263406, -30.536522483326937 ], [ -57.175535287127914, -30.106536649267749 ], [ -56.638670740417744, -30.151180534233429 ], [ -56.35105163708257, -30.625691436754661 ] ] ] ] } },
{ "type": "Feature", "properties": { "geogrid_id": "7430705184055272487", "seqnum": 40126.0, "lat_c": -30.705183813495236, "lon_c": -55.272486623175183, "res": 8.0, "count_Ferns": 3, "count_Molluscs": 1, "count_Flowering Plants": 158, "count_Mammals": 5, "count_Arachnids": 9, "count_Birds": 40, "count_Insects": 55, "count_Basidiomycota": 0, "count_Amphibians": 23, "count_Gymnosperms": 0, "count_Sac Fungi": 2, "count_Reptiles": 5, "count_Mosses": 1, "unique_species_count": 302.0, "countryCode": "UY" }, "geometry": { "type": "MultiPolygon", "coordinates": [ [ [ [ -54.732654866019345, -30.741305388413792 ], [ -54.977042114011482, -31.177263976699198 ], [ -55.51836058125663, -31.140054688235779 ], [ -55.811953974929466, -30.666646479482264 ], [ -55.563781768390719, -30.233273988910685 ], [ -55.025767086617968, -30.270727529061702 ], [ -54.732654866019345, -30.741305388413792 ] ] ] ] } },
{ "type": "Feature", "properties": { "geogrid_id": "7430966819057680031", "seqnum": 40042.0, "lat_c": -30.966818814136996, "lon_c": -57.680030637682279, "res": 8.0, "count_Ferns": 2, "count_Molluscs": 3, "count_Flowering Plants": 150, "count_Mammals": 8, "count_Arachnids": 9, "count_Birds": 130, "count_Insects": 99, "count_Basidiomycota": 5, "count_Amphibians": 22, "count_Gymnosperms": 0, "count_Sac Fungi": 3, "count_Reptiles": 12, "count_Mosses": 0, "unique_species_count": 443.0, "countryCode": "UY" }, "geometry": { "type": "MultiPolygon", "coordinates": [ [ [ [ -57.140168596356609, -31.013789429969343 ], [ -57.389556662282978, -31.445617279245916 ], [ -57.930996117758376, -31.397445804831886 ], [ -58.21950863609856, -30.917406415124489 ], [ -57.966064174280426, -30.488306638555436 ], [ -57.428113525263406, -30.536522483326937 ], [ -57.140168596356609, -31.013789429969343 ] ] ] ] } },
{ "type": "Feature", "properties": { "geogrid_id": "7431100407056059326", "seqnum": 40125.0, "lat_c": -31.100406626801764, "lon_c": -56.059325826570301, "res": 8.0, "count_Ferns": 29, "count_Molluscs": 2, "count_Flowering Plants": 361, "count_Mammals": 18, "count_Arachnids": 24, "count_Birds": 138, "count_Insects": 106, "count_Basidiomycota": 6, "count_Amphibians": 17, "count_Gymnosperms": 0, "count_Sac Fungi": 4, "count_Reptiles": 21, "count_Mosses": 0, "unique_species_count": 726.0, "countryCode": "UY" }, "geometry": { "type": "MultiPolygon", "coordinates": [ [ [ [ -55.51836058125663, -31.140054688235779 ], [ -55.763063521668094, -31.575359425367086 ], [ -56.305580985308197, -31.534573894851551 ], [ -56.599930989313314, -31.058318511300481 ], [ -56.35105163708257, -30.625691436754661 ], [ -55.811953974929466, -30.666646479482264 ], [ -55.51836058125663, -31.140054688235779 ] ] ] ] } },
{ "type": "Feature", "properties": { "geogrid_id": "7431346812058472057", "seqnum": 40041.0, "lat_c": -31.346812448877948, "lon_c": -58.472056754582034, "res": 8.0, "count_Ferns": 1, "count_Molluscs": 2, "count_Flowering Plants": 57, "count_Mammals": 0, "count_Arachnids": 16, "count_Birds": 31, "count_Insects": 34, "count_Basidiomycota": 1, "count_Amphibians": 6, "count_Gymnosperms": 0, "count_Sac Fungi": 0, "count_Reptiles": 4, "count_Mosses": 0, "unique_species_count": 152.0, "countryCode": "UY" }, "geometry": { "type": "MultiPolygon", "coordinates": [ [ [ [ -57.930996117758376, -31.397445804831886 ], [ -58.180686055947405, -31.82842256705672 ], [ -58.723394126256657, -31.776544317028037 ], [ -59.012728203458899, -31.293717724677037 ], [ -58.758593711641325, -30.865552283814459 ], [ -58.21950863609856, -30.917406415124489 ], [ -57.930996117758376, -31.397445804831886 ] ] ] ] } },
{ "type": "Feature", "properties": { "geogrid_id": "7431491327056847748", "seqnum": 40124.0, "lat_c": -31.491326628458399, "lon_c": -56.847748412543403, "res": 8.0, "count_Ferns": 3, "count_Molluscs": 2, "count_Flowering Plants": 134, "count_Mammals": 9, "count_Arachnids": 6, "count_Birds": 39, "count_Insects": 24, "count_Basidiomycota": 2, "count_Amphibians": 7, "count_Gymnosperms": 0, "count_Sac Fungi": 0, "count_Reptiles": 13, "count_Mosses": 0, "unique_species_count": 239.0, "countryCode": "UY" }, "geometry": { "type": "MultiPolygon", "coordinates": [ [ [ [ -56.305580985308197, -31.534573894851551 ], [ -56.550365123855087, -31.969165982728082 ], [ -57.094160043862622, -31.924733956626099 ], [ -57.389556662282978, -31.445617279245916 ], [ -57.140168596356609, -31.013789429969343 ], [ -56.599930989313314, -31.058318511300481 ], [ -56.305580985308197, -31.534573894851551 ] ] ] ] } },
{ "type": "Feature", "properties": { "geogrid_id": "7431613684055220205", "seqnum": 40207.0, "lat_c": -31.6136838925162, "lon_c": -55.220204613023284, "res": 8.0, "count_Ferns": 8, "count_Molluscs": 2, "count_Flowering Plants": 260, "count_Mammals": 12, "count_Arachnids": 18, "count_Birds": 141, "count_Insects": 109, "count_Basidiomycota": 7, "count_Amphibians": 10, "count_Gymnosperms": 0, "count_Sac Fungi": 1, "count_Reptiles": 14, "count_Mosses": 0, "unique_species_count": 582.0, "countryCode": "UY" }, "geometry": { "type": "MultiPolygon", "coordinates": [ [ [ [ -54.677012220427628, -31.649548318352291 ], [ -54.916982364926753, -32.087566413828931 ], [ -55.461766090723934, -32.05058192817112 ], [ -55.763063521668094, -31.575359425367086 ], [ -55.51836058125663, -31.140054688235779 ], [ -54.977042114011482, -31.177263976699198 ], [ -54.677012220427628, -31.649548318352291 ] ] ] ] } },
{ "type": "Feature", "properties": { "geogrid_id": "7431713903053589655", "seqnum": 40290.0, "lat_c": -31.713903051203093, "lon_c": -53.589655139058287, "res": 8.0, "count_Ferns": 15, "count_Molluscs": 1, "count_Flowering Plants": 287, "count_Mammals": 26, "count_Arachnids": 28, "count_Birds": 181, "count_Insects": 112, "count_Basidiomycota": 6, "count_Amphibians": 14, "count_Gymnosperms": 2, "count_Sac Fungi": 3, "count_Reptiles": 15, "count_Mosses": 0, "unique_species_count": 690.0, "countryCode": "UY" }, "geometry": { "type": "MultiPolygon", "coordinates": [ [ [ [ -53.045502385320979, -31.742397419356539 ], [ -53.280803281823957, -32.183636209324391 ], [ -53.826492820288486, -32.154092250358751 ], [ -54.133493586506667, -31.682954101969237 ], [ -53.893369393791772, -31.244373389887699 ], [ -53.351025023370276, -31.274278215829362 ], [ -53.045502385320979, -31.742397419356539 ] ] ] ] } },
{ "type": "Feature", "properties": { "geogrid_id": "7431877819057637604", "seqnum": 40123.0, "lat_c": -31.877819341971012, "lon_c": -57.637604135452385, "res": 8.0, "count_Ferns": 4, "count_Molluscs": 4, "count_Flowering Plants": 261, "count_Mammals": 10, "count_Arachnids": 11, "count_Birds": 116, "count_Insects": 72, "count_Basidiomycota": 5, "count_Amphibians": 11, "count_Gymnosperms": 1, "count_Sac Fungi": 1, "count_Reptiles": 15, "count_Mosses": 0, "unique_species_count": 511.0, "countryCode": "UY" }, "geometry": { "type": "MultiPolygon", "coordinates": [ [ [ [ -57.094160043862622, -31.924733956626099 ], [ -57.338781540896122, -32.358556691967664 ], [ -57.883938578272343, -32.310412576575324 ], [ -58.180686055947405, -31.82842256705672 ], [ -57.930996117758376, -31.397445804831886 ], [ -57.389556662282978, -31.445617279245916 ], [ -57.094160043862622, -31.924733956626099 ] ] ] ] } },
{ "type": "Feature", "properties": { "geogrid_id": "7432011115056006230", "seqnum": 40206.0, "lat_c": -32.011115263158572, "lon_c": -56.006230316585302, "res": 8.0, "count_Ferns": 9, "count_Molluscs": 3, "count_Flowering Plants": 239, "count_Mammals": 7, "count_Arachnids": 20, "count_Birds": 82, "count_Insects": 74, "count_Basidiomycota": 15, "count_Amphibians": 14, "count_Gymnosperms": 1, "count_Sac Fungi": 1, "count_Reptiles": 13, "count_Mosses": 0, "unique_species_count": 478.0, "countryCode": "UY" }, "geometry": { "type": "MultiPolygon", "coordinates": [ [ [ [ -55.461766090723934, -32.05058192817112 ], [ -55.701303846662128, -32.487971906653392 ], [ -56.247451507866046, -32.447336825429332 ], [ -56.550365123855087, -31.969165982728082 ], [ -56.305580985308197, -31.534573894851551 ], [ -55.763063521668094, -31.575359425367086 ], [ -55.461766090723934, -32.05058192817112 ] ] ] ] } },
{ "type": "Feature", "properties": { "geogrid_id": "7432122069054371888", "seqnum": 40289.0, "lat_c": -32.122069483129813, "lon_c": -54.371888422923199, "res": 8.0, "count_Ferns": 15, "count_Molluscs": 5, "count_Flowering Plants": 392, "count_Mammals": 15, "count_Arachnids": 43, "count_Birds": 192, "count_Insects": 265, "count_Basidiomycota": 4, "count_Amphibians": 21, "count_Gymnosperms": 2, "count_Sac Fungi": 3, "count_Reptiles": 20, "count_Mosses": 0, "unique_species_count": 977.0, "countryCode": "UY" }, "geometry": { "type": "MultiPolygon", "coordinates": [ [ [ [ -53.826492820288486, -32.154092250358751 ], [ -54.061072711984458, -32.594857253960434 ], [ -54.608103269853054, -32.561731756540489 ], [ -54.916982364926753, -32.087566413828931 ], [ -54.677012220427628, -31.649548318352291 ], [ -54.133493586506667, -31.682954101969237 ], [ -53.826492820288486, -32.154092250358751 ] ] ] ] } },
{ "type": "Feature", "properties": { "geogrid_id": "7432259767058428740", "seqnum": 40122.0, "lat_c": -32.259766800829638, "lon_c": -58.42873950446441, "res": 8.0, "count_Ferns": 13, "count_Molluscs": 11, "count_Flowering Plants": 675, "count_Mammals": 16, "count_Arachnids": 59, "count_Birds": 170, "count_Insects": 386, "count_Basidiomycota": 13, "count_Amphibians": 14, "count_Gymnosperms": 3, "count_Sac Fungi": 3, "count_Reptiles": 18, "count_Mosses": 0, "unique_species_count": 1381.0, "countryCode": "UY" }, "geometry": { "type": "MultiPolygon", "coordinates": [ [ [ [ -57.883938578272343, -32.310412576575324 ], [ -58.128144546712861, -32.743411768471148 ], [ -58.674754438820088, -32.691494360787523 ], [ -58.973170893042102, -32.206620437825237 ], [ -58.723394126256657, -31.776544317028037 ], [ -58.180686055947405, -31.82842256705672 ], [ -57.883938578272343, -32.310412576575324 ] ] ] ] } },
{ "type": "Feature", "properties": { "geogrid_id": "7432404198056793282", "seqnum": 40205.0, "lat_c": -32.404198307006368, "lon_c": -56.793281564836441, "res": 8.0, "count_Ferns": 7, "count_Molluscs": 3, "count_Flowering Plants": 223, "count_Mammals": 6, "count_Arachnids": 41, "count_Birds": 147, "count_Insects": 68, "count_Basidiomycota": 2, "count_Amphibians": 11, "count_Gymnosperms": 0, "count_Sac Fungi": 0, "count_Reptiles": 14, "count_Mosses": 0, "unique_species_count": 522.0, "countryCode": "UY" }, "geometry": { "type": "MultiPolygon", "coordinates": [ [ [ [ -56.247451507866046, -32.447336825429332 ], [ -56.486268109474118, -32.884035423271285 ], [ -57.033886408072533, -32.83968337943768 ], [ -57.338781540896122, -32.358556691967664 ], [ -57.094160043862622, -31.924733956626099 ], [ -56.550365123855087, -31.969165982728082 ], [ -56.247451507866046, -32.447336825429332 ] ] ] ] } },
{ "type": "Feature", "properties": { "geogrid_id": "7432526103055154851", "seqnum": 40288.0, "lat_c": -32.526103479286007, "lon_c": -55.154850604165425, "res": 8.0, "count_Ferns": 5, "count_Molluscs": 2, "count_Flowering Plants": 53, "count_Mammals": 6, "count_Arachnids": 2, "count_Birds": 17, "count_Insects": 8, "count_Basidiomycota": 1, "count_Amphibians": 3, "count_Gymnosperms": 0, "count_Sac Fungi": 1, "count_Reptiles": 3, "count_Mosses": 0, "unique_species_count": 101.0, "countryCode": "UY" }, "geometry": { "type": "MultiPolygon", "coordinates": [ [ [ [ -54.608103269853054, -32.561731756540489 ], [ -54.841630133749398, -33.001948415912686 ], [ -55.390125933346866, -32.965168312199609 ], [ -55.701303846662128, -32.487971906653392 ], [ -55.461766090723934, -32.05058192817112 ], [ -54.916982364926753, -32.087566413828931 ], [ -54.608103269853054, -32.561731756540489 ] ] ] ] } },
{ "type": "Feature", "properties": { "geogrid_id": "7432625481053513769", "seqnum": 40371.0, "lat_c": -32.625480809949011, "lon_c": -53.513769080729652, "res": 8.0, "count_Ferns": 17, "count_Molluscs": 3, "count_Flowering Plants": 277, "count_Mammals": 13, "count_Arachnids": 31, "count_Birds": 146, "count_Insects": 110, "count_Basidiomycota": 2, "count_Amphibians": 14, "count_Gymnosperms": 2, "count_Sac Fungi": 1, "count_Reptiles": 14, "count_Mosses": 0, "unique_species_count": 630.0, "countryCode": "UY" }, "geometry": { "type": "MultiPolygon", "coordinates": [ [ [ [ -52.96620170091267, -32.653603609711539 ], [ -53.194601901147408, -33.097144457554506 ], [ -53.743855705280495, -33.067936046630173 ], [ -54.061072711984458, -32.594857253960434 ], [ -53.826492820288486, -32.154092250358751 ], [ -53.280803281823957, -32.183636209324391 ], [ -52.96620170091267, -32.653603609711539 ] ] ] ] } },
{ "type": "Feature", "properties": { "geogrid_id": "7432792809057581184", "seqnum": 40204.0, "lat_c": -32.792808505083585, "lon_c": -57.581183509071813, "res": 8.0, "count_Ferns": 8, "count_Molluscs": 4, "count_Flowering Plants": 213, "count_Mammals": 11, "count_Arachnids": 9, "count_Birds": 68, "count_Insects": 52, "count_Basidiomycota": 3, "count_Amphibians": 8, "count_Gymnosperms": 0, "count_Sac Fungi": 0, "count_Reptiles": 10, "count_Mosses": 0, "unique_species_count": 386.0, "countryCode": "UY" }, "geometry": { "type": "MultiPolygon", "coordinates": [ [ [ [ -57.033886408072533, -32.83968337943768 ], [ -57.271683087339305, -33.275630059816045 ], [ -57.820886403817809, -33.227499876730782 ], [ -58.128144546712861, -32.743411768471148 ], [ -57.883938578272343, -32.310412576575324 ], [ -57.338781540896122, -32.358556691967664 ], [ -57.033886408072533, -32.83968337943768 ] ] ] ] } },
{ "type": "Feature", "properties": { "geogrid_id": "7432925864055938343", "seqnum": 40287.0, "lat_c": -32.925863899625398, "lon_c": -55.938343202395245, "res": 8.0, "count_Ferns": 8, "count_Molluscs": 2, "count_Flowering Plants": 141, "count_Mammals": 17, "count_Arachnids": 2, "count_Birds": 50, "count_Insects": 14, "count_Basidiomycota": 1, "count_Amphibians": 8, "count_Gymnosperms": 1, "count_Sac Fungi": 5, "count_Reptiles": 4, "count_Mosses": 9, "unique_species_count": 262.0, "countryCode": "UY" }, "geometry": { "type": "MultiPolygon", "coordinates": [ [ [ [ -55.390125933346866, -32.965168312199609 ], [ -55.622256091680796, -33.404764434863949 ], [ -56.172351274879169, -33.364263287306429 ], [ -56.486268109474118, -32.884035423271285 ], [ -56.247451507866046, -32.447336825429332 ], [ -55.701303846662128, -32.487971906653392 ], [ -55.390125933346866, -32.965168312199609 ] ] ] ] } },
{ "type": "Feature", "properties": { "geogrid_id": "7433036204054292869", "seqnum": 40370.0, "lat_c": -33.036204228948229, "lon_c": -54.292869140034604, "res": 8.0, "count_Ferns": 22, "count_Molluscs": 4, "count_Flowering Plants": 316, "count_Mammals": 23, "count_Arachnids": 34, "count_Birds": 118, "count_Insects": 78, "count_Basidiomycota": 7, "count_Amphibians": 16, "count_Gymnosperms": 0, "count_Sac Fungi": 6, "count_Reptiles": 13, "count_Mosses": 0, "unique_species_count": 637.0, "countryCode": "UY" }, "geometry": { "type": "MultiPolygon", "coordinates": [ [ [ [ -53.743855705280495, -33.067936046630173 ], [ -53.970447333758344, -33.510999418490897 ], [ -54.52128842359474, -33.478132753684491 ], [ -54.841630133749398, -33.001948415912686 ], [ -54.608103269853054, -32.561731756540489 ], [ -54.061072711984458, -32.594857253960434 ], [ -53.743855705280495, -33.067936046630173 ] ] ] ] } },
{ "type": "Feature", "properties": { "geogrid_id": "7433176829058369759", "seqnum": 40203.0, "lat_c": -33.176828940758924, "lon_c": -58.369758811025932, "res": 8.0, "count_Ferns": 5, "count_Molluscs": 16, "count_Flowering Plants": 374, "count_Mammals": 15, "count_Arachnids": 42, "count_Birds": 141, "count_Insects": 129, "count_Basidiomycota": 5, "count_Amphibians": 11, "count_Gymnosperms": 2, "count_Sac Fungi": 1, "count_Reptiles": 10, "count_Mosses": 0, "unique_species_count": 751.0, "countryCode": "UY" }, "geometry": { "type": "MultiPolygon", "coordinates": [ [ [ [ -57.820886403817809, -33.227499876730782 ], [ -58.05735484984222, -33.662637301316366 ], [ -58.608265040202582, -33.610672647497466 ], [ -58.918283272678458, -33.123618734803806 ], [ -58.674754438820088, -32.691494360787523 ], [ -58.128144546712861, -32.743411768471148 ], [ -57.820886403817809, -33.227499876730782 ] ] ] ] } },
{ "type": "Feature", "properties": { "geogrid_id": "7433321218056722166", "seqnum": 40286.0, "lat_c": -33.321218216304622, "lon_c": -56.722165789041078, "res": 8.0, "count_Ferns": 9, "count_Molluscs": 3, "count_Flowering Plants": 352, "count_Mammals": 11, "count_Arachnids": 13, "count_Birds": 141, "count_Insects": 57, "count_Basidiomycota": 5, "count_Amphibians": 4, "count_Gymnosperms": 2, "count_Sac Fungi": 5, "count_Reptiles": 11, "count_Mosses": 0, "unique_species_count": 613.0, "countryCode": "UY" }, "geometry": { "type": "MultiPolygon", "coordinates": [ [ [ [ -56.172351274879169, -33.364263287306429 ], [ -56.402729993842307, -33.803169629251499 ], [ -56.954568357360507, -33.75888720616647 ], [ -57.271683087339305, -33.275630059816045 ], [ -57.033886408072533, -32.83968337943768 ], [ -56.486268109474118, -32.884035423271285 ], [ -56.172351274879169, -33.364263287306429 ] ] ] ] } },
{ "type": "Feature", "properties": { "geogrid_id": "7433442721055071897", "seqnum": 40369.0, "lat_c": -33.442721048687673, "lon_c": -55.071896503848414, "res": 8.0, "count_Ferns": 5, "count_Molluscs": 2, "count_Flowering Plants": 54, "count_Mammals": 8, "count_Arachnids": 5, "count_Birds": 34, "count_Insects": 20, "count_Basidiomycota": 1, "count_Amphibians": 6, "count_Gymnosperms": 1, "count_Sac Fungi": 4, "count_Reptiles": 5, "count_Mosses": 0, "unique_species_count": 145.0, "countryCode": "UY" }, "geometry": { "type": "MultiPolygon", "coordinates": [ [ [ [ -54.52128842359474, -33.478132753684491 ], [ -54.745660190634254, -33.920634231073826 ], [ -55.298257288095925, -33.884043918457827 ], [ -55.622256091680796, -33.404764434863949 ], [ -55.390125933346866, -32.965168312199609 ], [ -54.841630133749398, -33.001948415912686 ], [ -54.52128842359474, -33.478132753684491 ] ] ] ] } },
{ "type": "Feature", "properties": { "geogrid_id": "7433541321053419388", "seqnum": 40452.0, "lat_c": -33.54132116527559, "lon_c": -53.419388202078053, "res": 8.0, "count_Ferns": 8, "count_Molluscs": 34, "count_Flowering Plants": 316, "count_Mammals": 21, "count_Arachnids": 30, "count_Birds": 154, "count_Insects": 132, "count_Basidiomycota": 4, "count_Amphibians": 17, "count_Gymnosperms": 1, "count_Sac Fungi": 6, "count_Reptiles": 14, "count_Mosses": 0, "unique_species_count": 737.0, "countryCode": "UY" }, "geometry": { "type": "MultiPolygon", "coordinates": [ [ [ [ -52.868125385597381, -33.569098381142972 ], [ -53.086643841751538, -34.015013215290715 ], [ -53.63983574387705, -33.986118977596576 ], [ -53.970447333758344, -33.510999418490897 ], [ -53.743855705280495, -33.067936046630173 ], [ -53.194601901147408, -33.097144457554506 ], [ -52.868125385597381, -33.569098381142972 ] ] ] ] } },
{ "type": "Feature", "properties": { "geogrid_id": "7433712043057506116", "seqnum": 40285.0, "lat_c": -33.712042659932237, "lon_c": -57.506116292500913, "res": 8.0, "count_Ferns": 5, "count_Molluscs": 1, "count_Flowering Plants": 100, "count_Mammals": 10, "count_Arachnids": 5, "count_Birds": 90, "count_Insects": 29, "count_Basidiomycota": 2, "count_Amphibians": 6, "count_Gymnosperms": 0, "count_Sac Fungi": 0, "count_Reptiles": 4, "count_Mosses": 0, "unique_species_count": 252.0, "countryCode": "UY" }, "geometry": { "type": "MultiPolygon", "coordinates": [ [ [ [ -56.954568357360507, -33.75888720616647 ], [ -57.182830488351875, -34.197038029580888 ], [ -57.736565187381103, -34.148919869853252 ], [ -58.05735484984222, -33.662637301316366 ], [ -57.820886403817809, -33.227499876730782 ], [ -57.271683087339305, -33.275630059816045 ], [ -56.954568357360507, -33.75888720616647 ] ] ] ] } },
{ "type": "Feature", "properties": { "geogrid_id": "7433844889055850620", "seqnum": 40368.0, "lat_c": -33.844888828716655, "lon_c": -55.850620063622117, "res": 8.0, "count_Ferns": 5, "count_Molluscs": 7, "count_Flowering Plants": 184, "count_Mammals": 12, "count_Arachnids": 10, "count_Birds": 135, "count_Insects": 70, "count_Basidiomycota": 7, "count_Amphibians": 6, "count_Gymnosperms": 0, "count_Sac Fungi": 2, "count_Reptiles": 8, "count_Mosses": 0, "unique_species_count": 446.0, "countryCode": "UY" }, "geometry": { "type": "MultiPolygon", "coordinates": [ [ [ [ -55.298257288095925, -33.884043918457827 ], [ -55.519985733532209, -34.325902258287314 ], [ -56.07451965612659, -34.285530413046516 ], [ -56.402729993842307, -33.803169629251499 ], [ -56.172351274879169, -33.364263287306429 ], [ -55.622256091680796, -33.404764434863949 ], [ -55.298257288095925, -33.884043918457827 ] ] ] ] } },
{ "type": "Feature", "properties": { "geogrid_id": "7433954659054192847", "seqnum": 40451.0, "lat_c": -33.954659322574841, "lon_c": -54.19284703284017, "res": 8.0, "count_Ferns": 14, "count_Molluscs": 8, "count_Flowering Plants": 364, "count_Mammals": 29, "count_Arachnids": 28, "count_Birds": 179, "count_Insects": 102, "count_Basidiomycota": 7, "count_Amphibians": 18, "count_Gymnosperms": 2, "count_Sac Fungi": 12, "count_Reptiles": 21, "count_Mosses": 0, "unique_species_count": 784.0, "countryCode": "UY" }, "geometry": { "type": "MultiPolygon", "coordinates": [ [ [ [ -53.63983574387705, -33.986118977596576 ], [ -53.855122308870861, -34.431510620236274 ], [ -54.410266156055428, -34.398892906915144 ], [ -54.745660190634254, -33.920634231073826 ], [ -54.52128842359474, -33.478132753684491 ], [ -53.970447333758344, -33.510999418490897 ], [ -53.63983574387705, -33.986118977596576 ] ] ] ] } },
{ "type": "Feature", "properties": { "geogrid_id": "7434041342052533288", "seqnum": 40534.0, "lat_c": -34.041342296109171, "lon_c": -52.533288345216612, "res": 8.0, "count_Ferns": 0, "count_Molluscs": 0, "count_Flowering Plants": 0, "count_Mammals": 0, "count_Arachnids": 0, "count_Birds": 1, "count_Insects": 0, "count_Basidiomycota": 0, "count_Amphibians": 0, "count_Gymnosperms": 0, "count_Sac Fungi": 0, "count_Reptiles": 0, "count_Mosses": 0, "unique_species_count": 1.0, "countryCode": "UY" }, "geometry": { "type": "MultiPolygon", "coordinates": [ [ [ [ -51.979785674689609, -34.065106729761204 ], [ -52.188801053992222, -34.513851419113301 ], [ -52.744369572051056, -34.488989753955416 ], [ -53.086643841751538, -34.015013215290715 ], [ -52.868125385597381, -33.569098381142972 ], [ -52.316672523620902, -33.594331731554462 ], [ -51.979785674689609, -34.065106729761204 ] ] ] ] } },
{ "type": "Feature", "properties": { "geogrid_id": "7434098222058289991", "seqnum": 40284.0, "lat_c": -34.098222332784893, "lon_c": -58.289991314750836, "res": 8.0, "count_Ferns": 6, "count_Molluscs": 17, "count_Flowering Plants": 198, "count_Mammals": 9, "count_Arachnids": 5, "count_Birds": 80, "count_Insects": 62, "count_Basidiomycota": 1, "count_Amphibians": 7, "count_Gymnosperms": 1, "count_Sac Fungi": 2, "count_Reptiles": 11, "count_Mosses": 0, "unique_species_count": 399.0, "countryCode": "UY" }, "geometry": { "type": "MultiPolygon", "coordinates": [ [ [ [ -57.736565187381103, -34.148919869853252 ], [ -57.962335848413765, -34.586253472176075 ], [ -58.518129069528243, -34.534250442624746 ], [ -58.843087893502258, -34.044947127104955 ], [ -58.608265040202582, -33.610672647497466 ], [ -58.05735484984222, -33.662637301316366 ], [ -57.736565187381103, -34.148919869853252 ] ] ] ] } },
{ "type": "Feature", "properties": { "geogrid_id": "7434242575056628808", "seqnum": 40367.0, "lat_c": -34.242575308888028, "lon_c": -56.62880827675329, "res": 8.0, "count_Ferns": 8, "count_Molluscs": 6, "count_Flowering Plants": 447, "count_Mammals": 20, "count_Arachnids": 24, "count_Birds": 161, "count_Insects": 122, "count_Basidiomycota": 23, "count_Amphibians": 11, "count_Gymnosperms": 3, "count_Sac Fungi": 11, "count_Reptiles": 21, "count_Mosses": 0, "unique_species_count": 857.0, "countryCode": "UY" }, "geometry": { "type": "MultiPolygon", "coordinates": [ [ [ [ -56.07451965612659, -34.285530413046516 ], [ -56.293170047522203, -34.726668217297579 ], [ -56.849833268154718, -34.682463907324866 ], [ -57.182830488351875, -34.197038029580888 ], [ -56.954568357360507, -33.75888720616647 ], [ -56.402729993842307, -33.803169629251499 ], [ -56.07451965612659, -34.285530413046516 ] ] ] ] } },
{ "type": "Feature", "properties": { "geogrid_id": "7434363690054965228", "seqnum": 40450.0, "lat_c": -34.363689974336971, "lon_c": -54.965227574894016, "res": 8.0, "count_Ferns": 25, "count_Molluscs": 12, "count_Flowering Plants": 561, "count_Mammals": 23, "count_Arachnids": 49, "count_Birds": 170, "count_Insects": 129, "count_Basidiomycota": 17, "count_Amphibians": 18, "count_Gymnosperms": 3, "count_Sac Fungi": 13, "count_Reptiles": 21, "count_Mosses": 0, "unique_species_count": 1041.0, "countryCode": "UY" }, "geometry": { "type": "MultiPolygon", "coordinates": [ [ [ [ -54.410266156055428, -34.398892906915144 ], [ -54.621812357983039, -34.843663475816214 ], [ -55.179136162132949, -34.807268898780123 ], [ -55.519985733532209, -34.325902258287314 ], [ -55.298257288095925, -33.884043918457827 ], [ -54.745660190634254, -33.920634231073826 ], [ -54.410266156055428, -34.398892906915144 ] ] ] ] } },
{ "type": "Feature", "properties": { "geogrid_id": "7434461543053299817", "seqnum": 40533.0, "lat_c": -34.461542899572713, "lon_c": -53.299816661518484, "res": 8.0, "count_Ferns": 7, "count_Molluscs": 26, "count_Flowering Plants": 271, "count_Mammals": 19, "count_Arachnids": 27, "count_Birds": 140, "count_Insects": 119, "count_Basidiomycota": 9, "count_Amphibians": 14, "count_Gymnosperms": 2, "count_Sac Fungi": 5, "count_Reptiles": 17, "count_Mosses": 0, "unique_species_count": 656.0, "countryCode": "UY" }, "geometry": { "type": "MultiPolygon", "coordinates": [ [ [ [ -52.744369572051056, -34.488989753955416 ], [ -52.948895342263299, -34.937218031393442 ], [ -53.506668481887914, -34.908638273611906 ], [ -53.855122308870861, -34.431510620236274 ], [ -53.63983574387705, -33.986118977596576 ], [ -53.086643841751538, -34.015013215290715 ], [ -52.744369572051056, -34.488989753955416 ] ] ] ] } },
{ "type": "Feature", "properties": { "geogrid_id": "7434536128051633131", "seqnum": 40616.0, "lat_c": -34.536128360785206, "lon_c": -51.633130692526429, "res": 8.0, "count_Ferns": 0, "count_Molluscs": 0, "count_Flowering Plants": 0, "count_Mammals": 2, "count_Arachnids": 0, "count_Birds": 0, "count_Insects": 0, "count_Basidiomycota": 0, "count_Amphibians": 0, "count_Gymnosperms": 0, "count_Sac Fungi": 0, "count_Reptiles": 0, "count_Mosses": 0, "unique_species_count": 2.0, "countryCode": "UY" }, "geometry": { "type": "MultiPolygon", "coordinates": [ [ [ [ -51.077377549505911, -34.555821278582648 ], [ -51.275050555664208, -35.007328678956938 ], [ -51.833063303082795, -34.986562790739718 ], [ -52.188801053992222, -34.513851419113301 ], [ -51.979785674689609, -34.065106729761204 ], [ -51.426151540248355, -34.08630728470218 ], [ -51.077377549505911, -34.555821278582648 ] ] ] ] } },
{ "type": "Feature", "properties": { "geogrid_id": "7434635659057406230", "seqnum": 40366.0, "lat_c": -34.635658511958809, "lon_c": -57.406229586009367, "res": 8.0, "count_Ferns": 4, "count_Molluscs": 8, "count_Flowering Plants": 343, "count_Mammals": 20, "count_Arachnids": 36, "count_Birds": 149, "count_Insects": 129, "count_Basidiomycota": 7, "count_Amphibians": 10, "count_Gymnosperms": 1, "count_Sac Fungi": 5, "count_Reptiles": 17, "count_Mosses": 0, "unique_species_count": 729.0, "countryCode": "UY" }, "geometry": { "type": "MultiPolygon", "coordinates": [ [ [ [ -56.849833268154718, -34.682463907324866 ], [ -57.064960544027862, -35.122808253162688 ], [ -57.623956709443853, -35.074726934836711 ], [ -57.962335848413765, -34.586253472176075 ], [ -57.736565187381103, -34.148919869853252 ], [ -57.182830488351875, -34.197038029580888 ], [ -56.849833268154718, -34.682463907324866 ] ] ] ] } },
{ "type": "Feature", "properties": { "geogrid_id": "7434768270055736263", "seqnum": 40449.0, "lat_c": -34.768270216819637, "lon_c": -55.736263213872583, "res": 8.0, "count_Ferns": 32, "count_Molluscs": 49, "count_Flowering Plants": 966, "count_Mammals": 35, "count_Arachnids": 110, "count_Birds": 283, "count_Insects": 507, "count_Basidiomycota": 82, "count_Amphibians": 29, "count_Gymnosperms": 3, "count_Sac Fungi": 69, "count_Reptiles": 31, "count_Mosses": 7, "unique_species_count": 2203.0, "countryCode": "UY" }, "geometry": { "type": "MultiPolygon", "coordinates": [ [ [ [ -55.179136162132949, -34.807268898780123 ], [ -55.386421544455622, -35.251324739280406 ], [ -55.946167759107695, -35.211108387331009 ], [ -56.293170047522203, -34.726668217297579 ], [ -56.07451965612659, -34.285530413046516 ], [ -55.519985733532209, -34.325902258287314 ], [ -55.179136162132949, -34.807268898780123 ] ] ] ] } },
{ "type": "Feature", "properties": { "geogrid_id": "7434877453054064315", "seqnum": 40532.0, "lat_c": -34.877453381886113, "lon_c": -54.064315300569781, "res": 8.0, "count_Ferns": 10, "count_Molluscs": 71, "count_Flowering Plants": 465, "count_Mammals": 21, "count_Arachnids": 28, "count_Birds": 203, "count_Insects": 121, "count_Basidiomycota": 15, "count_Amphibians": 13, "count_Gymnosperms": 4, "count_Sac Fungi": 4, "count_Reptiles": 15, "count_Mosses": 1, "unique_species_count": 971.0, "countryCode": "UY" }, "geometry": { "type": "MultiPolygon", "coordinates": [ [ [ [ -53.506668481887914, -34.908638273611906 ], [ -53.706090202464289, -35.356228992966408 ], [ -54.266357005036028, -35.323885579437281 ], [ -54.621812357983039, -34.843663475816214 ], [ -54.410266156055428, -34.398892906915144 ], [ -53.855122308870861, -34.431510620236274 ], [ -53.506668481887914, -34.908638273611906 ] ] ] ] } },
{ "type": "Feature", "properties": { "geogrid_id": "7434963193052391019", "seqnum": 40615.0, "lat_c": -34.963192760298497, "lon_c": -52.391019221248669, "res": 8.0, "count_Ferns": 0, "count_Molluscs": 1, "count_Flowering Plants": 0, "count_Mammals": 2, "count_Arachnids": 0, "count_Birds": 2, "count_Insects": 0, "count_Basidiomycota": 0, "count_Amphibians": 0, "count_Gymnosperms": 0, "count_Sac Fungi": 0, "count_Reptiles": 0, "count_Mosses": 0, "unique_species_count": 5.0, "countryCode": "UY" }, "geometry": { "type": "MultiPolygon", "coordinates": [ [ [ [ -51.833063303082795, -34.986562790739718 ], [ -52.024663371155356, -35.437509707555996 ], [ -52.585217298773749, -35.413040885758228 ], [ -52.948895342263299, -34.937218031393442 ], [ -52.744369572051056, -34.488989753955416 ], [ -52.188801053992222, -34.513851419113301 ], [ -51.833063303082795, -34.986562790739718 ] ] ] ] } },
{ "type": "Feature", "properties": { "geogrid_id": "7435025491050717004", "seqnum": 40698.0, "lat_c": -35.025491207334888, "lon_c": -50.717003661736484, "res": 8.0, "count_Ferns": 0, "count_Molluscs": 0, "count_Flowering Plants": 0, "count_Mammals": 0, "count_Arachnids": 0, "count_Birds": 1, "count_Insects": 0, "count_Basidiomycota": 0, "count_Amphibians": 0, "count_Gymnosperms": 0, "count_Sac Fungi": 0, "count_Reptiles": 0, "count_Mosses": 0, "unique_species_count": 1.0, "countryCode": "UY" }, "geometry": { "type": "MultiPolygon", "coordinates": [ [ [ [ -50.158944940658934, -35.041051384602476 ], [ -50.342845402767466, -35.495174730259535 ], [ -50.903451291999104, -35.478575743930669 ], [ -51.275050555664208, -35.007328678956938 ], [ -51.077377549505911, -34.555821278582648 ], [ -50.521560055091925, -34.572931110640866 ], [ -50.158944940658934, -35.041051384602476 ] ] ] ] } },
{ "type": "Feature", "properties": { "geogrid_id": "7435168269056505689", "seqnum": 40448.0, "lat_c": -35.168269186049507, "lon_c": -56.505689196661812, "res": 8.0, "count_Ferns": 5, "count_Molluscs": 23, "count_Flowering Plants": 508, "count_Mammals": 26, "count_Arachnids": 52, "count_Birds": 242, "count_Insects": 182, "count_Basidiomycota": 21, "count_Amphibians": 21, "count_Gymnosperms": 2, "count_Sac Fungi": 19, "count_Reptiles": 22, "count_Mosses": 5, "unique_species_count": 1128.0, "countryCode": "UY" }, "geometry": { "type": "MultiPolygon", "coordinates": [ [ [ [ -55.946167759107695, -35.211108387331009 ], [ -56.148661195990563, -35.654360835861063 ], [ -56.711085995728588, -35.610285543650825 ], [ -57.064960544027862, -35.122808253162688 ], [ -56.849833268154718, -34.682463907324866 ], [ -56.293170047522203, -34.726668217297579 ], [ -55.946167759107695, -35.211108387331009 ] ] ] ] } },
{ "type": "Feature", "properties": { "geogrid_id": "7435288917054826476", "seqnum": 40531.0, "lat_c": -35.288917354811858, "lon_c": -54.826476064332212, "res": 8.0, "count_Ferns": 11, "count_Molluscs": 58, "count_Flowering Plants": 720, "count_Mammals": 21, "count_Arachnids": 48, "count_Birds": 215, "count_Insects": 184, "count_Basidiomycota": 32, "count_Amphibians": 15, "count_Gymnosperms": 3, "count_Sac Fungi": 5, "count_Reptiles": 17, "count_Mosses": 2, "unique_species_count": 1331.0, "countryCode": "UY" }, "geometry": { "type": "MultiPolygon", "coordinates": [ [ [ [ -54.266357005036028, -35.323885579437281 ], [ -54.46004794408659, -35.770722277138574 ], [ -55.023115230350619, -35.734580103709781 ], [ -55.386421544455622, -35.251324739280406 ], [ -55.179136162132949, -34.807268898780123 ], [ -54.621812357983039, -34.843663475816214 ], [ -54.266357005036028, -35.323885579437281 ] ] ] ] } },
{ "type": "Feature", "properties": { "geogrid_id": "7435385947053145702", "seqnum": 40614.0, "lat_c": -35.385947410936701, "lon_c": -53.14570161566089, "res": 8.0, "count_Ferns": 0, "count_Molluscs": 0, "count_Flowering Plants": 0, "count_Mammals": 2, "count_Arachnids": 0, "count_Birds": 2, "count_Insects": 0, "count_Basidiomycota": 0, "count_Amphibians": 0, "count_Gymnosperms": 0, "count_Sac Fungi": 0, "count_Reptiles": 0, "count_Mosses": 0, "unique_species_count": 4.0, "countryCode": "UY" }, "geometry": { "type": "MultiPolygon", "coordinates": [ [ [ [ -52.585217298773749, -35.413040885758228 ], [ -52.76999685998603, -35.863273311649237 ], [ -53.333461174449134, -35.835069040449106 ], [ -53.706090202464289, -35.356228992966408 ], [ -53.506668481887914, -34.908638273611906 ], [ -52.948895342263299, -34.937218031393442 ], [ -52.585217298773749, -35.413040885758228 ] ] ] ] } },
{ "type": "Feature", "properties": { "geogrid_id": "7435459354051464066", "seqnum": 40697.0, "lat_c": -35.45935440469016, "lon_c": -51.464065985271965, "res": 8.0, "count_Ferns": 0, "count_Molluscs": 0, "count_Flowering Plants": 0, "count_Mammals": 3, "count_Arachnids": 0, "count_Birds": 2, "count_Insects": 0, "count_Basidiomycota": 0, "count_Amphibians": 0, "count_Gymnosperms": 0, "count_Sac Fungi": 0, "count_Reptiles": 0, "count_Mosses": 0, "unique_species_count": 5.0, "countryCode": "UY" }, "geometry": { "type": "MultiPolygon", "coordinates": [ [ [ [ -50.903451291999104, -35.478575743930669 ], [ -51.07925472042821, -35.93201306508751 ], [ -51.642865576395131, -35.91174472472612 ], [ -52.024663371155356, -35.437509707555996 ], [ -51.833063303082795, -34.986562790739718 ], [ -51.275050555664208, -35.007328678956938 ], [ -50.903451291999104, -35.478575743930669 ] ] ] ] } },
{ "type": "Feature", "properties": { "geogrid_id": "7435695793055585995", "seqnum": 40530.0, "lat_c": -35.695792696890628, "lon_c": -55.585995334765173, "res": 8.0, "count_Ferns": 0, "count_Molluscs": 5, "count_Flowering Plants": 0, "count_Mammals": 1, "count_Arachnids": 0, "count_Birds": 2, "count_Insects": 1, "count_Basidiomycota": 0, "count_Amphibians": 0, "count_Gymnosperms": 0, "count_Sac Fungi": 0, "count_Reptiles": 0, "count_Mosses": 0, "unique_species_count": 9.0, "countryCode": "UY" }, "geometry": { "type": "MultiPolygon", "coordinates": [ [ [ [ -55.023115230350619, -35.734580103709781 ], [ -55.483066520221421, -36.161647580411362 ], [ -56.049119157507619, -36.120398082232356 ], [ -56.148661195990563, -35.654360835861063 ], [ -55.946167759107695, -35.211108387331009 ], [ -55.386421544455622, -35.251324739280406 ], [ -55.023115230350619, -35.734580103709781 ] ] ] ] } },
{ "type": "Feature", "properties": { "geogrid_id": "7435804219053896821", "seqnum": 40613.0, "lat_c": -35.804218684229809, "lon_c": -53.896820761704831, "res": 8.0, "count_Ferns": 0, "count_Molluscs": 0, "count_Flowering Plants": 0, "count_Mammals": 2, "count_Arachnids": 0, "count_Birds": 1, "count_Insects": 0, "count_Basidiomycota": 0, "count_Amphibians": 0, "count_Gymnosperms": 0, "count_Sac Fungi": 0, "count_Reptiles": 0, "count_Mosses": 0, "unique_species_count": 3.0, "countryCode": "UY" }, "geometry": { "type": "MultiPolygon", "coordinates": [ [ [ [ -53.333461174449134, -35.835069040449106 ], [ -53.78363864814861, -36.269386059434368 ], [ -54.350298704844704, -36.23614235997011 ], [ -54.46004794408659, -35.770722277138574 ], [ -54.266357005036028, -35.323885579437281 ], [ -53.706090202464289, -35.356228992966408 ], [ -53.333461174449134, -35.835069040449106 ] ] ] ] } },
{ "type": "Feature", "properties": { "geogrid_id": "7435888832052206456", "seqnum": 40696.0, "lat_c": -35.888831715836375, "lon_c": -52.206455663128473, "res": 8.0, "count_Ferns": 0, "count_Molluscs": 0, "count_Flowering Plants": 0, "count_Mammals": 2, "count_Arachnids": 0, "count_Birds": 5, "count_Insects": 0, "count_Basidiomycota": 0, "count_Amphibians": 0, "count_Gymnosperms": 0, "count_Sac Fungi": 0, "count_Reptiles": 0, "count_Mosses": 0, "unique_species_count": 7.0, "countryCode": "UY" }, "geometry": { "type": "MultiPolygon", "coordinates": [ [ [ [ -51.642865576395131, -35.91174472472612 ], [ -52.08288759324622, -36.353098075053211 ], [ -52.649905149957362, -36.327863968762443 ], [ -52.76999685998603, -35.863273311649237 ], [ -52.585217298773749, -35.413040885758228 ], [ -52.024663371155356, -35.437509707555996 ], [ -51.642865576395131, -35.91174472472612 ] ] ] ] } },
{ "type": "Feature", "properties": { "geogrid_id": "7435949638050515651", "seqnum": 40779.0, "lat_c": -35.949637719873436, "lon_c": -50.515651324293586, "res": 8.0, "count_Ferns": 0, "count_Molluscs": 0, "count_Flowering Plants": 0, "count_Mammals": 2, "count_Arachnids": 0, "count_Birds": 1, "count_Insects": 0, "count_Basidiomycota": 0, "count_Amphibians": 0, "count_Gymnosperms": 0, "count_Sac Fungi": 0, "count_Reptiles": 0, "count_Mosses": 0, "unique_species_count": 3.0, "countryCode": "UY" }, "geometry": { "type": "MultiPolygon", "coordinates": [ [ [ [ -49.952083705686846, -35.964619929136369 ], [ -50.381567989569355, -36.412785539654571 ], [ -50.948690984076798, -36.395558177120265 ], [ -51.07925472042821, -35.93201306508751 ], [ -50.903451291999104, -35.478575743930669 ], [ -50.342845402767466, -35.495174730259535 ], [ -49.952083705686846, -35.964619929136369 ] ] ] ] } },
{ "type": "Feature", "properties": { "geogrid_id": "7436200229054916784", "seqnum": 40612.0, "lat_c": -36.200229310888204, "lon_c": -54.916783877522946, "res": 8.0, "count_Ferns": 0, "count_Molluscs": 3, "count_Flowering Plants": 0, "count_Mammals": 1, "count_Arachnids": 0, "count_Birds": 4, "count_Insects": 0, "count_Basidiomycota": 0, "count_Amphibians": 0, "count_Gymnosperms": 0, "count_Sac Fungi": 0, "count_Reptiles": 0, "count_Mosses": 0, "unique_species_count": 8.0, "countryCode": "UY" }, "geometry": { "type": "MultiPolygon", "coordinates": [ [ [ [ -54.350298704844704, -36.23614235997011 ], [ -54.798753011147589, -36.666377658833248 ], [ -55.368779426874767, -36.62805196331351 ], [ -55.483066520221421, -36.161647580411362 ], [ -55.023115230350619, -35.734580103709781 ], [ -54.46004794408659, -35.770722277138574 ], [ -54.350298704844704, -36.23614235997011 ] ] ] ] } },
{ "type": "Feature", "properties": { "geogrid_id": "7436299960053216832", "seqnum": 40695.0, "lat_c": -36.299959987403938, "lon_c": -53.216831495989076, "res": 8.0, "count_Ferns": 0, "count_Molluscs": 0, "count_Flowering Plants": 0, "count_Mammals": 5, "count_Arachnids": 0, "count_Birds": 5, "count_Insects": 0, "count_Basidiomycota": 0, "count_Amphibians": 0, "count_Gymnosperms": 0, "count_Sac Fungi": 0, "count_Reptiles": 0, "count_Mosses": 0, "unique_species_count": 10.0, "countryCode": "UY" }, "geometry": { "type": "MultiPolygon", "coordinates": [ [ [ [ -52.649905149957362, -36.327863968762443 ], [ -53.087399021505227, -36.76517915548078 ], [ -53.658035699352233, -36.734942175382692 ], [ -53.78363864814861, -36.269386059434368 ], [ -53.333461174449134, -35.835069040449106 ], [ -52.76999685998603, -35.863273311649237 ], [ -52.649905149957362, -36.327863968762443 ] ] ] ] } },
{ "type": "Feature", "properties": { "geogrid_id": "7436375663051515807", "seqnum": 40778.0, "lat_c": -36.375662623793737, "lon_c": -51.515806857005998, "res": 8.0, "count_Ferns": 0, "count_Molluscs": 0, "count_Flowering Plants": 0, "count_Mammals": 3, "count_Arachnids": 0, "count_Birds": 3, "count_Insects": 0, "count_Basidiomycota": 0, "count_Amphibians": 0, "count_Gymnosperms": 0, "count_Sac Fungi": 0, "count_Reptiles": 0, "count_Mosses": 0, "unique_species_count": 6.0, "countryCode": "UY" }, "geometry": { "type": "MultiPolygon", "coordinates": [ [ [ [ -50.948690984076798, -36.395558177120265 ], [ -51.374700796461141, -36.839702404879318 ], [ -51.945704749288133, -36.817559562520522 ], [ -52.08288759324622, -36.353098075053211 ], [ -51.642865576395131, -35.91174472472612 ], [ -51.07925472042821, -35.93201306508751 ], [ -50.948690984076798, -36.395558177120265 ] ] ] ] } },
{ "type": "Feature", "properties": { "geogrid_id": "7436702008054228496", "seqnum": 40694.0, "lat_c": -36.702008072733577, "lon_c": -54.228496063362236, "res": 8.0, "count_Ferns": 0, "count_Molluscs": 0, "count_Flowering Plants": 0, "count_Mammals": 2, "count_Arachnids": 0, "count_Birds": 3, "count_Insects": 0, "count_Basidiomycota": 0, "count_Amphibians": 0, "count_Gymnosperms": 0, "count_Sac Fungi": 0, "count_Reptiles": 0, "count_Mosses": 0, "unique_species_count": 5.0, "countryCode": "UY" }, "geometry": { "type": "MultiPolygon", "coordinates": [ [ [ [ -53.658035699352233, -36.734942175382692 ], [ -54.095497688806113, -37.168028832145552 ], [ -54.669833111634688, -37.132744550525679 ], [ -54.798753011147589, -36.666377658833248 ], [ -54.350298704844704, -36.23614235997011 ], [ -53.78363864814861, -36.269386059434368 ], [ -53.658035699352233, -36.734942175382692 ] ] ] ] } },
{ "type": "Feature", "properties": { "geogrid_id": "7436792718052516613", "seqnum": 40777.0, "lat_c": -36.792718414990041, "lon_c": -52.516613066778085, "res": 8.0, "count_Ferns": 0, "count_Molluscs": 0, "count_Flowering Plants": 0, "count_Mammals": 2, "count_Arachnids": 0, "count_Birds": 4, "count_Insects": 0, "count_Basidiomycota": 0, "count_Amphibians": 0, "count_Gymnosperms": 0, "count_Sac Fungi": 0, "count_Reptiles": 0, "count_Mosses": 0, "unique_species_count": 6.0, "countryCode": "UY" }, "geometry": { "type": "MultiPolygon", "coordinates": [ [ [ [ -51.945704749288133, -36.817559562520522 ], [ -52.371145658151605, -37.25751279197366 ], [ -52.946128244616645, -37.230414369457769 ], [ -53.087399021505227, -36.76517915548078 ], [ -52.649905149957362, -36.327863968762443 ], [ -52.08288759324622, -36.353098075053211 ], [ -51.945704749288133, -36.817559562520522 ] ] ] ] } },
{ "type": "Feature", "properties": { "geogrid_id": "7436859147050803628", "seqnum": 40860.0, "lat_c": -36.859146936415847, "lon_c": -50.80362767747085, "res": 8.0, "count_Ferns": 0, "count_Molluscs": 0, "count_Flowering Plants": 0, "count_Mammals": 1, "count_Arachnids": 0, "count_Birds": 2, "count_Insects": 0, "count_Basidiomycota": 0, "count_Amphibians": 0, "count_Gymnosperms": 0, "count_Sac Fungi": 0, "count_Reptiles": 0, "count_Mosses": 0, "unique_species_count": 3.0, "countryCode": "UY" }, "geometry": { "type": "MultiPolygon", "coordinates": [ [ [ [ -50.232511522392578, -36.875893325698776 ], [ -50.645307031270328, -37.322416348434402 ], [ -51.220710627964863, -37.303514849571997 ], [ -51.374700796461141, -36.839702404879318 ], [ -50.948690984076798, -36.395558177120265 ], [ -50.381567989569355, -36.412785539654571 ], [ -50.232511522392578, -36.875893325698776 ] ] ] ] } },
{ "type": "Feature", "properties": { "geogrid_id": "7437200586053520921", "seqnum": 40776.0, "lat_c": -37.20058593509696, "lon_c": -53.520920778870817, "res": 8.0, "count_Ferns": 0, "count_Molluscs": 0, "count_Flowering Plants": 0, "count_Mammals": 4, "count_Arachnids": 0, "count_Birds": 0, "count_Insects": 0, "count_Basidiomycota": 0, "count_Amphibians": 0, "count_Gymnosperms": 0, "count_Sac Fungi": 0, "count_Reptiles": 0, "count_Mosses": 0, "unique_species_count": 4.0, "countryCode": "UY" }, "geometry": { "type": "MultiPolygon", "coordinates": [ [ [ [ -52.946128244616645, -37.230414369457769 ], [ -53.373102710744696, -37.666062773446889 ], [ -53.952068891119524, -37.633957580777007 ], [ -54.095497688806113, -37.168028832145552 ], [ -53.658035699352233, -36.734942175382692 ], [ -53.087399021505227, -36.76517915548078 ], [ -52.946128244616645, -37.230414369457769 ] ] ] ] } },
{ "type": "Feature", "properties": { "geogrid_id": "7437281880051795998", "seqnum": 40859.0, "lat_c": -37.281879988015923, "lon_c": -51.795998213448357, "res": 8.0, "count_Ferns": 0, "count_Molluscs": 0, "count_Flowering Plants": 0, "count_Mammals": 2, "count_Arachnids": 0, "count_Birds": 0, "count_Insects": 0, "count_Basidiomycota": 0, "count_Amphibians": 0, "count_Gymnosperms": 0, "count_Sac Fungi": 0, "count_Reptiles": 0, "count_Mosses": 0, "unique_species_count": 2.0, "countryCode": "UY" }, "geometry": { "type": "MultiPolygon", "coordinates": [ [ [ [ -51.220710627964863, -37.303514849571997 ], [ -51.634730263545748, -37.745780596269299 ], [ -52.214409845232097, -37.721976689168471 ], [ -52.371145658151605, -37.25751279197366 ], [ -51.945704749288133, -36.817559562520522 ], [ -51.374700796461141, -36.839702404879318 ], [ -51.220710627964863, -37.303514849571997 ] ] ] ] } },
{ "type": "Feature", "properties": { "geogrid_id": "7437695403052793875", "seqnum": 40858.0, "lat_c": -37.695403281330947, "lon_c": -52.793875071868591, "res": 8.0, "count_Ferns": 0, "count_Molluscs": 0, "count_Flowering Plants": 0, "count_Mammals": 2, "count_Arachnids": 0, "count_Birds": 1, "count_Insects": 0, "count_Basidiomycota": 0, "count_Amphibians": 0, "count_Gymnosperms": 0, "count_Sac Fungi": 0, "count_Reptiles": 0, "count_Mosses": 0, "unique_species_count": 3.0, "countryCode": "UY" }, "geometry": { "type": "MultiPolygon", "coordinates": [ [ [ [ -52.214409845232097, -37.721976689168471 ], [ -52.631398453656544, -38.159926173071099 ], [ -53.215300697400622, -38.131158132888018 ], [ -53.373102710744696, -37.666062773446889 ], [ -52.946128244616645, -37.230414369457769 ], [ -52.371145658151605, -37.25751279197366 ], [ -52.214409845232097, -37.721976689168471 ] ] ] ] } }
]
}
