{
"type": "FeatureCollection",
"name": "UZ",
"crs": { "type": "name", "properties": { "name": "urn:ogc:def:crs:OGC:1.3:CRS84" } },
"features": [
{ "type": "Feature", "properties": { "geogrid_id": "837360833067389451", "seqnum": 22987.0, "lat_c": 37.360832504078687, "lon_c": 67.389451261883934, "res": 8.0, "count_Ferns": 1, "count_Flowering Plants": 67, "count_Insects": 13, "count_Mammals": 2, "count_Reptiles": 20, "count_Gymnosperms": 0, "count_Sac Fungi": 0, "count_Birds": 41, "count_Basidiomycota": 0, "count_Arachnids": 6, "count_Amphibians": 2, "count_Molluscs": 0, "count_Mosses": 0, "unique_species_count": 152.0, "countryCode": "UZ" }, "geometry": { "type": "MultiPolygon", "coordinates": [ [ [ [ 67.749610771923287, 37.82398572848971 ], [ 67.96494086363478, 37.369340282819898 ], [ 67.594524163907508, 36.905278065571949 ], [ 67.024249243305249, 36.895071211330283 ], [ 66.814015229965676, 37.349567398981542 ], [ 67.168687897807288, 37.81428016506451 ], [ 67.749610771923287, 37.82398572848971 ] ] ] ] } },
{ "type": "Feature", "properties": { "geogrid_id": "837801736066587697", "seqnum": 22906.0, "lat_c": 37.801736326054822, "lon_c": 66.587697450443684, "res": 8.0, "count_Ferns": 1, "count_Flowering Plants": 178, "count_Insects": 19, "count_Mammals": 1, "count_Reptiles": 4, "count_Gymnosperms": 0, "count_Sac Fungi": 0, "count_Birds": 52, "count_Basidiomycota": 0, "count_Arachnids": 0, "count_Amphibians": 3, "count_Molluscs": 0, "count_Mosses": 0, "unique_species_count": 258.0, "countryCode": "UZ" }, "geometry": { "type": "MultiPolygon", "coordinates": [ [ [ [ 66.934075952226905, 38.265351527039591 ], [ 67.168687897807288, 37.81428016506451 ], [ 66.814015229965676, 37.349567398981542 ], [ 66.23862982488761, 37.335537993301642 ], [ 66.006624526304918, 37.786338887998397 ], [ 66.347279618844908, 38.25131213514539 ], [ 66.934075952226905, 38.265351527039591 ] ] ] ] } },
{ "type": "Feature", "properties": { "geogrid_id": "837830865068330475", "seqnum": 23069.0, "lat_c": 37.830865361308277, "lon_c": 68.330474542228174, "res": 8.0, "count_Ferns": 0, "count_Flowering Plants": 54, "count_Insects": 15, "count_Mammals": 0, "count_Reptiles": 5, "count_Gymnosperms": 0, "count_Sac Fungi": 0, "count_Birds": 18, "count_Basidiomycota": 0, "count_Arachnids": 1, "count_Amphibians": 1, "count_Molluscs": 0, "count_Mosses": 0, "unique_species_count": 94.0, "countryCode": "UZ" }, "geometry": { "type": "MultiPolygon", "coordinates": [ [ [ [ 68.693435378089731, 38.289942840841384 ], [ 68.911282264383402, 37.834929078020664 ], [ 68.540481939681626, 37.375096081205712 ], [ 67.96494086363478, 37.369340282819898 ], [ 67.749610771923287, 37.82398572848971 ], [ 68.107140319556436, 38.284647952897203 ], [ 68.693435378089731, 38.289942840841384 ] ] ] ] } },
{ "type": "Feature", "properties": { "geogrid_id": "838234313065760278", "seqnum": 22825.0, "lat_c": 38.234313193054604, "lon_c": 65.760277936455083, "res": 8.0, "count_Ferns": 0, "count_Flowering Plants": 4, "count_Insects": 1, "count_Mammals": 1, "count_Reptiles": 2, "count_Gymnosperms": 0, "count_Sac Fungi": 0, "count_Birds": 49, "count_Basidiomycota": 0, "count_Arachnids": 0, "count_Amphibians": 1, "count_Molluscs": 0, "count_Mosses": 0, "unique_species_count": 58.0, "countryCode": "UZ" }, "geometry": { "type": "MultiPolygon", "coordinates": [ [ [ [ 66.094392747948277, 38.698128684277506 ], [ 66.347279618844908, 38.25131213514539 ], [ 66.006624526304918, 37.786338887998397 ], [ 65.425446542503167, 37.768068702918576 ], [ 65.173038817582238, 38.2143238363916 ], [ 65.501333348147909, 38.679308785946212 ], [ 66.094392747948277, 38.698128684277506 ] ] ] ] } },
{ "type": "Feature", "properties": { "geogrid_id": "838276457067520691", "seqnum": 22988.0, "lat_c": 38.276456562916621, "lon_c": 67.520690660916415, "res": 8.0, "count_Ferns": 2, "count_Flowering Plants": 286, "count_Insects": 37, "count_Mammals": 3, "count_Reptiles": 11, "count_Gymnosperms": 3, "count_Sac Fungi": 0, "count_Birds": 108, "count_Basidiomycota": 7, "count_Arachnids": 1, "count_Amphibians": 1, "count_Molluscs": 0, "count_Mosses": 0, "unique_species_count": 459.0, "countryCode": "UZ" }, "geometry": { "type": "MultiPolygon", "coordinates": [ [ [ [ 67.87182142514915, 38.736253204406061 ], [ 68.107140319556436, 38.284647952897203 ], [ 67.749610771923287, 37.82398572848971 ], [ 67.168687897807288, 37.81428016506451 ], [ 66.934075952226905, 38.265351527039591 ], [ 67.279611524647905, 38.72656794234296 ], [ 67.87182142514915, 38.736253204406061 ] ] ] ] } },
{ "type": "Feature", "properties": { "geogrid_id": "838657367064907927", "seqnum": 22744.0, "lat_c": 38.657366564872952, "lon_c": 64.907927236434745, "res": 8.0, "count_Ferns": 0, "count_Flowering Plants": 6, "count_Insects": 9, "count_Mammals": 4, "count_Reptiles": 12, "count_Gymnosperms": 0, "count_Sac Fungi": 0, "count_Birds": 15, "count_Basidiomycota": 0, "count_Arachnids": 1, "count_Amphibians": 3, "count_Molluscs": 0, "count_Mosses": 0, "unique_species_count": 50.0, "countryCode": "UZ" }, "geometry": { "type": "MultiPolygon", "coordinates": [ [ [ [ 65.231212803417435, 39.121250557816971 ], [ 65.501333348147909, 38.679308785946212 ], [ 65.173038817582238, 38.2143238363916 ], [ 64.585520375195699, 38.191305981560049 ], [ 64.314127956022844, 38.632249065480927 ], [ 64.631617773155455, 39.097143701833687 ], [ 65.231212803417435, 39.121250557816971 ] ] ] ] } },
{ "type": "Feature", "properties": { "geogrid_id": "838713870066687143", "seqnum": 22907.0, "lat_c": 38.713869748780567, "lon_c": 66.68714251979614, "res": 8.0, "count_Ferns": 0, "count_Flowering Plants": 37, "count_Insects": 110, "count_Mammals": 2, "count_Reptiles": 7, "count_Gymnosperms": 0, "count_Sac Fungi": 0, "count_Birds": 103, "count_Basidiomycota": 4, "count_Arachnids": 0, "count_Amphibians": 1, "count_Molluscs": 0, "count_Mosses": 0, "unique_species_count": 264.0, "countryCode": "UZ" }, "geometry": { "type": "MultiPolygon", "coordinates": [ [ [ [ 67.027569353938887, 39.174200425082844 ], [ 67.279611524647905, 38.72656794234296 ], [ 66.934075952226905, 38.265351527039591 ], [ 66.347279618844908, 38.25131213514539 ], [ 66.094392747948277, 38.698128684277506 ], [ 66.429154574855389, 39.15972719854981 ], [ 67.027569353938887, 39.174200425082844 ] ] ] ] } },
{ "type": "Feature", "properties": { "geogrid_id": "838742951068463788", "seqnum": 23070.0, "lat_c": 38.74295062545017, "lon_c": 68.463787589150058, "res": 8.0, "count_Ferns": 0, "count_Flowering Plants": 24, "count_Insects": 12, "count_Mammals": 0, "count_Reptiles": 0, "count_Gymnosperms": 0, "count_Sac Fungi": 0, "count_Birds": 0, "count_Basidiomycota": 0, "count_Arachnids": 0, "count_Amphibians": 1, "count_Molluscs": 0, "count_Mosses": 0, "unique_species_count": 37.0, "countryCode": "UZ" }, "geometry": { "type": "MultiPolygon", "coordinates": [ [ [ [ 68.820857100682417, 39.199020288209816 ], [ 69.055519881492074, 38.746681373154502 ], [ 68.693435378089731, 38.289942840841384 ], [ 68.107140319556436, 38.284647952897203 ], [ 67.87182142514915, 38.736253204406061 ], [ 68.223405625181968, 39.193815985936418 ], [ 68.820857100682417, 39.199020288209816 ] ] ] ] } },
{ "type": "Feature", "properties": { "geogrid_id": "839069704064031548", "seqnum": 22663.0, "lat_c": 39.069704462508462, "lon_c": 64.031548222476019, "res": 8.0, "count_Ferns": 0, "count_Flowering Plants": 3, "count_Insects": 4, "count_Mammals": 0, "count_Reptiles": 6, "count_Gymnosperms": 0, "count_Sac Fungi": 0, "count_Birds": 17, "count_Basidiomycota": 0, "count_Arachnids": 0, "count_Amphibians": 0, "count_Molluscs": 0, "count_Mosses": 0, "unique_species_count": 30.0, "countryCode": "UZ" }, "geometry": { "type": "MultiPolygon", "coordinates": [ [ [ [ 64.345328490611493, 39.533657852694304 ], [ 64.631617773155455, 39.097143701833687 ], [ 64.314127956022844, 38.632249065480927 ], [ 63.719878410023085, 38.603891333418069 ], [ 63.430949474849072, 39.038850462555864 ], [ 63.739056769259513, 39.503702054498611 ], [ 64.345328490611493, 39.533657852694304 ] ] ] ] } },
{ "type": "Feature", "properties": { "geogrid_id": "839142093065830379", "seqnum": 22826.0, "lat_c": 39.14209293672976, "lon_c": 65.830379164619188, "res": 8.0, "count_Ferns": 0, "count_Flowering Plants": 189, "count_Insects": 8, "count_Mammals": 1, "count_Reptiles": 1, "count_Gymnosperms": 0, "count_Sac Fungi": 0, "count_Birds": 18, "count_Basidiomycota": 1, "count_Arachnids": 4, "count_Amphibians": 0, "count_Molluscs": 0, "count_Mosses": 0, "unique_species_count": 222.0, "countryCode": "UZ" }, "geometry": { "type": "MultiPolygon", "coordinates": [ [ [ [ 66.161163685102196, 39.602867526186188 ], [ 66.429154574855389, 39.15972719854981 ], [ 66.094392747948277, 38.698128684277506 ], [ 65.501333348147909, 38.679308785946212 ], [ 65.231212803417435, 39.121250557816971 ], [ 65.55634433663981, 39.583164943908031 ], [ 66.161163685102196, 39.602867526186188 ] ] ] ] } },
{ "type": "Feature", "properties": { "geogrid_id": "839185552067625647", "seqnum": 22989.0, "lat_c": 39.185552195146613, "lon_c": 67.625647149344616, "res": 8.0, "count_Ferns": 0, "count_Flowering Plants": 37, "count_Insects": 28, "count_Mammals": 1, "count_Reptiles": 2, "count_Gymnosperms": 1, "count_Sac Fungi": 0, "count_Birds": 54, "count_Basidiomycota": 1, "count_Arachnids": 2, "count_Amphibians": 0, "count_Molluscs": 0, "count_Mosses": 0, "unique_species_count": 126.0, "countryCode": "UZ" }, "geometry": { "type": "MultiPolygon", "coordinates": [ [ [ [ 67.973192337065385, 39.642447701799426 ], [ 68.223405625181968, 39.193815985936418 ], [ 67.87182142514915, 38.736253204406061 ], [ 67.279611524647905, 38.72656794234296 ], [ 67.027569353938887, 39.174200425082844 ], [ 67.369567613797173, 39.632463290494485 ], [ 67.973192337065385, 39.642447701799426 ] ] ] ] } },
{ "type": "Feature", "properties": { "geogrid_id": "839470152063132215", "seqnum": 22582.0, "lat_c": 39.4701517253446, "lon_c": 63.132215138910368, "res": 8.0, "count_Ferns": 0, "count_Flowering Plants": 0, "count_Insects": 0, "count_Mammals": 1, "count_Reptiles": 0, "count_Gymnosperms": 0, "count_Sac Fungi": 0, "count_Birds": 13, "count_Basidiomycota": 0, "count_Arachnids": 0, "count_Amphibians": 0, "count_Molluscs": 0, "count_Mosses": 0, "unique_species_count": 14.0, "countryCode": "UZ" }, "geometry": { "type": "MultiPolygon", "coordinates": [ [ [ [ 63.437675682322997, 39.934308261935129 ], [ 63.739056769259513, 39.503702054498611 ], [ 63.430949474849072, 39.038850462555864 ], [ 62.829757472126126, 39.004481044907266 ], [ 62.524750417860751, 39.432887223575584 ], [ 62.824731243527296, 39.897891644363952 ], [ 63.437675682322997, 39.934308261935129 ] ] ] ] } },
{ "type": "Feature", "properties": { "geogrid_id": "839560118064951077", "seqnum": 22745.0, "lat_c": 39.560118038786449, "lon_c": 64.951077424688421, "res": 8.0, "count_Ferns": 0, "count_Flowering Plants": 80, "count_Insects": 37, "count_Mammals": 5, "count_Reptiles": 9, "count_Gymnosperms": 1, "count_Sac Fungi": 0, "count_Birds": 168, "count_Basidiomycota": 0, "count_Arachnids": 1, "count_Amphibians": 1, "count_Molluscs": 0, "count_Mosses": 0, "unique_species_count": 302.0, "countryCode": "UZ" }, "geometry": { "type": "MultiPolygon", "coordinates": [ [ [ [ 65.27319882389213, 40.02134281740679 ], [ 65.55634433663981, 39.583164943908031 ], [ 65.231212803417435, 39.121250557816971 ], [ 64.631617773155455, 39.097143701833687 ], [ 64.345328490611493, 39.533657852694304 ], [ 64.66187571566698, 39.995928888686123 ], [ 65.27319882389213, 40.02134281740679 ] ] ] ] } },
{ "type": "Feature", "properties": { "geogrid_id": "839619284066765564", "seqnum": 22908.0, "lat_c": 39.619283892103084, "lon_c": 66.765563873891494, "res": 8.0, "count_Ferns": 0, "count_Flowering Plants": 322, "count_Insects": 142, "count_Mammals": 9, "count_Reptiles": 13, "count_Gymnosperms": 5, "count_Sac Fungi": 7, "count_Birds": 185, "count_Basidiomycota": 2, "count_Arachnids": 4, "count_Amphibians": 3, "count_Molluscs": 0, "count_Mosses": 0, "unique_species_count": 692.0, "countryCode": "UZ" }, "geometry": { "type": "MultiPolygon", "coordinates": [ [ [ [ 67.104381806296018, 40.076940830179119 ], [ 67.369567613797173, 39.632463290494485 ], [ 67.027569353938887, 39.174200425082844 ], [ 66.429154574855389, 39.15972719854981 ], [ 66.161163685102196, 39.602867526186188 ], [ 66.494430506059615, 40.061785113866016 ], [ 67.104381806296018, 40.076940830179119 ] ] ] ] } },
{ "type": "Feature", "properties": { "geogrid_id": "839649273068576451", "seqnum": 23071.0, "lat_c": 39.649273114004856, "lon_c": 68.576450629014786, "res": 8.0, "count_Ferns": 0, "count_Flowering Plants": 77, "count_Insects": 56, "count_Mammals": 3, "count_Reptiles": 3, "count_Gymnosperms": 1, "count_Sac Fungi": 0, "count_Birds": 84, "count_Basidiomycota": 7, "count_Arachnids": 5, "count_Amphibians": 1, "count_Molluscs": 0, "count_Mosses": 0, "unique_species_count": 237.0, "countryCode": "UZ" }, "geometry": { "type": "MultiPolygon", "coordinates": [ [ [ [ 68.931744689639004, 40.102733538469757 ], [ 69.179350655256215, 39.652970554105117 ], [ 68.820857100682417, 39.199020288209816 ], [ 68.223405625181968, 39.193815985936418 ], [ 67.973192337065385, 39.642447701799426 ], [ 68.323030002491308, 40.097374493995048 ], [ 68.931744689639004, 40.102733538469757 ] ] ] ] } },
{ "type": "Feature", "properties": { "geogrid_id": "839966949064050045", "seqnum": 22664.0, "lat_c": 39.966949305298144, "lon_c": 64.050045337288978, "res": 8.0, "count_Ferns": 0, "count_Flowering Plants": 81, "count_Insects": 43, "count_Mammals": 3, "count_Reptiles": 9, "count_Gymnosperms": 0, "count_Sac Fungi": 0, "count_Birds": 152, "count_Basidiomycota": 0, "count_Arachnids": 1, "count_Amphibians": 3, "count_Molluscs": 0, "count_Mosses": 0, "unique_species_count": 292.0, "countryCode": "UZ" }, "geometry": { "type": "MultiPolygon", "coordinates": [ [ [ [ 64.364382276005415, 40.428726744042379 ], [ 64.66187571566698, 39.995928888686123 ], [ 64.345328490611493, 39.533657852694304 ], [ 63.739056769259513, 39.503702054498611 ], [ 63.437675682322997, 39.934308261935129 ], [ 63.746566351343859, 40.397082964798159 ], [ 64.364382276005415, 40.428726744042379 ] ] ] ] } },
{ "type": "Feature", "properties": { "geogrid_id": "840043272065884043", "seqnum": 22827.0, "lat_c": 40.043271993159657, "lon_c": 65.884042569087725, "res": 8.0, "count_Ferns": 0, "count_Flowering Plants": 153, "count_Insects": 16, "count_Mammals": 4, "count_Reptiles": 6, "count_Gymnosperms": 0, "count_Sac Fungi": 0, "count_Birds": 46, "count_Basidiomycota": 1, "count_Arachnids": 0, "count_Amphibians": 0, "count_Molluscs": 0, "count_Mosses": 0, "unique_species_count": 226.0, "countryCode": "UZ" }, "geometry": { "type": "MultiPolygon", "coordinates": [ [ [ [ 66.214866745834954, 40.501698149710876 ], [ 66.494430506059615, 40.061785113866016 ], [ 66.161163685102196, 39.602867526186188 ], [ 65.55634433663981, 39.583164943908031 ], [ 65.27319882389213, 40.02134281740679 ], [ 65.598514999418725, 40.480949065811416 ], [ 66.214866745834954, 40.501698149710876 ] ] ] ] } },
{ "type": "Feature", "properties": { "geogrid_id": "840088789067713911", "seqnum": 22990.0, "lat_c": 40.088789480170412, "lon_c": 67.713911366609707, "res": 8.0, "count_Ferns": 1, "count_Flowering Plants": 108, "count_Insects": 76, "count_Mammals": 4, "count_Reptiles": 5, "count_Gymnosperms": 1, "count_Sac Fungi": 0, "count_Birds": 106, "count_Basidiomycota": 2, "count_Arachnids": 17, "count_Amphibians": 1, "count_Molluscs": 1, "count_Mosses": 0, "unique_species_count": 322.0, "countryCode": "UZ" }, "geometry": { "type": "MultiPolygon", "coordinates": [ [ [ [ 68.061214727816264, 40.543285363405502 ], [ 68.323030002491308, 40.097374493995048 ], [ 67.973192337065385, 39.642447701799426 ], [ 67.369567613797173, 39.632463290494485 ], [ 67.104381806296018, 40.076940830179119 ], [ 67.446207825071724, 40.532811806908349 ], [ 68.061214727816264, 40.543285363405502 ] ] ] ] } },
{ "type": "Feature", "properties": { "geogrid_id": "840092510071362584", "seqnum": 23316.0, "lat_c": 40.092509815227316, "lon_c": 71.362584097262896, "res": 8.0, "count_Ferns": 0, "count_Flowering Plants": 27, "count_Insects": 33, "count_Mammals": 1, "count_Reptiles": 1, "count_Gymnosperms": 1, "count_Sac Fungi": 1, "count_Birds": 17, "count_Basidiomycota": 0, "count_Arachnids": 1, "count_Amphibians": 2, "count_Molluscs": 0, "count_Mosses": 1, "unique_species_count": 85.0, "countryCode": "UZ" }, "geometry": { "type": "MultiPolygon", "coordinates": [ [ [ [ 71.74204867415385, 40.537449190113477 ], [ 71.969268080460608, 40.082159588439183 ], [ 71.587399015049542, 39.636970471043846 ], [ 70.985924947221648, 39.645547485332507 ], [ 70.755482843144662, 40.099763653748475 ], [ 71.129693317347801, 40.546444610360851 ], [ 71.74204867415385, 40.537449190113477 ] ] ] ] } },
{ "type": "Feature", "properties": { "geogrid_id": "840104899069540059", "seqnum": 23153.0, "lat_c": 40.104899455249331, "lon_c": 69.54005882951796, "res": 8.0, "count_Ferns": 0, "count_Flowering Plants": 3, "count_Insects": 1, "count_Mammals": 0, "count_Reptiles": 0, "count_Gymnosperms": 0, "count_Sac Fungi": 0, "count_Birds": 2, "count_Basidiomycota": 0, "count_Arachnids": 0, "count_Amphibians": 0, "count_Molluscs": 0, "count_Mosses": 0, "unique_species_count": 6.0, "countryCode": "UZ" }, "geometry": { "type": "MultiPolygon", "coordinates": [ [ [ [ 69.903622096786833, 40.554889297983671 ], [ 70.147972523169344, 40.103901034120533 ], [ 69.781896571985158, 39.653566927317186 ], [ 69.179350655256215, 39.652970554105117 ], [ 68.931744689639004, 40.102733538469757 ], [ 69.289922103048951, 40.554287725768162 ], [ 69.903622096786833, 40.554889297983671 ] ] ] ] } },
{ "type": "Feature", "properties": { "geogrid_id": "840361612063128224", "seqnum": 22583.0, "lat_c": 40.361612076020528, "lon_c": 63.128224115399632, "res": 8.0, "count_Ferns": 0, "count_Flowering Plants": 14, "count_Insects": 25, "count_Mammals": 7, "count_Reptiles": 14, "count_Gymnosperms": 1, "count_Sac Fungi": 0, "count_Birds": 97, "count_Basidiomycota": 0, "count_Arachnids": 0, "count_Amphibians": 0, "count_Molluscs": 0, "count_Mosses": 0, "unique_species_count": 158.0, "countryCode": "UZ" }, "geometry": { "type": "MultiPolygon", "coordinates": [ [ [ [ 63.435536764436655, 40.824138963229004 ], [ 63.746566351343859, 40.397082964798159 ], [ 63.437675682322997, 39.934308261935129 ], [ 62.824731243527296, 39.897891644363952 ], [ 62.509334723925207, 40.322186391330206 ], [ 62.811357964013453, 40.785715263199059 ], [ 63.435536764436655, 40.824138963229004 ] ] ] ] } },
{ "type": "Feature", "properties": { "geogrid_id": "840456651064981692", "seqnum": 22746.0, "lat_c": 40.456651468069552, "lon_c": 64.981692262469394, "res": 8.0, "count_Ferns": 0, "count_Flowering Plants": 54, "count_Insects": 15, "count_Mammals": 6, "count_Reptiles": 8, "count_Gymnosperms": 0, "count_Sac Fungi": 0, "count_Birds": 116, "count_Basidiomycota": 1, "count_Arachnids": 0, "count_Amphibians": 0, "count_Molluscs": 0, "count_Mosses": 0, "unique_species_count": 200.0, "countryCode": "UZ" }, "geometry": { "type": "MultiPolygon", "coordinates": [ [ [ [ 65.305180290726611, 40.915926505879341 ], [ 65.598514999418725, 40.480949065811416 ], [ 65.27319882389213, 40.02134281740679 ], [ 64.66187571566698, 39.995928888686123 ], [ 64.364382276005415, 40.428726744042379 ], [ 64.682440935780761, 40.889134185589924 ], [ 65.305180290726611, 40.915926505879341 ] ] ] ] } },
{ "type": "Feature", "properties": { "geogrid_id": "840518966066830761", "seqnum": 22909.0, "lat_c": 40.518966280803035, "lon_c": 66.830760906315774, "res": 8.0, "count_Ferns": 1, "count_Flowering Plants": 274, "count_Insects": 75, "count_Mammals": 8, "count_Reptiles": 15, "count_Gymnosperms": 3, "count_Sac Fungi": 3, "count_Birds": 128, "count_Basidiomycota": 6, "count_Arachnids": 5, "count_Amphibians": 2, "count_Molluscs": 0, "count_Mosses": 0, "unique_species_count": 520.0, "countryCode": "UZ" }, "geometry": { "type": "MultiPolygon", "coordinates": [ [ [ [ 67.170625633896691, 40.974505504165855 ], [ 67.446207825071724, 40.532811806908349 ], [ 67.104381806296018, 40.076940830179119 ], [ 66.494430506059615, 40.061785113866016 ], [ 66.214866745834954, 40.501698149710876 ], [ 66.549267703645867, 40.958541323348669 ], [ 67.170625633896691, 40.974505504165855 ] ] ] ] } },
{ "type": "Feature", "properties": { "geogrid_id": "840525301072353936", "seqnum": 23398.0, "lat_c": 40.525301316132094, "lon_c": 72.353936315480425, "res": 8.0, "count_Ferns": 0, "count_Flowering Plants": 51, "count_Insects": 6, "count_Mammals": 1, "count_Reptiles": 1, "count_Gymnosperms": 0, "count_Sac Fungi": 0, "count_Birds": 15, "count_Basidiomycota": 1, "count_Arachnids": 0, "count_Amphibians": 2, "count_Molluscs": 0, "count_Mosses": 0, "unique_species_count": 77.0, "countryCode": "UZ" }, "geometry": { "type": "MultiPolygon", "coordinates": [ [ [ [ 72.741950688705472, 40.966438124593445 ], [ 72.965343130658809, 40.510020529283501 ], [ 72.575524312727111, 40.068730987101773 ], [ 71.969268080460608, 40.082159588439183 ], [ 71.74204867415385, 40.537449190113477 ], [ 72.124864072989112, 40.98041430469118 ], [ 72.741950688705472, 40.966438124593445 ] ] ] ] } },
{ "type": "Feature", "properties": { "geogrid_id": "840550431068675786", "seqnum": 23072.0, "lat_c": 40.550431105538081, "lon_c": 68.675785762282644, "res": 8.0, "count_Ferns": 0, "count_Flowering Plants": 113, "count_Insects": 34, "count_Mammals": 4, "count_Reptiles": 1, "count_Gymnosperms": 0, "count_Sac Fungi": 0, "count_Birds": 81, "count_Basidiomycota": 0, "count_Arachnids": 0, "count_Amphibians": 1, "count_Molluscs": 1, "count_Mosses": 0, "unique_species_count": 235.0, "countryCode": "UZ" }, "geometry": { "type": "MultiPolygon", "coordinates": [ [ [ [ 69.031974063348045, 41.001697086988969 ], [ 69.289922103048951, 40.554287725768162 ], [ 68.931744689639004, 40.102733538469757 ], [ 68.323030002491308, 40.097374493995048 ], [ 68.061214727816264, 40.543285363405502 ], [ 68.411980066345578, 40.996036032667647 ], [ 69.031974063348045, 41.001697086988969 ] ] ] ] } },
{ "type": "Feature", "properties": { "geogrid_id": "840552266070516881", "seqnum": 23235.0, "lat_c": 40.552265981429173, "lon_c": 70.516881431361256, "res": 8.0, "count_Ferns": 0, "count_Flowering Plants": 29, "count_Insects": 65, "count_Mammals": 0, "count_Reptiles": 3, "count_Gymnosperms": 1, "count_Sac Fungi": 0, "count_Birds": 58, "count_Basidiomycota": 2, "count_Arachnids": 7, "count_Amphibians": 0, "count_Molluscs": 0, "count_Mosses": 0, "unique_species_count": 165.0, "countryCode": "UZ" }, "geometry": { "type": "MultiPolygon", "coordinates": [ [ [ [ 70.889161440666214, 40.99872305179494 ], [ 71.129693317347801, 40.546444610360851 ], [ 70.755482843144662, 40.099763653748475 ], [ 70.147972523169344, 40.103901034120533 ], [ 69.903622096786833, 40.554889297983671 ], [ 70.270572594518427, 41.003007616265265 ], [ 70.889161440666214, 40.99872305179494 ] ] ] ] } },
{ "type": "Feature", "properties": { "geogrid_id": "840743162062186688", "seqnum": 22502.0, "lat_c": 40.743161696187023, "lon_c": 62.186688471144613, "res": 8.0, "count_Ferns": 0, "count_Flowering Plants": 7, "count_Insects": 1, "count_Mammals": 1, "count_Reptiles": 2, "count_Gymnosperms": 1, "count_Sac Fungi": 0, "count_Birds": 9, "count_Basidiomycota": 0, "count_Arachnids": 0, "count_Amphibians": 0, "count_Molluscs": 0, "count_Mosses": 0, "unique_species_count": 21.0, "countryCode": "UZ" }, "geometry": { "type": "MultiPolygon", "coordinates": [ [ [ [ 62.487601096555807, 41.206725546040879 ], [ 62.811357964013453, 40.785715263199059 ], [ 62.509334723925207, 40.322186391330206 ], [ 61.88987875661104, 40.278654183487127 ], [ 61.561529405587258, 40.696313789157379 ], [ 61.85731619589734, 41.160946048973329 ], [ 62.487601096555807, 41.206725546040879 ] ] ] ] } },
{ "type": "Feature", "properties": { "geogrid_id": "840858572064059229", "seqnum": 22665.0, "lat_c": 40.858572296668839, "lon_c": 64.059228891431559, "res": 8.0, "count_Ferns": 0, "count_Flowering Plants": 15, "count_Insects": 20, "count_Mammals": 2, "count_Reptiles": 3, "count_Gymnosperms": 0, "count_Sac Fungi": 0, "count_Birds": 37, "count_Basidiomycota": 0, "count_Arachnids": 0, "count_Amphibians": 0, "count_Molluscs": 0, "count_Mosses": 0, "unique_species_count": 77.0, "countryCode": "UZ" }, "geometry": { "type": "MultiPolygon", "coordinates": [ [ [ [ 64.375950187314444, 41.318846358596119 ], [ 64.682440935780761, 40.889134185589924 ], [ 64.364382276005415, 40.428726744042379 ], [ 63.746566351343859, 40.397082964798159 ], [ 63.435536764436655, 40.824138963229004 ], [ 63.746929561355323, 41.285536768133092 ], [ 64.375950187314444, 41.318846358596119 ] ] ] ] } },
{ "type": "Feature", "properties": { "geogrid_id": "840939037065927454", "seqnum": 22828.0, "lat_c": 40.939036944287253, "lon_c": 65.927453949125507, "res": 8.0, "count_Ferns": 0, "count_Flowering Plants": 39, "count_Insects": 12, "count_Mammals": 5, "count_Reptiles": 9, "count_Gymnosperms": 0, "count_Sac Fungi": 0, "count_Birds": 80, "count_Basidiomycota": 0, "count_Arachnids": 0, "count_Amphibians": 1, "count_Molluscs": 0, "count_Mosses": 0, "unique_species_count": 146.0, "countryCode": "UZ" }, "geometry": { "type": "MultiPolygon", "coordinates": [ [ [ [ 66.260372780989925, 41.395682458602579 ], [ 66.549267703645867, 40.958541323348669 ], [ 66.214866745834954, 40.501698149710876 ], [ 65.598514999418725, 40.480949065811416 ], [ 65.305180290726611, 40.915926505879341 ], [ 65.632675350655887, 41.373829626628492 ], [ 66.260372780989925, 41.395682458602579 ] ] ] ] } },
{ "type": "Feature", "properties": { "geogrid_id": "840949276073358507", "seqnum": 23480.0, "lat_c": 40.949275822824092, "lon_c": 73.358506653907327, "res": 8.0, "count_Ferns": 0, "count_Flowering Plants": 0, "count_Insects": 2, "count_Mammals": 0, "count_Reptiles": 0, "count_Gymnosperms": 0, "count_Sac Fungi": 0, "count_Birds": 3, "count_Basidiomycota": 0, "count_Arachnids": 1, "count_Amphibians": 1, "count_Molluscs": 0, "count_Mosses": 0, "unique_species_count": 7.0, "countryCode": "UZ" }, "geometry": { "type": "MultiPolygon", "coordinates": [ [ [ [ 73.75548931456521, 41.386526039628045 ], [ 73.974514480408246, 40.928946473675623 ], [ 73.576254259658654, 40.491624618213791 ], [ 72.965343130658809, 40.510020529283501 ], [ 72.741950688705472, 40.966438124593445 ], [ 73.133783622932611, 41.405604233544146 ], [ 73.75548931456521, 41.386526039628045 ] ] ] ] } },
{ "type": "Feature", "properties": { "geogrid_id": "840986987067791530", "seqnum": 22991.0, "lat_c": 40.986986952229465, "lon_c": 67.791529797593299, "res": 8.0, "count_Ferns": 0, "count_Flowering Plants": 8, "count_Insects": 13, "count_Mammals": 2, "count_Reptiles": 5, "count_Gymnosperms": 0, "count_Sac Fungi": 0, "count_Birds": 103, "count_Basidiomycota": 0, "count_Arachnids": 1, "count_Amphibians": 2, "count_Molluscs": 0, "count_Mosses": 0, "unique_species_count": 134.0, "countryCode": "UZ" }, "geometry": { "type": "MultiPolygon", "coordinates": [ [ [ [ 68.140757282782445, 41.439536723483791 ], [ 68.411980066345578, 40.996036032667647 ], [ 68.061214727816264, 40.543285363405502 ], [ 67.446207825071724, 40.532811806908349 ], [ 67.170625633896691, 40.974505504165855 ], [ 67.514418796441007, 41.428475996220392 ], [ 68.140757282782445, 41.439536723483791 ] ] ] ] } },
{ "type": "Feature", "properties": { "geogrid_id": "840991184071507263", "seqnum": 23317.0, "lat_c": 40.991183555689368, "lon_c": 71.507262841437878, "res": 8.0, "count_Ferns": 0, "count_Flowering Plants": 201, "count_Insects": 203, "count_Mammals": 8, "count_Reptiles": 8, "count_Gymnosperms": 2, "count_Sac Fungi": 1, "count_Birds": 170, "count_Basidiomycota": 0, "count_Arachnids": 48, "count_Amphibians": 2, "count_Molluscs": 0, "count_Mosses": 0, "unique_species_count": 643.0, "countryCode": "UZ" }, "geometry": { "type": "MultiPolygon", "coordinates": [ [ [ [ 71.888656604642776, 41.434024810835119 ], [ 72.124864072989112, 40.98041430469118 ], [ 71.74204867415385, 40.537449190113477 ], [ 71.129693317347801, 40.546444610360851 ], [ 70.889161440666214, 40.99872305179494 ], [ 71.265272299572899, 41.443321532407126 ], [ 71.888656604642776, 41.434024810835119 ] ] ] ] } },
{ "type": "Feature", "properties": { "geogrid_id": "841004009069651507", "seqnum": 23154.0, "lat_c": 41.004009332396237, "lon_c": 69.651507172182946, "res": 8.0, "count_Ferns": 1, "count_Flowering Plants": 309, "count_Insects": 190, "count_Mammals": 6, "count_Reptiles": 7, "count_Gymnosperms": 2, "count_Sac Fungi": 3, "count_Birds": 192, "count_Basidiomycota": 29, "count_Arachnids": 13, "count_Amphibians": 3, "count_Molluscs": 2, "count_Mosses": 0, "unique_species_count": 757.0, "countryCode": "UZ" }, "geometry": { "type": "MultiPolygon", "coordinates": [ [ [ [ 70.016944531249777, 41.451957110267784 ], [ 70.270572594518427, 41.003007616265265 ], [ 69.903622096786833, 40.554889297983671 ], [ 69.289922103048951, 40.554287725768162 ], [ 69.031974063348045, 41.001697086988969 ], [ 69.392029621873675, 41.451235529524965 ], [ 70.016944531249777, 41.451957110267784 ] ] ] ] } },
{ "type": "Feature", "properties": { "geogrid_id": "841110692061226645", "seqnum": 22421.0, "lat_c": 41.110692440867545, "lon_c": 61.226645131788025, "res": 8.0, "count_Ferns": 0, "count_Flowering Plants": 9, "count_Insects": 7, "count_Mammals": 1, "count_Reptiles": 1, "count_Gymnosperms": 0, "count_Sac Fungi": 0, "count_Birds": 8, "count_Basidiomycota": 0, "count_Arachnids": 0, "count_Amphibians": 1, "count_Molluscs": 0, "count_Mosses": 0, "unique_species_count": 27.0, "countryCode": "UZ" }, "geometry": { "type": "MultiPolygon", "coordinates": [ [ [ [ 61.521629645218155, 41.575666194008839 ], [ 61.85731619589734, 41.160946048973329 ], [ 61.561529405587258, 40.696313789157379 ], [ 60.935890719811638, 40.644976593347273 ], [ 60.595623773861718, 41.055758885913093 ], [ 60.885628809683865, 41.521935717370688 ], [ 61.521629645218155, 41.575666194008839 ] ] ] ] } },
{ "type": "Feature", "properties": { "geogrid_id": "841248206063117477", "seqnum": 22584.0, "lat_c": 41.248205944447967, "lon_c": 63.117476960304046, "res": 8.0, "count_Ferns": 0, "count_Flowering Plants": 3, "count_Insects": 5, "count_Mammals": 4, "count_Reptiles": 13, "count_Gymnosperms": 0, "count_Sac Fungi": 0, "count_Birds": 7, "count_Basidiomycota": 0, "count_Arachnids": 1, "count_Amphibians": 0, "count_Molluscs": 0, "count_Mosses": 0, "unique_species_count": 33.0, "countryCode": "UZ" }, "geometry": { "type": "MultiPolygon", "coordinates": [ [ [ [ 63.427900701917224, 41.709697159879454 ], [ 63.746929561355323, 41.285536768133092 ], [ 63.435536764436655, 40.824138963229004 ], [ 62.811357964013453, 40.785715263199059 ], [ 62.487601096555807, 41.206725546040879 ], [ 62.792804815264041, 41.669376296039708 ], [ 63.427900701917224, 41.709697159879454 ] ] ] ] } },
{ "type": "Feature", "properties": { "geogrid_id": "841348245065004533", "seqnum": 22747.0, "lat_c": 41.348245370691188, "lon_c": 65.004533385516154, "res": 8.0, "count_Ferns": 0, "count_Flowering Plants": 3, "count_Insects": 2, "count_Mammals": 0, "count_Reptiles": 4, "count_Gymnosperms": 0, "count_Sac Fungi": 0, "count_Birds": 17, "count_Basidiomycota": 0, "count_Arachnids": 0, "count_Amphibians": 0, "count_Molluscs": 0, "count_Mosses": 0, "unique_species_count": 26.0, "countryCode": "UZ" }, "geometry": { "type": "MultiPolygon", "coordinates": [ [ [ [ 65.330930989960251, 41.806114128111567 ], [ 65.632675350655887, 41.373829626628492 ], [ 65.305180290726611, 40.915926505879341 ], [ 64.682440935780761, 40.889134185589924 ], [ 64.375950187314444, 41.318846358596119 ], [ 64.696981361505848, 41.777955473113437 ], [ 65.330930989960251, 41.806114128111567 ] ] ] ] } },
{ "type": "Feature", "properties": { "geogrid_id": "841413877066887622", "seqnum": 22910.0, "lat_c": 41.413876641634964, "lon_c": 66.887622077762416, "res": 8.0, "count_Ferns": 0, "count_Flowering Plants": 2, "count_Insects": 0, "count_Mammals": 1, "count_Reptiles": 1, "count_Gymnosperms": 0, "count_Sac Fungi": 0, "count_Birds": 3, "count_Basidiomycota": 0, "count_Arachnids": 0, "count_Amphibians": 0, "count_Molluscs": 0, "count_Mosses": 0, "unique_species_count": 7.0, "countryCode": "UZ" }, "geometry": { "type": "MultiPolygon", "coordinates": [ [ [ [ 67.230254981581851, 41.867760915342416 ], [ 67.514418796441007, 41.428475996220392 ], [ 67.170625633896691, 40.974505504165855 ], [ 66.549267703645867, 40.958541323348669 ], [ 66.260372780989925, 41.395682458602579 ], [ 66.597580031311466, 41.850942520943406 ], [ 67.230254981581851, 41.867760915342416 ] ] ] ] } },
{ "type": "Feature", "properties": { "geogrid_id": "841421444072511500", "seqnum": 23399.0, "lat_c": 41.421444441459727, "lon_c": 72.511499670576043, "res": 8.0, "count_Ferns": 0, "count_Flowering Plants": 2, "count_Insects": 1, "count_Mammals": 0, "count_Reptiles": 0, "count_Gymnosperms": 0, "count_Sac Fungi": 0, "count_Birds": 0, "count_Basidiomycota": 0, "count_Arachnids": 0, "count_Amphibians": 0, "count_Molluscs": 0, "count_Mosses": 0, "unique_species_count": 3.0, "countryCode": "UZ" }, "geometry": { "type": "MultiPolygon", "coordinates": [ [ [ [ 72.902367382368681, 41.860569928302262 ], [ 73.133783622932611, 41.405604233544146 ], [ 72.741950688705472, 40.966438124593445 ], [ 72.124864072989112, 40.98041430469118 ], [ 71.888656604642776, 41.434024810835119 ], [ 72.274281780607282, 41.875002780573567 ], [ 72.902367382368681, 41.860569928302262 ] ] ] ] } },
{ "type": "Feature", "properties": { "geogrid_id": "841447109068766630", "seqnum": 23073.0, "lat_c": 41.447108522526037, "lon_c": 68.766630444458585, "res": 8.0, "count_Ferns": 0, "count_Flowering Plants": 125, "count_Insects": 82, "count_Mammals": 7, "count_Reptiles": 6, "count_Gymnosperms": 2, "count_Sac Fungi": 0, "count_Birds": 130, "count_Basidiomycota": 3, "count_Arachnids": 10, "count_Amphibians": 2, "count_Molluscs": 2, "count_Mosses": 0, "unique_species_count": 369.0, "countryCode": "UZ" }, "geometry": { "type": "MultiPolygon", "coordinates": [ [ [ [ 69.125531953839044, 41.896554589703683 ], [ 69.392029621873675, 41.451235529524965 ], [ 69.031974063348045, 41.001697086988969 ], [ 68.411980066345578, 40.996036032667647 ], [ 68.140757282782445, 41.439536723483791 ], [ 68.494244173447257, 41.890515216894521 ], [ 69.125531953839044, 41.896554589703683 ] ] ] ] } },
{ "type": "Feature", "properties": { "geogrid_id": "841449309070641363", "seqnum": 23236.0, "lat_c": 41.449308531601517, "lon_c": 70.641363260004042, "res": 8.0, "count_Ferns": 2, "count_Flowering Plants": 210, "count_Insects": 80, "count_Mammals": 3, "count_Reptiles": 1, "count_Gymnosperms": 2, "count_Sac Fungi": 4, "count_Birds": 62, "count_Basidiomycota": 8, "count_Arachnids": 3, "count_Amphibians": 1, "count_Molluscs": 2, "count_Mosses": 0, "unique_species_count": 378.0, "countryCode": "UZ" }, "geometry": { "type": "MultiPolygon", "coordinates": [ [ [ [ 71.016388540180017, 41.893834186002103 ], [ 71.265272299572899, 41.443321532407126 ], [ 70.889161440666214, 40.99872305179494 ], [ 70.270572594518427, 41.003007616265265 ], [ 70.016944531249777, 41.451957110267784 ], [ 70.386620485430214, 41.898176745903015 ], [ 71.016388540180017, 41.893834186002103 ] ] ] ] } },
{ "type": "Feature", "properties": { "geogrid_id": "841463346060249429", "seqnum": 22340.0, "lat_c": 41.463346280073551, "lon_c": 60.249429418798762, "res": 8.0, "count_Ferns": 0, "count_Flowering Plants": 49, "count_Insects": 42, "count_Mammals": 2, "count_Reptiles": 6, "count_Gymnosperms": 1, "count_Sac Fungi": 0, "count_Birds": 64, "count_Basidiomycota": 2, "count_Arachnids": 2, "count_Amphibians": 0, "count_Molluscs": 0, "count_Mosses": 0, "unique_species_count": 168.0, "countryCode": "UZ" }, "geometry": { "type": "MultiPolygon", "coordinates": [ [ [ [ 60.538790329016116, 41.930181350634555 ], [ 60.885628809683865, 41.521935717370688 ], [ 60.595623773861718, 41.055758885913093 ], [ 59.964307018645556, 40.995902074965279 ], [ 59.613116669743668, 41.399646639039723 ], [ 59.897602139347633, 41.867892546578958 ], [ 60.538790329016116, 41.930181350634555 ] ] ] ] } },
{ "type": "Feature", "properties": { "geogrid_id": "841562640057335473", "seqnum": 22096.0, "lat_c": 41.56264035259187, "lon_c": 57.335473254685006, "res": 8.0, "count_Ferns": 0, "count_Flowering Plants": 0, "count_Insects": 0, "count_Mammals": 0, "count_Reptiles": 0, "count_Gymnosperms": 0, "count_Sac Fungi": 0, "count_Birds": 1, "count_Basidiomycota": 0, "count_Arachnids": 0, "count_Amphibians": 0, "count_Molluscs": 0, "count_Mosses": 0, "unique_species_count": 1.0, "countryCode": "UZ" }, "geometry": { "type": "MultiPolygon", "coordinates": [ [ [ [ 57.604918324227043, 42.037586717584233 ], [ 57.975203689818734, 41.648079279156676 ], [ 57.704910805460031, 41.174640482929377 ], [ 57.069851393685347, 41.08692919426295 ], [ 56.696794129119098, 41.470357992667672 ], [ 56.961420712810082, 41.947790251658375 ], [ 57.604918324227043, 42.037586717584233 ] ] ] ] } },
{ "type": "Feature", "properties": { "geogrid_id": "841624752062157370", "seqnum": 22503.0, "lat_c": 41.624751905859405, "lon_c": 62.15737003380908, "res": 8.0, "count_Ferns": 0, "count_Flowering Plants": 0, "count_Insects": 0, "count_Mammals": 0, "count_Reptiles": 2, "count_Gymnosperms": 0, "count_Sac Fungi": 0, "count_Birds": 5, "count_Basidiomycota": 0, "count_Arachnids": 0, "count_Amphibians": 0, "count_Molluscs": 0, "count_Mosses": 0, "unique_species_count": 7.0, "countryCode": "UZ" }, "geometry": { "type": "MultiPolygon", "coordinates": [ [ [ [ 62.461853611693769, 42.0877427972327 ], [ 62.792804815264041, 41.669376296039708 ], [ 62.487601096555807, 41.206725546040879 ], [ 61.85731619589734, 41.160946048973329 ], [ 61.521629645218155, 41.575666194008839 ], [ 61.820993530101362, 42.0399013961595 ], [ 62.461853611693769, 42.0877427972327 ] ] ] ] } },
{ "type": "Feature", "properties": { "geogrid_id": "841745851064062633", "seqnum": 22666.0, "lat_c": 41.745850807141416, "lon_c": 64.062632682690747, "res": 8.0, "count_Ferns": 0, "count_Flowering Plants": 10, "count_Insects": 49, "count_Mammals": 4, "count_Reptiles": 15, "count_Gymnosperms": 0, "count_Sac Fungi": 0, "count_Birds": 21, "count_Basidiomycota": 0, "count_Arachnids": 3, "count_Amphibians": 1, "count_Molluscs": 0, "count_Mosses": 0, "unique_species_count": 103.0, "countryCode": "UZ" }, "geometry": { "type": "MultiPolygon", "coordinates": [ [ [ [ 64.382857027687578, 42.205111957123222 ], [ 64.696981361505848, 41.777955473113437 ], [ 64.375950187314444, 41.318846358596119 ], [ 63.746929561355323, 41.285536768133092 ], [ 63.427900701917224, 41.709697159879454 ], [ 63.742823327838927, 42.170214329524981 ], [ 64.382857027687578, 42.205111957123222 ] ] ] ] } },
{ "type": "Feature", "properties": { "geogrid_id": "841830417065964468", "seqnum": 22829.0, "lat_c": 41.830416802680489, "lon_c": 65.964468017862501, "res": 8.0, "count_Ferns": 0, "count_Flowering Plants": 0, "count_Insects": 1, "count_Mammals": 1, "count_Reptiles": 0, "count_Gymnosperms": 0, "count_Sac Fungi": 0, "count_Birds": 0, "count_Basidiomycota": 0, "count_Arachnids": 0, "count_Amphibians": 0, "count_Molluscs": 0, "count_Mosses": 0, "unique_species_count": 2.0, "countryCode": "UZ" }, "geometry": { "type": "MultiPolygon", "coordinates": [ [ [ [ 66.30081824477513, 42.28572851053282 ], [ 66.597580031311466, 41.850942520943406 ], [ 66.260372780989925, 41.395682458602579 ], [ 65.632675350655887, 41.373829626628492 ], [ 65.330930989960251, 41.806114128111567 ], [ 65.661877876780281, 42.262778815392195 ], [ 66.30081824477513, 42.28572851053282 ] ] ] ] } },
{ "type": "Feature", "properties": { "geogrid_id": "841886100071645615", "seqnum": 23318.0, "lat_c": 41.886099783765665, "lon_c": 71.645615385100797, "res": 8.0, "count_Ferns": 0, "count_Flowering Plants": 28, "count_Insects": 6, "count_Mammals": 0, "count_Reptiles": 0, "count_Gymnosperms": 0, "count_Sac Fungi": 0, "count_Birds": 6, "count_Basidiomycota": 0, "count_Arachnids": 3, "count_Amphibians": 0, "count_Molluscs": 0, "count_Mosses": 0, "unique_species_count": 43.0, "countryCode": "UZ" }, "geometry": { "type": "MultiPolygon", "coordinates": [ [ [ [ 72.030548307541423, 42.327086317697919 ], [ 72.274281780607282, 41.875002780573567 ], [ 71.888656604642776, 41.434024810835119 ], [ 71.265272299572899, 41.443321532407126 ], [ 71.016388540180017, 41.893834186002103 ], [ 71.395999368732546, 42.336616095013561 ], [ 72.030548307541423, 42.327086317697919 ] ] ] ] } },
{ "type": "Feature", "properties": { "geogrid_id": "841899095069756329", "seqnum": 23155.0, "lat_c": 41.899095353325464, "lon_c": 69.756329314295186, "res": 8.0, "count_Ferns": 7, "count_Flowering Plants": 405, "count_Insects": 312, "count_Mammals": 3, "count_Reptiles": 7, "count_Gymnosperms": 4, "count_Sac Fungi": 5, "count_Birds": 139, "count_Basidiomycota": 39, "count_Arachnids": 16, "count_Amphibians": 2, "count_Molluscs": 3, "count_Mosses": 1, "unique_species_count": 943.0, "countryCode": "UZ" }, "geometry": { "type": "MultiPolygon", "coordinates": [ [ [ [ 70.125207720834212, 42.345313285399904 ], [ 70.386620485430214, 41.898176745903015 ], [ 70.016944531249777, 41.451957110267784 ], [ 69.392029621873675, 41.451235529524965 ], [ 69.125531953839044, 41.896554589703683 ], [ 69.489009418781833, 42.344413037785849 ], [ 70.125207720834212, 42.345313285399904 ] ] ] ] } },
{ "type": "Feature", "properties": { "geogrid_id": "841987444061179950", "seqnum": 22422.0, "lat_c": 41.98744421672582, "lon_c": 61.179949948897786, "res": 8.0, "count_Ferns": 0, "count_Flowering Plants": 23, "count_Insects": 9, "count_Mammals": 4, "count_Reptiles": 6, "count_Gymnosperms": 0, "count_Sac Fungi": 0, "count_Birds": 29, "count_Basidiomycota": 0, "count_Arachnids": 0, "count_Amphibians": 0, "count_Molluscs": 0, "count_Mosses": 1, "unique_species_count": 72.0, "countryCode": "UZ" }, "geometry": { "type": "MultiPolygon", "coordinates": [ [ [ [ 61.478728173428436, 42.452277029851523 ], [ 61.820993530101362, 42.0399013961595 ], [ 61.521629645218155, 41.575666194008839 ], [ 60.885628809683865, 41.521935717370688 ], [ 60.538790329016116, 41.930181350634555 ], [ 60.832524441137835, 42.396395733310904 ], [ 61.478728173428436, 42.452277029851523 ] ] ] ] } },
{ "type": "Feature", "properties": { "geogrid_id": "842131133063102478", "seqnum": 22585.0, "lat_c": 42.131132818883572, "lon_c": 63.102477503292782, "res": 8.0, "count_Ferns": 0, "count_Flowering Plants": 11, "count_Insects": 5, "count_Mammals": 3, "count_Reptiles": 5, "count_Gymnosperms": 0, "count_Sac Fungi": 0, "count_Birds": 18, "count_Basidiomycota": 0, "count_Arachnids": 0, "count_Amphibians": 0, "count_Molluscs": 0, "count_Mosses": 0, "unique_species_count": 42.0, "countryCode": "UZ" }, "geometry": { "type": "MultiPolygon", "coordinates": [ [ [ [ 63.416791488487334, 42.592005163356745 ], [ 63.742823327838927, 42.170214329524981 ], [ 63.427900701917224, 41.709697159879454 ], [ 62.792804815264041, 41.669376296039708 ], [ 62.461853611693769, 42.0877427972327 ], [ 62.770927214594316, 42.549922977374784 ], [ 63.416791488487334, 42.592005163356745 ] ] ] ] } },
{ "type": "Feature", "properties": { "geogrid_id": "842235935065022550", "seqnum": 22748.0, "lat_c": 42.235934821826433, "lon_c": 65.022550098714476, "res": 8.0, "count_Ferns": 0, "count_Flowering Plants": 3, "count_Insects": 0, "count_Mammals": 1, "count_Reptiles": 1, "count_Gymnosperms": 0, "count_Sac Fungi": 0, "count_Birds": 2, "count_Basidiomycota": 0, "count_Arachnids": 0, "count_Amphibians": 0, "count_Molluscs": 0, "count_Mosses": 0, "unique_species_count": 7.0, "countryCode": "UZ" }, "geometry": { "type": "MultiPolygon", "coordinates": [ [ [ [ 65.3528688520434, 42.692807759711634 ], [ 65.661877876780281, 42.262778815392195 ], [ 65.330930989960251, 41.806114128111567 ], [ 64.696981361505848, 41.777955473113437 ], [ 64.382857027687578, 42.205111957123222 ], [ 64.707801401759426, 42.663339952878971 ], [ 65.3528688520434, 42.692807759711634 ] ] ] ] } },
{ "type": "Feature", "properties": { "geogrid_id": "842335558060186365", "seqnum": 22341.0, "lat_c": 42.335557831195409, "lon_c": 60.186364646852368, "res": 8.0, "count_Ferns": 0, "count_Flowering Plants": 8, "count_Insects": 14, "count_Mammals": 2, "count_Reptiles": 0, "count_Gymnosperms": 0, "count_Sac Fungi": 0, "count_Birds": 9, "count_Basidiomycota": 0, "count_Arachnids": 0, "count_Amphibians": 0, "count_Molluscs": 0, "count_Mosses": 0, "unique_species_count": 33.0, "countryCode": "UZ" }, "geometry": { "type": "MultiPolygon", "coordinates": [ [ [ [ 60.479539978909514, 42.802628839871105 ], [ 60.832524441137835, 42.396395733310904 ], [ 60.538790329016116, 41.930181350634555 ], [ 59.897602139347633, 41.867892546578958 ], [ 59.540361004779648, 42.269539083376863 ], [ 59.828525919465818, 42.738183749247177 ], [ 60.479539978909514, 42.802628839871105 ] ] ] ] } },
{ "type": "Feature", "properties": { "geogrid_id": "842342703070760878", "seqnum": 23237.0, "lat_c": 42.342702513668144, "lon_c": 70.760878306218999, "res": 8.0, "count_Ferns": 0, "count_Flowering Plants": 182, "count_Insects": 9, "count_Mammals": 3, "count_Reptiles": 1, "count_Gymnosperms": 3, "count_Sac Fungi": 0, "count_Birds": 56, "count_Basidiomycota": 13, "count_Arachnids": 1, "count_Amphibians": 0, "count_Molluscs": 0, "count_Mosses": 0, "unique_species_count": 268.0, "countryCode": "UZ" }, "geometry": { "type": "MultiPolygon", "coordinates": [ [ [ [ 71.140029381837564, 42.785558707993417 ], [ 71.395999368732546, 42.336616095013561 ], [ 71.016388540180017, 41.893834186002103 ], [ 70.386620485430214, 41.898176745903015 ], [ 70.125207720834212, 42.345313285399904 ], [ 70.49896836257561, 42.789915526056383 ], [ 71.140029381837564, 42.785558707993417 ] ] ] ] } },
{ "type": "Feature", "properties": { "geogrid_id": "842424355057229901", "seqnum": 22097.0, "lat_c": 42.42435484375568, "lon_c": 57.229901437059581, "res": 8.0, "count_Ferns": 0, "count_Flowering Plants": 1, "count_Insects": 3, "count_Mammals": 0, "count_Reptiles": 2, "count_Gymnosperms": 0, "count_Sac Fungi": 0, "count_Birds": 14, "count_Basidiomycota": 0, "count_Arachnids": 0, "count_Amphibians": 0, "count_Molluscs": 0, "count_Mosses": 0, "unique_species_count": 20.0, "countryCode": "UZ" }, "geometry": { "type": "MultiPolygon", "coordinates": [ [ [ [ 57.502360310637265, 42.900131343533673 ], [ 57.878315116371034, 42.511824127837883 ], [ 57.604918324227043, 42.037586717584233 ], [ 56.961420712810082, 41.947790251658375 ], [ 56.582817131228872, 42.330250127687627 ], [ 56.850202851860097, 42.80851883701343 ], [ 57.502360310637265, 42.900131343533673 ] ] ] ] } },
{ "type": "Feature", "properties": { "geogrid_id": "842503396062124886", "seqnum": 22504.0, "lat_c": 42.503396295566219, "lon_c": 62.124886453304015, "res": 8.0, "count_Ferns": 0, "count_Flowering Plants": 0, "count_Insects": 0, "count_Mammals": 0, "count_Reptiles": 1, "count_Gymnosperms": 0, "count_Sac Fungi": 0, "count_Birds": 3, "count_Basidiomycota": 0, "count_Arachnids": 0, "count_Amphibians": 0, "count_Molluscs": 0, "count_Mosses": 0, "unique_species_count": 4.0, "countryCode": "UZ" }, "geometry": { "type": "MultiPolygon", "coordinates": [ [ [ [ 62.433459967640161, 42.966145013037291 ], [ 62.770927214594316, 42.549922977374784 ], [ 62.461853611693769, 42.0877427972327 ], [ 61.820993530101362, 42.0399013961595 ], [ 61.478728173428436, 42.452277029851523 ], [ 61.78210790734569, 42.916424129590439 ], [ 62.433459967640161, 42.966145013037291 ] ] ] ] } },
{ "type": "Feature", "properties": { "geogrid_id": "842629773064062430", "seqnum": 22667.0, "lat_c": 42.629772725848277, "lon_c": 64.062430148643429, "res": 8.0, "count_Ferns": 0, "count_Flowering Plants": 0, "count_Insects": 0, "count_Mammals": 0, "count_Reptiles": 1, "count_Gymnosperms": 0, "count_Sac Fungi": 0, "count_Birds": 8, "count_Basidiomycota": 0, "count_Arachnids": 0, "count_Amphibians": 0, "count_Molluscs": 0, "count_Mosses": 0, "unique_species_count": 9.0, "countryCode": "UZ" }, "geometry": { "type": "MultiPolygon", "coordinates": [ [ [ [ 64.386901701004106, 43.088379681058171 ], [ 64.707801401759426, 42.663339952878971 ], [ 64.382857027687578, 42.205111957123222 ], [ 63.742823327838927, 42.170214329524981 ], [ 63.416791488487334, 42.592005163356745 ], [ 63.735916733125443, 43.051996520790716 ], [ 64.386901701004106, 43.088379681058171 ] ] ] ] } },
{ "type": "Feature", "properties": { "geogrid_id": "842668415059177865", "seqnum": 22260.0, "lat_c": 42.668414755233478, "lon_c": 59.177864553190801, "res": 8.0, "count_Ferns": 0, "count_Flowering Plants": 24, "count_Insects": 20, "count_Mammals": 0, "count_Reptiles": 1, "count_Gymnosperms": 0, "count_Sac Fungi": 0, "count_Birds": 36, "count_Basidiomycota": 0, "count_Arachnids": 1, "count_Amphibians": 0, "count_Molluscs": 0, "count_Mosses": 0, "unique_species_count": 82.0, "countryCode": "UZ" }, "geometry": { "type": "MultiPolygon", "coordinates": [ [ [ [ 59.46539862304283, 43.138167617510554 ], [ 59.828525919465818, 42.738183749247177 ], [ 59.540361004779648, 42.269539083376863 ], [ 58.894655725992529, 42.198080099515721 ], [ 58.527724219745053, 42.593061609808657 ], [ 58.810222368008993, 43.064636152668704 ], [ 59.46539862304283, 43.138167617510554 ] ] ] ] } },
{ "type": "Feature", "properties": { "geogrid_id": "842710158056199688", "seqnum": 22016.0, "lat_c": 42.710157956748525, "lon_c": 56.199687738362805, "res": 8.0, "count_Ferns": 0, "count_Flowering Plants": 0, "count_Insects": 0, "count_Mammals": 0, "count_Reptiles": 0, "count_Gymnosperms": 0, "count_Sac Fungi": 0, "count_Birds": 2, "count_Basidiomycota": 0, "count_Arachnids": 0, "count_Amphibians": 0, "count_Molluscs": 0, "count_Mosses": 0, "unique_species_count": 2.0, "countryCode": "UZ" }, "geometry": { "type": "MultiPolygon", "coordinates": [ [ [ [ 56.465838881014577, 43.190196341215035 ], [ 56.850202851860097, 42.80851883701343 ], [ 56.582817131228872, 42.330250127687627 ], [ 55.937486438078487, 42.229039406452934 ], [ 55.551267816132913, 42.604592348426166 ], [ 55.812027729185907, 43.087632381762724 ], [ 56.465838881014577, 43.190196341215035 ] ] ] ] } },
{ "type": "Feature", "properties": { "geogrid_id": "842861976061130771", "seqnum": 22423.0, "lat_c": 42.861976427209278, "lon_c": 61.130770865247804, "res": 8.0, "count_Ferns": 0, "count_Flowering Plants": 0, "count_Insects": 2, "count_Mammals": 0, "count_Reptiles": 0, "count_Gymnosperms": 0, "count_Sac Fungi": 0, "count_Birds": 10, "count_Basidiomycota": 0, "count_Arachnids": 0, "count_Amphibians": 0, "count_Molluscs": 0, "count_Mosses": 0, "unique_species_count": 12.0, "countryCode": "UZ" }, "geometry": { "type": "MultiPolygon", "coordinates": [ [ [ [ 61.433673440956071, 43.326909090995883 ], [ 61.78210790734569, 42.916424129590439 ], [ 61.478728173428436, 42.452277029851523 ], [ 60.832524441137835, 42.396395733310904 ], [ 60.479539978909514, 42.802628839871105 ], [ 60.777268844717867, 43.269091000171535 ], [ 61.433673440956071, 43.326909090995883 ] ] ] ] } },
{ "type": "Feature", "properties": { "geogrid_id": "842985390058155797", "seqnum": 22179.0, "lat_c": 42.985389827988797, "lon_c": 58.155797463935571, "res": 8.0, "count_Ferns": 0, "count_Flowering Plants": 5, "count_Insects": 4, "count_Mammals": 1, "count_Reptiles": 4, "count_Gymnosperms": 0, "count_Sac Fungi": 0, "count_Birds": 18, "count_Basidiomycota": 0, "count_Arachnids": 0, "count_Amphibians": 0, "count_Molluscs": 0, "count_Mosses": 0, "unique_species_count": 32.0, "countryCode": "UZ" }, "geometry": { "type": "MultiPolygon", "coordinates": [ [ [ [ 58.437504132720527, 43.458308097445105 ], [ 58.810222368008993, 43.064636152668704 ], [ 58.527724219745053, 42.593061609808657 ], [ 57.878315116371034, 42.511824127837883 ], [ 57.502360310637265, 42.900131343533673 ], [ 57.778929247567319, 43.375175066148557 ], [ 58.437504132720527, 43.458308097445105 ] ] ] ] } },
{ "type": "Feature", "properties": { "geogrid_id": "843011291063084751", "seqnum": 22586.0, "lat_c": 43.011291134536577, "lon_c": 63.084751026826837, "res": 8.0, "count_Ferns": 0, "count_Flowering Plants": 0, "count_Insects": 0, "count_Mammals": 0, "count_Reptiles": 0, "count_Gymnosperms": 0, "count_Sac Fungi": 0, "count_Birds": 4, "count_Basidiomycota": 0, "count_Arachnids": 0, "count_Amphibians": 0, "count_Molluscs": 0, "count_Mosses": 0, "unique_species_count": 4.0, "countryCode": "UZ" }, "geometry": { "type": "MultiPolygon", "coordinates": [ [ [ [ 63.403486739328052, 43.471841498181789 ], [ 63.735916733125443, 43.051996520790716 ], [ 63.416791488487334, 42.592005163356745 ], [ 62.770927214594316, 42.549922977374784 ], [ 62.433459967640161, 42.966145013037291 ], [ 62.746868568108844, 43.42813832331273 ], [ 63.403486739328052, 43.471841498181789 ] ] ] ] } },
{ "type": "Feature", "properties": { "geogrid_id": "843120546065037657", "seqnum": 22749.0, "lat_c": 43.120545734192298, "lon_c": 65.037657394364899, "res": 8.0, "count_Ferns": 0, "count_Flowering Plants": 0, "count_Insects": 1, "count_Mammals": 0, "count_Reptiles": 0, "count_Gymnosperms": 0, "count_Sac Fungi": 0, "count_Birds": 0, "count_Basidiomycota": 0, "count_Arachnids": 0, "count_Amphibians": 0, "count_Molluscs": 0, "count_Mosses": 0, "unique_species_count": 1.0, "countryCode": "UZ" }, "geometry": { "type": "MultiPolygon", "coordinates": [ [ [ [ 65.372612791405302, 43.576733139210575 ], [ 65.688140467104191, 43.148588215139952 ], [ 65.3528688520434, 42.692807759711634 ], [ 64.707801401759426, 42.663339952878971 ], [ 64.386901701004106, 43.088379681058171 ], [ 64.716416569242213, 43.546036154304176 ], [ 65.372612791405302, 43.576733139210575 ] ] ] ] } },
{ "type": "Feature", "properties": { "geogrid_id": "843206244060121134", "seqnum": 22342.0, "lat_c": 43.206243580373737, "lon_c": 60.121133535232794, "res": 8.0, "count_Ferns": 0, "count_Flowering Plants": 0, "count_Insects": 11, "count_Mammals": 0, "count_Reptiles": 1, "count_Gymnosperms": 0, "count_Sac Fungi": 0, "count_Birds": 20, "count_Basidiomycota": 0, "count_Arachnids": 0, "count_Amphibians": 0, "count_Molluscs": 1, "count_Mosses": 0, "unique_species_count": 33.0, "countryCode": "UZ" }, "geometry": { "type": "MultiPolygon", "coordinates": [ [ [ [ 60.418327772469887, 43.673705512009903 ], [ 60.777268844717867, 43.269091000171535 ], [ 60.479539978909514, 42.802628839871105 ], [ 59.828525919465818, 42.738183749247177 ], [ 59.46539862304283, 43.138167617510554 ], [ 59.757400662613463, 43.60733176450136 ], [ 60.418327772469887, 43.673705512009903 ] ] ] ] } },
{ "type": "Feature", "properties": { "geogrid_id": "843285916057121602", "seqnum": 22098.0, "lat_c": 43.285916044785445, "lon_c": 57.121601932462006, "res": 8.0, "count_Ferns": 0, "count_Flowering Plants": 0, "count_Insects": 0, "count_Mammals": 0, "count_Reptiles": 1, "count_Gymnosperms": 0, "count_Sac Fungi": 0, "count_Birds": 0, "count_Basidiomycota": 0, "count_Arachnids": 0, "count_Amphibians": 0, "count_Molluscs": 0, "count_Mosses": 0, "unique_species_count": 1.0, "countryCode": "UZ" }, "geometry": { "type": "MultiPolygon", "coordinates": [ [ [ [ 57.39714213037422, 43.762514964253349 ], [ 57.778929247567319, 43.375175066148557 ], [ 57.502360310637265, 42.900131343533673 ], [ 56.850202851860097, 42.80851883701343 ], [ 56.465838881014577, 43.190196341215035 ], [ 56.736046732257513, 43.669278738488543 ], [ 57.39714213037422, 43.762514964253349 ] ] ] ] } },
{ "type": "Feature", "properties": { "geogrid_id": "843379873062090238", "seqnum": 22505.0, "lat_c": 43.379873241187418, "lon_c": 62.090237623384546, "res": 8.0, "count_Ferns": 0, "count_Flowering Plants": 0, "count_Insects": 0, "count_Mammals": 0, "count_Reptiles": 0, "count_Gymnosperms": 0, "count_Sac Fungi": 0, "count_Birds": 1, "count_Basidiomycota": 0, "count_Arachnids": 0, "count_Amphibians": 0, "count_Molluscs": 0, "count_Mosses": 0, "unique_species_count": 1.0, "countryCode": "UZ" }, "geometry": { "type": "MultiPolygon", "coordinates": [ [ [ [ 62.403270327909205, 43.842610118354528 ], [ 62.746868568108844, 43.42813832331273 ], [ 62.433459967640161, 42.966145013037291 ], [ 61.78210790734569, 42.916424129590439 ], [ 61.433673440956071, 43.326909090995883 ], [ 61.741381024647779, 43.791178098669874 ], [ 62.403270327909205, 43.842610118354528 ] ] ] ] } },
{ "type": "Feature", "properties": { "geogrid_id": "843535608059097066", "seqnum": 22261.0, "lat_c": 43.535608002477346, "lon_c": 59.097066348842176, "res": 8.0, "count_Ferns": 0, "count_Flowering Plants": 9, "count_Insects": 1, "count_Mammals": 2, "count_Reptiles": 4, "count_Gymnosperms": 0, "count_Sac Fungi": 0, "count_Birds": 50, "count_Basidiomycota": 1, "count_Arachnids": 2, "count_Amphibians": 0, "count_Molluscs": 0, "count_Mosses": 0, "unique_species_count": 69.0, "countryCode": "UZ" }, "geometry": { "type": "MultiPolygon", "coordinates": [ [ [ [ 59.38840228387609, 44.005977017079367 ], [ 59.757400662613463, 43.60733176450136 ], [ 59.46539862304283, 43.138167617510554 ], [ 58.810222368008993, 43.064636152668704 ], [ 58.437504132720527, 43.458308097445105 ], [ 58.723578792581037, 43.930593845937572 ], [ 59.38840228387609, 44.005977017079367 ] ] ] ] } },
{ "type": "Feature", "properties": { "geogrid_id": "843734929061079697", "seqnum": 22424.0, "lat_c": 43.734928775052417, "lon_c": 61.079697096441251, "res": 8.0, "count_Ferns": 0, "count_Flowering Plants": 0, "count_Insects": 0, "count_Mammals": 2, "count_Reptiles": 0, "count_Gymnosperms": 0, "count_Sac Fungi": 0, "count_Birds": 5, "count_Basidiomycota": 0, "count_Arachnids": 0, "count_Amphibians": 0, "count_Molluscs": 0, "count_Mosses": 0, "unique_species_count": 7.0, "countryCode": "UZ" }, "geometry": { "type": "MultiPolygon", "coordinates": [ [ [ [ 61.386975960093842, 44.200125615022891 ], [ 61.741381024647779, 43.791178098669874 ], [ 61.433673440956071, 43.326909090995883 ], [ 60.777268844717867, 43.269091000171535 ], [ 60.418327772469887, 43.673705512009903 ], [ 60.720257755328369, 44.14055520874988 ], [ 61.386975960093842, 44.200125615022891 ] ] ] ] } },
{ "type": "Feature", "properties": { "geogrid_id": "843849524058059747", "seqnum": 22180.0, "lat_c": 43.849524281218912, "lon_c": 58.059746751257613, "res": 8.0, "count_Ferns": 0, "count_Flowering Plants": 3, "count_Insects": 1, "count_Mammals": 0, "count_Reptiles": 0, "count_Gymnosperms": 0, "count_Sac Fungi": 0, "count_Birds": 17, "count_Basidiomycota": 0, "count_Arachnids": 0, "count_Amphibians": 0, "count_Molluscs": 0, "count_Mosses": 0, "unique_species_count": 21.0, "countryCode": "UZ" }, "geometry": { "type": "MultiPolygon", "coordinates": [ [ [ [ 58.344957334160299, 44.323204896749004 ], [ 58.723578792581037, 43.930593845937572 ], [ 58.437504132720527, 43.458308097445105 ], [ 57.778929247567319, 43.375175066148557 ], [ 57.39714213037422, 43.762514964253349 ], [ 57.676959975765001, 44.238367963696504 ], [ 58.344957334160299, 44.323204896749004 ] ] ] ] } },
{ "type": "Feature", "properties": { "geogrid_id": "844075898060054018", "seqnum": 22343.0, "lat_c": 44.075897896863438, "lon_c": 60.054018274450051, "res": 8.0, "count_Ferns": 0, "count_Flowering Plants": 0, "count_Insects": 0, "count_Mammals": 0, "count_Reptiles": 0, "count_Gymnosperms": 0, "count_Sac Fungi": 0, "count_Birds": 5, "count_Basidiomycota": 0, "count_Arachnids": 0, "count_Amphibians": 0, "count_Molluscs": 0, "count_Mosses": 0, "unique_species_count": 5.0, "countryCode": "UZ" }, "geometry": { "type": "MultiPolygon", "coordinates": [ [ [ [ 60.355404267228174, 44.543854675664335 ], [ 60.720257755328369, 44.14055520874988 ], [ 60.418327772469887, 43.673705512009903 ], [ 59.757400662613463, 43.60733176450136 ], [ 59.38840228387609, 44.005977017079367 ], [ 59.684381258491747, 44.475739256315286 ], [ 60.355404267228174, 44.543854675664335 ] ] ] ] } },
{ "type": "Feature", "properties": { "geogrid_id": "844147495057010433", "seqnum": 22099.0, "lat_c": 44.147495486857792, "lon_c": 57.010433040939738, "res": 8.0, "count_Ferns": 0, "count_Flowering Plants": 2, "count_Insects": 0, "count_Mammals": 2, "count_Reptiles": 1, "count_Gymnosperms": 0, "count_Sac Fungi": 0, "count_Birds": 7, "count_Basidiomycota": 0, "count_Arachnids": 0, "count_Amphibians": 0, "count_Molluscs": 0, "count_Mosses": 0, "unique_species_count": 12.0, "countryCode": "UZ" }, "geometry": { "type": "MultiPolygon", "coordinates": [ [ [ [ 57.289130875906956, 44.624912683233148 ], [ 57.676959975765001, 44.238367963696504 ], [ 57.39714213037422, 43.762514964253349 ], [ 56.736046732257513, 43.669278738488543 ], [ 56.345677735441477, 44.050307047501065 ], [ 56.618777676139537, 44.53019187797932 ], [ 57.289130875906956, 44.624912683233148 ] ] ] ] } },
{ "type": "Feature", "properties": { "geogrid_id": "844402255059014170", "seqnum": 22262.0, "lat_c": 44.402254976303972, "lon_c": 59.014170163208256, "res": 8.0, "count_Ferns": 0, "count_Flowering Plants": 1, "count_Insects": 3, "count_Mammals": 0, "count_Reptiles": 0, "count_Gymnosperms": 0, "count_Sac Fungi": 0, "count_Birds": 1, "count_Basidiomycota": 0, "count_Arachnids": 0, "count_Amphibians": 0, "count_Molluscs": 0, "count_Mosses": 0, "unique_species_count": 5.0, "countryCode": "UZ" }, "geometry": { "type": "MultiPolygon", "coordinates": [ [ [ [ 59.309432248661317, 44.873293973707177 ], [ 59.684381258491747, 44.475739256315286 ], [ 59.38840228387609, 44.005977017079367 ], [ 58.723578792581037, 43.930593845937572 ], [ 58.344957334160299, 44.323204896749004 ], [ 58.63471133091695, 44.796233583087343 ], [ 59.309432248661317, 44.873293973707177 ] ] ] ] } },
{ "type": "Feature", "properties": { "geogrid_id": "844429077055950458", "seqnum": 22018.0, "lat_c": 44.429076927770211, "lon_c": 55.950458493069917, "res": 8.0, "count_Ferns": 0, "count_Flowering Plants": 0, "count_Insects": 0, "count_Mammals": 0, "count_Reptiles": 0, "count_Gymnosperms": 0, "count_Sac Fungi": 0, "count_Birds": 4, "count_Basidiomycota": 0, "count_Arachnids": 0, "count_Amphibians": 0, "count_Molluscs": 0, "count_Mosses": 0, "unique_species_count": 4.0, "countryCode": "UZ" }, "geometry": { "type": "MultiPolygon", "coordinates": [ [ [ [ 56.222133975611939, 44.910669554107209 ], [ 56.618777676139537, 44.53019187797932 ], [ 56.345677735441477, 44.050307047501065 ], [ 55.683052028843498, 43.946485736356522 ], [ 55.28454823876335, 44.321261032009829 ], [ 55.550336401583529, 44.805653770866343 ], [ 56.222133975611939, 44.910669554107209 ] ] ] ] } },
{ "type": "Feature", "properties": { "geogrid_id": "844713512057961200", "seqnum": 22181.0, "lat_c": 44.713512199019554, "lon_c": 57.96119951120383, "res": 8.0, "count_Ferns": 0, "count_Flowering Plants": 4, "count_Insects": 7, "count_Mammals": 1, "count_Reptiles": 1, "count_Gymnosperms": 0, "count_Sac Fungi": 0, "count_Birds": 11, "count_Basidiomycota": 0, "count_Arachnids": 0, "count_Amphibians": 0, "count_Molluscs": 0, "count_Mosses": 0, "unique_species_count": 24.0, "countryCode": "UZ" }, "geometry": { "type": "MultiPolygon", "coordinates": [ [ [ [ 58.250011674908308, 45.187973421556109 ], [ 58.63471133091695, 44.796233583087343 ], [ 58.344957334160299, 44.323204896749004 ], [ 57.676959975765001, 44.238367963696504 ], [ 57.289130875906956, 44.624912683233148 ], [ 57.572282620151128, 45.101578600932932 ], [ 58.250011674908308, 45.187973421556109 ] ] ] ] } },
{ "type": "Feature", "properties": { "geogrid_id": "845009223056896227", "seqnum": 22100.0, "lat_c": 45.009222950581197, "lon_c": 56.896227404029887, "res": 8.0, "count_Ferns": 0, "count_Flowering Plants": 0, "count_Insects": 0, "count_Mammals": 0, "count_Reptiles": 0, "count_Gymnosperms": 0, "count_Sac Fungi": 0, "count_Birds": 2, "count_Basidiomycota": 0, "count_Arachnids": 0, "count_Amphibians": 0, "count_Molluscs": 0, "count_Mosses": 0, "unique_species_count": 2.0, "countryCode": "UZ" }, "geometry": { "type": "MultiPolygon", "coordinates": [ [ [ [ 57.178166625883804, 45.487459260883057 ], [ 57.572282620151128, 45.101578600932932 ], [ 57.289130875906956, 44.624912683233148 ], [ 56.618777676139537, 44.53019187797932 ], [ 56.222133975611939, 44.910669554107209 ], [ 56.498201250877216, 45.3913549083248 ], [ 57.178166625883804, 45.487459260883057 ] ] ] ] } },
{ "type": "Feature", "properties": { "geogrid_id": "845268620058929165", "seqnum": 22263.0, "lat_c": 45.268619903846343, "lon_c": 58.929164930218498, "res": 8.0, "count_Ferns": 0, "count_Flowering Plants": 10, "count_Insects": 1, "count_Mammals": 2, "count_Reptiles": 2, "count_Gymnosperms": 0, "count_Sac Fungi": 0, "count_Birds": 8, "count_Basidiomycota": 0, "count_Arachnids": 0, "count_Amphibians": 0, "count_Molluscs": 0, "count_Mosses": 0, "unique_species_count": 23.0, "countryCode": "UZ" }, "geometry": { "type": "MultiPolygon", "coordinates": [ [ [ [ 59.228480333428742, 45.74036779657024 ], [ 59.609524619441082, 45.343708994499394 ], [ 59.309432248661317, 44.873293973707177 ], [ 58.63471133091695, 44.796233583087343 ], [ 58.250011674908308, 45.187973421556109 ], [ 58.543554057587137, 45.661768608002028 ], [ 59.228480333428742, 45.74036779657024 ] ] ] ] } }
]
}
