{
"type": "FeatureCollection",
"name": "ZW",
"crs": { "type": "name", "properties": { "name": "urn:ogc:def:crs:OGC:1.3:CRS84" } },
"features": [
{ "type": "Feature", "properties": { "geogrid_id": "3015397127029940511", "seqnum": 19008.0, "lat_c": -15.397126568541719, "lon_c": 29.940511393570215, "res": 8.0, "count_Flowering Plants": 30, "count_Amphibians": 2, "count_Mosses": 0, "count_Mammals": 8, "count_Reptiles": 6, "count_Ferns": 0, "count_Arachnids": 1, "count_Birds": 29, "count_Insects": 16, "count_Molluscs": 0, "count_Basidiomycota": 1, "count_Sac Fungi": 0, "count_Gymnosperms": 0, "unique_species_count": 93.0, "countryCode": "ZW" }, "geometry": { "type": "MultiPolygon", "coordinates": [ [ [ [ 30.333944150208573, -15.12758471856948 ], [ 30.455173989332692, -15.596538264092889 ], [ 30.060465968027202, -15.866817224718144 ], [ 29.546218247225195, -15.666087256675965 ], [ 29.425411608421204, -15.196600081063842 ], [ 29.818421392452301, -14.928387957714754 ], [ 30.333944150208573, -15.12758471856948 ] ] ] ] } },
{ "type": "Feature", "properties": { "geogrid_id": "3015464225029031559", "seqnum": 18926.0, "lat_c": -15.464224779853618, "lon_c": 29.03155915083704, "res": 8.0, "count_Flowering Plants": 68, "count_Amphibians": 4, "count_Mosses": 0, "count_Mammals": 16, "count_Reptiles": 15, "count_Ferns": 0, "count_Arachnids": 14, "count_Birds": 120, "count_Insects": 29, "count_Molluscs": 0, "count_Basidiomycota": 0, "count_Sac Fungi": 0, "count_Gymnosperms": 0, "unique_species_count": 266.0, "countryCode": "ZW" }, "geometry": { "type": "MultiPolygon", "coordinates": [ [ [ [ 29.425411608421204, -15.196600081063842 ], [ 29.546218247225195, -15.666087256675965 ], [ 29.151025864160943, -15.934460279865359 ], [ 28.636825930305552, -15.731255946702964 ], [ 28.516213740768894, -15.261368021797461 ], [ 28.909603079406335, -14.995097922362511 ], [ 29.425411608421204, -15.196600081063842 ] ] ] ] } },
{ "type": "Feature", "properties": { "geogrid_id": "3016066299030574540", "seqnum": 19089.0, "lat_c": -16.066299108788154, "lon_c": 30.574539547016055, "res": 8.0, "count_Flowering Plants": 22, "count_Amphibians": 1, "count_Mosses": 0, "count_Mammals": 3, "count_Reptiles": 8, "count_Ferns": 0, "count_Arachnids": 5, "count_Birds": 78, "count_Insects": 27, "count_Molluscs": 0, "count_Basidiomycota": 0, "count_Sac Fungi": 0, "count_Gymnosperms": 0, "unique_species_count": 144.0, "countryCode": "ZW" }, "geometry": { "type": "MultiPolygon", "coordinates": [ [ [ [ 30.969634370864142, -15.794718413235397 ], [ 31.088644989443736, -16.264435228594191 ], [ 30.692250762002008, -16.53672792141175 ], [ 30.178514967069091, -16.337301463606998 ], [ 30.060465968027202, -15.866817224718144 ], [ 30.455173989332692, -15.596538264092889 ], [ 30.969634370864142, -15.794718413235397 ] ] ] ] } },
{ "type": "Feature", "properties": { "geogrid_id": "3016136514029664842", "seqnum": 19007.0, "lat_c": -16.13651351812355, "lon_c": 29.664842429684487, "res": 8.0, "count_Flowering Plants": 95, "count_Amphibians": 9, "count_Mosses": 0, "count_Mammals": 23, "count_Reptiles": 24, "count_Ferns": 0, "count_Arachnids": 12, "count_Birds": 117, "count_Insects": 52, "count_Molluscs": 0, "count_Basidiomycota": 0, "count_Sac Fungi": 0, "count_Gymnosperms": 0, "unique_species_count": 332.0, "countryCode": "ZW" }, "geometry": { "type": "MultiPolygon", "coordinates": [ [ [ [ 30.060465968027202, -15.866817224718144 ], [ 30.178514967069091, -16.337301463606998 ], [ 29.781519605651191, -16.607717886372427 ], [ 29.268262815078621, -16.405620002380889 ], [ 29.151025864160943, -15.934460279865359 ], [ 29.546218247225195, -15.666087256675965 ], [ 30.060465968027202, -15.866817224718144 ] ] ] ] } },
{ "type": "Feature", "properties": { "geogrid_id": "3016202239028754894", "seqnum": 18925.0, "lat_c": -16.202238951129559, "lon_c": 28.754894279235202, "res": 8.0, "count_Flowering Plants": 95, "count_Amphibians": 5, "count_Mosses": 0, "count_Mammals": 13, "count_Reptiles": 24, "count_Ferns": 4, "count_Arachnids": 23, "count_Birds": 159, "count_Insects": 64, "count_Molluscs": 1, "count_Basidiomycota": 1, "count_Sac Fungi": 0, "count_Gymnosperms": 0, "unique_species_count": 389.0, "countryCode": "ZW" }, "geometry": { "type": "MultiPolygon", "coordinates": [ [ [ [ 29.151025864160943, -15.934460279865359 ], [ 29.268262815078621, -16.405620002380889 ], [ 28.870685364338687, -16.674129272135179 ], [ 28.357782301692279, -16.469416370140465 ], [ 28.241172730931005, -15.997687340518253 ], [ 28.636825930305552, -15.731255946702964 ], [ 29.151025864160943, -15.934460279865359 ] ] ] ] } },
{ "type": "Feature", "properties": { "geogrid_id": "3016573340033029187", "seqnum": 19334.0, "lat_c": -16.573340190442472, "lon_c": 33.029186918689796, "res": 8.0, "count_Flowering Plants": 2, "count_Amphibians": 0, "count_Mosses": 0, "count_Mammals": 0, "count_Reptiles": 0, "count_Ferns": 0, "count_Arachnids": 0, "count_Birds": 0, "count_Insects": 0, "count_Molluscs": 0, "count_Basidiomycota": 0, "count_Sac Fungi": 0, "count_Gymnosperms": 0, "unique_species_count": 2.0, "countryCode": "ZW" }, "geometry": { "type": "MultiPolygon", "coordinates": [ [ [ [ 33.424599183661066, -16.296135346445833 ], [ 33.545252045702782, -16.764122853597826 ], [ 33.148676883090737, -17.042010573707159 ], [ 32.632846355011893, -16.84998906226744 ], [ 32.513724728353623, -16.380947735459827 ], [ 32.90887907637682, -16.104988370684111 ], [ 33.424599183661066, -16.296135346445833 ] ] ] ] } },
{ "type": "Feature", "properties": { "geogrid_id": "3016656348032117649", "seqnum": 19252.0, "lat_c": -16.656347722404977, "lon_c": 32.117649491172187, "res": 8.0, "count_Flowering Plants": 2, "count_Amphibians": 0, "count_Mosses": 0, "count_Mammals": 0, "count_Reptiles": 0, "count_Ferns": 0, "count_Arachnids": 1, "count_Birds": 1, "count_Insects": 0, "count_Molluscs": 0, "count_Basidiomycota": 0, "count_Sac Fungi": 0, "count_Gymnosperms": 0, "unique_species_count": 4.0, "countryCode": "ZW" }, "geometry": { "type": "MultiPolygon", "coordinates": [ [ [ [ 32.513724728353623, -16.380947735459827 ], [ 32.632846355011893, -16.84998906226744 ], [ 32.235536408670477, -17.126073175006976 ], [ 31.720612470421127, -16.931179876387674 ], [ 31.60296226343976, -16.461142128202084 ], [ 31.998741319489231, -16.187002267841521 ], [ 32.513724728353623, -16.380947735459827 ] ] ] ] } },
{ "type": "Feature", "properties": { "geogrid_id": "3016734711031206230", "seqnum": 19170.0, "lat_c": -16.734710935285488, "lon_c": 31.20623046876749, "res": 8.0, "count_Flowering Plants": 101, "count_Amphibians": 2, "count_Mosses": 0, "count_Mammals": 1, "count_Reptiles": 4, "count_Ferns": 10, "count_Arachnids": 5, "count_Birds": 17, "count_Insects": 29, "count_Molluscs": 0, "count_Basidiomycota": 1, "count_Sac Fungi": 0, "count_Gymnosperms": 0, "unique_species_count": 170.0, "countryCode": "ZW" }, "geometry": { "type": "MultiPolygon", "coordinates": [ [ [ [ 31.60296226343976, -16.461142128202084 ], [ 31.720612470421127, -16.931179876387674 ], [ 31.32257179299318, -17.205435378239045 ], [ 30.808504271432259, -17.007700253468325 ], [ 30.692250762002008, -16.53672792141175 ], [ 31.088644989443736, -16.264435228594191 ], [ 31.60296226343976, -16.461142128202084 ] ] ] ] } },
{ "type": "Feature", "properties": { "geogrid_id": "3016808438030294873", "seqnum": 19088.0, "lat_c": -16.808438072696912, "lon_c": 30.294873035830506, "res": 8.0, "count_Flowering Plants": 19, "count_Amphibians": 4, "count_Mosses": 0, "count_Mammals": 2, "count_Reptiles": 9, "count_Ferns": 0, "count_Arachnids": 0, "count_Birds": 51, "count_Insects": 16, "count_Molluscs": 1, "count_Basidiomycota": 0, "count_Sac Fungi": 0, "count_Gymnosperms": 0, "unique_species_count": 102.0, "countryCode": "ZW" }, "geometry": { "type": "MultiPolygon", "coordinates": [ [ [ [ 30.692250762002008, -16.53672792141175 ], [ 30.808504271432259, -17.007700253468325 ], [ 30.409740913736947, -17.280101268518209 ], [ 29.896469291428954, -17.079557311612383 ], [ 29.781519605651191, -16.607717886372427 ], [ 30.178514967069091, -16.337301463606998 ], [ 30.692250762002008, -16.53672792141175 ] ] ] ] } },
{ "type": "Feature", "properties": { "geogrid_id": "3016877540029383511", "seqnum": 19006.0, "lat_c": -16.877540478113961, "lon_c": 29.383511268621071, "res": 8.0, "count_Flowering Plants": 24, "count_Amphibians": 1, "count_Mosses": 0, "count_Mammals": 1, "count_Reptiles": 10, "count_Ferns": 1, "count_Arachnids": 1, "count_Birds": 43, "count_Insects": 39, "count_Molluscs": 0, "count_Basidiomycota": 0, "count_Sac Fungi": 0, "count_Gymnosperms": 0, "unique_species_count": 120.0, "countryCode": "ZW" }, "geometry": { "type": "MultiPolygon", "coordinates": [ [ [ [ 29.781519605651191, -16.607717886372427 ], [ 29.896469291428954, -17.079557311612383 ], [ 29.496995781655539, -17.350076876065888 ], [ 28.984446490181725, -17.14676098928615 ], [ 28.870685364338687, -16.674129272135179 ], [ 29.268262815078621, -16.405620002380889 ], [ 29.781519605651191, -16.607717886372427 ] ] ] ] } },
{ "type": "Feature", "properties": { "geogrid_id": "3016942034028472067", "seqnum": 18924.0, "lat_c": -16.94203361902818, "lon_c": 28.472067006043392, "res": 8.0, "count_Flowering Plants": 69, "count_Amphibians": 4, "count_Mosses": 0, "count_Mammals": 14, "count_Reptiles": 23, "count_Ferns": 1, "count_Arachnids": 22, "count_Birds": 145, "count_Insects": 89, "count_Molluscs": 0, "count_Basidiomycota": 0, "count_Sac Fungi": 0, "count_Gymnosperms": 0, "unique_species_count": 367.0, "countryCode": "ZW" }, "geometry": { "type": "MultiPolygon", "coordinates": [ [ [ [ 28.870685364338687, -16.674129272135179 ], [ 28.984446490181725, -17.14676098928615 ], [ 28.584280419992165, -17.415370769734469 ], [ 28.072363234888311, -17.209324985085221 ], [ 27.959647396160658, -16.7359853881341 ], [ 28.357782301692279, -16.469416370140465 ], [ 28.870685364338687, -16.674129272135179 ] ] ] ] } },
{ "type": "Feature", "properties": { "geogrid_id": "3017001939027560446", "seqnum": 18842.0, "lat_c": -17.001938566041439, "lon_c": 27.560445550647689, "res": 8.0, "count_Flowering Plants": 37, "count_Amphibians": 4, "count_Mosses": 0, "count_Mammals": 2, "count_Reptiles": 11, "count_Ferns": 0, "count_Arachnids": 6, "count_Birds": 7, "count_Insects": 14, "count_Molluscs": 1, "count_Basidiomycota": 0, "count_Sac Fungi": 0, "count_Gymnosperms": 0, "unique_species_count": 82.0, "countryCode": "ZW" }, "geometry": { "type": "MultiPolygon", "coordinates": [ [ [ [ 27.959647396160658, -16.7359853881341 ], [ 28.072363234888311, -17.209324985085221 ], [ 27.671527976524438, -17.475994907679741 ], [ 27.16013112983487, -17.267268124411626 ], [ 27.048281718998251, -16.793317922019707 ], [ 27.446943203212882, -16.528725025828621 ], [ 27.959647396160658, -16.7359853881341 ] ] ] ] } },
{ "type": "Feature", "properties": { "geogrid_id": "3017319337032751126", "seqnum": 19333.0, "lat_c": -17.319336540884009, "lon_c": 32.75112606020943, "res": 8.0, "count_Flowering Plants": 5, "count_Amphibians": 0, "count_Mosses": 0, "count_Mammals": 0, "count_Reptiles": 1, "count_Ferns": 0, "count_Arachnids": 1, "count_Birds": 0, "count_Insects": 14, "count_Molluscs": 0, "count_Basidiomycota": 0, "count_Sac Fungi": 0, "count_Gymnosperms": 0, "unique_species_count": 21.0, "countryCode": "ZW" }, "geometry": { "type": "MultiPolygon", "coordinates": [ [ [ [ 33.148676883090737, -17.042010573707159 ], [ 33.267491694899356, -17.510921557736935 ], [ 32.868708700419845, -17.788911916773355 ], [ 32.352557436552608, -17.596091259299385 ], [ 32.235536408670477, -17.126073175006976 ], [ 32.632846355011893, -16.84998906226744 ], [ 33.148676883090737, -17.042010573707159 ] ] ] ] } },
{ "type": "Feature", "properties": { "geogrid_id": "3017401583031837215", "seqnum": 19251.0, "lat_c": -17.401583355700257, "lon_c": 31.837215051565387, "res": 8.0, "count_Flowering Plants": 38, "count_Amphibians": 1, "count_Mosses": 0, "count_Mammals": 2, "count_Reptiles": 10, "count_Ferns": 3, "count_Arachnids": 9, "count_Birds": 8, "count_Insects": 43, "count_Molluscs": 0, "count_Basidiomycota": 0, "count_Sac Fungi": 0, "count_Gymnosperms": 0, "unique_species_count": 114.0, "countryCode": "ZW" }, "geometry": { "type": "MultiPolygon", "coordinates": [ [ [ [ 32.235536408670477, -17.126073175006976 ], [ 32.352557436552608, -17.596091259299385 ], [ 31.952927897514801, -17.87226478650744 ], [ 31.437839242003914, -17.676510002932556 ], [ 31.32257179299318, -17.205435378239045 ], [ 31.720612470421127, -16.931179876387674 ], [ 32.235536408670477, -17.126073175006976 ] ] ] ] } },
{ "type": "Feature", "properties": { "geogrid_id": "3017479105030923485", "seqnum": 19169.0, "lat_c": -17.479105002841198, "lon_c": 30.92348453209264, "res": 8.0, "count_Flowering Plants": 833, "count_Amphibians": 18, "count_Mosses": 0, "count_Mammals": 32, "count_Reptiles": 44, "count_Ferns": 7, "count_Arachnids": 138, "count_Birds": 287, "count_Insects": 905, "count_Molluscs": 5, "count_Basidiomycota": 16, "count_Sac Fungi": 24, "count_Gymnosperms": 0, "unique_species_count": 2309.0, "countryCode": "ZW" }, "geometry": { "type": "MultiPolygon", "coordinates": [ [ [ [ 31.32257179299318, -17.205435378239045 ], [ 31.437839242003914, -17.676510002932556 ], [ 31.03736484996227, -17.950843038894661 ], [ 30.523306626197027, -17.75217907147201 ], [ 30.409740913736947, -17.280101268518209 ], [ 30.808504271432259, -17.007700253468325 ], [ 31.32257179299318, -17.205435378239045 ] ] ] ] } },
{ "type": "Feature", "properties": { "geogrid_id": "3017551905030009896", "seqnum": 19087.0, "lat_c": -17.55190474078055, "lon_c": 30.009896456472504, "res": 8.0, "count_Flowering Plants": 20, "count_Amphibians": 0, "count_Mosses": 0, "count_Mammals": 2, "count_Reptiles": 5, "count_Ferns": 3, "count_Arachnids": 3, "count_Birds": 12, "count_Insects": 13, "count_Molluscs": 0, "count_Basidiomycota": 0, "count_Sac Fungi": 0, "count_Gymnosperms": 0, "unique_species_count": 58.0, "countryCode": "ZW" }, "geometry": { "type": "MultiPolygon", "coordinates": [ [ [ [ 30.409740913736947, -17.280101268518209 ], [ 30.523306626197027, -17.75217907147201 ], [ 30.121992791393776, -18.024647397501443 ], [ 29.608925683454267, -17.82310095148323 ], [ 29.496995781655539, -17.350076876065888 ], [ 29.896469291428954, -17.079557311612383 ], [ 30.409740913736947, -17.280101268518209 ] ] ] ] } },
{ "type": "Feature", "properties": { "geogrid_id": "3017619988029096407", "seqnum": 19005.0, "lat_c": -17.619987560379549, "lon_c": 29.096407427835782, "res": 8.0, "count_Flowering Plants": 19, "count_Amphibians": 0, "count_Mosses": 0, "count_Mammals": 0, "count_Reptiles": 0, "count_Ferns": 0, "count_Arachnids": 1, "count_Birds": 0, "count_Insects": 2, "count_Molluscs": 0, "count_Basidiomycota": 0, "count_Sac Fungi": 0, "count_Gymnosperms": 0, "unique_species_count": 22.0, "countryCode": "ZW" }, "geometry": { "type": "MultiPolygon", "coordinates": [ [ [ [ 29.496995781655539, -17.350076876065888 ], [ 29.608925683454267, -17.82310095148323 ], [ 29.206781997673769, -18.093679641007498 ], [ 28.694657706193812, -17.88927965467391 ], [ 28.584280419992165, -17.415370769734469 ], [ 28.984446490181725, -17.14676098928615 ], [ 29.496995781655539, -17.350076876065888 ] ] ] ] } },
{ "type": "Feature", "properties": { "geogrid_id": "3017683361028182967", "seqnum": 18923.0, "lat_c": -17.683360710231455, "lon_c": 28.182966699123924, "res": 8.0, "count_Flowering Plants": 29, "count_Amphibians": 3, "count_Mosses": 0, "count_Mammals": 5, "count_Reptiles": 22, "count_Ferns": 0, "count_Arachnids": 3, "count_Birds": 106, "count_Insects": 20, "count_Molluscs": 0, "count_Basidiomycota": 0, "count_Sac Fungi": 0, "count_Gymnosperms": 0, "unique_species_count": 188.0, "countryCode": "ZW" }, "geometry": { "type": "MultiPolygon", "coordinates": [ [ [ [ 28.584280419992165, -17.415370769734469 ], [ 28.694657706193812, -17.88927965467391 ], [ 28.291698523551567, -18.157942874489081 ], [ 27.780457323566644, -17.950721173996605 ], [ 27.671527976524438, -17.475994907679741 ], [ 28.072363234888311, -17.209324985085221 ], [ 28.584280419992165, -17.415370769734469 ] ] ] ] } },
{ "type": "Feature", "properties": { "geogrid_id": "3017742034027269513", "seqnum": 18841.0, "lat_c": -17.742034454394737, "lon_c": 27.269513437979413, "res": 8.0, "count_Flowering Plants": 32, "count_Amphibians": 0, "count_Mosses": 0, "count_Mammals": 0, "count_Reptiles": 8, "count_Ferns": 0, "count_Arachnids": 1, "count_Birds": 8, "count_Insects": 11, "count_Molluscs": 0, "count_Basidiomycota": 1, "count_Sac Fungi": 0, "count_Gymnosperms": 0, "unique_species_count": 61.0, "countryCode": "ZW" }, "geometry": { "type": "MultiPolygon", "coordinates": [ [ [ [ 27.671527976524438, -17.475994907679741 ], [ 27.780457323566644, -17.950721173996605 ], [ 27.37670249382688, -18.217441916287942 ], [ 26.866269941859759, -18.007434145735978 ], [ 26.758656711732868, -17.531965883378785 ], [ 27.16013112983487, -17.267268124411626 ], [ 27.671527976524438, -17.475994907679741 ] ] ] ] } },
{ "type": "Feature", "properties": { "geogrid_id": "3017796023026355973", "seqnum": 18759.0, "lat_c": -17.796023190521915, "lon_c": 26.355972905473337, "res": 8.0, "count_Flowering Plants": 12, "count_Amphibians": 1, "count_Mosses": 0, "count_Mammals": 0, "count_Reptiles": 3, "count_Ferns": 0, "count_Arachnids": 0, "count_Birds": 18, "count_Insects": 4, "count_Molluscs": 0, "count_Basidiomycota": 0, "count_Sac Fungi": 0, "count_Gymnosperms": 0, "unique_species_count": 38.0, "countryCode": "ZW" }, "geometry": { "type": "MultiPolygon", "coordinates": [ [ [ [ 26.758656711732868, -17.531965883378785 ], [ 26.866269941859759, -18.007434145735978 ], [ 26.461745742290137, -18.272183863200983 ], [ 25.952028147689187, -18.05943083396475 ], [ 25.845564304470511, -17.583306794262331 ], [ 26.247640135391755, -17.320616392308001 ], [ 26.758656711732868, -17.531965883378785 ] ] ] ] } },
{ "type": "Feature", "properties": { "geogrid_id": "3017845347025442251", "seqnum": 18677.0, "lat_c": -17.845347141060078, "lon_c": 25.442250995987404, "res": 8.0, "count_Flowering Plants": 294, "count_Amphibians": 14, "count_Mosses": 2, "count_Mammals": 33, "count_Reptiles": 36, "count_Ferns": 4, "count_Arachnids": 38, "count_Birds": 313, "count_Insects": 258, "count_Molluscs": 3, "count_Basidiomycota": 2, "count_Sac Fungi": 0, "count_Gymnosperms": 0, "unique_species_count": 997.0, "countryCode": "ZW" }, "geometry": { "type": "MultiPolygon", "coordinates": [ [ [ [ 25.845564304470511, -17.583306794262331 ], [ 25.952028147689187, -18.05943083396475 ], [ 25.54676847456011, -18.322178937431193 ], [ 25.037646533438696, -18.106728632811333 ], [ 24.932119576005295, -17.630050117803059 ], [ 25.334750084561254, -17.369406033137199 ], [ 25.845564304470511, -17.583306794262331 ] ] ] ] } },
{ "type": "Feature", "properties": { "geogrid_id": "3018066323032468860", "seqnum": 19332.0, "lat_c": -18.066323488776355, "lon_c": 32.468859601852778, "res": 8.0, "count_Flowering Plants": 401, "count_Amphibians": 14, "count_Mosses": 0, "count_Mammals": 12, "count_Reptiles": 21, "count_Ferns": 9, "count_Arachnids": 8, "count_Birds": 110, "count_Insects": 101, "count_Molluscs": 2, "count_Basidiomycota": 10, "count_Sac Fungi": 1, "count_Gymnosperms": 1, "unique_species_count": 690.0, "countryCode": "ZW" }, "geometry": { "type": "MultiPolygon", "coordinates": [ [ [ [ 32.868708700419845, -17.788911916773355 ], [ 32.985731747569602, -18.25864475080008 ], [ 32.584582278162266, -18.536699396717736 ], [ 32.067900244290435, -18.343145517026052 ], [ 31.952927897514801, -17.87226478650744 ], [ 32.352557436552608, -17.596091259299385 ], [ 32.868708700419845, -17.788911916773355 ] ] ] ] } },
{ "type": "Feature", "properties": { "geogrid_id": "3018147847031552193", "seqnum": 19250.0, "lat_c": -18.147846685663282, "lon_c": 31.552193285434111, "res": 8.0, "count_Flowering Plants": 286, "count_Amphibians": 17, "count_Mosses": 1, "count_Mammals": 21, "count_Reptiles": 42, "count_Ferns": 3, "count_Arachnids": 76, "count_Birds": 152, "count_Insects": 478, "count_Molluscs": 5, "count_Basidiomycota": 4, "count_Sac Fungi": 1, "count_Gymnosperms": 0, "unique_species_count": 1086.0, "countryCode": "ZW" }, "geometry": { "type": "MultiPolygon", "coordinates": [ [ [ [ 31.952927897514801, -17.87226478650744 ], [ 32.067900244290435, -18.343145517026052 ], [ 31.665785405375171, -18.61936668358323 ], [ 31.150308325615491, -18.422825971680005 ], [ 31.03736484996227, -17.950843038894661 ], [ 31.437839242003914, -17.676510002932556 ], [ 31.952927897514801, -17.87226478650744 ] ] ] ] } },
{ "type": "Feature", "properties": { "geogrid_id": "3018224572030635747", "seqnum": 19168.0, "lat_c": -18.224571855073705, "lon_c": 30.635746576580619, "res": 8.0, "count_Flowering Plants": 107, "count_Amphibians": 4, "count_Mosses": 0, "count_Mammals": 10, "count_Reptiles": 18, "count_Ferns": 0, "count_Arachnids": 47, "count_Birds": 193, "count_Insects": 61, "count_Molluscs": 0, "count_Basidiomycota": 1, "count_Sac Fungi": 0, "count_Gymnosperms": 0, "unique_species_count": 441.0, "countryCode": "ZW" }, "geometry": { "type": "MultiPolygon", "coordinates": [ [ [ [ 31.03736484996227, -17.950843038894661 ], [ 31.150308325615491, -18.422825971680005 ], [ 30.747226546910436, -18.697191050436789 ], [ 30.232937867372584, -18.49768525060221 ], [ 30.121992791393776, -18.024647397501443 ], [ 30.523306626197027, -17.75217907147201 ], [ 31.03736484996227, -17.950843038894661 ] ] ] ] } },
{ "type": "Feature", "properties": { "geogrid_id": "3018296499029719496", "seqnum": 19086.0, "lat_c": -18.296499224377726, "lon_c": 29.719496426457077, "res": 8.0, "count_Flowering Plants": 15, "count_Amphibians": 1, "count_Mosses": 0, "count_Mammals": 0, "count_Reptiles": 5, "count_Ferns": 0, "count_Arachnids": 0, "count_Birds": 9, "count_Insects": 3, "count_Molluscs": 0, "count_Basidiomycota": 0, "count_Sac Fungi": 0, "count_Gymnosperms": 0, "unique_species_count": 33.0, "countryCode": "ZW" }, "geometry": { "type": "MultiPolygon", "coordinates": [ [ [ [ 30.121992791393776, -18.024647397501443 ], [ 30.232937867372584, -18.49768525060221 ], [ 29.828890818585652, -18.770171362128529 ], [ 29.315769509969577, -18.567723154655351 ], [ 29.206781997673769, -18.093679641007498 ], [ 29.608925683454267, -17.82310095148323 ], [ 30.121992791393776, -18.024647397501443 ] ] ] ] } },
{ "type": "Feature", "properties": { "geogrid_id": "3018363630028803417", "seqnum": 19004.0, "lat_c": -18.363629937762372, "lon_c": 28.803417308209138, "res": 8.0, "count_Flowering Plants": 55, "count_Amphibians": 0, "count_Mosses": 0, "count_Mammals": 0, "count_Reptiles": 0, "count_Ferns": 0, "count_Arachnids": 1, "count_Birds": 1, "count_Insects": 7, "count_Molluscs": 0, "count_Basidiomycota": 0, "count_Sac Fungi": 0, "count_Gymnosperms": 0, "unique_species_count": 64.0, "countryCode": "ZW" }, "geometry": { "type": "MultiPolygon", "coordinates": [ [ [ [ 29.206781997673769, -18.093679641007498 ], [ 29.315769509969577, -18.567723154655351 ], [ 28.910762488728885, -18.838307068594808 ], [ 28.398781906949097, -18.632940276045932 ], [ 28.291698523551567, -18.157942874489081 ], [ 28.694657706193812, -17.88927965467391 ], [ 29.206781997673769, -18.093679641007498 ] ] ] ] } },
{ "type": "Feature", "properties": { "geogrid_id": "3018425966027887480", "seqnum": 18922.0, "lat_c": -18.42596627887691, "lon_c": 27.88748008112201, "res": 8.0, "count_Flowering Plants": 8, "count_Amphibians": 0, "count_Mosses": 0, "count_Mammals": 5, "count_Reptiles": 7, "count_Ferns": 0, "count_Arachnids": 0, "count_Birds": 6, "count_Insects": 2, "count_Molluscs": 0, "count_Basidiomycota": 1, "count_Sac Fungi": 0, "count_Gymnosperms": 0, "unique_species_count": 29.0, "countryCode": "ZW" }, "geometry": { "type": "MultiPolygon", "coordinates": [ [ [ [ 28.291698523551567, -18.157942874489081 ], [ 28.398781906949097, -18.632940276045932 ], [ 27.992824334089633, -18.901598300971013 ], [ 27.481950725091, -18.693338174847643 ], [ 27.37670249382688, -18.217441916287942 ], [ 27.780457323566644, -17.950721173996605 ], [ 28.291698523551567, -18.157942874489081 ] ] ] ] } },
{ "type": "Feature", "properties": { "geogrid_id": "3018483512026971650", "seqnum": 18840.0, "lat_c": -18.483511989753715, "lon_c": 26.971650448985088, "res": 8.0, "count_Flowering Plants": 62, "count_Amphibians": 8, "count_Mosses": 0, "count_Mammals": 34, "count_Reptiles": 26, "count_Ferns": 0, "count_Arachnids": 11, "count_Birds": 160, "count_Insects": 94, "count_Molluscs": 1, "count_Basidiomycota": 1, "count_Sac Fungi": 1, "count_Gymnosperms": 0, "unique_species_count": 398.0, "countryCode": "ZW" }, "geometry": { "type": "MultiPolygon", "coordinates": [ [ [ [ 27.37670249382688, -18.217441916287942 ], [ 27.481950725091, -18.693338174847643 ], [ 27.075056782537871, -18.960046005627269 ], [ 26.565247283375708, -18.748919632741785 ], [ 26.461745742290137, -18.272183863200983 ], [ 26.866269941859759, -18.007434145735978 ], [ 27.37670249382688, -18.217441916287942 ] ] ] ] } },
{ "type": "Feature", "properties": { "geogrid_id": "3018536273026055887", "seqnum": 18758.0, "lat_c": -18.536272739647849, "lon_c": 26.055886820270569, "res": 8.0, "count_Flowering Plants": 102, "count_Amphibians": 12, "count_Mosses": 0, "count_Mammals": 34, "count_Reptiles": 27, "count_Ferns": 0, "count_Arachnids": 21, "count_Birds": 183, "count_Insects": 103, "count_Molluscs": 0, "count_Basidiomycota": 2, "count_Sac Fungi": 0, "count_Gymnosperms": 0, "unique_species_count": 484.0, "countryCode": "ZW" }, "geometry": { "type": "MultiPolygon", "coordinates": [ [ [ [ 26.461745742290137, -18.272183863200983 ], [ 26.565247283375708, -18.748919632741785 ], [ 26.157436743832683, -19.013652137158285 ], [ 25.648636655821605, -18.79968902820977 ], [ 25.54676847456011, -18.322178937431193 ], [ 25.952028147689187, -18.05943083396475 ], [ 26.461745742290137, -18.272183863200983 ] ] ] ] } },
{ "type": "Feature", "properties": { "geogrid_id": "3018584257025140137", "seqnum": 18676.0, "lat_c": -18.584256833175591, "lon_c": 25.140137266168544, "res": 8.0, "count_Flowering Plants": 0, "count_Amphibians": 0, "count_Mosses": 0, "count_Mammals": 0, "count_Reptiles": 0, "count_Ferns": 0, "count_Arachnids": 0, "count_Birds": 0, "count_Insects": 1, "count_Molluscs": 0, "count_Basidiomycota": 0, "count_Sac Fungi": 0, "count_Gymnosperms": 0, "unique_species_count": 1.0, "countryCode": "ZW" }, "geometry": { "type": "MultiPolygon", "coordinates": [ [ [ [ 25.54676847456011, -18.322178937431193 ], [ 25.648636655821605, -18.79968902820977 ], [ 25.239935973936777, -19.062419945127253 ], [ 24.732074959315749, -18.845652907698749 ], [ 24.631694433563695, -18.36744179096068 ], [ 25.037646533438696, -18.106728632811333 ], [ 25.54676847456011, -18.322178937431193 ] ] ] ] } },
{ "type": "Feature", "properties": { "geogrid_id": "3018728472033102326", "seqnum": 19413.0, "lat_c": -18.728471676344068, "lon_c": 33.102325891648022, "res": 8.0, "count_Flowering Plants": 354, "count_Amphibians": 12, "count_Mosses": 0, "count_Mammals": 8, "count_Reptiles": 23, "count_Ferns": 24, "count_Arachnids": 18, "count_Birds": 107, "count_Insects": 155, "count_Molluscs": 2, "count_Basidiomycota": 3, "count_Sac Fungi": 1, "count_Gymnosperms": 3, "unique_species_count": 710.0, "countryCode": "ZW" }, "geometry": { "type": "MultiPolygon", "coordinates": [ [ [ [ 33.503631697447737, -18.449190838837076 ], [ 33.621208957095504, -18.918428504826615 ], [ 33.218615598822261, -19.19833572742003 ], [ 32.699857817848994, -19.007155760225057 ], [ 32.584582278162266, -18.536699396717736 ], [ 32.985731747569602, -18.25864475080008 ], [ 33.503631697447737, -18.449190838837076 ] ] ] ] } },
{ "type": "Feature", "properties": { "geogrid_id": "3018814155032182273", "seqnum": 19331.0, "lat_c": -18.814155122927222, "lon_c": 32.182273392772935, "res": 8.0, "count_Flowering Plants": 146, "count_Amphibians": 11, "count_Mosses": 0, "count_Mammals": 18, "count_Reptiles": 30, "count_Ferns": 5, "count_Arachnids": 6, "count_Birds": 74, "count_Insects": 173, "count_Molluscs": 0, "count_Basidiomycota": 1, "count_Sac Fungi": 0, "count_Gymnosperms": 1, "unique_species_count": 465.0, "countryCode": "ZW" }, "geometry": { "type": "MultiPolygon", "coordinates": [ [ [ [ 32.584582278162266, -18.536699396717736 ], [ 32.699857817848994, -19.007155760225057 ], [ 32.296181372479239, -19.285230596686255 ], [ 31.778758853688096, -19.090999691863832 ], [ 31.665785405375171, -18.61936668358323 ], [ 32.067900244290435, -18.343145517026052 ], [ 32.584582278162266, -18.536699396717736 ] ] ] ] } },
{ "type": "Feature", "properties": { "geogrid_id": "3018894975031262469", "seqnum": 19249.0, "lat_c": -18.894975049727826, "lon_c": 31.262468722532102, "res": 8.0, "count_Flowering Plants": 3, "count_Amphibians": 0, "count_Mosses": 0, "count_Mammals": 5, "count_Reptiles": 4, "count_Ferns": 0, "count_Arachnids": 1, "count_Birds": 0, "count_Insects": 1, "count_Molluscs": 0, "count_Basidiomycota": 0, "count_Sac Fungi": 0, "count_Gymnosperms": 0, "unique_species_count": 14.0, "countryCode": "ZW" }, "geometry": { "type": "MultiPolygon", "coordinates": [ [ [ [ 31.665785405375171, -18.61936668358323 ], [ 31.778758853688096, -19.090999691863832 ], [ 31.373991264877247, -19.367220172576765 ], [ 30.857902615115851, -19.169957988917258 ], [ 30.747226546910436, -18.697191050436789 ], [ 31.150308325615491, -18.422825971680005 ], [ 31.665785405375171, -18.61936668358323 ] ] ] ] } },
{ "type": "Feature", "properties": { "geogrid_id": "3018970930030342900", "seqnum": 19167.0, "lat_c": -18.970929650006447, "lon_c": 30.342900196396904, "res": 8.0, "count_Flowering Plants": 10, "count_Amphibians": 0, "count_Mosses": 0, "count_Mammals": 4, "count_Reptiles": 5, "count_Ferns": 0, "count_Arachnids": 0, "count_Birds": 21, "count_Insects": 2, "count_Molluscs": 0, "count_Basidiomycota": 0, "count_Sac Fungi": 0, "count_Gymnosperms": 0, "unique_species_count": 42.0, "countryCode": "ZW" }, "geometry": { "type": "MultiPolygon", "coordinates": [ [ [ [ 30.747226546910436, -18.697191050436789 ], [ 30.857902615115851, -19.169957988917258 ], [ 30.452038201079269, -19.444302111183966 ], [ 29.937280147669732, -19.244028742701964 ], [ 29.828890818585652, -18.770171362128529 ], [ 30.232937867372584, -18.49768525060221 ], [ 30.747226546910436, -18.697191050436789 ] ] ] ] } },
{ "type": "Feature", "properties": { "geogrid_id": "3019042018029423556", "seqnum": 19085.0, "lat_c": -19.042017583877985, "lon_c": 29.423556076102052, "res": 8.0, "count_Flowering Plants": 40, "count_Amphibians": 2, "count_Mosses": 0, "count_Mammals": 13, "count_Reptiles": 35, "count_Ferns": 0, "count_Arachnids": 4, "count_Birds": 10, "count_Insects": 28, "count_Molluscs": 8, "count_Basidiomycota": 0, "count_Sac Fungi": 1, "count_Gymnosperms": 0, "unique_species_count": 141.0, "countryCode": "ZW" }, "geometry": { "type": "MultiPolygon", "coordinates": [ [ [ [ 29.828890818585652, -18.770171362128529 ], [ 29.937280147669732, -19.244028742701964 ], [ 29.530315802218041, -19.516474456542152 ], [ 29.01688272622081, -19.313210476343578 ], [ 28.910762488728885, -18.838307068594808 ], [ 29.315769509969577, -18.567723154655351 ], [ 29.828890818585652, -18.770171362128529 ] ] ] ] } },
{ "type": "Feature", "properties": { "geogrid_id": "3019108238028504424", "seqnum": 19003.0, "lat_c": -19.108238030597995, "lon_c": 28.504424156610074, "res": 8.0, "count_Flowering Plants": 12, "count_Amphibians": 0, "count_Mosses": 0, "count_Mammals": 1, "count_Reptiles": 0, "count_Ferns": 0, "count_Arachnids": 0, "count_Birds": 2, "count_Insects": 0, "count_Molluscs": 0, "count_Basidiomycota": 0, "count_Sac Fungi": 0, "count_Gymnosperms": 0, "unique_species_count": 15.0, "countryCode": "ZW" }, "geometry": { "type": "MultiPolygon", "coordinates": [ [ [ [ 28.910762488728889, -18.838307068594808 ], [ 29.01688272622081, -19.313210476343578 ], [ 28.608818177611884, -19.583735661770774 ], [ 28.096701522982734, -19.377502181424596 ], [ 27.992824334089633, -18.901598300971013 ], [ 28.398781906949097, -18.632940276045932 ], [ 28.910762488728889, -18.838307068594808 ] ] ] ] } },
{ "type": "Feature", "properties": { "geogrid_id": "3019169591027585491", "seqnum": 18921.0, "lat_c": -19.169590758163238, "lon_c": 27.585491231259454, "res": 8.0, "count_Flowering Plants": 41, "count_Amphibians": 3, "count_Mosses": 0, "count_Mammals": 11, "count_Reptiles": 15, "count_Ferns": 0, "count_Arachnids": 4, "count_Birds": 76, "count_Insects": 11, "count_Molluscs": 0, "count_Basidiomycota": 1, "count_Sac Fungi": 1, "count_Gymnosperms": 0, "unique_species_count": 163.0, "countryCode": "ZW" }, "geometry": { "type": "MultiPolygon", "coordinates": [ [ [ [ 27.992824334089633, -18.901598300971013 ], [ 28.096701522982734, -19.377502181424596 ], [ 27.687539669706151, -19.646084613751423 ], [ 27.176727181020549, -19.436903365491304 ], [ 27.075056782537871, -18.960046005627269 ], [ 27.481950725091, -18.693338174847643 ], [ 27.992824334089633, -18.901598300971013 ] ] ] ] } },
{ "type": "Feature", "properties": { "geogrid_id": "3019226076026666742", "seqnum": 18839.0, "lat_c": -19.226076219659653, "lon_c": 26.666742381087623, "res": 8.0, "count_Flowering Plants": 18, "count_Amphibians": 3, "count_Mosses": 0, "count_Mammals": 23, "count_Reptiles": 10, "count_Ferns": 0, "count_Arachnids": 10, "count_Birds": 178, "count_Insects": 26, "count_Molluscs": 0, "count_Basidiomycota": 0, "count_Sac Fungi": 0, "count_Gymnosperms": 0, "unique_species_count": 268.0, "countryCode": "ZW" }, "geometry": { "type": "MultiPolygon", "coordinates": [ [ [ [ 27.075056782537871, -18.960046005627269 ], [ 27.176727181020549, -19.436903365491304 ], [ 26.766474531375017, -19.703520663544921 ], [ 26.256949250517927, -19.491414116647263 ], [ 26.157436743832683, -19.013652137158285 ], [ 26.565247283375708, -18.748919632741785 ], [ 27.075056782537871, -18.960046005627269 ] ] ] ] } },
{ "type": "Feature", "properties": { "geogrid_id": "3019477636032814812", "seqnum": 19412.0, "lat_c": -19.477635899830194, "lon_c": 32.814812136635915, "res": 8.0, "count_Flowering Plants": 703, "count_Amphibians": 25, "count_Mosses": 4, "count_Mammals": 13, "count_Reptiles": 49, "count_Ferns": 35, "count_Arachnids": 70, "count_Birds": 135, "count_Insects": 368, "count_Molluscs": 7, "count_Basidiomycota": 23, "count_Sac Fungi": 1, "count_Gymnosperms": 2, "unique_species_count": 1435.0, "countryCode": "ZW" }, "geometry": { "type": "MultiPolygon", "coordinates": [ [ [ [ 33.218615598822261, -19.19833572742003 ], [ 33.334719628652628, -19.6681857307487 ], [ 32.929565254467057, -19.948089047026077 ], [ 32.409751554277001, -19.756315617405491 ], [ 32.296181372479239, -19.285230596686255 ], [ 32.699857817848994, -19.007155760225057 ], [ 33.218615598822261, -19.19833572742003 ] ] ] ] } },
{ "type": "Feature", "properties": { "geogrid_id": "3019562683031891249", "seqnum": 19330.0, "lat_c": -19.562682996690953, "lon_c": 31.891249349430606, "res": 8.0, "count_Flowering Plants": 4, "count_Amphibians": 1, "count_Mosses": 0, "count_Mammals": 0, "count_Reptiles": 2, "count_Ferns": 0, "count_Arachnids": 1, "count_Birds": 4, "count_Insects": 0, "count_Molluscs": 0, "count_Basidiomycota": 0, "count_Sac Fungi": 0, "count_Gymnosperms": 0, "unique_species_count": 12.0, "countryCode": "ZW" }, "geometry": { "type": "MultiPolygon", "coordinates": [ [ [ [ 32.296181372479239, -19.285230596686255 ], [ 32.409751554277001, -19.756315617405491 ], [ 32.003385721498766, -20.034360713990981 ], [ 31.485013370828849, -19.839499005686378 ], [ 31.373991264877247, -19.367220172576765 ], [ 31.778758853688096, -19.090999691863832 ], [ 32.296181372479239, -19.285230596686255 ] ] ] ] } },
{ "type": "Feature", "properties": { "geogrid_id": "3019642803030967922", "seqnum": 19248.0, "lat_c": -19.642802867718977, "lon_c": 30.967921996124176, "res": 8.0, "count_Flowering Plants": 27, "count_Amphibians": 1, "count_Mosses": 0, "count_Mammals": 4, "count_Reptiles": 0, "count_Ferns": 1, "count_Arachnids": 0, "count_Birds": 66, "count_Insects": 2, "count_Molluscs": 0, "count_Basidiomycota": 0, "count_Sac Fungi": 0, "count_Gymnosperms": 0, "unique_species_count": 101.0, "countryCode": "ZW" }, "geometry": { "type": "MultiPolygon", "coordinates": [ [ [ [ 31.373991264877247, -19.367220172576765 ], [ 31.485013370828849, -19.839499005686378 ], [ 31.077423813506726, -20.115663824943109 ], [ 30.560501102128971, -19.917733231456886 ], [ 30.452038201079269, -19.444302111183966 ], [ 30.857902615115851, -19.169957988917258 ], [ 31.373991264877247, -19.367220172576765 ] ] ] ] } },
{ "type": "Feature", "properties": { "geogrid_id": "3019717993030044825", "seqnum": 19166.0, "lat_c": -19.717993177719396, "lon_c": 30.044825207749302, "res": 8.0, "count_Flowering Plants": 35, "count_Amphibians": 6, "count_Mosses": 0, "count_Mammals": 5, "count_Reptiles": 12, "count_Ferns": 0, "count_Arachnids": 0, "count_Birds": 23, "count_Insects": 17, "count_Molluscs": 0, "count_Basidiomycota": 0, "count_Sac Fungi": 0, "count_Gymnosperms": 0, "unique_species_count": 98.0, "countryCode": "ZW" }, "geometry": { "type": "MultiPolygon", "coordinates": [ [ [ [ 30.452038201079269, -19.444302111183966 ], [ 30.560501102128971, -19.917733231456886 ], [ 30.151677236240754, -20.191995777005427 ], [ 29.63621187627411, -19.991016004188737 ], [ 29.530315802218041, -19.516474456542152 ], [ 29.937280147669732, -19.244028742701964 ], [ 30.452038201079269, -19.444302111183966 ] ] ] ] } },
{ "type": "Feature", "properties": { "geogrid_id": "3019788252029121955", "seqnum": 19084.0, "lat_c": -19.788251974500767, "lon_c": 29.121954983332905, "res": 8.0, "count_Flowering Plants": 142, "count_Amphibians": 10, "count_Mosses": 0, "count_Mammals": 9, "count_Reptiles": 13, "count_Ferns": 1, "count_Arachnids": 40, "count_Birds": 60, "count_Insects": 190, "count_Molluscs": 1, "count_Basidiomycota": 14, "count_Sac Fungi": 0, "count_Gymnosperms": 0, "unique_species_count": 480.0, "countryCode": "ZW" }, "geometry": { "type": "MultiPolygon", "coordinates": [ [ [ [ 29.530315802218041, -19.516474456542152 ], [ 29.63621187627411, -19.991016004188737 ], [ 29.226144859286808, -20.263354351081787 ], [ 28.712143821956655, -20.059345419623579 ], [ 28.608818177611884, -19.583735661770774 ], [ 29.01688272622081, -19.313210476343578 ], [ 29.530315802218041, -19.516474456542152 ] ] ] ] } },
{ "type": "Feature", "properties": { "geogrid_id": "3019853578028199308", "seqnum": 19002.0, "lat_c": -19.853577704273572, "lon_c": 28.199308033683224, "res": 8.0, "count_Flowering Plants": 200, "count_Amphibians": 2, "count_Mosses": 0, "count_Mammals": 10, "count_Reptiles": 14, "count_Ferns": 1, "count_Arachnids": 13, "count_Birds": 84, "count_Insects": 122, "count_Molluscs": 1, "count_Basidiomycota": 3, "count_Sac Fungi": 1, "count_Gymnosperms": 0, "unique_species_count": 451.0, "countryCode": "ZW" }, "geometry": { "type": "MultiPolygon", "coordinates": [ [ [ [ 28.608818177611884, -19.583735661770774 ], [ 28.712143821956655, -20.059345419623579 ], [ 28.300826633856857, -20.32973772376566 ], [ 27.788295954553373, -20.12271997202679 ], [ 27.687539669706151, -19.646084613751423 ], [ 28.096701522982734, -19.377502181424596 ], [ 28.608818177611884, -19.583735661770774 ] ] ] ] } },
{ "type": "Feature", "properties": { "geogrid_id": "3019913969027276882", "seqnum": 18920.0, "lat_c": -19.913969228174484, "lon_c": 27.276881595649961, "res": 8.0, "count_Flowering Plants": 4, "count_Amphibians": 0, "count_Mosses": 0, "count_Mammals": 0, "count_Reptiles": 0, "count_Ferns": 0, "count_Arachnids": 0, "count_Birds": 3, "count_Insects": 1, "count_Molluscs": 0, "count_Basidiomycota": 0, "count_Sac Fungi": 0, "count_Gymnosperms": 0, "unique_species_count": 8.0, "countryCode": "ZW" }, "geometry": { "type": "MultiPolygon", "coordinates": [ [ [ [ 27.687539669706151, -19.646084613751423 ], [ 27.788295954553373, -20.12271997202679 ], [ 27.375723507777959, -20.39114447850946 ], [ 26.864668047612817, -20.18113856619469 ], [ 26.766474531375017, -19.703520663544921 ], [ 27.176727181020549, -19.436903365491304 ], [ 27.687539669706151, -19.646084613751423 ] ] ] ] } },
{ "type": "Feature", "properties": { "geogrid_id": "3019969426026354673", "seqnum": 18838.0, "lat_c": -19.969425840911775, "lon_c": 26.354673203790821, "res": 8.0, "count_Flowering Plants": 3, "count_Amphibians": 0, "count_Mosses": 0, "count_Mammals": 0, "count_Reptiles": 1, "count_Ferns": 0, "count_Arachnids": 0, "count_Birds": 0, "count_Insects": 1, "count_Molluscs": 0, "count_Basidiomycota": 0, "count_Sac Fungi": 0, "count_Gymnosperms": 0, "unique_species_count": 5.0, "countryCode": "ZW" }, "geometry": { "type": "MultiPolygon", "coordinates": [ [ [ [ 26.766474531375017, -19.703520663544921 ], [ 26.864668047612817, -20.18113856619469 ], [ 26.450837336441673, -20.447573616050374 ], [ 25.941260483140823, -20.234600529492667 ], [ 25.84561650436352, -19.756043666136279 ], [ 26.256949250517927, -19.491414116647263 ], [ 26.766474531375017, -19.703520663544921 ] ] ] ] } },
{ "type": "Feature", "properties": { "geogrid_id": "3020137976033450752", "seqnum": 19493.0, "lat_c": -20.13797575543326, "lon_c": 33.450751513747278, "res": 8.0, "count_Flowering Plants": 9, "count_Amphibians": 1, "count_Mosses": 0, "count_Mammals": 0, "count_Reptiles": 2, "count_Ferns": 1, "count_Arachnids": 0, "count_Birds": 4, "count_Insects": 4, "count_Molluscs": 0, "count_Basidiomycota": 0, "count_Sac Fungi": 0, "count_Gymnosperms": 0, "unique_species_count": 21.0, "countryCode": "ZW" }, "geometry": { "type": "MultiPolygon", "coordinates": [ [ [ [ 33.855965950746587, -19.856851798066867 ], [ 33.973365915397984, -20.32594935342302 ], [ 33.566820004951495, -20.607664614532307 ], [ 33.044231796300842, -20.418469772852067 ], [ 32.929565254467057, -19.948089047026077 ], [ 33.334719628652628, -19.6681857307487 ], [ 33.855965950746587, -19.856851798066867 ] ] ] ] } },
{ "type": "Feature", "properties": { "geogrid_id": "3020227360032523105", "seqnum": 19411.0, "lat_c": -20.227359892805062, "lon_c": 32.523105216335779, "res": 8.0, "count_Flowering Plants": 309, "count_Amphibians": 16, "count_Mosses": 0, "count_Mammals": 24, "count_Reptiles": 24, "count_Ferns": 25, "count_Arachnids": 18, "count_Birds": 166, "count_Insects": 174, "count_Molluscs": 2, "count_Basidiomycota": 4, "count_Sac Fungi": 2, "count_Gymnosperms": 0, "unique_species_count": 764.0, "countryCode": "ZW" }, "geometry": { "type": "MultiPolygon", "coordinates": [ [ [ [ 32.929565254467057, -19.948089047026077 ], [ 33.044231796300842, -20.418469772852067 ], [ 32.636358067286871, -20.698318565944881 ], [ 32.115290501193343, -20.505983104865315 ], [ 32.003385721498766, -20.034360713990981 ], [ 32.409751554277001, -19.756315617405491 ], [ 32.929565254467057, -19.948089047026077 ] ] ] ] } },
{ "type": "Feature", "properties": { "geogrid_id": "3020311756031595665", "seqnum": 19329.0, "lat_c": -20.311756186724025, "lon_c": 31.59566532706415, "res": 8.0, "count_Flowering Plants": 38, "count_Amphibians": 2, "count_Mosses": 0, "count_Mammals": 3, "count_Reptiles": 3, "count_Ferns": 1, "count_Arachnids": 7, "count_Birds": 40, "count_Insects": 9, "count_Molluscs": 0, "count_Basidiomycota": 0, "count_Sac Fungi": 0, "count_Gymnosperms": 0, "unique_species_count": 103.0, "countryCode": "ZW" }, "geometry": { "type": "MultiPolygon", "coordinates": [ [ [ [ 32.003385721498766, -20.034360713990981 ], [ 32.115290501193343, -20.505983104865315 ], [ 31.706070909572787, -20.783942613415537 ], [ 31.186539807862907, -20.58848611206766 ], [ 31.077423813506726, -20.115663824943109 ], [ 31.485013370828849, -19.839499005686378 ], [ 32.003385721498766, -20.034360713990981 ] ] ] ] } },
{ "type": "Feature", "properties": { "geogrid_id": "3020391162030668430", "seqnum": 19247.0, "lat_c": -20.391161723356241, "lon_c": 30.66842973091579, "res": 8.0, "count_Flowering Plants": 302, "count_Amphibians": 6, "count_Mosses": 0, "count_Mammals": 12, "count_Reptiles": 16, "count_Ferns": 17, "count_Arachnids": 20, "count_Birds": 154, "count_Insects": 118, "count_Molluscs": 0, "count_Basidiomycota": 6, "count_Sac Fungi": 0, "count_Gymnosperms": 0, "unique_species_count": 651.0, "countryCode": "ZW" }, "geometry": { "type": "MultiPolygon", "coordinates": [ [ [ [ 31.077423813506726, -20.115663824943109 ], [ 31.186539807862907, -20.58848611206766 ], [ 30.775957273947974, -20.86453355190822 ], [ 30.257978770210627, -20.665975938382463 ], [ 30.151677236240754, -20.191995777005427 ], [ 30.560501102128971, -19.917733231456886 ], [ 31.077423813506726, -20.115663824943109 ] ] ] ] } },
{ "type": "Feature", "properties": { "geogrid_id": "3020465574029741398", "seqnum": 19165.0, "lat_c": -20.465573972289775, "lon_c": 29.741397558471913, "res": 8.0, "count_Flowering Plants": 85, "count_Amphibians": 0, "count_Mosses": 0, "count_Mammals": 1, "count_Reptiles": 2, "count_Ferns": 0, "count_Arachnids": 2, "count_Birds": 0, "count_Insects": 7, "count_Molluscs": 0, "count_Basidiomycota": 1, "count_Sac Fungi": 0, "count_Gymnosperms": 0, "unique_species_count": 98.0, "countryCode": "ZW" }, "geometry": { "type": "MultiPolygon", "coordinates": [ [ [ [ 30.151677236240754, -20.191995777005427 ], [ 30.257978770210627, -20.665975938382463 ], [ 29.846017084241058, -20.940088564583114 ], [ 29.329607637439828, -20.738450121995101 ], [ 29.226144859286808, -20.263354351081787 ], [ 29.63621187627411, -19.991016004188737 ], [ 30.151677236240754, -20.191995777005427 ] ] ] ] } },
{ "type": "Feature", "properties": { "geogrid_id": "3020534991028814569", "seqnum": 19083.0, "lat_c": -20.534990799123282, "lon_c": 28.814569111316764, "res": 8.0, "count_Flowering Plants": 572, "count_Amphibians": 25, "count_Mosses": 6, "count_Mammals": 32, "count_Reptiles": 50, "count_Ferns": 8, "count_Arachnids": 114, "count_Birds": 220, "count_Insects": 1017, "count_Molluscs": 6, "count_Basidiomycota": 16, "count_Sac Fungi": 1, "count_Gymnosperms": 0, "unique_species_count": 2067.0, "countryCode": "ZW" }, "geometry": { "type": "MultiPolygon", "coordinates": [ [ [ [ 29.226144859286808, -20.263354351081787 ], [ 29.329607637439828, -20.738450121995101 ], [ 28.916251345883556, -21.010605233983675 ], [ 28.401427771470885, -20.805906607431769 ], [ 28.300826633856857, -20.32973772376566 ], [ 28.712143821956655, -20.059345419623579 ], [ 29.226144859286808, -20.263354351081787 ] ] ] ] } },
{ "type": "Feature", "properties": { "geogrid_id": "3020599410027887946", "seqnum": 19001.0, "lat_c": -20.599410477304787, "lon_c": 27.887945787484846, "res": 8.0, "count_Flowering Plants": 70, "count_Amphibians": 0, "count_Mosses": 0, "count_Mammals": 0, "count_Reptiles": 7, "count_Ferns": 1, "count_Arachnids": 4, "count_Birds": 7, "count_Insects": 5, "count_Molluscs": 1, "count_Basidiomycota": 0, "count_Sac Fungi": 0, "count_Gymnosperms": 0, "unique_species_count": 95.0, "countryCode": "ZW" }, "geometry": { "type": "MultiPolygon", "coordinates": [ [ [ [ 28.300826633856857, -20.32973772376566 ], [ 28.401427771470885, -20.805906607431769 ], [ 27.986662037907788, -21.076081551720019 ], [ 27.473441561864185, -20.868343756713948 ], [ 27.375723507777959, -20.39114447850946 ], [ 27.788295954553373, -20.12271997202679 ], [ 28.300826633856857, -20.32973772376566 ] ] ] ] } },
{ "type": "Feature", "properties": { "geogrid_id": "3020658832026961530", "seqnum": 18919.0, "lat_c": -20.658831699208083, "lon_c": 26.961530006941473, "res": 8.0, "count_Flowering Plants": 1, "count_Amphibians": 0, "count_Mosses": 0, "count_Mammals": 0, "count_Reptiles": 0, "count_Ferns": 0, "count_Arachnids": 0, "count_Birds": 0, "count_Insects": 0, "count_Molluscs": 0, "count_Basidiomycota": 0, "count_Sac Fungi": 0, "count_Gymnosperms": 0, "unique_species_count": 1.0, "countryCode": "ZW" }, "geometry": { "type": "MultiPolygon", "coordinates": [ [ [ [ 27.375723507777959, -20.39114447850946 ], [ 27.473441561864185, -20.868343756713948 ], [ 27.057251993852606, -21.136515926309194 ], [ 26.545652337200877, -20.925760359505777 ], [ 26.450837336441673, -20.447573616050374 ], [ 26.864668047612817, -20.18113856619469 ], [ 27.375723507777959, -20.39114447850946 ] ] ] ] } },
{ "type": "Feature", "properties": { "geogrid_id": "3020977506032227080", "seqnum": 19410.0, "lat_c": -20.977505959674559, "lon_c": 32.227080469050918, "res": 8.0, "count_Flowering Plants": 262, "count_Amphibians": 23, "count_Mosses": 0, "count_Mammals": 31, "count_Reptiles": 54, "count_Ferns": 0, "count_Arachnids": 38, "count_Birds": 225, "count_Insects": 546, "count_Molluscs": 5, "count_Basidiomycota": 3, "count_Sac Fungi": 0, "count_Gymnosperms": 0, "unique_species_count": 1187.0, "countryCode": "ZW" }, "geometry": { "type": "MultiPolygon", "coordinates": [ [ [ [ 32.636358067286871, -20.698318565944881 ], [ 32.749620730255003, -21.16915168002032 ], [ 32.338867159932143, -21.448890043576096 ], [ 31.816347955544941, -21.256014804220968 ], [ 31.706070909572787, -20.783942613415537 ], [ 32.115290501193343, -20.505983104865315 ], [ 32.636358067286871, -20.698318565944881 ] ] ] ] } },
{ "type": "Feature", "properties": { "geogrid_id": "3021061221031295395", "seqnum": 19328.0, "lat_c": -21.061221353182493, "lon_c": 31.295394987619186, "res": 8.0, "count_Flowering Plants": 63, "count_Amphibians": 5, "count_Mosses": 0, "count_Mammals": 3, "count_Reptiles": 15, "count_Ferns": 2, "count_Arachnids": 5, "count_Birds": 100, "count_Insects": 103, "count_Molluscs": 1, "count_Basidiomycota": 0, "count_Sac Fungi": 0, "count_Gymnosperms": 0, "unique_species_count": 297.0, "countryCode": "ZW" }, "geometry": { "type": "MultiPolygon", "coordinates": [ [ [ [ 31.706070909572787, -20.783942613415537 ], [ 31.816347955544941, -21.256014804220968 ], [ 31.404108227444596, -21.53382688149722 ], [ 30.883209955509521, -21.337801164225954 ], [ 30.775957273947974, -20.86453355190822 ], [ 31.186539807862907, -20.58848611206766 ], [ 31.706070909572787, -20.783942613415537 ] ] ] ] } },
{ "type": "Feature", "properties": { "geogrid_id": "3021139880030363864", "seqnum": 19246.0, "lat_c": -21.139880448369688, "lon_c": 30.363864429296438, "res": 8.0, "count_Flowering Plants": 100, "count_Amphibians": 11, "count_Mosses": 0, "count_Mammals": 5, "count_Reptiles": 16, "count_Ferns": 0, "count_Arachnids": 12, "count_Birds": 53, "count_Insects": 77, "count_Molluscs": 1, "count_Basidiomycota": 1, "count_Sac Fungi": 0, "count_Gymnosperms": 0, "unique_species_count": 276.0, "countryCode": "ZW" }, "geometry": { "type": "MultiPolygon", "coordinates": [ [ [ [ 30.775957273947974, -20.86453355190822 ], [ 30.883209955509521, -21.337801164225954 ], [ 30.469461632153838, -21.613662681118978 ], [ 29.950206488113022, -21.414507505794578 ], [ 29.846017084241058, -20.940088564583114 ], [ 30.257978770210627, -20.665975938382463 ], [ 30.775957273947974, -20.86453355190822 ] ] ] ] } },
{ "type": "Feature", "properties": { "geogrid_id": "3021213480029432489", "seqnum": 19164.0, "lat_c": -21.213480428004537, "lon_c": 29.432489238196084, "res": 8.0, "count_Flowering Plants": 65, "count_Amphibians": 2, "count_Mosses": 0, "count_Mammals": 7, "count_Reptiles": 6, "count_Ferns": 0, "count_Arachnids": 4, "count_Birds": 42, "count_Insects": 11, "count_Molluscs": 1, "count_Basidiomycota": 1, "count_Sac Fungi": 0, "count_Gymnosperms": 0, "unique_species_count": 139.0, "countryCode": "ZW" }, "geometry": { "type": "MultiPolygon", "coordinates": [ [ [ [ 29.846017084241058, -20.940088564583114 ], [ 29.950206488113022, -21.414507505794578 ], [ 29.53492708651379, -21.68839405810516 ], [ 29.017338110659527, -21.486130944346957 ], [ 28.916251345883556, -21.010605233983675 ], [ 29.329607637439828, -20.738450121995101 ], [ 29.846017084241058, -20.940088564583114 ] ] ] ] } },
{ "type": "Feature", "properties": { "geogrid_id": "3021282019028501271", "seqnum": 19082.0, "lat_c": -21.282018867725984, "lon_c": 28.501270749413052, "res": 8.0, "count_Flowering Plants": 2, "count_Amphibians": 0, "count_Mosses": 0, "count_Mammals": 1, "count_Reptiles": 3, "count_Ferns": 0, "count_Arachnids": 0, "count_Birds": 10, "count_Insects": 2, "count_Molluscs": 0, "count_Basidiomycota": 0, "count_Sac Fungi": 0, "count_Gymnosperms": 0, "unique_species_count": 18.0, "countryCode": "ZW" }, "geometry": { "type": "MultiPolygon", "coordinates": [ [ [ [ 28.916251345883556, -21.010605233983675 ], [ 29.017338110659527, -21.486130944346957 ], [ 28.60050478886453, -21.758017958544634 ], [ 28.084605988170544, -21.552668961999359 ], [ 27.986662037907788, -21.076081551720019 ], [ 28.401427771470885, -20.805906607431769 ], [ 28.916251345883556, -21.010605233983675 ] ] ] ] } },
{ "type": "Feature", "properties": { "geogrid_id": "3021345494027570211", "seqnum": 19000.0, "lat_c": -21.345493739358623, "lon_c": 27.570211033640511, "res": 8.0, "count_Flowering Plants": 0, "count_Amphibians": 0, "count_Mosses": 0, "count_Mammals": 0, "count_Reptiles": 0, "count_Ferns": 0, "count_Arachnids": 0, "count_Birds": 1, "count_Insects": 0, "count_Molluscs": 0, "count_Basidiomycota": 0, "count_Sac Fungi": 0, "count_Gymnosperms": 0, "unique_species_count": 1.0, "countryCode": "ZW" }, "geometry": { "type": "MultiPolygon", "coordinates": [ [ [ [ 27.986662037907788, -21.076081551720019 ], [ 28.084605988170544, -21.552668961999359 ], [ 27.666195151121119, -21.822531638642438 ], [ 27.152011663233509, -21.614119397562565 ], [ 27.057251993852606, -21.136515926309194 ], [ 27.473441561864185, -20.868343756713948 ], [ 27.986662037907788, -21.076081551720019 ] ] ] ] } },
{ "type": "Feature", "properties": { "geogrid_id": "3021727934031926609", "seqnum": 19409.0, "lat_c": -21.72793432405205, "lon_c": 31.9266088906904, "res": 8.0, "count_Flowering Plants": 116, "count_Amphibians": 7, "count_Mosses": 0, "count_Mammals": 15, "count_Reptiles": 16, "count_Ferns": 0, "count_Arachnids": 9, "count_Birds": 87, "count_Insects": 29, "count_Molluscs": 0, "count_Basidiomycota": 0, "count_Sac Fungi": 0, "count_Gymnosperms": 0, "unique_species_count": 279.0, "countryCode": "ZW" }, "geometry": { "type": "MultiPolygon", "coordinates": [ [ [ [ 32.338867159932143, -21.448890043576096 ], [ 32.450757330033881, -21.920100597088886 ], [ 32.036961215979176, -22.19966726809875 ], [ 31.512792819041209, -22.006265144698748 ], [ 31.404108227444596, -21.53382688149722 ], [ 31.816347955544941, -21.256014804220968 ], [ 32.338867159932143, -21.448890043576096 ] ] ] ] } },
{ "type": "Feature", "properties": { "geogrid_id": "3021810923030990308", "seqnum": 19327.0, "lat_c": -21.810922801110255, "lon_c": 30.990307664162046, "res": 8.0, "count_Flowering Plants": 36, "count_Amphibians": 4, "count_Mosses": 0, "count_Mammals": 7, "count_Reptiles": 13, "count_Ferns": 0, "count_Arachnids": 11, "count_Birds": 53, "count_Insects": 49, "count_Molluscs": 1, "count_Basidiomycota": 0, "count_Sac Fungi": 0, "count_Gymnosperms": 0, "unique_species_count": 174.0, "countryCode": "ZW" }, "geometry": { "type": "MultiPolygon", "coordinates": [ [ [ [ 31.404108227444596, -21.53382688149722 ], [ 31.512792819041209, -22.006265144698748 ], [ 31.097364528315488, -22.283861881538712 ], [ 30.57489125269581, -22.087281884400142 ], [ 30.469461632153838, -21.613662681118978 ], [ 30.883209955509521, -21.337801164225954 ], [ 31.404108227444596, -21.53382688149722 ] ] ] ] } },
{ "type": "Feature", "properties": { "geogrid_id": "3021888785030054094", "seqnum": 19245.0, "lat_c": -21.888785208933189, "lon_c": 30.054094356074458, "res": 8.0, "count_Flowering Plants": 15, "count_Amphibians": 0, "count_Mosses": 0, "count_Mammals": 7, "count_Reptiles": 7, "count_Ferns": 0, "count_Arachnids": 2, "count_Birds": 11, "count_Insects": 14, "count_Molluscs": 0, "count_Basidiomycota": 0, "count_Sac Fungi": 0, "count_Gymnosperms": 0, "unique_species_count": 56.0, "countryCode": "ZW" }, "geometry": { "type": "MultiPolygon", "coordinates": [ [ [ [ 30.469461632153838, -21.613662681118978 ], [ 30.57489125269581, -22.087281884400142 ], [ 30.157802513289678, -22.362882034996556 ], [ 29.637050902390708, -22.163146584236706 ], [ 29.53492708651379, -21.68839405810516 ], [ 29.950206488113022, -21.414507505794578 ], [ 30.469461632153838, -21.613662681118978 ] ] ] ] } },
{ "type": "Feature", "properties": { "geogrid_id": "3021961518029117968", "seqnum": 19163.0, "lat_c": -21.961517919482848, "lon_c": 29.117968189457617, "res": 8.0, "count_Flowering Plants": 76, "count_Amphibians": 1, "count_Mosses": 0, "count_Mammals": 0, "count_Reptiles": 3, "count_Ferns": 0, "count_Arachnids": 1, "count_Birds": 8, "count_Insects": 5, "count_Molluscs": 0, "count_Basidiomycota": 0, "count_Sac Fungi": 0, "count_Gymnosperms": 0, "unique_species_count": 94.0, "countryCode": "ZW" }, "geometry": { "type": "MultiPolygon", "coordinates": [ [ [ [ 29.53492708651379, -21.68839405810516 ], [ 29.637050902390708, -22.163146584236706 ], [ 29.218272395878717, -22.436723019042102 ], [ 28.699269992835518, -22.23385521598113 ], [ 28.60050478886453, -21.758017958544634 ], [ 29.017338110659527, -21.486130944346957 ], [ 29.53492708651379, -21.68839405810516 ] ] ] ] } },
{ "type": "Feature", "properties": { "geogrid_id": "3022478503031621557", "seqnum": 19408.0, "lat_c": -22.478503171676053, "lon_c": 31.621556978657225, "res": 8.0, "count_Flowering Plants": 16, "count_Amphibians": 0, "count_Mosses": 0, "count_Mammals": 0, "count_Reptiles": 0, "count_Ferns": 0, "count_Arachnids": 4, "count_Birds": 9, "count_Insects": 6, "count_Molluscs": 0, "count_Basidiomycota": 1, "count_Sac Fungi": 0, "count_Gymnosperms": 0, "unique_species_count": 36.0, "countryCode": "ZW" }, "geometry": { "type": "MultiPolygon", "coordinates": [ [ [ [ 32.036961215979176, -22.19966726809875 ], [ 32.147507957455836, -22.671183797589809 ], [ 31.73050431529111, -22.950512093964537 ], [ 31.204489445609465, -22.756586451963564 ], [ 31.097364528315488, -22.283861881538712 ], [ 31.512792819041209, -22.006265144698748 ], [ 32.036961215979176, -22.19966726809875 ] ] ] ] } },
{ "type": "Feature", "properties": { "geogrid_id": "3022560703030680268", "seqnum": 19326.0, "lat_c": -22.560702542754779, "lon_c": 30.680268221822441, "res": 8.0, "count_Flowering Plants": 10, "count_Amphibians": 0, "count_Mosses": 0, "count_Mammals": 0, "count_Reptiles": 0, "count_Ferns": 0, "count_Arachnids": 0, "count_Birds": 0, "count_Insects": 0, "count_Molluscs": 0, "count_Basidiomycota": 0, "count_Sac Fungi": 0, "count_Gymnosperms": 0, "unique_species_count": 10.0, "countryCode": "ZW" }, "geometry": { "type": "MultiPolygon", "coordinates": [ [ [ [ 31.097364528315488, -22.283861881538712 ], [ 31.204489445609465, -22.756586451963564 ], [ 30.785702079818581, -23.033893809090625 ], [ 30.261446653439446, -22.836763634376837 ], [ 30.157802513289678, -22.362882034996556 ], [ 30.57489125269581, -22.087281884400142 ], [ 31.097364528315488, -22.283861881538712 ] ] ] ] } }
]
}
